{"type":"FeatureCollection","features":[{"type":"Feature","geometry":{"type":"Point","coordinates":[-71.063969,42.345261]},"properties":{"id":"pharmacy-0","category":"pharmacy","name":"CVS Pharmacy 11082","address":"341 Harrison Ave, BOSTON, MA, 02118"}},{"type":"Feature","geometry":{"type":"Point","coordinates":[-71.062425,42.34761]},"properties":{"id":"pharmacy-1","category":"pharmacy","name":"Tai Tung Pharmacy Inc","address":"256 Harrison Ave, BOSTON, MA, 02111"}},{"type":"Feature","geometry":{"type":"Point","coordinates":[-71.063514,42.349653]},"properties":{"id":"pharmacy-2","category":"pharmacy","name":"Tufts Medicine Pharmacy, LLC","address":"800 Washington St, BOSTON, MA, 02111"}},{"type":"Feature","geometry":{"type":"Point","coordinates":[-71.057749,42.35022]},"properties":{"id":"pharmacy-3","category":"pharmacy","name":"Koala Pharmacy Boston LLC","address":"179 South St, BOSTON, MA, 02111"}},{"type":"Feature","geometry":{"type":"Point","coordinates":[-71.06198,42.350526]},"properties":{"id":"pharmacy-4","category":"pharmacy","name":"CVS Pharmacy 2516","address":"35 Kneeland St, BOSTON, MA, 02111"}},{"type":"Feature","geometry":{"type":"Point","coordinates":[-71.067397,42.351282]},"properties":{"id":"pharmacy-5","category":"pharmacy","name":"CVS/pharmacy #11201","address":"191 Stuart St, BOSTON, MA, 02116"}},{"type":"Feature","geometry":{"type":"Point","coordinates":[-71.055027,42.351966]},"properties":{"id":"pharmacy-6","category":"pharmacy","name":"CVS 10174","address":"700 Atlantic Ave, BOSTON, MA, 02111"}},{"type":"Feature","geometry":{"type":"Point","coordinates":[-71.062394,42.352218]},"properties":{"id":"pharmacy-7","category":"pharmacy","name":"CVS 5874","address":"631 Washington St, BOSTON, MA, 02111"}},{"type":"Feature","geometry":{"type":"Point","coordinates":[-71.058812,42.354459]},"properties":{"id":"pharmacy-8","category":"pharmacy","name":"CVS 361","address":"55 Summer St, BOSTON, MA, 02110"}},{"type":"Feature","geometry":{"type":"Point","coordinates":[-71.056296,42.355908]},"properties":{"id":"pharmacy-9","category":"pharmacy","name":"Genoa Healthcare LLC","address":"55 Federal St, BOSTON, MA, 02110"}},{"type":"Feature","geometry":{"type":"Point","coordinates":[-71.056949,42.356106]},"properties":{"id":"pharmacy-10","category":"pharmacy","name":"Genoa Healthcare LLC","address":"1 Federal St, BOSTON, MA, 02110"}},{"type":"Feature","geometry":{"type":"Point","coordinates":[-71.059131,42.356889]},"properties":{"id":"pharmacy-11","category":"pharmacy","name":"CVS 49","address":"333 Washington St, BOSTON, MA, 02108"}},{"type":"Feature","geometry":{"type":"Point","coordinates":[-71.05923,42.357555]},"properties":{"id":"pharmacy-12","category":"pharmacy","name":"Walgreens 15390","address":"24 School St, BOSTON, MA, 02108"}},{"type":"Feature","geometry":{"type":"Point","coordinates":[-71.063136,42.35214]},"properties":{"id":"library-13","category":"library","name":"Chinatown","address":"2 Boylston St"}},{"type":"Feature","geometry":{"type":"Point","coordinates":[-71.063516,42.349652]},"properties":{"id":"hospital-14","category":"hospital","name":"Tufts Medical Center","address":"800 Washington St"}},{"type":"Feature","geometry":{"type":"Point","coordinates":[-71.064921,42.347979]},"properties":{"id":"health_center-15","category":"health_center","name":"South Cove Community Health Center - Chinatown","address":"885 Washington St"}},{"type":"Feature","geometry":{"type":"Point","coordinates":[-71.057641,42.350969]},"properties":{"id":"health_center-16","category":"health_center","name":"South Cove Community Health Center - South St","address":"145 South St"}},{"type":"Feature","geometry":{"type":"Point","coordinates":[-71.063591,42.352489]},"properties":{"id":"health_center-17","category":"health_center","name":"Saint Francis House Clinic","address":"39 Boylston St"}},{"type":"Feature","geometry":{"type":"Point","coordinates":[-71.063516,42.349652]},"properties":{"id":"health_center-18","category":"health_center","name":"Neely House","address":"800 Washington St"}},{"type":"Feature","geometry":{"type":"Point","coordinates":[-71.054301,42.357469]},"properties":{"id":"health_center-19","category":"health_center","name":"Atrius Health - Post Office Square","address":"147 Milk St"}},{"type":"Feature","geometry":{"type":"Point","coordinates":[-71.06891,42.34626]},"properties":{"id":"public_housing-20","category":"public_housing","name":"Eva White","address":"440 Tremont St"}},{"type":"Feature","geometry":{"type":"Point","coordinates":[-71.056061,42.351151]},"properties":{"id":"restaurant-21","category":"restaurant","name":"Crepe LLC","address":"700 Atlantic Ave"}},{"type":"Feature","geometry":{"type":"Point","coordinates":[-71.069733,42.358067]},"properties":{"id":"restaurant-22","category":"restaurant","name":"Lala Rokh On Beacon Hill","address":"97 Mount Vernon St # 1"}},{"type":"Feature","geometry":{"type":"Point","coordinates":[-71.06038,42.351224]},"properties":{"id":"restaurant-23","category":"restaurant","name":"Suishaya","address":"2 Tyler St"}},{"type":"Feature","geometry":{"type":"Point","coordinates":[-71.058259,42.353532]},"properties":{"id":"restaurant-24","category":"restaurant","name":"Chipotle Mexican Grill","address":"101 Summer St # 2"}},{"type":"Feature","geometry":{"type":"Point","coordinates":[-71.053635,42.354535]},"properties":{"id":"restaurant-25","category":"restaurant","name":"Siam Bistro","address":"151 Pearl St"}},{"type":"Feature","geometry":{"type":"Point","coordinates":[-71.060013,42.351411]},"properties":{"id":"restaurant-26","category":"restaurant","name":"New Golden Gate INC","address":"66 Beach St"}},{"type":"Feature","geometry":{"type":"Point","coordinates":[-71.053566,42.356568]},"properties":{"id":"restaurant-27","category":"restaurant","name":"Brandy Pete'S","address":"267 Franklin St"}},{"type":"Feature","geometry":{"type":"Point","coordinates":[-71.063454,42.351228]},"properties":{"id":"restaurant-28","category":"restaurant","name":"Boston Kitchen","address":"1 Stuart St"}},{"type":"Feature","geometry":{"type":"Point","coordinates":[-71.060975,42.350633]},"properties":{"id":"restaurant-29","category":"restaurant","name":"Gourmet China Restaurant","address":"23 Tyler St # 1"}},{"type":"Feature","geometry":{"type":"Point","coordinates":[-71.060708,42.356007]},"properties":{"id":"restaurant-30","category":"restaurant","name":"Thai Accent Downtown Crossing","address":"417 Washington St"}},{"type":"Feature","geometry":{"type":"Point","coordinates":[-71.06231,42.351369]},"properties":{"id":"restaurant-31","category":"restaurant","name":"Ct Sweet Kingdom","address":"15 Beach St # 1"}},{"type":"Feature","geometry":{"type":"Point","coordinates":[-71.057198,42.35098]},"properties":{"id":"restaurant-32","category":"restaurant","name":"Trattoria Andiamo","address":"104 South St"}},{"type":"Feature","geometry":{"type":"Point","coordinates":[-71.06614,42.351979]},"properties":{"id":"restaurant-33","category":"restaurant","name":"Ronskys","address":"3 Boylston Pl"}},{"type":"Feature","geometry":{"type":"Point","coordinates":[-71.060952,42.351128]},"properties":{"id":"restaurant-34","category":"restaurant","name":"Chen'S Corner INC","address":"62 Harrison Ave"}},{"type":"Feature","geometry":{"type":"Point","coordinates":[-71.060708,42.356007]},"properties":{"id":"restaurant-35","category":"restaurant","name":"Subway","address":"417 Washington St # 11"}},{"type":"Feature","geometry":{"type":"Point","coordinates":[-71.061768,42.351354]},"properties":{"id":"restaurant-36","category":"restaurant","name":"Boston Chinese Freemasons","address":"23 Beach St # 4"}},{"type":"Feature","geometry":{"type":"Point","coordinates":[-71.05835,42.355695]},"properties":{"id":"restaurant-37","category":"restaurant","name":"Avana Sushi 2 Jindo","address":"58 Franklin St"}},{"type":"Feature","geometry":{"type":"Point","coordinates":[-71.069054,42.346337]},"properties":{"id":"restaurant-38","category":"restaurant","name":"Feng Lucky House INC","address":"450 Tremont St # 55"}},{"type":"Feature","geometry":{"type":"Point","coordinates":[-71.060265,42.351643]},"properties":{"id":"restaurant-39","category":"restaurant","name":"Taiwan Cafe","address":"34 Oxford St"}},{"type":"Feature","geometry":{"type":"Point","coordinates":[-71.060708,42.356007]},"properties":{"id":"restaurant-40","category":"restaurant","name":"Sakura Japan","address":"417 Washington St # 15"}},{"type":"Feature","geometry":{"type":"Point","coordinates":[-71.069985,42.344689]},"properties":{"id":"restaurant-41","category":"restaurant","name":"Boston Eagle","address":"520 Tremont St"}},{"type":"Feature","geometry":{"type":"Point","coordinates":[-71.058373,42.350556]},"properties":{"id":"restaurant-42","category":"restaurant","name":"District Restaurant & Lounge","address":"180 Lincoln St"}},{"type":"Feature","geometry":{"type":"Point","coordinates":[-71.058228,42.35373]},"properties":{"id":"restaurant-43","category":"restaurant","name":"Taipei Economic & Cultural Ofc","address":"99 Summer St # 801"}},{"type":"Feature","geometry":{"type":"Point","coordinates":[-71.063576,42.345097]},"properties":{"id":"restaurant-44","category":"restaurant","name":"Lion'S Tail","address":"354 Harrison Ave"}},{"type":"Feature","geometry":{"type":"Point","coordinates":[-71.063569,42.349385]},"properties":{"id":"restaurant-45","category":"restaurant","name":"Au Bon Pain","address":"800 Washington St"}},{"type":"Feature","geometry":{"type":"Point","coordinates":[-71.060189,42.350953]},"properties":{"id":"restaurant-46","category":"restaurant","name":"New Jumbo Seafood Restaurant","address":"5 Hudson St"}},{"type":"Feature","geometry":{"type":"Point","coordinates":[-71.056397,42.353707]},"properties":{"id":"restaurant-47","category":"restaurant","name":"Pret A Manger","address":"1 South Sta"}},{"type":"Feature","geometry":{"type":"Point","coordinates":[-71.066231,42.35156]},"properties":{"id":"restaurant-48","category":"restaurant","name":"Rock Bottom Rstrnt & Brewery","address":"115 Stuart St"}},{"type":"Feature","geometry":{"type":"Point","coordinates":[-71.063111,42.351216]},"properties":{"id":"restaurant-49","category":"restaurant","name":"Little Lamb Hot Pot Restaurant","address":"695 Washington St"}},{"type":"Feature","geometry":{"type":"Point","coordinates":[-71.056931,42.351369]},"properties":{"id":"restaurant-50","category":"restaurant","name":"O Ya Restaurant","address":"9 East St"}},{"type":"Feature","geometry":{"type":"Point","coordinates":[-71.068749,42.346902]},"properties":{"id":"restaurant-51","category":"restaurant","name":"Rome Pizza","address":"416 Tremont St"}},{"type":"Feature","geometry":{"type":"Point","coordinates":[-71.066201,42.352284]},"properties":{"id":"restaurant-52","category":"restaurant","name":"Troquet On South","address":"140 Boylston St"}},{"type":"Feature","geometry":{"type":"Point","coordinates":[-71.054894,42.358167]},"properties":{"id":"restaurant-53","category":"restaurant","name":"Pita Thyme","address":"102 Water St"}},{"type":"Feature","geometry":{"type":"Point","coordinates":[-71.062821,42.355313]},"properties":{"id":"restaurant-54","category":"restaurant","name":"Wen'S Yunnan Noodle & Ramen","address":"144 Tremont St"}},{"type":"Feature","geometry":{"type":"Point","coordinates":[-71.058754,42.354512]},"properties":{"id":"restaurant-55","category":"restaurant","name":"Uno Due Go","address":"52 Summer St"}},{"type":"Feature","geometry":{"type":"Point","coordinates":[-71.06749,42.35241]},"properties":{"id":"restaurant-56","category":"restaurant","name":"Boloco","address":"176 Boylston St"}},{"type":"Feature","geometry":{"type":"Point","coordinates":[-71.053231,42.357354]},"properties":{"id":"restaurant-57","category":"restaurant","name":"Mnm Hospitality","address":"89 Broad St"}},{"type":"Feature","geometry":{"type":"Point","coordinates":[-71.060723,42.351544]},"properties":{"id":"restaurant-58","category":"restaurant","name":"Quic Pic Bbq","address":"50 Beach St"}},{"type":"Feature","geometry":{"type":"Point","coordinates":[-71.063347,42.353112]},"properties":{"id":"restaurant-59","category":"restaurant","name":"Artisan Bistro","address":"10 Avery St"}},{"type":"Feature","geometry":{"type":"Point","coordinates":[-71.069138,42.351422]},"properties":{"id":"restaurant-60","category":"restaurant","name":"Herrera'S Mexican Grill","address":"8 Park Plz"}},{"type":"Feature","geometry":{"type":"Point","coordinates":[-71.060936,42.351624]},"properties":{"id":"restaurant-61","category":"restaurant","name":"Tastry Cafe Corp","address":"42 Beach St # 101"}},{"type":"Feature","geometry":{"type":"Point","coordinates":[-71.058335,42.357846]},"properties":{"id":"restaurant-62","category":"restaurant","name":"Potbelly Sandwich Shop","address":"263 Washington St"}},{"type":"Feature","geometry":{"type":"Point","coordinates":[-71.059937,42.356877]},"properties":{"id":"restaurant-63","category":"restaurant","name":"Sam Lagrassa'S","address":"44 Province St"}},{"type":"Feature","geometry":{"type":"Point","coordinates":[-71.061982,42.353387]},"properties":{"id":"restaurant-64","category":"restaurant","name":"Legal Sea Foods","address":"558 Washington St"}},{"type":"Feature","geometry":{"type":"Point","coordinates":[-71.059517,42.356763]},"properties":{"id":"restaurant-65","category":"restaurant","name":"Wendy'S","address":"349 Washington St"}},{"type":"Feature","geometry":{"type":"Point","coordinates":[-71.058846,42.355416]},"properties":{"id":"restaurant-66","category":"restaurant","name":"Bona Pita","address":"49 Franklin St # 1"}},{"type":"Feature","geometry":{"type":"Point","coordinates":[-71.062027,42.357968]},"properties":{"id":"restaurant-67","category":"restaurant","name":"Hi Spot Deli","address":"10 Beacon St"}},{"type":"Feature","geometry":{"type":"Point","coordinates":[-71.065529,42.344174]},"properties":{"id":"restaurant-68","category":"restaurant","name":"New Ming INC","address":"1102 Washington St"}},{"type":"Feature","geometry":{"type":"Point","coordinates":[-71.060807,42.351281]},"properties":{"id":"restaurant-69","category":"restaurant","name":"Bubor Cha Cha","address":"45 Beach St"}},{"type":"Feature","geometry":{"type":"Point","coordinates":[-71.052987,42.35365]},"properties":{"id":"restaurant-70","category":"restaurant","name":"Nebo","address":"520 Atlantic Ave"}},{"type":"Feature","geometry":{"type":"Point","coordinates":[-71.062432,42.358289]},"properties":{"id":"restaurant-71","category":"restaurant","name":"Scollay Square","address":"21 Beacon St"}},{"type":"Feature","geometry":{"type":"Point","coordinates":[-71.060708,42.356007]},"properties":{"id":"restaurant-72","category":"restaurant","name":"Salsa Corner Food INC","address":"417 Washington St"}},{"type":"Feature","geometry":{"type":"Point","coordinates":[-71.057961,42.354173]},"properties":{"id":"restaurant-73","category":"restaurant","name":"Viga Italian Eatery & Caterer","address":"291 Devonshire St"}},{"type":"Feature","geometry":{"type":"Point","coordinates":[-71.061554,42.352368]},"properties":{"id":"restaurant-74","category":"restaurant","name":"Kaze Shabu Shabu Restaurant","address":"1 Harrison Ave"}},{"type":"Feature","geometry":{"type":"Point","coordinates":[-71.058503,42.353734]},"properties":{"id":"restaurant-75","category":"restaurant","name":"Noon Mediterranean","address":"95 Summer St"}},{"type":"Feature","geometry":{"type":"Point","coordinates":[-71.055298,42.35801]},"properties":{"id":"restaurant-76","category":"restaurant","name":"Boston Kebab House","address":"7 Liberty Sq # 1"}},{"type":"Feature","geometry":{"type":"Point","coordinates":[-71.059128,42.35505]},"properties":{"id":"restaurant-77","category":"restaurant","name":"Archie'S New York Deli","address":"101 Arch St # 150"}},{"type":"Feature","geometry":{"type":"Point","coordinates":[-71.060708,42.356007]},"properties":{"id":"restaurant-78","category":"restaurant","name":"Sushi Time","address":"417 Washington St # 1"}},{"type":"Feature","geometry":{"type":"Point","coordinates":[-71.057633,42.357022]},"properties":{"id":"restaurant-79","category":"restaurant","name":"Milk Street Cafe","address":"50 Milk St # 100"}},{"type":"Feature","geometry":{"type":"Point","coordinates":[-71.053727,42.358029]},"properties":{"id":"restaurant-80","category":"restaurant","name":"Flat Black Coffee Co","address":"50 Broad St"}},{"type":"Feature","geometry":{"type":"Point","coordinates":[-71.063416,42.351449]},"properties":{"id":"restaurant-81","category":"restaurant","name":"Glass Slipper","address":"22 Lagrange St"}},{"type":"Feature","geometry":{"type":"Point","coordinates":[-71.058106,42.354031]},"properties":{"id":"restaurant-82","category":"restaurant","name":"Al Capone Pizza","address":"82 Summer St"}},{"type":"Feature","geometry":{"type":"Point","coordinates":[-71.067864,42.348363]},"properties":{"id":"restaurant-83","category":"restaurant","name":"Mike & Patty'S","address":"12 Church St"}},{"type":"Feature","geometry":{"type":"Point","coordinates":[-71.069932,42.356633]},"properties":{"id":"restaurant-84","category":"restaurant","name":"Upper Crust 20 Charles St","address":"20 Charles St"}},{"type":"Feature","geometry":{"type":"Point","coordinates":[-71.0551,42.358956]},"properties":{"id":"restaurant-85","category":"restaurant","name":"Bailey & Sage","address":"103 State St"}},{"type":"Feature","geometry":{"type":"Point","coordinates":[-71.063797,42.348199]},"properties":{"id":"restaurant-86","category":"restaurant","name":"Two Peck Crispy Chicken Boston","address":"3 Oak St # C"}},{"type":"Feature","geometry":{"type":"Point","coordinates":[-71.060441,42.35098]},"properties":{"id":"restaurant-87","category":"restaurant","name":"Winsor Dim Sum Cafe","address":"10 Tyler St"}},{"type":"Feature","geometry":{"type":"Point","coordinates":[-71.05999,42.353127]},"properties":{"id":"restaurant-88","category":"restaurant","name":"Chicken & Rice Guys","address":"85 Bedford St"}},{"type":"Feature","geometry":{"type":"Point","coordinates":[-71.062821,42.355313]},"properties":{"id":"restaurant-89","category":"restaurant","name":"Falafel King","address":"144 Tremont St"}},{"type":"Feature","geometry":{"type":"Point","coordinates":[-71.062577,42.351422]},"properties":{"id":"restaurant-90","category":"restaurant","name":"My Thai Cafe","address":"3 Beach St # 2"}},{"type":"Feature","geometry":{"type":"Point","coordinates":[-71.060189,42.350953]},"properties":{"id":"restaurant-91","category":"restaurant","name":"Great Barbecue","address":"15 Hudson St"}},{"type":"Feature","geometry":{"type":"Point","coordinates":[-71.060158,42.351449]},"properties":{"id":"restaurant-92","category":"restaurant","name":"China King","address":"60 Beach St"}},{"type":"Feature","geometry":{"type":"Point","coordinates":[-71.069695,42.351922]},"properties":{"id":"restaurant-93","category":"restaurant","name":"Bistro Du Midi","address":"272 Boylston St"}},{"type":"Feature","geometry":{"type":"Point","coordinates":[-71.06157,42.351128]},"properties":{"id":"restaurant-94","category":"restaurant","name":"Wings Express INC","address":"65 Harrison Ave # 402"}},{"type":"Feature","geometry":{"type":"Point","coordinates":[-71.056626,42.354192]},"properties":{"id":"restaurant-95","category":"restaurant","name":"Boloco","address":"133 Federal St # 102"}},{"type":"Feature","geometry":{"type":"Point","coordinates":[-71.068207,42.351327]},"properties":{"id":"restaurant-96","category":"restaurant","name":"Maggiano'S Little Italy","address":"4 Columbus Ave"}},{"type":"Feature","geometry":{"type":"Point","coordinates":[-71.05893,42.3578]},"properties":{"id":"restaurant-97","category":"restaurant","name":"Scholars American Bistro","address":"25 School St"}},{"type":"Feature","geometry":{"type":"Point","coordinates":[-71.056496,42.353761]},"properties":{"id":"restaurant-98","category":"restaurant","name":"Boston Common Coffee Co","address":"10 High St # 1"}},{"type":"Feature","geometry":{"type":"Point","coordinates":[-71.058487,42.355813]},"properties":{"id":"restaurant-99","category":"restaurant","name":"Raglin Road INC","address":"60 Franklin St"}},{"type":"Feature","geometry":{"type":"Point","coordinates":[-71.069817,42.35743]},"properties":{"id":"restaurant-100","category":"restaurant","name":"Toscano Restaurant","address":"41 Charles St"}},{"type":"Feature","geometry":{"type":"Point","coordinates":[-71.064408,42.351178]},"properties":{"id":"restaurant-101","category":"restaurant","name":"Bangkok Hut INC","address":"63 Stuart St"}},{"type":"Feature","geometry":{"type":"Point","coordinates":[-71.060776,42.351151]},"properties":{"id":"restaurant-102","category":"restaurant","name":"Shojo","address":"9a Tyler St"}},{"type":"Feature","geometry":{"type":"Point","coordinates":[-71.060708,42.356007]},"properties":{"id":"restaurant-103","category":"restaurant","name":"Charleys Philly Steaks","address":"417 Washington St"}},{"type":"Feature","geometry":{"type":"Point","coordinates":[-71.053971,42.356954]},"properties":{"id":"restaurant-104","category":"restaurant","name":"Wollensky Beverage INC","address":"260 Franklin St # 1860"}},{"type":"Feature","geometry":{"type":"Point","coordinates":[-71.061028,42.351941]},"properties":{"id":"restaurant-105","category":"restaurant","name":"Asian Garden Restaurant","address":"28 Harrison Ave # 1"}},{"type":"Feature","geometry":{"type":"Point","coordinates":[-71.060936,42.351624]},"properties":{"id":"restaurant-106","category":"restaurant","name":"M Top","address":"42 Beach St"}},{"type":"Feature","geometry":{"type":"Point","coordinates":[-71.057633,42.357022]},"properties":{"id":"restaurant-107","category":"restaurant","name":"Clover Food Truck","address":"50 Milk St # 16"}},{"type":"Feature","geometry":{"type":"Point","coordinates":[-71.062859,42.345731]},"properties":{"id":"restaurant-108","category":"restaurant","name":"Peet'S Coffee","address":"310 Harrison Ave"}},{"type":"Feature","geometry":{"type":"Point","coordinates":[-71.058556,42.354352]},"properties":{"id":"restaurant-109","category":"restaurant","name":"Falafel King Iii INC","address":"62 Summer St"}},{"type":"Feature","geometry":{"type":"Point","coordinates":[-71.069138,42.351422]},"properties":{"id":"restaurant-110","category":"restaurant","name":"Iron Wok","address":"8 Park Plz"}},{"type":"Feature","geometry":{"type":"Point","coordinates":[-71.058655,42.353825]},"properties":{"id":"restaurant-111","category":"restaurant","name":"Sweetgreen Summer St","address":"87 Summer St"}},{"type":"Feature","geometry":{"type":"Point","coordinates":[-71.054238,42.357282]},"properties":{"id":"restaurant-112","category":"restaurant","name":"Flame Cafe","address":"2 Oliver St # 1"}},{"type":"Feature","geometry":{"type":"Point","coordinates":[-71.062638,42.358487]},"properties":{"id":"restaurant-113","category":"restaurant","name":"Fill-A-Buster","address":"142 Bowdoin St"}},{"type":"Feature","geometry":{"type":"Point","coordinates":[-71.061623,42.351022]},"properties":{"id":"restaurant-114","category":"restaurant","name":"Hong Kong Eatery","address":"79 Harrison Ave"}},{"type":"Feature","geometry":{"type":"Point","coordinates":[-71.059708,42.358849]},"properties":{"id":"restaurant-115","category":"restaurant","name":"M Sushi Cafe","address":"24 Tremont St"}},{"type":"Feature","geometry":{"type":"Point","coordinates":[-71.060242,42.350816]},"properties":{"id":"restaurant-116","category":"restaurant","name":"Best Little Restaurant","address":"13 Hudson St"}},{"type":"Feature","geometry":{"type":"Point","coordinates":[-71.056061,42.351151]},"properties":{"id":"restaurant-117","category":"restaurant","name":"Oath Craft Pizza","address":"700 Atlantic Ave"}},{"type":"Feature","geometry":{"type":"Point","coordinates":[-71.060936,42.351624]},"properties":{"id":"restaurant-118","category":"restaurant","name":"Hot Eastern INC","address":"42 Beach St # 1b"}},{"type":"Feature","geometry":{"type":"Point","coordinates":[-71.060998,42.357217]},"properties":{"id":"restaurant-119","category":"restaurant","name":"Beantown Pub","address":"100 Tremont St"}},{"type":"Feature","geometry":{"type":"Point","coordinates":[-71.054612,42.358056]},"properties":{"id":"restaurant-120","category":"restaurant","name":"Casa Razdora","address":"115 Water St"}},{"type":"Feature","geometry":{"type":"Point","coordinates":[-71.060708,42.356007]},"properties":{"id":"restaurant-121","category":"restaurant","name":"Sarku Japan","address":"417 Washington St"}},{"type":"Feature","geometry":{"type":"Point","coordinates":[-71.059128,42.35505]},"properties":{"id":"restaurant-122","category":"restaurant","name":"Pret A Manger","address":"101 Arch St # 105"}},{"type":"Feature","geometry":{"type":"Point","coordinates":[-71.05835,42.355695]},"properties":{"id":"restaurant-123","category":"restaurant","name":"Bobo Sushi","address":"58 Franklin St"}},{"type":"Feature","geometry":{"type":"Point","coordinates":[-71.06588,42.351312]},"properties":{"id":"restaurant-124","category":"restaurant","name":"Halal Guys","address":"137 Stuart St"}},{"type":"Feature","geometry":{"type":"Point","coordinates":[-71.060532,42.350213]},"properties":{"id":"restaurant-125","category":"restaurant","name":"Turnaround Sushi INC","address":"75 Kneeland St"}},{"type":"Feature","geometry":{"type":"Point","coordinates":[-71.062638,42.351285]},"properties":{"id":"restaurant-126","category":"restaurant","name":"Empire Garden Restaurant","address":"690 Washington St"}},{"type":"Feature","geometry":{"type":"Point","coordinates":[-71.062066,42.347615]},"properties":{"id":"restaurant-127","category":"restaurant","name":"Chinatown Cafe","address":"262 Harrison Ave"}},{"type":"Feature","geometry":{"type":"Point","coordinates":[-71.062737,42.353536]},"properties":{"id":"restaurant-128","category":"restaurant","name":"Sip Wine Bar & Kitchen","address":"581 Washington St"}},{"type":"Feature","geometry":{"type":"Point","coordinates":[-71.059853,42.357797]},"properties":{"id":"restaurant-129","category":"restaurant","name":"Last Hurrah","address":"60 School St"}},{"type":"Feature","geometry":{"type":"Point","coordinates":[-71.057343,42.349744]},"properties":{"id":"restaurant-130","category":"restaurant","name":"South Street Diner","address":"178 Kneeland St"}},{"type":"Feature","geometry":{"type":"Point","coordinates":[-71.060936,42.351624]},"properties":{"id":"restaurant-131","category":"restaurant","name":"Dumpling King","address":"40 Harrison Ave"}},{"type":"Feature","geometry":{"type":"Point","coordinates":[-71.059128,42.35505]},"properties":{"id":"restaurant-132","category":"restaurant","name":"Grassroots Cafe","address":"101 Arch St # 110"}},{"type":"Feature","geometry":{"type":"Point","coordinates":[-71.056214,42.357564]},"properties":{"id":"restaurant-133","category":"restaurant","name":"Swerling Milton-Winnick Pubc","address":"12 Post Office Sq"}},{"type":"Feature","geometry":{"type":"Point","coordinates":[-71.069939,42.350705]},"properties":{"id":"restaurant-134","category":"restaurant","name":"Strip By Strega","address":"64 Arlington St"}},{"type":"Feature","geometry":{"type":"Point","coordinates":[-71.063027,42.3513]},"properties":{"id":"restaurant-135","category":"restaurant","name":"Dumpling Cafe INC","address":"697 Washington St"}},{"type":"Feature","geometry":{"type":"Point","coordinates":[-71.062729,42.355409]},"properties":{"id":"restaurant-136","category":"restaurant","name":"Parkview Coffee Shop","address":"141 Tremont St"}},{"type":"Feature","geometry":{"type":"Point","coordinates":[-71.063576,42.345097]},"properties":{"id":"restaurant-137","category":"restaurant","name":"Sweetgreen Ink Block","address":"354 Harrison Ave"}},{"type":"Feature","geometry":{"type":"Point","coordinates":[-71.059128,42.35505]},"properties":{"id":"restaurant-138","category":"restaurant","name":"Chacarero","address":"101 Arch St # 130"}},{"type":"Feature","geometry":{"type":"Point","coordinates":[-71.069359,42.351376]},"properties":{"id":"restaurant-139","category":"restaurant","name":"Legal Sea Foods","address":"26 Park Plz"}},{"type":"Feature","geometry":{"type":"Point","coordinates":[-71.057015,42.355233]},"properties":{"id":"restaurant-140","category":"restaurant","name":"Bar Method","address":"75 Federal St # 1"}},{"type":"Feature","geometry":{"type":"Point","coordinates":[-71.057755,42.357816]},"properties":{"id":"restaurant-141","category":"restaurant","name":"Falafel King Ii INC","address":"260 Washington St"}},{"type":"Feature","geometry":{"type":"Point","coordinates":[-71.069665,42.351365]},"properties":{"id":"restaurant-142","category":"restaurant","name":"Off The Common","address":"50 Park Plz"}},{"type":"Feature","geometry":{"type":"Point","coordinates":[-71.056626,42.354192]},"properties":{"id":"restaurant-143","category":"restaurant","name":"Cosi","address":"133 Federal St # 101"}},{"type":"Feature","geometry":{"type":"Point","coordinates":[-71.064553,42.351457]},"properties":{"id":"restaurant-144","category":"restaurant","name":"New York Pizza","address":"224 Tremont St # 1"}},{"type":"Feature","geometry":{"type":"Point","coordinates":[-71.063073,42.351399]},"properties":{"id":"restaurant-145","category":"restaurant","name":"Penang","address":"685 Washington St"}},{"type":"Feature","geometry":{"type":"Point","coordinates":[-71.065827,42.357137]},"properties":{"id":"restaurant-146","category":"restaurant","name":"Frog Pond Cafe","address":"38 Beacon St"}},{"type":"Feature","geometry":{"type":"Point","coordinates":[-71.054322,42.357644]},"properties":{"id":"restaurant-147","category":"restaurant","name":"Max'S Deli Cafe","address":"151 Milk St"}},{"type":"Feature","geometry":{"type":"Point","coordinates":[-71.058632,42.354424]},"properties":{"id":"restaurant-148","category":"restaurant","name":"Five Guys","address":"58 Summer St"}},{"type":"Feature","geometry":{"type":"Point","coordinates":[-71.05758,42.355958]},"properties":{"id":"restaurant-149","category":"restaurant","name":"D'Guru","address":"185 Devonshire St"}},{"type":"Feature","geometry":{"type":"Point","coordinates":[-71.059853,42.357797]},"properties":{"id":"restaurant-150","category":"restaurant","name":"Parker'S Restaurant","address":"60 School St"}},{"type":"Feature","geometry":{"type":"Point","coordinates":[-71.060936,42.351624]},"properties":{"id":"restaurant-151","category":"restaurant","name":"Sakura Sunakku","address":"42 Beach St # 101"}},{"type":"Feature","geometry":{"type":"Point","coordinates":[-71.053666,42.357106]},"properties":{"id":"restaurant-152","category":"restaurant","name":"Subway","address":"274 Franklin St"}},{"type":"Feature","geometry":{"type":"Point","coordinates":[-71.061867,42.35629]},"properties":{"id":"restaurant-153","category":"restaurant","name":"Burger King","address":"128 Tremont St"}},{"type":"Feature","geometry":{"type":"Point","coordinates":[-71.057999,42.353986]},"properties":{"id":"restaurant-154","category":"restaurant","name":"B Good","address":"84 Summer St"}},{"type":"Feature","geometry":{"type":"Point","coordinates":[-71.062584,42.353906]},"properties":{"id":"restaurant-155","category":"restaurant","name":"Salvatore'S Restaurant","address":"545 Washington St"}},{"type":"Feature","geometry":{"type":"Point","coordinates":[-71.059823,42.351365]},"properties":{"id":"restaurant-156","category":"restaurant","name":"Hot Pot Buffet","address":"70 Beach St # 1"}},{"type":"Feature","geometry":{"type":"Point","coordinates":[-71.060181,42.351113]},"properties":{"id":"restaurant-157","category":"restaurant","name":"Great Taste Bakery & Rstrnt","address":"63 Beach St"}},{"type":"Feature","geometry":{"type":"Point","coordinates":[-71.060936,42.351624]},"properties":{"id":"restaurant-158","category":"restaurant","name":"Avana Sushi","address":"42 Beach St"}},{"type":"Feature","geometry":{"type":"Point","coordinates":[-71.056824,42.354981]},"properties":{"id":"restaurant-159","category":"restaurant","name":"Kinsman Rest Corp","address":"101 Federal St # 1900"}},{"type":"Feature","geometry":{"type":"Point","coordinates":[-71.058945,42.351094]},"properties":{"id":"restaurant-160","category":"restaurant","name":"Hei La Moon","address":"88 Beach St"}},{"type":"Feature","geometry":{"type":"Point","coordinates":[-71.069138,42.351422]},"properties":{"id":"restaurant-161","category":"restaurant","name":"P F Chang'S China Bistro","address":"8 Park Plz # D-6"}},{"type":"Feature","geometry":{"type":"Point","coordinates":[-71.054657,42.358453]},"properties":{"id":"restaurant-162","category":"restaurant","name":"Lechners Gourmet Restaurant","address":"21 Broad St"}},{"type":"Feature","geometry":{"type":"Point","coordinates":[-71.056,42.357995]},"properties":{"id":"restaurant-163","category":"restaurant","name":"Boloco","address":"50 Congress St # L1"}},{"type":"Feature","geometry":{"type":"Point","coordinates":[-71.058541,42.357613]},"properties":{"id":"restaurant-164","category":"restaurant","name":"Chipotle Mexican Grill","address":"283 Washington St"}},{"type":"Feature","geometry":{"type":"Point","coordinates":[-71.058335,42.357846]},"properties":{"id":"restaurant-165","category":"restaurant","name":"Jumbo Bagel Cafe Corp","address":"275 Washington St"}},{"type":"Feature","geometry":{"type":"Point","coordinates":[-71.060708,42.351808]},"properties":{"id":"restaurant-166","category":"restaurant","name":"Wings Kitchen","address":"23 Hudson St"}},{"type":"Feature","geometry":{"type":"Point","coordinates":[-71.057755,42.357812]},"properties":{"id":"restaurant-167","category":"restaurant","name":"Falafel King Iii INC","address":"262 Washington St"}},{"type":"Feature","geometry":{"type":"Point","coordinates":[-71.05906,42.352242]},"properties":{"id":"restaurant-168","category":"restaurant","name":"Townsman","address":"120 Kingston St # 2401"}},{"type":"Feature","geometry":{"type":"Point","coordinates":[-71.057564,42.356233]},"properties":{"id":"restaurant-169","category":"restaurant","name":"Ec Restaurants Boston","address":"161 Devonshire St"}},{"type":"Feature","geometry":{"type":"Point","coordinates":[-71.060952,42.351128]},"properties":{"id":"restaurant-170","category":"restaurant","name":"Cafe Corner","address":"62 Harrison Ave"}},{"type":"Feature","geometry":{"type":"Point","coordinates":[-71.069665,42.346738]},"properties":{"id":"restaurant-171","category":"restaurant","name":"Wink & Nod","address":"3 Appleton St"}},{"type":"Feature","geometry":{"type":"Point","coordinates":[-71.055565,42.358239]},"properties":{"id":"restaurant-172","category":"restaurant","name":"Food Squire","address":"6 Liberty Sq"}},{"type":"Feature","geometry":{"type":"Point","coordinates":[-71.055901,42.353528]},"properties":{"id":"restaurant-173","category":"restaurant","name":"Pret A Manger","address":"176 Federal St"}},{"type":"Feature","geometry":{"type":"Point","coordinates":[-71.069138,42.351422]},"properties":{"id":"restaurant-174","category":"restaurant","name":"Chipotle Mexican Grill","address":"8 Park Plz"}},{"type":"Feature","geometry":{"type":"Point","coordinates":[-71.060708,42.356007]},"properties":{"id":"restaurant-175","category":"restaurant","name":"Tasty Bbq","address":"417 Washington St"}},{"type":"Feature","geometry":{"type":"Point","coordinates":[-71.060471,42.356557]},"properties":{"id":"restaurant-176","category":"restaurant","name":"Shed'S","address":"32 Bromfield St"}},{"type":"Feature","geometry":{"type":"Point","coordinates":[-71.05481,42.355397]},"properties":{"id":"restaurant-177","category":"restaurant","name":"Hale & Hearty","address":"185 Franklin St # 106"}},{"type":"Feature","geometry":{"type":"Point","coordinates":[-71.054307,42.357984]},"properties":{"id":"restaurant-178","category":"restaurant","name":"Sakura Bana Japanese Rstrnt","address":"57 Broad St"}},{"type":"Feature","geometry":{"type":"Point","coordinates":[-71.064408,42.351178]},"properties":{"id":"restaurant-179","category":"restaurant","name":"Montien Thai Rstrnt & Lounge","address":"63 Stuart St"}},{"type":"Feature","geometry":{"type":"Point","coordinates":[-71.060761,42.351216]},"properties":{"id":"restaurant-180","category":"restaurant","name":"Ruckus Noddles","address":"5 Tyler St"}},{"type":"Feature","geometry":{"type":"Point","coordinates":[-71.056061,42.351151]},"properties":{"id":"restaurant-181","category":"restaurant","name":"Regina Pizzeria","address":"700 Atlantic Ave"}},{"type":"Feature","geometry":{"type":"Point","coordinates":[-71.068306,42.352055]},"properties":{"id":"restaurant-182","category":"restaurant","name":"Spa At Four Seasons Hotel Bstn","address":"200 Boylston St"}},{"type":"Feature","geometry":{"type":"Point","coordinates":[-71.058358,42.35077]},"properties":{"id":"restaurant-183","category":"restaurant","name":"Alchemista","address":"164 Lincoln St"}},{"type":"Feature","geometry":{"type":"Point","coordinates":[-71.062592,42.351415]},"properties":{"id":"restaurant-184","category":"restaurant","name":"Jia Ho Restaurant","address":"680 Washington St"}},{"type":"Feature","geometry":{"type":"Point","coordinates":[-71.060708,42.351808]},"properties":{"id":"restaurant-185","category":"restaurant","name":"Chinese Spaghetti Factory","address":"73 Essex St"}},{"type":"Feature","geometry":{"type":"Point","coordinates":[-71.05336,42.358067]},"properties":{"id":"restaurant-186","category":"restaurant","name":"Bean & Leaf Cafe","address":"20 Custom House St # 100"}},{"type":"Feature","geometry":{"type":"Point","coordinates":[-71.054307,42.35473]},"properties":{"id":"restaurant-187","category":"restaurant","name":"Slate Bar & Grill","address":"109 High St"}},{"type":"Feature","geometry":{"type":"Point","coordinates":[-71.061593,42.350945]},"properties":{"id":"restaurant-188","category":"restaurant","name":"Dong Khanh","address":"81 Harrison Ave"}},{"type":"Feature","geometry":{"type":"Point","coordinates":[-71.061127,42.349336]},"properties":{"id":"restaurant-189","category":"restaurant","name":"Genghis Chinese Food INC","address":"57 Harvard St"}},{"type":"Feature","geometry":{"type":"Point","coordinates":[-71.069649,42.356919]},"properties":{"id":"restaurant-190","category":"restaurant","name":"Beacon Hill Bistro","address":"25 Charles St"}},{"type":"Feature","geometry":{"type":"Point","coordinates":[-71.060097,42.355431]},"properties":{"id":"restaurant-191","category":"restaurant","name":"Caffe Nero","address":"10 Summer St"}},{"type":"Feature","geometry":{"type":"Point","coordinates":[-71.057015,42.355233]},"properties":{"id":"restaurant-192","category":"restaurant","name":"Cafe De Boston","address":"75 Federal St # 3"}},{"type":"Feature","geometry":{"type":"Point","coordinates":[-71.059784,42.356969]},"properties":{"id":"restaurant-193","category":"restaurant","name":"Food Scuare LLC","address":"26 Province St"}},{"type":"Feature","geometry":{"type":"Point","coordinates":[-71.069588,42.35175]},"properties":{"id":"restaurant-194","category":"restaurant","name":"Oyster Club","address":"79 Park Plz"}},{"type":"Feature","geometry":{"type":"Point","coordinates":[-71.067437,42.350411]},"properties":{"id":"restaurant-195","category":"restaurant","name":"Rooftop At Revere","address":"200 Stuart St"}},{"type":"Feature","geometry":{"type":"Point","coordinates":[-71.059914,42.352017]},"properties":{"id":"restaurant-196","category":"restaurant","name":"Moon Villa Restaurant","address":"15 Edinboro St"}},{"type":"Feature","geometry":{"type":"Point","coordinates":[-71.061936,42.354356]},"properties":{"id":"restaurant-197","category":"restaurant","name":"Ruka Restobar","address":"505 Washington St"}},{"type":"Feature","geometry":{"type":"Point","coordinates":[-71.060975,42.350743]},"properties":{"id":"restaurant-198","category":"restaurant","name":"Tata Seafood","address":"25 Tyler St"}},{"type":"Feature","geometry":{"type":"Point","coordinates":[-71.060708,42.356007]},"properties":{"id":"restaurant-199","category":"restaurant","name":"Happy Lemon","address":"417 Washington St"}},{"type":"Feature","geometry":{"type":"Point","coordinates":[-71.062722,42.358025]},"properties":{"id":"restaurant-200","category":"restaurant","name":"Zen Restaurant","address":"21a Beacon St"}},{"type":"Feature","geometry":{"type":"Point","coordinates":[-71.063347,42.353112]},"properties":{"id":"restaurant-201","category":"restaurant","name":"Ritz-Carlton-Boston","address":"10 Avery St"}},{"type":"Feature","geometry":{"type":"Point","coordinates":[-71.060708,42.356007]},"properties":{"id":"restaurant-202","category":"restaurant","name":"Wong'S Of Boston","address":"417 Washington St"}},{"type":"Feature","geometry":{"type":"Point","coordinates":[-71.060402,42.351159]},"properties":{"id":"restaurant-203","category":"restaurant","name":"Peach Farm Restaurant","address":"4 Tyler St # 1"}},{"type":"Feature","geometry":{"type":"Point","coordinates":[-71.060326,42.350591]},"properties":{"id":"restaurant-204","category":"restaurant","name":"New Shanghai Restaurant","address":"21 Hudson St"}},{"type":"Feature","geometry":{"type":"Point","coordinates":[-71.052178,42.355706]},"properties":{"id":"restaurant-205","category":"restaurant","name":"Au Bon Pain","address":"1 International Pl # 140"}},{"type":"Feature","geometry":{"type":"Point","coordinates":[-71.053299,42.358285]},"properties":{"id":"restaurant-206","category":"restaurant","name":"Coogans","address":"171 Milk St"}},{"type":"Feature","geometry":{"type":"Point","coordinates":[-71.062195,42.355973]},"properties":{"id":"restaurant-207","category":"restaurant","name":"Black Seed Cafe & Grill","address":"131 Tremont St # 1"}},{"type":"Feature","geometry":{"type":"Point","coordinates":[-71.068169,42.351022]},"properties":{"id":"restaurant-208","category":"restaurant","name":"Fleming'S Prime Steakhouse","address":"217 Stuart St"}},{"type":"Feature","geometry":{"type":"Point","coordinates":[-71.059853,42.357797]},"properties":{"id":"restaurant-209","category":"restaurant","name":"Omni-Parker House","address":"60 School St"}},{"type":"Feature","geometry":{"type":"Point","coordinates":[-71.062577,42.351071]},"properties":{"id":"restaurant-210","category":"restaurant","name":"Irashai Sushi","address":"8 Kneeland St"}},{"type":"Feature","geometry":{"type":"Point","coordinates":[-71.060708,42.357156]},"properties":{"id":"restaurant-211","category":"restaurant","name":"Silvertone Bar & Grill","address":"69 Bromfield St"}},{"type":"Feature","geometry":{"type":"Point","coordinates":[-71.054497,42.358441]},"properties":{"id":"restaurant-212","category":"restaurant","name":"Espresso Love","address":"33 Broad St # 2"}},{"type":"Feature","geometry":{"type":"Point","coordinates":[-71.058991,42.354104]},"properties":{"id":"restaurant-213","category":"restaurant","name":"Wendy'S","address":"71 Summer St"}},{"type":"Feature","geometry":{"type":"Point","coordinates":[-71.053658,42.357648]},"properties":{"id":"restaurant-214","category":"restaurant","name":"Mr Dooleys","address":"77 Broad St"}},{"type":"Feature","geometry":{"type":"Point","coordinates":[-71.053231,42.357354]},"properties":{"id":"restaurant-215","category":"restaurant","name":"Hilton Boston Downtown/Faneuil","address":"89 Broad St # 3"}},{"type":"Feature","geometry":{"type":"Point","coordinates":[-71.062592,42.351415]},"properties":{"id":"restaurant-216","category":"restaurant","name":"Pho Pasteur","address":"682 Washington St"}},{"type":"Feature","geometry":{"type":"Point","coordinates":[-71.061982,42.351178]},"properties":{"id":"restaurant-217","category":"restaurant","name":"Potluck Cafe","address":"7 Knapp St"}},{"type":"Feature","geometry":{"type":"Point","coordinates":[-71.059411,42.358025]},"properties":{"id":"restaurant-218","category":"restaurant","name":"Ruth'S Chris Steak House","address":"45 School St # 1d"}},{"type":"Feature","geometry":{"type":"Point","coordinates":[-71.05478,42.357984]},"properties":{"id":"restaurant-219","category":"restaurant","name":"Vanderbilt Kitchen & Bar","address":"105 Water St"}},{"type":"Feature","geometry":{"type":"Point","coordinates":[-71.060433,42.351491]},"properties":{"id":"restaurant-220","category":"restaurant","name":"Five Spices House","address":"58 Beach St"}},{"type":"Feature","geometry":{"type":"Point","coordinates":[-71.060807,42.351281]},"properties":{"id":"restaurant-221","category":"restaurant","name":"Authentic China House INC","address":"55 Beach St"}},{"type":"Feature","geometry":{"type":"Point","coordinates":[-71.054017,42.356011]},"properties":{"id":"restaurant-222","category":"restaurant","name":"Foumami America LLC","address":"225 Franklin St # 4"}},{"type":"Feature","geometry":{"type":"Point","coordinates":[-71.056183,42.358525]},"properties":{"id":"restaurant-223","category":"restaurant","name":"Au Bon Pain","address":"53 State St # 2"}},{"type":"Feature","geometry":{"type":"Point","coordinates":[-71.067437,42.350411]},"properties":{"id":"restaurant-224","category":"restaurant","name":"Revere Hotel Boston Common","address":"200 Stuart St"}},{"type":"Feature","geometry":{"type":"Point","coordinates":[-71.054535,42.358121]},"properties":{"id":"restaurant-225","category":"restaurant","name":"Villa Mexico Cafe LLC","address":"121 Water St"}},{"type":"Feature","geometry":{"type":"Point","coordinates":[-71.061623,42.355225]},"properties":{"id":"restaurant-226","category":"restaurant","name":"Stoddard'S","address":"48 Temple Pl"}},{"type":"Feature","geometry":{"type":"Point","coordinates":[-71.062043,42.355401]},"properties":{"id":"restaurant-227","category":"restaurant","name":"Temple Place Cafe","address":"26 Temple Pl"}},{"type":"Feature","geometry":{"type":"Point","coordinates":[-71.058098,42.351384]},"properties":{"id":"restaurant-228","category":"restaurant","name":"Asian Express","address":"128 Lincoln St # 103"}},{"type":"Feature","geometry":{"type":"Point","coordinates":[-71.056397,42.353707]},"properties":{"id":"restaurant-229","category":"restaurant","name":"Tavitas","address":"1 South Sta # 132"}},{"type":"Feature","geometry":{"type":"Point","coordinates":[-71.061966,42.358407]},"properties":{"id":"restaurant-230","category":"restaurant","name":"Mooo Restaurant","address":"15 Beacon St"}},{"type":"Feature","geometry":{"type":"Point","coordinates":[-71.058335,42.357846]},"properties":{"id":"restaurant-231","category":"restaurant","name":"Viga","address":"275 Washington St"}},{"type":"Feature","geometry":{"type":"Point","coordinates":[-71.061013,42.353986]},"properties":{"id":"restaurant-232","category":"restaurant","name":"Pita Kabob","address":"2 Avenue De Lafayette"}},{"type":"Feature","geometry":{"type":"Point","coordinates":[-71.058152,42.358048]},"properties":{"id":"restaurant-233","category":"restaurant","name":"Spyce Food Co","address":"241 Washington St"}},{"type":"Feature","geometry":{"type":"Point","coordinates":[-71.060532,42.350213]},"properties":{"id":"restaurant-234","category":"restaurant","name":"Kneeland Cafe","address":"75 Kneeland St"}},{"type":"Feature","geometry":{"type":"Point","coordinates":[-71.052559,42.356675]},"properties":{"id":"restaurant-235","category":"restaurant","name":"Ud Kitchen","address":"184 High St # 1"}},{"type":"Feature","geometry":{"type":"Point","coordinates":[-71.065316,42.350232]},"properties":{"id":"restaurant-236","category":"restaurant","name":"Abby Lane Food & Spirits","address":"255 Tremont St"}},{"type":"Feature","geometry":{"type":"Point","coordinates":[-71.062729,42.355447]},"properties":{"id":"restaurant-237","category":"restaurant","name":"Herreras Mexican Grille","address":"11 Temple Pl"}},{"type":"Feature","geometry":{"type":"Point","coordinates":[-71.059525,42.35629]},"properties":{"id":"restaurant-238","category":"restaurant","name":"Pabu-Boston","address":"3 Franklin St"}},{"type":"Feature","geometry":{"type":"Point","coordinates":[-71.069924,42.356847]},"properties":{"id":"restaurant-239","category":"restaurant","name":"Torch","address":"26 Charles St"}},{"type":"Feature","geometry":{"type":"Point","coordinates":[-71.056283,42.357728]},"properties":{"id":"restaurant-240","category":"restaurant","name":"Pavia Italian Cuisine","address":"82 Water St"}},{"type":"Feature","geometry":{"type":"Point","coordinates":[-71.06234,42.34908]},"properties":{"id":"restaurant-241","category":"restaurant","name":"Jooksing Cafe","address":"177 Harrison Ave"}},{"type":"Feature","geometry":{"type":"Point","coordinates":[-71.063088,42.354848]},"properties":{"id":"restaurant-242","category":"restaurant","name":"Sal'S Pizza","address":"150 Tremont St"}},{"type":"Feature","geometry":{"type":"Point","coordinates":[-71.060227,42.350869]},"properties":{"id":"restaurant-243","category":"restaurant","name":"Happy Family Food Market","address":"11 Hudson St # A"}},{"type":"Feature","geometry":{"type":"Point","coordinates":[-71.061059,42.351342]},"properties":{"id":"restaurant-244","category":"restaurant","name":"163 Vietnam Sandwich","address":"66 Harrison Ave"}},{"type":"Feature","geometry":{"type":"Point","coordinates":[-71.069138,42.351422]},"properties":{"id":"restaurant-245","category":"restaurant","name":"Crazy Dough'S Artisan Slice Br","address":"8 Park Plz # 26"}},{"type":"Feature","geometry":{"type":"Point","coordinates":[-71.056344,42.357545]},"properties":{"id":"restaurant-246","category":"restaurant","name":"Td Bank","address":"50 Post Office Sq # 105"}},{"type":"Feature","geometry":{"type":"Point","coordinates":[-71.059502,42.35344]},"properties":{"id":"restaurant-247","category":"restaurant","name":"Sa Pa","address":"92 Bedford St"}},{"type":"Feature","geometry":{"type":"Point","coordinates":[-71.069924,42.356847]},"properties":{"id":"restaurant-248","category":"restaurant","name":"BIN","address":"26 Charles St"}},{"type":"Feature","geometry":{"type":"Point","coordinates":[-71.05922,42.353852]},"properties":{"id":"restaurant-249","category":"restaurant","name":"J J Foley'S Bar & Grille","address":"21 Kingston St"}},{"type":"Feature","geometry":{"type":"Point","coordinates":[-71.054841,42.354241]},"properties":{"id":"restaurant-250","category":"restaurant","name":"Society On High","address":"99 High St # 102"}},{"type":"Feature","geometry":{"type":"Point","coordinates":[-71.064591,42.351289]},"properties":{"id":"restaurant-251","category":"restaurant","name":"Subway","address":"230 Tremont St"}},{"type":"Feature","geometry":{"type":"Point","coordinates":[-71.061966,42.355927]},"properties":{"id":"restaurant-252","category":"restaurant","name":"68 Chinese Fast Food","address":"48 Winter St # 6"}},{"type":"Feature","geometry":{"type":"Point","coordinates":[-71.069382,42.346803]},"properties":{"id":"restaurant-253","category":"restaurant","name":"Masa","address":"439 Tremont St"}},{"type":"Feature","geometry":{"type":"Point","coordinates":[-71.057869,42.356885]},"properties":{"id":"restaurant-254","category":"restaurant","name":"Cosi","address":"14 Milk St"}},{"type":"Feature","geometry":{"type":"Point","coordinates":[-71.062798,42.357625]},"properties":{"id":"restaurant-255","category":"restaurant","name":"No 9 Park","address":"9 Park St"}},{"type":"Feature","geometry":{"type":"Point","coordinates":[-71.062699,42.351113]},"properties":{"id":"restaurant-256","category":"restaurant","name":"Joy Luck Hot Pot","address":"702 Washington St"}},{"type":"Feature","geometry":{"type":"Point","coordinates":[-71.053734,42.354646]},"properties":{"id":"restaurant-257","category":"restaurant","name":"Biddy Early'S","address":"141 Pearl St # 1"}},{"type":"Feature","geometry":{"type":"Point","coordinates":[-71.059273,42.358933]},"properties":{"id":"restaurant-258","category":"restaurant","name":"Oceanaire Seafood Room","address":"40 Court St"}},{"type":"Feature","geometry":{"type":"Point","coordinates":[-71.060654,42.351544]},"properties":{"id":"restaurant-259","category":"restaurant","name":"Gourmet Dumpling House","address":"52 Beach St"}},{"type":"Feature","geometry":{"type":"Point","coordinates":[-71.068635,42.351403]},"properties":{"id":"restaurant-260","category":"restaurant","name":"M J Oconnors Irish Pub","address":"27 Columbus Ave"}},{"type":"Feature","geometry":{"type":"Point","coordinates":[-71.053742,42.355264]},"properties":{"id":"restaurant-261","category":"restaurant","name":"Cosi","address":"125 High St # 111"}},{"type":"Feature","geometry":{"type":"Point","coordinates":[-71.058098,42.357915]},"properties":{"id":"restaurant-262","category":"restaurant","name":"B Good","address":"255 Washington St"}},{"type":"Feature","geometry":{"type":"Point","coordinates":[-71.062684,42.351174]},"properties":{"id":"restaurant-263","category":"restaurant","name":"New Saigon Sandwich","address":"696 Washington St"}},{"type":"Feature","geometry":{"type":"Point","coordinates":[-71.06028,42.351697]},"properties":{"id":"restaurant-264","category":"restaurant","name":"Wai Wai Restaurant","address":"26 Oxford St"}},{"type":"Feature","geometry":{"type":"Point","coordinates":[-71.059289,42.357442]},"properties":{"id":"restaurant-265","category":"restaurant","name":"Freshii","address":"24 School St"}},{"type":"Feature","geometry":{"type":"Point","coordinates":[-71.058938,42.358579]},"properties":{"id":"restaurant-266","category":"restaurant","name":"Hungry Traveler","address":"29 Court Sq"}},{"type":"Feature","geometry":{"type":"Point","coordinates":[-71.052628,42.357224]},"properties":{"id":"restaurant-267","category":"restaurant","name":"Broadside","address":"99 Broad St"}},{"type":"Feature","geometry":{"type":"Point","coordinates":[-71.064675,42.351254]},"properties":{"id":"restaurant-268","category":"restaurant","name":"Genki Ya","address":"232 Tremont St"}},{"type":"Feature","geometry":{"type":"Point","coordinates":[-71.056061,42.351151]},"properties":{"id":"restaurant-269","category":"restaurant","name":"D'Angelo Grilled Sandwiches","address":"700 Atlantic Ave # 3"}},{"type":"Feature","geometry":{"type":"Point","coordinates":[-71.060242,42.356877]},"properties":{"id":"restaurant-270","category":"restaurant","name":"Marliave","address":"10 Bosworth St"}},{"type":"Feature","geometry":{"type":"Point","coordinates":[-71.069649,42.356919]},"properties":{"id":"restaurant-271","category":"restaurant","name":"Beacon Hill Hotel & Bistro","address":"25 Charles St"}},{"type":"Feature","geometry":{"type":"Point","coordinates":[-71.063309,42.352857]},"properties":{"id":"restaurant-272","category":"restaurant","name":"Blu At The Sports Club/La","address":"4 Avery St # 4"}},{"type":"Feature","geometry":{"type":"Point","coordinates":[-71.060532,42.350213]},"properties":{"id":"restaurant-273","category":"restaurant","name":"Crave-Mad For Chicken","address":"75 Kneeland St # 4"}},{"type":"Feature","geometry":{"type":"Point","coordinates":[-71.058816,42.351098]},"properties":{"id":"restaurant-274","category":"restaurant","name":"Best Bar-B-Que Kitchen INC","address":"86 Beach St"}},{"type":"Feature","geometry":{"type":"Point","coordinates":[-71.053963,42.357808]},"properties":{"id":"restaurant-275","category":"restaurant","name":"Mighty Love Food","address":"155 Milk St"}},{"type":"Feature","geometry":{"type":"Point","coordinates":[-71.070163,42.354818]},"properties":{"id":"park-276","category":"park","name":"Public Garden","address":"4 Charles Street"}},{"type":"Feature","geometry":{"type":"Point","coordinates":[-71.066007,42.349038]},"properties":{"id":"park-277","category":"park","name":"Elliot Norton Park","address":"295 Tremont Street"}},{"type":"Feature","geometry":{"type":"Point","coordinates":[-71.053408,42.347663]},"properties":{"id":"park-278","category":"park","name":"Fort Point Channel Harborwalk","address":null}},{"type":"Feature","geometry":{"type":"Point","coordinates":[-71.05898,42.351951]},"properties":{"id":"park-279","category":"park","name":"Auntie Kay & Uncle Frank Chin Park","address":null}},{"type":"Feature","geometry":{"type":"Point","coordinates":[-71.052785,42.343564]},"properties":{"id":"park-280","category":"park","name":"A Street Park","address":"135-141 A Street"}},{"type":"Feature","geometry":{"type":"Point","coordinates":[-71.057663,42.352671]},"properties":{"id":"park-281","category":"park","name":"Lincoln Street Green","address":"17 South Street"}},{"type":"Feature","geometry":{"type":"Point","coordinates":[-71.051674,42.353375]},"properties":{"id":"park-282","category":"park","name":"Tufts Wharf Harborwalk","address":"510 Atlantic Avenue"}},{"type":"Feature","geometry":{"type":"Point","coordinates":[-71.059755,42.350762]},"properties":{"id":"park-283","category":"park","name":"Mary Soo Hoo Park","address":"2 Hudson St"}},{"type":"Feature","geometry":{"type":"Point","coordinates":[-71.065352,42.355136]},"properties":{"id":"park-284","category":"park","name":"Boston Common","address":"139 Tremont St (Visitor Info Center) 1B Charles St (Earl of Sandwich) 38 Beacon St (Frog Pond) 167 Tremont St (Parkman Bandstand) 115 Boylston St (Deer Park)"}},{"type":"Feature","geometry":{"type":"Point","coordinates":[-71.051974,42.358927]},"properties":{"id":"park-285","category":"park","name":"Wharf District Park","address":null}},{"type":"Feature","geometry":{"type":"Point","coordinates":[-71.061829,42.357209]},"properties":{"id":"park-286","category":"park","name":"Granary Burying Ground","address":"95 Tremont Street"}},{"type":"Feature","geometry":{"type":"Point","coordinates":[-71.068376,42.349146]},"properties":{"id":"park-287","category":"park","name":"Bay Village Garden","address":"32 Melrose Street"}},{"type":"Feature","geometry":{"type":"Point","coordinates":[-71.066737,42.349487]},"properties":{"id":"park-288","category":"park","name":"Bay Village Neighborhood Park","address":"Charles Street S & Melrose Street"}},{"type":"Feature","geometry":{"type":"Point","coordinates":[-71.059767,42.358211]},"properties":{"id":"park-289","category":"park","name":"King's Chapel Burying Ground","address":"40 Tremont Street"}},{"type":"Feature","geometry":{"type":"Point","coordinates":[-71.053553,42.354041]},"properties":{"id":"park-290","category":"park","name":"Dewey Square Parks","address":null}},{"type":"Feature","geometry":{"type":"Point","coordinates":[-71.051196,42.354095]},"properties":{"id":"park-291","category":"park","name":"Independence Wharf Harborwalk","address":"470 Atlantic Avneue"}},{"type":"Feature","geometry":{"type":"Point","coordinates":[-71.055676,42.356243]},"properties":{"id":"park-292","category":"park","name":"Norman Leventhal Park","address":"130 Congress Str."}},{"type":"Feature","geometry":{"type":"Point","coordinates":[-71.052022,42.352788]},"properties":{"id":"park-293","category":"park","name":"Russia Wharf Harborwalk","address":null}},{"type":"Feature","geometry":{"type":"Point","coordinates":[-71.069019,42.350578]},"properties":{"id":"park-294","category":"park","name":"Statler Park","address":"243 Stuart Street"}},{"type":"Feature","geometry":{"type":"Point","coordinates":[-71.065839,42.352972]},"properties":{"id":"park-295","category":"park","name":"Central Burying Ground","address":"125 Boylston Street"}},{"type":"Feature","geometry":{"type":"Point","coordinates":[-71.056106,42.357072]},"properties":{"id":"park-296","category":"park","name":"Angell Memorial Square","address":"152-158 Congress Street"}},{"type":"Feature","geometry":{"type":"Point","coordinates":[-71.067846,42.351583]},"properties":{"id":"park-297","category":"park","name":"Lincoln Square","address":"2 Columbus Avenue"}},{"type":"Feature","geometry":{"type":"Point","coordinates":[-71.05241,42.351927]},"properties":{"id":"park-298","category":"park","name":"Federal Reserve Bank Harborwalk","address":"600 Atlantic Avenue"}},{"type":"Feature","geometry":{"type":"Point","coordinates":[-71.061637,42.348312]},"properties":{"id":"park-299","category":"park","name":"Tai Tung Park","address":"110 Tyler Street"}},{"type":"Feature","geometry":{"type":"Point","coordinates":[-71.067499,42.343429]},"properties":{"id":"park-300","category":"park","name":"Peters Park I","address":"230 Shawmut Avenue"}},{"type":"Feature","geometry":{"type":"Point","coordinates":[-71.058907,42.35156]},"properties":{"id":"park-301","category":"park","name":"Chinatown Park","address":null}}],"metadata":{"source":"City of Boston Open Data","extracted_at":"2026-08-24T15:43:21.676Z","bbox":{"west":-71.066,"south":42.348,"east":-71.055,"north":42.355},"pad_degrees":0.004,"note":"Everyday walking destinations, so the route planner can show which way there is shaded. NOT a cooling-resources directory — see SPEC §0 and src/lib/destinations.ts.","by_category":[{"category":"pharmacy","label":"Pharmacies (2024)","count":13},{"category":"library","label":"Boston Public Library branches","count":1},{"category":"hospital","label":"Hospitals","count":1},{"category":"health_center","label":"Community health centers","count":5},{"category":"public_housing","label":"Boston Housing Authority developments","count":1},{"category":"restaurant","label":"Restaurants (InfoUSA 2020)","count":255},{"category":"park","label":"Public open space","count":26}]}}