{"type":"FeatureCollection","features":[{"type":"Feature","geometry":{"type":"MultiPolygon","coordinates":[[[[-71.070422,42.352087],[-71.070103,42.352046],[-71.070153,42.351867],[-71.069463,42.351785],[-71.069338,42.351503],[-71.070166,42.351593],[-71.070181,42.351541],[-71.069892,42.351502],[-71.07006,42.351478],[-71.070028,42.351149],[-71.068236,42.350936],[-71.068315,42.350642],[-71.068055,42.350552],[-71.067134,42.350442],[-71.06714,42.350419],[-71.068849,42.350621],[-71.069035,42.350627],[-71.069237,42.350613],[-71.069208,42.350336],[-71.069522,42.350373],[-71.069561,42.35032],[-71.069502,42.350253],[-71.069138,42.35021],[-71.069097,42.350163],[-71.067123,42.349929],[-71.06713,42.349898],[-71.067533,42.349946],[-71.067545,42.349899],[-71.06714,42.349849],[-71.067161,42.349746],[-71.067388,42.349773],[-71.067397,42.349741],[-71.067282,42.349725],[-71.067324,42.34969],[-71.067333,42.349648],[-71.066889,42.349594],[-71.066918,42.349447],[-71.066797,42.349428],[-71.067054,42.349307],[-71.066826,42.349042],[-71.066784,42.349037],[-71.066838,42.348828],[-71.066514,42.348785],[-71.066518,42.348769],[-71.066196,42.348719],[-71.064858,42.348554],[-71.063989,42.348414],[-71.06287,42.348279],[-71.062875,42.348265],[-71.062748,42.348229],[-71.061907,42.348129],[-71.061878,42.3482],[-71.061011,42.348097],[-71.060549,42.348739],[-71.060786,42.348796],[-71.06111,42.348835],[-71.061094,42.348905],[-71.061129,42.348932],[-71.060878,42.348902],[-71.060844,42.348989],[-71.057613,42.348605],[-71.057529,42.348814],[-71.057988,42.348915],[-71.060266,42.349186],[-71.060108,42.349586],[-71.059056,42.349461],[-71.05906,42.349451],[-71.058562,42.349341],[-71.057926,42.349266],[-71.057909,42.349308],[-71.05707,42.349205],[-71.057083,42.349112],[-71.05702,42.349089],[-71.057916,42.347749],[-71.057906,42.34769],[-71.057141,42.347408],[-71.055908,42.347262],[-71.054533,42.349309],[-71.054521,42.349419],[-71.054447,42.34941],[-71.053477,42.350853],[-71.054337,42.351171],[-71.054893,42.351237],[-71.054936,42.351172],[-71.05615,42.351317],[-71.056527,42.350816],[-71.056589,42.350823],[-71.05656,42.350888],[-71.057022,42.350994],[-71.057018,42.351004],[-71.056543,42.350948],[-71.056401,42.351249],[-71.056731,42.351383],[-71.056294,42.351331],[-71.056148,42.351622],[-71.055498,42.351545],[-71.054479,42.351779],[-71.054307,42.351954],[-71.054833,42.352232],[-71.054993,42.352283],[-71.055894,42.352395],[-71.056034,42.352612],[-71.057488,42.352786],[-71.05731,42.352888],[-71.057163,42.352943],[-71.057114,42.352988],[-71.057099,42.353043],[-71.057118,42.353094],[-71.057259,42.353188],[-71.058595,42.353347],[-71.058454,42.35336],[-71.056237,42.353097],[-71.055998,42.353225],[-71.05602,42.353309],[-71.055897,42.353294],[-71.055573,42.353469],[-71.055601,42.353498],[-71.055402,42.35361],[-71.055342,42.353603],[-71.054915,42.353838],[-71.054995,42.353918],[-71.054793,42.353902],[-71.054378,42.354122],[-71.054355,42.354162],[-71.054364,42.354206],[-71.054619,42.354471],[-71.054916,42.354514],[-71.054775,42.354643],[-71.05498,42.354839],[-71.055586,42.354911],[-71.055688,42.355479],[-71.060609,42.356063],[-71.060724,42.356068],[-71.061189,42.356022],[-71.061793,42.356094],[-71.062245,42.35605],[-71.062202,42.355802],[-71.062574,42.355847],[-71.063138,42.355804],[-71.064908,42.356014],[-71.065154,42.3558],[-71.065217,42.355722],[-71.065001,42.355538],[-71.064919,42.355494],[-71.063566,42.355334],[-71.063612,42.355284],[-71.064757,42.355417],[-71.064819,42.35535],[-71.06467,42.355264],[-71.064703,42.35523],[-71.065857,42.355367],[-71.065901,42.355358],[-71.066025,42.355129],[-71.068331,42.355403],[-71.068362,42.355405],[-71.068398,42.355309],[-71.069017,42.355382],[-71.069306,42.354846],[-71.069065,42.354774],[-71.068727,42.354734],[-71.068706,42.354714],[-71.068515,42.354657],[-71.067228,42.354503],[-71.067262,42.354473],[-71.067326,42.354356],[-71.067336,42.354309],[-71.067083,42.354231],[-71.066148,42.35412],[-71.066176,42.354104],[-71.068565,42.354371],[-71.069051,42.354369],[-71.06909,42.354116],[-71.066097,42.35376],[-71.066117,42.353675],[-71.066069,42.353639],[-71.065688,42.353594],[-71.065689,42.353549],[-71.065355,42.353509],[-71.06535,42.353465],[-71.06599,42.353515],[-71.066,42.353489],[-71.067115,42.353573],[-71.067173,42.353503],[-71.069181,42.353739],[-71.069235,42.353642],[-71.069253,42.353331],[-71.069167,42.353244],[-71.067013,42.352978],[-71.067038,42.352791],[-71.067731,42.352874],[-71.06818,42.352855],[-71.068206,42.35279],[-71.068568,42.352825],[-71.068636,42.352581],[-71.069566,42.352686],[-71.069601,42.352498],[-71.069585,42.35234],[-71.068322,42.35219],[-71.068329,42.352138],[-71.068941,42.352211],[-71.069049,42.352207],[-71.069049,42.352195],[-71.070193,42.352331],[-71.070397,42.352172],[-71.070422,42.352087]],[[-71.066136,42.351178],[-71.065467,42.351257],[-71.064438,42.351187],[-71.063566,42.351093],[-71.063577,42.351066],[-71.063558,42.35106],[-71.063063,42.350939],[-71.062255,42.350834],[-71.062432,42.350855],[-71.062474,42.35076],[-71.065933,42.351176],[-71.065954,42.351156],[-71.066136,42.351178]],[[-71.065414,42.351769],[-71.064842,42.351707],[-71.064826,42.351767],[-71.064353,42.351711],[-71.064355,42.351643],[-71.065414,42.351769]],[[-71.062887,42.351585],[-71.062879,42.351625],[-71.062646,42.351597],[-71.062669,42.351588],[-71.06268,42.35156],[-71.062887,42.351585]],[[-71.062088,42.351532],[-71.061602,42.351536],[-71.061605,42.351519],[-71.061248,42.351439],[-71.060205,42.351315],[-71.060234,42.351243],[-71.060063,42.351205],[-71.060069,42.35119],[-71.060469,42.351279],[-71.060616,42.351296],[-71.060611,42.351308],[-71.061072,42.351411],[-71.062088,42.351532]],[[-71.062071,42.350957],[-71.06154,42.350894],[-71.061497,42.351014],[-71.061441,42.351001],[-71.061476,42.35091],[-71.061284,42.350867],[-71.061291,42.35085],[-71.061944,42.350928],[-71.062071,42.350957]],[[-71.062017,42.350647],[-71.061269,42.350558],[-71.061289,42.350506],[-71.06104,42.350435],[-71.060936,42.350423],[-71.060964,42.350349],[-71.061011,42.350355],[-71.061001,42.350379],[-71.061232,42.350437],[-71.061484,42.350494],[-71.061689,42.350518],[-71.061673,42.350559],[-71.062017,42.350647]],[[-71.060398,42.350162],[-71.060389,42.350185],[-71.060139,42.350155],[-71.060147,42.350117],[-71.060226,42.350142],[-71.060398,42.350162]],[[-71.060002,42.351093],[-71.059988,42.351128],[-71.059603,42.351046],[-71.060002,42.351093]],[[-71.059987,42.349897],[-71.059938,42.350015],[-71.059786,42.349982],[-71.058238,42.349798],[-71.05829,42.349695],[-71.059135,42.349796],[-71.059105,42.349866],[-71.059244,42.349899],[-71.059608,42.349942],[-71.059645,42.349856],[-71.059987,42.349897]],[[-71.057908,42.352234],[-71.05759,42.352196],[-71.057616,42.352141],[-71.057908,42.352234]]],[[[-71.068648,42.348582],[-71.068443,42.348558],[-71.068486,42.34836],[-71.065997,42.348062],[-71.06613,42.347997],[-71.066296,42.34788],[-71.066297,42.347793],[-71.066235,42.347759],[-71.064894,42.347587],[-71.064503,42.347783],[-71.06444,42.347928],[-71.061712,42.347604],[-71.061566,42.347954],[-71.061555,42.348046],[-71.061674,42.348074],[-71.063886,42.348341],[-71.064581,42.348419],[-71.064587,42.348409],[-71.065913,42.348574],[-71.065917,42.348586],[-71.068389,42.348879],[-71.068402,42.348831],[-71.068565,42.34885],[-71.068575,42.348779],[-71.068401,42.348757],[-71.068424,42.34865],[-71.06863,42.348674],[-71.068648,42.348582]]]]},"properties":{"kind":"building"}},{"type":"Feature","geometry":{"type":"MultiPolygon","coordinates":[[[[-71.067306,42.353599],[-71.067294,42.353558],[-71.067215,42.353499],[-71.066653,42.353431],[-71.06664,42.353402],[-71.066657,42.353394],[-71.066805,42.353405],[-71.066841,42.3534],[-71.066892,42.353362],[-71.066899,42.353335],[-71.066871,42.353286],[-71.06676,42.353261],[-71.066793,42.353234],[-71.067071,42.353267],[-71.067156,42.353241],[-71.067191,42.353179],[-71.067164,42.353125],[-71.067237,42.353097],[-71.067268,42.353062],[-71.06728,42.353021],[-71.067268,42.35298],[-71.067189,42.352921],[-71.066642,42.352855],[-71.066578,42.352829],[-71.066614,42.352799],[-71.066621,42.352774],[-71.066606,42.352738],[-71.066782,42.352751],[-71.066835,42.352735],[-71.066857,42.352696],[-71.066811,42.352645],[-71.065688,42.352518],[-71.065628,42.352542],[-71.065361,42.35251],[-71.06528,42.352541],[-71.064975,42.352515],[-71.064922,42.352553],[-71.064915,42.352581],[-71.064943,42.352632],[-71.064975,42.352647],[-71.065647,42.352736],[-71.065612,42.352783],[-71.065124,42.352745],[-71.065088,42.352785],[-71.065105,42.352816],[-71.065081,42.352852],[-71.065094,42.352876],[-71.065032,42.352908],[-71.065044,42.352962],[-71.064745,42.352926],[-71.06466,42.352952],[-71.064625,42.353015],[-71.064656,42.353073],[-71.064658,42.353148],[-71.064778,42.353243],[-71.064912,42.35326],[-71.064915,42.353272],[-71.064617,42.353248],[-71.064557,42.353292],[-71.064557,42.353354],[-71.064617,42.353398],[-71.064909,42.353434],[-71.06488,42.353458],[-71.064878,42.353491],[-71.064592,42.353467],[-71.064538,42.353508],[-71.064538,42.353564],[-71.064592,42.353605],[-71.06554,42.353718],[-71.065509,42.353756],[-71.065348,42.353739],[-71.0653,42.353753],[-71.06528,42.353789],[-71.065285,42.353808],[-71.065322,42.353836],[-71.065393,42.353845],[-71.065383,42.353865],[-71.065225,42.353846],[-71.065181,42.35386],[-71.065077,42.353851],[-71.065072,42.35384],[-71.065146,42.353848],[-71.065192,42.353834],[-71.065206,42.353782],[-71.065245,42.353731],[-71.065226,42.353697],[-71.064418,42.353592],[-71.064358,42.353622],[-71.064358,42.353658],[-71.064319,42.35371],[-71.064332,42.353737],[-71.064296,42.353748],[-71.06428,42.353777],[-71.063967,42.35375],[-71.06398,42.353773],[-71.064362,42.353821],[-71.064304,42.353823],[-71.064258,42.353857],[-71.064258,42.353905],[-71.064238,42.353945],[-71.064261,42.353987],[-71.06389,42.353943],[-71.06386,42.353958],[-71.063878,42.353989],[-71.064251,42.354034],[-71.064214,42.354083],[-71.064236,42.354124],[-71.064178,42.354117],[-71.064125,42.354133],[-71.06379,42.354101],[-71.063766,42.354113],[-71.06378,42.354138],[-71.064105,42.354177],[-71.064148,42.354222],[-71.064088,42.354236],[-71.064069,42.35427],[-71.064088,42.354304],[-71.064127,42.354317],[-71.064154,42.354353],[-71.064036,42.354339],[-71.063979,42.354357],[-71.063955,42.354399],[-71.063968,42.35443],[-71.063903,42.354482],[-71.063892,42.354523],[-71.063903,42.354564],[-71.063982,42.354623],[-71.064277,42.354659],[-71.064351,42.354678],[-71.064347,42.354688],[-71.063878,42.354645],[-71.063818,42.354663],[-71.063796,42.354697],[-71.06352,42.354664],[-71.063475,42.354686],[-71.063486,42.354725],[-71.063754,42.354764],[-71.063754,42.354799],[-71.06346,42.354764],[-71.063415,42.354786],[-71.063415,42.354814],[-71.06346,42.354836],[-71.064014,42.354902],[-71.064049,42.354891],[-71.064063,42.354866],[-71.064686,42.35494],[-71.064742,42.354923],[-71.064763,42.354888],[-71.065141,42.354926],[-71.06518,42.354898],[-71.065182,42.354866],[-71.065471,42.354905],[-71.065513,42.354927],[-71.065911,42.354976],[-71.065952,42.355019],[-71.066791,42.355112],[-71.066828,42.355085],[-71.066882,42.354985],[-71.066873,42.354951],[-71.066806,42.354901],[-71.066269,42.354836],[-71.066234,42.354806],[-71.066211,42.35476],[-71.066185,42.354747],[-71.066125,42.354739],[-71.066091,42.354717],[-71.065839,42.354686],[-71.065823,42.354648],[-71.065876,42.354607],[-71.065883,42.354581],[-71.066983,42.354712],[-71.067032,42.354705],[-71.067103,42.354653],[-71.067103,42.354579],[-71.067032,42.354528],[-71.065735,42.354372],[-71.065648,42.354398],[-71.065588,42.354338],[-71.065087,42.354274],[-71.065604,42.354326],[-71.065679,42.354303],[-71.065777,42.354304],[-71.065809,42.35428],[-71.065796,42.354233],[-71.0657,42.354214],[-71.065645,42.354174],[-71.065604,42.354168],[-71.064438,42.35404],[-71.064442,42.354029],[-71.064694,42.35405],[-71.065904,42.354192],[-71.065958,42.354165],[-71.066394,42.354216],[-71.066417,42.354199],[-71.066394,42.354182],[-71.065956,42.35413],[-71.06653,42.354193],[-71.066575,42.354171],[-71.066588,42.354129],[-71.066577,42.354108],[-71.066351,42.354076],[-71.06635,42.354052],[-71.066401,42.354029],[-71.066391,42.35399],[-71.066255,42.353967],[-71.066265,42.353945],[-71.06625,42.353918],[-71.066195,42.353904],[-71.066203,42.353882],[-71.066303,42.353881],[-71.066335,42.353857],[-71.066322,42.35381],[-71.066251,42.353794],[-71.066288,42.353753],[-71.066251,42.353711],[-71.066696,42.353764],[-71.066799,42.353732],[-71.066838,42.353669],[-71.06716,42.353707],[-71.067215,42.353699],[-71.067263,42.353675],[-71.067294,42.35364],[-71.067306,42.353599]]],[[[-71.066592,42.348129],[-71.066552,42.348084],[-71.065765,42.34799],[-71.065719,42.348004],[-71.0657,42.348038],[-71.06574,42.348082],[-71.066527,42.348176],[-71.066573,42.348162],[-71.066592,42.348129]]],[[[-71.06648,42.348262],[-71.066446,42.348224],[-71.065871,42.348155],[-71.065863,42.348136],[-71.06553,42.348097],[-71.065512,42.34811],[-71.06553,42.348123],[-71.065709,42.348145],[-71.06568,42.34818],[-71.065714,42.348218],[-71.066425,42.348303],[-71.066464,42.348291],[-71.06648,42.348262]]],[[[-71.066452,42.348531],[-71.066416,42.348491],[-71.06568,42.348403],[-71.065639,42.348415],[-71.065622,42.348446],[-71.06546,42.348429],[-71.065437,42.348446],[-71.06546,42.348463],[-71.066394,42.348574],[-71.066435,42.348561],[-71.066452,42.348531]]],[[[-71.06629,42.348404],[-71.066252,42.348362],[-71.066052,42.348337],[-71.066043,42.348319],[-71.06571,42.34828],[-71.065692,42.348293],[-71.06549,42.34827],[-71.065446,42.348284],[-71.065428,42.348316],[-71.065466,42.348358],[-71.066228,42.348449],[-71.066272,42.348436],[-71.06629,42.348404]]],[[[-71.066113,42.349302],[-71.066083,42.349269],[-71.06551,42.3492],[-71.065476,42.349211],[-71.065461,42.349236],[-71.065491,42.349269],[-71.066064,42.349338],[-71.066099,42.349327],[-71.066113,42.349302]]],[[[-71.06602,42.349146],[-71.06599,42.349113],[-71.06533,42.349034],[-71.065296,42.349045],[-71.065281,42.34907],[-71.065311,42.349103],[-71.065971,42.349182],[-71.066005,42.349172],[-71.06602,42.349146]]],[[[-71.065987,42.348856],[-71.065957,42.348823],[-71.065384,42.348754],[-71.06535,42.348765],[-71.065335,42.34879],[-71.065365,42.348823],[-71.065938,42.348892],[-71.065973,42.348881],[-71.065987,42.348856]]],[[[-71.065964,42.355111],[-71.065956,42.355082],[-71.0659,42.35504],[-71.064807,42.354909],[-71.064734,42.354932],[-71.064703,42.354986],[-71.064734,42.35504],[-71.064767,42.355057],[-71.065861,42.355188],[-71.065934,42.355165],[-71.065964,42.355111]]],[[[-71.065963,42.351267],[-71.065944,42.351254],[-71.06557,42.35121],[-71.06525,42.351197],[-71.065232,42.35121],[-71.06525,42.351223],[-71.065576,42.351262],[-71.065944,42.351281],[-71.065963,42.351267]]],[[[-71.06594,42.349005],[-71.065918,42.34898],[-71.06536,42.348914],[-71.065324,42.34894],[-71.065346,42.348964],[-71.065904,42.349031],[-71.06594,42.349005]]],[[[-71.065647,42.350776],[-71.065621,42.350757],[-71.06515,42.350701],[-71.065126,42.350713],[-71.06515,42.350739],[-71.065621,42.350795],[-71.065647,42.350776]]],[[[-71.065622,42.35084],[-71.065596,42.350821],[-71.065125,42.350765],[-71.065101,42.350777],[-71.065125,42.350803],[-71.065596,42.350859],[-71.065622,42.35084]]],[[[-71.065552,42.350903],[-71.065533,42.350889],[-71.06511,42.350839],[-71.065091,42.350853],[-71.06511,42.350867],[-71.065533,42.350918],[-71.065552,42.350903]]],[[[-71.065294,42.351352],[-71.065276,42.351338],[-71.064926,42.351297],[-71.064908,42.35131],[-71.064926,42.351323],[-71.065276,42.351365],[-71.065294,42.351352]]],[[[-71.065183,42.348495],[-71.065165,42.348481],[-71.064744,42.348424],[-71.064418,42.348386],[-71.0644,42.348399],[-71.064418,42.348412],[-71.064839,42.348469],[-71.065165,42.348508],[-71.065183,42.348495]]],[[[-71.064987,42.352154],[-71.064968,42.35214],[-71.064545,42.35209],[-71.064526,42.352104],[-71.064545,42.352118],[-71.064968,42.352169],[-71.064987,42.352154]]],[[[-71.06495,42.351865],[-71.064932,42.351851],[-71.064606,42.351813],[-71.064588,42.351826],[-71.064606,42.351839],[-71.064932,42.351878],[-71.06495,42.351865]]],[[[-71.064918,42.352097],[-71.0649,42.352083],[-71.06455,42.352042],[-71.064532,42.352055],[-71.06455,42.352068],[-71.0649,42.35211],[-71.064918,42.352097]]],[[[-71.064874,42.352199],[-71.064856,42.352185],[-71.06453,42.352147],[-71.064512,42.35216],[-71.06453,42.352173],[-71.064856,42.352212],[-71.064874,42.352199]]],[[[-71.064656,42.348773],[-71.064633,42.348756],[-71.064326,42.348712],[-71.063896,42.348661],[-71.063877,42.348675],[-71.063896,42.348689],[-71.064164,42.348721],[-71.064186,42.348737],[-71.064633,42.34879],[-71.064656,42.348773]]],[[[-71.064602,42.350976],[-71.064582,42.350954],[-71.064502,42.350942],[-71.063934,42.350874],[-71.063857,42.350881],[-71.063831,42.350863],[-71.06336,42.350807],[-71.063336,42.350819],[-71.06335,42.350844],[-71.063495,42.350861],[-71.06351,42.350882],[-71.063675,42.350907],[-71.064502,42.350999],[-71.064582,42.350998],[-71.064602,42.350976]]],[[[-71.064567,42.348887],[-71.064548,42.348874],[-71.064199,42.348832],[-71.064181,42.348818],[-71.063855,42.34878],[-71.063837,42.348793],[-71.063855,42.348806],[-71.064132,42.348839],[-71.06415,42.348853],[-71.064548,42.348901],[-71.064567,42.348887]]],[[[-71.064487,42.353347],[-71.064376,42.353306],[-71.06392,42.353251],[-71.063897,42.353268],[-71.06392,42.353285],[-71.064063,42.353312],[-71.064469,42.353361],[-71.064487,42.353347]]],[[[-71.064472,42.35344],[-71.064453,42.353426],[-71.06391,42.353361],[-71.063892,42.353374],[-71.063958,42.353399],[-71.064388,42.353451],[-71.064453,42.353455],[-71.064472,42.35344]]],[[[-71.06434,42.348796],[-71.064317,42.348779],[-71.06387,42.348726],[-71.063847,42.348743],[-71.06387,42.34876],[-71.064317,42.348813],[-71.06434,42.348796]]],[[[-71.064302,42.34892],[-71.064283,42.348906],[-71.06386,42.348856],[-71.063841,42.34887],[-71.06386,42.348884],[-71.064283,42.348935],[-71.064302,42.34892]]],[[[-71.064147,42.349187],[-71.064129,42.349173],[-71.063803,42.349135],[-71.063785,42.349148],[-71.063803,42.349161],[-71.064129,42.3492],[-71.064147,42.349187]]],[[[-71.064134,42.348466],[-71.064033,42.348436],[-71.0637,42.348397],[-71.063682,42.34841],[-71.063783,42.348439],[-71.064116,42.348479],[-71.064134,42.348466]]],[[[-71.064112,42.34981],[-71.064093,42.349796],[-71.06367,42.349746],[-71.063651,42.34976],[-71.06367,42.349774],[-71.064093,42.349825],[-71.064112,42.34981]]],[[[-71.064094,42.349332],[-71.064076,42.349318],[-71.06375,42.34928],[-71.063732,42.349293],[-71.06375,42.349306],[-71.064076,42.349345],[-71.064094,42.349332]]],[[[-71.064081,42.349374],[-71.064063,42.34936],[-71.063737,42.349322],[-71.063719,42.349335],[-71.063737,42.349348],[-71.064063,42.349387],[-71.064081,42.349374]]],[[[-71.064031,42.349901],[-71.064013,42.349888],[-71.063614,42.349841],[-71.063596,42.349854],[-71.063614,42.349867],[-71.064013,42.349915],[-71.064031,42.349901]]],[[[-71.064002,42.35],[-71.063983,42.349986],[-71.06356,42.349936],[-71.063541,42.34995],[-71.06356,42.349964],[-71.063983,42.350015],[-71.064002,42.35]]],[[[-71.063947,42.350047],[-71.063929,42.350034],[-71.06353,42.349987],[-71.063512,42.35],[-71.06353,42.350013],[-71.063929,42.350061],[-71.063947,42.350047]]],[[[-71.063879,42.350824],[-71.063861,42.350804],[-71.06316,42.350714],[-71.063147,42.350737],[-71.063326,42.35076],[-71.063327,42.350773],[-71.06313,42.350751],[-71.063111,42.350765],[-71.06313,42.350779],[-71.063553,42.35083],[-71.063572,42.350815],[-71.06385,42.350845],[-71.063879,42.350824]]],[[[-71.063857,42.350465],[-71.063839,42.350452],[-71.06344,42.350405],[-71.063422,42.350418],[-71.06344,42.350431],[-71.063839,42.350479],[-71.063857,42.350465]]],[[[-71.063833,42.350224],[-71.063814,42.350211],[-71.06344,42.350167],[-71.063422,42.35018],[-71.06344,42.350193],[-71.063814,42.350238],[-71.063833,42.350224]]],[[[-71.063809,42.350531],[-71.06379,42.350518],[-71.063416,42.350474],[-71.06328,42.35047],[-71.063262,42.350483],[-71.06328,42.350496],[-71.063654,42.350541],[-71.06379,42.350545],[-71.063809,42.350531]]],[[[-71.063803,42.35029],[-71.063784,42.350277],[-71.06341,42.350233],[-71.063392,42.350246],[-71.06341,42.350259],[-71.063784,42.350304],[-71.063803,42.35029]]],[[[-71.063792,42.350754],[-71.063773,42.35074],[-71.063488,42.3507],[-71.06318,42.350664],[-71.063162,42.350677],[-71.063343,42.350717],[-71.063773,42.350769],[-71.063792,42.350754]]],[[[-71.063778,42.350324],[-71.063759,42.350311],[-71.063385,42.350267],[-71.063367,42.35028],[-71.063385,42.350293],[-71.063759,42.350338],[-71.063778,42.350324]]],[[[-71.063753,42.350592],[-71.063735,42.350578],[-71.063255,42.350523],[-71.063237,42.350536],[-71.063255,42.350549],[-71.063629,42.350594],[-71.063735,42.350605],[-71.063753,42.350592]]],[[[-71.063718,42.350652],[-71.063629,42.350616],[-71.06323,42.350569],[-71.063212,42.350582],[-71.063332,42.350608],[-71.06335,42.350623],[-71.0637,42.350665],[-71.063718,42.350652]]],[[[-71.063678,42.350482],[-71.06366,42.350468],[-71.06331,42.350427],[-71.063292,42.35044],[-71.06331,42.350453],[-71.06366,42.350495],[-71.063678,42.350482]]],[[[-71.063627,42.350677],[-71.063609,42.350664],[-71.06321,42.350617],[-71.063192,42.35063],[-71.06321,42.350643],[-71.063609,42.350691],[-71.063627,42.350677]]],[[[-71.063494,42.35228],[-71.063476,42.352266],[-71.063126,42.352225],[-71.06283,42.352202],[-71.062812,42.352215],[-71.062953,42.352243],[-71.062965,42.352266],[-71.063315,42.352308],[-71.063333,42.352295],[-71.063415,42.352305],[-71.063494,42.35228]]],[[[-71.063252,42.353352],[-71.063233,42.353338],[-71.06281,42.353288],[-71.06274,42.353289],[-71.062717,42.353306],[-71.06274,42.353323],[-71.063187,42.353376],[-71.063252,42.353352]]],[[[-71.063252,42.353264],[-71.063233,42.35325],[-71.06281,42.3532],[-71.062744,42.353193],[-71.062725,42.353207],[-71.062744,42.353221],[-71.063167,42.353272],[-71.063233,42.353279],[-71.063252,42.353264]]],[[[-71.063089,42.349443],[-71.063063,42.349415],[-71.062982,42.349404],[-71.062972,42.349371],[-71.062943,42.349362],[-71.06235,42.349292],[-71.06232,42.349301],[-71.062308,42.349323],[-71.061988,42.349293],[-71.06197,42.349306],[-71.061988,42.349319],[-71.062415,42.349362],[-71.062424,42.349395],[-71.062454,42.349404],[-71.063047,42.349475],[-71.063076,42.349465],[-71.063089,42.349443]]],[[[-71.063055,42.348413],[-71.063037,42.348393],[-71.06253,42.348332],[-71.062501,42.348354],[-71.06237,42.348344],[-71.06142,42.348224],[-71.06139,42.348239],[-71.061408,42.34827],[-71.061538,42.348286],[-71.061539,42.348313],[-71.061569,42.348335],[-71.06228,42.34842],[-71.062319,42.348408],[-71.06245,42.348411],[-71.062938,42.348469],[-71.062966,42.348461],[-71.062974,42.348429],[-71.063037,42.348433],[-71.063055,42.348413]]],[[[-71.06291,42.34861],[-71.062887,42.348593],[-71.06244,42.34854],[-71.062417,42.348557],[-71.06244,42.348574],[-71.062887,42.348627],[-71.06291,42.34861]]],[[[-71.062495,42.349614],[-71.062465,42.349581],[-71.061892,42.349512],[-71.061858,42.349523],[-71.061843,42.349548],[-71.061401,42.349498],[-71.061367,42.349509],[-71.061352,42.349534],[-71.061367,42.349559],[-71.061453,42.349576],[-71.06148,42.349601],[-71.062053,42.34967],[-71.062098,42.349648],[-71.062088,42.349608],[-71.062446,42.34965],[-71.062481,42.349639],[-71.062495,42.349614]]],[[[-71.062462,42.353802],[-71.062443,42.353788],[-71.06202,42.353738],[-71.062001,42.353752],[-71.061729,42.353725],[-71.061711,42.353738],[-71.061729,42.353751],[-71.062055,42.35379],[-71.062073,42.353777],[-71.062443,42.353817],[-71.062462,42.353802]]],[[[-71.062382,42.350419],[-71.062369,42.350396],[-71.062337,42.350386],[-71.062357,42.35036],[-71.062333,42.350333],[-71.06175,42.350263],[-71.061722,42.350272],[-71.061711,42.350292],[-71.061722,42.350312],[-71.061688,42.350322],[-71.061675,42.350346],[-71.061703,42.350377],[-71.062337,42.350453],[-71.062369,42.350443],[-71.062382,42.350419]]],[[[-71.062347,42.35375],[-71.062328,42.353736],[-71.061905,42.353686],[-71.061886,42.3537],[-71.061905,42.353714],[-71.062328,42.353765],[-71.062347,42.35375]]],[[[-71.062332,42.353875],[-71.062313,42.353861],[-71.06189,42.353811],[-71.061871,42.353825],[-71.061962,42.353848],[-71.061963,42.353872],[-71.062296,42.353912],[-71.062332,42.353875]]],[[[-71.06232,42.349732],[-71.06229,42.349699],[-71.061717,42.34963],[-71.061683,42.349641],[-71.061668,42.349666],[-71.061698,42.349699],[-71.062271,42.349768],[-71.062306,42.349757],[-71.06232,42.349732]]],[[[-71.062313,42.353673],[-71.062283,42.35364],[-71.061995,42.353605],[-71.062003,42.353594],[-71.061984,42.353581],[-71.06161,42.353537],[-71.061592,42.35355],[-71.061694,42.353573],[-71.061665,42.353593],[-71.061676,42.353632],[-71.061806,42.353667],[-71.062229,42.353718],[-71.062299,42.353698],[-71.062313,42.353673]]],[[[-71.062285,42.348718],[-71.062259,42.34869],[-71.06165,42.348617],[-71.061611,42.348636],[-71.06098,42.348564],[-71.060943,42.348575],[-71.060928,42.348602],[-71.060943,42.348629],[-71.06098,42.34864],[-71.062137,42.348777],[-71.062169,42.348767],[-71.062182,42.348743],[-71.062259,42.348747],[-71.062285,42.348718]]],[[[-71.062277,42.349477],[-71.062259,42.349463],[-71.061933,42.349425],[-71.061915,42.349438],[-71.061933,42.349451],[-71.062259,42.34949],[-71.062277,42.349477]]],[[[-71.062254,42.349919],[-71.062236,42.349905],[-71.06191,42.349867],[-71.061892,42.34988],[-71.06191,42.349893],[-71.062236,42.349932],[-71.062254,42.349919]]],[[[-71.062224,42.349965],[-71.062206,42.349951],[-71.06188,42.349913],[-71.061862,42.349926],[-71.06188,42.349939],[-71.062206,42.349978],[-71.062224,42.349965]]],[[[-71.062218,42.350039],[-71.0622,42.350025],[-71.061874,42.349987],[-71.061856,42.35],[-71.061874,42.350013],[-71.0622,42.350052],[-71.062218,42.350039]]],[[[-71.06221,42.348238],[-71.062172,42.348196],[-71.06141,42.348104],[-71.061366,42.348118],[-71.061348,42.34815],[-71.061386,42.348192],[-71.062148,42.348283],[-71.062192,42.34827],[-71.06221,42.348238]]],[[[-71.062194,42.350083],[-71.062176,42.350069],[-71.06185,42.350031],[-71.061832,42.350044],[-71.06185,42.350057],[-71.062176,42.350096],[-71.062194,42.350083]]],[[[-71.062164,42.350119],[-71.062146,42.350105],[-71.06182,42.350067],[-71.061802,42.35008],[-71.061104,42.349992],[-71.061067,42.350003],[-71.061052,42.35003],[-71.061084,42.350065],[-71.061769,42.350147],[-71.061806,42.350136],[-71.061817,42.350094],[-71.062146,42.350132],[-71.062164,42.350119]]],[[[-71.062154,42.353822],[-71.062136,42.353808],[-71.06181,42.35377],[-71.061792,42.353783],[-71.06181,42.353796],[-71.062136,42.353835],[-71.062154,42.353822]]],[[[-71.062126,42.350191],[-71.062107,42.350177],[-71.061806,42.350142],[-71.061788,42.350155],[-71.061806,42.350168],[-71.062107,42.350204],[-71.062126,42.350191]]],[[[-71.062124,42.350239],[-71.062106,42.350225],[-71.06178,42.350187],[-71.061762,42.3502],[-71.06178,42.350213],[-71.062106,42.350252],[-71.062124,42.350239]]],[[[-71.062096,42.34846],[-71.062078,42.348446],[-71.061752,42.348408],[-71.061734,42.348421],[-71.061752,42.348434],[-71.062078,42.348473],[-71.062096,42.34846]]],[[[-71.062095,42.348924],[-71.062069,42.348896],[-71.061935,42.348879],[-71.061918,42.348862],[-71.061669,42.348833],[-71.061695,42.348799],[-71.061661,42.348761],[-71.06095,42.348676],[-71.060911,42.348688],[-71.060895,42.348717],[-71.060929,42.348755],[-71.061575,42.348832],[-71.06146,42.348823],[-71.06143,42.348832],[-71.061418,42.348854],[-71.0609,42.348796],[-71.06087,42.348805],[-71.060858,42.348827],[-71.060884,42.348856],[-71.061493,42.348929],[-71.061522,42.348919],[-71.061535,42.348897],[-71.062053,42.348956],[-71.062082,42.348946],[-71.062095,42.348924]]],[[[-71.06194,42.351003],[-71.061917,42.350986],[-71.06147,42.350933],[-71.061447,42.35095],[-71.06147,42.350967],[-71.061917,42.35102],[-71.06194,42.351003]]],[[[-71.061934,42.348539],[-71.061916,42.348525],[-71.06159,42.348487],[-71.061572,42.3485],[-71.06159,42.348513],[-71.061916,42.348552],[-71.061934,42.348539]]],[[[-71.061845,42.349287],[-71.061827,42.349267],[-71.061649,42.349245],[-71.061614,42.349222],[-71.060776,42.349121],[-71.060725,42.349137],[-71.060705,42.349174],[-71.060749,42.349223],[-71.061587,42.349323],[-71.061648,42.349296],[-71.061794,42.349313],[-71.061845,42.349287]]],[[[-71.061822,42.349102],[-71.061803,42.349088],[-71.06138,42.349038],[-71.061361,42.349052],[-71.06138,42.349066],[-71.061803,42.349117],[-71.061822,42.349102]]],[[[-71.061815,42.3499],[-71.061789,42.349872],[-71.06118,42.349799],[-71.061141,42.349818],[-71.06053,42.349754],[-71.060493,42.349765],[-71.060478,42.349792],[-71.06051,42.349827],[-71.061195,42.349909],[-71.061232,42.349898],[-71.061247,42.349871],[-71.061773,42.349932],[-71.061802,42.349922],[-71.061815,42.3499]]],[[[-71.061744,42.351161],[-71.061726,42.351147],[-71.0614,42.351109],[-71.061382,42.351122],[-71.0614,42.351135],[-71.061726,42.351174],[-71.061744,42.351161]]],[[[-71.061723,42.351219],[-71.061705,42.351205],[-71.061379,42.351167],[-71.061361,42.35118],[-71.061379,42.351193],[-71.061705,42.351232],[-71.061723,42.351219]]],[[[-71.061697,42.351279],[-71.061679,42.351265],[-71.061353,42.351227],[-71.061335,42.35124],[-71.061353,42.351253],[-71.061679,42.351292],[-71.061697,42.351279]]],[[[-71.061694,42.349469],[-71.061676,42.349455],[-71.06135,42.349417],[-71.061332,42.34943],[-71.06135,42.349443],[-71.061676,42.349482],[-71.061694,42.349469]]],[[[-71.061678,42.351328],[-71.06166,42.351314],[-71.061334,42.351276],[-71.061316,42.351289],[-71.061334,42.351302],[-71.06166,42.351341],[-71.061678,42.351328]]],[[[-71.061632,42.349672],[-71.061614,42.349658],[-71.061264,42.349617],[-71.061246,42.34963],[-71.061264,42.349643],[-71.061614,42.349685],[-71.061632,42.349672]]],[[[-71.061611,42.34972],[-71.061593,42.349706],[-71.061243,42.349665],[-71.061225,42.349678],[-71.061243,42.349691],[-71.061593,42.349733],[-71.061611,42.34972]]],[[[-71.06157,42.353409],[-71.06151,42.35339],[-71.061503,42.35337],[-71.061461,42.353365],[-71.061453,42.353346],[-71.06112,42.353307],[-71.061102,42.353319],[-71.06049,42.35327],[-71.060472,42.353283],[-71.06049,42.353296],[-71.06084,42.353338],[-71.060891,42.353321],[-71.060892,42.35334],[-71.060964,42.35335],[-71.060953,42.353358],[-71.060963,42.353375],[-71.061296,42.353415],[-71.061314,42.353402],[-71.061552,42.353422],[-71.06157,42.353409]]],[[[-71.061564,42.354813],[-71.061546,42.354799],[-71.06122,42.354761],[-71.061202,42.354774],[-71.06122,42.354787],[-71.061546,42.354826],[-71.061564,42.354813]]],[[[-71.061514,42.354955],[-71.061496,42.354941],[-71.06117,42.354903],[-71.061152,42.354916],[-71.06117,42.354929],[-71.061496,42.354968],[-71.061514,42.354955]]],[[[-71.061423,42.353319],[-71.061404,42.353306],[-71.06103,42.353262],[-71.061012,42.353275],[-71.06103,42.353288],[-71.061404,42.353333],[-71.061423,42.353319]]],[[[-71.061364,42.348529],[-71.061346,42.348515],[-71.06102,42.348477],[-71.061002,42.34849],[-71.06102,42.348503],[-71.061346,42.348542],[-71.061364,42.348529]]],[[[-71.061336,42.349582],[-71.061306,42.349549],[-71.06053,42.34944],[-71.060517,42.349463],[-71.060619,42.349477],[-71.060601,42.349492],[-71.060135,42.349441],[-71.060096,42.34947],[-71.06012,42.349497],[-71.060703,42.349566],[-71.060731,42.349558],[-71.061287,42.349618],[-71.061321,42.349608],[-71.061336,42.349582]]],[[[-71.061287,42.349456],[-71.061257,42.349423],[-71.06057,42.349329],[-71.060557,42.349352],[-71.060649,42.349365],[-71.060639,42.349404],[-71.06054,42.349394],[-71.060522,42.349407],[-71.06054,42.34942],[-71.060866,42.349459],[-71.061238,42.349492],[-71.061273,42.349481],[-71.061287,42.349456]]],[[[-71.061264,42.353259],[-71.061246,42.353245],[-71.06092,42.353207],[-71.060902,42.35322],[-71.06092,42.353233],[-71.061246,42.353272],[-71.061264,42.353259]]],[[[-71.06125,42.349746],[-71.06122,42.349713],[-71.06047,42.349627],[-71.060457,42.34965],[-71.060514,42.349659],[-71.060511,42.34967],[-71.06005,42.349618],[-71.060014,42.349644],[-71.060036,42.349668],[-71.060594,42.349735],[-71.060627,42.349719],[-71.061201,42.349782],[-71.061235,42.349772],[-71.06125,42.349746]]],[[[-71.060987,42.353473],[-71.060963,42.353446],[-71.0604,42.353367],[-71.060352,42.353385],[-71.060341,42.353405],[-71.06006,42.353376],[-71.060028,42.353386],[-71.060015,42.35341],[-71.060043,42.353441],[-71.060677,42.353517],[-71.060709,42.353507],[-71.060722,42.353483],[-71.060948,42.353501],[-71.060987,42.353473]]],[[[-71.060954,42.349299],[-71.060936,42.349285],[-71.06061,42.349247],[-71.060592,42.34926],[-71.06061,42.349273],[-71.060936,42.349312],[-71.060954,42.349299]]],[[[-71.060934,42.349339],[-71.060916,42.349325],[-71.06059,42.349287],[-71.060572,42.3493],[-71.06059,42.349313],[-71.060916,42.349352],[-71.060934,42.349339]]],[[[-71.060924,42.353079],[-71.060906,42.353065],[-71.06058,42.353027],[-71.060562,42.35304],[-71.06058,42.353053],[-71.060906,42.353092],[-71.060924,42.353079]]],[[[-71.060868,42.350216],[-71.060838,42.350183],[-71.060614,42.350155],[-71.060613,42.350131],[-71.06028,42.350092],[-71.060216,42.35015],[-71.060246,42.350183],[-71.060819,42.350252],[-71.060854,42.350241],[-71.060868,42.350216]]],[[[-71.060844,42.353036],[-71.0608,42.353002],[-71.06045,42.352961],[-71.060437,42.352984],[-71.06014,42.352949],[-71.060122,42.352962],[-71.06014,42.352975],[-71.060466,42.353014],[-71.060826,42.353049],[-71.060844,42.353036]],[[-71.060483,42.352991],[-71.060482,42.352995],[-71.060479,42.352991],[-71.060483,42.352991]]],[[[-71.06083,42.353189],[-71.060812,42.353175],[-71.060486,42.353137],[-71.060468,42.35315],[-71.060486,42.353163],[-71.060812,42.353202],[-71.06083,42.353189]]],[[[-71.06083,42.349639],[-71.060586,42.349593],[-71.06009,42.349534],[-71.060061,42.349556],[-71.060079,42.349576],[-71.060586,42.349636],[-71.060812,42.349652],[-71.06083,42.349639]]],[[[-71.06083,42.349595],[-71.060812,42.349581],[-71.060486,42.349543],[-71.060468,42.349556],[-71.060486,42.349569],[-71.060812,42.349608],[-71.06083,42.349595]]],[[[-71.060754,42.353139],[-71.060691,42.35312],[-71.0607,42.353109],[-71.060682,42.353095],[-71.060356,42.353057],[-71.060338,42.35307],[-71.060401,42.353089],[-71.060392,42.3531],[-71.06041,42.353113],[-71.060736,42.353152],[-71.060754,42.353139]]],[[[-71.060738,42.349926],[-71.06072,42.349912],[-71.06037,42.349871],[-71.060352,42.349884],[-71.06037,42.349897],[-71.06072,42.349939],[-71.060738,42.349926]]],[[[-71.060644,42.350076],[-71.060626,42.350062],[-71.0603,42.350024],[-71.060282,42.350037],[-71.0603,42.35005],[-71.060626,42.350089],[-71.060644,42.350076]]],[[[-71.060565,42.351114],[-71.060539,42.351086],[-71.05993,42.351013],[-71.0599,42.351022],[-71.059888,42.351044],[-71.059914,42.351073],[-71.060523,42.351146],[-71.060552,42.351136],[-71.060565,42.351114]]],[[[-71.060415,42.35333],[-71.060389,42.353302],[-71.05978,42.353229],[-71.05975,42.353238],[-71.059738,42.35326],[-71.05975,42.353282],[-71.059823,42.353296],[-71.05984,42.353313],[-71.060166,42.353352],[-71.060184,42.353339],[-71.060373,42.353362],[-71.060402,42.353352],[-71.060415,42.35333]]],[[[-71.060372,42.351191],[-71.060346,42.351172],[-71.059875,42.351116],[-71.059851,42.351128],[-71.059875,42.351154],[-71.060346,42.35121],[-71.060372,42.351191]]],[[[-71.060203,42.351776],[-71.060173,42.351743],[-71.0596,42.351674],[-71.059555,42.351696],[-71.059364,42.351687],[-71.059341,42.351704],[-71.059364,42.351721],[-71.060154,42.351812],[-71.060189,42.351801],[-71.060203,42.351776]]],[[[-71.060165,42.355013],[-71.060133,42.354965],[-71.060082,42.35493],[-71.05955,42.354866],[-71.05952,42.354881],[-71.059527,42.354907],[-71.059578,42.354942],[-71.059613,42.354947],[-71.059629,42.354974],[-71.060136,42.355034],[-71.060165,42.355013]]],[[[-71.060143,42.352849],[-71.060113,42.352816],[-71.05954,42.352747],[-71.059506,42.352758],[-71.059491,42.352783],[-71.059521,42.352816],[-71.060094,42.352885],[-71.060129,42.352874],[-71.060143,42.352849]]],[[[-71.060108,42.352795],[-71.060027,42.352766],[-71.059616,42.352717],[-71.059598,42.35273],[-71.059733,42.352765],[-71.06009,42.352808],[-71.060108,42.352795]]],[[[-71.060082,42.351662],[-71.060062,42.35164],[-71.05904,42.351498],[-71.059016,42.35151],[-71.05903,42.351535],[-71.0595,42.351591],[-71.059507,42.351617],[-71.05943,42.351608],[-71.059406,42.35162],[-71.05897,42.351578],[-71.058934,42.351604],[-71.058956,42.351628],[-71.059514,42.351695],[-71.05955,42.351669],[-71.059901,42.351702],[-71.059925,42.351676],[-71.06005,42.351686],[-71.060082,42.351662]]],[[[-71.060002,42.354875],[-71.059982,42.354853],[-71.059947,42.354848],[-71.059941,42.354788],[-71.059922,42.354773],[-71.059364,42.354707],[-71.059328,42.354733],[-71.059364,42.354759],[-71.059377,42.354791],[-71.059423,42.354801],[-71.059438,42.354835],[-71.05997,42.354899],[-71.060002,42.354875]]],[[[-71.05986,42.351366],[-71.059846,42.351341],[-71.059789,42.351328],[-71.059796,42.351292],[-71.05977,42.351273],[-71.05911,42.351194],[-71.059076,42.351205],[-71.059061,42.35123],[-71.059076,42.351255],[-71.059132,42.351269],[-71.059125,42.351304],[-71.059149,42.351322],[-71.059106,42.351332],[-71.059091,42.351357],[-71.059121,42.35139],[-71.059781,42.351469],[-71.059826,42.351447],[-71.059826,42.351419],[-71.059802,42.351401],[-71.059846,42.351392],[-71.05986,42.351366]]],[[[-71.059844,42.351136],[-71.059826,42.351122],[-71.0595,42.351084],[-71.059482,42.351097],[-71.0595,42.35111],[-71.059826,42.351149],[-71.059844,42.351136]]],[[[-71.059804,42.351209],[-71.059786,42.351195],[-71.05946,42.351157],[-71.059442,42.35117],[-71.05946,42.351183],[-71.059786,42.351222],[-71.059804,42.351209]]],[[[-71.05977,42.351833],[-71.059747,42.351816],[-71.05885,42.351712],[-71.058817,42.351728],[-71.058825,42.351757],[-71.058786,42.351756],[-71.058764,42.35178],[-71.058786,42.351804],[-71.059344,42.351871],[-71.059377,42.351855],[-71.059369,42.351826],[-71.059427,42.351813],[-71.059747,42.35185],[-71.05977,42.351833]]],[[[-71.059754,42.353139],[-71.059736,42.353125],[-71.05941,42.353087],[-71.059392,42.3531],[-71.05941,42.353113],[-71.059736,42.353152],[-71.059754,42.353139]]],[[[-71.059744,42.353049],[-71.059726,42.353035],[-71.0594,42.352997],[-71.059382,42.35301],[-71.0594,42.353023],[-71.059726,42.353062],[-71.059744,42.353049]]],[[[-71.059612,42.354447],[-71.05958,42.354423],[-71.05906,42.354361],[-71.05903,42.354376],[-71.059037,42.354402],[-71.05906,42.354409],[-71.05958,42.354471],[-71.059612,42.354447]]],[[[-71.05951,42.353333],[-71.059492,42.353319],[-71.059166,42.353281],[-71.058846,42.353255],[-71.05874,42.353255],[-71.058722,42.353268],[-71.05874,42.353281],[-71.059066,42.35332],[-71.059492,42.353346],[-71.05951,42.353333]]],[[[-71.059442,42.351752],[-71.05941,42.351728],[-71.05889,42.351666],[-71.05886,42.351681],[-71.058867,42.351707],[-71.05889,42.351714],[-71.05941,42.351776],[-71.059442,42.351752]]],[[[-71.059424,42.351499],[-71.059406,42.351485],[-71.05908,42.351447],[-71.059062,42.35146],[-71.05908,42.351473],[-71.059406,42.351512],[-71.059424,42.351499]]],[[[-71.059382,42.35434],[-71.059363,42.354326],[-71.05894,42.354276],[-71.058921,42.35429],[-71.05894,42.354304],[-71.059363,42.354355],[-71.059382,42.35434]]],[[[-71.059344,42.354371],[-71.059326,42.354357],[-71.059,42.354319],[-71.058982,42.354332],[-71.059,42.354345],[-71.059326,42.354384],[-71.059344,42.354371]]],[[[-71.059323,42.351913],[-71.059299,42.351886],[-71.05876,42.351813],[-71.058701,42.351818],[-71.058677,42.351845],[-71.058701,42.351872],[-71.059284,42.351941],[-71.059323,42.351913]]],[[[-71.059323,42.35169],[-71.059304,42.351677],[-71.05893,42.351633],[-71.058912,42.351646],[-71.05893,42.351659],[-71.059304,42.351704],[-71.059323,42.35169]]],[[[-71.059275,42.352079],[-71.059241,42.352041],[-71.05858,42.351954],[-71.058491,42.351968],[-71.058451,42.352018],[-71.058451,42.352042],[-71.058397,42.35205],[-71.058398,42.352087],[-71.058352,42.352097],[-71.05837,42.35211],[-71.059057,42.352181],[-71.059089,42.352171],[-71.059122,42.352112],[-71.059241,42.352117],[-71.059275,42.352079]]],[[[-71.059212,42.351968],[-71.059192,42.351946],[-71.05866,42.351882],[-71.058599,42.351924],[-71.058611,42.351946],[-71.059067,42.352],[-71.05909,42.351983],[-71.059192,42.35199],[-71.059212,42.351968]]],[[[-71.058922,42.35253],[-71.058903,42.352516],[-71.05848,42.352466],[-71.05826,42.352454],[-71.058242,42.352467],[-71.05826,42.35248],[-71.058586,42.352519],[-71.058903,42.352545],[-71.058922,42.35253]]],[[[-71.058894,42.352569],[-71.058876,42.352555],[-71.05849,42.352511],[-71.05825,42.352499],[-71.058232,42.352512],[-71.05825,42.352525],[-71.05876,42.352583],[-71.058876,42.352582],[-71.058894,42.352569]]],[[[-71.058614,42.350949],[-71.058526,42.350912],[-71.0582,42.350874],[-71.058182,42.350887],[-71.05827,42.350923],[-71.058596,42.350962],[-71.058614,42.350949]]],[[[-71.058364,42.352704],[-71.058346,42.35269],[-71.05802,42.352652],[-71.058002,42.352665],[-71.05802,42.352678],[-71.058346,42.352717],[-71.058364,42.352704]]],[[[-71.058358,42.352807],[-71.05834,42.352793],[-71.058014,42.352755],[-71.057996,42.352768],[-71.058014,42.352781],[-71.05834,42.35282],[-71.058358,42.352807]]],[[[-71.058334,42.352944],[-71.058316,42.35293],[-71.05799,42.352892],[-71.057972,42.352905],[-71.05799,42.352918],[-71.058316,42.352957],[-71.058334,42.352944]]],[[[-71.058221,42.352282],[-71.058195,42.352263],[-71.058117,42.352254],[-71.058101,42.352229],[-71.058007,42.352217],[-71.058,42.352202],[-71.057864,42.352172],[-71.057847,42.352149],[-71.05734,42.352088],[-71.057311,42.35211],[-71.057329,42.35213],[-71.057566,42.352186],[-71.057583,42.35221],[-71.057699,42.352224],[-71.057724,42.352245],[-71.058195,42.352301],[-71.058221,42.352282]]],[[[-71.058129,42.350732],[-71.058066,42.350702],[-71.05774,42.350664],[-71.057722,42.350677],[-71.057785,42.350706],[-71.058111,42.350745],[-71.058129,42.350732]]],[[[-71.05774,42.350442],[-71.057722,42.350428],[-71.057396,42.35039],[-71.057378,42.350403],[-71.057396,42.350416],[-71.057722,42.350455],[-71.05774,42.350442]]],[[[-71.057724,42.350533],[-71.057706,42.350519],[-71.05738,42.350481],[-71.057362,42.350494],[-71.05738,42.350507],[-71.057706,42.350546],[-71.057724,42.350533]]],[[[-71.057698,42.351749],[-71.05768,42.351735],[-71.05733,42.351694],[-71.057312,42.351707],[-71.05733,42.35172],[-71.05768,42.351762],[-71.057698,42.351749]]],[[[-71.057673,42.350969],[-71.057654,42.350956],[-71.05728,42.350912],[-71.057262,42.350925],[-71.05728,42.350938],[-71.057654,42.350983],[-71.057673,42.350969]]],[[[-71.057664,42.351789],[-71.057646,42.351775],[-71.05732,42.351737],[-71.057302,42.35175],[-71.05732,42.351763],[-71.057646,42.351802],[-71.057664,42.351789]]],[[[-71.057643,42.351107],[-71.057624,42.351094],[-71.05725,42.35105],[-71.057232,42.351063],[-71.05725,42.351076],[-71.057624,42.351121],[-71.057643,42.351107]]],[[[-71.057635,42.351936],[-71.057617,42.351922],[-71.057291,42.351884],[-71.057273,42.351897],[-71.057291,42.35191],[-71.057617,42.351949],[-71.057635,42.351936]]],[[[-71.0576,42.351991],[-71.057581,42.351977],[-71.05728,42.351942],[-71.057262,42.351955],[-71.05728,42.351968],[-71.057581,42.352004],[-71.0576,42.351991]]],[[[-71.057542,42.349965],[-71.057522,42.349943],[-71.057305,42.349916],[-71.057305,42.349887],[-71.057359,42.349888],[-71.057346,42.349865],[-71.05702,42.349827],[-71.057002,42.34984],[-71.056748,42.349818],[-71.05673,42.349849],[-71.056748,42.349862],[-71.056965,42.349888],[-71.056958,42.349903],[-71.056725,42.349879],[-71.056691,42.34989],[-71.056676,42.349915],[-71.056706,42.349948],[-71.057279,42.350017],[-71.057314,42.350006],[-71.057324,42.349967],[-71.05751,42.349989],[-71.057542,42.349965]]],[[[-71.057534,42.351449],[-71.057516,42.351435],[-71.05719,42.351397],[-71.057172,42.35141],[-71.05719,42.351423],[-71.057516,42.351462],[-71.057534,42.351449]]],[[[-71.057524,42.350589],[-71.057402,42.350558],[-71.057076,42.35052],[-71.057058,42.350533],[-71.05718,42.350563],[-71.057506,42.350602],[-71.057524,42.350589]]],[[[-71.057473,42.350671],[-71.057455,42.350657],[-71.057129,42.350619],[-71.057111,42.350632],[-71.057129,42.350645],[-71.057455,42.350684],[-71.057473,42.350671]]],[[[-71.057397,42.349828],[-71.057373,42.349801],[-71.05679,42.349731],[-71.056751,42.34976],[-71.056775,42.349787],[-71.057358,42.349856],[-71.057397,42.349828]]],[[[-71.057283,42.350072],[-71.057253,42.350039],[-71.05668,42.34997],[-71.056646,42.349981],[-71.056631,42.350006],[-71.056661,42.350039],[-71.057234,42.350108],[-71.057269,42.350097],[-71.057283,42.350072]]],[[[-71.057267,42.352075],[-71.057119,42.352046],[-71.057111,42.352026],[-71.05673,42.351981],[-71.056712,42.351994],[-71.056836,42.35202],[-71.056843,42.35204],[-71.057249,42.352089],[-71.057267,42.352075]]],[[[-71.05716,42.350269],[-71.057122,42.350225],[-71.05659,42.350161],[-71.05656,42.350176],[-71.056578,42.350207],[-71.057142,42.350282],[-71.05716,42.350269]]],[[[-71.057155,42.350153],[-71.057137,42.350133],[-71.05663,42.350072],[-71.056601,42.350094],[-71.056619,42.350114],[-71.057126,42.350174],[-71.057155,42.350153]]],[[[-71.057124,42.350346],[-71.057106,42.350332],[-71.05678,42.350294],[-71.056762,42.350307],[-71.05678,42.35032],[-71.057106,42.350359],[-71.057124,42.350346]]],[[[-71.057113,42.3509],[-71.057083,42.350867],[-71.05651,42.350798],[-71.056465,42.35082],[-71.056473,42.350856],[-71.056238,42.350829],[-71.05622,42.350842],[-71.056238,42.350855],[-71.056637,42.350903],[-71.056655,42.350889],[-71.057064,42.350936],[-71.057099,42.350925],[-71.057113,42.3509]]],[[[-71.057097,42.353259],[-71.057071,42.35324],[-71.056971,42.353228],[-71.056981,42.35321],[-71.05697,42.353202],[-71.05654,42.353151],[-71.056521,42.353165],[-71.05659,42.353185],[-71.056576,42.35321],[-71.05659,42.353221],[-71.057071,42.353278],[-71.057097,42.353259]]],[[[-71.057042,42.35066],[-71.057024,42.350647],[-71.056625,42.3506],[-71.056607,42.350613],[-71.056625,42.350626],[-71.057024,42.350674],[-71.057042,42.35066]]],[[[-71.057007,42.350727],[-71.056989,42.350714],[-71.05659,42.350667],[-71.056572,42.35068],[-71.05659,42.350693],[-71.056989,42.350741],[-71.057007,42.350727]]],[[[-71.056907,42.353177],[-71.056831,42.353156],[-71.05684,42.353143],[-71.056817,42.353126],[-71.05657,42.353097],[-71.056563,42.353076],[-71.05623,42.353037],[-71.056212,42.35305],[-71.056354,42.353078],[-71.056354,42.353102],[-71.056452,42.353117],[-71.056446,42.353127],[-71.056465,42.353141],[-71.056888,42.353192],[-71.056907,42.353177]]],[[[-71.056867,42.351967],[-71.056671,42.351922],[-71.05637,42.351887],[-71.056352,42.3519],[-71.05645,42.351933],[-71.056849,42.351981],[-71.056867,42.351967]]],[[[-71.056797,42.351144],[-71.056779,42.351131],[-71.05638,42.351084],[-71.056362,42.351097],[-71.05638,42.35111],[-71.056779,42.351158],[-71.056797,42.351144]]],[[[-71.056777,42.354726],[-71.056751,42.354707],[-71.05628,42.354651],[-71.056256,42.354663],[-71.05628,42.354689],[-71.056751,42.354745],[-71.056777,42.354726]]],[[[-71.056754,42.351069],[-71.056736,42.351055],[-71.05641,42.351017],[-71.056392,42.35103],[-71.05641,42.351043],[-71.056736,42.351082],[-71.056754,42.351069]]],[[[-71.056737,42.354977],[-71.056719,42.354964],[-71.05632,42.354917],[-71.056302,42.35493],[-71.05632,42.354943],[-71.056719,42.354991],[-71.056737,42.354977]]],[[[-71.056732,42.3548],[-71.056713,42.354786],[-71.05629,42.354736],[-71.056271,42.35475],[-71.05629,42.354764],[-71.056713,42.354815],[-71.056732,42.3548]]],[[[-71.056727,42.354883],[-71.056709,42.35487],[-71.05631,42.354823],[-71.056292,42.354836],[-71.05631,42.354849],[-71.056709,42.354897],[-71.056727,42.354883]]],[[[-71.05669,42.351215],[-71.056535,42.35118],[-71.05613,42.351132],[-71.056112,42.351145],[-71.056339,42.351188],[-71.056672,42.351228],[-71.05669,42.351215]]],[[[-71.056625,42.35098],[-71.056607,42.350967],[-71.056208,42.35092],[-71.05619,42.350933],[-71.056208,42.350946],[-71.056607,42.350994],[-71.056625,42.35098]]],[[[-71.056608,42.351418],[-71.05659,42.351404],[-71.05624,42.351363],[-71.055959,42.351342],[-71.055941,42.351355],[-71.055959,42.351368],[-71.056214,42.351399],[-71.056214,42.351423],[-71.056571,42.351466],[-71.056584,42.351443],[-71.056365,42.351415],[-71.05659,42.351431],[-71.056608,42.351418]]],[[[-71.056585,42.351083],[-71.056567,42.35107],[-71.056168,42.351023],[-71.05615,42.351036],[-71.056168,42.351049],[-71.056567,42.351097],[-71.056585,42.351083]]],[[[-71.056558,42.351492],[-71.056341,42.351447],[-71.055935,42.351399],[-71.055917,42.351412],[-71.056183,42.351462],[-71.05654,42.351505],[-71.056558,42.351492]]],[[[-71.056428,42.351752],[-71.05641,42.351738],[-71.05606,42.351697],[-71.056042,42.35171],[-71.05606,42.351723],[-71.05641,42.351765],[-71.056428,42.351752]]],[[[-71.056423,42.352292],[-71.056393,42.352259],[-71.05582,42.35219],[-71.055786,42.352201],[-71.055775,42.35224],[-71.055737,42.352276],[-71.055767,42.352309],[-71.05634,42.352378],[-71.056375,42.352367],[-71.056385,42.352328],[-71.056423,42.352292]]],[[[-71.056319,42.351529],[-71.056301,42.351516],[-71.055902,42.351469],[-71.055884,42.351482],[-71.055902,42.351495],[-71.056301,42.351543],[-71.056319,42.351529]]],[[[-71.056308,42.353398],[-71.056276,42.353374],[-71.055756,42.353312],[-71.055726,42.353327],[-71.055733,42.353353],[-71.055756,42.35336],[-71.056276,42.353422],[-71.056308,42.353398]]],[[[-71.056287,42.351608],[-71.056269,42.351595],[-71.05587,42.351548],[-71.055852,42.351561],[-71.05587,42.351574],[-71.056269,42.351622],[-71.056287,42.351608]]],[[[-71.056258,42.351669],[-71.05624,42.351656],[-71.055841,42.351609],[-71.055823,42.351622],[-71.055841,42.351635],[-71.05624,42.351683],[-71.056258,42.351669]]],[[[-71.05622,42.353453],[-71.056202,42.353433],[-71.055695,42.353372],[-71.055666,42.353394],[-71.055684,42.353414],[-71.056191,42.353474],[-71.05622,42.353453]]],[[[-71.056207,42.351774],[-71.056189,42.351761],[-71.05579,42.351714],[-71.055772,42.351727],[-71.05579,42.35174],[-71.056189,42.351788],[-71.056207,42.351774]]],[[[-71.056187,42.351823],[-71.056169,42.35181],[-71.05577,42.351763],[-71.055752,42.351776],[-71.05577,42.351789],[-71.056169,42.351837],[-71.056187,42.351823]]],[[[-71.056068,42.35348],[-71.056049,42.353466],[-71.055626,42.353416],[-71.055607,42.35343],[-71.055626,42.353444],[-71.056049,42.353495],[-71.056068,42.35348]]],[[[-71.055957,42.353544],[-71.055939,42.353531],[-71.05554,42.353484],[-71.055522,42.353497],[-71.05554,42.35351],[-71.055939,42.353558],[-71.055957,42.353544]]],[[[-71.055848,42.353572],[-71.05583,42.353558],[-71.05548,42.353517],[-71.055462,42.35353],[-71.05548,42.353543],[-71.05583,42.353585],[-71.055848,42.353572]]],[[[-71.055735,42.353731],[-71.055717,42.353711],[-71.055587,42.353695],[-71.05557,42.353678],[-71.055244,42.35364],[-71.055189,42.353657],[-71.055188,42.353685],[-71.055147,42.3537],[-71.05517,42.353717],[-71.055617,42.35377],[-71.05564,42.353753],[-71.055717,42.353751],[-71.055735,42.353731]]]]},"properties":{"kind":"tree"}}]}