{"type":"FeatureCollection","features":[{"type":"Feature","geometry":{"type":"MultiPolygon","coordinates":[[[[-71.069053,42.354037],[-71.068967,42.353638],[-71.066396,42.353146],[-71.066417,42.353056],[-71.066012,42.352978],[-71.066025,42.35292],[-71.066218,42.352911],[-71.066245,42.352846],[-71.066607,42.352881],[-71.066671,42.352649],[-71.067492,42.352721],[-71.067497,42.352695],[-71.067549,42.352699],[-71.067596,42.352411],[-71.067513,42.352395],[-71.067511,42.352375],[-71.06727,42.352329],[-71.06728,42.352256],[-71.068245,42.3524],[-71.068284,42.352263],[-71.06835,42.352212],[-71.068363,42.352166],[-71.06844,42.352174],[-71.068623,42.352129],[-71.0686,42.351995],[-71.068381,42.3515],[-71.068533,42.351479],[-71.068501,42.35115],[-71.067012,42.350866],[-71.067071,42.350642],[-71.067007,42.35062],[-71.067003,42.350565],[-71.066249,42.350421],[-71.066247,42.350387],[-71.066022,42.350345],[-71.066012,42.350328],[-71.067416,42.350595],[-71.067603,42.350622],[-71.067789,42.350628],[-71.067991,42.350614],[-71.067964,42.350355],[-71.068085,42.350374],[-71.068124,42.350321],[-71.068065,42.350254],[-71.067902,42.350223],[-71.067851,42.350164],[-71.066645,42.349934],[-71.066653,42.3499],[-71.066587,42.349887],[-71.066597,42.349837],[-71.066691,42.349816],[-71.066702,42.349779],[-71.066685,42.349724],[-71.066718,42.349727],[-71.066762,42.34969],[-71.066771,42.349648],[-71.066455,42.349575],[-71.066505,42.349559],[-71.066449,42.349461],[-71.066148,42.349403],[-71.066352,42.349308],[-71.066124,42.349043],[-71.065685,42.348957],[-71.065718,42.348828],[-71.06559,42.348804],[-71.065567,42.348743],[-71.064992,42.348617],[-71.064412,42.348552],[-71.063509,42.348387],[-71.063539,42.348335],[-71.06364,42.348341],[-71.063653,42.348295],[-71.063878,42.348321],[-71.063889,42.348293],[-71.064443,42.348376],[-71.06444,42.348386],[-71.066325,42.348745],[-71.06669,42.348801],[-71.066724,42.348751],[-71.067126,42.348816],[-71.067664,42.348879],[-71.067692,42.348759],[-71.067475,42.348718],[-71.067487,42.348659],[-71.067605,42.348675],[-71.067623,42.348583],[-71.067508,42.348561],[-71.067551,42.34836],[-71.065995,42.348062],[-71.065837,42.348044],[-71.065769,42.348364],[-71.065536,42.34832],[-71.065637,42.348206],[-71.065637,42.348132],[-71.065598,42.348087],[-71.065763,42.347997],[-71.065929,42.34788],[-71.06593,42.347793],[-71.065868,42.347759],[-71.064894,42.347587],[-71.064503,42.347783],[-71.064409,42.347999],[-71.06346,42.347843],[-71.063436,42.347932],[-71.061712,42.347604],[-71.061566,42.347954],[-71.061555,42.348046],[-71.062604,42.348251],[-71.062596,42.348271],[-71.061907,42.348129],[-71.061855,42.348258],[-71.061011,42.348097],[-71.060549,42.348739],[-71.061105,42.348857],[-71.061094,42.348905],[-71.061159,42.348955],[-71.060878,42.348902],[-71.060781,42.349151],[-71.060321,42.349063],[-71.060204,42.349326],[-71.06002,42.349816],[-71.059991,42.34981],[-71.060024,42.349727],[-71.058808,42.349485],[-71.058821,42.349452],[-71.057926,42.349266],[-71.057859,42.349433],[-71.058004,42.349465],[-71.057963,42.349565],[-71.057872,42.349548],[-71.057853,42.349597],[-71.059111,42.349851],[-71.059105,42.349866],[-71.059244,42.349899],[-71.059471,42.349942],[-71.059498,42.349881],[-71.05993,42.349963],[-71.059967,42.349872],[-71.059995,42.349878],[-71.059925,42.350048],[-71.060226,42.350142],[-71.060393,42.350174],[-71.06038,42.350207],[-71.060828,42.350333],[-71.061684,42.350532],[-71.061673,42.350559],[-71.062508,42.350769],[-71.064648,42.351176],[-71.064682,42.351145],[-71.065189,42.351242],[-71.064967,42.35123],[-71.06496,42.351259],[-71.064502,42.351183],[-71.06446,42.35119],[-71.063934,42.351133],[-71.063929,42.351148],[-71.063049,42.351044],[-71.063025,42.351071],[-71.062513,42.350939],[-71.061899,42.350822],[-71.061815,42.350784],[-71.061829,42.350746],[-71.061554,42.350669],[-71.060839,42.350533],[-71.060849,42.350507],[-71.0606,42.350436],[-71.060404,42.350398],[-71.060374,42.350352],[-71.059744,42.350206],[-71.059156,42.350094],[-71.059163,42.350064],[-71.058791,42.349983],[-71.057635,42.349763],[-71.057798,42.349427],[-71.057575,42.349385],[-71.057583,42.349353],[-71.057404,42.349303],[-71.056596,42.349149],[-71.056498,42.349177],[-71.057453,42.34775],[-71.057443,42.347691],[-71.056678,42.347409],[-71.055908,42.347262],[-71.054533,42.349309],[-71.05452,42.349424],[-71.054447,42.34941],[-71.053477,42.350853],[-71.054337,42.351171],[-71.054684,42.351237],[-71.054714,42.351193],[-71.055365,42.351317],[-71.055648,42.350955],[-71.055789,42.350746],[-71.05636,42.350854],[-71.056576,42.350853],[-71.05656,42.350888],[-71.05702,42.350998],[-71.057003,42.351036],[-71.056543,42.350948],[-71.056401,42.351249],[-71.056756,42.351393],[-71.056851,42.351411],[-71.056841,42.351433],[-71.056294,42.351331],[-71.056127,42.351665],[-71.055498,42.351545],[-71.054479,42.351779],[-71.054307,42.351954],[-71.054833,42.352232],[-71.054993,42.352283],[-71.055938,42.352463],[-71.056034,42.352612],[-71.057246,42.352843],[-71.057276,42.352831],[-71.057376,42.35285],[-71.057163,42.352943],[-71.05712,42.352979],[-71.057099,42.353043],[-71.057135,42.353113],[-71.057259,42.353188],[-71.058186,42.353365],[-71.058016,42.353373],[-71.05798,42.35339],[-71.057966,42.353426],[-71.056237,42.353097],[-71.055998,42.353225],[-71.05602,42.353309],[-71.055897,42.353294],[-71.055573,42.353469],[-71.055602,42.3535],[-71.055421,42.353589],[-71.055398,42.353614],[-71.055342,42.353603],[-71.054915,42.353838],[-71.055007,42.353931],[-71.054793,42.353902],[-71.054378,42.354122],[-71.054355,42.354162],[-71.054364,42.354206],[-71.054619,42.354471],[-71.0549,42.354529],[-71.054775,42.354643],[-71.05498,42.354839],[-71.055594,42.354956],[-71.055688,42.355479],[-71.058763,42.356064],[-71.058878,42.356069],[-71.059228,42.356035],[-71.061678,42.356502],[-71.06213,42.356458],[-71.062049,42.355992],[-71.062135,42.355985],[-71.062123,42.355891],[-71.062777,42.356015],[-71.063023,42.355801],[-71.063086,42.355723],[-71.06287,42.355539],[-71.062788,42.355495],[-71.06247,42.355435],[-71.062606,42.355287],[-71.063028,42.355368],[-71.06313,42.355259],[-71.063472,42.355324],[-71.0635,42.355295],[-71.064142,42.355417],[-71.064201,42.35534],[-71.063965,42.35522],[-71.063984,42.3552],[-71.064864,42.355368],[-71.064908,42.355359],[-71.06503,42.355134],[-71.066446,42.355404],[-71.066477,42.355406],[-71.066512,42.355308],[-71.066906,42.355383],[-71.067195,42.354847],[-71.066832,42.354752],[-71.066846,42.354727],[-71.066821,42.354715],[-71.06663,42.354658],[-71.065413,42.354426],[-71.06542,42.354414],[-71.065919,42.354509],[-71.065959,42.354473],[-71.066031,42.354318],[-71.067912,42.354676],[-71.068398,42.354674],[-71.068437,42.354421],[-71.065179,42.353801],[-71.06521,42.353676],[-71.065162,42.35364],[-71.064065,42.353418],[-71.065866,42.353564],[-71.068197,42.354007],[-71.068349,42.35401],[-71.068999,42.354134],[-71.069053,42.354037]],[[-71.066039,42.349495],[-71.065895,42.349477],[-71.065999,42.349423],[-71.066039,42.349495]],[[-71.064522,42.351731],[-71.064293,42.351704],[-71.064281,42.35176],[-71.064153,42.351735],[-71.064157,42.351716],[-71.063701,42.351641],[-71.063715,42.351588],[-71.063792,42.351593],[-71.064522,42.351731]],[[-71.06382,42.351434],[-71.063755,42.351426],[-71.063756,42.351421],[-71.06382,42.351434]],[[-71.06362,42.353351],[-71.063285,42.353326],[-71.063452,42.353319],[-71.06362,42.353351]],[[-71.062644,42.349362],[-71.062318,42.3493],[-71.062324,42.349286],[-71.062355,42.349292],[-71.062372,42.34925],[-71.062344,42.349244],[-71.062348,42.349234],[-71.062572,42.349296],[-71.062552,42.34932],[-71.062644,42.349362]],[[-71.062563,42.351093],[-71.061689,42.350922],[-71.061894,42.350961],[-71.061911,42.35092],[-71.06228,42.350997],[-71.062553,42.351077],[-71.062563,42.351093]],[[-71.06228,42.34908],[-71.062276,42.349086],[-71.062071,42.349044],[-71.06228,42.34908]],[[-71.061722,42.352156],[-71.061632,42.352127],[-71.061715,42.352123],[-71.061722,42.352156]],[[-71.061713,42.351533],[-71.061289,42.351543],[-71.061297,42.351581],[-71.060689,42.351439],[-71.059776,42.351266],[-71.059785,42.351243],[-71.05945,42.351169],[-71.059457,42.351152],[-71.059147,42.351075],[-71.05826,42.350891],[-71.058264,42.350871],[-71.057884,42.350777],[-71.057366,42.350678],[-71.057377,42.350616],[-71.057176,42.350567],[-71.057198,42.350523],[-71.057549,42.350596],[-71.057546,42.350612],[-71.058703,42.350876],[-71.058721,42.350897],[-71.059979,42.35115],[-71.059972,42.351168],[-71.060965,42.351389],[-71.061713,42.351533]],[[-71.061533,42.350913],[-71.06147,42.351111],[-71.061239,42.351067],[-71.061247,42.351047],[-71.061118,42.351018],[-71.061161,42.35091],[-71.061037,42.350883],[-71.061061,42.350823],[-71.061533,42.350913]],[[-71.060301,42.35276],[-71.059318,42.352574],[-71.058902,42.352524],[-71.05873,42.352528],[-71.058466,42.352462],[-71.056864,42.352157],[-71.056944,42.35199],[-71.057503,42.352106],[-71.057928,42.35224],[-71.059244,42.352491],[-71.059264,42.352485],[-71.059277,42.352446],[-71.060298,42.35264],[-71.060188,42.352643],[-71.060197,42.35274],[-71.060301,42.35276]],[[-71.059774,42.351832],[-71.059626,42.351804],[-71.059386,42.351848],[-71.059404,42.351967],[-71.058214,42.351741],[-71.0581,42.351697],[-71.058105,42.351671],[-71.059305,42.351874],[-71.059517,42.351669],[-71.059711,42.351401],[-71.059774,42.351832]],[[-71.059416,42.352048],[-71.059408,42.352047],[-71.059413,42.35203],[-71.059416,42.352048]]],[[[-71.060119,42.349096],[-71.059661,42.348995],[-71.057613,42.348605],[-71.057529,42.348814],[-71.057988,42.348915],[-71.060036,42.349305],[-71.060119,42.349096]]]]},"properties":{"kind":"building"}},{"type":"Feature","geometry":{"type":"MultiPolygon","coordinates":[[[[-71.066838,42.353599],[-71.066826,42.353558],[-71.066747,42.3535],[-71.066229,42.353401],[-71.066262,42.353373],[-71.066437,42.353405],[-71.066503,42.353385],[-71.066524,42.353362],[-71.066524,42.353309],[-71.066473,42.353271],[-71.066419,42.353261],[-71.066452,42.353236],[-71.06663,42.353267],[-71.066715,42.353241],[-71.06675,42.353179],[-71.06672,42.353121],[-71.0668,42.353063],[-71.066812,42.353021],[-71.0668,42.35298],[-71.066721,42.352922],[-71.066229,42.352825],[-71.066263,42.352774],[-71.066236,42.352726],[-71.066497,42.352747],[-71.066538,42.352717],[-71.066543,42.352696],[-71.066522,42.352657],[-71.065976,42.352546],[-71.065908,42.352551],[-71.065688,42.352518],[-71.065619,42.352552],[-71.065361,42.35251],[-71.065321,42.352516],[-71.065267,42.352556],[-71.065012,42.352509],[-71.064975,42.352515],[-71.064922,42.352553],[-71.064915,42.352581],[-71.064943,42.352632],[-71.064975,42.352647],[-71.065616,42.352769],[-71.065612,42.352784],[-71.065525,42.352783],[-71.065486,42.352806],[-71.065146,42.352742],[-71.065105,42.352754],[-71.065088,42.352785],[-71.065105,42.352816],[-71.065081,42.352852],[-71.065094,42.352876],[-71.065032,42.352908],[-71.065032,42.352948],[-71.065071,42.352977],[-71.065215,42.353004],[-71.065201,42.353011],[-71.064745,42.352926],[-71.06466,42.352952],[-71.064625,42.353015],[-71.064656,42.353073],[-71.064658,42.353148],[-71.064758,42.353233],[-71.064921,42.353279],[-71.064659,42.353241],[-71.064617,42.353248],[-71.064557,42.353292],[-71.064557,42.353354],[-71.064617,42.353398],[-71.064887,42.35345],[-71.064875,42.353478],[-71.06489,42.353509],[-71.064631,42.353462],[-71.064592,42.353467],[-71.064538,42.353508],[-71.064538,42.353564],[-71.064592,42.353605],[-71.065274,42.353733],[-71.065313,42.353727],[-71.065367,42.353687],[-71.065375,42.353658],[-71.065348,42.353608],[-71.065453,42.353627],[-71.065431,42.353648],[-71.065431,42.353682],[-71.065464,42.353707],[-71.065535,42.353721],[-71.065513,42.353739],[-71.065512,42.353769],[-71.065348,42.353739],[-71.0653,42.353753],[-71.06528,42.353789],[-71.0653,42.353825],[-71.06539,42.353848],[-71.065383,42.353867],[-71.065225,42.353846],[-71.065181,42.35386],[-71.065163,42.353892],[-71.065181,42.353924],[-71.065261,42.353945],[-71.065178,42.353931],[-71.06514,42.353905],[-71.064816,42.353843],[-71.064885,42.353845],[-71.06492,42.353819],[-71.06492,42.353782],[-71.064959,42.353731],[-71.064919,42.353686],[-71.064418,42.353592],[-71.064372,42.353606],[-71.064358,42.353658],[-71.064324,42.353692],[-71.064332,42.353737],[-71.064296,42.353748],[-71.06428,42.353777],[-71.064296,42.353806],[-71.064336,42.353819],[-71.064258,42.353857],[-71.064244,42.353968],[-71.064288,42.354],[-71.064509,42.354042],[-71.064468,42.354055],[-71.064295,42.354023],[-71.064245,42.354037],[-71.064227,42.354007],[-71.06389,42.353943],[-71.06386,42.353958],[-71.063878,42.353989],[-71.064227,42.354051],[-71.064214,42.354083],[-71.064238,42.354125],[-71.064149,42.354121],[-71.064105,42.354165],[-71.0638,42.354102],[-71.063766,42.354113],[-71.06378,42.354138],[-71.064084,42.354195],[-71.064107,42.354185],[-71.064148,42.354222],[-71.064088,42.354236],[-71.064069,42.35427],[-71.064088,42.354304],[-71.064127,42.354318],[-71.064161,42.35436],[-71.064036,42.354339],[-71.063961,42.354376],[-71.063968,42.35443],[-71.063903,42.354482],[-71.063892,42.354523],[-71.063903,42.354564],[-71.063935,42.354599],[-71.063982,42.354623],[-71.064346,42.354692],[-71.064212,42.354672],[-71.064161,42.354697],[-71.063878,42.354645],[-71.063818,42.354663],[-71.063794,42.354707],[-71.06352,42.354664],[-71.063475,42.354686],[-71.063486,42.354725],[-71.063749,42.35478],[-71.063772,42.354821],[-71.06346,42.354764],[-71.063415,42.354786],[-71.063415,42.354814],[-71.063441,42.354833],[-71.063806,42.354902],[-71.063851,42.35488],[-71.063842,42.354842],[-71.064364,42.35494],[-71.064419,42.354923],[-71.064442,42.354882],[-71.064478,42.354873],[-71.064755,42.354921],[-71.064711,42.354957],[-71.064703,42.354986],[-71.064734,42.35504],[-71.064767,42.355057],[-71.065465,42.355188],[-71.065505,42.355182],[-71.065561,42.355141],[-71.065569,42.355111],[-71.065539,42.355057],[-71.064856,42.354917],[-71.064881,42.354877],[-71.064851,42.354836],[-71.065359,42.354918],[-71.065398,42.354906],[-71.066496,42.355112],[-71.066532,42.355085],[-71.066532,42.355046],[-71.066496,42.355019],[-71.066427,42.355006],[-71.066423,42.354951],[-71.066396,42.354921],[-71.066356,42.354901],[-71.065968,42.354828],[-71.065902,42.354799],[-71.06588,42.35476],[-71.065853,42.354747],[-71.065563,42.354678],[-71.065546,42.354648],[-71.06549,42.354631],[-71.065532,42.354579],[-71.06551,42.354514],[-71.06519,42.354447],[-71.065236,42.354432],[-71.065255,42.3544],[-71.065319,42.354412],[-71.065367,42.354388],[-71.065355,42.354346],[-71.065242,42.354319],[-71.065298,42.354277],[-71.065509,42.354304],[-71.065541,42.35428],[-71.065528,42.354233],[-71.06489,42.354107],[-71.064925,42.354094],[-71.065231,42.354151],[-71.065289,42.354127],[-71.065636,42.354192],[-71.065677,42.354179],[-71.065694,42.354149],[-71.065677,42.354118],[-71.065629,42.354103],[-71.065637,42.354082],[-71.065791,42.354109],[-71.065837,42.354095],[-71.065955,42.35413],[-71.065926,42.35414],[-71.065938,42.354162],[-71.066235,42.354215],[-71.066247,42.354206],[-71.066235,42.354184],[-71.06629,42.354193],[-71.066324,42.354183],[-71.066372,42.35414],[-71.066372,42.354118],[-71.066351,42.354102],[-71.066111,42.354056],[-71.066161,42.354029],[-71.06615,42.35399],[-71.066012,42.353959],[-71.066,42.353918],[-71.065904,42.353895],[-71.065903,42.353864],[-71.066013,42.353884],[-71.066067,42.353857],[-71.066054,42.35381],[-71.065981,42.353791],[-71.066011,42.353753],[-71.065994,42.353722],[-71.066228,42.353764],[-71.066283,42.353756],[-71.066331,42.353733],[-71.066362,42.353698],[-71.066374,42.353656],[-71.066692,42.353707],[-71.066795,42.353676],[-71.066826,42.353641],[-71.066838,42.353599]],[[-71.065059,42.354778],[-71.064928,42.354754],[-71.064889,42.354766],[-71.064932,42.354735],[-71.06505,42.354757],[-71.065059,42.354778]],[[-71.06488,42.354813],[-71.064862,42.35481],[-71.064874,42.354801],[-71.06488,42.354813]],[[-71.064869,42.354265],[-71.064855,42.354279],[-71.064773,42.354266],[-71.064769,42.35425],[-71.064869,42.354265]],[[-71.064705,42.354804],[-71.064696,42.354802],[-71.064698,42.354795],[-71.064705,42.354804]]],[[[-71.066644,42.354616],[-71.066634,42.35458],[-71.066564,42.354528],[-71.065735,42.354372],[-71.065643,42.3544],[-71.065605,42.354468],[-71.065643,42.354536],[-71.065685,42.354557],[-71.066515,42.354712],[-71.066606,42.354684],[-71.066644,42.354616]]],[[[-71.066306,42.348129],[-71.066266,42.348084],[-71.06579,42.347994],[-71.065719,42.348004],[-71.0657,42.348038],[-71.06574,42.348082],[-71.066217,42.348173],[-71.066266,42.348173],[-71.066306,42.348129]]],[[[-71.066221,42.348262],[-71.066187,42.348224],[-71.065537,42.348098],[-71.065513,42.348105],[-71.065523,42.348122],[-71.065693,42.348155],[-71.065684,42.348196],[-71.065714,42.348218],[-71.066166,42.348303],[-71.066205,42.348291],[-71.066221,42.348262]]],[[[-71.066184,42.348531],[-71.066148,42.348491],[-71.06568,42.348403],[-71.065639,42.348415],[-71.065625,42.34846],[-71.065469,42.34843],[-71.065439,42.34844],[-71.065451,42.348462],[-71.066126,42.348574],[-71.066167,42.348561],[-71.066184,42.348531]]],[[[-71.066013,42.348404],[-71.065975,42.348362],[-71.065514,42.348274],[-71.065446,42.348284],[-71.065428,42.348316],[-71.065466,42.348358],[-71.065928,42.348446],[-71.065975,42.348446],[-71.066013,42.348404]]],[[[-71.065932,42.348332],[-71.065717,42.348281],[-71.065693,42.348288],[-71.065703,42.348305],[-71.065907,42.348344],[-71.065932,42.348332]]],[[[-71.065905,42.349302],[-71.065875,42.349269],[-71.065529,42.349203],[-71.065476,42.349211],[-71.065461,42.349236],[-71.065491,42.349269],[-71.065838,42.349335],[-71.065875,42.349335],[-71.065905,42.349302]]],[[[-71.065822,42.351268],[-71.065577,42.351211],[-71.065553,42.351218],[-71.065563,42.351235],[-71.065797,42.35128],[-71.065822,42.351268]]],[[[-71.065787,42.348993],[-71.065587,42.348945],[-71.065563,42.348952],[-71.06536,42.348914],[-71.065324,42.34894],[-71.065346,42.348964],[-71.0657,42.349031],[-71.065787,42.348993]]],[[[-71.065779,42.349146],[-71.065749,42.349113],[-71.065349,42.349037],[-71.065296,42.349045],[-71.065281,42.34907],[-71.065311,42.349103],[-71.065712,42.349179],[-71.065749,42.349179],[-71.065779,42.349146]]],[[[-71.065779,42.348856],[-71.065749,42.348823],[-71.065403,42.348757],[-71.06535,42.348765],[-71.065335,42.34879],[-71.065365,42.348823],[-71.065712,42.348889],[-71.065749,42.348889],[-71.065779,42.348856]]],[[[-71.065587,42.351252],[-71.065357,42.351198],[-71.065233,42.351205],[-71.065243,42.351222],[-71.065447,42.351261],[-71.065576,42.351264],[-71.065587,42.351252]]],[[[-71.06547,42.350776],[-71.065463,42.350763],[-71.06516,42.350702],[-71.065126,42.350713],[-71.06514,42.350738],[-71.065435,42.350794],[-71.06547,42.350776]]],[[[-71.065445,42.35084],[-71.065438,42.350827],[-71.065135,42.350766],[-71.065101,42.350777],[-71.065115,42.350802],[-71.06541,42.350858],[-71.065445,42.35084]]],[[[-71.065394,42.350903],[-71.065117,42.35084],[-71.065092,42.350847],[-71.065103,42.350866],[-71.065367,42.350917],[-71.065394,42.350903]]],[[[-71.065163,42.351352],[-71.064933,42.351298],[-71.064909,42.351305],[-71.064919,42.351322],[-71.065138,42.351364],[-71.065163,42.351352]]],[[[-71.065061,42.348495],[-71.064846,42.348444],[-71.064401,42.348394],[-71.064411,42.348411],[-71.064615,42.34845],[-71.065036,42.348507],[-71.065061,42.348495]]],[[[-71.064829,42.352154],[-71.064552,42.352091],[-71.064527,42.352098],[-71.064538,42.352117],[-71.064802,42.352168],[-71.064829,42.352154]]],[[[-71.064828,42.351865],[-71.064613,42.351814],[-71.064589,42.351821],[-71.064599,42.351838],[-71.064803,42.351877],[-71.064828,42.351865]]],[[[-71.064787,42.352097],[-71.064557,42.352043],[-71.064533,42.35205],[-71.064543,42.352067],[-71.064762,42.352109],[-71.064787,42.352097]]],[[[-71.064752,42.352199],[-71.064537,42.352148],[-71.064513,42.352155],[-71.064523,42.352172],[-71.064727,42.352211],[-71.064752,42.352199]]],[[[-71.064488,42.348773],[-71.064481,42.348761],[-71.064195,42.348704],[-71.064167,42.348712],[-71.063903,42.348662],[-71.063878,42.348669],[-71.063889,42.348688],[-71.064153,42.348739],[-71.064457,42.348789],[-71.064488,42.348773]]],[[[-71.064442,42.350964],[-71.064227,42.350913],[-71.063934,42.350874],[-71.063898,42.350892],[-71.063663,42.350861],[-71.063137,42.350752],[-71.063112,42.350759],[-71.063123,42.350778],[-71.063336,42.350819],[-71.06335,42.350844],[-71.06351,42.350882],[-71.063987,42.350967],[-71.06403,42.350954],[-71.064289,42.350999],[-71.064375,42.351],[-71.064442,42.350964]]],[[[-71.064417,42.348887],[-71.064157,42.348828],[-71.064133,42.348835],[-71.064143,42.348852],[-71.064392,42.3489],[-71.064417,42.348887]]],[[[-71.064337,42.353347],[-71.064208,42.353306],[-71.063929,42.353252],[-71.063899,42.353262],[-71.063911,42.353284],[-71.064312,42.35336],[-71.064337,42.353347]]],[[[-71.064314,42.35344],[-71.064037,42.353377],[-71.063893,42.353369],[-71.063903,42.353386],[-71.064222,42.35345],[-71.064302,42.353454],[-71.064314,42.35344]]],[[[-71.064247,42.353807],[-71.063987,42.353748],[-71.063963,42.353755],[-71.063973,42.353772],[-71.064222,42.35382],[-71.064247,42.353807]]],[[[-71.064172,42.348796],[-71.064165,42.348784],[-71.063879,42.348727],[-71.063849,42.348737],[-71.063861,42.348759],[-71.064141,42.348812],[-71.064172,42.348796]]],[[[-71.064144,42.34892],[-71.063867,42.348857],[-71.063842,42.348864],[-71.063853,42.348883],[-71.064117,42.348934],[-71.064144,42.34892]]],[[[-71.064077,42.348832],[-71.063862,42.348781],[-71.063838,42.348788],[-71.063848,42.348805],[-71.064052,42.348844],[-71.064077,42.348832]]],[[[-71.064025,42.349187],[-71.06381,42.349136],[-71.063786,42.349143],[-71.063796,42.34916],[-71.064,42.349199],[-71.064025,42.349187]]],[[[-71.064012,42.348466],[-71.063707,42.348398],[-71.063683,42.348405],[-71.063693,42.348422],[-71.063987,42.348478],[-71.064012,42.348466]]],[[[-71.063972,42.349332],[-71.063757,42.349281],[-71.063733,42.349288],[-71.063743,42.349305],[-71.063947,42.349344],[-71.063972,42.349332]]],[[[-71.063959,42.349374],[-71.063744,42.349323],[-71.06372,42.34933],[-71.06373,42.349347],[-71.063934,42.349386],[-71.063959,42.349374]]],[[[-71.063954,42.34981],[-71.063677,42.349747],[-71.063652,42.349754],[-71.063663,42.349773],[-71.063927,42.349824],[-71.063954,42.34981]]],[[[-71.063881,42.349901],[-71.063621,42.349842],[-71.063597,42.349849],[-71.063607,42.349866],[-71.063856,42.349914],[-71.063881,42.349901]]],[[[-71.063844,42.35],[-71.063567,42.349937],[-71.063542,42.349944],[-71.063553,42.349963],[-71.063817,42.350014],[-71.063844,42.35]]],[[[-71.063797,42.350047],[-71.063537,42.349988],[-71.063513,42.349995],[-71.063523,42.350012],[-71.063772,42.35006],[-71.063797,42.350047]]],[[[-71.063707,42.350465],[-71.063447,42.350406],[-71.063423,42.350413],[-71.063433,42.35043],[-71.063682,42.350478],[-71.063707,42.350465]]],[[[-71.063693,42.350824],[-71.063675,42.350804],[-71.063365,42.350745],[-71.063143,42.350722],[-71.063153,42.350739],[-71.063652,42.350844],[-71.063693,42.350824]]],[[[-71.063692,42.350225],[-71.063447,42.350168],[-71.063423,42.350175],[-71.063433,42.350192],[-71.063667,42.350237],[-71.063692,42.350225]]],[[[-71.063668,42.350532],[-71.06353,42.350495],[-71.063542,42.350472],[-71.063317,42.350428],[-71.063293,42.350445],[-71.063415,42.350474],[-71.063398,42.350487],[-71.063263,42.350478],[-71.063273,42.350495],[-71.063507,42.35054],[-71.063531,42.350523],[-71.063643,42.350544],[-71.063668,42.350532]]],[[[-71.063662,42.350291],[-71.063417,42.350234],[-71.063393,42.350241],[-71.063403,42.350258],[-71.063637,42.350303],[-71.063662,42.350291]]],[[[-71.063637,42.350325],[-71.063392,42.350268],[-71.063368,42.350275],[-71.063378,42.350292],[-71.063612,42.350337],[-71.063637,42.350325]]],[[[-71.063634,42.350754],[-71.063357,42.350691],[-71.063163,42.350672],[-71.063173,42.350689],[-71.063361,42.350725],[-71.063607,42.350768],[-71.063634,42.350754]]],[[[-71.063622,42.350592],[-71.063392,42.350538],[-71.063238,42.350531],[-71.063248,42.350548],[-71.063482,42.350593],[-71.063611,42.350604],[-71.063622,42.350592]]],[[[-71.063587,42.350652],[-71.063486,42.350617],[-71.063237,42.35057],[-71.063213,42.350577],[-71.063223,42.350594],[-71.063343,42.350622],[-71.063562,42.350664],[-71.063587,42.350652]]],[[[-71.063477,42.350677],[-71.063217,42.350618],[-71.063193,42.350625],[-71.063203,42.350642],[-71.063452,42.35069],[-71.063477,42.350677]]],[[[-71.063363,42.35228],[-71.063133,42.352226],[-71.063109,42.352243],[-71.062911,42.352208],[-71.062813,42.35221],[-71.062823,42.352227],[-71.062952,42.352263],[-71.063177,42.352307],[-71.063201,42.35229],[-71.063291,42.352304],[-71.063301,42.352286],[-71.063352,42.352292],[-71.063363,42.35228]]],[[[-71.063094,42.353352],[-71.062817,42.353289],[-71.062719,42.3533],[-71.062731,42.353322],[-71.063011,42.353375],[-71.063094,42.353352]]],[[[-71.063094,42.353264],[-71.062817,42.353201],[-71.062726,42.353201],[-71.062737,42.35322],[-71.063001,42.353271],[-71.063082,42.353278],[-71.063094,42.353264]]],[[[-71.062869,42.348413],[-71.062851,42.348393],[-71.06253,42.348332],[-71.062501,42.348354],[-71.062509,42.348369],[-71.06237,42.348344],[-71.062331,42.348373],[-71.062355,42.3484],[-71.062725,42.348469],[-71.062761,42.348452],[-71.062753,42.34842],[-71.06284,42.348435],[-71.062869,42.348413]]],[[[-71.062866,42.349443],[-71.06284,42.349415],[-71.062761,42.3494],[-71.062736,42.349365],[-71.06235,42.349292],[-71.06232,42.349301],[-71.062308,42.349323],[-71.062334,42.349352],[-71.062413,42.349367],[-71.062438,42.349402],[-71.062824,42.349475],[-71.062854,42.349466],[-71.062866,42.349443]]],[[[-71.062742,42.34861],[-71.062735,42.348598],[-71.062449,42.348541],[-71.062419,42.348551],[-71.062431,42.348573],[-71.062711,42.348626],[-71.062742,42.34861]]],[[[-71.062304,42.353802],[-71.062027,42.353739],[-71.062002,42.353746],[-71.062013,42.353765],[-71.062277,42.353816],[-71.062304,42.353802]]],[[[-71.062287,42.349614],[-71.062257,42.349581],[-71.061911,42.349515],[-71.061858,42.349523],[-71.061843,42.349548],[-71.061873,42.349581],[-71.06222,42.349647],[-71.062257,42.349647],[-71.062287,42.349614]]],[[[-71.062237,42.348385],[-71.062209,42.348354],[-71.061823,42.348281],[-71.061774,42.348288],[-71.06142,42.348224],[-71.06139,42.348239],[-71.061397,42.348265],[-71.061536,42.348295],[-71.061569,42.348335],[-71.062,42.348417],[-71.062042,42.348417],[-71.06207,42.348397],[-71.062191,42.348419],[-71.062223,42.348409],[-71.062237,42.348385]]],[[[-71.06221,42.349345],[-71.061995,42.349294],[-71.061971,42.349301],[-71.061981,42.349318],[-71.062185,42.349357],[-71.06221,42.349345]]],[[[-71.062192,42.353899],[-71.062162,42.353862],[-71.062018,42.353835],[-71.06203,42.353827],[-71.062021,42.353809],[-71.061817,42.353771],[-71.061793,42.353778],[-71.061803,42.353795],[-71.061886,42.353811],[-71.061876,42.353835],[-71.061956,42.353852],[-71.061963,42.353872],[-71.062167,42.353911],[-71.062192,42.353899]]],[[[-71.062189,42.35375],[-71.062073,42.353717],[-71.062105,42.353673],[-71.062075,42.35364],[-71.061617,42.353538],[-71.061593,42.353545],[-71.061603,42.353562],[-71.061683,42.353578],[-71.061661,42.353607],[-71.061676,42.353632],[-71.061902,42.353686],[-71.061891,42.35371],[-71.062162,42.353764],[-71.062189,42.35375]]],[[[-71.062155,42.349477],[-71.06194,42.349426],[-71.061916,42.349433],[-71.061926,42.34945],[-71.06213,42.349489],[-71.062155,42.349477]]],[[[-71.062151,42.350419],[-71.062123,42.350388],[-71.062144,42.35036],[-71.06212,42.350333],[-71.061765,42.350265],[-71.061722,42.350272],[-71.061711,42.350292],[-71.061722,42.350312],[-71.061688,42.350322],[-71.061675,42.350346],[-71.061703,42.350377],[-71.062088,42.35045],[-71.062123,42.35045],[-71.062151,42.350419]]],[[[-71.062132,42.349919],[-71.061917,42.349868],[-71.061893,42.349875],[-71.061903,42.349892],[-71.062107,42.349931],[-71.062132,42.349919]]],[[[-71.062112,42.349732],[-71.062082,42.349699],[-71.061879,42.34966],[-71.061894,42.349634],[-71.06188,42.349609],[-71.061766,42.349567],[-71.061401,42.349498],[-71.061356,42.34952],[-71.061356,42.349548],[-71.061382,42.349567],[-71.061454,42.349581],[-71.06148,42.349601],[-71.061684,42.34964],[-71.061668,42.349666],[-71.061698,42.349699],[-71.062063,42.349768],[-71.062098,42.349757],[-71.062112,42.349732]]],[[[-71.062102,42.349965],[-71.061887,42.349914],[-71.061863,42.349921],[-71.061873,42.349938],[-71.062077,42.349977],[-71.062102,42.349965]]],[[[-71.062096,42.350039],[-71.061881,42.349988],[-71.061857,42.349995],[-71.061867,42.350012],[-71.062071,42.350051],[-71.062096,42.350039]]],[[[-71.062072,42.350083],[-71.061857,42.350032],[-71.061833,42.350039],[-71.061843,42.350056],[-71.062047,42.350095],[-71.062072,42.350083]]],[[[-71.062062,42.348718],[-71.062036,42.34869],[-71.06165,42.348617],[-71.06162,42.348626],[-71.061608,42.348648],[-71.061503,42.348639],[-71.061475,42.34867],[-71.061503,42.348701],[-71.061905,42.348777],[-71.061937,42.348767],[-71.061951,42.348743],[-71.062036,42.348747],[-71.062062,42.348718]]],[[[-71.062042,42.350119],[-71.061827,42.350068],[-71.061803,42.350075],[-71.061813,42.350092],[-71.062017,42.350131],[-71.062042,42.350119]]],[[[-71.062013,42.350191],[-71.061813,42.350143],[-71.061789,42.35015],[-71.061799,42.350167],[-71.061987,42.350203],[-71.062013,42.350191]]],[[[-71.062002,42.350239],[-71.061787,42.350188],[-71.061763,42.350195],[-71.061773,42.350212],[-71.061977,42.350251],[-71.062002,42.350239]]],[[[-71.061974,42.34846],[-71.061759,42.348409],[-71.061735,42.348416],[-71.061745,42.348433],[-71.061949,42.348472],[-71.061974,42.34846]]],[[[-71.061951,42.353777],[-71.061736,42.353726],[-71.061712,42.353733],[-71.061722,42.35375],[-71.061926,42.353789],[-71.061951,42.353777]]],[[[-71.061933,42.348238],[-71.061895,42.348196],[-71.061434,42.348108],[-71.061366,42.348118],[-71.061348,42.34815],[-71.061386,42.348192],[-71.061848,42.34828],[-71.061895,42.34828],[-71.061933,42.348238]]],[[[-71.061872,42.348924],[-71.06186,42.348902],[-71.061804,42.348888],[-71.061803,42.348863],[-71.061599,42.348825],[-71.061575,42.348842],[-71.061444,42.348825],[-71.061418,42.348854],[-71.061444,42.348883],[-71.061814,42.348953],[-71.061846,42.348953],[-71.061872,42.348924]]],[[[-71.061812,42.348539],[-71.061597,42.348488],[-71.061573,42.348495],[-71.061583,42.348512],[-71.061787,42.348551],[-71.061812,42.348539]]],[[[-71.061772,42.351003],[-71.061765,42.350991],[-71.061479,42.350934],[-71.061449,42.350944],[-71.061461,42.350966],[-71.061741,42.351019],[-71.061772,42.351003]]],[[[-71.061672,42.3493],[-71.061641,42.349267],[-71.060776,42.349121],[-71.060725,42.349137],[-71.060705,42.349174],[-71.060749,42.349223],[-71.061283,42.349323],[-71.061333,42.349308],[-71.06135,42.349256],[-71.061647,42.349312],[-71.061672,42.3493]]],[[[-71.061664,42.349102],[-71.061387,42.349039],[-71.061362,42.349046],[-71.061373,42.349065],[-71.061637,42.349116],[-71.061664,42.349102]]],[[[-71.061622,42.351161],[-71.061407,42.35111],[-71.061383,42.351117],[-71.061393,42.351134],[-71.061597,42.351173],[-71.061622,42.351161]]],[[[-71.061601,42.351219],[-71.061386,42.351168],[-71.061362,42.351175],[-71.061372,42.351192],[-71.061576,42.351231],[-71.061601,42.351219]]],[[[-71.061592,42.3499],[-71.061566,42.349872],[-71.061196,42.349801],[-71.06115,42.349808],[-71.061138,42.34983],[-71.061164,42.349859],[-71.061534,42.349929],[-71.061566,42.349929],[-71.061592,42.3499]]],[[[-71.061575,42.351279],[-71.06136,42.351228],[-71.061336,42.351235],[-71.061346,42.351252],[-71.06155,42.351291],[-71.061575,42.351279]]],[[[-71.061572,42.349469],[-71.061357,42.349418],[-71.061333,42.349425],[-71.061343,42.349442],[-71.061547,42.349481],[-71.061572,42.349469]]],[[[-71.061572,42.350109],[-71.06154,42.350074],[-71.061124,42.349995],[-71.061067,42.350003],[-71.061052,42.35003],[-71.061084,42.350065],[-71.0615,42.350145],[-71.06154,42.350145],[-71.061572,42.350109]]],[[[-71.061556,42.351328],[-71.061341,42.351277],[-71.061317,42.351284],[-71.061327,42.351301],[-71.061531,42.35134],[-71.061556,42.351328]]],[[[-71.061501,42.349672],[-71.061271,42.349618],[-71.061247,42.349625],[-71.061257,42.349642],[-71.061476,42.349684],[-71.061501,42.349672]]],[[[-71.06148,42.34972],[-71.06125,42.349666],[-71.061226,42.349673],[-71.061236,42.34969],[-71.061455,42.349732],[-71.06148,42.34972]]],[[[-71.061448,42.353409],[-71.061336,42.353349],[-71.061127,42.353308],[-71.061103,42.353315],[-71.061157,42.353354],[-71.061209,42.353365],[-71.061213,42.35338],[-71.061423,42.353421],[-71.061448,42.353409]]],[[[-71.061448,42.348681],[-71.061416,42.348646],[-71.061,42.348567],[-71.060943,42.348575],[-71.060928,42.348602],[-71.06096,42.348637],[-71.061376,42.348717],[-71.061416,42.348717],[-71.061448,42.348681]]],[[[-71.061442,42.354813],[-71.061227,42.354762],[-71.061203,42.354769],[-71.061213,42.354786],[-71.061417,42.354825],[-71.061442,42.354813]]],[[[-71.061436,42.348799],[-71.061402,42.348761],[-71.060971,42.348679],[-71.060911,42.348688],[-71.060895,42.348717],[-71.060929,42.348755],[-71.06136,42.348837],[-71.061402,42.348837],[-71.061436,42.348799]]],[[[-71.061392,42.354955],[-71.061177,42.354904],[-71.061153,42.354911],[-71.061163,42.354928],[-71.061367,42.354967],[-71.061392,42.354955]]],[[[-71.061312,42.348897],[-71.061286,42.348869],[-71.060916,42.348798],[-71.06087,42.348805],[-71.060858,42.348827],[-71.060884,42.348856],[-71.061254,42.348926],[-71.061286,42.348926],[-71.061312,42.348897]]],[[[-71.061282,42.35332],[-71.061037,42.353263],[-71.061013,42.35327],[-71.061023,42.353287],[-71.061257,42.353332],[-71.061282,42.35332]]],[[[-71.061242,42.348529],[-71.061027,42.348478],[-71.061003,42.348485],[-71.061013,42.348502],[-71.061217,42.348541],[-71.061242,42.348529]]],[[[-71.061192,42.353402],[-71.061137,42.353381],[-71.061137,42.353362],[-71.061064,42.353346],[-71.061055,42.353328],[-71.060851,42.35329],[-71.060827,42.353297],[-71.060837,42.353314],[-71.060889,42.353324],[-71.060898,42.353342],[-71.060957,42.353354],[-71.060957,42.353373],[-71.061167,42.353414],[-71.061192,42.353402]]],[[[-71.061142,42.353259],[-71.060927,42.353208],[-71.060903,42.353215],[-71.060913,42.353232],[-71.061117,42.353271],[-71.061142,42.353259]]],[[[-71.061095,42.349582],[-71.061065,42.349549],[-71.060537,42.349441],[-71.060513,42.349458],[-71.06061,42.349482],[-71.060598,42.349504],[-71.060513,42.349491],[-71.060503,42.349508],[-71.060135,42.349441],[-71.060096,42.34947],[-71.06012,42.349497],[-71.060683,42.349607],[-71.060706,42.34959],[-71.060525,42.34955],[-71.060518,42.349517],[-71.061047,42.349618],[-71.061081,42.349608],[-71.061095,42.349582]]],[[[-71.061079,42.349456],[-71.061049,42.349423],[-71.060577,42.34933],[-71.060553,42.349347],[-71.060645,42.34937],[-71.060635,42.34939],[-71.060648,42.349414],[-71.060523,42.349402],[-71.060533,42.349419],[-71.060737,42.349458],[-71.06103,42.349492],[-71.061065,42.349481],[-71.061079,42.349456]]],[[[-71.061009,42.349746],[-71.060979,42.349713],[-71.060579,42.349637],[-71.060453,42.349635],[-71.060463,42.349652],[-71.060513,42.349662],[-71.060515,42.349684],[-71.060541,42.349703],[-71.060961,42.349782],[-71.060995,42.349772],[-71.061009,42.349746]]],[[[-71.060998,42.349871],[-71.060966,42.349836],[-71.06055,42.349757],[-71.060493,42.349765],[-71.060478,42.349792],[-71.06051,42.349827],[-71.060926,42.349907],[-71.060966,42.349907],[-71.060998,42.349871]]],[[[-71.060832,42.349299],[-71.060617,42.349248],[-71.060593,42.349255],[-71.060603,42.349272],[-71.060807,42.349311],[-71.060832,42.349299]]],[[[-71.060812,42.349339],[-71.060597,42.349288],[-71.060573,42.349295],[-71.060583,42.349312],[-71.060787,42.349351],[-71.060812,42.349339]]],[[[-71.060802,42.353079],[-71.060587,42.353028],[-71.060563,42.353035],[-71.060573,42.353052],[-71.060777,42.353091],[-71.060802,42.353079]]],[[[-71.060774,42.353473],[-71.06075,42.353446],[-71.060407,42.353368],[-71.060352,42.353385],[-71.060341,42.353405],[-71.060365,42.353432],[-71.06072,42.353499],[-71.06075,42.353499],[-71.060774,42.353473]]],[[[-71.060727,42.353325],[-71.060497,42.353271],[-71.060473,42.353278],[-71.060483,42.353295],[-71.060702,42.353337],[-71.060727,42.353325]]],[[[-71.060722,42.353036],[-71.060682,42.353006],[-71.060457,42.352962],[-71.060433,42.352969],[-71.060487,42.353007],[-71.060697,42.353048],[-71.060722,42.353036]]],[[[-71.060708,42.353189],[-71.060493,42.353138],[-71.060469,42.353145],[-71.060479,42.353162],[-71.060683,42.353201],[-71.060708,42.353189]]],[[[-71.060708,42.349639],[-71.060493,42.349588],[-71.060469,42.349595],[-71.060479,42.349612],[-71.060683,42.349651],[-71.060708,42.349639]]],[[[-71.06066,42.350216],[-71.06063,42.350183],[-71.060491,42.350156],[-71.060491,42.350131],[-71.060287,42.350093],[-71.060231,42.350125],[-71.060216,42.35015],[-71.060246,42.350183],[-71.060593,42.350249],[-71.06063,42.350249],[-71.06066,42.350216]]],[[[-71.060632,42.353139],[-71.060573,42.353117],[-71.060567,42.353096],[-71.060363,42.353058],[-71.060339,42.353065],[-71.060349,42.353082],[-71.060396,42.353091],[-71.060403,42.353112],[-71.060607,42.353151],[-71.060632,42.353139]]],[[[-71.060607,42.349926],[-71.060377,42.349872],[-71.060353,42.349879],[-71.060363,42.349896],[-71.060582,42.349938],[-71.060607,42.349926]]],[[[-71.060562,42.353486],[-71.060463,42.353452],[-71.06006,42.353376],[-71.060028,42.353386],[-71.060015,42.35341],[-71.060043,42.353441],[-71.060445,42.353517],[-71.060562,42.353486]]],[[[-71.060522,42.350076],[-71.060307,42.350025],[-71.060283,42.350032],[-71.060293,42.350049],[-71.060497,42.350088],[-71.060522,42.350076]]],[[[-71.060429,42.349615],[-71.060411,42.349595],[-71.060101,42.349536],[-71.060061,42.349556],[-71.060079,42.349576],[-71.060388,42.349635],[-71.060429,42.349615]]],[[[-71.060426,42.349709],[-71.060404,42.349684],[-71.060064,42.34962],[-71.060025,42.349625],[-71.060014,42.349644],[-71.060036,42.349668],[-71.060376,42.349733],[-71.060404,42.349733],[-71.060426,42.349709]]],[[[-71.060362,42.353001],[-71.060147,42.35295],[-71.060123,42.352957],[-71.060133,42.352974],[-71.060337,42.353013],[-71.060362,42.353001]]],[[[-71.060342,42.351114],[-71.060316,42.351086],[-71.059946,42.351015],[-71.0599,42.351022],[-71.059888,42.351044],[-71.059914,42.351073],[-71.060284,42.351143],[-71.060316,42.351143],[-71.060342,42.351114]]],[[[-71.060195,42.351191],[-71.060188,42.351178],[-71.059885,42.351117],[-71.059851,42.351128],[-71.059865,42.351153],[-71.06016,42.351209],[-71.060195,42.351191]]],[[[-71.060192,42.35333],[-71.060166,42.353302],[-71.059796,42.353231],[-71.05975,42.353238],[-71.059738,42.35326],[-71.05975,42.353282],[-71.059827,42.35331],[-71.060037,42.353351],[-71.06015,42.353362],[-71.06018,42.353353],[-71.060192,42.35333]]],[[[-71.059995,42.351776],[-71.059965,42.351743],[-71.059737,42.351699],[-71.059748,42.351676],[-71.059734,42.351665],[-71.05943,42.351608],[-71.059406,42.35162],[-71.05942,42.351645],[-71.059585,42.351676],[-71.059507,42.351704],[-71.059373,42.351688],[-71.059343,42.351698],[-71.059355,42.35172],[-71.059635,42.351773],[-71.059664,42.351764],[-71.059946,42.351812],[-71.059981,42.351801],[-71.059995,42.351776]]],[[[-71.059979,42.355013],[-71.059887,42.35493],[-71.05955,42.354866],[-71.05952,42.354881],[-71.059527,42.354907],[-71.059612,42.354949],[-71.059629,42.354974],[-71.05995,42.355035],[-71.059979,42.355013]]],[[[-71.059977,42.352795],[-71.059677,42.352725],[-71.059599,42.352725],[-71.059609,42.352742],[-71.059952,42.352807],[-71.059977,42.352795]]],[[[-71.059935,42.352849],[-71.059905,42.352816],[-71.059559,42.35275],[-71.059506,42.352758],[-71.059491,42.352783],[-71.059521,42.352816],[-71.059868,42.352882],[-71.059905,42.352882],[-71.059935,42.352849]]],[[[-71.059887,42.351662],[-71.059867,42.35164],[-71.059542,42.351578],[-71.0595,42.351591],[-71.059518,42.351622],[-71.059842,42.351684],[-71.059867,42.351684],[-71.059887,42.351662]]],[[[-71.059807,42.354875],[-71.059798,42.354858],[-71.059754,42.354846],[-71.059737,42.354788],[-71.059718,42.354773],[-71.059364,42.354707],[-71.059331,42.354723],[-71.059339,42.354752],[-71.059373,42.354762],[-71.059377,42.354791],[-71.059421,42.354803],[-71.059438,42.354835],[-71.059775,42.354899],[-71.059807,42.354875]]],[[[-71.059722,42.351136],[-71.059507,42.351085],[-71.059483,42.351092],[-71.059493,42.351109],[-71.059697,42.351148],[-71.059722,42.351136]]],[[[-71.059682,42.351209],[-71.059467,42.351158],[-71.059443,42.351165],[-71.059453,42.351182],[-71.059657,42.351221],[-71.059682,42.351209]]],[[[-71.059632,42.353139],[-71.059417,42.353088],[-71.059393,42.353095],[-71.059403,42.353112],[-71.059607,42.353151],[-71.059632,42.353139]]],[[[-71.059622,42.353049],[-71.059407,42.352998],[-71.059383,42.353005],[-71.059393,42.353022],[-71.059597,42.353061],[-71.059622,42.353049]]],[[[-71.059619,42.351366],[-71.059605,42.351341],[-71.05955,42.351326],[-71.059556,42.351292],[-71.059529,42.351273],[-71.05911,42.351194],[-71.059076,42.351205],[-71.059061,42.35123],[-71.059076,42.351255],[-71.05913,42.351271],[-71.059125,42.351304],[-71.05915,42.351322],[-71.059095,42.351343],[-71.059095,42.351371],[-71.059121,42.35139],[-71.059541,42.351469],[-71.059586,42.351447],[-71.059586,42.351419],[-71.059561,42.351401],[-71.059605,42.351392],[-71.059619,42.351366]]],[[[-71.059602,42.351833],[-71.059595,42.351821],[-71.059309,42.351764],[-71.059279,42.351774],[-71.059291,42.351796],[-71.059571,42.351849],[-71.059602,42.351833]]],[[[-71.059417,42.354447],[-71.059397,42.354425],[-71.059072,42.354363],[-71.05903,42.354376],[-71.059048,42.354407],[-71.059372,42.354469],[-71.059397,42.354469],[-71.059417,42.354447]]],[[[-71.059388,42.353333],[-71.059173,42.353282],[-71.058964,42.353277],[-71.058853,42.353256],[-71.058723,42.353263],[-71.058733,42.35328],[-71.058937,42.353319],[-71.059065,42.353313],[-71.059363,42.353345],[-71.059388,42.353333]]],[[[-71.05936,42.351573],[-71.059353,42.35156],[-71.05905,42.351499],[-71.059016,42.35151],[-71.05903,42.351535],[-71.059325,42.351591],[-71.05936,42.351573]]],[[[-71.059346,42.351669],[-71.059324,42.351644],[-71.058984,42.35158],[-71.058945,42.351585],[-71.058934,42.351604],[-71.058956,42.351628],[-71.059296,42.351693],[-71.059324,42.351693],[-71.059346,42.351669]]],[[[-71.059302,42.351499],[-71.059087,42.351448],[-71.059063,42.351455],[-71.059073,42.351472],[-71.059277,42.351511],[-71.059302,42.351499]]],[[[-71.059247,42.351752],[-71.059227,42.35173],[-71.058902,42.351668],[-71.05886,42.351681],[-71.058878,42.351712],[-71.059202,42.351774],[-71.059227,42.351774],[-71.059247,42.351752]]],[[[-71.059226,42.351803],[-71.059204,42.351778],[-71.05885,42.351712],[-71.058817,42.351728],[-71.058825,42.351757],[-71.058786,42.351756],[-71.058764,42.35178],[-71.058786,42.351804],[-71.05914,42.351871],[-71.059173,42.351855],[-71.059165,42.351826],[-71.059204,42.351827],[-71.059226,42.351803]]],[[[-71.059224,42.35434],[-71.058947,42.354277],[-71.058922,42.354284],[-71.058933,42.354303],[-71.059197,42.354354],[-71.059224,42.35434]]],[[[-71.059222,42.354371],[-71.059007,42.35432],[-71.058983,42.354327],[-71.058993,42.354344],[-71.059197,42.354383],[-71.059222,42.354371]]],[[[-71.059182,42.351691],[-71.058937,42.351634],[-71.058913,42.351641],[-71.058923,42.351658],[-71.059157,42.351703],[-71.059182,42.351691]]],[[[-71.05911,42.351913],[-71.059086,42.351886],[-71.058992,42.351858],[-71.058767,42.351814],[-71.058701,42.351818],[-71.058677,42.351845],[-71.058701,42.351872],[-71.059056,42.351939],[-71.059086,42.351939],[-71.05911,42.351913]]],[[[-71.059017,42.351968],[-71.058997,42.351946],[-71.05866,42.351882],[-71.058637,42.351889],[-71.05863,42.351915],[-71.058599,42.351924],[-71.058611,42.351946],[-71.058891,42.351999],[-71.058997,42.35199],[-71.059017,42.351968]]],[[[-71.059016,42.352079],[-71.058982,42.352041],[-71.058573,42.351955],[-71.058491,42.351968],[-71.058451,42.352018],[-71.058451,42.352042],[-71.058397,42.35205],[-71.058398,42.352087],[-71.058363,42.352085],[-71.058353,42.352102],[-71.058582,42.352151],[-71.058606,42.352144],[-71.058825,42.352181],[-71.058858,42.352171],[-71.058867,42.352135],[-71.058899,42.352112],[-71.058982,42.352117],[-71.059016,42.352079]]],[[[-71.058772,42.352569],[-71.058578,42.352522],[-71.058752,42.352544],[-71.058762,42.352536],[-71.058752,42.352517],[-71.058487,42.352467],[-71.058253,42.352455],[-71.058253,42.352479],[-71.058471,42.352518],[-71.058233,42.352507],[-71.058243,42.352524],[-71.058447,42.352563],[-71.058622,42.352582],[-71.058761,42.352581],[-71.058772,42.352569]],[[-71.058545,42.352517],[-71.058477,42.352514],[-71.058482,42.352506],[-71.058545,42.352517]]],[[[-71.058492,42.350949],[-71.058416,42.350916],[-71.058207,42.350875],[-71.058183,42.350882],[-71.058193,42.350899],[-71.058257,42.35092],[-71.058467,42.350961],[-71.058492,42.350949]]],[[[-71.058242,42.352704],[-71.058027,42.352653],[-71.058003,42.35266],[-71.058013,42.352677],[-71.058217,42.352716],[-71.058242,42.352704]]],[[[-71.058236,42.352807],[-71.058021,42.352756],[-71.057997,42.352763],[-71.058007,42.35278],[-71.058211,42.352819],[-71.058236,42.352807]]],[[[-71.058212,42.352944],[-71.057997,42.352893],[-71.057973,42.3529],[-71.057983,42.352917],[-71.058187,42.352956],[-71.058212,42.352944]]],[[[-71.058044,42.352282],[-71.057915,42.352229],[-71.057679,42.352168],[-71.057661,42.352149],[-71.05734,42.352088],[-71.057311,42.35211],[-71.057329,42.35213],[-71.057714,42.352244],[-71.058018,42.352301],[-71.058044,42.352282]]],[[[-71.058007,42.350732],[-71.057951,42.350703],[-71.057747,42.350665],[-71.057723,42.350672],[-71.057778,42.350705],[-71.057982,42.350744],[-71.058007,42.350732]]],[[[-71.057618,42.350442],[-71.057403,42.350391],[-71.057379,42.350398],[-71.057389,42.350415],[-71.057593,42.350454],[-71.057618,42.350442]]],[[[-71.057602,42.350533],[-71.057387,42.350482],[-71.057363,42.350489],[-71.057373,42.350506],[-71.057577,42.350545],[-71.057602,42.350533]]],[[[-71.057567,42.351749],[-71.057337,42.351695],[-71.057313,42.351702],[-71.057323,42.351719],[-71.057542,42.351761],[-71.057567,42.351749]]],[[[-71.057542,42.351789],[-71.057327,42.351738],[-71.057303,42.351745],[-71.057313,42.351762],[-71.057517,42.351801],[-71.057542,42.351789]]],[[[-71.057532,42.35097],[-71.057287,42.350913],[-71.057263,42.35092],[-71.057273,42.350937],[-71.057507,42.350982],[-71.057532,42.35097]]],[[[-71.057513,42.351936],[-71.057298,42.351885],[-71.057274,42.351892],[-71.057284,42.351909],[-71.057488,42.351948],[-71.057513,42.351936]]],[[[-71.057502,42.351108],[-71.057257,42.351051],[-71.057233,42.351058],[-71.057243,42.351075],[-71.057477,42.35112],[-71.057502,42.351108]]],[[[-71.057487,42.351991],[-71.057287,42.351943],[-71.057263,42.35195],[-71.057273,42.351967],[-71.057461,42.352003],[-71.057487,42.351991]]],[[[-71.057412,42.351449],[-71.057197,42.351398],[-71.057173,42.351405],[-71.057183,42.351422],[-71.057387,42.351461],[-71.057412,42.351449]]],[[[-71.057402,42.350589],[-71.057187,42.350538],[-71.057059,42.350528],[-71.057069,42.350545],[-71.057273,42.350584],[-71.057377,42.350601],[-71.057402,42.350589]]],[[[-71.057351,42.350671],[-71.057136,42.35062],[-71.057112,42.350627],[-71.057122,42.350644],[-71.057326,42.350683],[-71.057351,42.350671]]],[[[-71.057347,42.349965],[-71.057327,42.349943],[-71.057117,42.349903],[-71.057097,42.34988],[-71.05676,42.349816],[-71.05673,42.349831],[-71.056748,42.349862],[-71.056958,42.349902],[-71.056978,42.349925],[-71.057315,42.349989],[-71.057347,42.349965]]],[[[-71.057242,42.349879],[-71.057162,42.349853],[-71.057184,42.349828],[-71.05716,42.349801],[-71.05679,42.349731],[-71.056751,42.34976],[-71.056775,42.349787],[-71.057007,42.349831],[-71.057007,42.34985],[-71.057217,42.349891],[-71.057242,42.349879]]],[[[-71.05712,42.349981],[-71.05709,42.349948],[-71.056744,42.349882],[-71.056691,42.34989],[-71.056676,42.349915],[-71.056706,42.349948],[-71.057053,42.350014],[-71.05709,42.350014],[-71.05712,42.349981]]],[[[-71.057117,42.352075],[-71.056977,42.352029],[-71.056737,42.351982],[-71.056713,42.351989],[-71.056723,42.352006],[-71.056837,42.352038],[-71.057092,42.352088],[-71.057117,42.352075]]],[[[-71.057075,42.350072],[-71.057045,42.350039],[-71.056699,42.349973],[-71.056646,42.349981],[-71.056631,42.350006],[-71.056661,42.350039],[-71.057008,42.350105],[-71.057045,42.350105],[-71.057075,42.350072]]],[[[-71.057038,42.350269],[-71.056927,42.350225],[-71.05659,42.350161],[-71.05656,42.350176],[-71.056578,42.350207],[-71.056915,42.350271],[-71.057027,42.350281],[-71.057038,42.350269]]],[[[-71.057002,42.350346],[-71.056787,42.350295],[-71.056763,42.350302],[-71.056773,42.350319],[-71.056977,42.350358],[-71.057002,42.350346]]],[[[-71.056969,42.350153],[-71.056951,42.350133],[-71.056641,42.350074],[-71.056601,42.350094],[-71.056619,42.350114],[-71.056928,42.350173],[-71.056969,42.350153]]],[[[-71.05692,42.353259],[-71.056913,42.353246],[-71.056818,42.353225],[-71.056818,42.353205],[-71.056741,42.353189],[-71.056743,42.353167],[-71.056669,42.353151],[-71.056658,42.353128],[-71.056237,42.353038],[-71.056213,42.353045],[-71.056223,42.353062],[-71.056348,42.353086],[-71.056361,42.353106],[-71.056528,42.353154],[-71.056526,42.353175],[-71.056584,42.353188],[-71.056576,42.35321],[-71.05659,42.353221],[-71.056894,42.353278],[-71.05692,42.353259]]],[[[-71.056905,42.3509],[-71.056875,42.350867],[-71.056529,42.350801],[-71.056476,42.350809],[-71.056461,42.350834],[-71.056491,42.350867],[-71.056838,42.350933],[-71.056875,42.350933],[-71.056905,42.3509]]],[[[-71.056892,42.35066],[-71.056632,42.350601],[-71.056608,42.350608],[-71.056618,42.350625],[-71.056867,42.350673],[-71.056892,42.35066]]],[[[-71.056857,42.350727],[-71.056597,42.350668],[-71.056573,42.350675],[-71.056583,42.350692],[-71.056832,42.35074],[-71.056857,42.350727]]],[[[-71.056717,42.351967],[-71.056565,42.351923],[-71.056377,42.351888],[-71.056353,42.351895],[-71.056363,42.351912],[-71.056443,42.351932],[-71.056692,42.35198],[-71.056717,42.351967]]],[[[-71.056647,42.351144],[-71.05643,42.351093],[-71.05643,42.351074],[-71.056175,42.351024],[-71.056151,42.351031],[-71.056161,42.351048],[-71.056367,42.351088],[-71.056367,42.351107],[-71.056622,42.351157],[-71.056647,42.351144]]],[[[-71.056632,42.351069],[-71.056417,42.351018],[-71.056393,42.351025],[-71.056403,42.351042],[-71.056607,42.351081],[-71.056632,42.351069]]],[[[-71.0566,42.354726],[-71.056593,42.354713],[-71.05629,42.354652],[-71.056256,42.354663],[-71.05627,42.354688],[-71.056565,42.354744],[-71.0566,42.354726]]],[[[-71.056587,42.354977],[-71.056327,42.354918],[-71.056303,42.354925],[-71.056313,42.354942],[-71.056562,42.35499],[-71.056587,42.354977]]],[[[-71.056577,42.354883],[-71.056317,42.354824],[-71.056293,42.354831],[-71.056303,42.354848],[-71.056552,42.354896],[-71.056577,42.354883]]],[[[-71.056574,42.3548],[-71.056297,42.354737],[-71.056272,42.354744],[-71.056283,42.354763],[-71.056547,42.354814],[-71.056574,42.3548]]],[[[-71.056568,42.351215],[-71.056353,42.351164],[-71.056113,42.35114],[-71.056123,42.351157],[-71.056372,42.351205],[-71.056543,42.351227],[-71.056568,42.351215]]],[[[-71.056505,42.350889],[-71.056245,42.35083],[-71.056221,42.350837],[-71.056231,42.350854],[-71.05648,42.350902],[-71.056505,42.350889]]],[[[-71.056477,42.351418],[-71.056247,42.351364],[-71.056223,42.351371],[-71.056233,42.351388],[-71.056452,42.35143],[-71.056477,42.351418]]],[[[-71.056475,42.35098],[-71.056215,42.350921],[-71.056191,42.350928],[-71.056201,42.350945],[-71.05645,42.350993],[-71.056475,42.35098]]],[[[-71.056458,42.351453],[-71.056215,42.35139],[-71.055966,42.351343],[-71.055942,42.35135],[-71.055952,42.351367],[-71.056214,42.351423],[-71.056433,42.351465],[-71.056458,42.351453]]],[[[-71.056427,42.351492],[-71.056197,42.351438],[-71.055918,42.351407],[-71.055928,42.351424],[-71.056177,42.351472],[-71.056402,42.351504],[-71.056427,42.351492]]],[[[-71.056297,42.351752],[-71.056067,42.351698],[-71.056043,42.351705],[-71.056053,42.351722],[-71.056272,42.351764],[-71.056297,42.351752]]],[[[-71.056215,42.352292],[-71.056185,42.352259],[-71.05582,42.35219],[-71.055786,42.352201],[-71.055775,42.35224],[-71.055737,42.352276],[-71.055767,42.352309],[-71.056132,42.352378],[-71.056167,42.352367],[-71.056177,42.352328],[-71.056215,42.352292]]],[[[-71.056169,42.351529],[-71.055909,42.35147],[-71.055885,42.351477],[-71.055895,42.351494],[-71.056144,42.351542],[-71.056169,42.351529]]],[[[-71.056137,42.351608],[-71.055877,42.351549],[-71.055853,42.351556],[-71.055863,42.351573],[-71.056112,42.351621],[-71.056137,42.351608]]],[[[-71.056113,42.353398],[-71.056093,42.353376],[-71.055768,42.353314],[-71.055726,42.353327],[-71.055744,42.353358],[-71.056068,42.35342],[-71.056093,42.35342],[-71.056113,42.353398]]],[[[-71.056108,42.351669],[-71.055848,42.35161],[-71.055824,42.351617],[-71.055834,42.351634],[-71.056083,42.351682],[-71.056108,42.351669]]],[[[-71.056057,42.351774],[-71.055797,42.351715],[-71.055773,42.351722],[-71.055783,42.351739],[-71.056032,42.351787],[-71.056057,42.351774]]],[[[-71.056037,42.351823],[-71.055777,42.351764],[-71.055753,42.351771],[-71.055763,42.351788],[-71.056012,42.351836],[-71.056037,42.351823]]],[[[-71.056034,42.353453],[-71.056016,42.353433],[-71.055706,42.353374],[-71.055666,42.353394],[-71.055684,42.353414],[-71.055993,42.353473],[-71.056034,42.353453]]],[[[-71.05591,42.35348],[-71.055633,42.353417],[-71.055608,42.353424],[-71.055619,42.353443],[-71.055883,42.353494],[-71.05591,42.35348]]],[[[-71.055807,42.353544],[-71.055547,42.353485],[-71.055523,42.353492],[-71.055533,42.353509],[-71.055782,42.353557],[-71.055807,42.353544]]],[[[-71.055717,42.353572],[-71.055487,42.353518],[-71.055463,42.353525],[-71.055473,42.353542],[-71.055692,42.353584],[-71.055717,42.353572]]],[[[-71.055549,42.353731],[-71.055531,42.353711],[-71.055463,42.353698],[-71.055455,42.353679],[-71.055251,42.353641],[-71.055189,42.353657],[-71.055189,42.353686],[-71.055147,42.3537],[-71.055154,42.353712],[-71.055441,42.353769],[-71.055458,42.353769],[-71.05547,42.353747],[-71.055531,42.353751],[-71.055549,42.353731]]]]},"properties":{"kind":"tree"}}]}