{"type":"FeatureCollection","features":[{"type":"Feature","geometry":{"type":"MultiPolygon","coordinates":[[[[-71.068155,42.352129],[-71.068132,42.351995],[-71.067872,42.351409],[-71.067778,42.351384],[-71.067755,42.35115],[-71.066424,42.350791],[-71.066429,42.350769],[-71.06652,42.350794],[-71.066706,42.350785],[-71.066688,42.350565],[-71.066156,42.350421],[-71.066807,42.350595],[-71.066994,42.350622],[-71.067382,42.350614],[-71.067356,42.35037],[-71.067382,42.350374],[-71.067421,42.350321],[-71.067362,42.350254],[-71.067307,42.350239],[-71.067242,42.350164],[-71.066314,42.349914],[-71.066333,42.349821],[-71.066405,42.34984],[-71.066482,42.349816],[-71.066493,42.349779],[-71.066471,42.349704],[-71.066497,42.349648],[-71.066331,42.349577],[-71.066388,42.349559],[-71.066332,42.349461],[-71.066051,42.349385],[-71.065989,42.349405],[-71.06604,42.349498],[-71.06562,42.349445],[-71.06566,42.349421],[-71.065645,42.349403],[-71.065746,42.349431],[-71.066008,42.349308],[-71.06578,42.349043],[-71.065525,42.348974],[-71.065526,42.348857],[-71.065482,42.348743],[-71.064992,42.348617],[-71.064341,42.348545],[-71.064334,42.348568],[-71.063945,42.348463],[-71.063015,42.348311],[-71.063028,42.34828],[-71.063153,42.348298],[-71.063156,42.348287],[-71.063519,42.348341],[-71.063543,42.348258],[-71.063528,42.348237],[-71.063735,42.348293],[-71.06439,42.348391],[-71.064411,42.348315],[-71.064456,42.348327],[-71.06444,42.348386],[-71.065772,42.348745],[-71.066137,42.348801],[-71.066164,42.348761],[-71.066223,42.34877],[-71.06624,42.348707],[-71.066189,42.348694],[-71.066197,42.348661],[-71.066771,42.348816],[-71.067309,42.348879],[-71.067337,42.348759],[-71.067027,42.348676],[-71.067104,42.348675],[-71.067122,42.348583],[-71.067051,42.348564],[-71.067094,42.34836],[-71.065995,42.348062],[-71.065837,42.348044],[-71.065755,42.34843],[-71.065513,42.348365],[-71.065469,42.348317],[-71.06559,42.348206],[-71.065599,42.348162],[-71.065542,42.348078],[-71.065685,42.347985],[-71.065683,42.347927],[-71.06575,42.34788],[-71.065751,42.347793],[-71.065689,42.347759],[-71.065257,42.347643],[-71.064894,42.347587],[-71.064503,42.347783],[-71.064399,42.348022],[-71.063968,42.347919],[-71.063891,42.347981],[-71.063901,42.347946],[-71.063606,42.347866],[-71.06346,42.347843],[-71.06341,42.348028],[-71.062961,42.347921],[-71.062956,42.347934],[-71.061712,42.347604],[-71.061566,42.347954],[-71.061555,42.348046],[-71.061903,42.34814],[-71.061831,42.348318],[-71.061011,42.348097],[-71.060549,42.348739],[-71.061098,42.348887],[-71.061094,42.348905],[-71.061161,42.348956],[-71.061134,42.34895],[-71.061128,42.348964],[-71.060878,42.348902],[-71.060768,42.349183],[-71.060321,42.349063],[-71.060204,42.349326],[-71.059968,42.349943],[-71.059512,42.34982],[-71.059549,42.349727],[-71.058687,42.349495],[-71.058704,42.349452],[-71.058424,42.349376],[-71.057926,42.349266],[-71.057859,42.349433],[-71.058001,42.349471],[-71.057962,42.349568],[-71.057872,42.349548],[-71.057853,42.349597],[-71.05872,42.349826],[-71.059074,42.349905],[-71.059083,42.34988],[-71.059455,42.349963],[-71.059485,42.349889],[-71.05994,42.350011],[-71.059925,42.350048],[-71.060389,42.350186],[-71.06038,42.350207],[-71.06284,42.350874],[-71.063888,42.351141],[-71.063049,42.351044],[-71.063032,42.351086],[-71.062859,42.351039],[-71.062305,42.350943],[-71.061511,42.350746],[-71.059471,42.35018],[-71.059047,42.350086],[-71.059011,42.350097],[-71.057874,42.34983],[-71.057851,42.349841],[-71.057354,42.349715],[-71.057493,42.349427],[-71.057338,42.349386],[-71.057346,42.349353],[-71.056596,42.349149],[-71.056218,42.349257],[-71.057227,42.34775],[-71.057217,42.347691],[-71.056452,42.347409],[-71.055908,42.347262],[-71.054533,42.349309],[-71.05452,42.34943],[-71.054447,42.34941],[-71.053477,42.350853],[-71.054337,42.351171],[-71.054582,42.351237],[-71.054598,42.351214],[-71.054981,42.351317],[-71.055264,42.350955],[-71.055452,42.350677],[-71.056123,42.350854],[-71.056578,42.350847],[-71.05656,42.350888],[-71.057015,42.351011],[-71.056993,42.351058],[-71.056543,42.350948],[-71.056401,42.351249],[-71.056848,42.351418],[-71.056841,42.351433],[-71.056945,42.351475],[-71.057421,42.351618],[-71.056294,42.351331],[-71.056106,42.351709],[-71.055498,42.351545],[-71.054479,42.351779],[-71.054307,42.351954],[-71.054833,42.352232],[-71.055869,42.352519],[-71.055985,42.352536],[-71.056034,42.352612],[-71.056871,42.352838],[-71.05695,42.352824],[-71.057266,42.352909],[-71.057163,42.352943],[-71.057114,42.352988],[-71.057102,42.35306],[-71.057149,42.353124],[-71.057259,42.353188],[-71.05799,42.353385],[-71.057933,42.353509],[-71.057947,42.353542],[-71.057985,42.353568],[-71.056237,42.353097],[-71.055998,42.353225],[-71.056026,42.353329],[-71.055897,42.353294],[-71.055573,42.353469],[-71.055604,42.353501],[-71.055421,42.353589],[-71.055395,42.353617],[-71.055342,42.353603],[-71.054915,42.353838],[-71.055024,42.353948],[-71.054851,42.353901],[-71.054793,42.353902],[-71.054378,42.354122],[-71.054355,42.354162],[-71.054364,42.354206],[-71.054619,42.354471],[-71.054883,42.354545],[-71.054775,42.354643],[-71.05498,42.354839],[-71.055603,42.355007],[-71.055688,42.355479],[-71.05786,42.356064],[-71.057975,42.356069],[-71.058245,42.356043],[-71.061354,42.356881],[-71.061806,42.356837],[-71.061704,42.356258],[-71.060701,42.355987],[-71.06073,42.355985],[-71.06071,42.355834],[-71.060271,42.355658],[-71.058852,42.355276],[-71.05878,42.355209],[-71.058865,42.35521],[-71.059228,42.355368],[-71.059917,42.355554],[-71.05994,42.355532],[-71.061735,42.356015],[-71.061981,42.355801],[-71.062044,42.355723],[-71.061828,42.355539],[-71.061746,42.355495],[-71.061465,42.35542],[-71.061618,42.355299],[-71.062144,42.355441],[-71.062316,42.355254],[-71.062273,42.355231],[-71.06278,42.355368],[-71.062906,42.355233],[-71.063242,42.355324],[-71.063265,42.3553],[-71.06347,42.355355],[-71.063499,42.355325],[-71.063841,42.355417],[-71.0639,42.35534],[-71.063617,42.355201],[-71.063631,42.355186],[-71.063555,42.355146],[-71.064379,42.355368],[-71.064423,42.355359],[-71.064541,42.355139],[-71.065523,42.355404],[-71.065554,42.355406],[-71.06559,42.355307],[-71.065873,42.355383],[-71.066162,42.354847],[-71.065891,42.354767],[-71.065923,42.354727],[-71.065898,42.354715],[-71.064917,42.354445],[-71.064933,42.354415],[-71.065281,42.354509],[-71.065321,42.354473],[-71.065355,42.354411],[-71.066339,42.354676],[-71.066825,42.354674],[-71.066864,42.354421],[-71.065554,42.354068],[-71.065558,42.354054],[-71.065376,42.353998],[-71.064724,42.353822],[-71.064766,42.353676],[-71.064718,42.35364],[-71.064542,42.353592],[-71.064556,42.353549],[-71.064335,42.353489],[-71.064849,42.353528],[-71.066627,42.354007],[-71.066832,42.354011],[-71.067288,42.354134],[-71.067342,42.354037],[-71.067256,42.353638],[-71.065646,42.3532],[-71.065773,42.353207],[-71.065808,42.353056],[-71.065546,42.352985],[-71.065573,42.352912],[-71.065537,42.352902],[-71.065551,42.352752],[-71.065466,42.352713],[-71.065494,42.35261],[-71.065605,42.35264],[-71.066337,42.352721],[-71.066346,42.352671],[-71.066715,42.352691],[-71.066722,42.352646],[-71.066863,42.352684],[-71.06706,42.352699],[-71.067107,42.352411],[-71.067009,42.352384],[-71.067021,42.352341],[-71.067203,42.352207],[-71.067212,42.352127],[-71.067198,42.352123],[-71.067195,42.35207],[-71.067972,42.352174],[-71.068155,42.352129]],[[-71.065833,42.350333],[-71.065758,42.350337],[-71.065759,42.350361],[-71.065652,42.350368],[-71.065483,42.350328],[-71.065455,42.350283],[-71.065506,42.350291],[-71.065516,42.350256],[-71.065833,42.350333]],[[-71.065513,42.349496],[-71.06547,42.349698],[-71.065126,42.34961],[-71.065161,42.349447],[-71.064874,42.34937],[-71.064882,42.349353],[-71.065479,42.349514],[-71.065513,42.349496]],[[-71.064283,42.35175],[-71.06427,42.351812],[-71.064073,42.351759],[-71.064082,42.351716],[-71.063902,42.351665],[-71.06343,42.351609],[-71.063442,42.351563],[-71.06369,42.351593],[-71.064283,42.35175]],[[-71.064075,42.351146],[-71.064054,42.351144],[-71.064057,42.351141],[-71.064075,42.351146]],[[-71.063888,42.348157],[-71.063845,42.348148],[-71.063859,42.348096],[-71.063888,42.348157]],[[-71.063578,42.351404],[-71.063487,42.351383],[-71.063488,42.351379],[-71.063578,42.351404]],[[-71.063559,42.349031],[-71.062983,42.348872],[-71.063015,42.348797],[-71.063519,42.348879],[-71.063559,42.349031]],[[-71.063378,42.348146],[-71.063367,42.348185],[-71.06323,42.348148],[-71.063196,42.348124],[-71.063361,42.348165],[-71.063378,42.348146]],[[-71.063316,42.353338],[-71.063204,42.353334],[-71.063202,42.353372],[-71.063012,42.353321],[-71.063219,42.353312],[-71.063316,42.353338]],[[-71.062885,42.351597],[-71.062867,42.351688],[-71.062869,42.351593],[-71.062885,42.351597]],[[-71.062845,42.354872],[-71.062574,42.354799],[-71.062614,42.354755],[-71.062763,42.354805],[-71.062746,42.354823],[-71.062845,42.354872]],[[-71.062825,42.349444],[-71.062233,42.349284],[-71.062162,42.349321],[-71.062134,42.349313],[-71.062144,42.349287],[-71.062166,42.349292],[-71.062183,42.34925],[-71.062163,42.349245],[-71.062192,42.349182],[-71.062565,42.349304],[-71.062552,42.34932],[-71.062825,42.349444]],[[-71.062691,42.350354],[-71.062689,42.350363],[-71.062581,42.35033],[-71.062691,42.350354]],[[-71.062677,42.352499],[-71.062675,42.352554],[-71.062506,42.352508],[-71.062619,42.352508],[-71.062615,42.352482],[-71.062677,42.352499]],[[-71.062565,42.351137],[-71.061737,42.350936],[-71.061751,42.3509],[-71.061739,42.350897],[-71.062563,42.351096],[-71.062565,42.351137]],[[-71.061925,42.355074],[-71.061757,42.355028],[-71.061786,42.355001],[-71.061925,42.355074]],[[-71.061878,42.352202],[-71.061723,42.352231],[-71.06149,42.352171],[-71.061486,42.35213],[-71.061466,42.352124],[-71.06157,42.35211],[-71.061878,42.352202]],[[-71.061839,42.35153],[-71.061813,42.35153],[-71.061816,42.351523],[-71.061839,42.35153]],[[-71.06153,42.350922],[-71.061463,42.351135],[-71.060965,42.351015],[-71.061006,42.35091],[-71.060918,42.350886],[-71.060951,42.350805],[-71.061456,42.35093],[-71.06153,42.350922]],[[-71.061483,42.351536],[-71.061289,42.351543],[-71.061303,42.351616],[-71.060768,42.351481],[-71.060379,42.351408],[-71.059758,42.351262],[-71.059709,42.351391],[-71.059776,42.351844],[-71.059626,42.351804],[-71.059386,42.351848],[-71.059418,42.352064],[-71.059226,42.352012],[-71.059007,42.352093],[-71.059042,42.351987],[-71.05903,42.35197],[-71.058179,42.351741],[-71.058868,42.351849],[-71.058876,42.351828],[-71.059086,42.351874],[-71.059274,42.351696],[-71.059388,42.351559],[-71.059518,42.351355],[-71.059566,42.351243],[-71.059038,42.351101],[-71.057617,42.350771],[-71.056932,42.35058],[-71.056985,42.350473],[-71.058455,42.350857],[-71.05878,42.35092],[-71.059781,42.351163],[-71.059836,42.351147],[-71.060019,42.350696],[-71.060161,42.350728],[-71.059972,42.351168],[-71.060435,42.351293],[-71.061483,42.351536]],[[-71.061402,42.349337],[-71.061396,42.349353],[-71.061303,42.349328],[-71.061309,42.349312],[-71.061402,42.349337]],[[-71.060604,42.352163],[-71.060587,42.352158],[-71.060582,42.352133],[-71.060604,42.352163]],[[-71.060412,42.353576],[-71.060381,42.353609],[-71.060132,42.353542],[-71.060135,42.353521],[-71.060192,42.353517],[-71.060412,42.353576]],[[-71.060298,42.352767],[-71.060278,42.352833],[-71.059318,42.352574],[-71.058902,42.352524],[-71.058163,42.352545],[-71.056522,42.352111],[-71.056618,42.35191],[-71.058608,42.352437],[-71.05861,42.352424],[-71.05887,42.352491],[-71.058911,42.352387],[-71.060298,42.352767]],[[-71.058027,42.351708],[-71.057826,42.351682],[-71.057831,42.351655],[-71.058027,42.351708]],[[-71.057705,42.354338],[-71.057687,42.354365],[-71.057649,42.354355],[-71.057643,42.354321],[-71.057705,42.354338]]],[[[-71.059517,42.349096],[-71.058071,42.348706],[-71.057613,42.348605],[-71.057529,42.348814],[-71.058975,42.349204],[-71.059434,42.349305],[-71.059517,42.349096]]]]},"properties":{"kind":"building"}},{"type":"Feature","geometry":{"type":"MultiPolygon","coordinates":[[[[-71.066609,42.353599],[-71.066597,42.353558],[-71.066518,42.3535],[-71.066058,42.353376],[-71.066293,42.3534],[-71.066344,42.353362],[-71.066344,42.353309],[-71.066323,42.353286],[-71.066253,42.353261],[-71.066283,42.353238],[-71.066414,42.353267],[-71.06646,42.353261],[-71.066525,42.353213],[-71.066535,42.353179],[-71.066503,42.35312],[-71.066571,42.353063],[-71.066583,42.353021],[-71.066571,42.35298],[-71.06654,42.352945],[-71.066072,42.352808],[-71.066087,42.352774],[-71.066061,42.352727],[-71.066344,42.352747],[-71.066384,42.352717],[-71.06639,42.352696],[-71.066368,42.352657],[-71.065947,42.352542],[-71.065901,42.352554],[-71.065688,42.352518],[-71.065635,42.352534],[-71.065613,42.352573],[-71.065361,42.35251],[-71.065288,42.352533],[-71.065261,42.352572],[-71.065049,42.352515],[-71.064975,42.352515],[-71.064922,42.352553],[-71.064915,42.352581],[-71.064943,42.352632],[-71.064975,42.352647],[-71.065418,42.352767],[-71.065493,42.352767],[-71.065545,42.352728],[-71.065631,42.352747],[-71.065612,42.352784],[-71.065525,42.352783],[-71.065472,42.352821],[-71.065168,42.352745],[-71.065105,42.352754],[-71.065088,42.352785],[-71.065105,42.352816],[-71.065081,42.352852],[-71.065094,42.352876],[-71.065047,42.352891],[-71.065027,42.352928],[-71.065071,42.352977],[-71.0652,42.353012],[-71.065177,42.353032],[-71.064791,42.352933],[-71.064699,42.352933],[-71.06466,42.352952],[-71.064625,42.353015],[-71.064656,42.353073],[-71.064658,42.353148],[-71.064758,42.353233],[-71.064923,42.353282],[-71.064659,42.353241],[-71.064617,42.353248],[-71.064557,42.353292],[-71.064557,42.353354],[-71.064617,42.353398],[-71.064877,42.353469],[-71.06488,42.353498],[-71.064919,42.353527],[-71.065277,42.353623],[-71.065343,42.353617],[-71.065436,42.353642],[-71.065426,42.353665],[-71.065444,42.353697],[-71.065528,42.353724],[-71.065509,42.353756],[-71.065522,42.353782],[-71.065348,42.353739],[-71.0653,42.353753],[-71.06528,42.353789],[-71.065285,42.353808],[-71.065322,42.353836],[-71.065387,42.353853],[-71.065387,42.353883],[-71.065225,42.353846],[-71.065181,42.35386],[-71.065168,42.353909],[-71.065257,42.353949],[-71.065253,42.353982],[-71.064749,42.353843],[-71.06478,42.353819],[-71.06478,42.353782],[-71.064814,42.353749],[-71.0648,42.353697],[-71.064443,42.353596],[-71.064393,42.353596],[-71.064358,42.353622],[-71.064358,42.353658],[-71.064324,42.353692],[-71.064332,42.353737],[-71.064284,42.353761],[-71.064284,42.353793],[-71.064331,42.353819],[-71.064258,42.353857],[-71.064258,42.353905],[-71.064238,42.353945],[-71.064262,42.353987],[-71.064288,42.354],[-71.064475,42.354051],[-71.064453,42.354062],[-71.064295,42.354023],[-71.064238,42.354041],[-71.064214,42.354083],[-71.064256,42.354134],[-71.064178,42.354117],[-71.064125,42.354133],[-71.064103,42.354172],[-71.064148,42.354222],[-71.064088,42.354236],[-71.064069,42.35427],[-71.064088,42.354304],[-71.064199,42.354379],[-71.064067,42.354344],[-71.064005,42.354344],[-71.063961,42.354376],[-71.063968,42.35443],[-71.063903,42.354482],[-71.063892,42.354523],[-71.063903,42.354564],[-71.063935,42.354599],[-71.064186,42.354678],[-71.064157,42.354713],[-71.063878,42.354645],[-71.063818,42.354663],[-71.0638,42.354683],[-71.063799,42.354727],[-71.063784,42.354733],[-71.06352,42.354664],[-71.063475,42.354686],[-71.063475,42.354714],[-71.063501,42.354733],[-71.063746,42.354799],[-71.063797,42.354833],[-71.064206,42.35494],[-71.064261,42.354923],[-71.064284,42.354882],[-71.064347,42.354849],[-71.064634,42.354926],[-71.064688,42.354926],[-71.064727,42.354898],[-71.064727,42.354857],[-71.064688,42.354829],[-71.064571,42.354797],[-71.064568,42.354784],[-71.064872,42.354848],[-71.064872,42.354823],[-71.064755,42.354792],[-71.064755,42.354761],[-71.064704,42.354734],[-71.064715,42.354722],[-71.064788,42.354739],[-71.064836,42.354715],[-71.065054,42.354773],[-71.065069,42.35479],[-71.064907,42.354757],[-71.064873,42.354795],[-71.064889,42.354824],[-71.065211,42.354915],[-71.065253,42.354915],[-71.065283,42.354893],[-71.066042,42.35507],[-71.066136,42.35507],[-71.066299,42.355112],[-71.066351,42.355112],[-71.066388,42.355085],[-71.066393,42.355066],[-71.066373,42.35503],[-71.066211,42.354981],[-71.066176,42.354921],[-71.065738,42.354791],[-71.065691,42.354747],[-71.065425,42.354667],[-71.06541,42.354648],[-71.065341,42.354624],[-71.065388,42.354563],[-71.065374,42.354514],[-71.065091,42.354433],[-71.065111,42.354397],[-71.065217,42.354409],[-71.065249,42.354373],[-71.065217,42.354338],[-71.06508,42.354301],[-71.065101,42.354277],[-71.065183,42.354272],[-71.065356,42.354307],[-71.065397,42.354294],[-71.065414,42.354264],[-71.065378,42.354224],[-71.065099,42.354149],[-71.065132,42.354136],[-71.065152,42.354104],[-71.065527,42.354189],[-71.065559,42.354165],[-71.065559,42.354132],[-71.065492,42.3541],[-71.065494,42.354069],[-71.065651,42.354109],[-71.065697,42.354095],[-71.065711,42.354042],[-71.065842,42.354076],[-71.065855,42.354106],[-71.065936,42.354132],[-71.065926,42.354152],[-71.065938,42.354162],[-71.066153,42.354215],[-71.066165,42.354193],[-71.066206,42.354183],[-71.066221,42.354157],[-71.066259,42.354149],[-71.066271,42.354129],[-71.066259,42.354108],[-71.066028,42.354043],[-71.066047,42.354015],[-71.066032,42.35399],[-71.065893,42.353949],[-71.065878,42.353918],[-71.065763,42.353883],[-71.065746,42.35385],[-71.065882,42.353884],[-71.065923,42.353871],[-71.065936,42.353824],[-71.065853,42.353787],[-71.065871,42.35377],[-71.065871,42.353737],[-71.065999,42.353764],[-71.066054,42.353756],[-71.066133,42.353698],[-71.066136,42.353626],[-71.066463,42.353707],[-71.066566,42.353676],[-71.066597,42.353641],[-71.066609,42.353599]],[[-71.065633,42.353963],[-71.065618,42.354001],[-71.065607,42.353998],[-71.0656,42.353954],[-71.065633,42.353963]],[[-71.065524,42.352915],[-71.065481,42.352931],[-71.065458,42.352969],[-71.065431,42.352962],[-71.065458,42.352942],[-71.065458,42.352914],[-71.065498,42.352902],[-71.065524,42.352915]],[[-71.065399,42.353147],[-71.065383,42.353151],[-71.06538,42.353142],[-71.065399,42.353147]],[[-71.065016,42.35414],[-71.064989,42.35416],[-71.064757,42.354097],[-71.064778,42.354079],[-71.065016,42.35414]],[[-71.064986,42.354611],[-71.064964,42.354605],[-71.064963,42.354604],[-71.064985,42.35461],[-71.064986,42.354611]],[[-71.064852,42.354291],[-71.064696,42.354253],[-71.064619,42.354265],[-71.064584,42.354225],[-71.064852,42.354291]],[[-71.064819,42.354643],[-71.064814,42.354661],[-71.064775,42.354656],[-71.064773,42.354631],[-71.064819,42.354643]],[[-71.064539,42.354529],[-71.064538,42.354543],[-71.064497,42.354532],[-71.064503,42.35452],[-71.064539,42.354529]]],[[[-71.066415,42.354616],[-71.066406,42.35458],[-71.066335,42.354528],[-71.065785,42.354379],[-71.065685,42.354379],[-71.065643,42.3544],[-71.065605,42.354468],[-71.065643,42.354536],[-71.065685,42.354557],[-71.066236,42.354705],[-71.066335,42.354705],[-71.066377,42.354684],[-71.066415,42.354616]]],[[[-71.066166,42.348129],[-71.066126,42.348084],[-71.06579,42.347994],[-71.065719,42.348004],[-71.0657,42.348038],[-71.06574,42.348082],[-71.066077,42.348173],[-71.066126,42.348173],[-71.066166,42.348129]]],[[[-71.066094,42.348262],[-71.06606,42.348224],[-71.065756,42.348142],[-71.065696,42.348151],[-71.06568,42.34818],[-71.065714,42.348218],[-71.066018,42.3483],[-71.06606,42.3483],[-71.066094,42.348262]]],[[[-71.066053,42.348531],[-71.066017,42.348491],[-71.065843,42.348444],[-71.065877,42.348404],[-71.065839,42.348362],[-71.065514,42.348274],[-71.065466,42.348274],[-71.065433,42.348299],[-71.065446,42.348348],[-71.065653,42.348408],[-71.065622,42.348446],[-71.065638,42.348476],[-71.065469,42.34843],[-71.065439,42.34844],[-71.065451,42.348462],[-71.065649,42.348515],[-71.065666,42.348515],[-71.065678,42.348493],[-71.065995,42.348574],[-71.066036,42.348561],[-71.066053,42.348531]]],[[[-71.065872,42.348332],[-71.065717,42.348281],[-71.065693,42.348288],[-71.065703,42.348305],[-71.065847,42.348344],[-71.065872,42.348332]]],[[[-71.065803,42.349302],[-71.065773,42.349269],[-71.065529,42.349203],[-71.065476,42.349211],[-71.065461,42.349236],[-71.065491,42.349269],[-71.065736,42.349335],[-71.065773,42.349335],[-71.065803,42.349302]]],[[[-71.065753,42.351268],[-71.065577,42.351211],[-71.065553,42.351218],[-71.065563,42.351235],[-71.065728,42.35128],[-71.065753,42.351268]]],[[[-71.065731,42.348993],[-71.065587,42.348945],[-71.065563,42.348952],[-71.065573,42.348969],[-71.06536,42.348914],[-71.065324,42.34894],[-71.065346,42.348964],[-71.0656,42.349031],[-71.065633,42.349015],[-71.065614,42.348981],[-71.065706,42.349005],[-71.065731,42.348993]]],[[[-71.065695,42.34913],[-71.065551,42.349082],[-71.06533,42.349034],[-71.065296,42.349045],[-71.065281,42.34907],[-71.065311,42.349103],[-71.065613,42.349182],[-71.065695,42.34913]]],[[[-71.065692,42.348149],[-71.065537,42.348098],[-71.065513,42.348105],[-71.065523,42.348122],[-71.065667,42.348161],[-71.065692,42.348149]]],[[[-71.065677,42.348856],[-71.065647,42.348823],[-71.065403,42.348757],[-71.06535,42.348765],[-71.065335,42.34879],[-71.065365,42.348823],[-71.06561,42.348889],[-71.065647,42.348889],[-71.065677,42.348856]]],[[[-71.065523,42.351252],[-71.065357,42.351198],[-71.065333,42.351215],[-71.065233,42.351205],[-71.065243,42.351222],[-71.065387,42.351261],[-71.065411,42.351244],[-71.065497,42.351264],[-71.065523,42.351252]]],[[[-71.065384,42.350776],[-71.065376,42.350763],[-71.06516,42.350702],[-71.065126,42.350713],[-71.06514,42.350738],[-71.065348,42.350794],[-71.065384,42.350776]]],[[[-71.065376,42.355111],[-71.065368,42.355082],[-71.065312,42.35504],[-71.064847,42.354915],[-71.064767,42.354915],[-71.064734,42.354932],[-71.064703,42.354986],[-71.064734,42.35504],[-71.064767,42.355057],[-71.065232,42.355182],[-71.065312,42.355182],[-71.065345,42.355166],[-71.065376,42.355111]]],[[[-71.065359,42.35084],[-71.065351,42.350827],[-71.065135,42.350766],[-71.065101,42.350777],[-71.065115,42.350802],[-71.065323,42.350858],[-71.065359,42.35084]]],[[[-71.065316,42.350903],[-71.065117,42.35084],[-71.065092,42.350847],[-71.065103,42.350866],[-71.065289,42.350917],[-71.065316,42.350903]]],[[[-71.065186,42.353658],[-71.065178,42.35363],[-71.065124,42.35359],[-71.06467,42.353467],[-71.064592,42.353467],[-71.06456,42.353483],[-71.06453,42.353536],[-71.06456,42.353589],[-71.064592,42.353605],[-71.065047,42.353727],[-71.065124,42.353727],[-71.065156,42.353711],[-71.065186,42.353658]]],[[[-71.065099,42.351352],[-71.064933,42.351298],[-71.064909,42.351305],[-71.064919,42.351322],[-71.065073,42.351364],[-71.065099,42.351352]]],[[[-71.065001,42.348495],[-71.064846,42.348444],[-71.064822,42.348451],[-71.064832,42.348468],[-71.064976,42.348507],[-71.065001,42.348495]]],[[[-71.064768,42.351865],[-71.064613,42.351814],[-71.064589,42.351821],[-71.064599,42.351838],[-71.064743,42.351877],[-71.064768,42.351865]]],[[[-71.064765,42.348464],[-71.06461,42.348413],[-71.064586,42.34842],[-71.064596,42.348437],[-71.06474,42.348476],[-71.064765,42.348464]]],[[[-71.064751,42.352154],[-71.064552,42.352091],[-71.064527,42.352098],[-71.064538,42.352117],[-71.064724,42.352168],[-71.064751,42.352154]]],[[[-71.064723,42.352097],[-71.064557,42.352043],[-71.064533,42.35205],[-71.064543,42.352067],[-71.064697,42.352109],[-71.064723,42.352097]]],[[[-71.064692,42.352199],[-71.064537,42.352148],[-71.064513,42.352155],[-71.064523,42.352172],[-71.064667,42.352211],[-71.064692,42.352199]]],[[[-71.06458,42.348438],[-71.064425,42.348387],[-71.064401,42.348394],[-71.064411,42.348411],[-71.064555,42.34845],[-71.06458,42.348438]]],[[[-71.064406,42.348773],[-71.064195,42.348704],[-71.064165,42.348714],[-71.064177,42.348736],[-71.064375,42.348789],[-71.064406,42.348773]]],[[[-71.064382,42.350964],[-71.064227,42.350913],[-71.064027,42.350897],[-71.063934,42.350874],[-71.063898,42.350892],[-71.063898,42.350914],[-71.063687,42.350861],[-71.063582,42.35086],[-71.06336,42.350807],[-71.063336,42.350819],[-71.06335,42.350844],[-71.063558,42.3509],[-71.063904,42.350969],[-71.063927,42.350962],[-71.063934,42.350936],[-71.06417,42.350997],[-71.064279,42.351],[-71.064302,42.350993],[-71.064309,42.350967],[-71.064371,42.350976],[-71.064382,42.350964]]],[[[-71.064344,42.348887],[-71.064157,42.348828],[-71.064133,42.348835],[-71.064143,42.348852],[-71.064319,42.3489],[-71.064344,42.348887]]],[[[-71.064264,42.353347],[-71.063929,42.353252],[-71.063899,42.353262],[-71.063911,42.353284],[-71.064109,42.353337],[-71.064239,42.35336],[-71.064264,42.353347]]],[[[-71.064236,42.35344],[-71.064037,42.353377],[-71.063893,42.353369],[-71.063903,42.353386],[-71.064144,42.35345],[-71.064224,42.353454],[-71.064236,42.35344]]],[[[-71.064174,42.353807],[-71.063987,42.353748],[-71.063963,42.353755],[-71.063973,42.353772],[-71.064149,42.35382],[-71.064174,42.353807]]],[[[-71.064152,42.354029],[-71.064132,42.354007],[-71.063902,42.353945],[-71.06386,42.353958],[-71.063878,42.353989],[-71.064107,42.354051],[-71.064132,42.354051],[-71.064152,42.354029]]],[[[-71.064102,42.348725],[-71.063903,42.348662],[-71.063878,42.348669],[-71.063889,42.348688],[-71.064075,42.348739],[-71.064102,42.348725]]],[[[-71.06409,42.348796],[-71.063879,42.348727],[-71.063849,42.348737],[-71.063861,42.348759],[-71.064059,42.348812],[-71.06409,42.348796]]],[[[-71.064066,42.34892],[-71.063867,42.348857],[-71.063842,42.348864],[-71.063853,42.348883],[-71.064039,42.348934],[-71.064066,42.34892]]],[[[-71.064024,42.354176],[-71.064016,42.354163],[-71.0638,42.354102],[-71.063766,42.354113],[-71.06378,42.354138],[-71.063988,42.354194],[-71.064024,42.354176]]],[[[-71.064017,42.348832],[-71.063862,42.348781],[-71.063838,42.348788],[-71.063848,42.348805],[-71.063992,42.348844],[-71.064017,42.348832]]],[[[-71.063965,42.349187],[-71.06381,42.349136],[-71.063786,42.349143],[-71.063796,42.34916],[-71.06394,42.349199],[-71.063965,42.349187]]],[[[-71.063952,42.348466],[-71.063797,42.348415],[-71.063683,42.348405],[-71.063693,42.348422],[-71.063837,42.348461],[-71.063927,42.348478],[-71.063952,42.348466]]],[[[-71.063912,42.349332],[-71.063757,42.349281],[-71.063733,42.349288],[-71.063743,42.349305],[-71.063887,42.349344],[-71.063912,42.349332]]],[[[-71.063899,42.349374],[-71.063744,42.349323],[-71.06372,42.34933],[-71.06373,42.349347],[-71.063874,42.349386],[-71.063899,42.349374]]],[[[-71.063876,42.34981],[-71.063677,42.349747],[-71.063652,42.349754],[-71.063663,42.349773],[-71.063849,42.349824],[-71.063876,42.34981]]],[[[-71.063808,42.349901],[-71.063621,42.349842],[-71.063597,42.349849],[-71.063607,42.349866],[-71.063783,42.349914],[-71.063808,42.349901]]],[[[-71.063766,42.35],[-71.063567,42.349937],[-71.063542,42.349944],[-71.063553,42.349963],[-71.063739,42.350014],[-71.063766,42.35]]],[[[-71.063753,42.354866],[-71.063723,42.354833],[-71.063479,42.354767],[-71.063426,42.354775],[-71.063411,42.3548],[-71.063441,42.354833],[-71.063686,42.354899],[-71.063723,42.354899],[-71.063753,42.354866]]],[[[-71.063724,42.350047],[-71.063537,42.349988],[-71.063513,42.349995],[-71.063523,42.350012],[-71.063699,42.35006],[-71.063724,42.350047]]],[[[-71.063634,42.350465],[-71.063447,42.350406],[-71.063423,42.350413],[-71.063433,42.35043],[-71.063609,42.350478],[-71.063634,42.350465]]],[[[-71.063623,42.350225],[-71.063447,42.350168],[-71.063423,42.350175],[-71.063433,42.350192],[-71.063598,42.350237],[-71.063623,42.350225]]],[[[-71.063602,42.350824],[-71.063584,42.350804],[-71.063365,42.350745],[-71.063327,42.350758],[-71.063167,42.350715],[-71.063143,42.350722],[-71.063153,42.350739],[-71.063562,42.350844],[-71.063602,42.350824]]],[[[-71.063599,42.350532],[-71.063479,42.35049],[-71.063471,42.350469],[-71.063317,42.350428],[-71.063293,42.350435],[-71.063303,42.350452],[-71.063402,42.350479],[-71.063409,42.350499],[-71.063574,42.350544],[-71.063599,42.350532]]],[[[-71.063593,42.350291],[-71.063417,42.350234],[-71.063393,42.350241],[-71.063403,42.350258],[-71.063568,42.350303],[-71.063593,42.350291]]],[[[-71.063568,42.350325],[-71.063392,42.350268],[-71.063368,42.350275],[-71.063378,42.350292],[-71.063543,42.350337],[-71.063568,42.350325]]],[[[-71.063558,42.350592],[-71.063392,42.350538],[-71.063238,42.350531],[-71.063248,42.350548],[-71.063413,42.350593],[-71.063546,42.350604],[-71.063558,42.350592]]],[[[-71.063556,42.350754],[-71.063357,42.350691],[-71.063332,42.350698],[-71.063343,42.350717],[-71.063529,42.350768],[-71.063556,42.350754]]],[[[-71.063523,42.350652],[-71.063357,42.350598],[-71.063237,42.35057],[-71.063213,42.350577],[-71.063223,42.350594],[-71.063399,42.350642],[-71.063497,42.350664],[-71.063523,42.350652]]],[[[-71.063463,42.350528],[-71.063287,42.350471],[-71.063263,42.350478],[-71.063273,42.350495],[-71.063438,42.35054],[-71.063463,42.350528]]],[[[-71.063404,42.350677],[-71.063217,42.350618],[-71.063193,42.350625],[-71.063203,42.350642],[-71.063379,42.35069],[-71.063404,42.350677]]],[[[-71.063336,42.350815],[-71.063137,42.350752],[-71.063112,42.350759],[-71.063123,42.350778],[-71.063309,42.350829],[-71.063336,42.350815]]],[[[-71.063331,42.350713],[-71.063187,42.350665],[-71.063163,42.350672],[-71.063173,42.350689],[-71.063306,42.350725],[-71.063331,42.350713]]],[[[-71.063299,42.35228],[-71.063133,42.352226],[-71.063109,42.352233],[-71.063118,42.35225],[-71.062911,42.352208],[-71.062813,42.35221],[-71.062823,42.352227],[-71.063112,42.352307],[-71.063136,42.352289],[-71.063085,42.352271],[-71.063212,42.352304],[-71.063236,42.352297],[-71.063228,42.35228],[-71.063287,42.352292],[-71.063299,42.35228]]],[[[-71.063016,42.353352],[-71.062817,42.353289],[-71.062719,42.3533],[-71.062731,42.353322],[-71.062929,42.353375],[-71.063016,42.353352]]],[[[-71.063016,42.353264],[-71.062817,42.353201],[-71.062726,42.353201],[-71.062737,42.35322],[-71.062923,42.353271],[-71.063004,42.353278],[-71.063016,42.353264]]],[[[-71.062778,42.348413],[-71.06276,42.348393],[-71.062541,42.348334],[-71.062501,42.348354],[-71.062519,42.348374],[-71.062738,42.348433],[-71.062778,42.348413]]],[[[-71.062758,42.349443],[-71.062745,42.349421],[-71.062654,42.349394],[-71.062628,42.349365],[-71.062366,42.349294],[-71.062311,42.349311],[-71.06232,42.349345],[-71.062412,42.349373],[-71.062438,42.349402],[-71.062715,42.349475],[-71.062745,42.349466],[-71.062758,42.349443]]],[[[-71.06266,42.34861],[-71.062449,42.348541],[-71.062419,42.348551],[-71.062431,42.348573],[-71.062629,42.348626],[-71.06266,42.34861]]],[[[-71.06266,42.348441],[-71.062636,42.348414],[-71.062385,42.348346],[-71.062342,42.348353],[-71.062331,42.348373],[-71.062355,42.3484],[-71.062606,42.348467],[-71.062636,42.348467],[-71.06266,42.348441]]],[[[-71.062226,42.353802],[-71.062106,42.35376],[-71.062105,42.35374],[-71.062007,42.353712],[-71.062,42.353659],[-71.061973,42.35364],[-71.061617,42.353538],[-71.061593,42.353545],[-71.061603,42.353562],[-71.061675,42.353582],[-71.061665,42.353621],[-71.061691,42.35364],[-71.061888,42.353693],[-71.061898,42.353713],[-71.062006,42.353742],[-71.062006,42.353762],[-71.062199,42.353816],[-71.062226,42.353802]]],[[[-71.062185,42.349614],[-71.062155,42.349581],[-71.061911,42.349515],[-71.061858,42.349523],[-71.061843,42.349548],[-71.061873,42.349581],[-71.062118,42.349647],[-71.062155,42.349647],[-71.062185,42.349614]]],[[[-71.06215,42.349345],[-71.061995,42.349294],[-71.061971,42.349301],[-71.061981,42.349318],[-71.062125,42.349357],[-71.06215,42.349345]]],[[[-71.062132,42.353899],[-71.06209,42.353865],[-71.061967,42.353831],[-71.061961,42.353809],[-71.061882,42.353788],[-71.061886,42.353767],[-71.061736,42.353726],[-71.061712,42.353733],[-71.061722,42.35375],[-71.061801,42.353772],[-71.061797,42.353793],[-71.061876,42.353815],[-71.061876,42.353835],[-71.061957,42.35387],[-71.062107,42.353911],[-71.062132,42.353899]]],[[[-71.062124,42.348385],[-71.062096,42.348354],[-71.061823,42.348281],[-71.061789,42.348281],[-71.061764,42.348299],[-71.061432,42.348226],[-71.06139,42.348239],[-71.061397,42.348265],[-71.061537,42.348305],[-71.061569,42.348335],[-71.061873,42.348417],[-71.061915,42.348417],[-71.061945,42.348395],[-71.062078,42.348419],[-71.06211,42.348409],[-71.062124,42.348385]]],[[[-71.062095,42.349477],[-71.06194,42.349426],[-71.061916,42.349433],[-71.061926,42.34945],[-71.06207,42.349489],[-71.062095,42.349477]]],[[[-71.062072,42.349919],[-71.061917,42.349868],[-71.061893,42.349875],[-71.061903,42.349892],[-71.062047,42.349931],[-71.062072,42.349919]]],[[[-71.062042,42.349965],[-71.061887,42.349914],[-71.061863,42.349921],[-71.061873,42.349938],[-71.062017,42.349977],[-71.062042,42.349965]]],[[[-71.06204,42.35036],[-71.062016,42.350333],[-71.06175,42.350263],[-71.061722,42.350272],[-71.061711,42.350292],[-71.061722,42.350312],[-71.061688,42.350322],[-71.061675,42.350346],[-71.061703,42.350377],[-71.061992,42.350453],[-71.062034,42.350432],[-71.062034,42.350407],[-71.06201,42.350388],[-71.06204,42.35036]]],[[[-71.062036,42.350039],[-71.061881,42.349988],[-71.061857,42.349995],[-71.061867,42.350012],[-71.062011,42.350051],[-71.062036,42.350039]]],[[[-71.062012,42.350083],[-71.061857,42.350032],[-71.061833,42.350039],[-71.061843,42.350056],[-71.061987,42.350095],[-71.062012,42.350083]]],[[[-71.06201,42.349732],[-71.06198,42.349699],[-71.061789,42.349647],[-71.061778,42.349609],[-71.061664,42.349567],[-71.06142,42.349501],[-71.061382,42.349501],[-71.061356,42.34952],[-71.061367,42.349559],[-71.061672,42.349653],[-71.061672,42.34968],[-71.061698,42.349699],[-71.061962,42.349768],[-71.061996,42.349757],[-71.06201,42.349732]]],[[[-71.061982,42.350119],[-71.061827,42.350068],[-71.061803,42.350075],[-71.061813,42.350092],[-71.061957,42.350131],[-71.061982,42.350119]]],[[[-71.061957,42.350191],[-71.061813,42.350143],[-71.061789,42.35015],[-71.061799,42.350167],[-71.061932,42.350203],[-71.061957,42.350191]]],[[[-71.061954,42.348718],[-71.061928,42.34869],[-71.06165,42.348617],[-71.06162,42.348626],[-71.061611,42.348659],[-71.06152,42.348636],[-71.061488,42.348646],[-71.061475,42.34867],[-71.061503,42.348701],[-71.061792,42.348777],[-71.061824,42.348767],[-71.061834,42.348731],[-71.061911,42.34875],[-71.061941,42.348741],[-71.061954,42.348718]]],[[[-71.061942,42.350239],[-71.061787,42.350188],[-71.061763,42.350195],[-71.061773,42.350212],[-71.061917,42.350251],[-71.061942,42.350239]]],[[[-71.061914,42.34846],[-71.061759,42.348409],[-71.061735,42.348416],[-71.061745,42.348433],[-71.061889,42.348472],[-71.061914,42.34846]]],[[[-71.061797,42.348238],[-71.061759,42.348196],[-71.061434,42.348108],[-71.061366,42.348118],[-71.061348,42.34815],[-71.061386,42.348192],[-71.061712,42.34828],[-71.061759,42.34828],[-71.061797,42.348238]]],[[[-71.061764,42.348924],[-71.061738,42.348896],[-71.061476,42.348825],[-71.06143,42.348832],[-71.061418,42.348854],[-71.061444,42.348883],[-71.061705,42.348953],[-71.061738,42.348953],[-71.061764,42.348924]]],[[[-71.061754,42.348876],[-71.061599,42.348825],[-71.061575,42.348832],[-71.061585,42.348849],[-71.061729,42.348888],[-71.061754,42.348876]]],[[[-71.061752,42.348539],[-71.061597,42.348488],[-71.061573,42.348495],[-71.061583,42.348512],[-71.061727,42.348551],[-71.061752,42.348539]]],[[[-71.06169,42.351003],[-71.061479,42.350934],[-71.061449,42.350944],[-71.061461,42.350966],[-71.061659,42.351019],[-71.06169,42.351003]]],[[[-71.061603,42.3493],[-71.06155,42.349267],[-71.061331,42.349208],[-71.061291,42.349228],[-71.061309,42.349248],[-71.061528,42.349307],[-71.061592,42.349312],[-71.061603,42.3493]]],[[[-71.061586,42.349102],[-71.061387,42.349039],[-71.061362,42.349046],[-71.061373,42.349065],[-71.061559,42.349116],[-71.061586,42.349102]]],[[[-71.061562,42.351161],[-71.061407,42.35111],[-71.061383,42.351117],[-71.061393,42.351134],[-71.061537,42.351173],[-71.061562,42.351161]]],[[[-71.061541,42.351219],[-71.061386,42.351168],[-71.061362,42.351175],[-71.061372,42.351192],[-71.061516,42.351231],[-71.061541,42.351219]]],[[[-71.061515,42.351279],[-71.06136,42.351228],[-71.061336,42.351235],[-71.061346,42.351252],[-71.06149,42.351291],[-71.061515,42.351279]]],[[[-71.061512,42.349469],[-71.061357,42.349418],[-71.061333,42.349425],[-71.061343,42.349442],[-71.061487,42.349481],[-71.061512,42.349469]]],[[[-71.061496,42.351328],[-71.061341,42.351277],[-71.061317,42.351284],[-71.061327,42.351301],[-71.061471,42.35134],[-71.061496,42.351328]]],[[[-71.061484,42.3499],[-71.061458,42.349872],[-71.061196,42.349801],[-71.06115,42.349808],[-71.061138,42.34983],[-71.061164,42.349859],[-71.061425,42.349929],[-71.061458,42.349929],[-71.061484,42.3499]]],[[[-71.06145,42.350109],[-71.061418,42.350074],[-71.061124,42.349995],[-71.061067,42.350003],[-71.061052,42.35003],[-71.061084,42.350065],[-71.061378,42.350145],[-71.061418,42.350145],[-71.06145,42.350109]]],[[[-71.061437,42.349672],[-71.061271,42.349618],[-71.061247,42.349625],[-71.061257,42.349642],[-71.061411,42.349684],[-71.061437,42.349672]]],[[[-71.061416,42.34972],[-71.06125,42.349666],[-71.061226,42.349673],[-71.061236,42.34969],[-71.06139,42.349732],[-71.061416,42.34972]]],[[[-71.061388,42.353409],[-71.061208,42.353329],[-71.061208,42.35331],[-71.06107,42.353271],[-71.061081,42.353264],[-71.061071,42.353246],[-71.060927,42.353208],[-71.060903,42.353215],[-71.060913,42.353232],[-71.061024,42.353262],[-71.061013,42.35327],[-71.061023,42.353287],[-71.061108,42.35331],[-71.061107,42.35333],[-71.061213,42.35338],[-71.061363,42.353421],[-71.061388,42.353409]]],[[[-71.061382,42.354813],[-71.061227,42.354762],[-71.061203,42.354769],[-71.061213,42.354786],[-71.061357,42.354825],[-71.061382,42.354813]]],[[[-71.061332,42.354955],[-71.061177,42.354904],[-71.061153,42.354911],[-71.061163,42.354928],[-71.061307,42.354967],[-71.061332,42.354955]]],[[[-71.061326,42.348681],[-71.061293,42.348646],[-71.061,42.348567],[-71.060943,42.348575],[-71.060928,42.348602],[-71.06096,42.348637],[-71.061254,42.348717],[-71.061293,42.348717],[-71.061326,42.348681]]],[[[-71.061309,42.348799],[-71.061275,42.348761],[-71.060971,42.348679],[-71.060911,42.348688],[-71.060895,42.348717],[-71.060929,42.348755],[-71.061233,42.348837],[-71.061275,42.348837],[-71.061309,42.348799]]],[[[-71.061205,42.34927],[-71.061161,42.349222],[-71.060803,42.349125],[-71.060725,42.349137],[-71.060705,42.349174],[-71.060749,42.349223],[-71.061107,42.349319],[-71.061161,42.349319],[-71.061205,42.34927]]],[[[-71.061204,42.348897],[-71.061178,42.348869],[-71.060916,42.348798],[-71.06087,42.348805],[-71.060858,42.348827],[-71.060884,42.348856],[-71.061145,42.348926],[-71.061178,42.348926],[-71.061204,42.348897]]],[[[-71.061182,42.348529],[-71.061027,42.348478],[-71.061003,42.348485],[-71.061013,42.348502],[-71.061157,42.348541],[-71.061182,42.348529]]],[[[-71.061132,42.353402],[-71.061001,42.353331],[-71.060851,42.35329],[-71.060827,42.353297],[-71.060837,42.353314],[-71.060954,42.353357],[-71.060963,42.353375],[-71.061107,42.353414],[-71.061132,42.353402]]],[[[-71.060978,42.349582],[-71.060948,42.349549],[-71.060537,42.349441],[-71.060513,42.349448],[-71.060523,42.349465],[-71.060605,42.349488],[-71.060597,42.349506],[-71.060513,42.349491],[-71.060513,42.349515],[-71.060929,42.349618],[-71.060963,42.349608],[-71.060978,42.349582]]],[[[-71.060977,42.349456],[-71.060947,42.349423],[-71.060703,42.349357],[-71.060577,42.34933],[-71.060553,42.349337],[-71.060563,42.349354],[-71.06064,42.349375],[-71.060639,42.349404],[-71.060665,42.349423],[-71.060929,42.349492],[-71.060963,42.349481],[-71.060977,42.349456]]],[[[-71.060892,42.349746],[-71.060862,42.349713],[-71.060634,42.349652],[-71.060647,42.349644],[-71.060637,42.349626],[-71.060493,42.349588],[-71.060469,42.349605],[-71.060559,42.349634],[-71.060453,42.349635],[-71.060463,42.349652],[-71.060512,42.349666],[-71.060541,42.349703],[-71.060824,42.349779],[-71.060862,42.349779],[-71.060892,42.349746]]],[[[-71.060876,42.349871],[-71.060843,42.349836],[-71.06055,42.349757],[-71.060493,42.349765],[-71.060478,42.349792],[-71.06051,42.349827],[-71.060804,42.349907],[-71.060843,42.349907],[-71.060876,42.349871]]],[[[-71.060772,42.349299],[-71.060617,42.349248],[-71.060593,42.349255],[-71.060603,42.349272],[-71.060747,42.349311],[-71.060772,42.349299]]],[[[-71.060752,42.349339],[-71.060597,42.349288],[-71.060573,42.349295],[-71.060583,42.349312],[-71.060727,42.349351],[-71.060752,42.349339]]],[[[-71.060742,42.353079],[-71.060655,42.353046],[-71.060657,42.353026],[-71.060617,42.353006],[-71.060457,42.352962],[-71.060433,42.352969],[-71.060487,42.353007],[-71.060568,42.35303],[-71.060567,42.35305],[-71.060717,42.353091],[-71.060742,42.353079]]],[[[-71.060702,42.349446],[-71.060547,42.349395],[-71.060523,42.349402],[-71.060533,42.349419],[-71.060677,42.349458],[-71.060702,42.349446]]],[[[-71.06067,42.353473],[-71.060658,42.353452],[-71.060561,42.353423],[-71.060557,42.353409],[-71.060407,42.353368],[-71.060352,42.353385],[-71.060341,42.353405],[-71.060365,42.353432],[-71.060616,42.353499],[-71.060646,42.353499],[-71.06067,42.353473]]],[[[-71.060663,42.353325],[-71.060497,42.353271],[-71.060473,42.353278],[-71.060483,42.353295],[-71.060637,42.353337],[-71.060663,42.353325]]],[[[-71.060648,42.353189],[-71.060493,42.353138],[-71.060469,42.353145],[-71.060479,42.353162],[-71.060623,42.353201],[-71.060648,42.353189]]],[[[-71.060648,42.349595],[-71.060493,42.349544],[-71.060469,42.349551],[-71.060479,42.349568],[-71.060623,42.349607],[-71.060648,42.349595]]],[[[-71.060572,42.353139],[-71.060507,42.353096],[-71.060363,42.353058],[-71.060339,42.353065],[-71.060403,42.353112],[-71.060547,42.353151],[-71.060572,42.353139]]],[[[-71.060558,42.350216],[-71.060528,42.350183],[-71.06043,42.350156],[-71.060441,42.350149],[-71.060431,42.350131],[-71.060287,42.350093],[-71.060231,42.350125],[-71.060216,42.35015],[-71.060246,42.350183],[-71.060491,42.350249],[-71.060528,42.350249],[-71.060558,42.350216]]],[[[-71.060543,42.349926],[-71.060377,42.349872],[-71.060353,42.349879],[-71.060363,42.349896],[-71.060517,42.349938],[-71.060543,42.349926]]],[[[-71.060502,42.353486],[-71.060347,42.353435],[-71.060323,42.353442],[-71.060077,42.353379],[-71.060028,42.353386],[-71.060015,42.35341],[-71.060043,42.353441],[-71.060315,42.353514],[-71.060364,42.353507],[-71.060374,42.353471],[-71.060477,42.353498],[-71.060502,42.353486]]],[[[-71.060462,42.350076],[-71.060307,42.350025],[-71.060283,42.350032],[-71.060293,42.350049],[-71.060437,42.350088],[-71.060462,42.350076]]],[[[-71.060425,42.349538],[-71.060401,42.349511],[-71.06015,42.349443],[-71.060107,42.34945],[-71.060096,42.34947],[-71.06012,42.349497],[-71.060371,42.349564],[-71.060401,42.349564],[-71.060425,42.349538]]],[[[-71.060338,42.349615],[-71.06032,42.349595],[-71.060101,42.349536],[-71.060061,42.349556],[-71.060079,42.349576],[-71.060298,42.349635],[-71.060338,42.349615]]],[[[-71.060326,42.349709],[-71.060304,42.349684],[-71.060064,42.34962],[-71.060025,42.349625],[-71.060014,42.349644],[-71.060036,42.349668],[-71.060276,42.349733],[-71.060304,42.349733],[-71.060326,42.349709]]],[[[-71.060302,42.353001],[-71.060147,42.35295],[-71.060123,42.352957],[-71.060133,42.352974],[-71.060277,42.353013],[-71.060302,42.353001]]],[[[-71.060234,42.351114],[-71.060208,42.351086],[-71.059946,42.351015],[-71.0599,42.351022],[-71.059888,42.351044],[-71.059914,42.351073],[-71.060175,42.351143],[-71.060208,42.351143],[-71.060234,42.351114]]],[[[-71.060109,42.351191],[-71.060101,42.351178],[-71.059885,42.351117],[-71.059851,42.351128],[-71.059865,42.351153],[-71.060073,42.351209],[-71.060109,42.351191]]],[[[-71.060084,42.35333],[-71.060058,42.353302],[-71.059796,42.353231],[-71.05975,42.353238],[-71.059738,42.35326],[-71.059764,42.353289],[-71.059977,42.353351],[-71.060058,42.353359],[-71.060084,42.35333]]],[[[-71.059913,42.352795],[-71.059677,42.352725],[-71.059599,42.352725],[-71.059609,42.352742],[-71.059763,42.352784],[-71.059887,42.352807],[-71.059913,42.352795]]],[[[-71.059893,42.351776],[-71.059863,42.351743],[-71.059662,42.351689],[-71.059648,42.351665],[-71.05944,42.351609],[-71.059406,42.35162],[-71.05942,42.351645],[-71.059566,42.351684],[-71.059507,42.351704],[-71.059518,42.351723],[-71.059845,42.351812],[-71.059879,42.351801],[-71.059893,42.351776]]],[[[-71.059888,42.355013],[-71.059802,42.354935],[-71.059675,42.354898],[-71.059702,42.354892],[-71.059709,42.354866],[-71.05966,42.354844],[-71.059629,42.354779],[-71.059378,42.354709],[-71.059331,42.354723],[-71.059331,42.354743],[-71.059372,42.354763],[-71.059377,42.354791],[-71.05942,42.354805],[-71.059427,42.35483],[-71.059554,42.354867],[-71.059527,42.354873],[-71.05952,42.354899],[-71.059629,42.354974],[-71.059848,42.355033],[-71.059888,42.355013]]],[[[-71.059833,42.352849],[-71.059803,42.352816],[-71.059559,42.35275],[-71.059506,42.352758],[-71.059491,42.352783],[-71.059521,42.352816],[-71.059766,42.352882],[-71.059803,42.352882],[-71.059833,42.352849]]],[[[-71.059792,42.351662],[-71.059772,42.35164],[-71.059542,42.351578],[-71.0595,42.351591],[-71.059518,42.351622],[-71.059747,42.351684],[-71.059772,42.351684],[-71.059792,42.351662]]],[[[-71.059662,42.351136],[-71.059507,42.351085],[-71.059483,42.351092],[-71.059493,42.351109],[-71.059637,42.351148],[-71.059662,42.351136]]],[[[-71.059622,42.351209],[-71.059467,42.351158],[-71.059443,42.351165],[-71.059453,42.351182],[-71.059597,42.351221],[-71.059622,42.351209]]],[[[-71.059584,42.351757],[-71.059373,42.351688],[-71.059343,42.351698],[-71.059355,42.35172],[-71.059553,42.351773],[-71.059584,42.351757]]],[[[-71.059572,42.353139],[-71.059417,42.353088],[-71.059393,42.353095],[-71.059403,42.353112],[-71.059547,42.353151],[-71.059572,42.353139]]],[[[-71.059562,42.353049],[-71.059407,42.352998],[-71.059383,42.353005],[-71.059393,42.353022],[-71.059537,42.353061],[-71.059562,42.353049]]],[[[-71.05952,42.351833],[-71.059309,42.351764],[-71.059279,42.351774],[-71.059291,42.351796],[-71.059489,42.351849],[-71.05952,42.351833]]],[[[-71.059502,42.351366],[-71.059487,42.351341],[-71.059435,42.351323],[-71.059438,42.351292],[-71.059412,42.351273],[-71.059129,42.351197],[-71.059091,42.351197],[-71.059065,42.351216],[-71.059065,42.351244],[-71.059128,42.351273],[-71.059125,42.351304],[-71.05915,42.351322],[-71.059095,42.351343],[-71.059095,42.351371],[-71.059121,42.35139],[-71.059423,42.351469],[-71.059468,42.351447],[-71.059468,42.351419],[-71.059443,42.351401],[-71.059487,42.351392],[-71.059502,42.351366]]],[[[-71.059328,42.353333],[-71.059173,42.353282],[-71.058963,42.353278],[-71.058853,42.353256],[-71.058829,42.353263],[-71.058838,42.35328],[-71.058747,42.353256],[-71.058723,42.353263],[-71.058733,42.35328],[-71.058877,42.353319],[-71.058901,42.353312],[-71.058891,42.353295],[-71.059117,42.353334],[-71.059317,42.353345],[-71.059328,42.353333]]],[[[-71.059322,42.354447],[-71.059302,42.354425],[-71.059149,42.354383],[-71.059161,42.354366],[-71.059134,42.354354],[-71.059145,42.354346],[-71.059134,42.354327],[-71.058947,42.354277],[-71.058922,42.354284],[-71.058933,42.354303],[-71.058993,42.35432],[-71.058993,42.354344],[-71.059056,42.354362],[-71.05903,42.354376],[-71.059048,42.354407],[-71.059289,42.354471],[-71.059322,42.354447]]],[[[-71.059274,42.351573],[-71.059266,42.35156],[-71.05905,42.351499],[-71.059016,42.35151],[-71.05903,42.351535],[-71.059238,42.351591],[-71.059274,42.351573]]],[[[-71.059246,42.351669],[-71.059224,42.351644],[-71.058984,42.35158],[-71.058945,42.351585],[-71.058934,42.351604],[-71.058956,42.351628],[-71.059196,42.351693],[-71.059224,42.351693],[-71.059246,42.351669]]],[[[-71.059242,42.351499],[-71.059087,42.351448],[-71.059063,42.351455],[-71.059073,42.351472],[-71.059217,42.351511],[-71.059242,42.351499]]],[[[-71.059152,42.351752],[-71.059132,42.35173],[-71.058902,42.351668],[-71.05886,42.351681],[-71.058878,42.351712],[-71.059107,42.351774],[-71.059132,42.351774],[-71.059152,42.351752]]],[[[-71.059126,42.351803],[-71.059104,42.351778],[-71.05885,42.351712],[-71.058817,42.351728],[-71.058834,42.351761],[-71.058786,42.351756],[-71.058764,42.35178],[-71.058786,42.351804],[-71.05904,42.351871],[-71.059073,42.351855],[-71.059056,42.351822],[-71.059104,42.351827],[-71.059126,42.351803]]],[[[-71.059113,42.351691],[-71.058937,42.351634],[-71.058913,42.351641],[-71.058923,42.351658],[-71.059088,42.351703],[-71.059113,42.351691]]],[[[-71.059006,42.351913],[-71.058994,42.351892],[-71.058931,42.351872],[-71.058927,42.351858],[-71.058767,42.351814],[-71.058701,42.351818],[-71.058677,42.351845],[-71.058701,42.351872],[-71.058952,42.351939],[-71.058982,42.351939],[-71.059006,42.351913]]],[[[-71.058922,42.351968],[-71.058902,42.351946],[-71.05866,42.351882],[-71.058637,42.351889],[-71.05863,42.351915],[-71.058599,42.351924],[-71.058611,42.351946],[-71.058809,42.351999],[-71.058902,42.35199],[-71.058922,42.351968]]],[[[-71.058889,42.352079],[-71.058873,42.35205],[-71.058741,42.35201],[-71.058737,42.351996],[-71.058587,42.351955],[-71.05853,42.351956],[-71.058491,42.351968],[-71.058451,42.352018],[-71.058451,42.352042],[-71.058397,42.35205],[-71.058398,42.352087],[-71.058363,42.352085],[-71.058353,42.352102],[-71.058517,42.352151],[-71.058541,42.352144],[-71.058712,42.352181],[-71.058744,42.352171],[-71.058754,42.352135],[-71.058791,42.352112],[-71.058855,42.352117],[-71.058889,42.352079]]],[[[-71.058712,42.352569],[-71.058525,42.352519],[-71.058532,42.352509],[-71.058659,42.352544],[-71.058685,42.352536],[-71.058674,42.352517],[-71.058487,42.352467],[-71.058363,42.352458],[-71.058353,42.352475],[-71.058253,42.352455],[-71.058253,42.352479],[-71.058397,42.352518],[-71.058233,42.352507],[-71.058243,42.352524],[-71.058387,42.352563],[-71.05849,42.352564],[-71.058557,42.352582],[-71.058581,42.352564],[-71.058687,42.352581],[-71.058712,42.352569]],[[-71.058479,42.352514],[-71.058472,42.352524],[-71.058417,42.352516],[-71.058479,42.352514]]],[[[-71.058432,42.350949],[-71.058207,42.350875],[-71.058183,42.350882],[-71.058193,42.350899],[-71.058407,42.350961],[-71.058432,42.350949]]],[[[-71.058182,42.352704],[-71.058027,42.352653],[-71.058003,42.35266],[-71.058013,42.352677],[-71.058157,42.352716],[-71.058182,42.352704]]],[[[-71.058176,42.352807],[-71.058021,42.352756],[-71.057997,42.352763],[-71.058007,42.35278],[-71.058151,42.352819],[-71.058176,42.352807]]],[[[-71.058152,42.352944],[-71.057997,42.352893],[-71.057973,42.3529],[-71.057983,42.352917],[-71.058127,42.352956],[-71.058152,42.352944]]],[[[-71.057958,42.352282],[-71.05795,42.352269],[-71.057351,42.35209],[-71.057311,42.35211],[-71.057329,42.35213],[-71.057802,42.352269],[-71.057932,42.352301],[-71.057958,42.352282]]],[[[-71.057947,42.350732],[-71.057747,42.350665],[-71.057723,42.350672],[-71.057733,42.350689],[-71.057922,42.350744],[-71.057947,42.350732]]],[[[-71.057558,42.350442],[-71.057403,42.350391],[-71.057379,42.350398],[-71.057389,42.350415],[-71.057533,42.350454],[-71.057558,42.350442]]],[[[-71.057542,42.350533],[-71.057387,42.350482],[-71.057363,42.350489],[-71.057373,42.350506],[-71.057517,42.350545],[-71.057542,42.350533]]],[[[-71.057503,42.351749],[-71.057337,42.351695],[-71.057313,42.351702],[-71.057323,42.351719],[-71.057477,42.351761],[-71.057503,42.351749]]],[[[-71.057482,42.351789],[-71.057327,42.351738],[-71.057303,42.351745],[-71.057313,42.351762],[-71.057457,42.351801],[-71.057482,42.351789]]],[[[-71.057463,42.35097],[-71.057287,42.350913],[-71.057263,42.35092],[-71.057273,42.350937],[-71.057438,42.350982],[-71.057463,42.35097]]],[[[-71.057453,42.351936],[-71.057298,42.351885],[-71.057274,42.351892],[-71.057284,42.351909],[-71.057428,42.351948],[-71.057453,42.351936]]],[[[-71.057433,42.351108],[-71.057257,42.351051],[-71.057233,42.351058],[-71.057243,42.351075],[-71.057408,42.35112],[-71.057433,42.351108]]],[[[-71.057431,42.351991],[-71.057287,42.351943],[-71.057263,42.35195],[-71.057273,42.351967],[-71.057406,42.352003],[-71.057431,42.351991]]],[[[-71.057352,42.351449],[-71.057197,42.351398],[-71.057173,42.351405],[-71.057183,42.351422],[-71.057327,42.351461],[-71.057352,42.351449]]],[[[-71.057342,42.350589],[-71.057187,42.350538],[-71.057059,42.350528],[-71.057069,42.350545],[-71.057213,42.350584],[-71.057317,42.350601],[-71.057342,42.350589]]],[[[-71.057291,42.350671],[-71.057136,42.35062],[-71.057112,42.350627],[-71.057122,42.350644],[-71.057266,42.350683],[-71.057291,42.350671]]],[[[-71.057252,42.349965],[-71.057232,42.349943],[-71.056772,42.349818],[-71.05673,42.349831],[-71.056748,42.349862],[-71.057207,42.349987],[-71.057232,42.349987],[-71.057252,42.349965]]],[[[-71.057182,42.349879],[-71.057075,42.34984],[-71.057077,42.349817],[-71.057056,42.349801],[-71.056805,42.349733],[-71.056754,42.349749],[-71.056754,42.349771],[-71.056775,42.349787],[-71.057157,42.349891],[-71.057182,42.349879]]],[[[-71.057044,42.352075],[-71.056737,42.351982],[-71.056713,42.351989],[-71.056723,42.352006],[-71.057019,42.352088],[-71.057044,42.352075]]],[[[-71.057018,42.349981],[-71.056988,42.349948],[-71.056744,42.349882],[-71.056691,42.34989],[-71.056676,42.349915],[-71.056706,42.349948],[-71.056951,42.350014],[-71.056988,42.350014],[-71.057018,42.349981]]],[[[-71.056978,42.350269],[-71.056602,42.350163],[-71.05656,42.350176],[-71.056578,42.350207],[-71.056807,42.350269],[-71.056849,42.350256],[-71.056953,42.350281],[-71.056978,42.350269]]],[[[-71.056973,42.350072],[-71.056943,42.350039],[-71.056699,42.349973],[-71.056646,42.349981],[-71.056631,42.350006],[-71.056661,42.350039],[-71.056906,42.350105],[-71.056943,42.350105],[-71.056973,42.350072]]],[[[-71.056942,42.350346],[-71.056787,42.350295],[-71.056763,42.350302],[-71.056773,42.350319],[-71.056917,42.350358],[-71.056942,42.350346]]],[[[-71.056878,42.350153],[-71.05686,42.350133],[-71.056641,42.350074],[-71.056601,42.350094],[-71.056619,42.350114],[-71.056838,42.350173],[-71.056878,42.350153]]],[[[-71.056834,42.353259],[-71.056583,42.353131],[-71.056237,42.353038],[-71.056213,42.353045],[-71.056223,42.353062],[-71.056523,42.353158],[-71.056533,42.353178],[-71.05658,42.353191],[-71.056582,42.353217],[-71.056798,42.353277],[-71.056834,42.353259]]],[[[-71.056819,42.35066],[-71.056632,42.350601],[-71.056608,42.350608],[-71.056618,42.350625],[-71.056794,42.350673],[-71.056819,42.35066]]],[[[-71.056803,42.3509],[-71.056773,42.350867],[-71.056529,42.350801],[-71.056476,42.350809],[-71.056461,42.350834],[-71.056491,42.350867],[-71.056736,42.350933],[-71.056773,42.350933],[-71.056803,42.3509]]],[[[-71.056784,42.350727],[-71.056597,42.350668],[-71.056573,42.350675],[-71.056583,42.350692],[-71.056759,42.35074],[-71.056784,42.350727]]],[[[-71.056644,42.351967],[-71.056377,42.351888],[-71.056353,42.351895],[-71.056363,42.351912],[-71.056619,42.35198],[-71.056644,42.351967]]],[[[-71.056574,42.351144],[-71.056387,42.351085],[-71.056363,42.351092],[-71.056373,42.351109],[-71.056549,42.351157],[-71.056574,42.351144]]],[[[-71.056572,42.351069],[-71.056417,42.351018],[-71.056393,42.351025],[-71.056403,42.351042],[-71.056547,42.351081],[-71.056572,42.351069]]],[[[-71.056514,42.354977],[-71.056327,42.354918],[-71.056303,42.354925],[-71.056313,42.354942],[-71.056489,42.35499],[-71.056514,42.354977]]],[[[-71.056514,42.354726],[-71.056506,42.354713],[-71.05629,42.354652],[-71.056256,42.354663],[-71.05627,42.354688],[-71.056478,42.354744],[-71.056514,42.354726]]],[[[-71.056508,42.351215],[-71.056353,42.351164],[-71.056329,42.351171],[-71.056339,42.351188],[-71.056483,42.351227],[-71.056508,42.351215]]],[[[-71.056504,42.354883],[-71.056317,42.354824],[-71.056293,42.354831],[-71.056303,42.354848],[-71.056479,42.354896],[-71.056504,42.354883]]],[[[-71.056496,42.3548],[-71.056297,42.354737],[-71.056272,42.354744],[-71.056283,42.354763],[-71.056469,42.354814],[-71.056496,42.3548]]],[[[-71.056432,42.350889],[-71.056245,42.35083],[-71.056221,42.350837],[-71.056231,42.350854],[-71.056407,42.350902],[-71.056432,42.350889]]],[[[-71.056413,42.351418],[-71.056247,42.351364],[-71.056223,42.351371],[-71.056233,42.351388],[-71.056387,42.35143],[-71.056413,42.351418]]],[[[-71.056402,42.35098],[-71.056215,42.350921],[-71.056191,42.350928],[-71.056201,42.350945],[-71.056377,42.350993],[-71.056402,42.35098]]],[[[-71.056394,42.351453],[-71.056228,42.351399],[-71.056204,42.351406],[-71.056214,42.351423],[-71.056368,42.351465],[-71.056394,42.351453]]],[[[-71.056363,42.351492],[-71.056197,42.351438],[-71.056173,42.351445],[-71.056183,42.351462],[-71.056337,42.351504],[-71.056363,42.351492]]],[[[-71.056362,42.351083],[-71.056175,42.351024],[-71.056151,42.351031],[-71.056161,42.351048],[-71.056337,42.351096],[-71.056362,42.351083]]],[[[-71.056324,42.351192],[-71.056137,42.351133],[-71.056113,42.35114],[-71.056123,42.351157],[-71.056299,42.351205],[-71.056324,42.351192]]],[[[-71.056233,42.351752],[-71.056067,42.351698],[-71.056043,42.351705],[-71.056053,42.351722],[-71.056207,42.351764],[-71.056233,42.351752]]],[[[-71.056153,42.351402],[-71.055966,42.351343],[-71.055942,42.35135],[-71.055952,42.351367],[-71.056128,42.351415],[-71.056153,42.351402]]],[[[-71.056129,42.351459],[-71.055942,42.3514],[-71.055918,42.351407],[-71.055928,42.351424],[-71.056104,42.351472],[-71.056129,42.351459]]],[[[-71.056113,42.352292],[-71.056083,42.352259],[-71.05582,42.35219],[-71.055786,42.352201],[-71.055775,42.35224],[-71.055737,42.352276],[-71.055767,42.352309],[-71.056031,42.352378],[-71.056065,42.352367],[-71.056076,42.352328],[-71.056113,42.352292]]],[[[-71.056096,42.351529],[-71.055909,42.35147],[-71.055885,42.351477],[-71.055895,42.351494],[-71.056071,42.351542],[-71.056096,42.351529]]],[[[-71.056064,42.351608],[-71.055877,42.351549],[-71.055853,42.351556],[-71.055863,42.351573],[-71.056039,42.351621],[-71.056064,42.351608]]],[[[-71.056035,42.351669],[-71.055848,42.35161],[-71.055824,42.351617],[-71.055834,42.351634],[-71.05601,42.351682],[-71.056035,42.351669]]],[[[-71.056018,42.353398],[-71.055998,42.353376],[-71.055768,42.353314],[-71.055726,42.353327],[-71.055744,42.353358],[-71.055973,42.35342],[-71.055998,42.35342],[-71.056018,42.353398]]],[[[-71.055984,42.351774],[-71.055797,42.351715],[-71.055773,42.351722],[-71.055783,42.351739],[-71.055959,42.351787],[-71.055984,42.351774]]],[[[-71.055964,42.351823],[-71.055777,42.351764],[-71.055753,42.351771],[-71.055763,42.351788],[-71.055939,42.351836],[-71.055964,42.351823]]],[[[-71.055943,42.353453],[-71.055925,42.353433],[-71.055706,42.353374],[-71.055666,42.353394],[-71.055684,42.353414],[-71.055903,42.353473],[-71.055943,42.353453]]],[[[-71.055832,42.35348],[-71.055633,42.353417],[-71.055608,42.353424],[-71.055619,42.353443],[-71.055805,42.353494],[-71.055832,42.35348]]],[[[-71.055734,42.353544],[-71.055547,42.353485],[-71.055523,42.353492],[-71.055533,42.353509],[-71.055709,42.353557],[-71.055734,42.353544]]],[[[-71.055653,42.353572],[-71.055487,42.353518],[-71.055463,42.353525],[-71.055473,42.353542],[-71.055627,42.353584],[-71.055653,42.353572]]],[[[-71.055458,42.353731],[-71.055401,42.353701],[-71.055401,42.353682],[-71.055251,42.353641],[-71.055189,42.353657],[-71.055189,42.353687],[-71.055149,42.353694],[-71.055161,42.353716],[-71.055359,42.353769],[-71.055376,42.353769],[-71.055388,42.353747],[-71.05544,42.353751],[-71.055458,42.353731]]]]},"properties":{"kind":"tree"}}]}