{"type":"FeatureCollection","features":[{"type":"Feature","geometry":{"type":"MultiPolygon","coordinates":[[[[-71.067404,42.352129],[-71.067381,42.351995],[-71.067121,42.351409],[-71.066747,42.351106],[-71.066533,42.351131],[-71.066111,42.350789],[-71.066202,42.350785],[-71.066189,42.350627],[-71.066404,42.350614],[-71.066369,42.350285],[-71.066264,42.350164],[-71.065896,42.349866],[-71.065926,42.349723],[-71.066071,42.34984],[-71.066148,42.349816],[-71.066152,42.349758],[-71.06621,42.34974],[-71.066121,42.349583],[-71.066006,42.349489],[-71.06562,42.349445],[-71.065521,42.349461],[-71.06544,42.349837],[-71.065169,42.349617],[-71.064416,42.349501],[-71.064395,42.349572],[-71.064216,42.349544],[-71.064234,42.349447],[-71.064122,42.349357],[-71.064205,42.349185],[-71.064238,42.349067],[-71.064451,42.349099],[-71.064404,42.349122],[-71.064679,42.349345],[-71.064928,42.349514],[-71.065109,42.349421],[-71.065089,42.349398],[-71.065195,42.349431],[-71.065457,42.349308],[-71.065307,42.349134],[-71.065347,42.34913],[-71.065398,42.348942],[-71.065391,42.348857],[-71.065347,42.348743],[-71.065297,42.348703],[-71.065325,42.348554],[-71.065255,42.348497],[-71.06547,42.348448],[-71.065474,42.348428],[-71.065382,42.348325],[-71.065513,42.348206],[-71.065513,42.348132],[-71.065454,42.348065],[-71.065575,42.347985],[-71.065584,42.347947],[-71.065546,42.347871],[-71.065462,42.347816],[-71.065463,42.347793],[-71.065319,42.347677],[-71.065257,42.347643],[-71.064894,42.347587],[-71.064503,42.347783],[-71.064389,42.348045],[-71.064358,42.348156],[-71.064113,42.347947],[-71.063968,42.347919],[-71.063883,42.347989],[-71.063856,42.347985],[-71.063829,42.348081],[-71.063865,42.34811],[-71.063888,42.348157],[-71.063656,42.348118],[-71.063704,42.347946],[-71.063606,42.347866],[-71.06346,42.347843],[-71.063365,42.348193],[-71.063488,42.348293],[-71.064143,42.348391],[-71.064147,42.348378],[-71.064194,42.348417],[-71.064313,42.348434],[-71.064328,42.34838],[-71.064408,42.348393],[-71.064434,42.348298],[-71.064366,42.348243],[-71.064459,42.348317],[-71.06444,42.348386],[-71.064677,42.348578],[-71.064341,42.348545],[-71.064334,42.348568],[-71.064275,42.348582],[-71.064232,42.348695],[-71.063945,42.348463],[-71.063623,42.348413],[-71.063603,42.348484],[-71.063476,42.348381],[-71.062893,42.348293],[-71.062905,42.348246],[-71.062971,42.3483],[-71.063195,42.348338],[-71.063325,42.348341],[-71.063349,42.348258],[-71.06323,42.348148],[-71.063204,42.348144],[-71.063228,42.348116],[-71.063368,42.348148],[-71.063387,42.348079],[-71.063301,42.347999],[-71.062961,42.347921],[-71.062929,42.348],[-71.063139,42.348156],[-71.063179,42.348164],[-71.0631,42.348157],[-71.062989,42.348141],[-71.062964,42.34812],[-71.06301,42.348131],[-71.063026,42.348094],[-71.062909,42.347999],[-71.062855,42.347962],[-71.062735,42.347939],[-71.062689,42.348052],[-71.062804,42.348149],[-71.062866,42.348162],[-71.062858,42.348196],[-71.062777,42.348131],[-71.062667,42.348107],[-71.06266,42.348126],[-71.062446,42.347953],[-71.062161,42.347879],[-71.061866,42.34764],[-71.061712,42.347604],[-71.061566,42.347954],[-71.061555,42.348046],[-71.061846,42.348281],[-71.061771,42.348465],[-71.06164,42.348359],[-71.061414,42.348308],[-71.061312,42.348227],[-71.061177,42.348206],[-71.061068,42.348118],[-71.061011,42.348097],[-71.060549,42.348739],[-71.060847,42.348981],[-71.060744,42.349244],[-71.060846,42.349326],[-71.061304,42.349515],[-71.061352,42.349444],[-71.061244,42.349357],[-71.061114,42.349304],[-71.061118,42.349293],[-71.061022,42.349214],[-71.061027,42.349202],[-71.061101,42.349218],[-71.06111,42.349194],[-71.061049,42.349145],[-71.061156,42.349231],[-71.061142,42.349267],[-71.061272,42.349372],[-71.061378,42.349398],[-71.061347,42.349489],[-71.061571,42.34967],[-71.061726,42.34974],[-71.061307,42.349568],[-71.061221,42.349783],[-71.06111,42.349649],[-71.060443,42.349109],[-71.060321,42.349063],[-71.060204,42.349326],[-71.059925,42.350048],[-71.060438,42.350463],[-71.060395,42.350464],[-71.060381,42.350499],[-71.060398,42.350518],[-71.060262,42.350486],[-71.060116,42.350367],[-71.059867,42.350296],[-71.059794,42.350499],[-71.059831,42.350529],[-71.059789,42.350634],[-71.059873,42.350702],[-71.06015,42.350756],[-71.059972,42.351168],[-71.060126,42.351293],[-71.060611,42.351394],[-71.060635,42.351337],[-71.06065,42.35134],[-71.060842,42.351495],[-71.0613,42.351597],[-71.061337,42.351785],[-71.061041,42.351545],[-71.060388,42.351402],[-71.060369,42.351415],[-71.060432,42.351612],[-71.060556,42.351713],[-71.06047,42.351727],[-71.060511,42.351862],[-71.06042,42.351606],[-71.060332,42.351535],[-71.060295,42.351422],[-71.060242,42.351375],[-71.059758,42.351262],[-71.059709,42.351391],[-71.059795,42.35194],[-71.059626,42.351804],[-71.059386,42.351848],[-71.059436,42.352182],[-71.059226,42.352012],[-71.059026,42.352083],[-71.058906,42.352152],[-71.058814,42.352257],[-71.058775,42.35235],[-71.059005,42.352536],[-71.058902,42.352524],[-71.058142,42.35255],[-71.058055,42.352616],[-71.057995,42.352942],[-71.057796,42.352781],[-71.057703,42.352739],[-71.05756,42.352748],[-71.057505,42.352776],[-71.057488,42.352763],[-71.057532,42.352663],[-71.057095,42.352309],[-71.057587,42.352437],[-71.057614,42.352294],[-71.058251,42.352491],[-71.058423,42.351987],[-71.058238,42.351828],[-71.058376,42.351849],[-71.058422,42.351737],[-71.058538,42.351831],[-71.058734,42.351874],[-71.058922,42.351696],[-71.059036,42.351559],[-71.059166,42.351355],[-71.059214,42.351243],[-71.059038,42.351101],[-71.058633,42.351011],[-71.058597,42.351101],[-71.058414,42.350953],[-71.058104,42.350876],[-71.058094,42.350907],[-71.058021,42.350866],[-71.05803,42.350854],[-71.058284,42.350916],[-71.058296,42.350876],[-71.058425,42.35092],[-71.058441,42.350885],[-71.058566,42.350917],[-71.058578,42.350886],[-71.058663,42.350905],[-71.058709,42.350808],[-71.058689,42.350861],[-71.058933,42.351069],[-71.059355,42.351163],[-71.05941,42.351147],[-71.059716,42.35039],[-71.059471,42.35018],[-71.059047,42.350086],[-71.059018,42.350095],[-71.058732,42.349864],[-71.058787,42.349727],[-71.0585,42.349495],[-71.058517,42.349452],[-71.058424,42.349376],[-71.057926,42.349266],[-71.057859,42.349433],[-71.057952,42.349509],[-71.057983,42.349515],[-71.057962,42.349568],[-71.057872,42.349548],[-71.057853,42.349597],[-71.057898,42.349633],[-71.057988,42.349653],[-71.058201,42.349826],[-71.058292,42.349846],[-71.058339,42.349885],[-71.058621,42.349947],[-71.058711,42.35002],[-71.058372,42.349945],[-71.058316,42.350143],[-71.058305,42.350134],[-71.058349,42.349972],[-71.058289,42.349924],[-71.057874,42.34983],[-71.057711,42.349915],[-71.057505,42.349748],[-71.057133,42.349667],[-71.05695,42.350087],[-71.056922,42.350095],[-71.056797,42.350339],[-71.056877,42.350423],[-71.056873,42.350442],[-71.057116,42.350639],[-71.057157,42.35065],[-71.05694,42.350597],[-71.056815,42.350607],[-71.056678,42.350643],[-71.05656,42.350888],[-71.056673,42.350979],[-71.056543,42.350948],[-71.056401,42.351249],[-71.056644,42.351446],[-71.05733,42.351714],[-71.057314,42.351827],[-71.057141,42.351687],[-71.056525,42.351411],[-71.056294,42.351331],[-71.056079,42.351765],[-71.056468,42.35208],[-71.056892,42.35219],[-71.056918,42.352211],[-71.056202,42.352031],[-71.05594,42.352127],[-71.055846,42.352326],[-71.055886,42.352359],[-71.055876,42.352367],[-71.056034,42.352612],[-71.056312,42.352837],[-71.056339,42.352842],[-71.056407,42.352818],[-71.056679,42.353038],[-71.056747,42.353056],[-71.057268,42.353477],[-71.057195,42.353595],[-71.056948,42.353395],[-71.056832,42.35342],[-71.056638,42.353263],[-71.056242,42.353099],[-71.055998,42.353225],[-71.056026,42.35333],[-71.056391,42.353626],[-71.056313,42.353674],[-71.056333,42.35383],[-71.056174,42.353518],[-71.055897,42.353294],[-71.055573,42.353469],[-71.055617,42.353515],[-71.055589,42.353497],[-71.055421,42.353589],[-71.05538,42.353634],[-71.055342,42.353603],[-71.054915,42.353838],[-71.055156,42.35408],[-71.055354,42.354241],[-71.055319,42.354257],[-71.054903,42.35392],[-71.054834,42.353899],[-71.054776,42.353908],[-71.054391,42.354111],[-71.054359,42.354149],[-71.054358,42.354189],[-71.054595,42.354449],[-71.054802,42.354619],[-71.054775,42.354643],[-71.05498,42.354839],[-71.055381,42.355164],[-71.055442,42.355137],[-71.055658,42.355312],[-71.055688,42.355479],[-71.056411,42.356064],[-71.056624,42.356059],[-71.057638,42.35688],[-71.05809,42.356836],[-71.057989,42.356257],[-71.057722,42.356041],[-71.058474,42.355985],[-71.058454,42.355834],[-71.057329,42.354923],[-71.057025,42.354801],[-71.057286,42.354767],[-71.057247,42.354511],[-71.057168,42.354447],[-71.057352,42.354398],[-71.057425,42.354311],[-71.057624,42.354458],[-71.057546,42.354581],[-71.057784,42.354773],[-71.057994,42.354835],[-71.05787,42.354957],[-71.057867,42.35498],[-71.058126,42.355189],[-71.058173,42.355207],[-71.058412,42.355211],[-71.058571,42.35534],[-71.058698,42.355355],[-71.058761,42.355333],[-71.058819,42.355276],[-71.059208,42.355445],[-71.059771,42.355896],[-71.060063,42.356015],[-71.060309,42.355801],[-71.060372,42.355723],[-71.059794,42.355242],[-71.059867,42.355173],[-71.059849,42.355152],[-71.059164,42.354624],[-71.059157,42.354604],[-71.058955,42.354441],[-71.058228,42.353947],[-71.058271,42.353957],[-71.058413,42.353904],[-71.058467,42.353947],[-71.058496,42.35395],[-71.058839,42.354173],[-71.059374,42.354575],[-71.05964,42.354805],[-71.060372,42.35537],[-71.060404,42.355346],[-71.060609,42.355493],[-71.060812,42.355319],[-71.06091,42.355396],[-71.061164,42.35516],[-71.061316,42.355284],[-71.061629,42.355441],[-71.061801,42.355254],[-71.061545,42.355046],[-71.061455,42.354998],[-71.061538,42.354923],[-71.061756,42.3551],[-71.062032,42.355243],[-71.062065,42.355208],[-71.062382,42.355368],[-71.062549,42.355189],[-71.062405,42.355072],[-71.062561,42.355196],[-71.062673,42.355259],[-71.062704,42.355232],[-71.062883,42.355355],[-71.063011,42.355221],[-71.063359,42.355417],[-71.063418,42.35534],[-71.063221,42.35518],[-71.063599,42.355367],[-71.063643,42.355358],[-71.06371,42.355236],[-71.063854,42.355347],[-71.064043,42.355403],[-71.064074,42.355405],[-71.064099,42.355348],[-71.064216,42.355383],[-71.064505,42.354847],[-71.064408,42.354768],[-71.064443,42.354726],[-71.06431,42.354619],[-71.06434,42.354421],[-71.064331,42.354413],[-71.064372,42.354309],[-71.064241,42.354203],[-71.064411,42.354253],[-71.064492,42.354118],[-71.064542,42.354133],[-71.064596,42.354036],[-71.06451,42.353637],[-71.064431,42.353563],[-71.064577,42.353574],[-71.064644,42.353494],[-71.064675,42.353408],[-71.064627,42.353369],[-71.064692,42.353201],[-71.064796,42.353206],[-71.064831,42.353055],[-71.064736,42.352978],[-71.064765,42.352752],[-71.06458,42.352602],[-71.064638,42.352604],[-71.064627,42.352637],[-71.064664,42.352667],[-71.064729,42.352677],[-71.064752,42.352607],[-71.064852,42.35261],[-71.064887,42.35259],[-71.06491,42.352499],[-71.065076,42.352634],[-71.065903,42.35269],[-71.065919,42.352585],[-71.065952,42.352588],[-71.066079,42.352684],[-71.066276,42.352699],[-71.066295,42.352598],[-71.066319,42.352599],[-71.066336,42.352377],[-71.066217,42.352281],[-71.066407,42.35228],[-71.066428,42.352068],[-71.067221,42.352174],[-71.067404,42.352129]],[[-71.065543,42.351248],[-71.065359,42.351251],[-71.065014,42.350972],[-71.065031,42.350926],[-71.065096,42.350979],[-71.065237,42.351],[-71.065543,42.351248]],[[-71.065504,42.350332],[-71.065315,42.350301],[-71.065342,42.350201],[-71.065504,42.350332]],[[-71.065418,42.349928],[-71.06537,42.350094],[-71.065415,42.349926],[-71.065418,42.349928]],[[-71.065308,42.350308],[-71.065264,42.350461],[-71.06502,42.350263],[-71.065308,42.350308]],[[-71.064948,42.35172],[-71.064856,42.351709],[-71.064728,42.351605],[-71.064818,42.351616],[-71.064888,42.351352],[-71.064927,42.351384],[-71.064851,42.351641],[-71.064948,42.35172]],[[-71.064717,42.351214],[-71.064502,42.351183],[-71.064477,42.351204],[-71.064388,42.351182],[-71.064412,42.351142],[-71.064403,42.351031],[-71.064556,42.351083],[-71.064717,42.351214]],[[-71.064171,42.35025],[-71.064017,42.350499],[-71.063915,42.350416],[-71.063661,42.350381],[-71.063701,42.350296],[-71.063744,42.350303],[-71.063753,42.350273],[-71.063724,42.350249],[-71.063782,42.350045],[-71.063808,42.350045],[-71.063838,42.349952],[-71.06389,42.349957],[-71.064091,42.350184],[-71.064171,42.35025]],[[-71.064004,42.351968],[-71.063958,42.351934],[-71.063959,42.351931],[-71.064004,42.351968]],[[-71.063825,42.35113],[-71.063728,42.351117],[-71.063745,42.351066],[-71.063825,42.35113]],[[-71.063584,42.351628],[-71.06299,42.351557],[-71.062998,42.351529],[-71.063483,42.351594],[-71.063528,42.351583],[-71.063584,42.351628]],[[-71.063561,42.34904],[-71.063144,42.348975],[-71.063042,42.348892],[-71.06286,42.348841],[-71.063535,42.348944],[-71.063561,42.34904]],[[-71.063201,42.35342],[-71.063198,42.353496],[-71.063093,42.353411],[-71.063201,42.35342]],[[-71.063082,42.355095],[-71.062729,42.354937],[-71.06235,42.35474],[-71.062643,42.354877],[-71.062661,42.354858],[-71.062708,42.35487],[-71.062889,42.354965],[-71.062904,42.354951],[-71.063082,42.355095]],[[-71.063061,42.349628],[-71.062592,42.349443],[-71.062574,42.349455],[-71.062316,42.349339],[-71.062233,42.349284],[-71.062169,42.349306],[-71.062146,42.349409],[-71.061975,42.34927],[-71.061878,42.349248],[-71.061923,42.349126],[-71.061969,42.349136],[-71.062086,42.348885],[-71.061952,42.348776],[-71.06203,42.348581],[-71.062288,42.34864],[-71.062311,42.348589],[-71.062383,42.348604],[-71.06249,42.348329],[-71.062409,42.348264],[-71.062583,42.348303],[-71.062448,42.348644],[-71.062603,42.348769],[-71.062425,42.348727],[-71.062236,42.349176],[-71.062426,42.34933],[-71.062576,42.349407],[-71.062641,42.349427],[-71.062667,42.349413],[-71.062835,42.349487],[-71.062914,42.349551],[-71.063061,42.349628]],[[-71.063002,42.3534],[-71.062712,42.3534],[-71.062603,42.353312],[-71.062699,42.353308],[-71.062734,42.353281],[-71.062738,42.353202],[-71.063002,42.3534]],[[-71.062867,42.351688],[-71.062845,42.351799],[-71.062678,42.351664],[-71.062604,42.351638],[-71.062645,42.351631],[-71.062867,42.351688]],[[-71.062739,42.350183],[-71.062734,42.3502],[-71.06256,42.350059],[-71.06241,42.349996],[-71.062469,42.349861],[-71.062527,42.349836],[-71.062445,42.349947],[-71.062739,42.350183]],[[-71.062659,42.351009],[-71.062577,42.350998],[-71.062603,42.350964],[-71.062659,42.351009]],[[-71.062537,42.351622],[-71.062327,42.351578],[-71.06235,42.351577],[-71.062342,42.351518],[-71.062435,42.351593],[-71.062537,42.351622]],[[-71.06245,42.350972],[-71.062298,42.350942],[-71.062278,42.351002],[-71.062386,42.35109],[-71.062324,42.351073],[-71.062111,42.350892],[-71.061597,42.350765],[-71.061565,42.350845],[-71.061656,42.350918],[-71.061545,42.350895],[-71.061462,42.35114],[-71.061448,42.351138],[-71.061414,42.351223],[-71.061227,42.351071],[-71.060769,42.350979],[-71.060735,42.351039],[-71.060715,42.351022],[-71.060759,42.35091],[-71.060729,42.350886],[-71.060759,42.350812],[-71.060931,42.35085],[-71.060972,42.350883],[-71.061188,42.35093],[-71.061309,42.350916],[-71.061458,42.350957],[-71.06149,42.350851],[-71.061316,42.350703],[-71.061343,42.350637],[-71.061792,42.350743],[-71.06182,42.350678],[-71.062061,42.350873],[-71.06245,42.350972]],[[-71.062343,42.354737],[-71.062319,42.354763],[-71.062211,42.354676],[-71.062343,42.354737]],[[-71.062246,42.348227],[-71.062165,42.348433],[-71.062102,42.348418],[-71.062203,42.348206],[-71.062246,42.348227]],[[-71.062226,42.354866],[-71.062217,42.354875],[-71.062199,42.354869],[-71.062226,42.354866]],[[-71.062221,42.353942],[-71.062153,42.354016],[-71.062033,42.353919],[-71.061484,42.353652],[-71.061316,42.353581],[-71.061297,42.353602],[-71.061166,42.353496],[-71.06071,42.353273],[-71.060695,42.353272],[-71.060473,42.353509],[-71.060413,42.353461],[-71.060422,42.353452],[-71.060453,42.353468],[-71.060568,42.353345],[-71.060126,42.353002],[-71.060079,42.352703],[-71.059983,42.352625],[-71.059957,42.352456],[-71.059899,42.352409],[-71.059878,42.352272],[-71.059912,42.352266],[-71.0599,42.352188],[-71.060004,42.352272],[-71.060124,42.352263],[-71.060161,42.352505],[-71.060328,42.35264],[-71.060188,42.352643],[-71.060197,42.35274],[-71.060279,42.352806],[-71.060268,42.352864],[-71.060489,42.353043],[-71.06092,42.353255],[-71.060938,42.353235],[-71.061204,42.35345],[-71.061671,42.353679],[-71.06171,42.35361],[-71.061964,42.353815],[-71.062221,42.353942]],[[-71.062154,42.354647],[-71.061949,42.354534],[-71.061979,42.354505],[-71.062154,42.354647]],[[-71.062149,42.352505],[-71.062115,42.352508],[-71.062107,42.352471],[-71.062149,42.352505]],[[-71.061948,42.349897],[-71.061947,42.349899],[-71.061779,42.349763],[-71.061948,42.349897]],[[-71.061904,42.352526],[-71.061487,42.352561],[-71.061488,42.352577],[-71.061244,42.352377],[-71.061233,42.352129],[-71.061216,42.352116],[-71.061262,42.35211],[-71.061259,42.352092],[-71.0613,42.352085],[-71.06129,42.352015],[-71.061381,42.351996],[-71.061394,42.352062],[-71.06157,42.352204],[-71.061725,42.352196],[-71.061718,42.352139],[-71.061723,42.35216],[-71.061787,42.352212],[-71.061723,42.352231],[-71.061761,42.35241],[-71.061904,42.352526]],[[-71.061749,42.348521],[-71.061704,42.348633],[-71.061706,42.348608],[-71.061749,42.348521]],[[-71.061542,42.351537],[-71.061346,42.351541],[-71.061395,42.351418],[-71.061542,42.351537]],[[-71.06137,42.349986],[-71.061316,42.350019],[-71.061162,42.349985],[-71.061139,42.350043],[-71.061212,42.350077],[-71.061208,42.350087],[-71.061136,42.350132],[-71.061107,42.350108],[-71.06121,42.349856],[-71.06137,42.349986]],[[-71.060729,42.351755],[-71.060726,42.351753],[-71.060728,42.351753],[-71.060729,42.351755]],[[-71.060628,42.352238],[-71.0605,42.352135],[-71.060316,42.352167],[-71.060313,42.352238],[-71.060276,42.352208],[-71.060214,42.352213],[-71.060198,42.352084],[-71.060265,42.352139],[-71.060443,42.352131],[-71.060581,42.352092],[-71.060628,42.352238]],[[-71.060257,42.351834],[-71.060158,42.351849],[-71.060151,42.351803],[-71.060183,42.3518],[-71.06016,42.351657],[-71.060204,42.351661],[-71.060257,42.351834]],[[-71.058975,42.350153],[-71.058962,42.350185],[-71.058838,42.350084],[-71.058856,42.350057],[-71.058975,42.350153]],[[-71.058862,42.350434],[-71.058826,42.350521],[-71.058751,42.35046],[-71.05877,42.350413],[-71.058862,42.350434]],[[-71.058008,42.351242],[-71.058006,42.351248],[-71.057996,42.351232],[-71.058008,42.351242]],[[-71.057795,42.350813],[-71.057689,42.350788],[-71.057699,42.350736],[-71.057795,42.350813]],[[-71.05753,42.350771],[-71.057512,42.350847],[-71.057468,42.350811],[-71.05753,42.350771]],[[-71.057499,42.351631],[-71.057395,42.351614],[-71.057406,42.351556],[-71.057499,42.351631]],[[-71.056864,42.354749],[-71.056803,42.354753],[-71.05679,42.354692],[-71.056699,42.354618],[-71.056864,42.354749]],[[-71.056613,42.354125],[-71.056503,42.354136],[-71.056495,42.354091],[-71.056246,42.353889],[-71.056336,42.353849],[-71.05635,42.353911],[-71.056613,42.354125]],[[-71.056525,42.354906],[-71.056418,42.354819],[-71.056475,42.35481],[-71.056514,42.354841],[-71.056525,42.354906]],[[-71.055801,42.354022],[-71.055698,42.354068],[-71.055681,42.354054],[-71.055782,42.354009],[-71.055775,42.354001],[-71.055801,42.354022]]],[[[-71.066767,42.348759],[-71.066483,42.348529],[-71.066328,42.348511],[-71.066361,42.34836],[-71.065995,42.348062],[-71.065837,42.348044],[-71.065752,42.348444],[-71.06581,42.348492],[-71.065804,42.348522],[-71.066195,42.348839],[-71.066291,42.34885],[-71.066295,42.348827],[-71.066739,42.348879],[-71.066767,42.348759]]],[[[-71.066201,42.349559],[-71.066145,42.349461],[-71.066051,42.349385],[-71.065989,42.349405],[-71.066043,42.349503],[-71.066137,42.349579],[-71.066201,42.349559]]],[[[-71.065656,42.354421],[-71.065645,42.354392],[-71.065534,42.354305],[-71.065487,42.354301],[-71.065445,42.354332],[-71.06545,42.354366],[-71.065559,42.354455],[-71.065618,42.354461],[-71.065656,42.354421]]],[[[-71.065472,42.352912],[-71.065421,42.352871],[-71.065303,42.352844],[-71.065286,42.352891],[-71.065312,42.352972],[-71.065363,42.353013],[-71.065429,42.353027],[-71.065472,42.352912]]],[[[-71.061732,42.352483],[-71.061712,42.35237],[-71.061625,42.3523],[-71.061514,42.352311],[-71.061454,42.352351],[-71.061467,42.35243],[-71.061554,42.3525],[-71.061732,42.352483]]],[[[-71.059371,42.34977],[-71.059318,42.349726],[-71.059179,42.349693],[-71.059105,42.349866],[-71.059158,42.349909],[-71.059297,42.349942],[-71.059371,42.34977]]],[[[-71.058552,42.349096],[-71.058071,42.348706],[-71.057613,42.348605],[-71.057529,42.348814],[-71.05801,42.349204],[-71.058469,42.349305],[-71.058552,42.349096]]],[[[-71.057005,42.349427],[-71.056956,42.349388],[-71.056965,42.349353],[-71.056775,42.349199],[-71.056596,42.349149],[-71.055768,42.349386],[-71.056864,42.34775],[-71.056854,42.347691],[-71.056673,42.347544],[-71.055908,42.347262],[-71.054533,42.349309],[-71.054519,42.349436],[-71.054447,42.34941],[-71.053477,42.350853],[-71.053784,42.351102],[-71.054365,42.351317],[-71.054648,42.350955],[-71.055032,42.350383],[-71.055532,42.350776],[-71.055644,42.350832],[-71.055827,42.350857],[-71.056344,42.350843],[-71.056428,42.350827],[-71.056442,42.350799],[-71.056505,42.350783],[-71.056523,42.350746],[-71.056537,42.350608],[-71.056624,42.350435],[-71.056825,42.349936],[-71.056893,42.349657],[-71.057005,42.349427]]],[[[-71.05606,42.351856],[-71.055768,42.35162],[-71.055498,42.351545],[-71.054479,42.351779],[-71.054307,42.351954],[-71.054599,42.35219],[-71.055125,42.352468],[-71.055285,42.352519],[-71.055453,42.352544],[-71.05563,42.352504],[-71.05575,42.352414],[-71.055841,42.352305],[-71.05606,42.351856]]]]},"properties":{"kind":"building"}},{"type":"Feature","geometry":{"type":"MultiPolygon","coordinates":[[[[-71.066241,42.353599],[-71.06623,42.353558],[-71.066198,42.353523],[-71.06603,42.353387],[-71.066062,42.353336],[-71.066055,42.353309],[-71.065996,42.353255],[-71.066114,42.353261],[-71.066179,42.353213],[-71.066189,42.353179],[-71.066162,42.353125],[-71.066204,42.353089],[-71.066215,42.353021],[-71.066204,42.35298],[-71.065989,42.352797],[-71.065886,42.352765],[-71.065805,42.352786],[-71.065798,42.352748],[-71.065764,42.352714],[-71.065811,42.352727],[-71.065863,42.352712],[-71.065935,42.352743],[-71.065996,42.352718],[-71.06607,42.352751],[-71.066122,42.352735],[-71.066139,42.352717],[-71.066139,42.352675],[-71.065976,42.352546],[-71.065918,42.352546],[-71.065886,42.352567],[-71.065841,42.352538],[-71.06576,42.35255],[-71.065717,42.352522],[-71.065659,42.352522],[-71.065619,42.352552],[-71.065613,42.352573],[-71.065634,42.35261],[-71.065574,42.352593],[-71.065524,42.352605],[-71.065401,42.352516],[-71.065321,42.352516],[-71.065288,42.352533],[-71.065257,42.352587],[-71.065265,42.352616],[-71.065442,42.352766],[-71.065513,42.352789],[-71.065472,42.352821],[-71.065465,42.352849],[-71.065472,42.352877],[-71.065514,42.352917],[-71.065463,42.35295],[-71.065463,42.352996],[-71.065408,42.353037],[-71.0654,42.353066],[-71.065441,42.353129],[-71.065421,42.353136],[-71.065341,42.353058],[-71.065354,42.353025],[-71.065263,42.352948],[-71.065269,42.352914],[-71.065305,42.352886],[-71.065305,42.352853],[-71.0652,42.352765],[-71.065249,42.352728],[-71.065249,42.352673],[-71.065049,42.352515],[-71.064975,42.352515],[-71.064922,42.352553],[-71.064922,42.352609],[-71.065102,42.352757],[-71.065088,42.352785],[-71.065105,42.352816],[-71.065081,42.352852],[-71.065094,42.352876],[-71.065032,42.352908],[-71.065032,42.352948],[-71.065307,42.35318],[-71.06537,42.353193],[-71.065374,42.353231],[-71.065277,42.353197],[-71.065165,42.353122],[-71.065133,42.353132],[-71.06512,42.353156],[-71.06518,42.353218],[-71.065162,42.353227],[-71.065073,42.353174],[-71.065002,42.353092],[-71.064791,42.352933],[-71.064699,42.352933],[-71.064634,42.352981],[-71.064625,42.353015],[-71.064656,42.353073],[-71.064658,42.353148],[-71.064787,42.353262],[-71.064757,42.353275],[-71.064659,42.353241],[-71.064581,42.353265],[-71.064549,42.353323],[-71.064581,42.353381],[-71.064743,42.353512],[-71.064821,42.353536],[-71.064894,42.353514],[-71.065038,42.353623],[-71.065092,42.353623],[-71.065135,42.353581],[-71.065297,42.3537],[-71.065344,42.353707],[-71.06543,42.35368],[-71.06551,42.35375],[-71.065526,42.353787],[-71.065649,42.353881],[-71.065694,42.353881],[-71.065726,42.353857],[-71.065726,42.353824],[-71.065655,42.353763],[-71.065734,42.353733],[-71.065766,42.353698],[-71.065777,42.353656],[-71.065766,42.353615],[-71.065734,42.35358],[-71.065591,42.353464],[-71.065574,42.3534],[-71.065639,42.353418],[-71.065681,42.353411],[-71.065771,42.353345],[-71.065797,42.3533],[-71.06586,42.353351],[-71.065809,42.353375],[-71.065777,42.35341],[-71.065766,42.353451],[-71.065777,42.353492],[-71.065992,42.353676],[-71.066095,42.353707],[-71.066151,42.353699],[-71.066198,42.353676],[-71.06623,42.353641],[-71.066241,42.353599]],[[-71.065607,42.352786],[-71.065566,42.352778],[-71.065585,42.352768],[-71.065607,42.352786]],[[-71.065078,42.353412],[-71.065045,42.353473],[-71.064987,42.353436],[-71.064993,42.353388],[-71.064966,42.353362],[-71.065011,42.353358],[-71.065078,42.353412]]],[[[-71.066162,42.355066],[-71.066142,42.35503],[-71.066004,42.354925],[-71.065952,42.354925],[-71.065915,42.354953],[-71.065915,42.354991],[-71.06593,42.355008],[-71.066067,42.355112],[-71.06612,42.355112],[-71.066162,42.355066]]],[[[-71.066103,42.354129],[-71.065996,42.354034],[-71.065953,42.354041],[-71.065945,42.354072],[-71.065908,42.354048],[-71.06587,42.354048],[-71.06584,42.354081],[-71.065949,42.354183],[-71.066013,42.354216],[-71.066035,42.354199],[-71.06602,42.35418],[-71.066028,42.354143],[-71.066079,42.354155],[-71.066103,42.354129]]],[[[-71.066048,42.354616],[-71.06601,42.354548],[-71.065785,42.354379],[-71.065685,42.354379],[-71.065615,42.354431],[-71.065615,42.354505],[-71.065643,42.354536],[-71.065868,42.354705],[-71.065968,42.354705],[-71.06601,42.354684],[-71.066048,42.354616]]],[[[-71.065942,42.348129],[-71.065923,42.348095],[-71.06579,42.347994],[-71.06574,42.347994],[-71.065705,42.34802],[-71.065719,42.348072],[-71.065852,42.348173],[-71.065902,42.348173],[-71.065942,42.348129]]],[[[-71.065891,42.348262],[-71.065875,42.348233],[-71.065756,42.348142],[-71.065714,42.348142],[-71.065684,42.348164],[-71.065696,42.348209],[-71.065815,42.3483],[-71.065857,42.3483],[-71.065891,42.348262]]],[[[-71.065859,42.354986],[-71.065823,42.354921],[-71.065647,42.354779],[-71.065607,42.354759],[-71.065513,42.354759],[-71.065466,42.354722],[-71.065397,42.354711],[-71.065327,42.354655],[-71.065232,42.354615],[-71.06516,42.354621],[-71.065122,42.35459],[-71.06517,42.354563],[-71.06517,42.354528],[-71.065049,42.354426],[-71.065005,42.354412],[-71.064961,42.354426],[-71.064873,42.354418],[-71.064874,42.354377],[-71.064772,42.35429],[-71.064791,42.354247],[-71.06476,42.354191],[-71.064602,42.354063],[-71.064527,42.35404],[-71.064547,42.354013],[-71.064717,42.354137],[-71.064828,42.354149],[-71.064821,42.354184],[-71.064907,42.354256],[-71.064866,42.354267],[-71.064855,42.354309],[-71.064964,42.3544],[-71.065001,42.354411],[-71.065037,42.3544],[-71.065053,42.354373],[-71.064958,42.354282],[-71.064995,42.354272],[-71.065005,42.354232],[-71.064888,42.354138],[-71.064914,42.354098],[-71.064984,42.354125],[-71.065041,42.354107],[-71.065059,42.354088],[-71.065059,42.354042],[-71.064911,42.353918],[-71.064823,42.353905],[-71.064737,42.353847],[-71.064664,42.353853],[-71.064614,42.353813],[-71.064559,42.353795],[-71.064595,42.353731],[-71.064576,42.353697],[-71.064443,42.353596],[-71.064372,42.353606],[-71.064358,42.353658],[-71.064324,42.353692],[-71.064332,42.353737],[-71.064296,42.353748],[-71.06428,42.353777],[-71.064316,42.353822],[-71.064258,42.353857],[-71.064258,42.353905],[-71.064238,42.353945],[-71.064244,42.353968],[-71.064308,42.354025],[-71.064238,42.354041],[-71.064214,42.354083],[-71.064238,42.354125],[-71.064308,42.354183],[-71.064207,42.354121],[-71.064149,42.354121],[-71.064103,42.354172],[-71.06414,42.354223],[-71.064088,42.354236],[-71.064069,42.35427],[-71.064088,42.354304],[-71.064376,42.354525],[-71.064346,42.354562],[-71.064363,42.354593],[-71.064468,42.354677],[-71.064592,42.354738],[-71.064628,42.354727],[-71.06464,42.354685],[-71.064455,42.354539],[-71.064499,42.354533],[-71.064677,42.354662],[-71.064741,42.354652],[-71.064756,42.354612],[-71.064816,42.35465],[-71.064821,42.354687],[-71.064903,42.354759],[-71.064877,42.354779],[-71.064877,42.354811],[-71.065008,42.354915],[-71.065068,42.354906],[-71.065084,42.354877],[-71.065058,42.35484],[-71.065109,42.354823],[-71.065255,42.354928],[-71.065332,42.354939],[-71.065403,42.354981],[-71.06546,42.354981],[-71.065505,42.354934],[-71.065649,42.35505],[-71.065736,42.355077],[-71.065823,42.35505],[-71.065859,42.354986]],[[-71.065091,42.3547],[-71.065082,42.354705],[-71.064991,42.354631],[-71.065091,42.3547]],[[-71.064688,42.354371],[-71.064616,42.354356],[-71.064571,42.354378],[-71.064415,42.354247],[-71.064456,42.354243],[-71.064498,42.354213],[-71.064688,42.354371]],[[-71.064616,42.354497],[-71.064582,42.354472],[-71.064593,42.354432],[-71.064616,42.354497]]],[[[-71.065858,42.354015],[-71.065749,42.353914],[-71.065715,42.353903],[-71.065681,42.353914],[-71.065568,42.353831],[-71.065511,42.353839],[-71.065374,42.353742],[-71.065322,42.353742],[-71.065285,42.35377],[-71.065285,42.353808],[-71.065415,42.353918],[-71.065518,42.353987],[-71.06556,42.353987],[-71.06559,42.353965],[-71.065619,42.353977],[-71.06563,42.354015],[-71.06574,42.354099],[-71.065793,42.354092],[-71.065803,42.354052],[-71.065844,42.354041],[-71.065858,42.354015]]],[[[-71.065843,42.348531],[-71.065826,42.3485],[-71.065721,42.348415],[-71.065659,42.348406],[-71.065642,42.348372],[-71.065534,42.348284],[-71.065466,42.348274],[-71.065433,42.348299],[-71.065446,42.348348],[-71.065555,42.348436],[-71.065622,42.348446],[-71.065639,42.348477],[-71.065744,42.348561],[-71.065807,42.348571],[-71.065843,42.348531]]],[[[-71.065776,42.348332],[-71.065723,42.348283],[-71.065692,42.348293],[-71.065745,42.348341],[-71.065776,42.348332]]],[[[-71.065643,42.351267],[-71.065583,42.351213],[-71.065552,42.351223],[-71.065612,42.351277],[-71.065643,42.351267]]],[[[-71.065643,42.348993],[-71.065593,42.348947],[-71.065562,42.348957],[-71.065611,42.349002],[-71.065643,42.348993]]],[[[-71.06564,42.349302],[-71.065529,42.349203],[-71.065491,42.349203],[-71.065465,42.349222],[-71.065476,42.349261],[-71.065573,42.349335],[-71.06561,42.349335],[-71.06564,42.349302]]],[[[-71.065607,42.34913],[-71.065557,42.349084],[-71.065526,42.349094],[-71.065575,42.349139],[-71.065607,42.34913]]],[[[-71.065596,42.348149],[-71.065543,42.3481],[-71.065512,42.34811],[-71.065565,42.348158],[-71.065596,42.348149]]],[[[-71.065548,42.348499],[-71.065476,42.348434],[-71.065437,42.348446],[-71.06551,42.348511],[-71.065548,42.348499]]],[[[-71.065514,42.348856],[-71.065403,42.348757],[-71.065365,42.348757],[-71.065339,42.348776],[-71.06535,42.348815],[-71.065447,42.348889],[-71.065484,42.348889],[-71.065514,42.348856]]],[[[-71.065492,42.354061],[-71.065473,42.354027],[-71.065269,42.35386],[-71.065201,42.35385],[-71.065168,42.353875],[-71.065181,42.353924],[-71.065381,42.354095],[-71.065452,42.354105],[-71.065492,42.354061]]],[[[-71.065476,42.349005],[-71.065385,42.348921],[-71.065346,42.348916],[-71.065327,42.34893],[-71.065335,42.348959],[-71.065415,42.349023],[-71.065454,42.349029],[-71.065476,42.349005]]],[[[-71.065473,42.349146],[-71.065349,42.349037],[-71.065311,42.349037],[-71.065285,42.349056],[-71.065296,42.349095],[-71.065405,42.349179],[-71.065443,42.349179],[-71.065473,42.349146]]],[[[-71.06542,42.351252],[-71.065363,42.3512],[-71.065332,42.35121],[-71.065388,42.351261],[-71.06542,42.351252]]],[[[-71.065353,42.354149],[-71.065336,42.354118],[-71.065142,42.353957],[-71.065071,42.353947],[-71.065036,42.353973],[-71.06505,42.354025],[-71.065254,42.354179],[-71.065317,42.354189],[-71.065353,42.354149]]],[[[-71.065316,42.351249],[-71.065263,42.3512],[-71.065232,42.35121],[-71.065285,42.351258],[-71.065316,42.351249]]],[[[-71.065245,42.350776],[-71.065168,42.350706],[-71.065126,42.350713],[-71.065126,42.350727],[-71.065201,42.35079],[-71.065229,42.350794],[-71.065245,42.350776]]],[[[-71.06522,42.35084],[-71.065143,42.35077],[-71.065101,42.350777],[-71.065101,42.350791],[-71.065176,42.350854],[-71.065204,42.350858],[-71.06522,42.35084]]],[[[-71.065204,42.354264],[-71.065187,42.354233],[-71.065063,42.354139],[-71.065019,42.354139],[-71.064987,42.354162],[-71.065,42.35421],[-71.065123,42.354304],[-71.065168,42.354304],[-71.065204,42.354264]]],[[[-71.065192,42.350903],[-71.065124,42.350843],[-71.065096,42.350843],[-71.065096,42.350863],[-71.065158,42.350913],[-71.065192,42.350903]]],[[[-71.065065,42.355111],[-71.065035,42.355057],[-71.064847,42.354915],[-71.064767,42.354915],[-71.064711,42.354957],[-71.064711,42.355015],[-71.064734,42.35504],[-71.064922,42.355182],[-71.065001,42.355182],[-71.065035,42.355165],[-71.065065,42.355111]]],[[[-71.064996,42.351352],[-71.064939,42.3513],[-71.064908,42.35131],[-71.064964,42.351361],[-71.064996,42.351352]]],[[[-71.064905,42.348495],[-71.064852,42.348446],[-71.064821,42.348456],[-71.064874,42.348504],[-71.064905,42.348495]]],[[[-71.064883,42.353658],[-71.064853,42.353606],[-71.06467,42.353467],[-71.064592,42.353467],[-71.064538,42.353508],[-71.064538,42.353564],[-71.06456,42.353589],[-71.064744,42.353727],[-71.064821,42.353727],[-71.064853,42.353711],[-71.064883,42.353658]]],[[[-71.064787,42.354836],[-71.064734,42.354787],[-71.064703,42.354797],[-71.064756,42.354845],[-71.064787,42.354836]]],[[[-71.064672,42.351865],[-71.064619,42.351816],[-71.064588,42.351826],[-71.064641,42.351874],[-71.064672,42.351865]]],[[[-71.064669,42.348464],[-71.064616,42.348415],[-71.064585,42.348425],[-71.064638,42.348473],[-71.064669,42.348464]]],[[[-71.064627,42.352154],[-71.064559,42.352094],[-71.064531,42.352094],[-71.064531,42.352114],[-71.064593,42.352164],[-71.064627,42.352154]]],[[[-71.06462,42.352097],[-71.064563,42.352045],[-71.064532,42.352055],[-71.064588,42.352106],[-71.06462,42.352097]]],[[[-71.064596,42.352199],[-71.064543,42.35215],[-71.064512,42.35216],[-71.064565,42.352208],[-71.064596,42.352199]]],[[[-71.064556,42.354777],[-71.064439,42.354666],[-71.064241,42.354527],[-71.064241,42.354481],[-71.064093,42.354357],[-71.064005,42.354344],[-71.063961,42.354376],[-71.063968,42.35443],[-71.063903,42.354482],[-71.063892,42.354523],[-71.063903,42.354564],[-71.064118,42.354748],[-71.064219,42.354779],[-71.064372,42.354915],[-71.064422,42.35493],[-71.064473,42.354915],[-71.064488,42.354898],[-71.064488,42.354857],[-71.064336,42.354735],[-71.06435,42.354719],[-71.06448,42.354815],[-71.064522,42.354815],[-71.064556,42.354777]]],[[[-71.064484,42.348438],[-71.064431,42.348389],[-71.0644,42.348399],[-71.064453,42.348447],[-71.064484,42.348438]]],[[[-71.064286,42.350964],[-71.064233,42.350915],[-71.064202,42.350925],[-71.064255,42.350973],[-71.064286,42.350964]]],[[[-71.064274,42.348773],[-71.064202,42.348708],[-71.064163,42.34872],[-71.064236,42.348785],[-71.064274,42.348773]]],[[[-71.064227,42.348887],[-71.064163,42.34883],[-71.064137,42.34883],[-71.064137,42.34885],[-71.064196,42.348897],[-71.064227,42.348887]]],[[[-71.064196,42.350953],[-71.064143,42.350904],[-71.064112,42.350914],[-71.064165,42.350962],[-71.064196,42.350953]]],[[[-71.064159,42.350976],[-71.064073,42.350897],[-71.064038,42.350892],[-71.06402,42.350905],[-71.064027,42.350931],[-71.064103,42.350993],[-71.064139,42.350998],[-71.064159,42.350976]]],[[[-71.064147,42.353347],[-71.064083,42.35329],[-71.064057,42.35329],[-71.064057,42.35331],[-71.064116,42.353357],[-71.064147,42.353347]]],[[[-71.064112,42.35344],[-71.064044,42.35338],[-71.064016,42.35338],[-71.064016,42.3534],[-71.064078,42.35345],[-71.064112,42.35344]]],[[[-71.064096,42.354815],[-71.064071,42.354771],[-71.063938,42.354663],[-71.063878,42.354645],[-71.063818,42.354663],[-71.0638,42.354683],[-71.063799,42.354727],[-71.063772,42.354739],[-71.063749,42.35478],[-71.063772,42.354821],[-71.063898,42.354923],[-71.063953,42.35494],[-71.064008,42.354923],[-71.064031,42.354882],[-71.064089,42.354839],[-71.064096,42.354815]]],[[[-71.064072,42.35333],[-71.064008,42.353273],[-71.063982,42.353273],[-71.063982,42.353293],[-71.064041,42.35334],[-71.064072,42.35333]]],[[[-71.064057,42.353807],[-71.063993,42.35375],[-71.063967,42.35375],[-71.063967,42.35377],[-71.064026,42.353817],[-71.064057,42.353807]]],[[[-71.064056,42.350971],[-71.063962,42.350883],[-71.063919,42.350876],[-71.063898,42.350892],[-71.063906,42.350923],[-71.06399,42.350991],[-71.064032,42.350997],[-71.064056,42.350971]]],[[[-71.064047,42.353436],[-71.063979,42.353376],[-71.06391,42.353361],[-71.063892,42.353374],[-71.063956,42.353431],[-71.064027,42.353451],[-71.064047,42.353436]]],[[[-71.064008,42.353321],[-71.063936,42.353256],[-71.063897,42.353268],[-71.06397,42.353333],[-71.064008,42.353321]]],[[[-71.063999,42.354029],[-71.063913,42.35395],[-71.063878,42.353945],[-71.06386,42.353958],[-71.063867,42.353984],[-71.063943,42.354046],[-71.063979,42.354051],[-71.063999,42.354029]]],[[[-71.063978,42.348725],[-71.06391,42.348665],[-71.063882,42.348665],[-71.063882,42.348685],[-71.063944,42.348735],[-71.063978,42.348725]]],[[[-71.063958,42.348796],[-71.063886,42.348731],[-71.063847,42.348743],[-71.06392,42.348808],[-71.063958,42.348796]]],[[[-71.063942,42.34892],[-71.063874,42.34886],[-71.063846,42.34886],[-71.063846,42.34888],[-71.063908,42.34893],[-71.063942,42.34892]]],[[[-71.063921,42.348832],[-71.063868,42.348783],[-71.063837,42.348793],[-71.06389,42.348841],[-71.063921,42.348832]]],[[[-71.063885,42.354176],[-71.063808,42.354106],[-71.063766,42.354113],[-71.063766,42.354127],[-71.063841,42.35419],[-71.063869,42.354194],[-71.063885,42.354176]]],[[[-71.063869,42.349187],[-71.063816,42.349138],[-71.063785,42.349148],[-71.063838,42.349196],[-71.063869,42.349187]]],[[[-71.063856,42.348466],[-71.063803,42.348417],[-71.063772,42.348427],[-71.063825,42.348475],[-71.063856,42.348466]]],[[[-71.063816,42.349332],[-71.063763,42.349283],[-71.063732,42.349293],[-71.063785,42.349341],[-71.063816,42.349332]]],[[[-71.063803,42.349374],[-71.06375,42.349325],[-71.063719,42.349335],[-71.063772,42.349383],[-71.063803,42.349374]]],[[[-71.063784,42.350945],[-71.063698,42.350866],[-71.063663,42.350861],[-71.063645,42.350874],[-71.063652,42.3509],[-71.063728,42.350962],[-71.063764,42.350967],[-71.063784,42.350945]]],[[[-71.063766,42.348449],[-71.063713,42.3484],[-71.063682,42.34841],[-71.063735,42.348458],[-71.063766,42.348449]]],[[[-71.063752,42.34981],[-71.063684,42.34975],[-71.063656,42.34975],[-71.063656,42.34977],[-71.063718,42.34982],[-71.063752,42.34981]]],[[[-71.063691,42.349901],[-71.063627,42.349844],[-71.063601,42.349844],[-71.063601,42.349864],[-71.06366,42.349911],[-71.063691,42.349901]]],[[[-71.063678,42.350929],[-71.063606,42.350864],[-71.063568,42.350874],[-71.06352,42.350845],[-71.063496,42.350857],[-71.063496,42.350871],[-71.063571,42.350934],[-71.063613,42.350927],[-71.063656,42.350946],[-71.063678,42.350929]]],[[[-71.06365,42.354766],[-71.063539,42.354667],[-71.063501,42.354667],[-71.063475,42.354686],[-71.063486,42.354725],[-71.063583,42.354799],[-71.06362,42.354799],[-71.06365,42.354766]]],[[[-71.063642,42.35],[-71.063574,42.34994],[-71.063546,42.34994],[-71.063546,42.34996],[-71.063608,42.35001],[-71.063642,42.35]]],[[[-71.063607,42.350047],[-71.063543,42.34999],[-71.063517,42.34999],[-71.063517,42.35001],[-71.063576,42.350057],[-71.063607,42.350047]]],[[[-71.06359,42.354866],[-71.063479,42.354767],[-71.063441,42.354767],[-71.063415,42.354786],[-71.063426,42.354825],[-71.063523,42.354899],[-71.06356,42.354899],[-71.06359,42.354866]]],[[[-71.063517,42.350465],[-71.063453,42.350408],[-71.063427,42.350408],[-71.063427,42.350428],[-71.063486,42.350475],[-71.063517,42.350465]]],[[[-71.063513,42.350224],[-71.063453,42.35017],[-71.063422,42.35018],[-71.063482,42.350234],[-71.063513,42.350224]]],[[[-71.063489,42.350531],[-71.063429,42.350477],[-71.063398,42.350487],[-71.063458,42.350541],[-71.063489,42.350531]]],[[[-71.063483,42.35029],[-71.063423,42.350236],[-71.063392,42.350246],[-71.063452,42.3503],[-71.063483,42.35029]]],[[[-71.063458,42.350324],[-71.063398,42.35027],[-71.063367,42.35028],[-71.063427,42.350334],[-71.063458,42.350324]]],[[[-71.063456,42.350824],[-71.063365,42.350745],[-71.063325,42.350765],[-71.063368,42.350808],[-71.063336,42.350819],[-71.063336,42.350833],[-71.063411,42.350896],[-71.063453,42.350889],[-71.063417,42.350844],[-71.063456,42.350824]]],[[[-71.063455,42.350592],[-71.063398,42.35054],[-71.063367,42.35055],[-71.063423,42.350601],[-71.063455,42.350592]]],[[[-71.063432,42.350754],[-71.063364,42.350694],[-71.063336,42.350694],[-71.063336,42.350714],[-71.063398,42.350764],[-71.063432,42.350754]]],[[[-71.06342,42.350652],[-71.063363,42.3506],[-71.063332,42.35061],[-71.063388,42.350661],[-71.06342,42.350652]]],[[[-71.06338,42.350482],[-71.063323,42.35043],[-71.063292,42.35044],[-71.063348,42.350491],[-71.06338,42.350482]]],[[[-71.063353,42.350527],[-71.063293,42.350473],[-71.063262,42.350483],[-71.063322,42.350537],[-71.063353,42.350527]]],[[[-71.063328,42.35058],[-71.063268,42.350526],[-71.063237,42.350536],[-71.063297,42.35059],[-71.063328,42.35058]]],[[[-71.063307,42.350629],[-71.063243,42.350572],[-71.063217,42.350572],[-71.063217,42.350592],[-71.063276,42.350639],[-71.063307,42.350629]]],[[[-71.063287,42.350677],[-71.063223,42.35062],[-71.063197,42.35062],[-71.063197,42.35064],[-71.063256,42.350687],[-71.063287,42.350677]]],[[[-71.063243,42.350713],[-71.063193,42.350667],[-71.063162,42.350677],[-71.063211,42.350722],[-71.063243,42.350713]]],[[[-71.063233,42.350771],[-71.063173,42.350717],[-71.063142,42.350727],[-71.063202,42.350781],[-71.063233,42.350771]]],[[[-71.063212,42.350815],[-71.063144,42.350755],[-71.063116,42.350755],[-71.063116,42.350775],[-71.063178,42.350825],[-71.063212,42.350815]]],[[[-71.063196,42.35228],[-71.063139,42.352228],[-71.063108,42.352238],[-71.063164,42.352289],[-71.063196,42.35228]]],[[[-71.063135,42.352292],[-71.063078,42.35224],[-71.063047,42.35225],[-71.063103,42.352301],[-71.063135,42.352292]]],[[[-71.063035,42.352295],[-71.062917,42.35221],[-71.062886,42.35222],[-71.063003,42.352304],[-71.063035,42.352295]]],[[[-71.0629,42.352257],[-71.062843,42.352205],[-71.062812,42.352215],[-71.062868,42.352266],[-71.0629,42.352257]]],[[[-71.062892,42.353352],[-71.062824,42.353292],[-71.062796,42.353292],[-71.062796,42.353312],[-71.062858,42.353362],[-71.062892,42.353352]]],[[[-71.062892,42.353264],[-71.062824,42.353204],[-71.062796,42.353204],[-71.062796,42.353224],[-71.062858,42.353274],[-71.062892,42.353264]]],[[[-71.062828,42.353359],[-71.062756,42.353294],[-71.062717,42.353306],[-71.06279,42.353371],[-71.062828,42.353359]]],[[[-71.062826,42.353257],[-71.062758,42.353197],[-71.06273,42.353197],[-71.06273,42.353217],[-71.062792,42.353267],[-71.062826,42.353257]]],[[[-71.062632,42.348413],[-71.062541,42.348334],[-71.062501,42.348354],[-71.062592,42.348433],[-71.062632,42.348413]]],[[[-71.062583,42.349443],[-71.06247,42.349344],[-71.062438,42.349344],[-71.062366,42.349294],[-71.062311,42.349311],[-71.06232,42.349345],[-71.062421,42.349422],[-71.062453,42.349422],[-71.062541,42.349475],[-71.062571,42.349466],[-71.062583,42.349443]]],[[[-71.062528,42.34861],[-71.062456,42.348545],[-71.062417,42.348557],[-71.06249,42.348622],[-71.062528,42.34861]]],[[[-71.062492,42.348441],[-71.062398,42.348353],[-71.062355,42.348346],[-71.062334,42.348362],[-71.062342,42.348393],[-71.062426,42.348461],[-71.062468,42.348467],[-71.062492,42.348441]]],[[[-71.062102,42.353802],[-71.062034,42.353742],[-71.062006,42.353742],[-71.062006,42.353762],[-71.062068,42.353812],[-71.062102,42.353802]]],[[[-71.062054,42.349345],[-71.062001,42.349296],[-71.06197,42.349306],[-71.062023,42.349354],[-71.062054,42.349345]]],[[[-71.062036,42.353899],[-71.061983,42.35385],[-71.061876,42.353815],[-71.061742,42.353728],[-71.061711,42.353738],[-71.061764,42.353786],[-71.06179,42.353786],[-71.061845,42.353831],[-71.061871,42.353831],[-71.061938,42.353885],[-71.062018,42.353912],[-71.062036,42.353899]]],[[[-71.062022,42.349614],[-71.061911,42.349515],[-71.061873,42.349515],[-71.061847,42.349534],[-71.061858,42.349573],[-71.061955,42.349647],[-71.061992,42.349647],[-71.062022,42.349614]]],[[[-71.061999,42.349477],[-71.061946,42.349428],[-71.061915,42.349438],[-71.061968,42.349486],[-71.061999,42.349477]]],[[[-71.061987,42.35375],[-71.061919,42.35369],[-71.061891,42.35369],[-71.061744,42.353582],[-71.06171,42.353571],[-71.061676,42.353582],[-71.06161,42.353537],[-71.061592,42.35355],[-71.061757,42.353698],[-71.061882,42.353713],[-71.061967,42.353765],[-71.061987,42.35375]]],[[[-71.061976,42.349919],[-71.061923,42.34987],[-71.061892,42.34988],[-71.061945,42.349928],[-71.061976,42.349919]]],[[[-71.061946,42.349965],[-71.061893,42.349916],[-71.061862,42.349926],[-71.061915,42.349974],[-71.061946,42.349965]]],[[[-71.061942,42.348385],[-71.061823,42.348281],[-71.061789,42.348281],[-71.061764,42.348299],[-71.061774,42.348336],[-71.061879,42.348416],[-71.061914,42.348416],[-71.061942,42.348385]]],[[[-71.06194,42.350039],[-71.061887,42.34999],[-71.061856,42.35],[-71.061909,42.350048],[-71.06194,42.350039]]],[[[-71.061916,42.350083],[-71.061863,42.350034],[-71.061832,42.350044],[-71.061885,42.350092],[-71.061916,42.350083]]],[[[-71.061886,42.350119],[-71.061833,42.35007],[-71.061802,42.35008],[-71.061855,42.350128],[-71.061886,42.350119]]],[[[-71.061872,42.35036],[-71.061778,42.350272],[-71.06175,42.350263],[-71.061722,42.350272],[-71.061711,42.350292],[-71.061722,42.350312],[-71.061688,42.350322],[-71.061675,42.350346],[-71.061778,42.350443],[-71.061811,42.350453],[-71.061852,42.350432],[-71.061852,42.350406],[-71.061834,42.350388],[-71.061872,42.35036]]],[[[-71.061869,42.350191],[-71.061819,42.350145],[-71.061788,42.350155],[-71.061837,42.3502],[-71.061869,42.350191]]],[[[-71.061847,42.349732],[-71.061736,42.349633],[-71.061698,42.349633],[-71.061672,42.349652],[-71.061683,42.349691],[-71.06178,42.349765],[-71.061817,42.349765],[-71.061847,42.349732]]],[[[-71.061846,42.350239],[-71.061793,42.35019],[-71.061762,42.3502],[-71.061815,42.350248],[-71.061846,42.350239]]],[[[-71.061818,42.34846],[-71.061765,42.348411],[-71.061734,42.348421],[-71.061787,42.348469],[-71.061818,42.34846]]],[[[-71.061779,42.348718],[-71.061666,42.348619],[-71.061611,42.348636],[-71.06162,42.34867],[-71.061721,42.348747],[-71.061753,42.348747],[-71.061779,42.348718]]],[[[-71.061746,42.348379],[-71.061629,42.348268],[-71.061572,42.348259],[-71.061575,42.34822],[-71.061454,42.348118],[-71.061386,42.348108],[-71.061353,42.348133],[-71.061353,42.348167],[-71.061418,42.348224],[-71.06139,42.348239],[-71.06139,42.348257],[-71.061473,42.348327],[-71.061519,42.348327],[-71.061526,42.348301],[-71.061505,42.348281],[-71.06154,42.34828],[-71.061551,42.348326],[-71.06167,42.348417],[-71.061712,42.348417],[-71.061746,42.348379]]],[[[-71.061658,42.348876],[-71.061605,42.348827],[-71.061574,42.348837],[-71.061627,42.348885],[-71.061658,42.348876]]],[[[-71.061656,42.348539],[-71.061603,42.34849],[-71.061572,42.3485],[-71.061625,42.348548],[-71.061656,42.348539]]],[[[-71.061656,42.348743],[-71.061537,42.348639],[-71.061503,42.348639],[-71.061478,42.348657],[-71.061488,42.348694],[-71.061593,42.348774],[-71.061628,42.348774],[-71.061656,42.348743]]],[[[-71.061652,42.348228],[-71.061592,42.348174],[-71.061561,42.348184],[-71.061621,42.348238],[-71.061652,42.348228]]],[[[-71.061629,42.349634],[-71.061518,42.349535],[-71.06148,42.349535],[-71.061401,42.349498],[-71.061356,42.34952],[-71.061367,42.349559],[-71.061464,42.349633],[-71.061501,42.349633],[-71.06158,42.34967],[-71.061615,42.349659],[-71.061629,42.349634]]],[[[-71.061589,42.348924],[-71.061476,42.348825],[-71.061421,42.348842],[-71.06143,42.348876],[-71.061531,42.348953],[-71.061563,42.348953],[-71.061589,42.348924]]],[[[-71.061558,42.351003],[-71.061486,42.350938],[-71.061447,42.35095],[-71.06152,42.351015],[-71.061558,42.351003]]],[[[-71.061493,42.349299],[-71.061433,42.349245],[-71.061402,42.349255],[-71.061462,42.349309],[-71.061493,42.349299]]],[[[-71.061466,42.351161],[-71.061413,42.351112],[-71.061382,42.351122],[-71.061435,42.35117],[-71.061466,42.351161]]],[[[-71.061462,42.349102],[-71.061394,42.349042],[-71.061366,42.349042],[-71.061366,42.349062],[-71.061428,42.349112],[-71.061462,42.349102]]],[[[-71.061445,42.351219],[-71.061392,42.35117],[-71.061361,42.35118],[-71.061414,42.351228],[-71.061445,42.351219]]],[[[-71.061422,42.349287],[-71.061331,42.349208],[-71.061291,42.349228],[-71.061382,42.349307],[-71.061422,42.349287]]],[[[-71.061419,42.351279],[-71.061366,42.35123],[-71.061335,42.35124],[-71.061388,42.351288],[-71.061419,42.351279]]],[[[-71.061416,42.349469],[-71.061363,42.34942],[-71.061332,42.34943],[-71.061385,42.349478],[-71.061416,42.349469]]],[[[-71.0614,42.351328],[-71.061347,42.351279],[-71.061316,42.351289],[-71.061369,42.351337],[-71.0614,42.351328]]],[[[-71.061334,42.349672],[-71.061277,42.34962],[-71.061246,42.34963],[-71.061302,42.349681],[-71.061334,42.349672]]],[[[-71.061313,42.34972],[-71.061256,42.349668],[-71.061225,42.349678],[-71.061281,42.349729],[-71.061313,42.34972]]],[[[-71.061309,42.3499],[-71.061196,42.349801],[-71.061141,42.349818],[-71.06115,42.349852],[-71.061251,42.349929],[-71.061283,42.349929],[-71.061309,42.3499]]],[[[-71.061292,42.353409],[-71.061239,42.35336],[-71.061107,42.35331],[-71.061043,42.353265],[-71.061012,42.353275],[-71.061072,42.353329],[-71.061098,42.353329],[-71.061261,42.353418],[-71.061292,42.353409]]],[[[-71.061286,42.354813],[-71.061233,42.354764],[-71.061202,42.354774],[-71.061255,42.354822],[-71.061286,42.354813]]],[[[-71.061254,42.350109],[-71.061238,42.350082],[-71.061124,42.349995],[-71.061084,42.349995],[-71.061056,42.350015],[-71.061067,42.350057],[-71.061182,42.350145],[-71.061222,42.350145],[-71.061254,42.350109]]],[[[-71.061236,42.354955],[-71.061183,42.354906],[-71.061152,42.354916],[-71.061205,42.354964],[-71.061236,42.354955]]],[[[-71.06113,42.348681],[-71.061114,42.348654],[-71.061,42.348567],[-71.06096,42.348567],[-71.060932,42.348587],[-71.060943,42.348629],[-71.061058,42.348717],[-71.061098,42.348717],[-71.06113,42.348681]]],[[[-71.061106,42.348799],[-71.06109,42.34877],[-71.060971,42.348679],[-71.060929,42.348679],[-71.060899,42.348701],[-71.060911,42.348746],[-71.06103,42.348837],[-71.061072,42.348837],[-71.061106,42.348799]]],[[[-71.061086,42.348529],[-71.061033,42.34848],[-71.061002,42.34849],[-71.061055,42.348538],[-71.061086,42.348529]]],[[[-71.061036,42.353402],[-71.060918,42.35332],[-71.060892,42.35332],[-71.060844,42.353289],[-71.060826,42.353302],[-71.060879,42.35335],[-71.060905,42.35335],[-71.061005,42.353411],[-71.061036,42.353402]]],[[[-71.061029,42.348897],[-71.060916,42.348798],[-71.060861,42.348815],[-71.06087,42.348849],[-71.060971,42.348926],[-71.061003,42.348926],[-71.061029,42.348897]]],[[[-71.060986,42.353259],[-71.060933,42.35321],[-71.060902,42.35322],[-71.060955,42.353268],[-71.060986,42.353259]]],[[[-71.060966,42.34927],[-71.060946,42.349233],[-71.060803,42.349125],[-71.060749,42.349125],[-71.06071,42.349154],[-71.06071,42.349194],[-71.060725,42.349211],[-71.060868,42.349319],[-71.060922,42.349319],[-71.060966,42.34927]]],[[[-71.060814,42.349456],[-71.060703,42.349357],[-71.060665,42.349357],[-71.060639,42.349376],[-71.06065,42.349415],[-71.060747,42.349489],[-71.060784,42.349489],[-71.060814,42.349456]]],[[[-71.060789,42.349582],[-71.060665,42.349473],[-71.060627,42.349473],[-71.060601,42.349492],[-71.060612,42.349531],[-71.060721,42.349615],[-71.060759,42.349615],[-71.060789,42.349582]]],[[[-71.060703,42.349746],[-71.060594,42.349645],[-71.060547,42.349629],[-71.060499,42.34959],[-71.060473,42.34959],[-71.060473,42.34961],[-71.060521,42.349648],[-71.06047,42.349627],[-71.060457,42.34965],[-71.06062,42.349772],[-71.060673,42.349779],[-71.060703,42.349746]]],[[[-71.06068,42.349871],[-71.060664,42.349844],[-71.06055,42.349757],[-71.06051,42.349757],[-71.060482,42.349777],[-71.060493,42.349819],[-71.060608,42.349907],[-71.060648,42.349907],[-71.06068,42.349871]]],[[[-71.060676,42.349299],[-71.060623,42.34925],[-71.060592,42.34926],[-71.060645,42.349308],[-71.060676,42.349299]]],[[[-71.060656,42.349339],[-71.060603,42.34929],[-71.060572,42.3493],[-71.060625,42.349348],[-71.060656,42.349339]]],[[[-71.060646,42.353079],[-71.060513,42.352987],[-71.06045,42.352961],[-71.060432,42.352974],[-71.060488,42.353025],[-71.060561,42.353045],[-71.060615,42.353088],[-71.060646,42.353079]]],[[[-71.060636,42.349381],[-71.060583,42.349332],[-71.060552,42.349342],[-71.060605,42.34939],[-71.060636,42.349381]]],[[[-71.060606,42.349446],[-71.060553,42.349397],[-71.060522,42.349407],[-71.060575,42.349455],[-71.060606,42.349446]]],[[[-71.0606,42.349495],[-71.060543,42.349443],[-71.060512,42.349453],[-71.060568,42.349504],[-71.0606,42.349495]]],[[[-71.06059,42.349545],[-71.060533,42.349493],[-71.060502,42.349503],[-71.060558,42.349554],[-71.06059,42.349545]]],[[[-71.06056,42.353325],[-71.060503,42.353273],[-71.060472,42.353283],[-71.060528,42.353334],[-71.06056,42.353325]]],[[[-71.060552,42.353189],[-71.060423,42.35309],[-71.060343,42.35306],[-71.060343,42.35308],[-71.060391,42.353118],[-71.060468,42.35315],[-71.060521,42.353198],[-71.060552,42.353189]]],[[[-71.060552,42.349595],[-71.060499,42.349546],[-71.060468,42.349556],[-71.060521,42.349604],[-71.060552,42.349595]]],[[[-71.060502,42.353473],[-71.060461,42.353428],[-71.060461,42.353409],[-71.060413,42.35337],[-71.060344,42.353394],[-71.060352,42.353425],[-71.060436,42.353493],[-71.060478,42.353499],[-71.060502,42.353473]]],[[[-71.06044,42.349926],[-71.060383,42.349874],[-71.060352,42.349884],[-71.060408,42.349935],[-71.06044,42.349926]]],[[[-71.060406,42.353486],[-71.060353,42.353437],[-71.060322,42.353447],[-71.060375,42.353495],[-71.060406,42.353486]]],[[[-71.060395,42.350216],[-71.060337,42.350155],[-71.060341,42.350134],[-71.060293,42.350095],[-71.060267,42.350095],[-71.060267,42.350114],[-71.06022,42.350136],[-71.060231,42.350175],[-71.060328,42.350249],[-71.060365,42.350249],[-71.060395,42.350216]]],[[[-71.060366,42.350076],[-71.060313,42.350027],[-71.060282,42.350037],[-71.060335,42.350085],[-71.060366,42.350076]]],[[[-71.060257,42.349538],[-71.060163,42.34945],[-71.06012,42.349443],[-71.060099,42.349459],[-71.060107,42.34949],[-71.060191,42.349558],[-71.060233,42.349564],[-71.060257,42.349538]]],[[[-71.060206,42.353001],[-71.060153,42.352952],[-71.060122,42.352962],[-71.060175,42.35301],[-71.060206,42.353001]]],[[[-71.060196,42.353483],[-71.060077,42.353379],[-71.060043,42.353379],[-71.060018,42.353397],[-71.060028,42.353434],[-71.060133,42.353514],[-71.060168,42.353514],[-71.060196,42.353483]]],[[[-71.060192,42.349615],[-71.060101,42.349536],[-71.060061,42.349556],[-71.060152,42.349635],[-71.060192,42.349615]]],[[[-71.060166,42.349709],[-71.060075,42.349625],[-71.060036,42.34962],[-71.060017,42.349634],[-71.060025,42.349663],[-71.060105,42.349727],[-71.060144,42.349733],[-71.060166,42.349709]]],[[[-71.060059,42.351114],[-71.059946,42.351015],[-71.059891,42.351032],[-71.0599,42.351066],[-71.060001,42.351143],[-71.060033,42.351143],[-71.060059,42.351114]]],[[[-71.05997,42.351191],[-71.059893,42.351121],[-71.059851,42.351128],[-71.059851,42.351142],[-71.059926,42.351205],[-71.059954,42.351209],[-71.05997,42.351191]]],[[[-71.059909,42.35333],[-71.059796,42.353231],[-71.059741,42.353248],[-71.05975,42.353282],[-71.059851,42.353359],[-71.059883,42.353359],[-71.059909,42.35333]]],[[[-71.05981,42.352795],[-71.059753,42.352743],[-71.059722,42.352753],[-71.059778,42.352804],[-71.05981,42.352795]]],[[[-71.059742,42.355013],[-71.059389,42.354714],[-71.05935,42.354709],[-71.059331,42.354723],[-71.059331,42.354743],[-71.059377,42.354791],[-71.059643,42.354999],[-71.059713,42.355034],[-71.059742,42.355013]]],[[[-71.05974,42.352779],[-71.059683,42.352727],[-71.059652,42.352737],[-71.059616,42.352717],[-71.059598,42.35273],[-71.059654,42.352781],[-71.059686,42.352772],[-71.059721,42.352792],[-71.05974,42.352779]]],[[[-71.05973,42.351776],[-71.059634,42.351685],[-71.059629,42.351645],[-71.059553,42.351583],[-71.059518,42.351578],[-71.0595,42.351591],[-71.059507,42.351617],[-71.059581,42.351677],[-71.059551,42.35171],[-71.059525,42.351696],[-71.059506,42.35171],[-71.059573,42.35177],[-71.059681,42.351812],[-71.059716,42.351801],[-71.05973,42.351776]]],[[[-71.05967,42.352849],[-71.059559,42.35275],[-71.059521,42.35275],[-71.059495,42.352769],[-71.059506,42.352808],[-71.059603,42.352882],[-71.05964,42.352882],[-71.05967,42.352849]]],[[[-71.059566,42.351136],[-71.059513,42.351087],[-71.059482,42.351097],[-71.059535,42.351145],[-71.059566,42.351136]]],[[[-71.059526,42.351209],[-71.059473,42.35116],[-71.059442,42.35117],[-71.059495,42.351218],[-71.059526,42.351209]]],[[[-71.059525,42.351683],[-71.059448,42.351613],[-71.059406,42.35162],[-71.059406,42.351634],[-71.059481,42.351697],[-71.059509,42.351701],[-71.059525,42.351683]]],[[[-71.059476,42.353139],[-71.059423,42.35309],[-71.059392,42.3531],[-71.059445,42.353148],[-71.059476,42.353139]]],[[[-71.059466,42.353049],[-71.059413,42.353],[-71.059382,42.35301],[-71.059435,42.353058],[-71.059466,42.353049]]],[[[-71.059452,42.351757],[-71.05938,42.351692],[-71.059341,42.351704],[-71.059414,42.351769],[-71.059452,42.351757]]],[[[-71.059388,42.351833],[-71.059316,42.351768],[-71.059277,42.35178],[-71.05935,42.351845],[-71.059388,42.351833]]],[[[-71.059313,42.351366],[-71.059234,42.351272],[-71.059144,42.351205],[-71.059091,42.351197],[-71.059065,42.351216],[-71.059065,42.351244],[-71.059136,42.351315],[-71.059095,42.351343],[-71.059095,42.351371],[-71.0592,42.351459],[-71.059234,42.351469],[-71.059269,42.351459],[-71.059283,42.351433],[-71.059269,42.351408],[-71.059313,42.351366]]],[[[-71.059232,42.353333],[-71.059179,42.353284],[-71.059148,42.353294],[-71.059201,42.353342],[-71.059232,42.353333]]],[[[-71.059169,42.354447],[-71.059083,42.354368],[-71.058954,42.35428],[-71.058926,42.35428],[-71.058926,42.3543],[-71.05903,42.354376],[-71.059037,42.354402],[-71.059113,42.354464],[-71.059149,42.354469],[-71.059169,42.354447]]],[[[-71.059146,42.351499],[-71.059093,42.35145],[-71.059062,42.35146],[-71.059115,42.351508],[-71.059146,42.351499]]],[[[-71.059136,42.353326],[-71.059083,42.353277],[-71.059052,42.353287],[-71.059105,42.353335],[-71.059136,42.353326]]],[[[-71.059135,42.351573],[-71.059058,42.351503],[-71.059016,42.35151],[-71.059016,42.351524],[-71.059091,42.351587],[-71.059119,42.351591],[-71.059135,42.351573]]],[[[-71.059086,42.351669],[-71.058995,42.351585],[-71.058956,42.35158],[-71.058937,42.351594],[-71.058945,42.351623],[-71.059025,42.351687],[-71.059064,42.351693],[-71.059086,42.351669]]],[[[-71.059046,42.353322],[-71.058993,42.353273],[-71.058962,42.353283],[-71.059015,42.353331],[-71.059046,42.353322]]],[[[-71.059003,42.35169],[-71.058943,42.351636],[-71.058912,42.351646],[-71.058972,42.3517],[-71.059003,42.35169]]],[[[-71.058999,42.351752],[-71.058913,42.351673],[-71.05889,42.351666],[-71.05886,42.351681],[-71.058867,42.351707],[-71.058943,42.351769],[-71.058979,42.351774],[-71.058999,42.351752]]],[[[-71.058966,42.351803],[-71.058875,42.351719],[-71.058836,42.351714],[-71.058817,42.351728],[-71.058825,42.351757],[-71.058905,42.351821],[-71.058944,42.351827],[-71.058966,42.351803]]],[[[-71.058916,42.351845],[-71.058825,42.351761],[-71.058786,42.351756],[-71.058767,42.35177],[-71.058775,42.351799],[-71.058855,42.351863],[-71.058894,42.351869],[-71.058916,42.351845]]],[[[-71.058912,42.353307],[-71.058859,42.353258],[-71.058828,42.353268],[-71.058881,42.353316],[-71.058912,42.353307]]],[[[-71.058838,42.351913],[-71.058813,42.351881],[-71.058824,42.351858],[-71.058773,42.351816],[-71.058701,42.351818],[-71.05868,42.351834],[-71.058688,42.351865],[-71.058772,42.351933],[-71.058814,42.351939],[-71.058838,42.351913]]],[[[-71.058806,42.353307],[-71.058753,42.353258],[-71.058722,42.353268],[-71.058775,42.353316],[-71.058806,42.353307]]],[[[-71.058769,42.351968],[-71.058672,42.351884],[-71.058637,42.351889],[-71.05863,42.351915],[-71.058597,42.35193],[-71.058686,42.352],[-71.058708,42.351983],[-71.058749,42.35199],[-71.058769,42.351968]]],[[[-71.058686,42.352079],[-71.058631,42.352019],[-71.058645,42.352001],[-71.05858,42.351954],[-71.058491,42.351968],[-71.058451,42.352018],[-71.058451,42.352042],[-71.058392,42.35206],[-71.058408,42.352098],[-71.058531,42.352181],[-71.058563,42.352171],[-71.058573,42.352134],[-71.058652,42.352117],[-71.058686,42.352079]]],[[[-71.058616,42.352569],[-71.058494,42.35247],[-71.058466,42.35247],[-71.058466,42.35249],[-71.058492,42.352511],[-71.058477,42.352514],[-71.058477,42.352534],[-71.058525,42.352572],[-71.058556,42.352563],[-71.05854,42.352544],[-71.058585,42.352578],[-71.058616,42.352569]]],[[[-71.05848,42.35257],[-71.058426,42.352521],[-71.058435,42.352504],[-71.058383,42.35246],[-71.058357,42.35246],[-71.058357,42.35248],[-71.058402,42.352516],[-71.058393,42.352533],[-71.058448,42.352579],[-71.05848,42.35257]]],[[[-71.05844,42.352139],[-71.058383,42.352087],[-71.058352,42.352097],[-71.058408,42.352148],[-71.05844,42.352139]]],[[[-71.058396,42.352559],[-71.058273,42.352457],[-71.058247,42.352457],[-71.058247,42.352477],[-71.058365,42.352568],[-71.058396,42.352559]]],[[[-71.058336,42.350949],[-71.058283,42.3509],[-71.058252,42.350909],[-71.0582,42.350874],[-71.058182,42.350887],[-71.058235,42.350935],[-71.058266,42.350927],[-71.058318,42.350962],[-71.058336,42.350949]]],[[[-71.058316,42.352551],[-71.058263,42.352502],[-71.058232,42.352512],[-71.058285,42.35256],[-71.058316,42.352551]]],[[[-71.058086,42.352704],[-71.058033,42.352655],[-71.058002,42.352665],[-71.058055,42.352713],[-71.058086,42.352704]]],[[[-71.05808,42.352807],[-71.058027,42.352758],[-71.057996,42.352768],[-71.058049,42.352816],[-71.05808,42.352807]]],[[[-71.058056,42.352944],[-71.058003,42.352895],[-71.057972,42.352905],[-71.058025,42.352953],[-71.058056,42.352944]]],[[[-71.057851,42.350732],[-71.057798,42.350683],[-71.05774,42.350664],[-71.057722,42.350677],[-71.057775,42.350725],[-71.057833,42.350745],[-71.057851,42.350732]]],[[[-71.057819,42.352282],[-71.057742,42.352212],[-71.0577,42.352219],[-71.0577,42.352233],[-71.057775,42.352296],[-71.057803,42.3523],[-71.057819,42.352282]]],[[[-71.057696,42.352249],[-71.057605,42.35217],[-71.057573,42.352175],[-71.05751,42.352141],[-71.057486,42.352153],[-71.05743,42.352121],[-71.057407,42.352132],[-71.057351,42.35209],[-71.057311,42.35211],[-71.057402,42.352189],[-71.05744,42.352176],[-71.057481,42.35221],[-71.057523,42.352203],[-71.057579,42.352235],[-71.0576,42.352227],[-71.057656,42.352269],[-71.057696,42.352249]]],[[[-71.057462,42.350442],[-71.057409,42.350393],[-71.057378,42.350403],[-71.057431,42.350451],[-71.057462,42.350442]]],[[[-71.057446,42.350533],[-71.057393,42.350484],[-71.057362,42.350494],[-71.057415,42.350542],[-71.057446,42.350533]]],[[[-71.0574,42.351749],[-71.057343,42.351697],[-71.057312,42.351707],[-71.057368,42.351758],[-71.0574,42.351749]]],[[[-71.057386,42.351789],[-71.057333,42.35174],[-71.057302,42.35175],[-71.057355,42.351798],[-71.057386,42.351789]]],[[[-71.057357,42.351936],[-71.057304,42.351887],[-71.057273,42.351897],[-71.057326,42.351945],[-71.057357,42.351936]]],[[[-71.057353,42.350969],[-71.057293,42.350915],[-71.057262,42.350925],[-71.057322,42.350979],[-71.057353,42.350969]]],[[[-71.057343,42.351991],[-71.057293,42.351945],[-71.057262,42.351955],[-71.057311,42.352],[-71.057343,42.351991]]],[[[-71.057323,42.351107],[-71.057263,42.351053],[-71.057232,42.351063],[-71.057292,42.351117],[-71.057323,42.351107]]],[[[-71.057256,42.351449],[-71.057203,42.3514],[-71.057172,42.35141],[-71.057225,42.351458],[-71.057256,42.351449]]],[[[-71.057246,42.350589],[-71.057193,42.35054],[-71.057162,42.35055],[-71.057215,42.350598],[-71.057246,42.350589]]],[[[-71.057195,42.350671],[-71.057142,42.350622],[-71.057111,42.350632],[-71.057164,42.35068],[-71.057195,42.350671]]],[[[-71.057142,42.350572],[-71.057089,42.350523],[-71.057058,42.350533],[-71.057111,42.350581],[-71.057142,42.350572]]],[[[-71.057099,42.349965],[-71.057013,42.349886],[-71.056978,42.349881],[-71.05696,42.349894],[-71.056967,42.34992],[-71.057043,42.349982],[-71.057079,42.349987],[-71.057099,42.349965]]],[[[-71.057086,42.349879],[-71.057033,42.34983],[-71.057002,42.34984],[-71.057055,42.349888],[-71.057086,42.349879]]],[[[-71.056927,42.352075],[-71.056863,42.352018],[-71.056837,42.352018],[-71.056837,42.352038],[-71.056896,42.352085],[-71.056927,42.352075]]],[[[-71.056912,42.349828],[-71.056818,42.34974],[-71.056775,42.349733],[-71.056754,42.349749],[-71.056762,42.34978],[-71.056846,42.349848],[-71.056888,42.349854],[-71.056912,42.349828]]],[[[-71.056882,42.350269],[-71.056829,42.35022],[-71.056798,42.35023],[-71.056851,42.350278],[-71.056882,42.350269]]],[[[-71.056869,42.349902],[-71.056783,42.349823],[-71.056748,42.349818],[-71.05673,42.349831],[-71.056737,42.349857],[-71.056813,42.349919],[-71.056849,42.349924],[-71.056869,42.349902]]],[[[-71.056855,42.349981],[-71.056744,42.349882],[-71.056706,42.349882],[-71.05668,42.349901],[-71.056691,42.34994],[-71.056788,42.350014],[-71.056825,42.350014],[-71.056855,42.349981]]],[[[-71.056846,42.350346],[-71.056793,42.350297],[-71.056762,42.350307],[-71.056815,42.350355],[-71.056846,42.350346]]],[[[-71.05681,42.350072],[-71.056699,42.349973],[-71.056661,42.349973],[-71.056635,42.349992],[-71.056646,42.350031],[-71.056743,42.350105],[-71.05678,42.350105],[-71.05681,42.350072]]],[[[-71.056803,42.352038],[-71.056743,42.351984],[-71.056712,42.351994],[-71.056772,42.352048],[-71.056803,42.352038]]],[[[-71.056732,42.350153],[-71.056641,42.350074],[-71.056601,42.350094],[-71.056692,42.350173],[-71.056732,42.350153]]],[[[-71.056702,42.35066],[-71.056638,42.350603],[-71.056612,42.350603],[-71.056612,42.350623],[-71.056671,42.35067],[-71.056702,42.35066]]],[[[-71.056699,42.350247],[-71.056613,42.350168],[-71.05659,42.350161],[-71.05656,42.350176],[-71.056567,42.350202],[-71.056643,42.350264],[-71.056679,42.350269],[-71.056699,42.350247]]],[[[-71.056695,42.353259],[-71.056618,42.353189],[-71.056526,42.353155],[-71.056479,42.353117],[-71.056446,42.353126],[-71.05637,42.353073],[-71.056347,42.35309],[-71.05642,42.353155],[-71.056458,42.353143],[-71.056651,42.353273],[-71.056679,42.353277],[-71.056695,42.353259]]],[[[-71.056667,42.350727],[-71.056603,42.35067],[-71.056577,42.35067],[-71.056577,42.35069],[-71.056636,42.350737],[-71.056667,42.350727]]],[[[-71.05664,42.3509],[-71.056529,42.350801],[-71.056491,42.350801],[-71.056465,42.35082],[-71.056476,42.350859],[-71.056573,42.350933],[-71.05661,42.350933],[-71.05664,42.3509]]],[[[-71.056527,42.351967],[-71.056463,42.35191],[-71.056437,42.35191],[-71.056437,42.35193],[-71.056496,42.351977],[-71.056527,42.351967]]],[[[-71.056476,42.351069],[-71.056423,42.35102],[-71.056392,42.35103],[-71.056445,42.351078],[-71.056476,42.351069]]],[[[-71.056457,42.351144],[-71.056393,42.351087],[-71.056367,42.351087],[-71.056367,42.351107],[-71.056426,42.351154],[-71.056457,42.351144]]],[[[-71.056433,42.351936],[-71.056383,42.35189],[-71.056352,42.3519],[-71.056401,42.351945],[-71.056433,42.351936]]],[[[-71.056412,42.351215],[-71.056359,42.351166],[-71.056328,42.351176],[-71.056381,42.351224],[-71.056412,42.351215]]],[[[-71.056397,42.354977],[-71.056333,42.35492],[-71.056307,42.35492],[-71.056307,42.35494],[-71.056366,42.354987],[-71.056397,42.354977]]],[[[-71.056387,42.354883],[-71.056323,42.354826],[-71.056297,42.354826],[-71.056297,42.354846],[-71.056356,42.354893],[-71.056387,42.354883]]],[[[-71.056375,42.354726],[-71.056298,42.354656],[-71.056256,42.354663],[-71.056256,42.354677],[-71.056331,42.35474],[-71.056359,42.354744],[-71.056375,42.354726]]],[[[-71.056372,42.3548],[-71.056304,42.35474],[-71.056276,42.35474],[-71.056276,42.35476],[-71.056338,42.35481],[-71.056372,42.3548]]],[[[-71.056315,42.350889],[-71.056251,42.350832],[-71.056225,42.350832],[-71.056225,42.350852],[-71.056284,42.350899],[-71.056315,42.350889]]],[[[-71.05631,42.351418],[-71.056253,42.351366],[-71.056222,42.351376],[-71.056278,42.351427],[-71.05631,42.351418]]],[[[-71.056296,42.353089],[-71.056243,42.35304],[-71.056212,42.35305],[-71.056265,42.353098],[-71.056296,42.353089]]],[[[-71.056291,42.351453],[-71.056234,42.351401],[-71.056203,42.351411],[-71.056259,42.351462],[-71.056291,42.351453]]],[[[-71.056285,42.35098],[-71.056221,42.350923],[-71.056195,42.350923],[-71.056195,42.350943],[-71.056254,42.35099],[-71.056285,42.35098]]],[[[-71.05626,42.351492],[-71.056203,42.35144],[-71.056172,42.35145],[-71.056228,42.351501],[-71.05626,42.351492]]],[[[-71.056245,42.351083],[-71.056181,42.351026],[-71.056155,42.351026],[-71.056155,42.351046],[-71.056214,42.351093],[-71.056245,42.351083]]],[[[-71.056207,42.351192],[-71.056143,42.351135],[-71.056117,42.351135],[-71.056117,42.351155],[-71.056176,42.351202],[-71.056207,42.351192]]],[[[-71.05613,42.351752],[-71.056073,42.3517],[-71.056042,42.35171],[-71.056098,42.351761],[-71.05613,42.351752]]],[[[-71.056036,42.351402],[-71.055972,42.351345],[-71.055946,42.351345],[-71.055946,42.351365],[-71.056005,42.351412],[-71.056036,42.351402]]],[[[-71.056012,42.351459],[-71.055948,42.351402],[-71.055922,42.351402],[-71.055922,42.351422],[-71.055981,42.351469],[-71.056012,42.351459]]],[[[-71.055979,42.351529],[-71.055915,42.351472],[-71.055889,42.351472],[-71.055889,42.351492],[-71.055948,42.351539],[-71.055979,42.351529]]],[[[-71.05595,42.352292],[-71.055854,42.352201],[-71.05582,42.35219],[-71.055786,42.352201],[-71.055775,42.35224],[-71.055737,42.352276],[-71.055833,42.352367],[-71.055867,42.352378],[-71.055902,42.352367],[-71.055912,42.352328],[-71.05595,42.352292]]],[[[-71.055947,42.351608],[-71.055883,42.351551],[-71.055857,42.351551],[-71.055857,42.351571],[-71.055916,42.351618],[-71.055947,42.351608]]],[[[-71.055918,42.351669],[-71.055854,42.351612],[-71.055828,42.351612],[-71.055828,42.351632],[-71.055887,42.351679],[-71.055918,42.351669]]],[[[-71.055867,42.351774],[-71.055803,42.351717],[-71.055777,42.351717],[-71.055777,42.351737],[-71.055836,42.351784],[-71.055867,42.351774]]],[[[-71.055865,42.353398],[-71.055779,42.353319],[-71.055744,42.353314],[-71.055726,42.353327],[-71.055733,42.353353],[-71.055809,42.353415],[-71.055845,42.35342],[-71.055865,42.353398]]],[[[-71.055847,42.351823],[-71.055783,42.351766],[-71.055757,42.351766],[-71.055757,42.351786],[-71.055816,42.351833],[-71.055847,42.351823]]],[[[-71.055797,42.353453],[-71.055706,42.353374],[-71.055666,42.353394],[-71.055757,42.353473],[-71.055797,42.353453]]],[[[-71.055708,42.35348],[-71.05564,42.35342],[-71.055612,42.35342],[-71.055612,42.35344],[-71.055674,42.35349],[-71.055708,42.35348]]],[[[-71.055617,42.353544],[-71.055553,42.353487],[-71.055527,42.353487],[-71.055527,42.353507],[-71.055586,42.353554],[-71.055617,42.353544]]],[[[-71.05555,42.353572],[-71.055493,42.35352],[-71.055462,42.35353],[-71.055518,42.353581],[-71.05555,42.353572]]],[[[-71.055312,42.353731],[-71.05529,42.353705],[-71.055305,42.353701],[-71.055305,42.353682],[-71.055257,42.353643],[-71.055199,42.353652],[-71.055181,42.353672],[-71.055272,42.353751],[-71.055312,42.353731]]],[[[-71.055258,42.353753],[-71.055186,42.353688],[-71.055147,42.3537],[-71.05522,42.353765],[-71.055258,42.353753]]]]},"properties":{"kind":"tree"}}]}