{"type":"FeatureCollection","features":[{"type":"Feature","geometry":{"type":"MultiPolygon","coordinates":[[[[-71.067128,42.352129],[-71.067105,42.351995],[-71.067007,42.351692],[-71.066747,42.351106],[-71.066118,42.35118],[-71.065998,42.350786],[-71.066016,42.350785],[-71.066002,42.350617],[-71.066044,42.350614],[-71.066009,42.350285],[-71.065881,42.34989],[-71.065776,42.349769],[-71.065757,42.349774],[-71.06577,42.349714],[-71.06584,42.349727],[-71.065852,42.349717],[-71.065948,42.34984],[-71.066025,42.349816],[-71.066036,42.349779],[-71.066024,42.349741],[-71.066037,42.349764],[-71.066125,42.34974],[-71.066095,42.349646],[-71.066006,42.349489],[-71.06562,42.349445],[-71.065521,42.349461],[-71.065431,42.349881],[-71.065343,42.350191],[-71.065377,42.350311],[-71.06531,42.3503],[-71.065227,42.350588],[-71.065247,42.350649],[-71.06527,42.350653],[-71.06521,42.350652],[-71.065139,42.350903],[-71.065249,42.351245],[-71.06498,42.35123],[-71.064907,42.351004],[-71.065027,42.351022],[-71.065128,42.350642],[-71.065016,42.350294],[-71.065114,42.350309],[-71.065212,42.349941],[-71.065248,42.349947],[-71.06526,42.3499],[-71.065169,42.349617],[-71.064416,42.349501],[-71.064395,42.349572],[-71.063884,42.349494],[-71.063893,42.349447],[-71.063855,42.349331],[-71.063926,42.349185],[-71.064044,42.348769],[-71.063945,42.348463],[-71.063623,42.348413],[-71.063505,42.348828],[-71.063561,42.34904],[-71.063133,42.348973],[-71.063069,42.348975],[-71.063042,42.348892],[-71.063418,42.348948],[-71.063529,42.348546],[-71.063476,42.348381],[-71.063184,42.348337],[-71.063254,42.348341],[-71.063278,42.348258],[-71.063253,42.34818],[-71.06323,42.348148],[-71.063187,42.348141],[-71.063177,42.348169],[-71.063124,42.348161],[-71.063163,42.348116],[-71.063303,42.348148],[-71.063322,42.348079],[-71.063301,42.347999],[-71.062961,42.347921],[-71.062929,42.348],[-71.062953,42.348075],[-71.063055,42.348097],[-71.063073,42.348153],[-71.062925,42.348129],[-71.06294,42.348094],[-71.062909,42.347999],[-71.062855,42.347962],[-71.062735,42.347939],[-71.062689,42.348052],[-71.062708,42.348116],[-71.062667,42.348107],[-71.06264,42.348175],[-71.062667,42.348259],[-71.062604,42.34825],[-71.062448,42.348644],[-71.062479,42.348741],[-71.062425,42.348727],[-71.062409,42.348753],[-71.062289,42.349058],[-71.062234,42.34916],[-71.062281,42.349317],[-71.062233,42.349284],[-71.062169,42.349306],[-71.062155,42.349337],[-71.062164,42.349365],[-71.062075,42.34958],[-71.061975,42.34927],[-71.061833,42.34924],[-71.06185,42.349195],[-71.061839,42.34916],[-71.061805,42.349152],[-71.061813,42.349132],[-71.061828,42.349136],[-71.061945,42.348885],[-71.061895,42.34873],[-71.061881,42.348727],[-71.061942,42.348573],[-71.062235,42.34864],[-71.062254,42.348596],[-71.062292,42.348604],[-71.062394,42.348315],[-71.062501,42.348321],[-71.062536,42.348232],[-71.062446,42.347953],[-71.061926,42.347827],[-71.061866,42.34764],[-71.061712,42.347604],[-71.061566,42.347954],[-71.061555,42.348046],[-71.061667,42.348392],[-71.061786,42.34842],[-71.0618,42.348395],[-71.06165,42.348751],[-71.061588,42.348953],[-71.061552,42.34896],[-71.061531,42.349019],[-71.061538,42.349039],[-71.06152,42.349047],[-71.061503,42.349124],[-71.061484,42.349135],[-71.061349,42.349469],[-71.061382,42.349599],[-71.061307,42.349568],[-71.061196,42.349845],[-71.061247,42.350004],[-71.061208,42.350087],[-71.06109,42.35016],[-71.061051,42.350256],[-71.060966,42.349994],[-71.060687,42.349931],[-71.060741,42.349799],[-71.060567,42.349259],[-71.060443,42.349109],[-71.060321,42.349063],[-71.060204,42.349326],[-71.059925,42.350048],[-71.060019,42.350339],[-71.059867,42.350296],[-71.059794,42.350499],[-71.059816,42.350567],[-71.059789,42.350634],[-71.059811,42.350702],[-71.060066,42.350766],[-71.060126,42.350596],[-71.060205,42.350621],[-71.059972,42.351168],[-71.060012,42.351293],[-71.060506,42.351394],[-71.060636,42.351112],[-71.060623,42.351022],[-71.06068,42.350836],[-71.060767,42.350855],[-71.060797,42.35079],[-71.060814,42.350746],[-71.060791,42.350676],[-71.060867,42.350697],[-71.060839,42.350774],[-71.060874,42.350883],[-71.06109,42.35093],[-71.061222,42.350915],[-71.061227,42.350931],[-71.061358,42.350957],[-71.061392,42.350851],[-71.06136,42.350735],[-71.061295,42.350688],[-71.060998,42.350612],[-71.061042,42.350505],[-71.061082,42.350629],[-71.061565,42.350744],[-71.061861,42.350062],[-71.061912,42.350077],[-71.061899,42.350104],[-71.061907,42.350146],[-71.06188,42.350138],[-71.061849,42.350185],[-71.06178,42.350309],[-71.061761,42.350356],[-71.061768,42.350378],[-71.061746,42.350372],[-71.061673,42.350559],[-71.061752,42.350803],[-71.061597,42.350765],[-71.061565,42.350845],[-71.061584,42.350903],[-71.061545,42.350895],[-71.061526,42.350931],[-71.061462,42.35114],[-71.061448,42.351138],[-71.061352,42.351379],[-71.061404,42.351539],[-71.061289,42.351543],[-71.061394,42.352062],[-71.06144,42.352204],[-71.061595,42.352196],[-71.061586,42.352117],[-71.061663,42.352114],[-71.061715,42.352277],[-71.061732,42.352276],[-71.061801,42.352535],[-71.061487,42.352561],[-71.061522,42.353095],[-71.061557,42.353204],[-71.061528,42.35321],[-71.061483,42.353426],[-71.061569,42.353693],[-71.061414,42.353622],[-71.061463,42.353464],[-71.061438,42.352896],[-71.061336,42.35258],[-71.061218,42.35259],[-71.06115,42.35238],[-71.061134,42.352112],[-71.061148,42.35211],[-71.061137,42.351992],[-71.061158,42.351987],[-71.061135,42.351836],[-71.061053,42.351581],[-71.061132,42.351598],[-71.061158,42.351588],[-71.061287,42.351258],[-71.061227,42.351071],[-71.060769,42.350979],[-71.060611,42.351308],[-71.06066,42.351459],[-71.060388,42.351402],[-71.060369,42.351415],[-71.060466,42.351718],[-71.060491,42.351724],[-71.06047,42.351727],[-71.060749,42.35262],[-71.060652,42.352627],[-71.0605,42.352135],[-71.060316,42.352167],[-71.06031,42.352315],[-71.060276,42.352208],[-71.060118,42.352221],[-71.060161,42.352505],[-71.060205,42.352642],[-71.060188,42.352643],[-71.060197,42.35274],[-71.060218,42.352806],[-71.060283,42.352816],[-71.060268,42.352864],[-71.060326,42.353043],[-71.060757,42.353255],[-71.060825,42.353178],[-71.060883,42.353357],[-71.060695,42.353272],[-71.06019,42.35381],[-71.060133,42.353635],[-71.05998,42.353551],[-71.060168,42.353468],[-71.060202,42.353431],[-71.060274,42.353468],[-71.060389,42.353345],[-71.060325,42.353148],[-71.060198,42.353083],[-71.060156,42.353018],[-71.059657,42.352762],[-71.059553,42.352772],[-71.059559,42.352814],[-71.059531,42.352816],[-71.059577,42.353108],[-71.059606,42.353197],[-71.059628,42.353195],[-71.059696,42.353407],[-71.059806,42.353463],[-71.059789,42.35348],[-71.059584,42.353397],[-71.059497,42.353129],[-71.059515,42.35312],[-71.059449,42.352703],[-71.059226,42.352012],[-71.058965,42.352116],[-71.058906,42.352152],[-71.058834,42.352228],[-71.058775,42.35235],[-71.058832,42.352526],[-71.058176,42.352542],[-71.058071,42.352594],[-71.058055,42.352616],[-71.057947,42.353231],[-71.057996,42.353382],[-71.057796,42.352781],[-71.057776,42.35277],[-71.057688,42.352735],[-71.05756,42.352748],[-71.05731,42.352888],[-71.057145,42.352955],[-71.057114,42.352988],[-71.057099,42.353043],[-71.057247,42.353511],[-71.057229,42.35354],[-71.057019,42.352888],[-71.057139,42.352663],[-71.057053,42.352396],[-71.057211,42.352437],[-71.057274,42.352099],[-71.057147,42.351707],[-71.057214,42.351699],[-71.057378,42.350871],[-71.057353,42.350793],[-71.05741,42.350728],[-71.057497,42.350298],[-71.057558,42.350305],[-71.057607,42.350063],[-71.057505,42.349748],[-71.057133,42.349667],[-71.05695,42.350087],[-71.056922,42.350095],[-71.056797,42.350339],[-71.056871,42.350567],[-71.056896,42.35057],[-71.056905,42.350599],[-71.056678,42.350643],[-71.05656,42.350888],[-71.056582,42.350958],[-71.056543,42.350948],[-71.056401,42.351249],[-71.056444,42.351381],[-71.056294,42.351331],[-71.056079,42.351765],[-71.056169,42.352043],[-71.05594,42.352127],[-71.055846,42.352326],[-71.056116,42.353162],[-71.055998,42.353225],[-71.05602,42.353309],[-71.056201,42.353872],[-71.056356,42.353936],[-71.056423,42.354144],[-71.056399,42.354161],[-71.056444,42.354409],[-71.056561,42.354771],[-71.056502,42.354776],[-71.056566,42.355133],[-71.05686,42.356044],[-71.057643,42.355985],[-71.057623,42.355834],[-71.057329,42.354923],[-71.056935,42.354765],[-71.056893,42.354511],[-71.056858,42.354402],[-71.056959,42.354286],[-71.056912,42.354143],[-71.056927,42.354171],[-71.057075,42.354221],[-71.057267,42.354816],[-71.057468,42.354884],[-71.057514,42.355025],[-71.057874,42.35515],[-71.057905,42.355099],[-71.057935,42.355189],[-71.057982,42.355207],[-71.058197,42.355211],[-71.058262,42.35534],[-71.058389,42.355355],[-71.058452,42.355333],[-71.058538,42.355249],[-71.058493,42.35511],[-71.058511,42.35512],[-71.058549,42.355091],[-71.058602,42.355256],[-71.058939,42.355402],[-71.059081,42.355841],[-71.059155,42.355896],[-71.059447,42.356015],[-71.059693,42.355801],[-71.059756,42.355723],[-71.059606,42.355259],[-71.059698,42.355174],[-71.05962,42.354967],[-71.059184,42.354639],[-71.059402,42.354662],[-71.05946,42.354805],[-71.060192,42.35537],[-71.060209,42.355357],[-71.060319,42.35544],[-71.060379,42.355396],[-71.060515,42.355493],[-71.060685,42.35535],[-71.060744,42.355396],[-71.061066,42.355096],[-71.061127,42.355284],[-71.06144,42.355441],[-71.061612,42.355254],[-71.061581,42.355157],[-71.061746,42.355243],[-71.061828,42.355157],[-71.062236,42.355368],[-71.062403,42.355189],[-71.062372,42.355092],[-71.06241,42.355196],[-71.062522,42.355259],[-71.062553,42.355232],[-71.062577,42.355304],[-71.062667,42.355355],[-71.062711,42.355308],[-71.062739,42.355324],[-71.062858,42.355201],[-71.062875,42.355255],[-71.063181,42.355417],[-71.06324,42.35534],[-71.063498,42.355404],[-71.063529,42.355406],[-71.063548,42.355372],[-71.063606,42.355383],[-71.06387,42.354893],[-71.063921,42.354906],[-71.063944,42.354858],[-71.063935,42.354829],[-71.063885,42.354815],[-71.063869,42.354766],[-71.063898,42.354727],[-71.063824,42.354496],[-71.063881,42.354509],[-71.063921,42.354473],[-71.063985,42.354356],[-71.063995,42.354309],[-71.063972,42.354237],[-71.064028,42.354253],[-71.064134,42.354054],[-71.064005,42.353656],[-71.064092,42.353678],[-71.064132,42.353564],[-71.064254,42.353574],[-71.064321,42.353494],[-71.064352,42.353408],[-71.064318,42.353302],[-71.064369,42.353305],[-71.064399,42.353205],[-71.064436,42.353207],[-71.064471,42.353056],[-71.064446,42.352978],[-71.064475,42.352752],[-71.064428,42.352607],[-71.064555,42.35261],[-71.06459,42.35259],[-71.064722,42.352069],[-71.064684,42.351951],[-71.064722,42.351956],[-71.064755,42.351834],[-71.064683,42.351613],[-71.064709,42.351616],[-71.064725,42.351563],[-71.064867,42.351578],[-71.064851,42.351641],[-71.064874,42.351711],[-71.064842,42.351707],[-71.064683,42.352315],[-71.064786,42.352634],[-71.065605,42.352691],[-71.065621,42.352578],[-71.065756,42.352588],[-71.06579,42.352684],[-71.065987,42.352699],[-71.066016,42.352537],[-71.066034,42.352594],[-71.06613,42.352599],[-71.066147,42.352377],[-71.066116,42.352281],[-71.066306,42.35228],[-71.066325,42.352093],[-71.066945,42.352174],[-71.067128,42.352129]],[[-71.066005,42.352046],[-71.06599,42.352165],[-71.066,42.352045],[-71.066005,42.352046]],[[-71.06442,42.351185],[-71.063945,42.351134],[-71.063931,42.35097],[-71.064062,42.350999],[-71.064397,42.351112],[-71.06442,42.351185]],[[-71.064214,42.352405],[-71.064179,42.352403],[-71.064182,42.352389],[-71.064214,42.352405]],[[-71.064083,42.350393],[-71.06399,42.350541],[-71.063951,42.350528],[-71.063915,42.350416],[-71.063539,42.350364],[-71.063408,42.350576],[-71.063427,42.350808],[-71.063519,42.351094],[-71.06329,42.35107],[-71.063284,42.351102],[-71.063273,42.351069],[-71.063235,42.351064],[-71.063309,42.350812],[-71.063227,42.350544],[-71.063264,42.350448],[-71.063368,42.350464],[-71.063447,42.350299],[-71.06347,42.350303],[-71.063471,42.350249],[-71.063556,42.34998],[-71.063544,42.349943],[-71.0637,42.349961],[-71.064083,42.350393]],[[-71.063938,42.352438],[-71.063926,42.352562],[-71.063886,42.352436],[-71.063938,42.352438]],[[-71.063826,42.353581],[-71.063762,42.353572],[-71.063747,42.353535],[-71.063813,42.35354],[-71.063826,42.353581]],[[-71.06349,42.351616],[-71.062895,42.351546],[-71.062827,42.351891],[-71.062845,42.351947],[-71.062817,42.351944],[-71.062798,42.352037],[-71.062685,42.351684],[-71.062787,42.351706],[-71.062888,42.351326],[-71.062953,42.351336],[-71.062918,42.351459],[-71.062938,42.35153],[-71.063445,42.351594],[-71.063465,42.351593],[-71.063473,42.351563],[-71.06349,42.351616]],[[-71.063414,42.354094],[-71.063382,42.35413],[-71.063359,42.354059],[-71.063414,42.354094]],[[-71.063025,42.349614],[-71.063018,42.349611],[-71.063022,42.349606],[-71.063025,42.349614]],[[-71.063,42.349197],[-71.062994,42.349182],[-71.062999,42.349179],[-71.063,42.349197]],[[-71.062999,42.352424],[-71.062926,42.352432],[-71.062912,42.352388],[-71.06299,42.352397],[-71.062999,42.352424]],[[-71.062882,42.348291],[-71.0628,42.348279],[-71.062811,42.348237],[-71.062788,42.348164],[-71.062862,42.34818],[-71.062855,42.348206],[-71.062882,42.348291]],[[-71.062791,42.354962],[-71.06274,42.354943],[-71.062774,42.35491],[-71.062791,42.354962]],[[-71.062784,42.353393],[-71.06272,42.353391],[-71.06254,42.353613],[-71.062541,42.353549],[-71.062463,42.353308],[-71.062507,42.353281],[-71.062528,42.352854],[-71.062659,42.352866],[-71.062647,42.353118],[-71.062718,42.353337],[-71.062784,42.353393]],[[-71.062761,42.34951],[-71.062506,42.349425],[-71.062574,42.349389],[-71.062587,42.349427],[-71.062727,42.349491],[-71.062751,42.34948],[-71.062761,42.34951]],[[-71.062717,42.350262],[-71.0627,42.350322],[-71.062675,42.350244],[-71.062717,42.350262]],[[-71.062554,42.3498],[-71.062445,42.349947],[-71.062467,42.35002],[-71.062256,42.349932],[-71.062265,42.349913],[-71.062362,42.349891],[-71.062554,42.3498]],[[-71.062488,42.351611],[-71.062484,42.351611],[-71.062466,42.351543],[-71.062488,42.351611]],[[-71.062365,42.350955],[-71.062329,42.350948],[-71.062351,42.350913],[-71.062365,42.350955]],[[-71.062299,42.351066],[-71.062158,42.351034],[-71.062135,42.350965],[-71.062278,42.351002],[-71.062299,42.351066]],[[-71.062265,42.354823],[-71.062217,42.354875],[-71.062161,42.354856],[-71.062213,42.354799],[-71.062265,42.354823]],[[-71.062257,42.351563],[-71.062168,42.351544],[-71.062124,42.351209],[-71.062096,42.351124],[-71.062139,42.351134],[-71.062164,42.351073],[-71.062204,42.351398],[-71.062257,42.351563]],[[-71.062225,42.34828],[-71.062165,42.348433],[-71.062013,42.348398],[-71.062065,42.348244],[-71.062225,42.34828]],[[-71.06211,42.354063],[-71.06209,42.354085],[-71.0621,42.354114],[-71.062074,42.354045],[-71.06211,42.354063]],[[-71.06194,42.348136],[-71.061918,42.348131],[-71.06193,42.348103],[-71.06194,42.348136]],[[-71.061842,42.354477],[-71.061808,42.354459],[-71.061829,42.354438],[-71.061842,42.354477]],[[-71.061434,42.354987],[-71.061316,42.354926],[-71.061392,42.354856],[-71.061434,42.354987]],[[-71.061123,42.352799],[-71.061104,42.352801],[-71.061064,42.352846],[-71.061051,42.352805],[-71.061123,42.352799]],[[-71.060975,42.352048],[-71.060945,42.352052],[-71.060848,42.35174],[-71.060862,42.351738],[-71.060975,42.352048]],[[-71.060816,42.35203],[-71.060744,42.351971],[-71.060678,42.351763],[-71.06073,42.351759],[-71.060816,42.35203]],[[-71.060362,42.35087],[-71.060336,42.350864],[-71.060353,42.350819],[-71.060362,42.35087]],[[-71.059065,42.354592],[-71.059019,42.354608],[-71.058991,42.354523],[-71.059028,42.354488],[-71.059065,42.354592]],[[-71.058802,42.354347],[-71.05867,42.354249],[-71.058785,42.354295],[-71.058802,42.354347]],[[-71.058786,42.354815],[-71.058769,42.354831],[-71.058768,42.354828],[-71.058786,42.354815]],[[-71.058622,42.354222],[-71.058565,42.354275],[-71.05852,42.354135],[-71.058044,42.353831],[-71.058014,42.353836],[-71.057924,42.353982],[-71.057889,42.353826],[-71.057936,42.35383],[-71.057969,42.35362],[-71.058006,42.353725],[-71.058567,42.354106],[-71.0586,42.354209],[-71.058622,42.354222]],[[-71.056883,42.35157],[-71.056858,42.351558],[-71.056871,42.35153],[-71.056883,42.35157]]],[[[-71.066557,42.348759],[-71.066483,42.348529],[-71.066065,42.34848],[-71.066091,42.34836],[-71.065995,42.348062],[-71.065837,42.348044],[-71.065752,42.348444],[-71.065848,42.348741],[-71.065871,42.348744],[-71.065906,42.348839],[-71.066002,42.34885],[-71.066007,42.348818],[-71.066529,42.348879],[-71.066557,42.348759]]],[[[-71.066131,42.349559],[-71.066051,42.349385],[-71.065989,42.349405],[-71.066067,42.349579],[-71.066131,42.349559]]],[[[-71.065589,42.354421],[-71.065545,42.354311],[-71.065487,42.354301],[-71.06545,42.354322],[-71.065443,42.354342],[-71.065482,42.354448],[-71.065551,42.354461],[-71.065589,42.354421]]],[[[-71.065543,42.347947],[-71.065491,42.347827],[-71.065353,42.347782],[-71.065319,42.347677],[-71.065257,42.347643],[-71.064894,42.347587],[-71.064503,42.347783],[-71.064389,42.348045],[-71.06434,42.34822],[-71.064378,42.348336],[-71.064414,42.348342],[-71.064457,42.348325],[-71.06444,42.348386],[-71.064496,42.34856],[-71.064341,42.348545],[-71.064334,42.348568],[-71.064275,42.348582],[-71.064127,42.348996],[-71.064148,42.349062],[-71.064437,42.349106],[-71.064404,42.349122],[-71.064476,42.349345],[-71.064725,42.349514],[-71.064906,42.349421],[-71.0649,42.349402],[-71.064992,42.349431],[-71.065254,42.349308],[-71.0652,42.34914],[-71.065297,42.34913],[-71.065348,42.348942],[-71.065323,42.348802],[-71.065279,42.348688],[-71.064992,42.348617],[-71.064998,42.348554],[-71.064936,42.348362],[-71.064968,42.34835],[-71.065104,42.348506],[-71.065128,42.348494],[-71.065141,42.348513],[-71.065435,42.348448],[-71.065427,42.34839],[-71.065363,42.348317],[-71.065485,42.348206],[-71.065494,42.348162],[-71.065475,42.348101],[-71.065432,42.348052],[-71.065534,42.347985],[-71.065543,42.347947]]],[[[-71.065434,42.352912],[-71.065421,42.352871],[-71.065303,42.352844],[-71.065286,42.352891],[-71.065325,42.353013],[-71.065391,42.353027],[-71.065434,42.352912]]],[[[-71.064737,42.352571],[-71.064727,42.352541],[-71.064662,42.352531],[-71.064627,42.352637],[-71.064637,42.352667],[-71.064702,42.352677],[-71.064737,42.352571]]],[[[-71.06462,42.353308],[-71.06461,42.353278],[-71.064542,42.353266],[-71.064508,42.353366],[-71.064518,42.353396],[-71.064586,42.35341],[-71.06462,42.353308]]],[[[-71.064182,42.348298],[-71.064155,42.348215],[-71.064164,42.348183],[-71.064114,42.348017],[-71.064123,42.347979],[-71.064113,42.347947],[-71.063968,42.347919],[-71.063883,42.347989],[-71.063856,42.347985],[-71.063829,42.348081],[-71.063851,42.348149],[-71.063586,42.348109],[-71.063632,42.347946],[-71.063606,42.347866],[-71.06346,42.347843],[-71.063365,42.348193],[-71.063397,42.348293],[-71.063956,42.348376],[-71.063975,42.348417],[-71.064094,42.348434],[-71.064108,42.348385],[-71.064156,42.348393],[-71.064182,42.348298]]],[[[-71.061676,42.348472],[-71.06164,42.348359],[-71.061414,42.348308],[-71.061385,42.348414],[-71.06142,42.348543],[-71.061351,42.348556],[-71.061342,42.348577],[-71.061288,42.348565],[-71.061244,42.348672],[-71.061268,42.348747],[-71.061204,42.34875],[-71.061242,42.348658],[-71.061225,42.348604],[-71.06127,42.34849],[-71.06139,42.348517],[-71.061398,42.34848],[-71.061365,42.348369],[-71.06134,42.348359],[-71.061312,42.348227],[-71.061184,42.348198],[-71.061147,42.348242],[-71.061138,42.348307],[-71.061068,42.348118],[-71.061011,42.348097],[-71.060549,42.348739],[-71.060723,42.349279],[-71.060758,42.349287],[-71.060771,42.349326],[-71.060996,42.349417],[-71.061003,42.3494],[-71.061011,42.349424],[-71.061224,42.349516],[-71.061272,42.349445],[-71.061255,42.349392],[-71.061303,42.349403],[-71.061342,42.349324],[-71.061394,42.349171],[-71.061387,42.34915],[-71.061477,42.348946],[-71.061439,42.348827],[-71.061517,42.348845],[-71.061641,42.34852],[-71.061655,42.348523],[-71.061676,42.348472]],[[-71.06116,42.349323],[-71.06104,42.349273],[-71.061021,42.349218],[-71.061114,42.348967],[-71.06112,42.348986],[-71.061083,42.349084],[-71.061115,42.349184],[-71.06115,42.349192],[-71.06116,42.349222],[-71.061142,42.349267],[-71.06116,42.349323]]],[[[-71.061668,42.352483],[-71.061625,42.3523],[-71.061514,42.352311],[-71.061454,42.352351],[-71.06149,42.3525],[-71.061668,42.352483]]],[[[-71.061231,42.350025],[-71.061223,42.349999],[-71.061162,42.349985],[-71.061139,42.350043],[-71.061147,42.350069],[-71.061207,42.350082],[-71.061231,42.350025]]],[[[-71.060484,42.352091],[-71.060247,42.351383],[-71.060234,42.351369],[-71.059977,42.351309],[-71.059969,42.351328],[-71.059962,42.351307],[-71.059758,42.351262],[-71.059709,42.351391],[-71.059817,42.35212],[-71.059866,42.352272],[-71.060082,42.352254],[-71.059989,42.35159],[-71.060011,42.351659],[-71.060148,42.351652],[-71.060153,42.351627],[-71.060189,42.351615],[-71.060257,42.351834],[-71.060056,42.351864],[-71.060075,42.351985],[-71.060125,42.352139],[-71.060303,42.352131],[-71.060484,42.352091]]],[[[-71.059811,42.352674],[-71.059778,42.352456],[-71.059731,42.352309],[-71.059691,42.352004],[-71.059626,42.351804],[-71.059386,42.351848],[-71.059478,42.352461],[-71.059541,42.352657],[-71.059811,42.352674]]],[[[-71.059561,42.350387],[-71.059505,42.350215],[-71.059471,42.35018],[-71.059047,42.350086],[-71.058996,42.350102],[-71.058689,42.350861],[-71.058745,42.351033],[-71.058633,42.351011],[-71.058362,42.351689],[-71.058408,42.351831],[-71.058604,42.351874],[-71.058816,42.351669],[-71.059002,42.351414],[-71.059084,42.351243],[-71.059047,42.351129],[-71.059199,42.351163],[-71.059254,42.351147],[-71.059561,42.350387]]],[[[-71.059332,42.34977],[-71.059318,42.349726],[-71.059179,42.349693],[-71.059105,42.349866],[-71.059119,42.349909],[-71.059258,42.349942],[-71.059332,42.34977]]],[[[-71.05886,42.350295],[-71.058776,42.350034],[-71.058426,42.349957],[-71.058506,42.349727],[-71.058431,42.349495],[-71.058448,42.349452],[-71.058424,42.349376],[-71.057926,42.349266],[-71.057859,42.349433],[-71.057883,42.349509],[-71.057978,42.349529],[-71.057962,42.349568],[-71.057872,42.349548],[-71.057853,42.349597],[-71.057865,42.349633],[-71.057955,42.349653],[-71.058011,42.349826],[-71.058042,42.349833],[-71.058054,42.349872],[-71.057874,42.34983],[-71.057688,42.349927],[-71.057546,42.350612],[-71.057596,42.350766],[-71.057558,42.350757],[-71.057527,42.350772],[-71.057378,42.351533],[-71.057405,42.351616],[-71.057355,42.351608],[-71.057276,42.352035],[-71.057357,42.352285],[-71.058009,42.35249],[-71.058033,42.352485],[-71.058196,42.351987],[-71.05815,42.351843],[-71.058195,42.351849],[-71.058478,42.351151],[-71.058414,42.350953],[-71.058131,42.350883],[-71.058156,42.350796],[-71.058188,42.350894],[-71.058294,42.35092],[-71.058315,42.350873],[-71.058487,42.350917],[-71.058495,42.350897],[-71.058532,42.350905],[-71.058577,42.350813],[-71.058595,42.350817],[-71.058608,42.350784],[-71.058657,42.350795],[-71.058724,42.350628],[-71.058676,42.350445],[-71.05879,42.350471],[-71.058851,42.35036],[-71.05886,42.350295]],[[-71.058355,42.350004],[-71.058291,42.350229],[-71.058261,42.350134],[-71.058274,42.350087],[-71.05832,42.35008],[-71.058332,42.350054],[-71.058294,42.349937],[-71.058337,42.349946],[-71.058355,42.350004]],[[-71.058239,42.35041],[-71.058231,42.35044],[-71.05822,42.350407],[-71.058239,42.35041]],[[-71.058093,42.35091],[-71.058081,42.350961],[-71.058061,42.350902],[-71.058093,42.35091]],[[-71.057994,42.351291],[-71.057977,42.351354],[-71.057955,42.351286],[-71.057994,42.351291]],[[-71.057941,42.351481],[-71.057937,42.351496],[-71.057933,42.351482],[-71.057941,42.351481]],[[-71.057928,42.351693],[-71.057921,42.351692],[-71.057923,42.351679],[-71.057928,42.351693]]],[[[-71.058197,42.349096],[-71.058071,42.348706],[-71.057613,42.348605],[-71.057529,42.348814],[-71.057655,42.349204],[-71.058114,42.349305],[-71.058197,42.349096]]],[[[-71.056825,42.349427],[-71.056815,42.349396],[-71.056825,42.349353],[-71.056775,42.349199],[-71.056596,42.349149],[-71.055602,42.349433],[-71.05673,42.34775],[-71.056673,42.347544],[-71.055908,42.347262],[-71.054533,42.349309],[-71.054519,42.349436],[-71.054447,42.34941],[-71.053477,42.350853],[-71.053557,42.351102],[-71.054138,42.351317],[-71.054236,42.351192],[-71.054358,42.351237],[-71.055305,42.349826],[-71.055025,42.350377],[-71.055075,42.350531],[-71.055183,42.350614],[-71.055193,42.350648],[-71.055243,42.350661],[-71.055437,42.350804],[-71.055555,42.350846],[-71.055687,42.350857],[-71.056204,42.350843],[-71.056288,42.350827],[-71.056484,42.350435],[-71.056685,42.349936],[-71.05679,42.349498],[-71.056825,42.349427]]],[[[-71.056722,42.356836],[-71.056621,42.356257],[-71.056538,42.356001],[-71.056553,42.355997],[-71.056418,42.355251],[-71.056272,42.3548],[-71.056324,42.354792],[-71.056278,42.354629],[-71.056295,42.354626],[-71.056197,42.354091],[-71.056064,42.353622],[-71.055897,42.353294],[-71.055573,42.353469],[-71.055583,42.3535],[-71.055421,42.353589],[-71.055376,42.353638],[-71.055342,42.353603],[-71.054915,42.353838],[-71.054959,42.353974],[-71.054889,42.353912],[-71.054834,42.353899],[-71.054776,42.353908],[-71.054391,42.354111],[-71.054359,42.354149],[-71.054358,42.354189],[-71.054681,42.355188],[-71.054715,42.355237],[-71.054955,42.355476],[-71.055009,42.355484],[-71.055059,42.355468],[-71.05529,42.355263],[-71.055336,42.355407],[-71.055497,42.355555],[-71.055547,42.355559],[-71.055687,42.355475],[-71.055877,42.356064],[-71.056007,42.356068],[-71.05627,42.35688],[-71.056722,42.356836]],[[-71.055913,42.353973],[-71.055895,42.353953],[-71.055907,42.353949],[-71.055913,42.353973]],[[-71.055446,42.354192],[-71.055151,42.354331],[-71.055086,42.354127],[-71.055212,42.354254],[-71.055423,42.354121],[-71.055446,42.354192]]],[[[-71.055844,42.351856],[-71.055768,42.35162],[-71.055498,42.351545],[-71.054479,42.351779],[-71.054307,42.351954],[-71.054383,42.35219],[-71.054909,42.352468],[-71.055069,42.352519],[-71.055237,42.352544],[-71.055414,42.352504],[-71.055534,42.352414],[-71.055625,42.352305],[-71.055844,42.351856]]]]},"properties":{"kind":"building"}},{"type":"Feature","geometry":{"type":"MultiPolygon","coordinates":[[[[-71.066106,42.353599],[-71.066047,42.35341],[-71.066015,42.353375],[-71.065952,42.353349],[-71.065935,42.353267],[-71.065987,42.353261],[-71.066052,42.353213],[-71.066061,42.353179],[-71.066045,42.353122],[-71.066082,42.353089],[-71.066091,42.353057],[-71.066021,42.352832],[-71.065942,42.352773],[-71.06583,42.352773],[-71.065783,42.352797],[-71.06575,42.352742],[-71.065693,42.352724],[-71.065773,42.352711],[-71.065844,42.352743],[-71.065909,42.352714],[-71.065926,42.352735],[-71.065979,42.352751],[-71.066032,42.352735],[-71.066048,42.352717],[-71.066048,42.352675],[-71.066016,42.352576],[-71.065976,42.352546],[-71.065918,42.352546],[-71.065882,42.352571],[-71.065841,42.352538],[-71.065759,42.35255],[-71.065717,42.352522],[-71.065659,42.352522],[-71.065619,42.352552],[-71.065623,42.352605],[-71.065539,42.352598],[-71.065486,42.352648],[-71.065457,42.352558],[-71.065401,42.352516],[-71.065321,42.352516],[-71.065265,42.352558],[-71.065265,42.352616],[-71.065306,42.352742],[-71.065328,42.352767],[-71.065401,42.352789],[-71.065441,42.352783],[-71.065475,42.352767],[-71.065502,42.352724],[-71.065522,42.352784],[-71.065472,42.352821],[-71.065465,42.352849],[-71.065488,42.352927],[-71.065463,42.35295],[-71.065463,42.352996],[-71.065408,42.353037],[-71.0654,42.353066],[-71.065421,42.353136],[-71.065375,42.353174],[-71.065374,42.353233],[-71.065321,42.353203],[-71.065226,42.353201],[-71.065217,42.353175],[-71.065244,42.353191],[-71.065296,42.353191],[-71.065338,42.353145],[-71.065263,42.352948],[-71.065207,42.352948],[-71.065197,42.353013],[-71.06518,42.352958],[-71.065227,42.352886],[-71.065227,42.352853],[-71.065187,42.352754],[-71.065125,42.352745],[-71.065148,42.3527],[-71.065102,42.352553],[-71.065049,42.352515],[-71.064975,42.352515],[-71.064943,42.35253],[-71.064915,42.352581],[-71.064961,42.352728],[-71.064982,42.352751],[-71.065051,42.352772],[-71.065098,42.352762],[-71.065089,42.352877],[-71.065047,42.352891],[-71.065027,42.352928],[-71.065079,42.353062],[-71.065129,42.353077],[-71.065175,42.353064],[-71.065197,42.353132],[-71.065148,42.353125],[-71.06512,42.353156],[-71.065147,42.353242],[-71.065135,42.353257],[-71.06512,42.353212],[-71.06506,42.353168],[-71.064963,42.353174],[-71.064928,42.353066],[-71.064867,42.353016],[-71.06483,42.352952],[-71.064791,42.352933],[-71.064699,42.352933],[-71.064634,42.352981],[-71.064625,42.353015],[-71.06469,42.353246],[-71.064617,42.353248],[-71.064557,42.353292],[-71.064549,42.353323],[-71.064593,42.353467],[-71.06456,42.353483],[-71.06453,42.353536],[-71.064578,42.353687],[-71.064632,42.353727],[-71.064709,42.353727],[-71.064764,42.353687],[-71.064771,42.353658],[-71.064732,42.353531],[-71.064779,42.353512],[-71.064811,42.353457],[-71.06489,42.353446],[-71.064911,42.353408],[-71.064895,42.353355],[-71.064936,42.353336],[-71.064958,42.353405],[-71.064982,42.353432],[-71.06505,42.353454],[-71.0651,42.35365],[-71.065127,42.35368],[-71.065214,42.353707],[-71.065261,42.3537],[-71.065301,42.35368],[-71.065336,42.35362],[-71.065361,42.353698],[-71.065393,42.353733],[-71.065516,42.353798],[-71.065532,42.35383],[-71.065496,42.353866],[-71.065526,42.35396],[-71.065574,42.353984],[-71.06561,42.353972],[-71.065626,42.353945],[-71.065606,42.353882],[-71.065636,42.353871],[-71.065653,42.353841],[-71.065608,42.353725],[-71.065642,42.353656],[-71.065583,42.353467],[-71.065522,42.353417],[-71.065597,42.353394],[-71.065685,42.353322],[-71.065692,42.353296],[-71.065667,42.353214],[-71.06569,42.353218],[-71.065713,42.353288],[-71.065755,42.353319],[-71.065795,42.353385],[-71.065766,42.353451],[-71.065825,42.353641],[-71.065857,42.353676],[-71.06596,42.353707],[-71.066016,42.353699],[-71.066063,42.353676],[-71.066095,42.353641],[-71.066106,42.353599]],[[-71.065761,42.352944],[-71.065742,42.352958],[-71.065725,42.352949],[-71.065761,42.352944]],[[-71.065457,42.353401],[-71.065445,42.353401],[-71.065443,42.353394],[-71.065457,42.353401]]],[[[-71.066076,42.355066],[-71.066026,42.354936],[-71.065952,42.354925],[-71.065915,42.354953],[-71.065915,42.354991],[-71.06596,42.355101],[-71.066034,42.355112],[-71.066076,42.355066]]],[[[-71.066042,42.354129],[-71.066017,42.35405],[-71.065996,42.354034],[-71.065945,42.35405],[-71.065966,42.354138],[-71.065923,42.354056],[-71.06587,42.354048],[-71.065844,42.354067],[-71.065869,42.354171],[-71.065895,42.35419],[-71.065932,42.35419],[-71.065955,42.354215],[-71.065985,42.354206],[-71.065969,42.354142],[-71.066018,42.354155],[-71.066042,42.354129]]],[[[-71.065913,42.354616],[-71.065855,42.354431],[-71.065827,42.3544],[-71.065785,42.354379],[-71.065685,42.354379],[-71.065615,42.354431],[-71.065615,42.354505],[-71.065663,42.354653],[-71.065691,42.354684],[-71.065783,42.354712],[-71.065833,42.354705],[-71.065875,42.354684],[-71.065913,42.354616]]],[[[-71.065859,42.348129],[-71.065811,42.348004],[-71.06574,42.347994],[-71.065705,42.34802],[-71.065732,42.34814],[-71.065696,42.348151],[-71.06568,42.34818],[-71.065711,42.348278],[-71.065692,42.348293],[-71.065716,42.348344],[-71.065739,42.348337],[-71.065729,42.348294],[-71.065783,42.3483],[-71.065812,42.348278],[-71.06579,42.348176],[-71.06584,42.348163],[-71.065859,42.348129]]],[[[-71.065788,42.354015],[-71.06576,42.353925],[-71.065715,42.353903],[-71.065681,42.353914],[-71.06567,42.353953],[-71.06563,42.353965],[-71.065615,42.35399],[-71.065644,42.35408],[-71.065689,42.354102],[-71.065723,42.354092],[-71.065734,42.354052],[-71.065774,42.354041],[-71.065788,42.354015]]],[[[-71.065766,42.348531],[-71.065721,42.348415],[-71.065658,42.348406],[-71.065626,42.348429],[-71.065666,42.348561],[-71.06573,42.348571],[-71.065766,42.348531]]],[[[-71.065729,42.354986],[-71.065674,42.354808],[-71.065647,42.354779],[-71.06556,42.354752],[-71.065491,42.35477],[-71.065481,42.354739],[-71.065444,42.354711],[-71.065392,42.354711],[-71.065363,42.35473],[-71.065327,42.354655],[-71.065232,42.354615],[-71.065172,42.354615],[-71.065126,42.354661],[-71.065062,42.354441],[-71.065029,42.354416],[-71.064868,42.354419],[-71.064824,42.354451],[-71.064818,42.354474],[-71.064858,42.354602],[-71.064814,42.354661],[-71.064858,42.3548],[-71.064915,42.354906],[-71.064976,42.354915],[-71.06501,42.354877],[-71.064995,42.354828],[-71.065033,42.354775],[-71.064981,42.354626],[-71.065012,42.354697],[-71.065059,42.354724],[-71.065048,42.354751],[-71.065087,42.354875],[-71.06519,42.354939],[-71.065265,42.354929],[-71.065288,42.354969],[-71.065341,42.354985],[-71.06541,42.354951],[-71.065406,42.354897],[-71.065448,42.354902],[-71.065492,42.35502],[-71.065559,42.35507],[-71.065606,42.355077],[-71.065693,42.35505],[-71.065729,42.354986]],[[-71.065131,42.354694],[-71.065127,42.354694],[-71.065129,42.354687],[-71.065131,42.354694]]],[[[-71.06561,42.348993],[-71.065597,42.348952],[-71.065563,42.348952],[-71.065575,42.348998],[-71.065599,42.349005],[-71.06561,42.348993]]],[[[-71.065603,42.351268],[-71.065587,42.351218],[-71.065553,42.351218],[-71.065568,42.351273],[-71.065591,42.35128],[-71.065603,42.351268]]],[[[-71.06558,42.348404],[-71.065534,42.348284],[-71.065466,42.348274],[-71.065433,42.348299],[-71.065471,42.348431],[-71.065437,42.348446],[-71.065468,42.348515],[-71.065498,42.348506],[-71.065481,42.34844],[-71.065542,42.348446],[-71.06558,42.348404]]],[[[-71.06558,42.349302],[-71.065544,42.349211],[-71.065491,42.349203],[-71.065465,42.349222],[-71.065497,42.349327],[-71.06555,42.349335],[-71.06558,42.349302]]],[[[-71.065574,42.34913],[-71.065561,42.349089],[-71.065527,42.349089],[-71.065539,42.349135],[-71.065563,42.349142],[-71.065574,42.34913]]],[[[-71.065561,42.348149],[-71.065547,42.348105],[-71.065513,42.348105],[-71.065526,42.348154],[-71.065549,42.348161],[-71.065561,42.348149]]],[[[-71.06552,42.353949],[-71.065489,42.353851],[-71.065438,42.353826],[-71.065396,42.353753],[-71.065322,42.353742],[-71.065285,42.35377],[-71.065285,42.353808],[-71.06533,42.353918],[-71.065402,42.353929],[-71.065414,42.353965],[-71.065443,42.353987],[-71.065486,42.353987],[-71.06552,42.353949]]],[[[-71.065454,42.348856],[-71.065418,42.348765],[-71.065365,42.348757],[-71.065339,42.348776],[-71.065371,42.348881],[-71.065424,42.348889],[-71.065454,42.348856]]],[[[-71.065417,42.349005],[-71.065385,42.348921],[-71.065335,42.348921],[-71.065324,42.34894],[-71.065356,42.349023],[-71.065395,42.349029],[-71.065417,42.349005]]],[[[-71.065409,42.354061],[-71.065375,42.353952],[-71.06534,42.353926],[-71.065298,42.353925],[-71.065269,42.35386],[-71.065201,42.35385],[-71.065168,42.353875],[-71.065196,42.353997],[-71.06523,42.354022],[-71.065266,42.354023],[-71.065298,42.354095],[-71.065369,42.354105],[-71.065409,42.354061]]],[[[-71.065403,42.349146],[-71.065364,42.349045],[-71.065311,42.349037],[-71.065285,42.349056],[-71.06532,42.349172],[-71.065373,42.349179],[-71.065403,42.349146]]],[[[-71.065382,42.351252],[-71.065367,42.351205],[-71.065333,42.351205],[-71.065347,42.351257],[-71.06537,42.351264],[-71.065382,42.351252]]],[[[-71.065281,42.351249],[-71.065267,42.351205],[-71.065233,42.351205],[-71.065246,42.351254],[-71.065269,42.351261],[-71.065281,42.351249]]],[[[-71.065276,42.354149],[-71.065244,42.354047],[-71.065212,42.354024],[-71.065172,42.354023],[-71.065142,42.353957],[-71.065071,42.353947],[-71.065036,42.353973],[-71.065036,42.354009],[-71.065079,42.354116],[-71.06515,42.354126],[-71.065163,42.354165],[-71.065195,42.354189],[-71.06524,42.354189],[-71.065276,42.354149]]],[[[-71.065194,42.350776],[-71.065174,42.350713],[-71.06515,42.350701],[-71.065126,42.350713],[-71.065139,42.350768],[-71.065101,42.350777],[-71.065117,42.35084],[-71.065092,42.350847],[-71.065119,42.350917],[-71.065144,42.350909],[-71.065131,42.350857],[-71.065167,42.350847],[-71.065154,42.350792],[-71.065178,42.350794],[-71.065194,42.350776]]],[[[-71.065127,42.354264],[-71.065082,42.354148],[-71.065019,42.354139],[-71.064987,42.354162],[-71.065027,42.354294],[-71.065091,42.354304],[-71.065127,42.354264]]],[[[-71.065049,42.353574],[-71.064997,42.353441],[-71.064919,42.353429],[-71.06488,42.353458],[-71.06488,42.353498],[-71.064927,42.353612],[-71.065004,42.353623],[-71.065049,42.353574]]],[[[-71.064981,42.354373],[-71.064911,42.354156],[-71.064885,42.354137],[-71.064832,42.354145],[-71.064817,42.35417],[-71.064881,42.354388],[-71.064929,42.354412],[-71.064965,42.3544],[-71.064981,42.354373]]],[[[-71.064969,42.354065],[-71.064911,42.353918],[-71.064854,42.3539],[-71.064797,42.353918],[-71.064779,42.353878],[-71.064737,42.353847],[-71.064677,42.353847],[-71.064644,42.353868],[-71.064632,42.353832],[-71.064588,42.3538],[-71.064508,42.353809],[-71.064473,42.353782],[-71.064512,42.353731],[-71.064478,42.353622],[-71.064443,42.353596],[-71.064372,42.353606],[-71.064358,42.353658],[-71.064324,42.353692],[-71.064324,42.353728],[-71.064284,42.353761],[-71.064295,42.353828],[-71.064258,42.353857],[-71.064258,42.353905],[-71.064238,42.353945],[-71.064263,42.354028],[-71.06422,42.35406],[-71.064214,42.354083],[-71.064228,42.354132],[-71.064149,42.354121],[-71.064109,42.354151],[-71.064119,42.354224],[-71.064088,42.354236],[-71.064069,42.35427],[-71.064098,42.354361],[-71.064036,42.354339],[-71.063961,42.354376],[-71.063964,42.354432],[-71.063903,42.354482],[-71.063892,42.354523],[-71.063934,42.354661],[-71.063878,42.354645],[-71.063818,42.354663],[-71.0638,42.354683],[-71.063799,42.354727],[-71.063755,42.354758],[-71.063749,42.35478],[-71.063788,42.354904],[-71.06386,42.35494],[-71.063915,42.354923],[-71.063945,42.354873],[-71.063991,42.354839],[-71.063997,42.354815],[-71.063973,42.354738],[-71.06403,42.354771],[-71.064086,42.354779],[-71.06417,42.354757],[-71.064188,42.354811],[-71.064238,42.354836],[-71.064284,42.354915],[-71.064361,42.354926],[-71.064406,42.354877],[-71.064381,42.354799],[-71.064426,42.354818],[-71.064477,42.354793],[-71.064453,42.354687],[-71.0645,42.354736],[-71.064539,42.354736],[-71.064568,42.354715],[-71.064542,42.354606],[-71.064556,42.3546],[-71.064581,42.354652],[-71.064622,42.354665],[-71.064676,42.354639],[-71.06474,42.354656],[-71.064816,42.354633],[-71.064847,42.354577],[-71.064759,42.354284],[-71.064722,42.354256],[-71.064672,42.354256],[-71.064642,42.35414],[-71.064699,42.354129],[-71.064728,42.354147],[-71.064782,42.354147],[-71.064826,42.354102],[-71.064857,42.35412],[-71.064919,42.35412],[-71.064945,42.354107],[-71.064969,42.354065]],[[-71.064647,42.354365],[-71.064597,42.354359],[-71.064571,42.354378],[-71.064604,42.354491],[-71.064573,42.354497],[-71.064561,42.354458],[-71.064529,42.354435],[-71.064485,42.354435],[-71.064453,42.354458],[-71.064474,42.354586],[-71.064445,42.354531],[-71.064391,42.354521],[-71.064447,42.354474],[-71.064458,42.354432],[-71.064387,42.35423],[-71.06441,42.354188],[-71.064385,42.354105],[-71.064428,42.354073],[-71.06443,42.354033],[-71.064455,42.35399],[-71.064515,42.35398],[-71.06455,42.354043],[-71.064485,42.354046],[-71.064427,42.354089],[-71.064419,42.354119],[-71.064468,42.354277],[-71.064526,42.35432],[-71.064567,42.354326],[-71.06463,42.35431],[-71.064647,42.354365]],[[-71.064363,42.354619],[-71.064316,42.354597],[-71.064268,42.35462],[-71.064294,42.354729],[-71.064276,42.354732],[-71.064263,42.354697],[-71.064233,42.354675],[-71.064173,42.354482],[-71.064117,42.354394],[-71.064156,42.354407],[-71.064177,42.354474],[-71.064209,42.354509],[-71.064256,42.354532],[-71.064361,42.354533],[-71.064346,42.354562],[-71.064363,42.354619]],[[-71.064363,42.354754],[-71.064359,42.35475],[-71.064361,42.35475],[-71.064363,42.354754]]],[[[-71.064958,42.351352],[-71.064943,42.351305],[-71.064909,42.351305],[-71.064923,42.351357],[-71.064946,42.351364],[-71.064958,42.351352]]],[[[-71.064951,42.355111],[-71.064903,42.354957],[-71.06488,42.354932],[-71.064847,42.354915],[-71.064767,42.354915],[-71.064711,42.354957],[-71.064711,42.355015],[-71.064752,42.355141],[-71.064774,42.355166],[-71.064847,42.355188],[-71.064887,42.355182],[-71.064921,42.355166],[-71.064951,42.355111]]],[[[-71.06487,42.348495],[-71.064856,42.348451],[-71.064822,42.348451],[-71.064835,42.3485],[-71.064858,42.348507],[-71.06487,42.348495]]],[[[-71.064752,42.354836],[-71.064738,42.354792],[-71.064704,42.354792],[-71.064717,42.354841],[-71.06474,42.354848],[-71.064752,42.354836]]],[[[-71.064637,42.351865],[-71.064623,42.351821],[-71.064589,42.351821],[-71.064602,42.35187],[-71.064625,42.351877],[-71.064637,42.351865]]],[[[-71.064634,42.348464],[-71.06462,42.34842],[-71.064586,42.34842],[-71.064599,42.348469],[-71.064622,42.348476],[-71.064634,42.348464]]],[[[-71.064582,42.352097],[-71.064567,42.35205],[-71.064533,42.35205],[-71.064543,42.35209],[-71.064526,42.352104],[-71.06454,42.352149],[-71.064512,42.35216],[-71.064536,42.352211],[-71.064559,42.352204],[-71.06455,42.352166],[-71.064581,42.352154],[-71.064567,42.35211],[-71.064582,42.352097]]],[[[-71.064449,42.348438],[-71.064435,42.348394],[-71.064401,42.348394],[-71.064414,42.348443],[-71.064437,42.34845],[-71.064449,42.348438]]],[[[-71.064251,42.350964],[-71.064237,42.35092],[-71.064203,42.35092],[-71.064216,42.350969],[-71.064239,42.350976],[-71.064251,42.350964]]],[[[-71.064226,42.348773],[-71.064207,42.348714],[-71.064165,42.348714],[-71.064182,42.34878],[-71.064212,42.348789],[-71.064226,42.348773]]],[[[-71.064184,42.348887],[-71.064167,42.348835],[-71.064133,42.348835],[-71.064148,42.348893],[-71.064172,42.3489],[-71.064184,42.348887]]],[[[-71.064161,42.350953],[-71.064147,42.350909],[-71.064113,42.350909],[-71.064126,42.350958],[-71.064149,42.350965],[-71.064161,42.350953]]],[[[-71.064104,42.353347],[-71.064087,42.353295],[-71.064053,42.353295],[-71.064068,42.353353],[-71.064092,42.35336],[-71.064104,42.353347]]],[[[-71.064102,42.350976],[-71.064073,42.350897],[-71.064027,42.350897],[-71.06402,42.350923],[-71.064047,42.350993],[-71.064082,42.350998],[-71.064102,42.350976]]],[[[-71.064066,42.35344],[-71.064048,42.353384],[-71.064012,42.353384],[-71.064028,42.353446],[-71.064054,42.353454],[-71.064066,42.35344]]],[[[-71.064029,42.35333],[-71.064012,42.353278],[-71.063978,42.353278],[-71.063993,42.353336],[-71.064017,42.353343],[-71.064029,42.35333]]],[[[-71.064014,42.353807],[-71.063997,42.353755],[-71.063963,42.353755],[-71.063978,42.353813],[-71.064002,42.35382],[-71.064014,42.353807]]],[[[-71.064001,42.353436],[-71.063983,42.35338],[-71.063947,42.35338],[-71.063963,42.353442],[-71.063989,42.35345],[-71.064001,42.353436]]],[[[-71.063995,42.350971],[-71.063962,42.350883],[-71.063919,42.350876],[-71.063898,42.350892],[-71.063928,42.350991],[-71.063971,42.350997],[-71.063995,42.350971]]],[[[-71.06396,42.353321],[-71.063941,42.353262],[-71.063899,42.353262],[-71.063916,42.353328],[-71.063946,42.353337],[-71.06396,42.353321]]],[[[-71.063944,42.353421],[-71.063927,42.353369],[-71.063893,42.353369],[-71.063908,42.353427],[-71.063932,42.353434],[-71.063944,42.353421]]],[[[-71.063942,42.354029],[-71.063913,42.35395],[-71.063867,42.35395],[-71.06386,42.353976],[-71.063887,42.354046],[-71.063922,42.354051],[-71.063942,42.354029]]],[[[-71.063932,42.348725],[-71.063914,42.348669],[-71.063878,42.348669],[-71.063894,42.348731],[-71.06392,42.348739],[-71.063932,42.348725]]],[[[-71.06391,42.348796],[-71.063891,42.348737],[-71.063849,42.348737],[-71.063859,42.34878],[-71.063838,42.348798],[-71.063851,42.348837],[-71.063874,42.348844],[-71.06388,42.348812],[-71.06391,42.348796]]],[[[-71.063896,42.34892],[-71.063878,42.348864],[-71.063842,42.348864],[-71.063858,42.348926],[-71.063884,42.348934],[-71.063896,42.34892]]],[[[-71.063834,42.354176],[-71.063814,42.354113],[-71.06379,42.354101],[-71.063766,42.354113],[-71.063784,42.354183],[-71.063808,42.354195],[-71.063834,42.354176]]],[[[-71.063834,42.349187],[-71.06382,42.349143],[-71.063786,42.349143],[-71.063799,42.349192],[-71.063822,42.349199],[-71.063834,42.349187]]],[[[-71.063821,42.348466],[-71.063807,42.348422],[-71.063773,42.348422],[-71.063786,42.348471],[-71.063809,42.348478],[-71.063821,42.348466]]],[[[-71.063781,42.349332],[-71.063767,42.349288],[-71.063733,42.349288],[-71.063741,42.349322],[-71.06372,42.34933],[-71.063733,42.349379],[-71.063766,42.349379],[-71.063759,42.349345],[-71.063781,42.349332]]],[[[-71.063731,42.348449],[-71.063717,42.348405],[-71.063683,42.348405],[-71.063696,42.348454],[-71.063719,42.348461],[-71.063731,42.348449]]],[[[-71.063727,42.350945],[-71.063698,42.350866],[-71.063652,42.350866],[-71.063645,42.350892],[-71.063672,42.350962],[-71.063707,42.350967],[-71.063727,42.350945]]],[[[-71.063706,42.34981],[-71.063688,42.349754],[-71.063652,42.349754],[-71.063668,42.349816],[-71.063694,42.349824],[-71.063706,42.34981]]],[[[-71.063648,42.349901],[-71.063631,42.349849],[-71.063597,42.349849],[-71.063612,42.349907],[-71.063636,42.349914],[-71.063648,42.349901]]],[[[-71.06363,42.350929],[-71.063611,42.35087],[-71.063569,42.35087],[-71.063586,42.350936],[-71.063616,42.350945],[-71.06363,42.350929]]],[[[-71.063596,42.35],[-71.063578,42.349944],[-71.063542,42.349944],[-71.063558,42.350006],[-71.063584,42.350014],[-71.063596,42.35]]],[[[-71.06359,42.354766],[-71.063554,42.354675],[-71.06352,42.354664],[-71.063486,42.354675],[-71.063471,42.3547],[-71.063495,42.354775],[-71.063441,42.354767],[-71.063411,42.3548],[-71.063436,42.35488],[-71.063481,42.354902],[-71.063516,42.354891],[-71.06353,42.354866],[-71.063506,42.354791],[-71.06356,42.354799],[-71.06359,42.354766]]],[[[-71.063564,42.35092],[-71.063544,42.350857],[-71.06352,42.350845],[-71.063496,42.350857],[-71.063514,42.350927],[-71.063538,42.350939],[-71.063564,42.35092]]],[[[-71.063564,42.350047],[-71.063547,42.349995],[-71.063513,42.349995],[-71.063528,42.350053],[-71.063552,42.35006],[-71.063564,42.350047]]],[[[-71.063474,42.350465],[-71.063457,42.350413],[-71.063423,42.350413],[-71.063438,42.350471],[-71.063462,42.350478],[-71.063474,42.350465]]],[[[-71.063473,42.350225],[-71.063457,42.350175],[-71.063423,42.350175],[-71.063438,42.35023],[-71.063461,42.350237],[-71.063473,42.350225]]],[[[-71.063449,42.350532],[-71.063433,42.350482],[-71.063399,42.350482],[-71.063414,42.350537],[-71.063437,42.350544],[-71.063449,42.350532]]],[[[-71.063443,42.350291],[-71.063417,42.350234],[-71.063393,42.350241],[-71.0634,42.350273],[-71.063367,42.35028],[-71.063392,42.350337],[-71.063416,42.35033],[-71.063409,42.350298],[-71.063443,42.350291]]],[[[-71.063417,42.350592],[-71.063402,42.350545],[-71.063368,42.350545],[-71.063382,42.350597],[-71.063405,42.350604],[-71.063417,42.350592]]],[[[-71.063404,42.350882],[-71.063384,42.350749],[-71.063368,42.350698],[-71.063343,42.350691],[-71.063332,42.35071],[-71.063343,42.350745],[-71.063325,42.350765],[-71.063354,42.350889],[-71.063378,42.350901],[-71.063404,42.350882]]],[[[-71.063382,42.350652],[-71.063367,42.350605],[-71.063333,42.350605],[-71.063347,42.350657],[-71.06337,42.350664],[-71.063382,42.350652]]],[[[-71.063342,42.350482],[-71.063327,42.350435],[-71.063293,42.350435],[-71.063307,42.350487],[-71.06333,42.350494],[-71.063342,42.350482]]],[[[-71.063313,42.350528],[-71.063297,42.350478],[-71.063263,42.350478],[-71.063278,42.350533],[-71.063301,42.35054],[-71.063313,42.350528]]],[[[-71.063288,42.350581],[-71.063272,42.350531],[-71.063238,42.350531],[-71.063253,42.350586],[-71.063276,42.350593],[-71.063288,42.350581]]],[[[-71.063264,42.350629],[-71.063247,42.350577],[-71.063213,42.350577],[-71.063224,42.350622],[-71.063192,42.35063],[-71.063208,42.350683],[-71.063242,42.350683],[-71.063231,42.350637],[-71.063264,42.350629]]],[[[-71.06321,42.350713],[-71.063197,42.350672],[-71.063163,42.350672],[-71.063175,42.350718],[-71.063199,42.350725],[-71.06321,42.350713]]],[[[-71.063193,42.350772],[-71.063177,42.350722],[-71.063143,42.350722],[-71.063158,42.350777],[-71.063181,42.350784],[-71.063193,42.350772]]],[[[-71.063166,42.350815],[-71.063148,42.350759],[-71.063112,42.350759],[-71.063128,42.350821],[-71.063154,42.350829],[-71.063166,42.350815]]],[[[-71.063158,42.35228],[-71.063143,42.352233],[-71.063109,42.352233],[-71.063123,42.352285],[-71.063146,42.352292],[-71.063158,42.35228]]],[[[-71.063097,42.352292],[-71.063082,42.352245],[-71.063048,42.352245],[-71.063062,42.352297],[-71.063085,42.352304],[-71.063097,42.352292]]],[[[-71.062997,42.352295],[-71.062982,42.352248],[-71.062948,42.352248],[-71.062962,42.3523],[-71.062985,42.352307],[-71.062997,42.352295]]],[[[-71.062937,42.352265],[-71.062921,42.352215],[-71.062887,42.352215],[-71.062902,42.35227],[-71.062925,42.352277],[-71.062937,42.352265]]],[[[-71.062862,42.352257],[-71.062847,42.35221],[-71.062813,42.35221],[-71.062827,42.352262],[-71.06285,42.352269],[-71.062862,42.352257]]],[[[-71.062846,42.353352],[-71.062828,42.353296],[-71.062792,42.353296],[-71.062808,42.353358],[-71.062834,42.353366],[-71.062846,42.353352]]],[[[-71.062846,42.353264],[-71.062828,42.353208],[-71.062792,42.353208],[-71.062808,42.35327],[-71.062834,42.353278],[-71.062846,42.353264]]],[[[-71.06278,42.353359],[-71.062761,42.3533],[-71.062719,42.3533],[-71.062736,42.353366],[-71.062766,42.353375],[-71.06278,42.353359]]],[[[-71.06278,42.353257],[-71.062762,42.353201],[-71.062726,42.353201],[-71.062742,42.353263],[-71.062768,42.353271],[-71.06278,42.353257]]],[[[-71.062578,42.348413],[-71.062557,42.348346],[-71.062509,42.348339],[-71.062501,42.348354],[-71.062522,42.348421],[-71.062549,42.348435],[-71.062578,42.348413]]],[[[-71.062519,42.349443],[-71.062484,42.349351],[-71.062438,42.349344],[-71.062415,42.349361],[-71.062447,42.349466],[-71.062493,42.349472],[-71.062519,42.349443]]],[[[-71.06248,42.34861],[-71.062461,42.348551],[-71.062419,42.348551],[-71.062436,42.348617],[-71.062466,42.348626],[-71.06248,42.34861]]],[[[-71.062431,42.348441],[-71.062398,42.348353],[-71.062355,42.348346],[-71.062334,42.348362],[-71.062364,42.348461],[-71.062407,42.348467],[-71.062431,42.348441]]],[[[-71.062415,42.349393],[-71.06238,42.349301],[-71.062334,42.349294],[-71.062311,42.349311],[-71.062343,42.349416],[-71.062389,42.349422],[-71.062415,42.349393]]],[[[-71.062056,42.353802],[-71.062038,42.353746],[-71.062002,42.353746],[-71.062018,42.353808],[-71.062044,42.353816],[-71.062056,42.353802]]],[[[-71.062019,42.349345],[-71.062005,42.349301],[-71.061971,42.349301],[-71.061984,42.34935],[-71.062007,42.349357],[-71.062019,42.349345]]],[[[-71.062001,42.353899],[-71.061987,42.353855],[-71.061953,42.353855],[-71.061966,42.353904],[-71.061989,42.353911],[-71.062001,42.353899]]],[[[-71.061964,42.349477],[-71.06195,42.349433],[-71.061916,42.349433],[-71.061929,42.349482],[-71.061952,42.349489],[-71.061964,42.349477]]],[[[-71.061962,42.349614],[-71.061926,42.349523],[-71.061873,42.349515],[-71.061847,42.349534],[-71.061879,42.349639],[-71.061932,42.349647],[-71.061962,42.349614]]],[[[-71.061941,42.349919],[-71.061927,42.349875],[-71.061893,42.349875],[-71.061906,42.349924],[-71.061929,42.349931],[-71.061941,42.349919]]],[[[-71.061941,42.35375],[-71.061923,42.353694],[-71.061887,42.353694],[-71.061903,42.353756],[-71.061929,42.353764],[-71.061941,42.35375]]],[[[-71.061926,42.353875],[-71.061908,42.353819],[-71.061872,42.353819],[-71.061888,42.353881],[-71.061914,42.353889],[-71.061926,42.353875]]],[[[-71.061911,42.349965],[-71.061897,42.349921],[-71.061863,42.349921],[-71.061876,42.34997],[-71.061899,42.349977],[-71.061911,42.349965]]],[[[-71.061905,42.350039],[-71.061891,42.349995],[-71.061857,42.349995],[-71.06187,42.350044],[-71.061893,42.350051],[-71.061905,42.350039]]],[[[-71.061881,42.350083],[-71.061867,42.350039],[-71.061833,42.350039],[-71.061846,42.350088],[-71.061869,42.350095],[-71.061881,42.350083]]],[[[-71.061875,42.348385],[-71.061838,42.348288],[-71.061789,42.348281],[-71.061764,42.348299],[-71.061798,42.348409],[-71.061847,42.348416],[-71.061875,42.348385]]],[[[-71.061851,42.350119],[-71.061837,42.350075],[-71.061803,42.350075],[-71.061816,42.350124],[-71.061839,42.350131],[-71.061851,42.350119]]],[[[-71.061842,42.353703],[-71.061824,42.353647],[-71.061788,42.353647],[-71.061804,42.353709],[-71.06183,42.353717],[-71.061842,42.353703]]],[[[-71.061841,42.353822],[-71.061827,42.353778],[-71.061793,42.353778],[-71.061806,42.353827],[-71.061829,42.353834],[-71.061841,42.353822]]],[[[-71.061836,42.350191],[-71.061823,42.35015],[-71.061789,42.35015],[-71.061801,42.350196],[-71.061825,42.350203],[-71.061836,42.350191]]],[[[-71.061811,42.35036],[-71.061786,42.350281],[-71.06175,42.350263],[-71.061722,42.350272],[-71.061717,42.350313],[-71.061688,42.350322],[-71.061675,42.350346],[-71.061702,42.350432],[-71.061744,42.350453],[-71.061786,42.350432],[-71.061779,42.350387],[-71.061811,42.35036]]],[[[-71.061811,42.350239],[-71.061797,42.350195],[-71.061763,42.350195],[-71.061776,42.350244],[-71.061799,42.350251],[-71.061811,42.350239]]],[[[-71.061787,42.349732],[-71.061751,42.349641],[-71.061698,42.349633],[-71.061672,42.349652],[-71.061704,42.349757],[-71.061757,42.349765],[-71.061787,42.349732]]],[[[-71.061783,42.34846],[-71.061769,42.348416],[-71.061735,42.348416],[-71.061748,42.348465],[-71.061771,42.348472],[-71.061783,42.34846]]],[[[-71.06178,42.353673],[-71.061744,42.353582],[-71.061691,42.353574],[-71.061665,42.353593],[-71.061697,42.353698],[-71.06175,42.353706],[-71.06178,42.353673]]],[[[-71.06176,42.353777],[-71.061746,42.353733],[-71.061712,42.353733],[-71.061725,42.353782],[-71.061748,42.353789],[-71.06176,42.353777]]],[[[-71.061715,42.348718],[-71.06168,42.348626],[-71.061634,42.348619],[-71.061611,42.348636],[-71.061643,42.348741],[-71.061689,42.348747],[-71.061715,42.348718]]],[[[-71.061672,42.348379],[-71.061629,42.348268],[-71.061569,42.348259],[-71.061539,42.348281],[-71.061578,42.348408],[-71.061638,42.348417],[-71.061672,42.348379]]],[[[-71.061643,42.353595],[-71.061627,42.353545],[-71.061593,42.353545],[-71.061608,42.3536],[-71.061631,42.353607],[-71.061643,42.353595]]],[[[-71.061623,42.348876],[-71.061609,42.348832],[-71.061575,42.348832],[-71.061588,42.348881],[-71.061611,42.348888],[-71.061623,42.348876]]],[[[-71.061621,42.348539],[-71.061607,42.348495],[-71.061573,42.348495],[-71.061586,42.348544],[-71.061609,42.348551],[-71.061621,42.348539]]],[[[-71.061612,42.348229],[-71.061596,42.348179],[-71.061562,42.348179],[-71.061577,42.348234],[-71.0616,42.348241],[-71.061612,42.348229]]],[[[-71.061589,42.348743],[-71.061552,42.348646],[-71.061503,42.348639],[-71.061478,42.348657],[-71.061512,42.348767],[-71.061561,42.348774],[-71.061589,42.348743]]],[[[-71.061569,42.349634],[-71.061533,42.349543],[-71.061499,42.349532],[-71.061456,42.349552],[-71.061435,42.349509],[-71.061401,42.349498],[-71.061356,42.34952],[-71.061388,42.349625],[-71.061422,42.349636],[-71.061465,42.349616],[-71.061486,42.349659],[-71.06152,42.34967],[-71.061555,42.349659],[-71.061569,42.349634]]],[[[-71.061525,42.348924],[-71.06149,42.348832],[-71.061444,42.348825],[-71.061421,42.348842],[-71.061453,42.348947],[-71.061499,42.348953],[-71.061525,42.348924]]],[[[-71.06151,42.351003],[-71.061491,42.350944],[-71.061449,42.350944],[-71.061466,42.35101],[-71.061496,42.351019],[-71.06151,42.351003]]],[[[-71.0615,42.348238],[-71.061454,42.348118],[-71.061386,42.348108],[-71.061353,42.348133],[-71.061381,42.348255],[-71.061417,42.348327],[-71.061463,42.348327],[-71.061463,42.348279],[-71.0615,42.348238]]],[[[-71.061453,42.3493],[-71.061437,42.34925],[-71.061403,42.34925],[-71.061418,42.349305],[-71.061441,42.349312],[-71.061453,42.3493]]],[[[-71.061431,42.351161],[-71.061417,42.351117],[-71.061383,42.351117],[-71.061396,42.351166],[-71.061419,42.351173],[-71.061431,42.351161]]],[[[-71.061416,42.349102],[-71.061398,42.349046],[-71.061362,42.349046],[-71.061378,42.349108],[-71.061404,42.349116],[-71.061416,42.349102]]],[[[-71.06141,42.351219],[-71.061396,42.351175],[-71.061362,42.351175],[-71.061375,42.351224],[-71.061398,42.351231],[-71.06141,42.351219]]],[[[-71.061384,42.351279],[-71.06137,42.351235],[-71.061336,42.351235],[-71.061347,42.35128],[-71.061316,42.351289],[-71.06133,42.351333],[-71.061363,42.351333],[-71.061352,42.351288],[-71.061384,42.351279]]],[[[-71.061381,42.349469],[-71.061367,42.349425],[-71.061333,42.349425],[-71.061346,42.349474],[-71.061369,42.349481],[-71.061381,42.349469]]],[[[-71.061368,42.349287],[-71.061347,42.34922],[-71.061299,42.349213],[-71.061291,42.349228],[-71.061312,42.349295],[-71.061339,42.349309],[-71.061368,42.349287]]],[[[-71.061296,42.349672],[-71.061281,42.349625],[-71.061247,42.349625],[-71.061259,42.349672],[-71.061226,42.349673],[-71.06124,42.349725],[-71.061273,42.349725],[-71.061261,42.349678],[-71.061284,42.349684],[-71.061296,42.349672]]],[[[-71.061257,42.353409],[-71.061243,42.353365],[-71.061209,42.353365],[-71.061222,42.353414],[-71.061245,42.353421],[-71.061257,42.353409]]],[[[-71.061251,42.354813],[-71.061237,42.354769],[-71.061203,42.354769],[-71.061216,42.354818],[-71.061239,42.354825],[-71.061251,42.354813]]],[[[-71.061245,42.3499],[-71.06121,42.349808],[-71.061164,42.349801],[-71.061141,42.349818],[-71.061173,42.349923],[-71.061219,42.349929],[-71.061245,42.3499]]],[[[-71.061201,42.354955],[-71.061187,42.354911],[-71.061153,42.354911],[-71.061166,42.35496],[-71.061189,42.354967],[-71.061201,42.354955]]],[[[-71.061201,42.353383],[-71.061187,42.353339],[-71.061153,42.353339],[-71.061166,42.353388],[-71.061189,42.353395],[-71.061201,42.353383]]],[[[-71.061182,42.350109],[-71.061141,42.350003],[-71.061084,42.349995],[-71.061056,42.350015],[-71.061093,42.350136],[-71.061149,42.350145],[-71.061182,42.350109]]],[[[-71.061151,42.353359],[-71.061137,42.353315],[-71.061103,42.353315],[-71.061116,42.353364],[-71.061139,42.353371],[-71.061151,42.353359]]],[[[-71.061063,42.35332],[-71.061047,42.35327],[-71.061013,42.35327],[-71.061028,42.353325],[-71.061051,42.353332],[-71.061063,42.35332]]],[[[-71.061058,42.348681],[-71.061017,42.348575],[-71.06096,42.348567],[-71.060932,42.348587],[-71.060951,42.348676],[-71.060911,42.348688],[-71.060895,42.348717],[-71.060921,42.348801],[-71.060884,42.348798],[-71.060858,42.348827],[-71.060893,42.34892],[-71.060923,42.348929],[-71.060962,42.348909],[-71.060944,42.348831],[-71.060998,42.348837],[-71.061027,42.348815],[-71.061007,42.348719],[-71.061042,42.348708],[-71.061058,42.348681]]],[[[-71.061051,42.348529],[-71.061037,42.348485],[-71.061003,42.348485],[-71.061016,42.348534],[-71.061039,42.348541],[-71.061051,42.348529]]],[[[-71.061001,42.353402],[-71.060987,42.353358],[-71.060953,42.353358],[-71.060966,42.353407],[-71.060989,42.353414],[-71.061001,42.353402]]],[[[-71.060951,42.353259],[-71.060937,42.353215],[-71.060903,42.353215],[-71.060916,42.353264],[-71.060939,42.353271],[-71.060951,42.353259]]],[[[-71.060937,42.353372],[-71.060922,42.353325],[-71.060888,42.353325],[-71.060902,42.353377],[-71.060925,42.353384],[-71.060937,42.353372]]],[[[-71.060879,42.34927],[-71.060827,42.349137],[-71.060749,42.349125],[-71.06071,42.349154],[-71.06071,42.349194],[-71.060757,42.349308],[-71.060834,42.349319],[-71.060879,42.34927]]],[[[-71.060875,42.353341],[-71.060861,42.353297],[-71.060827,42.353297],[-71.06084,42.353346],[-71.060863,42.353353],[-71.060875,42.353341]]],[[[-71.060754,42.349456],[-71.060718,42.349365],[-71.060665,42.349357],[-71.060639,42.349376],[-71.06066,42.34947],[-71.060612,42.349481],[-71.060597,42.349506],[-71.060636,42.349608],[-71.060671,42.349618],[-71.060716,42.349596],[-71.060691,42.349492],[-71.06074,42.349481],[-71.060754,42.349456]]],[[[-71.060641,42.349299],[-71.060627,42.349255],[-71.060593,42.349255],[-71.060601,42.34929],[-71.060572,42.3493],[-71.060582,42.349332],[-71.060552,42.349342],[-71.060566,42.349386],[-71.060599,42.349386],[-71.060591,42.349349],[-71.060615,42.349348],[-71.060612,42.349309],[-71.060641,42.349299]]],[[[-71.060633,42.349746],[-71.060594,42.349645],[-71.060541,42.349637],[-71.060515,42.349656],[-71.060538,42.349755],[-71.060493,42.349765],[-71.060478,42.349792],[-71.060519,42.349898],[-71.060556,42.34991],[-71.060604,42.349886],[-71.060579,42.349781],[-71.060619,42.349772],[-71.060633,42.349746]]],[[[-71.060611,42.353079],[-71.060597,42.353035],[-71.060563,42.353035],[-71.060576,42.353084],[-71.060599,42.353091],[-71.060611,42.353079]]],[[[-71.060571,42.349446],[-71.060557,42.349402],[-71.060523,42.349402],[-71.060532,42.34944],[-71.060512,42.349453],[-71.060523,42.34949],[-71.060503,42.349508],[-71.060526,42.349557],[-71.06055,42.34955],[-71.06054,42.349508],[-71.06056,42.3495],[-71.06055,42.349459],[-71.060571,42.349446]]],[[[-71.060531,42.353036],[-71.060517,42.352992],[-71.060483,42.352992],[-71.060496,42.353041],[-71.060519,42.353048],[-71.060531,42.353036]]],[[[-71.060522,42.353325],[-71.060507,42.353278],[-71.060473,42.353278],[-71.060487,42.35333],[-71.06051,42.353337],[-71.060522,42.353325]]],[[[-71.060517,42.353189],[-71.060503,42.353145],[-71.060469,42.353145],[-71.060482,42.353194],[-71.060505,42.353201],[-71.060517,42.353189]]],[[[-71.060517,42.349639],[-71.060503,42.349551],[-71.060479,42.349544],[-71.060476,42.349627],[-71.060453,42.349635],[-71.060466,42.349684],[-71.060499,42.349684],[-71.060492,42.349651],[-71.060517,42.349639]]],[[[-71.060482,42.353016],[-71.060467,42.352969],[-71.060433,42.352969],[-71.060447,42.353021],[-71.06047,42.353028],[-71.060482,42.353016]]],[[[-71.060441,42.353473],[-71.060417,42.353375],[-71.060393,42.353368],[-71.060344,42.353394],[-71.060351,42.353436],[-71.060322,42.353447],[-71.060336,42.353491],[-71.060417,42.353499],[-71.060441,42.353473]]],[[[-71.060441,42.353139],[-71.060427,42.353095],[-71.060393,42.353095],[-71.060406,42.353144],[-71.060429,42.353151],[-71.060441,42.353139]]],[[[-71.060402,42.349926],[-71.060387,42.349879],[-71.060353,42.349879],[-71.060367,42.349931],[-71.06039,42.349938],[-71.060402,42.349926]]],[[[-71.060387,42.353109],[-71.060373,42.353065],[-71.060339,42.353065],[-71.060352,42.353114],[-71.060375,42.353121],[-71.060387,42.353109]]],[[[-71.060335,42.350216],[-71.060287,42.350093],[-71.06022,42.350136],[-71.060252,42.350241],[-71.060305,42.350249],[-71.060335,42.350216]]],[[[-71.060331,42.350076],[-71.060317,42.350032],[-71.060283,42.350032],[-71.060296,42.350081],[-71.060319,42.350088],[-71.060331,42.350076]]],[[[-71.060196,42.349538],[-71.060163,42.34945],[-71.06012,42.349443],[-71.060099,42.349459],[-71.060129,42.349558],[-71.060172,42.349564],[-71.060196,42.349538]]],[[[-71.060171,42.353001],[-71.060157,42.352957],[-71.060123,42.352957],[-71.060136,42.353006],[-71.060159,42.353013],[-71.060171,42.353001]]],[[[-71.060138,42.349615],[-71.060117,42.349548],[-71.060069,42.349541],[-71.060061,42.349556],[-71.060082,42.349623],[-71.060109,42.349637],[-71.060138,42.349615]]],[[[-71.060129,42.353483],[-71.060092,42.353386],[-71.060043,42.353379],[-71.060018,42.353397],[-71.060052,42.353507],[-71.060101,42.353514],[-71.060129,42.353483]]],[[[-71.060107,42.349709],[-71.060075,42.349625],[-71.060025,42.349625],[-71.060014,42.349644],[-71.060046,42.349727],[-71.060085,42.349733],[-71.060107,42.349709]]],[[[-71.059995,42.351114],[-71.05996,42.351022],[-71.059914,42.351015],[-71.059891,42.351032],[-71.059923,42.351137],[-71.059969,42.351143],[-71.059995,42.351114]]],[[[-71.059919,42.351191],[-71.059899,42.351128],[-71.059875,42.351116],[-71.059851,42.351128],[-71.059869,42.351198],[-71.059893,42.35121],[-71.059919,42.351191]]],[[[-71.059871,42.353339],[-71.059857,42.353295],[-71.059833,42.353288],[-71.05981,42.353238],[-71.059764,42.353231],[-71.059741,42.353248],[-71.059773,42.353353],[-71.059803,42.353362],[-71.059871,42.353339]]],[[[-71.059772,42.352795],[-71.059757,42.352748],[-71.059723,42.352748],[-71.059737,42.3528],[-71.05976,42.352807],[-71.059772,42.352795]]],[[[-71.059702,42.352779],[-71.059687,42.352732],[-71.059653,42.352732],[-71.059667,42.352784],[-71.05969,42.352791],[-71.059702,42.352779]]],[[[-71.059688,42.355013],[-71.059667,42.354946],[-71.059629,42.354934],[-71.059613,42.354903],[-71.059562,42.354868],[-71.05952,42.354881],[-71.059547,42.354969],[-71.059598,42.355004],[-71.059622,42.355004],[-71.059648,42.355033],[-71.059688,42.355013]]],[[[-71.05967,42.351776],[-71.059634,42.351685],[-71.059581,42.351677],[-71.059555,42.351696],[-71.059587,42.351801],[-71.05964,42.351809],[-71.05967,42.351776]]],[[[-71.059648,42.352772],[-71.059633,42.352725],[-71.059599,42.352725],[-71.059613,42.352777],[-71.059636,42.352784],[-71.059648,42.352772]]],[[[-71.05961,42.352849],[-71.059574,42.352758],[-71.059521,42.35275],[-71.059495,42.352769],[-71.059527,42.352874],[-71.05958,42.352882],[-71.05961,42.352849]]],[[[-71.059582,42.351662],[-71.059553,42.351583],[-71.059507,42.351583],[-71.0595,42.351609],[-71.059527,42.351679],[-71.059562,42.351684],[-71.059582,42.351662]]],[[[-71.059561,42.35176],[-71.059543,42.351704],[-71.059507,42.351704],[-71.059523,42.351766],[-71.059549,42.351774],[-71.059561,42.35176]]],[[[-71.059531,42.351136],[-71.059517,42.351092],[-71.059483,42.351092],[-71.059496,42.351141],[-71.059519,42.351148],[-71.059531,42.351136]]],[[[-71.059502,42.354875],[-71.059473,42.354796],[-71.059438,42.354791],[-71.059389,42.354714],[-71.059339,42.354714],[-71.059328,42.354733],[-71.05936,42.354816],[-71.059383,42.354824],[-71.059397,42.354853],[-71.059432,42.354858],[-71.059458,42.354897],[-71.059482,42.354897],[-71.059502,42.354875]]],[[[-71.059491,42.351209],[-71.059477,42.351165],[-71.059443,42.351165],[-71.059456,42.351214],[-71.059479,42.351221],[-71.059491,42.351209]]],[[[-71.059474,42.351683],[-71.059454,42.35162],[-71.05943,42.351608],[-71.059406,42.35162],[-71.059424,42.35169],[-71.059448,42.351702],[-71.059474,42.351683]]],[[[-71.059441,42.353139],[-71.059427,42.353095],[-71.059393,42.353095],[-71.059406,42.353144],[-71.059429,42.353151],[-71.059441,42.353139]]],[[[-71.059431,42.353049],[-71.059417,42.353005],[-71.059383,42.353005],[-71.059396,42.353054],[-71.059419,42.353061],[-71.059431,42.353049]]],[[[-71.059404,42.351757],[-71.059385,42.351698],[-71.059343,42.351698],[-71.05936,42.351764],[-71.05939,42.351773],[-71.059404,42.351757]]],[[[-71.05934,42.351833],[-71.059321,42.351774],[-71.059279,42.351774],[-71.059296,42.35184],[-71.059326,42.351849],[-71.05934,42.351833]]],[[[-71.059243,42.351366],[-71.059187,42.351235],[-71.059129,42.351197],[-71.059091,42.351197],[-71.059065,42.351216],[-71.0591,42.351332],[-71.059091,42.351357],[-71.05913,42.351459],[-71.059165,42.351469],[-71.059199,42.351459],[-71.059213,42.351433],[-71.059204,42.351401],[-71.059243,42.351366]]],[[[-71.059197,42.353333],[-71.059183,42.353289],[-71.059149,42.353289],[-71.059162,42.353338],[-71.059185,42.353345],[-71.059197,42.353333]]],[[[-71.059112,42.354447],[-71.059083,42.354368],[-71.059037,42.354368],[-71.05903,42.354394],[-71.059057,42.354464],[-71.059092,42.354469],[-71.059112,42.354447]]],[[[-71.059111,42.351499],[-71.059097,42.351455],[-71.059063,42.351455],[-71.059076,42.351504],[-71.059099,42.351511],[-71.059111,42.351499]]],[[[-71.059101,42.353326],[-71.059087,42.353282],[-71.059053,42.353282],[-71.059066,42.353331],[-71.059089,42.353338],[-71.059101,42.353326]]],[[[-71.059084,42.351573],[-71.059064,42.35151],[-71.05904,42.351498],[-71.059016,42.35151],[-71.059034,42.35158],[-71.059058,42.351592],[-71.059084,42.351573]]],[[[-71.059031,42.354371],[-71.059017,42.354327],[-71.058983,42.354327],[-71.058996,42.354376],[-71.059019,42.354383],[-71.059031,42.354371]]],[[[-71.059027,42.351669],[-71.059003,42.351594],[-71.058984,42.35158],[-71.058945,42.351585],[-71.058934,42.351604],[-71.058945,42.351639],[-71.058912,42.351646],[-71.058937,42.351703],[-71.058961,42.351685],[-71.059005,42.351693],[-71.059027,42.351669]]],[[[-71.059011,42.353322],[-71.058997,42.353278],[-71.058963,42.353278],[-71.058976,42.353327],[-71.058999,42.353334],[-71.059011,42.353322]]],[[[-71.058976,42.35434],[-71.058958,42.354284],[-71.058922,42.354284],[-71.058938,42.354346],[-71.058964,42.354354],[-71.058976,42.35434]]],[[[-71.058942,42.351752],[-71.058913,42.351673],[-71.058867,42.351673],[-71.058865,42.351714],[-71.058817,42.351728],[-71.058821,42.351759],[-71.058786,42.351756],[-71.058767,42.35177],[-71.058788,42.351855],[-71.058821,42.351871],[-71.058846,42.351863],[-71.05885,42.351824],[-71.058896,42.351821],[-71.058898,42.351774],[-71.058933,42.351769],[-71.058942,42.351752]]],[[[-71.058877,42.353307],[-71.058863,42.353263],[-71.058829,42.353263],[-71.058842,42.353312],[-71.058865,42.353319],[-71.058877,42.353307]]],[[[-71.058792,42.351868],[-71.058767,42.351814],[-71.058701,42.351818],[-71.058677,42.351845],[-71.058702,42.351924],[-71.058723,42.351939],[-71.058765,42.351933],[-71.058777,42.351913],[-71.058767,42.35188],[-71.058792,42.351868]]],[[[-71.058771,42.353307],[-71.058757,42.353263],[-71.058723,42.353263],[-71.058736,42.353312],[-71.058759,42.353319],[-71.058771,42.353307]]],[[[-71.058712,42.351968],[-71.05869,42.351897],[-71.058672,42.351884],[-71.058637,42.351889],[-71.05863,42.351915],[-71.058597,42.35193],[-71.058628,42.351999],[-71.058692,42.35199],[-71.058712,42.351968]]],[[[-71.058612,42.352079],[-71.058593,42.352019],[-71.058611,42.352006],[-71.058587,42.351955],[-71.058491,42.351968],[-71.058451,42.352018],[-71.058451,42.352042],[-71.058392,42.35206],[-71.058422,42.35216],[-71.058464,42.352181],[-71.058496,42.352171],[-71.058506,42.352135],[-71.058595,42.352108],[-71.058612,42.352079]]],[[[-71.058581,42.352569],[-71.058567,42.352525],[-71.058533,42.352525],[-71.058546,42.352574],[-71.058569,42.352581],[-71.058581,42.352569]]],[[[-71.058521,42.352563],[-71.058498,42.352474],[-71.058473,42.352467],[-71.058462,42.352486],[-71.058486,42.352568],[-71.058509,42.352575],[-71.058521,42.352563]]],[[[-71.058442,42.35257],[-71.058427,42.352523],[-71.058393,42.352523],[-71.058407,42.352575],[-71.05843,42.352582],[-71.058442,42.35257]]],[[[-71.058402,42.352139],[-71.058387,42.352092],[-71.058353,42.352092],[-71.058367,42.352144],[-71.05839,42.352151],[-71.058402,42.352139]]],[[[-71.058401,42.352509],[-71.058387,42.352465],[-71.058353,42.352465],[-71.058366,42.352514],[-71.058389,42.352521],[-71.058401,42.352509]]],[[[-71.058361,42.352559],[-71.058347,42.352515],[-71.058313,42.352515],[-71.058326,42.352564],[-71.058349,42.352571],[-71.058361,42.352559]]],[[[-71.058301,42.350949],[-71.058287,42.350905],[-71.058253,42.350905],[-71.058266,42.350954],[-71.058289,42.350961],[-71.058301,42.350949]]],[[[-71.058291,42.352506],[-71.058277,42.352462],[-71.058243,42.352462],[-71.058252,42.352499],[-71.058232,42.352512],[-71.058246,42.352556],[-71.058279,42.352556],[-71.058271,42.352519],[-71.058291,42.352506]]],[[[-71.058231,42.350926],[-71.058217,42.350882],[-71.058183,42.350882],[-71.058196,42.350931],[-71.058219,42.350938],[-71.058231,42.350926]]],[[[-71.058051,42.352704],[-71.058037,42.35266],[-71.058003,42.35266],[-71.058016,42.352709],[-71.058039,42.352716],[-71.058051,42.352704]]],[[[-71.058045,42.352807],[-71.058031,42.352763],[-71.057997,42.352763],[-71.05801,42.352812],[-71.058033,42.352819],[-71.058045,42.352807]]],[[[-71.058021,42.352944],[-71.058007,42.3529],[-71.057973,42.3529],[-71.057986,42.352949],[-71.058009,42.352956],[-71.058021,42.352944]]],[[[-71.057816,42.350732],[-71.057802,42.350688],[-71.057768,42.350688],[-71.057781,42.350737],[-71.057804,42.350744],[-71.057816,42.350732]]],[[[-71.057771,42.350716],[-71.057757,42.350672],[-71.057723,42.350672],[-71.057736,42.350721],[-71.057759,42.350728],[-71.057771,42.350716]]],[[[-71.057768,42.352282],[-71.057748,42.352219],[-71.057724,42.352207],[-71.0577,42.352219],[-71.057718,42.352289],[-71.057742,42.352301],[-71.057768,42.352282]]],[[[-71.057642,42.352249],[-71.057621,42.352182],[-71.057573,42.352175],[-71.057565,42.35219],[-71.057586,42.352257],[-71.057613,42.352271],[-71.057642,42.352249]]],[[[-71.057554,42.352216],[-71.057534,42.352153],[-71.05751,42.352141],[-71.057486,42.352153],[-71.057504,42.352223],[-71.057528,42.352235],[-71.057554,42.352216]]],[[[-71.057474,42.352196],[-71.057454,42.352133],[-71.05743,42.352121],[-71.057406,42.352133],[-71.057424,42.352203],[-71.057448,42.352215],[-71.057474,42.352196]]],[[[-71.057427,42.350442],[-71.057413,42.350398],[-71.057379,42.350398],[-71.057392,42.350447],[-71.057415,42.350454],[-71.057427,42.350442]]],[[[-71.057411,42.350533],[-71.057397,42.350489],[-71.057363,42.350489],[-71.057376,42.350538],[-71.057399,42.350545],[-71.057411,42.350533]]],[[[-71.057388,42.352169],[-71.057367,42.352102],[-71.057319,42.352095],[-71.057311,42.35211],[-71.057332,42.352177],[-71.057359,42.352191],[-71.057388,42.352169]]],[[[-71.057362,42.351749],[-71.057347,42.351702],[-71.057313,42.351702],[-71.057321,42.351737],[-71.057302,42.35175],[-71.057316,42.351794],[-71.057349,42.351794],[-71.057342,42.351762],[-71.057362,42.351749]]],[[[-71.057322,42.351936],[-71.057308,42.351892],[-71.057274,42.351892],[-71.057287,42.351941],[-71.057263,42.35196],[-71.057285,42.352003],[-71.057308,42.351996],[-71.057297,42.35195],[-71.057322,42.351936]]],[[[-71.057313,42.35097],[-71.057297,42.35092],[-71.057263,42.35092],[-71.057278,42.350975],[-71.057301,42.350982],[-71.057313,42.35097]]],[[[-71.057283,42.351108],[-71.057267,42.351058],[-71.057233,42.351058],[-71.057248,42.351113],[-71.057271,42.35112],[-71.057283,42.351108]]],[[[-71.057221,42.351449],[-71.057207,42.351405],[-71.057173,42.351405],[-71.057186,42.351454],[-71.057209,42.351461],[-71.057221,42.351449]]],[[[-71.057211,42.350589],[-71.057197,42.350545],[-71.057163,42.350545],[-71.057176,42.350594],[-71.057199,42.350601],[-71.057211,42.350589]]],[[[-71.05716,42.350671],[-71.057146,42.350627],[-71.057112,42.350627],[-71.057125,42.350676],[-71.057148,42.350683],[-71.05716,42.350671]]],[[[-71.057107,42.350572],[-71.057093,42.350528],[-71.057059,42.350528],[-71.057072,42.350577],[-71.057095,42.350584],[-71.057107,42.350572]]],[[[-71.057051,42.349879],[-71.057037,42.349835],[-71.057003,42.349835],[-71.057016,42.349884],[-71.057039,42.349891],[-71.057051,42.349879]]],[[[-71.057042,42.349965],[-71.057013,42.349886],[-71.056967,42.349886],[-71.05696,42.349912],[-71.056987,42.349982],[-71.057022,42.349987],[-71.057042,42.349965]]],[[[-71.056884,42.352075],[-71.056867,42.352023],[-71.056833,42.352023],[-71.056848,42.352081],[-71.056872,42.352088],[-71.056884,42.352075]]],[[[-71.056851,42.349828],[-71.056818,42.34974],[-71.056775,42.349733],[-71.056754,42.349749],[-71.056769,42.349817],[-71.05673,42.349831],[-71.05674,42.349881],[-71.056691,42.34989],[-71.056676,42.349915],[-71.056694,42.349972],[-71.056635,42.349992],[-71.056656,42.350085],[-71.056619,42.350074],[-71.056601,42.350094],[-71.056638,42.350173],[-71.056678,42.350153],[-71.056657,42.350087],[-71.056701,42.350108],[-71.056746,42.350086],[-71.056732,42.350015],[-71.056791,42.349995],[-71.056778,42.349926],[-71.05681,42.349911],[-71.056798,42.349854],[-71.056839,42.349848],[-71.056851,42.349828]]],[[[-71.056847,42.350269],[-71.056833,42.350225],[-71.056799,42.350225],[-71.056812,42.350274],[-71.056835,42.350281],[-71.056847,42.350269]]],[[[-71.056811,42.350346],[-71.056797,42.350302],[-71.056763,42.350302],[-71.056776,42.350351],[-71.056799,42.350358],[-71.056811,42.350346]]],[[[-71.056763,42.352039],[-71.056747,42.351989],[-71.056713,42.351989],[-71.056728,42.352044],[-71.056751,42.352051],[-71.056763,42.352039]]],[[[-71.056659,42.35066],[-71.056642,42.350608],[-71.056608,42.350608],[-71.056623,42.350666],[-71.056647,42.350673],[-71.056659,42.35066]]],[[[-71.056644,42.353259],[-71.056624,42.353196],[-71.0566,42.353184],[-71.056576,42.353196],[-71.056594,42.353266],[-71.056618,42.353278],[-71.056644,42.353259]]],[[[-71.056642,42.350247],[-71.056613,42.350168],[-71.056567,42.350168],[-71.05656,42.350194],[-71.056587,42.350264],[-71.056622,42.350269],[-71.056642,42.350247]]],[[[-71.056624,42.350727],[-71.056607,42.350675],[-71.056573,42.350675],[-71.056588,42.350733],[-71.056612,42.35074],[-71.056624,42.350727]]],[[[-71.05658,42.3509],[-71.056544,42.350809],[-71.056491,42.350801],[-71.056465,42.35082],[-71.056497,42.350925],[-71.05655,42.350933],[-71.05658,42.3509]]],[[[-71.056576,42.353215],[-71.056558,42.353159],[-71.056522,42.353159],[-71.056538,42.353221],[-71.056564,42.353229],[-71.056576,42.353215]]],[[[-71.056501,42.353177],[-71.056483,42.353121],[-71.056447,42.353121],[-71.056463,42.353183],[-71.056489,42.353191],[-71.056501,42.353177]]],[[[-71.056484,42.351967],[-71.056467,42.351915],[-71.056433,42.351915],[-71.056448,42.351973],[-71.056472,42.35198],[-71.056484,42.351967]]],[[[-71.056441,42.351069],[-71.056427,42.351025],[-71.056393,42.351025],[-71.056406,42.351074],[-71.056429,42.351081],[-71.056441,42.351069]]],[[[-71.056414,42.351144],[-71.056397,42.351092],[-71.056363,42.351092],[-71.056378,42.35115],[-71.056402,42.351157],[-71.056414,42.351144]]],[[[-71.05641,42.353143],[-71.056391,42.353084],[-71.056349,42.353084],[-71.056366,42.35315],[-71.056396,42.353159],[-71.05641,42.353143]]],[[[-71.0564,42.351936],[-71.056387,42.351895],[-71.056353,42.351895],[-71.056365,42.351941],[-71.056389,42.351948],[-71.0564,42.351936]]],[[[-71.056377,42.351215],[-71.056363,42.351171],[-71.056329,42.351171],[-71.056342,42.35122],[-71.056365,42.351227],[-71.056377,42.351215]]],[[[-71.056354,42.354977],[-71.056337,42.354925],[-71.056303,42.354925],[-71.056318,42.354983],[-71.056342,42.35499],[-71.056354,42.354977]]],[[[-71.056344,42.354883],[-71.056327,42.354831],[-71.056293,42.354831],[-71.056308,42.354889],[-71.056332,42.354896],[-71.056344,42.354883]]],[[[-71.056326,42.3548],[-71.056304,42.354663],[-71.05627,42.354652],[-71.056256,42.354677],[-71.056288,42.354806],[-71.056314,42.354814],[-71.056326,42.3548]]],[[[-71.056272,42.351418],[-71.056247,42.351364],[-71.056223,42.351371],[-71.056229,42.351399],[-71.056204,42.351406],[-71.056227,42.351465],[-71.056251,42.351458],[-71.056246,42.35143],[-71.056272,42.351418]]],[[[-71.056272,42.350889],[-71.056255,42.350837],[-71.056221,42.350837],[-71.056236,42.350895],[-71.05626,42.350902],[-71.056272,42.350889]]],[[[-71.056261,42.353089],[-71.056247,42.353045],[-71.056213,42.353045],[-71.056226,42.353094],[-71.056249,42.353101],[-71.056261,42.353089]]],[[[-71.056242,42.35098],[-71.056225,42.350928],[-71.056191,42.350928],[-71.056206,42.350986],[-71.05623,42.350993],[-71.056242,42.35098]]],[[[-71.056222,42.351492],[-71.056207,42.351445],[-71.056173,42.351445],[-71.056187,42.351497],[-71.05621,42.351504],[-71.056222,42.351492]]],[[[-71.056202,42.351083],[-71.056185,42.351031],[-71.056151,42.351031],[-71.056166,42.351089],[-71.05619,42.351096],[-71.056202,42.351083]]],[[[-71.056164,42.351192],[-71.056147,42.35114],[-71.056113,42.35114],[-71.056128,42.351198],[-71.056152,42.351205],[-71.056164,42.351192]]],[[[-71.056092,42.351752],[-71.056077,42.351705],[-71.056043,42.351705],[-71.056057,42.351757],[-71.05608,42.351764],[-71.056092,42.351752]]],[[[-71.055993,42.351402],[-71.055976,42.35135],[-71.055942,42.35135],[-71.055957,42.351408],[-71.055981,42.351415],[-71.055993,42.351402]]],[[[-71.055969,42.351459],[-71.055952,42.351407],[-71.055918,42.351407],[-71.055933,42.351465],[-71.055957,42.351472],[-71.055969,42.351459]]],[[[-71.055936,42.351529],[-71.055919,42.351477],[-71.055885,42.351477],[-71.0559,42.351535],[-71.055924,42.351542],[-71.055936,42.351529]]],[[[-71.055904,42.351608],[-71.055887,42.351556],[-71.055853,42.351556],[-71.055868,42.351614],[-71.055892,42.351621],[-71.055904,42.351608]]],[[[-71.05589,42.352292],[-71.055865,42.352212],[-71.05582,42.35219],[-71.055786,42.352201],[-71.055775,42.35224],[-71.055737,42.352276],[-71.055762,42.352356],[-71.055807,42.352378],[-71.055842,42.352367],[-71.055852,42.352328],[-71.05589,42.352292]]],[[[-71.055875,42.351669],[-71.055858,42.351617],[-71.055824,42.351617],[-71.055839,42.351675],[-71.055863,42.351682],[-71.055875,42.351669]]],[[[-71.055824,42.351774],[-71.055807,42.351722],[-71.055773,42.351722],[-71.055785,42.351769],[-71.055752,42.351776],[-71.055768,42.351829],[-71.055802,42.351829],[-71.05579,42.351782],[-71.055824,42.351774]]],[[[-71.055808,42.353398],[-71.055779,42.353319],[-71.055733,42.353319],[-71.055726,42.353345],[-71.055753,42.353415],[-71.055788,42.35342],[-71.055808,42.353398]]],[[[-71.055743,42.353453],[-71.055722,42.353386],[-71.055674,42.353379],[-71.055666,42.353394],[-71.055687,42.353461],[-71.055714,42.353475],[-71.055743,42.353453]]],[[[-71.055662,42.35348],[-71.055644,42.353424],[-71.055608,42.353424],[-71.055624,42.353486],[-71.05565,42.353494],[-71.055662,42.35348]]],[[[-71.055574,42.353544],[-71.055557,42.353492],[-71.055523,42.353492],[-71.055538,42.35355],[-71.055562,42.353557],[-71.055574,42.353544]]],[[[-71.055512,42.353572],[-71.055497,42.353525],[-71.055463,42.353525],[-71.055477,42.353577],[-71.0555,42.353584],[-71.055512,42.353572]]],[[[-71.055275,42.353692],[-71.055251,42.353641],[-71.055189,42.353657],[-71.055185,42.353688],[-71.055147,42.3537],[-71.055166,42.35376],[-71.055196,42.353769],[-71.055208,42.353747],[-71.05525,42.353746],[-71.05525,42.353704],[-71.055275,42.353692]]]]},"properties":{"kind":"tree"}}]}