{"type":"FeatureCollection","features":[{"type":"Feature","geometry":{"type":"MultiPolygon","coordinates":[[[[-71.067048,42.352129],[-71.06703,42.351826],[-71.067007,42.351692],[-71.066747,42.351106],[-71.066003,42.351194],[-71.065881,42.34989],[-71.065776,42.349769],[-71.065709,42.349788],[-71.065724,42.349714],[-71.065793,42.349727],[-71.065812,42.349711],[-71.065912,42.34984],[-71.065989,42.349816],[-71.065997,42.349738],[-71.066012,42.349764],[-71.0661,42.34974],[-71.066095,42.349646],[-71.066056,42.349576],[-71.066111,42.349559],[-71.066107,42.349483],[-71.066051,42.349385],[-71.065989,42.349405],[-71.065993,42.349481],[-71.06562,42.349445],[-71.065521,42.349461],[-71.065431,42.349881],[-71.065343,42.350191],[-71.065347,42.350306],[-71.06531,42.3503],[-71.065227,42.350588],[-71.065231,42.350649],[-71.065252,42.350653],[-71.06521,42.350652],[-71.065139,42.350903],[-71.065159,42.35124],[-71.064967,42.35123],[-71.064851,42.351641],[-71.064855,42.351709],[-71.064842,42.351707],[-71.064683,42.352315],[-71.064696,42.352536],[-71.064662,42.352531],[-71.064629,42.352667],[-71.064694,42.352677],[-71.064708,42.352634],[-71.065518,42.352691],[-71.065535,42.352575],[-71.065699,42.352588],[-71.065706,42.352684],[-71.065903,42.352699],[-71.06595,42.352411],[-71.065934,42.352136],[-71.065943,42.352049],[-71.066004,42.352058],[-71.065959,42.352322],[-71.065979,42.352594],[-71.066075,42.352599],[-71.066086,42.352281],[-71.066276,42.35228],[-71.066295,42.352101],[-71.066865,42.352174],[-71.067048,42.352129]]],[[[-71.066496,42.348759],[-71.066483,42.348529],[-71.065988,42.348471],[-71.066012,42.34836],[-71.065995,42.348062],[-71.065837,42.348044],[-71.065752,42.348444],[-71.065769,42.348741],[-71.065817,42.348747],[-71.065822,42.348839],[-71.065918,42.34885],[-71.065926,42.3488],[-71.06593,42.348816],[-71.066468,42.348879],[-71.066496,42.348759]]],[[[-71.065569,42.354421],[-71.065554,42.354318],[-71.065508,42.354299],[-71.06545,42.354322],[-71.065447,42.354426],[-71.065462,42.354448],[-71.065531,42.354461],[-71.065569,42.354421]]],[[[-71.065532,42.347947],[-71.065529,42.347903],[-71.065491,42.347827],[-71.065392,42.347805],[-71.065371,42.347781],[-71.065325,42.347783],[-71.065319,42.347677],[-71.065257,42.347643],[-71.064894,42.347587],[-71.064503,42.347783],[-71.064389,42.348045],[-71.06434,42.34822],[-71.064347,42.348336],[-71.064383,42.348342],[-71.064461,42.348311],[-71.06444,42.348386],[-71.06445,42.348556],[-71.064341,42.348545],[-71.064334,42.348568],[-71.064275,42.348582],[-71.064138,42.348956],[-71.064131,42.349062],[-71.064433,42.349108],[-71.064404,42.349122],[-71.064417,42.349345],[-71.064666,42.349514],[-71.064847,42.349421],[-71.064846,42.349404],[-71.064933,42.349431],[-71.065195,42.349308],[-71.065185,42.34914],[-71.065282,42.34913],[-71.065333,42.348942],[-71.065323,42.348802],[-71.065279,42.348688],[-71.064898,42.348602],[-71.06489,42.348337],[-71.064931,42.348366],[-71.064959,42.348348],[-71.065096,42.348506],[-71.06512,42.348494],[-71.065131,42.348513],[-71.065425,42.348448],[-71.065427,42.34839],[-71.065361,42.348315],[-71.065477,42.348206],[-71.065475,42.348101],[-71.065428,42.348048],[-71.065523,42.347985],[-71.065532,42.347947]]],[[[-71.065423,42.352912],[-71.065421,42.352871],[-71.065303,42.352844],[-71.065288,42.352932],[-71.065314,42.353013],[-71.06538,42.353027],[-71.065423,42.352912]]],[[[-71.065185,42.3499],[-71.065169,42.349617],[-71.064416,42.349501],[-71.064395,42.349572],[-71.063788,42.349479],[-71.063786,42.349308],[-71.063845,42.349185],[-71.063963,42.348769],[-71.063945,42.348463],[-71.063623,42.348413],[-71.063505,42.348828],[-71.063517,42.349033],[-71.063074,42.348966],[-71.063049,42.34901],[-71.063042,42.348898],[-71.063375,42.348948],[-71.063486,42.348546],[-71.063476,42.348381],[-71.063161,42.348333],[-71.063234,42.348341],[-71.063258,42.348258],[-71.063253,42.34818],[-71.06323,42.348148],[-71.063187,42.348141],[-71.063177,42.348169],[-71.063108,42.348158],[-71.063144,42.348116],[-71.063284,42.348148],[-71.063303,42.348079],[-71.063301,42.347999],[-71.062961,42.347921],[-71.062929,42.348],[-71.062933,42.348075],[-71.063052,42.348101],[-71.063055,42.34815],[-71.062902,42.348125],[-71.062915,42.348094],[-71.062909,42.347999],[-71.062855,42.347962],[-71.062735,42.347939],[-71.062689,42.348052],[-71.062691,42.348112],[-71.062667,42.348107],[-71.06264,42.348175],[-71.062645,42.348256],[-71.062604,42.34825],[-71.062448,42.348644],[-71.062453,42.348734],[-71.062425,42.348727],[-71.062409,42.348753],[-71.06229,42.34907],[-71.062234,42.34916],[-71.062241,42.349288],[-71.062169,42.349306],[-71.062155,42.349337],[-71.062158,42.349381],[-71.061999,42.349764],[-71.062004,42.349853],[-71.061969,42.349845],[-71.061924,42.349957],[-71.061929,42.35004],[-71.061899,42.350104],[-71.061898,42.350143],[-71.06188,42.350138],[-71.06178,42.350309],[-71.061762,42.350376],[-71.061746,42.350372],[-71.061673,42.350559],[-71.061686,42.350786],[-71.061597,42.350765],[-71.061565,42.350845],[-71.061568,42.3509],[-71.061545,42.350895],[-71.061526,42.350931],[-71.061462,42.35114],[-71.061448,42.351138],[-71.061352,42.351379],[-71.061361,42.35154],[-71.061289,42.351543],[-71.061304,42.351807],[-71.061367,42.352123],[-71.061386,42.352122],[-71.061402,42.352204],[-71.061557,42.352196],[-71.061553,42.352115],[-71.061605,42.352113],[-71.061652,42.352277],[-71.061711,42.352275],[-71.061726,42.352541],[-71.061487,42.352561],[-71.061528,42.353212],[-71.061483,42.353426],[-71.061496,42.353658],[-71.061343,42.353592],[-71.061379,42.353464],[-71.061336,42.35258],[-71.061194,42.352592],[-71.061121,42.352806],[-71.061104,42.352801],[-71.061008,42.352908],[-71.061002,42.352802],[-71.061103,42.352793],[-71.061136,42.352606],[-71.061108,42.351986],[-71.061048,42.351591],[-71.061109,42.351588],[-71.061238,42.351258],[-71.061227,42.351071],[-71.060769,42.350979],[-71.060611,42.351308],[-71.060619,42.35145],[-71.060388,42.351402],[-71.060369,42.351415],[-71.060375,42.351521],[-71.060438,42.351718],[-71.060475,42.351726],[-71.06048,42.351892],[-71.060561,42.35216],[-71.06057,42.352324],[-71.060665,42.352626],[-71.060614,42.35263],[-71.060606,42.352497],[-71.0605,42.352135],[-71.060316,42.352167],[-71.060309,42.352361],[-71.060276,42.352208],[-71.060118,42.352221],[-71.060133,42.352475],[-71.060176,42.352759],[-71.060196,42.352759],[-71.060201,42.352806],[-71.060282,42.352818],[-71.060268,42.352864],[-71.060278,42.353043],[-71.060709,42.353255],[-71.060811,42.353141],[-71.060821,42.353327],[-71.060695,42.353272],[-71.060146,42.353855],[-71.060133,42.353635],[-71.05995,42.353534],[-71.060099,42.353468],[-71.060138,42.353425],[-71.060221,42.353468],[-71.060336,42.353345],[-71.060325,42.353148],[-71.060198,42.353083],[-71.060156,42.353018],[-71.059657,42.352762],[-71.059553,42.352772],[-71.059555,42.352814],[-71.059531,42.352816],[-71.059582,42.353197],[-71.059593,42.353196],[-71.059627,42.353407],[-71.05968,42.353433],[-71.059597,42.353398],[-71.059432,42.35339],[-71.05941,42.353411],[-71.05939,42.353095],[-71.059318,42.352574],[-71.0593,42.352572],[-71.059292,42.352429],[-71.059226,42.352012],[-71.058965,42.352116],[-71.058906,42.352152],[-71.058834,42.352228],[-71.058775,42.35235],[-71.058785,42.352527],[-71.058176,42.352542],[-71.058142,42.35255],[-71.058055,42.352616],[-71.057947,42.353231],[-71.057959,42.353442],[-71.057933,42.353509],[-71.057944,42.353692],[-71.057958,42.353725],[-71.058054,42.353792],[-71.058057,42.353837],[-71.058014,42.353836],[-71.057865,42.354076],[-71.057846,42.353741],[-71.057785,42.35372],[-71.057833,42.353416],[-71.057796,42.352781],[-71.057688,42.352735],[-71.05756,42.352748],[-71.05731,42.352888],[-71.057163,42.352943],[-71.05712,42.352979],[-71.057099,42.353043],[-71.057138,42.353689],[-71.056994,42.353924],[-71.056971,42.353492],[-71.056948,42.353395],[-71.056877,42.353407],[-71.05684,42.352927],[-71.056884,42.352915],[-71.056914,42.352876],[-71.057025,42.352663],[-71.057011,42.352413],[-71.057102,42.352437],[-71.057165,42.352099],[-71.057142,42.351706],[-71.057166,42.351699],[-71.05733,42.350871],[-71.057323,42.350747],[-71.057358,42.350729],[-71.057444,42.350302],[-71.057474,42.350306],[-71.057523,42.350064],[-71.057505,42.349748],[-71.057133,42.349667],[-71.05695,42.350087],[-71.056922,42.350095],[-71.056797,42.350339],[-71.05681,42.350567],[-71.05684,42.350571],[-71.056842,42.350603],[-71.056678,42.350643],[-71.05656,42.350888],[-71.056564,42.350953],[-71.056543,42.350948],[-71.056401,42.351249],[-71.056408,42.351368],[-71.056294,42.351331],[-71.056079,42.351765],[-71.056097,42.352069],[-71.05594,42.352127],[-71.055846,42.352326],[-71.055903,42.353305],[-71.055897,42.353294],[-71.055573,42.353469],[-71.055575,42.353505],[-71.055421,42.353589],[-71.055376,42.353638],[-71.055342,42.353603],[-71.054915,42.353838],[-71.054921,42.353935],[-71.054851,42.353901],[-71.054776,42.353908],[-71.054391,42.354111],[-71.054359,42.354149],[-71.054422,42.355205],[-71.054677,42.35547],[-71.054727,42.355484],[-71.054794,42.355468],[-71.055087,42.355209],[-71.055098,42.355407],[-71.055259,42.355555],[-71.055309,42.355559],[-71.0556,42.355385],[-71.055722,42.356064],[-71.055752,42.356066],[-71.055766,42.356303],[-71.055872,42.356881],[-71.056324,42.356837],[-71.056277,42.356027],[-71.056398,42.355997],[-71.056364,42.355412],[-71.056246,42.354758],[-71.056231,42.354504],[-71.056194,42.354374],[-71.056116,42.353896],[-71.056326,42.353983],[-71.056337,42.354178],[-71.056373,42.354391],[-71.056413,42.354419],[-71.056422,42.354549],[-71.056467,42.354797],[-71.056504,42.354808],[-71.056555,42.355687],[-71.056619,42.356044],[-71.057402,42.355985],[-71.057349,42.355074],[-71.057594,42.355151],[-71.057783,42.354841],[-71.057937,42.354891],[-71.05787,42.354957],[-71.057879,42.35519],[-71.057926,42.355208],[-71.058107,42.355211],[-71.058173,42.355341],[-71.0583,42.355356],[-71.058363,42.355334],[-71.058449,42.35525],[-71.058441,42.35511],[-71.058459,42.35512],[-71.058538,42.355052],[-71.058553,42.355256],[-71.058876,42.355396],[-71.058902,42.355841],[-71.058976,42.355896],[-71.059268,42.356015],[-71.059514,42.355801],[-71.059577,42.355723],[-71.059551,42.355265],[-71.059649,42.355174],[-71.059638,42.354993],[-71.060231,42.35544],[-71.060322,42.355375],[-71.060487,42.355493],[-71.060648,42.355359],[-71.060696,42.355396],[-71.061095,42.355024],[-71.061107,42.355031],[-71.06106,42.355076],[-71.061072,42.355284],[-71.061385,42.355441],[-71.061557,42.355254],[-71.061553,42.355186],[-71.061663,42.355243],[-71.061759,42.355143],[-71.062055,42.355308],[-71.062193,42.355368],[-71.06236,42.355189],[-71.062356,42.355106],[-71.062367,42.355196],[-71.062479,42.355259],[-71.06251,42.355232],[-71.062514,42.355304],[-71.062604,42.355355],[-71.062657,42.355299],[-71.0627,42.355324],[-71.06282,42.355199],[-71.062823,42.355255],[-71.063129,42.355417],[-71.063186,42.355358],[-71.06334,42.355404],[-71.063371,42.355406],[-71.06339,42.355372],[-71.063429,42.355383],[-71.063718,42.354847],[-71.063713,42.354765],[-71.06374,42.354727],[-71.063728,42.35452],[-71.063739,42.354499],[-71.063772,42.354509],[-71.063812,42.354473],[-71.063876,42.354356],[-71.063882,42.354243],[-71.063916,42.354253],[-71.064009,42.354096],[-71.064022,42.354054],[-71.064,42.353663],[-71.064059,42.353678],[-71.064097,42.353569],[-71.064161,42.353574],[-71.064228,42.353494],[-71.064259,42.353408],[-71.064252,42.353303],[-71.064285,42.353305],[-71.064314,42.353206],[-71.064332,42.353207],[-71.064367,42.353056],[-71.064362,42.352978],[-71.064391,42.352752],[-71.064383,42.352608],[-71.064468,42.35261],[-71.064503,42.35259],[-71.064635,42.352069],[-71.064628,42.351954],[-71.064647,42.351956],[-71.06468,42.351834],[-71.064668,42.351614],[-71.06469,42.351577],[-71.064859,42.351594],[-71.064889,42.351433],[-71.064865,42.351014],[-71.064923,42.351022],[-71.065024,42.350642],[-71.065004,42.350301],[-71.065056,42.350309],[-71.065153,42.349943],[-71.065173,42.349947],[-71.065185,42.3499]],[[-71.064344,42.351177],[-71.063934,42.351133],[-71.063928,42.351153],[-71.063809,42.351128],[-71.063797,42.350925],[-71.063944,42.35099],[-71.064341,42.351117],[-71.064344,42.351177]],[[-71.064179,42.352403],[-71.06413,42.352402],[-71.064139,42.352359],[-71.064177,42.352364],[-71.064179,42.352403]],[[-71.064045,42.350453],[-71.06399,42.350541],[-71.063921,42.350517],[-71.063915,42.350416],[-71.063539,42.350364],[-71.063408,42.350576],[-71.063438,42.351086],[-71.06329,42.35107],[-71.063266,42.35119],[-71.063273,42.351069],[-71.063092,42.351048],[-71.063161,42.350812],[-71.063144,42.350532],[-71.063169,42.350445],[-71.063295,42.350464],[-71.063374,42.3503],[-71.06339,42.350303],[-71.063474,42.350001],[-71.063477,42.349942],[-71.063606,42.349957],[-71.064045,42.350453]],[[-71.063938,42.352439],[-71.063911,42.352819],[-71.063871,42.352842],[-71.063887,42.352651],[-71.063875,42.352437],[-71.063938,42.352439]],[[-71.063862,42.352941],[-71.06386,42.352983],[-71.063859,42.352983],[-71.063862,42.352941]],[[-71.063801,42.353574],[-71.063768,42.353564],[-71.063714,42.353649],[-71.063708,42.35354],[-71.063799,42.353546],[-71.063801,42.353574]],[[-71.063467,42.351613],[-71.062895,42.351546],[-71.062827,42.351891],[-71.06283,42.351945],[-71.062817,42.351944],[-71.062772,42.35217],[-71.062784,42.35238],[-71.062856,42.352388],[-71.062859,42.352439],[-71.062724,42.352454],[-71.062724,42.352488],[-71.062711,42.352487],[-71.062723,42.352434],[-71.06268,42.351694],[-71.062739,42.351707],[-71.062836,42.351341],[-71.062948,42.351355],[-71.062918,42.351459],[-71.062921,42.35153],[-71.063428,42.351594],[-71.063448,42.351593],[-71.063462,42.351536],[-71.063467,42.351613]],[[-71.063443,42.354062],[-71.063356,42.354157],[-71.063352,42.354058],[-71.063443,42.354062]],[[-71.063244,42.351353],[-71.063237,42.351356],[-71.063243,42.351325],[-71.063244,42.351353]],[[-71.063004,42.349605],[-71.062988,42.349599],[-71.063003,42.349581],[-71.063004,42.349605]],[[-71.063,42.349147],[-71.063,42.349197],[-71.062985,42.34916],[-71.063,42.349147]],[[-71.06286,42.348185],[-71.06286,42.348288],[-71.062773,42.348275],[-71.062779,42.348167],[-71.06286,42.348185]],[[-71.062753,42.354947],[-71.062707,42.354926],[-71.06275,42.354885],[-71.062753,42.354947]],[[-71.062731,42.349498],[-71.062706,42.349488],[-71.06273,42.349477],[-71.062731,42.349498]],[[-71.062721,42.353391],[-71.062533,42.353622],[-71.062491,42.353619],[-71.062434,42.353688],[-71.062423,42.353294],[-71.06244,42.353281],[-71.062461,42.352867],[-71.062606,42.352881],[-71.06267,42.35265],[-71.062647,42.353118],[-71.06266,42.353337],[-71.062721,42.353391]],[[-71.06271,42.350285],[-71.062665,42.350453],[-71.062653,42.350448],[-71.062644,42.350257],[-71.06271,42.350285]],[[-71.062593,42.349444],[-71.062574,42.349455],[-71.062484,42.349415],[-71.062555,42.349378],[-71.062558,42.349427],[-71.062593,42.349444]],[[-71.062519,42.349847],[-71.062445,42.349947],[-71.062448,42.350012],[-71.062211,42.349913],[-71.062218,42.349898],[-71.062263,42.349917],[-71.062351,42.349891],[-71.062493,42.349829],[-71.062519,42.349847]],[[-71.062446,42.351603],[-71.062436,42.351601],[-71.062431,42.351498],[-71.06244,42.3515],[-71.062446,42.351603]],[[-71.062299,42.350942],[-71.062278,42.351002],[-71.062281,42.351062],[-71.062158,42.351034],[-71.062212,42.351554],[-71.062119,42.351535],[-71.062076,42.35113],[-71.062093,42.351134],[-71.062121,42.351066],[-71.062116,42.350982],[-71.062202,42.351004],[-71.062295,42.350871],[-71.062299,42.350942]],[[-71.062242,42.354848],[-71.062217,42.354875],[-71.062142,42.354849],[-71.062172,42.354815],[-71.062242,42.354848]],[[-71.062092,42.354113],[-71.062067,42.354108],[-71.062045,42.354131],[-71.062042,42.354081],[-71.062092,42.354113]],[[-71.061812,42.354461],[-71.061767,42.354437],[-71.061808,42.354397],[-71.061812,42.354461]],[[-71.061379,42.354958],[-71.061276,42.354905],[-71.061371,42.354816],[-71.061379,42.354958]],[[-71.060939,42.352053],[-71.060933,42.352054],[-71.060931,42.352019],[-71.060939,42.352053]],[[-71.060779,42.352],[-71.060742,42.351969],[-71.060677,42.351763],[-71.060705,42.351759],[-71.060779,42.352]],[[-71.059426,42.354819],[-71.0592,42.354651],[-71.059377,42.354669],[-71.059383,42.354768],[-71.059426,42.354819]],[[-71.05918,42.354038],[-71.059135,42.354047],[-71.059132,42.354011],[-71.05918,42.354038]],[[-71.059007,42.354619],[-71.058729,42.354867],[-71.058727,42.354826],[-71.058871,42.354717],[-71.058978,42.354617],[-71.058977,42.354597],[-71.059007,42.354619]],[[-71.058561,42.354279],[-71.05853,42.354308],[-71.058528,42.354267],[-71.058561,42.354279]],[[-71.058418,42.354069],[-71.058416,42.354068],[-71.058418,42.354068],[-71.058418,42.354069]],[[-71.058274,42.35456],[-71.058261,42.354572],[-71.05826,42.354552],[-71.058274,42.35456]],[[-71.058207,42.353933],[-71.058182,42.353917],[-71.058206,42.353918],[-71.058207,42.353933]],[[-71.057226,42.354882],[-71.057209,42.354875],[-71.057226,42.354881],[-71.057226,42.354882]],[[-71.057034,42.354805],[-71.05689,42.354747],[-71.056835,42.354751],[-71.056802,42.354308],[-71.056818,42.354287],[-71.05681,42.354149],[-71.0569,42.35412],[-71.056903,42.354171],[-71.056999,42.354203],[-71.057034,42.354805]],[[-71.056959,42.351163],[-71.056948,42.351187],[-71.056947,42.35116],[-71.056959,42.351163]],[[-71.056847,42.351554],[-71.056814,42.351539],[-71.056842,42.351478],[-71.056847,42.351554]],[[-71.055898,42.353979],[-71.055839,42.354006],[-71.055836,42.353954],[-71.055895,42.353928],[-71.055898,42.353979]],[[-71.055418,42.354209],[-71.055193,42.354305],[-71.055097,42.354378],[-71.055085,42.354173],[-71.055166,42.354254],[-71.055412,42.354098],[-71.055418,42.354209]]],[[[-71.064612,42.353308],[-71.06461,42.353278],[-71.064542,42.353266],[-71.06451,42.353396],[-71.064578,42.35341],[-71.064612,42.353308]]],[[[-71.064115,42.347979],[-71.064113,42.347947],[-71.063968,42.347919],[-71.063883,42.347989],[-71.063856,42.347985],[-71.063829,42.348081],[-71.063833,42.348146],[-71.063565,42.348108],[-71.063611,42.347946],[-71.063606,42.347866],[-71.06346,42.347843],[-71.063365,42.348193],[-71.063371,42.348293],[-71.063889,42.348371],[-71.063912,42.348417],[-71.064031,42.348434],[-71.064044,42.348387],[-71.064083,42.348393],[-71.064109,42.348298],[-71.064101,42.348033],[-71.064115,42.347979]]],[[[-71.063937,42.354858],[-71.063935,42.354829],[-71.063869,42.354811],[-71.063848,42.354889],[-71.063914,42.354906],[-71.063937,42.354858]]],[[[-71.062462,42.348232],[-71.062446,42.347953],[-71.061926,42.347827],[-71.061883,42.34793],[-71.061866,42.34764],[-71.061712,42.347604],[-71.061566,42.347954],[-71.061555,42.348046],[-71.061572,42.348344],[-71.061414,42.348308],[-71.061385,42.348414],[-71.061391,42.348526],[-71.061407,42.348545],[-71.061351,42.348556],[-71.061342,42.348577],[-71.061288,42.348565],[-71.061244,42.348672],[-71.061248,42.348743],[-71.061155,42.348757],[-71.06111,42.348835],[-71.061094,42.348905],[-71.061101,42.349033],[-71.061083,42.349084],[-71.061089,42.349184],[-71.061146,42.349197],[-71.061145,42.349317],[-71.061023,42.349267],[-71.06102,42.349213],[-71.061004,42.349207],[-71.061004,42.349108],[-71.060973,42.349088],[-71.06098,42.34907],[-71.06104,42.349084],[-71.061057,42.349044],[-71.061054,42.348944],[-71.060997,42.348929],[-71.061071,42.348727],[-71.061132,42.348742],[-71.061243,42.3485],[-71.061362,42.348517],[-71.061365,42.348369],[-71.061315,42.348348],[-71.061312,42.348227],[-71.061184,42.348198],[-71.061147,42.348242],[-71.061086,42.348434],[-71.061068,42.348118],[-71.061011,42.348097],[-71.060549,42.348739],[-71.06058,42.349279],[-71.060744,42.349319],[-71.060975,42.349417],[-71.060987,42.349388],[-71.060989,42.349424],[-71.061201,42.349516],[-71.061249,42.349445],[-71.061246,42.349396],[-71.061275,42.349404],[-71.061341,42.349249],[-71.061443,42.348946],[-71.061437,42.348834],[-71.061486,42.348845],[-71.061611,42.34852],[-71.061626,42.348523],[-71.061647,42.348472],[-71.061643,42.348408],[-71.061694,42.34842],[-71.061881,42.347998],[-71.061891,42.348168],[-71.06165,42.348751],[-71.061585,42.348952],[-71.061552,42.34896],[-71.061532,42.349042],[-71.061349,42.349469],[-71.061353,42.349587],[-71.061307,42.349568],[-71.061196,42.349845],[-71.061205,42.349995],[-71.061162,42.349985],[-71.061139,42.350043],[-71.06114,42.350069],[-71.0612,42.350082],[-71.061209,42.350062],[-71.06121,42.350082],[-71.06109,42.35016],[-71.061001,42.350379],[-71.061015,42.350616],[-71.060905,42.350589],[-71.060989,42.350383],[-71.060966,42.349994],[-71.060556,42.349902],[-71.060598,42.349799],[-71.060567,42.349259],[-71.060443,42.349109],[-71.060321,42.349063],[-71.060204,42.349326],[-71.059925,42.350048],[-71.059941,42.350317],[-71.059867,42.350296],[-71.059794,42.350499],[-71.059793,42.350702],[-71.059819,42.350721],[-71.060029,42.350766],[-71.060078,42.350626],[-71.060189,42.350661],[-71.059972,42.351168],[-71.059979,42.351293],[-71.060259,42.351355],[-71.060272,42.351337],[-71.060273,42.351349],[-71.060476,42.351394],[-71.060602,42.351112],[-71.060597,42.351021],[-71.060657,42.350843],[-71.060712,42.350855],[-71.060759,42.350746],[-71.060756,42.350695],[-71.060851,42.350722],[-71.060882,42.350645],[-71.060839,42.350774],[-71.060845,42.350883],[-71.061061,42.35093],[-71.061197,42.350915],[-71.061198,42.350931],[-71.061329,42.350957],[-71.061363,42.350851],[-71.06136,42.350735],[-71.061314,42.350702],[-71.061498,42.350744],[-71.061783,42.350071],[-71.061813,42.35008],[-71.061836,42.350068],[-71.061999,42.349685],[-71.061975,42.34927],[-71.061824,42.349238],[-71.061839,42.34916],[-71.061776,42.349146],[-71.061904,42.348885],[-71.061895,42.34873],[-71.061856,42.348721],[-71.061917,42.348571],[-71.062219,42.34864],[-71.062238,42.348598],[-71.062266,42.348604],[-71.062372,42.348318],[-71.062427,42.348321],[-71.062462,42.348232]],[[-71.062219,42.348296],[-71.062165,42.348433],[-71.061989,42.348392],[-71.06204,42.348265],[-71.062219,42.348296]],[[-71.060969,42.349211],[-71.06092,42.349217],[-71.060927,42.349202],[-71.060969,42.349211]],[[-71.060395,42.350464],[-71.060382,42.350512],[-71.06033,42.350501],[-71.060358,42.350431],[-71.060351,42.350311],[-71.060385,42.350294],[-71.060395,42.350464]],[[-71.06035,42.350867],[-71.060307,42.350857],[-71.060324,42.350817],[-71.060344,42.350821],[-71.06035,42.350867]]],[[[-71.061649,42.352483],[-71.061625,42.3523],[-71.061514,42.352311],[-71.061454,42.352351],[-71.061471,42.3525],[-71.061649,42.352483]]],[[[-71.060454,42.352091],[-71.060448,42.351979],[-71.060247,42.351383],[-71.060234,42.351369],[-71.059977,42.351309],[-71.059964,42.35134],[-71.059962,42.351307],[-71.059758,42.351262],[-71.059709,42.351391],[-71.059723,42.351642],[-71.059826,42.352272],[-71.060042,42.352254],[-71.060033,42.352102],[-71.059951,42.351593],[-71.059964,42.351659],[-71.060095,42.351656],[-71.060105,42.351633],[-71.060165,42.35162],[-71.060231,42.351838],[-71.060056,42.351864],[-71.060084,42.352139],[-71.060262,42.352131],[-71.060454,42.352091]],[[-71.059948,42.351577],[-71.059947,42.351572],[-71.059948,42.351571],[-71.059948,42.351577]]],[[[-71.059759,42.352674],[-71.05974,42.352423],[-71.059715,42.35226],[-71.059695,42.352262],[-71.059626,42.351804],[-71.059386,42.351848],[-71.059398,42.352048],[-71.059489,42.352657],[-71.059759,42.352674]]],[[[-71.059515,42.350387],[-71.059505,42.350215],[-71.059471,42.35018],[-71.059047,42.350086],[-71.058996,42.350102],[-71.058689,42.350861],[-71.058699,42.351025],[-71.058633,42.351011],[-71.058362,42.351689],[-71.05837,42.351831],[-71.058566,42.351874],[-71.058754,42.351696],[-71.058928,42.351473],[-71.059046,42.351243],[-71.05904,42.351138],[-71.059153,42.351163],[-71.059208,42.351147],[-71.059515,42.350387]]],[[[-71.059321,42.34977],[-71.059318,42.349726],[-71.059179,42.349693],[-71.059105,42.349866],[-71.059108,42.349909],[-71.059247,42.349942],[-71.059321,42.34977]]],[[[-71.058791,42.350295],[-71.058776,42.350034],[-71.058372,42.349945],[-71.058317,42.350137],[-71.058307,42.349958],[-71.058331,42.349963],[-71.058425,42.349727],[-71.058411,42.349495],[-71.058428,42.349452],[-71.058424,42.349376],[-71.058018,42.349286],[-71.058093,42.349101],[-71.058071,42.348706],[-71.057613,42.348605],[-71.057529,42.348814],[-71.057552,42.349204],[-71.057918,42.349285],[-71.057859,42.349433],[-71.057863,42.349509],[-71.057976,42.349533],[-71.057962,42.349568],[-71.057872,42.349548],[-71.057855,42.349633],[-71.057945,42.349653],[-71.057955,42.349826],[-71.057974,42.34983],[-71.057975,42.349854],[-71.057874,42.34983],[-71.057688,42.349927],[-71.057546,42.350612],[-71.057555,42.350759],[-71.057527,42.350772],[-71.057378,42.351533],[-71.057383,42.351612],[-71.057355,42.351608],[-71.057276,42.352035],[-71.05729,42.352285],[-71.057942,42.35249],[-71.057966,42.352485],[-71.058129,42.351987],[-71.058122,42.351846],[-71.058143,42.351849],[-71.058426,42.351151],[-71.058414,42.350953],[-71.058259,42.350914],[-71.058279,42.35087],[-71.058464,42.350917],[-71.058471,42.3509],[-71.058494,42.350905],[-71.058539,42.350814],[-71.058552,42.350817],[-71.058563,42.350789],[-71.058589,42.350795],[-71.058656,42.350628],[-71.058646,42.35046],[-71.058721,42.350471],[-71.058782,42.35036],[-71.058791,42.350295]],[[-71.058314,42.350149],[-71.058142,42.350751],[-71.05815,42.350887],[-71.058104,42.350876],[-71.058062,42.351046],[-71.058054,42.350912],[-71.058074,42.350917],[-71.058198,42.350486],[-71.058194,42.35041],[-71.058211,42.350413],[-71.058256,42.350267],[-71.058249,42.350162],[-71.058277,42.350169],[-71.058314,42.350149]],[[-71.057992,42.351299],[-71.057903,42.351616],[-71.057907,42.351689],[-71.057885,42.351686],[-71.057845,42.351811],[-71.057899,42.351541],[-71.057896,42.35148],[-71.057931,42.351375],[-71.057926,42.351289],[-71.057992,42.351299]]],[[[-71.056784,42.349353],[-71.056775,42.349199],[-71.056596,42.349149],[-71.055554,42.349447],[-71.056692,42.34775],[-71.056673,42.347544],[-71.055908,42.347262],[-71.054533,42.349309],[-71.054519,42.349436],[-71.054447,42.34941],[-71.053477,42.350853],[-71.053491,42.351102],[-71.054072,42.351317],[-71.054181,42.351178],[-71.054341,42.351237],[-71.05531,42.349776],[-71.055351,42.349735],[-71.055025,42.350377],[-71.055034,42.350531],[-71.055126,42.350602],[-71.055128,42.350648],[-71.055186,42.350664],[-71.055192,42.350653],[-71.055376,42.350793],[-71.055528,42.350849],[-71.056163,42.350843],[-71.056247,42.350827],[-71.056443,42.350435],[-71.056644,42.349936],[-71.056784,42.349353]]],[[[-71.055782,42.351856],[-71.055768,42.35162],[-71.055498,42.351545],[-71.054479,42.351779],[-71.054307,42.351954],[-71.054321,42.35219],[-71.054847,42.352468],[-71.055007,42.352519],[-71.055175,42.352544],[-71.05523,42.352532],[-71.055352,42.352504],[-71.055472,42.352414],[-71.055563,42.352305],[-71.055782,42.351856]]]]},"properties":{"kind":"building"}},{"type":"Feature","geometry":{"type":"MultiPolygon","coordinates":[[[[-71.066067,42.353599],[-71.066047,42.35341],[-71.066015,42.353375],[-71.065922,42.353345],[-71.065921,42.353265],[-71.065989,42.353241],[-71.066015,42.353213],[-71.066021,42.353117],[-71.066055,42.353057],[-71.066048,42.352923],[-71.066021,42.352832],[-71.065989,42.352797],[-71.065886,42.352765],[-71.06583,42.352773],[-71.065775,42.352805],[-71.065768,42.352761],[-71.065705,42.352726],[-71.065747,42.352711],[-71.065818,42.352743],[-71.065883,42.352714],[-71.0659,42.352735],[-71.065953,42.352751],[-71.066006,42.352735],[-71.066027,42.352696],[-71.066022,42.352597],[-71.065976,42.352546],[-71.065918,42.352546],[-71.065882,42.352572],[-71.065841,42.352538],[-71.065759,42.35255],[-71.065717,42.352522],[-71.065659,42.352522],[-71.065619,42.352552],[-71.065615,42.352601],[-71.065539,42.352598],[-71.06549,42.352634],[-71.065496,42.352797],[-71.065465,42.352849],[-71.06547,42.352942],[-71.065458,42.352998],[-71.065408,42.353037],[-71.065405,42.353144],[-71.065375,42.353174],[-71.065368,42.353226],[-71.065321,42.353203],[-71.065213,42.353203],[-71.065212,42.353188],[-71.065245,42.353195],[-71.065294,42.35318],[-71.065314,42.353145],[-71.065303,42.353032],[-71.065276,42.35301],[-71.065271,42.352957],[-71.06525,42.352941],[-71.065199,42.352957],[-71.065199,42.353012],[-71.065172,42.353051],[-71.065176,42.353124],[-71.065123,42.353143],[-71.065124,42.353225],[-71.065096,42.353185],[-71.06506,42.353168],[-71.065018,42.353161],[-71.064943,42.353184],[-71.064928,42.353066],[-71.064865,42.353015],[-71.06483,42.352952],[-71.064791,42.352933],[-71.064699,42.352933],[-71.064634,42.352981],[-71.064633,42.353155],[-71.064655,42.353242],[-71.064581,42.353265],[-71.064549,42.353323],[-71.064564,42.353482],[-71.06453,42.353536],[-71.064545,42.353687],[-71.0646,42.353727],[-71.064638,42.353733],[-71.064709,42.353711],[-71.064739,42.353658],[-71.064727,42.35352],[-71.064769,42.353485],[-71.064777,42.353454],[-71.064814,42.353461],[-71.064864,42.353446],[-71.064885,42.353408],[-71.064881,42.353343],[-71.064912,42.353323],[-71.064924,42.353405],[-71.064942,42.353426],[-71.064895,42.353441],[-71.064875,42.353478],[-71.06488,42.353574],[-71.064901,42.353612],[-71.064952,42.353627],[-71.065002,42.353612],[-71.065023,42.353574],[-71.065012,42.353458],[-71.06505,42.353452],[-71.065053,42.353616],[-71.065089,42.35368],[-71.065176,42.353707],[-71.065223,42.3537],[-71.065263,42.35368],[-71.065308,42.353609],[-71.065322,42.353698],[-71.065373,42.353742],[-71.065322,42.353742],[-71.065285,42.35377],[-71.065285,42.353883],[-71.065305,42.353918],[-71.06529,42.353926],[-71.065282,42.353875],[-71.065249,42.35385],[-71.065181,42.35386],[-71.065163,42.353892],[-71.065173,42.353997],[-71.065206,42.354022],[-71.065253,42.354022],[-71.06526,42.354079],[-71.065295,42.354105],[-71.065345,42.354105],[-71.06538,42.354079],[-71.06538,42.35397],[-71.065361,42.353936],[-71.06538,42.353929],[-71.065392,42.353965],[-71.065422,42.353987],[-71.065464,42.353987],[-71.065494,42.353965],[-71.065489,42.353851],[-71.065459,42.353829],[-71.065418,42.353829],[-71.065397,42.353754],[-71.065434,42.353761],[-71.065469,42.353795],[-71.065511,42.353796],[-71.065513,42.353838],[-71.065496,42.353866],[-71.065516,42.353972],[-71.065553,42.353984],[-71.065601,42.35396],[-71.065601,42.353878],[-71.06563,42.353841],[-71.065621,42.353739],[-71.065577,42.353714],[-71.065603,42.353656],[-71.065594,42.353508],[-71.065583,42.353467],[-71.065514,42.353413],[-71.065563,42.353394],[-71.065654,42.353322],[-71.065656,42.353218],[-71.065673,42.35322],[-71.065686,42.353288],[-71.065789,42.353397],[-71.065766,42.353451],[-71.065775,42.353599],[-71.065786,42.353641],[-71.065817,42.353676],[-71.065921,42.353707],[-71.065976,42.353699],[-71.066024,42.353676],[-71.066056,42.353641],[-71.066067,42.353599]],[[-71.065745,42.352955],[-71.06572,42.352946],[-71.065744,42.352938],[-71.065745,42.352955]],[[-71.065682,42.352726],[-71.065669,42.352728],[-71.065669,42.352724],[-71.065682,42.352726]],[[-71.065426,42.353403],[-71.065417,42.353405],[-71.065417,42.353399],[-71.065426,42.353403]],[[-71.065138,42.353253],[-71.06513,42.353262],[-71.065128,42.353243],[-71.065138,42.353253]]],[[[-71.066052,42.355066],[-71.066046,42.354972],[-71.066026,42.354936],[-71.065978,42.354922],[-71.06593,42.354936],[-71.06591,42.354972],[-71.065915,42.355066],[-71.065935,42.355101],[-71.06601,42.355112],[-71.066052,42.355066]]],[[[-71.066024,42.354129],[-71.066017,42.35405],[-71.065996,42.354034],[-71.065945,42.35405],[-71.065946,42.354129],[-71.065923,42.354056],[-71.06587,42.354048],[-71.065844,42.354067],[-71.065848,42.354171],[-71.065875,42.35419],[-71.065926,42.354183],[-71.065934,42.354211],[-71.065966,42.354211],[-71.06597,42.354155],[-71.066012,42.354149],[-71.066024,42.354129]]],[[[-71.065873,42.354616],[-71.065865,42.354468],[-71.065827,42.3544],[-71.065785,42.354379],[-71.065685,42.354379],[-71.065615,42.354431],[-71.065614,42.354616],[-71.065652,42.354684],[-71.065744,42.354712],[-71.065793,42.354705],[-71.065835,42.354684],[-71.065873,42.354616]]],[[[-71.065835,42.348129],[-71.06583,42.348038],[-71.065811,42.348004],[-71.065765,42.34799],[-71.065719,42.348004],[-71.0657,42.348038],[-71.06571,42.348144],[-71.06568,42.34818],[-71.065699,42.348341],[-71.065725,42.348341],[-71.065729,42.348301],[-71.065761,42.3483],[-71.065791,42.348278],[-71.06579,42.34818],[-71.065835,42.348129]]],[[[-71.065768,42.354015],[-71.06576,42.353925],[-71.065734,42.353906],[-71.065696,42.353906],[-71.06567,42.353925],[-71.065667,42.353955],[-71.065619,42.353976],[-71.065623,42.35408],[-71.06565,42.354099],[-71.065687,42.354099],[-71.065713,42.35408],[-71.065716,42.354051],[-71.065754,42.354041],[-71.065768,42.354015]]],[[[-71.065743,42.348531],[-71.065738,42.348446],[-71.065721,42.348415],[-71.06568,42.348403],[-71.065639,42.348415],[-71.065622,42.348446],[-71.065627,42.348531],[-71.065644,42.348561],[-71.065707,42.348571],[-71.065743,42.348531]]],[[[-71.065692,42.354986],[-71.065683,42.354843],[-71.065647,42.354779],[-71.06556,42.354752],[-71.065487,42.354772],[-71.065481,42.354739],[-71.065444,42.354711],[-71.065392,42.354711],[-71.065362,42.354731],[-71.065327,42.354655],[-71.065232,42.354615],[-71.065147,42.354627],[-71.06513,42.354646],[-71.065126,42.354694],[-71.065103,42.354697],[-71.065103,42.354592],[-71.06507,42.354553],[-71.065067,42.354458],[-71.065049,42.354426],[-71.064899,42.354414],[-71.064824,42.354451],[-71.064824,42.354579],[-71.064841,42.354614],[-71.064814,42.354661],[-71.064821,42.354775],[-71.064828,42.3548],[-71.064875,42.354836],[-71.064894,42.354906],[-71.064933,42.354918],[-71.064984,42.354893],[-71.064999,42.354708],[-71.065059,42.354723],[-71.065048,42.354751],[-71.06506,42.354875],[-71.065164,42.354939],[-71.06524,42.354929],[-71.065262,42.354969],[-71.065315,42.354985],[-71.065384,42.354951],[-71.065387,42.354893],[-71.06544,42.354899],[-71.065454,42.35502],[-71.065521,42.35507],[-71.065568,42.355077],[-71.065655,42.35505],[-71.065692,42.354986]],[[-71.064981,42.354627],[-71.06497,42.354614],[-71.06498,42.354602],[-71.064981,42.354627]]],[[[-71.0656,42.348993],[-71.065593,42.348947],[-71.065567,42.348947],[-71.065569,42.349002],[-71.0656,42.348993]]],[[[-71.065591,42.351268],[-71.065583,42.351213],[-71.065557,42.351213],[-71.06556,42.351277],[-71.065591,42.351268]]],[[[-71.065564,42.34913],[-71.065557,42.349084],[-71.065531,42.349084],[-71.065533,42.349139],[-71.065564,42.34913]]],[[[-71.065563,42.349302],[-71.065544,42.349211],[-71.06551,42.3492],[-71.065476,42.349211],[-71.065461,42.349236],[-71.065479,42.349327],[-71.065532,42.349335],[-71.065563,42.349302]]],[[[-71.065557,42.348404],[-71.065552,42.348316],[-71.065534,42.348284],[-71.06549,42.34827],[-71.065446,42.348284],[-71.065428,42.348316],[-71.065447,42.348511],[-71.065479,42.348511],[-71.065483,42.348448],[-71.065539,42.348436],[-71.065557,42.348404]]],[[[-71.065551,42.348149],[-71.065543,42.3481],[-71.065517,42.3481],[-71.065519,42.348158],[-71.065551,42.348149]]],[[[-71.065472,42.352712],[-71.065465,42.352587],[-71.065434,42.352533],[-71.065401,42.352516],[-71.065321,42.352516],[-71.065265,42.352558],[-71.065264,42.352712],[-71.065295,42.352767],[-71.065368,42.352789],[-71.065408,42.352783],[-71.065442,42.352767],[-71.065472,42.352712]]],[[[-71.065436,42.348856],[-71.065418,42.348765],[-71.065384,42.348754],[-71.06535,42.348765],[-71.065335,42.34879],[-71.065353,42.348881],[-71.065406,42.348889],[-71.065436,42.348856]]],[[[-71.065399,42.349005],[-71.065393,42.34893],[-71.065374,42.348916],[-71.065335,42.348921],[-71.065331,42.349015],[-71.065364,42.349031],[-71.065399,42.349005]]],[[[-71.065383,42.349146],[-71.065375,42.349056],[-71.065349,42.349037],[-71.065296,42.349045],[-71.065281,42.34907],[-71.065289,42.34916],[-71.065334,42.349182],[-71.065369,42.349172],[-71.065383,42.349146]]],[[[-71.065371,42.351252],[-71.065363,42.3512],[-71.065337,42.3512],[-71.06534,42.351261],[-71.065371,42.351252]]],[[[-71.065271,42.351249],[-71.065263,42.3512],[-71.065237,42.3512],[-71.065239,42.351258],[-71.065271,42.351249]]],[[[-71.065253,42.354149],[-71.065244,42.354047],[-71.065212,42.354024],[-71.065168,42.354024],[-71.065142,42.353957],[-71.065071,42.353947],[-71.065036,42.353973],[-71.065036,42.354082],[-71.065055,42.354116],[-71.065126,42.354126],[-71.065141,42.354165],[-71.065173,42.354189],[-71.065217,42.354189],[-71.065253,42.354149]]],[[[-71.065209,42.35287],[-71.065204,42.352785],[-71.065187,42.352754],[-71.065146,42.352742],[-71.065105,42.352754],[-71.065088,42.352785],[-71.065083,42.352877],[-71.065047,42.352891],[-71.065027,42.352928],[-71.065032,42.353024],[-71.065053,42.353062],[-71.065104,42.353077],[-71.06517,42.353045],[-71.065171,42.352952],[-71.065209,42.35287]]],[[[-71.065179,42.350776],[-71.065176,42.35072],[-71.06514,42.350702],[-71.065126,42.350713],[-71.065127,42.350765],[-71.065101,42.350777],[-71.065099,42.350913],[-71.065127,42.350913],[-71.06513,42.350859],[-71.065154,42.35084],[-71.065152,42.350795],[-71.065179,42.350776]]],[[[-71.065116,42.352701],[-71.065109,42.352581],[-71.065081,42.35253],[-71.065049,42.352515],[-71.064975,42.352515],[-71.064922,42.352553],[-71.064922,42.352701],[-71.06495,42.352751],[-71.065019,42.352772],[-71.065056,42.352767],[-71.065088,42.352751],[-71.065116,42.352701]]],[[[-71.065104,42.354264],[-71.065099,42.354179],[-71.065082,42.354148],[-71.065041,42.354136],[-71.065,42.354148],[-71.064983,42.354179],[-71.064988,42.354264],[-71.065005,42.354294],[-71.065068,42.354304],[-71.065104,42.354264]]],[[[-71.06496,42.354373],[-71.064955,42.354294],[-71.064923,42.354259],[-71.064911,42.354156],[-71.064885,42.354137],[-71.064832,42.354145],[-71.064817,42.35417],[-71.064822,42.354246],[-71.064852,42.354279],[-71.06486,42.354388],[-71.064908,42.354412],[-71.064944,42.3544],[-71.06496,42.354373]]],[[[-71.064947,42.351352],[-71.064939,42.3513],[-71.064913,42.3513],[-71.064916,42.351361],[-71.064947,42.351352]]],[[[-71.064941,42.354065],[-71.064935,42.35396],[-71.064911,42.353918],[-71.064854,42.3539],[-71.064787,42.353929],[-71.064779,42.353878],[-71.064737,42.353847],[-71.064677,42.353847],[-71.064639,42.353873],[-71.064632,42.353832],[-71.064588,42.3538],[-71.064508,42.353809],[-71.064453,42.353777],[-71.064488,42.353731],[-71.064478,42.353622],[-71.064443,42.353596],[-71.064372,42.353606],[-71.064355,42.353668],[-71.064324,42.353692],[-71.064321,42.353738],[-71.064284,42.353761],[-71.064283,42.353834],[-71.064252,42.353881],[-71.064238,42.353945],[-71.064243,42.354038],[-71.06422,42.35406],[-71.064216,42.354126],[-71.064178,42.354117],[-71.064125,42.354133],[-71.064103,42.354172],[-71.064107,42.354227],[-71.064069,42.35427],[-71.064074,42.354347],[-71.064005,42.354344],[-71.063961,42.354376],[-71.063957,42.354436],[-71.063903,42.354482],[-71.063892,42.354523],[-71.063899,42.354648],[-71.063818,42.354663],[-71.0638,42.354683],[-71.063795,42.354728],[-71.063755,42.354758],[-71.063761,42.354904],[-71.063803,42.354935],[-71.063863,42.354935],[-71.063962,42.354839],[-71.063965,42.354759],[-71.064047,42.354779],[-71.064102,42.354771],[-71.064158,42.354738],[-71.064166,42.354811],[-71.064196,42.354833],[-71.064235,42.354833],[-71.064243,42.354898],[-71.064258,42.354915],[-71.064336,42.354926],[-71.064375,42.354898],[-71.064376,42.354811],[-71.064426,42.354815],[-71.064456,42.354793],[-71.064457,42.354722],[-71.064499,42.354739],[-71.064547,42.354715],[-71.064547,42.35464],[-71.0646,42.354665],[-71.06465,42.354643],[-71.064706,42.354656],[-71.064782,42.354633],[-71.064814,42.354577],[-71.064806,42.354449],[-71.064775,42.354393],[-71.064759,42.354284],[-71.064722,42.354256],[-71.064648,42.354267],[-71.064628,42.354303],[-71.064631,42.354358],[-71.064597,42.354359],[-71.064571,42.354378],[-71.064572,42.354468],[-71.064586,42.354494],[-71.064573,42.354497],[-71.064548,42.354444],[-71.064485,42.354435],[-71.064453,42.354458],[-71.064452,42.354539],[-71.064426,42.354522],[-71.064382,42.354522],[-71.06435,42.354545],[-71.064348,42.354606],[-71.064316,42.354597],[-71.064279,42.354608],[-71.064264,42.354635],[-71.064273,42.354729],[-71.064251,42.354684],[-71.064192,42.354675],[-71.064184,42.354523],[-71.064273,42.35454],[-71.064328,42.354532],[-71.064408,42.354474],[-71.064419,42.354432],[-71.06441,42.354284],[-71.064373,42.354214],[-71.064377,42.354095],[-71.0644,42.354073],[-71.064426,42.353989],[-71.064487,42.35398],[-71.064529,42.354014],[-71.064531,42.354041],[-71.06445,42.354063],[-71.064419,42.354119],[-71.064434,42.354277],[-71.064492,42.35432],[-71.064574,42.35432],[-71.064632,42.354277],[-71.064634,42.35414],[-71.064672,42.354128],[-71.064702,42.354147],[-71.064757,42.354147],[-71.0648,42.354104],[-71.064829,42.354121],[-71.064891,42.354121],[-71.064917,42.354108],[-71.064941,42.354065]],[[-71.064541,42.354605],[-71.064536,42.354599],[-71.06454,42.354597],[-71.064541,42.354605]],[[-71.064469,42.354588],[-71.064464,42.35459],[-71.064464,42.354583],[-71.064469,42.354588]],[[-71.064129,42.354441],[-71.064119,42.354436],[-71.064118,42.354405],[-71.064129,42.354441]]],[[[-71.064918,42.355111],[-71.064911,42.354986],[-71.06488,42.354932],[-71.064847,42.354915],[-71.064767,42.354915],[-71.064711,42.354957],[-71.06471,42.355111],[-71.064741,42.355166],[-71.064814,42.355188],[-71.064854,42.355182],[-71.064888,42.355166],[-71.064918,42.355111]]],[[[-71.06486,42.348495],[-71.064852,42.348446],[-71.064826,42.348446],[-71.064828,42.348504],[-71.06486,42.348495]]],[[[-71.064742,42.354836],[-71.064734,42.354787],[-71.064708,42.354787],[-71.06471,42.354845],[-71.064742,42.354836]]],[[[-71.064627,42.351865],[-71.064619,42.351816],[-71.064593,42.351816],[-71.064595,42.351874],[-71.064627,42.351865]]],[[[-71.064624,42.348464],[-71.064616,42.348415],[-71.06459,42.348415],[-71.064592,42.348473],[-71.064624,42.348464]]],[[[-71.064571,42.352097],[-71.064563,42.352045],[-71.064537,42.352045],[-71.064528,42.352147],[-71.064512,42.35216],[-71.064519,42.352208],[-71.064551,42.352199],[-71.064571,42.352097]]],[[[-71.064439,42.348438],[-71.064431,42.348389],[-71.064405,42.348389],[-71.064407,42.348447],[-71.064439,42.348438]]],[[[-71.064241,42.350964],[-71.064233,42.350915],[-71.064207,42.350915],[-71.064209,42.350973],[-71.064241,42.350964]]],[[[-71.064212,42.348773],[-71.064202,42.348708],[-71.06417,42.348708],[-71.064173,42.348785],[-71.064212,42.348773]]],[[[-71.064171,42.348887],[-71.064163,42.34883],[-71.064137,42.34883],[-71.06414,42.348897],[-71.064171,42.348887]]],[[[-71.064151,42.350953],[-71.064143,42.350904],[-71.064117,42.350904],[-71.064119,42.350962],[-71.064151,42.350953]]],[[[-71.064091,42.353347],[-71.064083,42.35329],[-71.064057,42.35329],[-71.06406,42.353357],[-71.064091,42.353347]]],[[[-71.064086,42.350976],[-71.064073,42.350897],[-71.064027,42.350897],[-71.064031,42.350993],[-71.064066,42.350998],[-71.064086,42.350976]]],[[[-71.064052,42.35344],[-71.064044,42.35338],[-71.064016,42.35338],[-71.064019,42.35345],[-71.064052,42.35344]]],[[[-71.064016,42.35333],[-71.064008,42.353273],[-71.063982,42.353273],[-71.063985,42.35334],[-71.064016,42.35333]]],[[[-71.064001,42.353807],[-71.063993,42.35375],[-71.063967,42.35375],[-71.06397,42.353817],[-71.064001,42.353807]]],[[[-71.063987,42.353436],[-71.063979,42.353376],[-71.063951,42.353376],[-71.063954,42.353446],[-71.063987,42.353436]]],[[[-71.063977,42.350971],[-71.06397,42.350892],[-71.063949,42.350876],[-71.063906,42.350883],[-71.063895,42.350903],[-71.063902,42.350982],[-71.063938,42.350999],[-71.063977,42.350971]]],[[[-71.063946,42.353321],[-71.063936,42.353256],[-71.063904,42.353256],[-71.063907,42.353333],[-71.063946,42.353321]]],[[[-71.063931,42.353421],[-71.063923,42.353364],[-71.063897,42.353364],[-71.0639,42.353431],[-71.063931,42.353421]]],[[[-71.063926,42.354029],[-71.063913,42.35395],[-71.063867,42.35395],[-71.063871,42.354046],[-71.063906,42.354051],[-71.063926,42.354029]]],[[[-71.063918,42.348725],[-71.06391,42.348665],[-71.063882,42.348665],[-71.063879,42.348725],[-71.063849,42.348737],[-71.063844,42.348841],[-71.06387,42.348841],[-71.063874,42.348813],[-71.063896,42.348796],[-71.063893,42.348743],[-71.063918,42.348725]]],[[[-71.063882,42.34892],[-71.063874,42.34886],[-71.063846,42.34886],[-71.063849,42.34893],[-71.063882,42.34892]]],[[[-71.063824,42.349187],[-71.063816,42.349138],[-71.06379,42.349138],[-71.063792,42.349196],[-71.063824,42.349187]]],[[[-71.063819,42.354176],[-71.063816,42.35412],[-71.06378,42.354102],[-71.063766,42.354113],[-71.063767,42.354176],[-71.063793,42.354195],[-71.063819,42.354176]]],[[[-71.063811,42.348466],[-71.063803,42.348417],[-71.063777,42.348417],[-71.063779,42.348475],[-71.063811,42.348466]]],[[[-71.063771,42.349332],[-71.063763,42.349283],[-71.063737,42.349283],[-71.06372,42.34933],[-71.063726,42.349383],[-71.063752,42.349383],[-71.063771,42.349332]]],[[[-71.063721,42.348449],[-71.063713,42.3484],[-71.063687,42.3484],[-71.063689,42.348458],[-71.063721,42.348449]]],[[[-71.063711,42.350945],[-71.063698,42.350866],[-71.063652,42.350866],[-71.063656,42.350962],[-71.063691,42.350967],[-71.063711,42.350945]]],[[[-71.063692,42.34981],[-71.063684,42.34975],[-71.063656,42.34975],[-71.063659,42.34982],[-71.063692,42.34981]]],[[[-71.063635,42.349901],[-71.063627,42.349844],[-71.063601,42.349844],[-71.063604,42.349911],[-71.063635,42.349901]]],[[[-71.063616,42.350929],[-71.063606,42.350864],[-71.063574,42.350864],[-71.063577,42.350941],[-71.063616,42.350929]]],[[[-71.063582,42.35],[-71.063574,42.34994],[-71.063546,42.34994],[-71.063543,42.34999],[-71.063512,42.35],[-71.06352,42.350057],[-71.063546,42.350057],[-71.063549,42.35001],[-71.063582,42.35]]],[[[-71.063573,42.354766],[-71.063554,42.354675],[-71.06352,42.354664],[-71.063486,42.354675],[-71.063471,42.3547],[-71.063475,42.354766],[-71.063441,42.354767],[-71.063415,42.354786],[-71.063419,42.35488],[-71.063464,42.354902],[-71.063498,42.354891],[-71.063513,42.354866],[-71.063509,42.3548],[-71.063558,42.354791],[-71.063573,42.354766]]],[[[-71.063549,42.35092],[-71.063546,42.350864],[-71.06351,42.350846],[-71.063496,42.350857],[-71.063497,42.35092],[-71.063523,42.350939],[-71.063549,42.35092]]],[[[-71.063461,42.350465],[-71.063453,42.350408],[-71.063427,42.350408],[-71.06343,42.350475],[-71.063461,42.350465]]],[[[-71.063461,42.350225],[-71.063453,42.35017],[-71.063427,42.35017],[-71.06343,42.350234],[-71.063461,42.350225]]],[[[-71.063437,42.350532],[-71.063429,42.350477],[-71.063403,42.350477],[-71.063406,42.350541],[-71.063437,42.350532]]],[[[-71.063431,42.350291],[-71.063423,42.350236],[-71.063397,42.350236],[-71.063393,42.350268],[-71.063368,42.350275],[-71.063375,42.350334],[-71.0634,42.350334],[-71.063405,42.350302],[-71.063431,42.350291]]],[[[-71.063406,42.350592],[-71.063398,42.35054],[-71.063372,42.35054],[-71.063375,42.350601],[-71.063406,42.350592]]],[[[-71.063389,42.350882],[-71.063383,42.350765],[-71.063369,42.350704],[-71.06335,42.35069],[-71.063331,42.350704],[-71.063325,42.350765],[-71.063337,42.350882],[-71.063363,42.350901],[-71.063389,42.350882]]],[[[-71.063371,42.350652],[-71.063363,42.3506],[-71.063337,42.3506],[-71.06334,42.350661],[-71.063371,42.350652]]],[[[-71.063331,42.350482],[-71.063323,42.35043],[-71.063297,42.35043],[-71.063294,42.350474],[-71.063267,42.350473],[-71.063264,42.350525],[-71.063238,42.350531],[-71.063239,42.35057],[-71.063213,42.350577],[-71.063194,42.350669],[-71.063167,42.350667],[-71.063143,42.350755],[-71.063111,42.350765],[-71.063119,42.350825],[-71.063147,42.350825],[-71.06315,42.350781],[-71.063175,42.350781],[-71.063178,42.350727],[-71.063199,42.350718],[-71.063199,42.350686],[-71.063226,42.350687],[-71.063229,42.350642],[-71.06325,42.350635],[-71.063249,42.350592],[-71.063274,42.350586],[-71.063273,42.350539],[-71.063299,42.350533],[-71.063299,42.35049],[-71.063331,42.350482]]],[[[-71.063147,42.35228],[-71.063139,42.352228],[-71.063113,42.352228],[-71.063116,42.352289],[-71.063147,42.35228]]],[[[-71.063086,42.352292],[-71.063078,42.35224],[-71.063052,42.35224],[-71.063055,42.352301],[-71.063086,42.352292]]],[[[-71.062986,42.352295],[-71.062978,42.352243],[-71.062952,42.352243],[-71.062955,42.352304],[-71.062986,42.352295]]],[[[-71.062925,42.352265],[-71.062917,42.35221],[-71.062891,42.35221],[-71.062894,42.352274],[-71.062925,42.352265]]],[[[-71.062851,42.352257],[-71.062843,42.352205],[-71.062817,42.352205],[-71.06282,42.352266],[-71.062851,42.352257]]],[[[-71.062832,42.353352],[-71.062824,42.353292],[-71.062796,42.353292],[-71.062799,42.353362],[-71.062832,42.353352]]],[[[-71.062832,42.353264],[-71.062824,42.353204],[-71.062796,42.353204],[-71.062799,42.353274],[-71.062832,42.353264]]],[[[-71.062766,42.353257],[-71.062758,42.353197],[-71.06273,42.353197],[-71.062733,42.353267],[-71.062766,42.353257]]],[[[-71.062766,42.353359],[-71.062756,42.353294],[-71.062724,42.353294],[-71.062727,42.353371],[-71.062766,42.353359]]],[[[-71.062563,42.348413],[-71.062551,42.348339],[-71.062509,42.348339],[-71.062513,42.348428],[-71.062545,42.348433],[-71.062563,42.348413]]],[[[-71.0625,42.349443],[-71.062493,42.349361],[-71.06247,42.349344],[-71.062424,42.349351],[-71.062412,42.349373],[-71.062419,42.349455],[-71.062458,42.349475],[-71.062488,42.349466],[-71.0625,42.349443]]],[[[-71.062466,42.34861],[-71.062456,42.348545],[-71.062424,42.348545],[-71.062427,42.348622],[-71.062466,42.34861]]],[[[-71.062413,42.348441],[-71.062406,42.348362],[-71.062385,42.348346],[-71.062342,42.348353],[-71.062331,42.348373],[-71.062338,42.348452],[-71.062374,42.348469],[-71.062413,42.348441]]],[[[-71.062396,42.349393],[-71.062389,42.349311],[-71.062366,42.349294],[-71.06232,42.349301],[-71.062308,42.349323],[-71.062315,42.349405],[-71.062354,42.349425],[-71.062384,42.349416],[-71.062396,42.349393]]],[[[-71.062042,42.353802],[-71.062034,42.353742],[-71.062006,42.353742],[-71.062009,42.353812],[-71.062042,42.353802]]],[[[-71.062009,42.349345],[-71.062001,42.349296],[-71.061975,42.349296],[-71.061977,42.349354],[-71.062009,42.349345]]],[[[-71.061991,42.353899],[-71.061983,42.35385],[-71.061957,42.35385],[-71.061959,42.353908],[-71.061991,42.353899]]],[[[-71.061954,42.349477],[-71.061946,42.349428],[-71.06192,42.349428],[-71.061922,42.349486],[-71.061954,42.349477]]],[[[-71.061945,42.349614],[-71.061926,42.349523],[-71.061892,42.349512],[-71.061858,42.349523],[-71.061843,42.349548],[-71.061861,42.349639],[-71.061914,42.349647],[-71.061945,42.349614]]],[[[-71.061931,42.349919],[-71.061923,42.34987],[-71.061897,42.34987],[-71.061894,42.349918],[-71.061862,42.349926],[-71.061869,42.349974],[-71.061895,42.349974],[-71.061898,42.349927],[-71.061931,42.349919]]],[[[-71.061927,42.35375],[-71.061919,42.35369],[-71.061891,42.35369],[-71.061894,42.35376],[-71.061927,42.35375]]],[[[-71.061912,42.353875],[-71.061904,42.353815],[-71.061876,42.353815],[-71.061879,42.353885],[-71.061912,42.353875]]],[[[-71.061895,42.350039],[-71.061887,42.34999],[-71.061861,42.34999],[-71.061858,42.350032],[-71.061833,42.350039],[-71.061833,42.350071],[-71.061802,42.35008],[-71.061809,42.350128],[-71.061835,42.350128],[-71.061839,42.350092],[-71.061865,42.350092],[-71.061869,42.350051],[-71.061895,42.350039]]],[[[-71.061856,42.348385],[-71.061848,42.348299],[-71.061823,42.348281],[-71.061774,42.348288],[-71.061761,42.348312],[-71.061768,42.348398],[-71.06181,42.348419],[-71.061842,42.348409],[-71.061856,42.348385]]],[[[-71.061831,42.353822],[-71.061823,42.353773],[-71.061797,42.353773],[-71.061799,42.353831],[-71.061831,42.353822]]],[[[-71.061828,42.353703],[-71.06182,42.353643],[-71.061792,42.353643],[-71.061795,42.353713],[-71.061828,42.353703]]],[[[-71.061826,42.350191],[-71.061819,42.350145],[-71.061793,42.350145],[-71.06179,42.350189],[-71.061763,42.350195],[-71.061769,42.350248],[-71.061795,42.350248],[-71.061798,42.350202],[-71.061826,42.350191]]],[[[-71.061793,42.35036],[-71.061786,42.350281],[-71.061765,42.350265],[-71.061722,42.350272],[-71.061712,42.350314],[-71.061675,42.350346],[-71.061682,42.350432],[-71.061724,42.350453],[-71.061756,42.350443],[-71.061768,42.350386],[-71.061793,42.35036]]],[[[-71.061773,42.34846],[-71.061765,42.348411],[-71.061739,42.348411],[-71.061741,42.348469],[-71.061773,42.34846]]],[[[-71.06177,42.349732],[-71.061751,42.349641],[-71.061717,42.34963],[-71.061683,42.349641],[-71.061668,42.349666],[-71.061686,42.349757],[-71.061739,42.349765],[-71.06177,42.349732]]],[[[-71.061763,42.353673],[-71.061744,42.353582],[-71.06171,42.353571],[-71.061676,42.353582],[-71.061661,42.353607],[-71.061679,42.353698],[-71.061732,42.353706],[-71.061763,42.353673]]],[[[-71.06175,42.353777],[-71.061742,42.353728],[-71.061716,42.353728],[-71.061718,42.353786],[-71.06175,42.353777]]],[[[-71.061696,42.348718],[-71.061689,42.348636],[-71.061666,42.348619],[-71.06162,42.348626],[-71.061608,42.348648],[-71.061615,42.34873],[-71.061654,42.34875],[-71.061684,42.348741],[-71.061696,42.348718]]],[[[-71.06165,42.348379],[-71.061641,42.348281],[-71.061611,42.348259],[-71.061551,42.348268],[-71.061535,42.348297],[-71.061544,42.348395],[-71.061595,42.34842],[-71.061634,42.348408],[-71.06165,42.348379]]],[[[-71.061631,42.353595],[-71.061623,42.35354],[-71.061597,42.35354],[-71.0616,42.353604],[-71.061631,42.353595]]],[[[-71.061613,42.348876],[-71.061605,42.348827],[-71.061579,42.348827],[-71.061581,42.348885],[-71.061613,42.348876]]],[[[-71.061611,42.348539],[-71.061603,42.34849],[-71.061577,42.34849],[-71.061579,42.348548],[-71.061611,42.348539]]],[[[-71.0616,42.348229],[-71.061592,42.348174],[-71.061566,42.348174],[-71.061569,42.348238],[-71.0616,42.348229]]],[[[-71.06157,42.348743],[-71.061562,42.348657],[-71.061537,42.348639],[-71.061488,42.348646],[-71.061475,42.34867],[-71.061482,42.348756],[-71.061524,42.348777],[-71.061556,42.348767],[-71.06157,42.348743]]],[[[-71.061552,42.349634],[-71.061533,42.349543],[-71.06148,42.349535],[-71.061451,42.349564],[-71.061446,42.34952],[-71.06142,42.349501],[-71.061382,42.349501],[-71.061356,42.34952],[-71.061356,42.3496],[-71.06137,42.349625],[-71.061423,42.349633],[-71.061452,42.349604],[-71.061458,42.349648],[-71.061503,42.34967],[-71.061537,42.349659],[-71.061552,42.349634]]],[[[-71.061506,42.348924],[-71.061499,42.348842],[-71.061476,42.348825],[-71.06143,42.348832],[-71.061418,42.348854],[-71.061425,42.348936],[-71.061464,42.348956],[-71.061494,42.348947],[-71.061506,42.348924]]],[[[-71.061496,42.351003],[-71.061486,42.350938],[-71.061454,42.350938],[-71.061457,42.351015],[-71.061496,42.351003]]],[[[-71.061477,42.348238],[-71.061472,42.34815],[-71.061454,42.348118],[-71.06141,42.348104],[-71.061366,42.348118],[-71.061348,42.34815],[-71.061353,42.348238],[-71.061389,42.348279],[-71.061401,42.348327],[-71.061424,42.348334],[-71.061454,42.348319],[-71.061454,42.348272],[-71.061477,42.348238]]],[[[-71.061441,42.3493],[-71.061433,42.349245],[-71.061407,42.349245],[-71.06141,42.349309],[-71.061441,42.3493]]],[[[-71.061421,42.351161],[-71.061413,42.351112],[-71.061387,42.351112],[-71.061384,42.351161],[-71.061362,42.351175],[-71.061368,42.351228],[-71.061394,42.351228],[-71.061397,42.35118],[-71.061421,42.351161]]],[[[-71.061402,42.349102],[-71.061394,42.349042],[-71.061366,42.349042],[-71.061369,42.349112],[-71.061402,42.349102]]],[[[-71.061374,42.351279],[-71.061366,42.35123],[-71.06134,42.35123],[-71.061337,42.351276],[-71.061316,42.351289],[-71.061323,42.351337],[-71.061349,42.351337],[-71.061352,42.351292],[-71.061374,42.351279]]],[[[-71.061371,42.349469],[-71.061363,42.34942],[-71.061337,42.34942],[-71.061339,42.349478],[-71.061371,42.349469]]],[[[-71.061353,42.349287],[-71.061341,42.349213],[-71.061299,42.349213],[-71.061303,42.349302],[-71.061335,42.349307],[-71.061353,42.349287]]],[[[-71.061285,42.349672],[-71.061277,42.34962],[-71.061251,42.34962],[-71.061248,42.349665],[-71.061226,42.349673],[-71.061233,42.349729],[-71.061258,42.349729],[-71.061262,42.349684],[-71.061285,42.349672]]],[[[-71.061247,42.353409],[-71.061239,42.35336],[-71.061213,42.35336],[-71.061215,42.353418],[-71.061247,42.353409]]],[[[-71.061241,42.354813],[-71.061233,42.354764],[-71.061207,42.354764],[-71.061209,42.354822],[-71.061241,42.354813]]],[[[-71.061226,42.3499],[-71.061219,42.349818],[-71.061196,42.349801],[-71.06115,42.349808],[-71.061138,42.34983],[-71.061145,42.349912],[-71.061184,42.349932],[-71.061214,42.349923],[-71.061226,42.3499]]],[[[-71.061191,42.354955],[-71.061183,42.354906],[-71.061157,42.354906],[-71.061159,42.354964],[-71.061191,42.354955]]],[[[-71.061191,42.353383],[-71.061183,42.353334],[-71.061157,42.353334],[-71.061159,42.353392],[-71.061191,42.353383]]],[[[-71.061161,42.350109],[-71.061152,42.350015],[-71.061124,42.349995],[-71.061067,42.350003],[-71.061052,42.35003],[-71.061061,42.350124],[-71.061109,42.350148],[-71.061145,42.350136],[-71.061161,42.350109]]],[[[-71.061141,42.353359],[-71.061133,42.35331],[-71.061107,42.35331],[-71.061109,42.353368],[-71.061141,42.353359]]],[[[-71.061051,42.35332],[-71.061043,42.353265],[-71.061017,42.353265],[-71.06102,42.353329],[-71.061051,42.35332]]],[[[-71.061041,42.348529],[-71.061033,42.34848],[-71.061007,42.34848],[-71.061009,42.348538],[-71.061041,42.348529]]],[[[-71.061037,42.348681],[-71.061028,42.348587],[-71.061,42.348567],[-71.060943,42.348575],[-71.060928,42.348602],[-71.060932,42.348679],[-71.060895,42.348717],[-71.060899,42.348796],[-71.06087,42.348805],[-71.060858,42.348827],[-71.060874,42.34892],[-71.060904,42.348929],[-71.060943,42.348909],[-71.060943,42.348838],[-71.060976,42.348837],[-71.061006,42.348815],[-71.061005,42.348717],[-71.061037,42.348681]]],[[[-71.060991,42.353402],[-71.060983,42.353353],[-71.060957,42.353353],[-71.060959,42.353411],[-71.060991,42.353402]]],[[[-71.060941,42.353259],[-71.060933,42.35321],[-71.060907,42.35321],[-71.060909,42.353268],[-71.060941,42.353259]]],[[[-71.060926,42.353372],[-71.060918,42.35332],[-71.060892,42.35332],[-71.060895,42.353381],[-71.060926,42.353372]]],[[[-71.060865,42.353341],[-71.060857,42.353292],[-71.060831,42.353292],[-71.060833,42.35335],[-71.060865,42.353341]]],[[[-71.060853,42.34927],[-71.060847,42.349174],[-71.060827,42.349137],[-71.060776,42.349121],[-71.060725,42.349137],[-71.060705,42.349174],[-71.06071,42.34927],[-71.060731,42.349308],[-71.060809,42.349319],[-71.060853,42.34927]]],[[[-71.060737,42.349456],[-71.060718,42.349365],[-71.060684,42.349354],[-71.06065,42.349365],[-71.060635,42.34939],[-71.060643,42.34947],[-71.060612,42.349481],[-71.060597,42.349506],[-71.060616,42.349608],[-71.06065,42.349618],[-71.060695,42.349596],[-71.060691,42.349492],[-71.060722,42.349481],[-71.060737,42.349456]]],[[[-71.060631,42.349299],[-71.060623,42.34925],[-71.060597,42.34925],[-71.060593,42.349287],[-71.060573,42.349295],[-71.060573,42.349329],[-71.060553,42.349337],[-71.060559,42.34939],[-71.060585,42.34939],[-71.060589,42.349352],[-71.060609,42.349344],[-71.060609,42.349312],[-71.060631,42.349299]]],[[[-71.060613,42.349746],[-71.060605,42.349656],[-71.060579,42.349637],[-71.060526,42.349645],[-71.060511,42.34967],[-71.060516,42.349746],[-71.060478,42.349792],[-71.060498,42.349898],[-71.060535,42.34991],[-71.060583,42.349886],[-71.060579,42.34978],[-71.060613,42.349746]]],[[[-71.060601,42.353079],[-71.060593,42.35303],[-71.060567,42.35303],[-71.060569,42.353088],[-71.060601,42.353079]]],[[[-71.060561,42.349446],[-71.060553,42.349397],[-71.060527,42.349397],[-71.060503,42.349498],[-71.06051,42.349554],[-71.060541,42.349545],[-71.060561,42.349446]]],[[[-71.060521,42.353036],[-71.060513,42.352987],[-71.060487,42.352987],[-71.060489,42.353045],[-71.060521,42.353036]]],[[[-71.060511,42.353325],[-71.060503,42.353273],[-71.060477,42.353273],[-71.06048,42.353334],[-71.060511,42.353325]]],[[[-71.060507,42.353189],[-71.060499,42.35314],[-71.060473,42.35314],[-71.060475,42.353198],[-71.060507,42.353189]]],[[[-71.060507,42.349639],[-71.060504,42.349556],[-71.060486,42.349543],[-71.060468,42.349556],[-71.060469,42.349627],[-71.060452,42.34964],[-71.060459,42.349688],[-71.060485,42.349688],[-71.060489,42.349652],[-71.060507,42.349639]]],[[[-71.060471,42.353016],[-71.060463,42.352964],[-71.060437,42.352964],[-71.06044,42.353025],[-71.060471,42.353016]]],[[[-71.060431,42.353139],[-71.060423,42.35309],[-71.060397,42.35309],[-71.060399,42.353148],[-71.060431,42.353139]]],[[[-71.060423,42.353473],[-71.060413,42.35337],[-71.060352,42.353385],[-71.060343,42.353434],[-71.060322,42.353447],[-71.060329,42.353495],[-71.060399,42.353499],[-71.060423,42.353473]]],[[[-71.060391,42.349926],[-71.060383,42.349874],[-71.060357,42.349874],[-71.06036,42.349935],[-71.060391,42.349926]]],[[[-71.060377,42.353109],[-71.060369,42.35306],[-71.060343,42.35306],[-71.060345,42.353118],[-71.060377,42.353109]]],[[[-71.060321,42.350076],[-71.060313,42.350027],[-71.060287,42.350027],[-71.060289,42.350085],[-71.060321,42.350076]]],[[[-71.060318,42.350216],[-71.060298,42.350105],[-71.060267,42.350095],[-71.06022,42.350136],[-71.060224,42.35023],[-71.060269,42.350252],[-71.060303,42.350241],[-71.060318,42.350216]]],[[[-71.060178,42.349538],[-71.060171,42.349459],[-71.06015,42.349443],[-71.060107,42.34945],[-71.0601,42.349536],[-71.060061,42.349556],[-71.060064,42.349615],[-71.060017,42.349634],[-71.060029,42.349727],[-71.060054,42.349735],[-71.060087,42.349719],[-71.060086,42.349644],[-71.060123,42.349615],[-71.06012,42.349562],[-71.060154,42.349564],[-71.060178,42.349538]]],[[[-71.060161,42.353001],[-71.060153,42.352952],[-71.060127,42.352952],[-71.060129,42.35301],[-71.060161,42.353001]]],[[[-71.06011,42.353483],[-71.060102,42.353397],[-71.060077,42.353379],[-71.060028,42.353386],[-71.060015,42.35341],[-71.060022,42.353496],[-71.060064,42.353517],[-71.060096,42.353507],[-71.06011,42.353483]]],[[[-71.059976,42.351114],[-71.059969,42.351032],[-71.059946,42.351015],[-71.0599,42.351022],[-71.059888,42.351044],[-71.059892,42.351114],[-71.059851,42.351128],[-71.05986,42.351205],[-71.059902,42.351198],[-71.059901,42.351135],[-71.05995,42.351143],[-71.059976,42.351114]]],[[[-71.059861,42.353339],[-71.059858,42.3533],[-71.059827,42.35329],[-71.05981,42.353238],[-71.059764,42.353231],[-71.059741,42.353248],[-71.059754,42.353353],[-71.059784,42.353362],[-71.059861,42.353339]]],[[[-71.059761,42.352795],[-71.059753,42.352743],[-71.059727,42.352743],[-71.05973,42.352804],[-71.059761,42.352795]]],[[[-71.059691,42.352779],[-71.059683,42.352727],[-71.059657,42.352727],[-71.05966,42.352788],[-71.059691,42.352779]]],[[[-71.059673,42.355013],[-71.059661,42.354939],[-71.059629,42.354934],[-71.059613,42.354903],[-71.059562,42.354868],[-71.059527,42.354873],[-71.059531,42.354969],[-71.059581,42.355004],[-71.059606,42.355004],[-71.059632,42.355033],[-71.059673,42.355013]]],[[[-71.059653,42.351776],[-71.059634,42.351685],[-71.0596,42.351674],[-71.059566,42.351685],[-71.059551,42.35171],[-71.059569,42.351801],[-71.059622,42.351809],[-71.059653,42.351776]]],[[[-71.059637,42.352772],[-71.059629,42.35272],[-71.059603,42.35272],[-71.059606,42.352781],[-71.059637,42.352772]]],[[[-71.059593,42.352849],[-71.059574,42.352758],[-71.05954,42.352747],[-71.059506,42.352758],[-71.059491,42.352783],[-71.059509,42.352874],[-71.059562,42.352882],[-71.059593,42.352849]]],[[[-71.059566,42.351662],[-71.059553,42.351583],[-71.059507,42.351583],[-71.059511,42.351679],[-71.059546,42.351684],[-71.059566,42.351662]]],[[[-71.059547,42.35176],[-71.059539,42.3517],[-71.059511,42.3517],[-71.059514,42.35177],[-71.059547,42.35176]]],[[[-71.059521,42.351136],[-71.059513,42.351087],[-71.059487,42.351087],[-71.059489,42.351145],[-71.059521,42.351136]]],[[[-71.059486,42.354875],[-71.059473,42.354796],[-71.059438,42.354791],[-71.059389,42.354714],[-71.059339,42.354714],[-71.059328,42.354733],[-71.059343,42.354816],[-71.059368,42.354824],[-71.059381,42.354853],[-71.059416,42.354858],[-71.059441,42.354897],[-71.059466,42.354897],[-71.059486,42.354875]]],[[[-71.059481,42.351209],[-71.059473,42.35116],[-71.059447,42.35116],[-71.059449,42.351218],[-71.059481,42.351209]]],[[[-71.059459,42.351683],[-71.059456,42.351627],[-71.05942,42.351609],[-71.059406,42.35162],[-71.059407,42.351683],[-71.059433,42.351702],[-71.059459,42.351683]]],[[[-71.059431,42.353139],[-71.059423,42.35309],[-71.059397,42.35309],[-71.059399,42.353148],[-71.059431,42.353139]]],[[[-71.059421,42.353049],[-71.059413,42.353],[-71.059387,42.353],[-71.059389,42.353058],[-71.059421,42.353049]]],[[[-71.05939,42.351757],[-71.05938,42.351692],[-71.059348,42.351692],[-71.059351,42.351769],[-71.05939,42.351757]]],[[[-71.059326,42.351833],[-71.059316,42.351768],[-71.059284,42.351768],[-71.059287,42.351845],[-71.059326,42.351833]]],[[[-71.059223,42.351366],[-71.059215,42.351276],[-71.059189,42.351257],[-71.059183,42.35123],[-71.059159,42.35123],[-71.059129,42.351197],[-71.059076,42.351205],[-71.059061,42.35123],[-71.059066,42.351306],[-71.059096,42.351339],[-71.059096,42.351433],[-71.05911,42.351459],[-71.059144,42.351469],[-71.059179,42.351459],[-71.059191,42.3514],[-71.059223,42.351366]]],[[[-71.059187,42.353333],[-71.059179,42.353284],[-71.059153,42.353284],[-71.059155,42.353342],[-71.059187,42.353333]]],[[[-71.059101,42.351499],[-71.059093,42.35145],[-71.059067,42.35145],[-71.059069,42.351508],[-71.059101,42.351499]]],[[[-71.059096,42.354447],[-71.059083,42.354368],[-71.059037,42.354368],[-71.059041,42.354464],[-71.059076,42.354469],[-71.059096,42.354447]]],[[[-71.059091,42.353326],[-71.059083,42.353277],[-71.059057,42.353277],[-71.059059,42.353335],[-71.059091,42.353326]]],[[[-71.059069,42.351573],[-71.059066,42.351517],[-71.05903,42.351499],[-71.059016,42.35151],[-71.059017,42.351573],[-71.059043,42.351592],[-71.059069,42.351573]]],[[[-71.059021,42.354371],[-71.059013,42.354322],[-71.058987,42.354322],[-71.058989,42.35438],[-71.059021,42.354371]]],[[[-71.059009,42.351669],[-71.059003,42.351594],[-71.058984,42.35158],[-71.058945,42.351585],[-71.058936,42.351633],[-71.058913,42.351641],[-71.058913,42.351673],[-71.058867,42.351673],[-71.058859,42.351713],[-71.058825,42.351719],[-71.058815,42.351757],[-71.058767,42.35177],[-71.058766,42.351813],[-71.058688,42.351825],[-71.05868,42.351887],[-71.058648,42.351884],[-71.058628,42.351914],[-71.058599,42.351924],[-71.058607,42.351995],[-71.058687,42.351985],[-71.058694,42.351934],[-71.058747,42.351933],[-71.058757,42.35188],[-71.058829,42.351863],[-71.058838,42.351826],[-71.058887,42.351813],[-71.058888,42.351775],[-71.058924,42.351761],[-71.058923,42.351702],[-71.058987,42.351693],[-71.059009,42.351669]]],[[[-71.059001,42.353322],[-71.058993,42.353273],[-71.058967,42.353273],[-71.058969,42.353331],[-71.059001,42.353322]]],[[[-71.058962,42.35434],[-71.058954,42.35428],[-71.058926,42.35428],[-71.058929,42.35435],[-71.058962,42.35434]]],[[[-71.058867,42.353307],[-71.058859,42.353258],[-71.058833,42.353258],[-71.058835,42.353316],[-71.058867,42.353307]]],[[[-71.058761,42.353307],[-71.058753,42.353258],[-71.058727,42.353258],[-71.058729,42.353316],[-71.058761,42.353307]]],[[[-71.058601,42.352006],[-71.058593,42.351957],[-71.058491,42.351968],[-71.058448,42.352042],[-71.058392,42.35206],[-71.058402,42.35216],[-71.058427,42.352178],[-71.058462,42.352178],[-71.058486,42.35216],[-71.058489,42.352131],[-71.058574,42.352108],[-71.05859,42.352079],[-71.058586,42.352019],[-71.058601,42.352006]]],[[[-71.058571,42.352569],[-71.058563,42.35252],[-71.058537,42.35252],[-71.058539,42.352578],[-71.058571,42.352569]]],[[[-71.058511,42.352563],[-71.058499,42.35248],[-71.058466,42.35247],[-71.058474,42.352563],[-71.058492,42.352576],[-71.058511,42.352563]]],[[[-71.058431,42.35257],[-71.058423,42.352518],[-71.058397,42.352518],[-71.0584,42.352579],[-71.058431,42.35257]]],[[[-71.058391,42.352139],[-71.058383,42.352087],[-71.058357,42.352087],[-71.05836,42.352148],[-71.058391,42.352139]]],[[[-71.058391,42.352509],[-71.058383,42.35246],[-71.058357,42.35246],[-71.058359,42.352518],[-71.058391,42.352509]]],[[[-71.058351,42.352559],[-71.058343,42.35251],[-71.058317,42.35251],[-71.058319,42.352568],[-71.058351,42.352559]]],[[[-71.058291,42.350949],[-71.058283,42.3509],[-71.058257,42.3509],[-71.058259,42.350958],[-71.058291,42.350949]]],[[[-71.058281,42.352506],[-71.058273,42.352457],[-71.058247,42.352457],[-71.058233,42.352507],[-71.058239,42.35256],[-71.058265,42.35256],[-71.058281,42.352506]]],[[[-71.058221,42.350926],[-71.058213,42.350877],[-71.058187,42.350877],[-71.058189,42.350935],[-71.058221,42.350926]]],[[[-71.058041,42.352704],[-71.058033,42.352655],[-71.058007,42.352655],[-71.058009,42.352713],[-71.058041,42.352704]]],[[[-71.058035,42.352807],[-71.058027,42.352758],[-71.058001,42.352758],[-71.058003,42.352816],[-71.058035,42.352807]]],[[[-71.058011,42.352944],[-71.058003,42.352895],[-71.057977,42.352895],[-71.057979,42.352953],[-71.058011,42.352944]]],[[[-71.057806,42.350732],[-71.057798,42.350683],[-71.057772,42.350683],[-71.057774,42.350741],[-71.057806,42.350732]]],[[[-71.057761,42.350716],[-71.057753,42.350667],[-71.057727,42.350667],[-71.057729,42.350725],[-71.057761,42.350716]]],[[[-71.057753,42.352282],[-71.05775,42.352226],[-71.057714,42.352208],[-71.0577,42.352219],[-71.057701,42.352282],[-71.057727,42.352301],[-71.057753,42.352282]]],[[[-71.057627,42.352249],[-71.057615,42.352175],[-71.057573,42.352175],[-71.057577,42.352264],[-71.057609,42.352269],[-71.057627,42.352249]]],[[[-71.057539,42.352216],[-71.057536,42.35216],[-71.0575,42.352142],[-71.057486,42.352153],[-71.057487,42.352216],[-71.057513,42.352235],[-71.057539,42.352216]]],[[[-71.057459,42.352196],[-71.057456,42.35214],[-71.05742,42.352122],[-71.057406,42.352133],[-71.057407,42.352196],[-71.057433,42.352215],[-71.057459,42.352196]]],[[[-71.057417,42.350442],[-71.057409,42.350393],[-71.057383,42.350393],[-71.057385,42.350451],[-71.057417,42.350442]]],[[[-71.057401,42.350533],[-71.057393,42.350484],[-71.057367,42.350484],[-71.057369,42.350542],[-71.057401,42.350533]]],[[[-71.057373,42.352169],[-71.057361,42.352095],[-71.057319,42.352095],[-71.057323,42.352184],[-71.057355,42.352189],[-71.057373,42.352169]]],[[[-71.057351,42.351749],[-71.057343,42.351697],[-71.057317,42.351697],[-71.057303,42.351745],[-71.057309,42.351798],[-71.057335,42.351798],[-71.057351,42.351749]]],[[[-71.057312,42.351936],[-71.057304,42.351887],[-71.057278,42.351887],[-71.057262,42.351955],[-71.057269,42.352],[-71.057295,42.352],[-71.057312,42.351936]]],[[[-71.057301,42.35097],[-71.057293,42.350915],[-71.057267,42.350915],[-71.05727,42.350979],[-71.057301,42.35097]]],[[[-71.057271,42.351108],[-71.057263,42.351053],[-71.057237,42.351053],[-71.05724,42.351117],[-71.057271,42.351108]]],[[[-71.057211,42.351449],[-71.057203,42.3514],[-71.057177,42.3514],[-71.057179,42.351458],[-71.057211,42.351449]]],[[[-71.057201,42.350589],[-71.057193,42.35054],[-71.057167,42.35054],[-71.057169,42.350598],[-71.057201,42.350589]]],[[[-71.05715,42.350671],[-71.057142,42.350622],[-71.057116,42.350622],[-71.057118,42.35068],[-71.05715,42.350671]]],[[[-71.057097,42.350572],[-71.057089,42.350523],[-71.057063,42.350523],[-71.057065,42.350581],[-71.057097,42.350572]]],[[[-71.057041,42.349879],[-71.057033,42.34983],[-71.057007,42.34983],[-71.057004,42.349879],[-71.05696,42.349894],[-71.056971,42.349982],[-71.056994,42.349989],[-71.057024,42.349974],[-71.057018,42.349892],[-71.057041,42.349879]]],[[[-71.056871,42.352075],[-71.056863,42.352018],[-71.056837,42.352018],[-71.05684,42.352085],[-71.056871,42.352075]]],[[[-71.056837,42.350269],[-71.056829,42.35022],[-71.056803,42.35022],[-71.056805,42.350278],[-71.056837,42.350269]]],[[[-71.056833,42.349828],[-71.056826,42.349749],[-71.056805,42.349733],[-71.056762,42.34974],[-71.056754,42.349817],[-71.05673,42.349831],[-71.05673,42.34988],[-71.05668,42.349901],[-71.05668,42.34997],[-71.056635,42.349992],[-71.056635,42.350072],[-71.056601,42.350094],[-71.056612,42.350168],[-71.056578,42.350163],[-71.05656,42.350176],[-71.056571,42.350264],[-71.056594,42.350271],[-71.056624,42.350256],[-71.056613,42.350169],[-71.056654,42.350168],[-71.05666,42.350102],[-71.056702,42.350105],[-71.056729,42.350086],[-71.056729,42.350017],[-71.056774,42.349995],[-71.056793,42.349856],[-71.056833,42.349828]]],[[[-71.056801,42.350346],[-71.056793,42.350297],[-71.056767,42.350297],[-71.056769,42.350355],[-71.056801,42.350346]]],[[[-71.056751,42.352039],[-71.056743,42.351984],[-71.056717,42.351984],[-71.05672,42.352048],[-71.056751,42.352039]]],[[[-71.056646,42.35066],[-71.056638,42.350603],[-71.056612,42.350603],[-71.056615,42.35067],[-71.056646,42.35066]]],[[[-71.056629,42.353259],[-71.056626,42.353203],[-71.05659,42.353185],[-71.056576,42.353196],[-71.056577,42.353259],[-71.056603,42.353278],[-71.056629,42.353259]]],[[[-71.056611,42.350727],[-71.056603,42.35067],[-71.056577,42.35067],[-71.05658,42.350737],[-71.056611,42.350727]]],[[[-71.056563,42.3509],[-71.056544,42.350809],[-71.05651,42.350798],[-71.056476,42.350809],[-71.056461,42.350834],[-71.056479,42.350925],[-71.056532,42.350933],[-71.056563,42.3509]]],[[[-71.056562,42.353215],[-71.056554,42.353155],[-71.056526,42.353155],[-71.056529,42.353225],[-71.056562,42.353215]]],[[[-71.056487,42.353177],[-71.056479,42.353117],[-71.056451,42.353117],[-71.056454,42.353187],[-71.056487,42.353177]]],[[[-71.056471,42.351967],[-71.056463,42.35191],[-71.056437,42.35191],[-71.05644,42.351977],[-71.056471,42.351967]]],[[[-71.056431,42.351069],[-71.056423,42.35102],[-71.056397,42.35102],[-71.056399,42.351078],[-71.056431,42.351069]]],[[[-71.056401,42.351144],[-71.056393,42.351087],[-71.056367,42.351087],[-71.05637,42.351154],[-71.056401,42.351144]]],[[[-71.056396,42.353143],[-71.056386,42.353078],[-71.056354,42.353078],[-71.056357,42.353155],[-71.056396,42.353143]]],[[[-71.05639,42.351936],[-71.056383,42.35189],[-71.056357,42.35189],[-71.056359,42.351945],[-71.05639,42.351936]]],[[[-71.056367,42.351215],[-71.056359,42.351166],[-71.056333,42.351166],[-71.056335,42.351224],[-71.056367,42.351215]]],[[[-71.056341,42.354977],[-71.056333,42.35492],[-71.056307,42.35492],[-71.05631,42.354987],[-71.056341,42.354977]]],[[[-71.056331,42.354883],[-71.056323,42.354826],[-71.056297,42.354826],[-71.0563,42.354893],[-71.056331,42.354883]]],[[[-71.056312,42.3548],[-71.056306,42.35467],[-71.05627,42.354652],[-71.056256,42.354663],[-71.056257,42.354726],[-71.056273,42.3548],[-71.056293,42.354815],[-71.056312,42.3548]]],[[[-71.056261,42.351418],[-71.056253,42.351366],[-71.056227,42.351366],[-71.056223,42.351398],[-71.056203,42.351411],[-71.056205,42.351442],[-71.056172,42.35145],[-71.05618,42.351501],[-71.056205,42.351501],[-71.056209,42.35146],[-71.056236,42.351462],[-71.05624,42.351431],[-71.056261,42.351418]]],[[[-71.056259,42.350889],[-71.056251,42.350832],[-71.056225,42.350832],[-71.056228,42.350899],[-71.056259,42.350889]]],[[[-71.056251,42.353089],[-71.056243,42.35304],[-71.056217,42.35304],[-71.056219,42.353098],[-71.056251,42.353089]]],[[[-71.056229,42.35098],[-71.056221,42.350923],[-71.056195,42.350923],[-71.056198,42.35099],[-71.056229,42.35098]]],[[[-71.056189,42.351083],[-71.056181,42.351026],[-71.056155,42.351026],[-71.056158,42.351093],[-71.056189,42.351083]]],[[[-71.056151,42.351192],[-71.056143,42.351135],[-71.056117,42.351135],[-71.05612,42.351202],[-71.056151,42.351192]]],[[[-71.056081,42.351752],[-71.056073,42.3517],[-71.056047,42.3517],[-71.05605,42.351761],[-71.056081,42.351752]]],[[[-71.05598,42.351402],[-71.055972,42.351345],[-71.055946,42.351345],[-71.055943,42.3514],[-71.055918,42.351407],[-71.055925,42.351469],[-71.055951,42.351469],[-71.055953,42.351414],[-71.05598,42.351402]]],[[[-71.055923,42.351529],[-71.055915,42.351472],[-71.055889,42.351472],[-71.055892,42.351539],[-71.055923,42.351529]]],[[[-71.055891,42.351608],[-71.055883,42.351551],[-71.055857,42.351551],[-71.05586,42.351618],[-71.055891,42.351608]]],[[[-71.055873,42.352292],[-71.055854,42.352201],[-71.05582,42.35219],[-71.055786,42.352201],[-71.055772,42.352242],[-71.055737,42.352276],[-71.055745,42.352356],[-71.05579,42.352378],[-71.055824,42.352367],[-71.055838,42.352326],[-71.055873,42.352292]]],[[[-71.055862,42.351669],[-71.055854,42.351612],[-71.055828,42.351612],[-71.055831,42.351679],[-71.055862,42.351669]]],[[[-71.055811,42.351774],[-71.055803,42.351717],[-71.055777,42.351717],[-71.055774,42.351763],[-71.055753,42.351771],[-71.05576,42.351833],[-71.055786,42.351833],[-71.055789,42.351787],[-71.055811,42.351774]]],[[[-71.055792,42.353398],[-71.055779,42.353319],[-71.055733,42.353319],[-71.055737,42.353415],[-71.055772,42.35342],[-71.055792,42.353398]]],[[[-71.055728,42.353453],[-71.055716,42.353379],[-71.055674,42.353379],[-71.055678,42.353468],[-71.05571,42.353473],[-71.055728,42.353453]]],[[[-71.055648,42.35348],[-71.05564,42.35342],[-71.055612,42.35342],[-71.055615,42.35349],[-71.055648,42.35348]]],[[[-71.055561,42.353544],[-71.055553,42.353487],[-71.055527,42.353487],[-71.05553,42.353554],[-71.055561,42.353544]]],[[[-71.055501,42.353572],[-71.055493,42.35352],[-71.055467,42.35352],[-71.05547,42.353581],[-71.055501,42.353572]]],[[[-71.055265,42.353692],[-71.055257,42.353643],[-71.055189,42.353657],[-71.055182,42.353686],[-71.055147,42.3537],[-71.055157,42.353765],[-71.055234,42.353746],[-71.055241,42.353704],[-71.055265,42.353692]]]]},"properties":{"kind":"tree"}}]}