{"type":"FeatureCollection","features":[{"type":"Feature","geometry":{"type":"MultiPolygon","coordinates":[[[[-71.06703,42.351826],[-71.067007,42.351692],[-71.066747,42.351106],[-71.065949,42.3512],[-71.065991,42.350995],[-71.065959,42.350666],[-71.065942,42.350666],[-71.065953,42.350615],[-71.06593,42.350327],[-71.065893,42.350329],[-71.065916,42.350219],[-71.065881,42.34989],[-71.065776,42.349769],[-71.065661,42.349801],[-71.065679,42.349714],[-71.065747,42.349727],[-71.065772,42.349706],[-71.065876,42.34984],[-71.065953,42.349816],[-71.065973,42.349738],[-71.065988,42.349764],[-71.066076,42.34974],[-71.066095,42.349646],[-71.066053,42.349571],[-71.066091,42.349559],[-71.066107,42.349483],[-71.066051,42.349385],[-71.065989,42.349405],[-71.065973,42.349481],[-71.06562,42.349445],[-71.065521,42.349461],[-71.065431,42.349881],[-71.06532,42.350302],[-71.06531,42.3503],[-71.065227,42.350588],[-71.065214,42.35065],[-71.065233,42.350652],[-71.06521,42.350652],[-71.065139,42.350903],[-71.065071,42.351235],[-71.064967,42.35123],[-71.064905,42.351431],[-71.064683,42.352315],[-71.064621,42.352667],[-71.064686,42.352677],[-71.064699,42.352638],[-71.065432,42.352691],[-71.065456,42.352574],[-71.065639,42.352587],[-71.065623,42.352684],[-71.06582,42.352699],[-71.065932,42.352094],[-71.0659,42.352091],[-71.065905,42.352055],[-71.065993,42.352068],[-71.065924,42.352433],[-71.065924,42.352595],[-71.06602,42.3526],[-71.066071,42.352281],[-71.066247,42.35228],[-71.066277,42.35211],[-71.066785,42.352174],[-71.066968,42.352129],[-71.06703,42.351826]],[[-71.065164,42.351895],[-71.065122,42.352084],[-71.065152,42.351894],[-71.065164,42.351895]]],[[[-71.066483,42.348529],[-71.065913,42.348462],[-71.065995,42.348064],[-71.065837,42.348044],[-71.065691,42.34874],[-71.065757,42.348749],[-71.065739,42.348839],[-71.065835,42.34885],[-71.065854,42.34876],[-71.06587,42.348816],[-71.066408,42.348879],[-71.066483,42.348529]]],[[[-71.065565,42.354342],[-71.065554,42.354318],[-71.065521,42.354301],[-71.065458,42.354314],[-71.065429,42.35441],[-71.065435,42.35444],[-71.065478,42.354463],[-71.065535,42.354449],[-71.065565,42.354342]]],[[[-71.065529,42.347903],[-71.065483,42.347819],[-71.065392,42.347805],[-71.065371,42.347781],[-71.065314,42.347783],[-71.065319,42.347677],[-71.065257,42.347643],[-71.064894,42.347587],[-71.064503,42.347783],[-71.064389,42.348045],[-71.064316,42.348336],[-71.064352,42.348342],[-71.064464,42.348298],[-71.064406,42.348551],[-71.064341,42.348545],[-71.064334,42.348568],[-71.064275,42.348582],[-71.064138,42.348956],[-71.064114,42.349062],[-71.064429,42.34911],[-71.064404,42.349122],[-71.064358,42.349345],[-71.064607,42.349514],[-71.064788,42.349421],[-71.064792,42.349405],[-71.064874,42.349431],[-71.065136,42.349308],[-71.065171,42.34914],[-71.065268,42.34913],[-71.06533,42.348887],[-71.065323,42.348802],[-71.065279,42.348688],[-71.064992,42.348617],[-71.064809,42.348591],[-71.064863,42.348325],[-71.064919,42.348366],[-71.064949,42.348347],[-71.065088,42.348506],[-71.065112,42.348494],[-71.065121,42.348513],[-71.065415,42.348448],[-71.065427,42.34839],[-71.065361,42.348315],[-71.065469,42.348206],[-71.065484,42.348131],[-71.065424,42.348043],[-71.065511,42.347985],[-71.065529,42.347903]]],[[[-71.065421,42.352871],[-71.065303,42.352844],[-71.065278,42.352932],[-71.065304,42.353013],[-71.06537,42.353027],[-71.065421,42.352871]]],[[[-71.065169,42.349617],[-71.064416,42.349501],[-71.064395,42.349572],[-71.063761,42.349475],[-71.063704,42.34942],[-71.063742,42.349231],[-71.063882,42.348769],[-71.063945,42.348463],[-71.063623,42.348413],[-71.063505,42.348828],[-71.063465,42.349025],[-71.063074,42.348966],[-71.063032,42.34904],[-71.062993,42.34918],[-71.062964,42.349139],[-71.063011,42.349044],[-71.063039,42.348905],[-71.063331,42.348948],[-71.063476,42.348381],[-71.063139,42.34833],[-71.063213,42.348341],[-71.063253,42.34818],[-71.06323,42.348148],[-71.063187,42.348141],[-71.063177,42.348169],[-71.0631,42.348157],[-71.063125,42.348116],[-71.063265,42.348148],[-71.063301,42.347999],[-71.062961,42.347921],[-71.062914,42.348075],[-71.063047,42.348104],[-71.063038,42.348148],[-71.062886,42.348123],[-71.062909,42.347999],[-71.062855,42.347962],[-71.062735,42.347939],[-71.06264,42.348175],[-71.062624,42.348253],[-71.062604,42.34825],[-71.062448,42.348644],[-71.062431,42.348728],[-71.062409,42.348753],[-71.062286,42.349074],[-71.062234,42.34916],[-71.062207,42.349293],[-71.062169,42.349306],[-71.062155,42.349337],[-71.062135,42.349436],[-71.061999,42.349764],[-71.061982,42.349848],[-71.061969,42.349845],[-71.061924,42.349957],[-71.061887,42.35014],[-71.06178,42.350309],[-71.061757,42.350375],[-71.061746,42.350372],[-71.061673,42.350559],[-71.061629,42.350772],[-71.061597,42.350765],[-71.061554,42.350897],[-71.06154,42.350894],[-71.061462,42.35114],[-71.061448,42.351138],[-71.061352,42.351379],[-71.061319,42.351542],[-71.061289,42.351543],[-71.061235,42.351807],[-71.061298,42.352123],[-71.061348,42.352121],[-71.061365,42.352204],[-71.06152,42.352196],[-71.061537,42.352113],[-71.061589,42.352277],[-71.061613,42.352276],[-71.061608,42.352301],[-71.061514,42.352311],[-71.061454,42.352351],[-71.06144,42.352421],[-71.061453,42.3525],[-71.061569,42.352489],[-71.061556,42.352555],[-71.061487,42.352561],[-71.061436,42.352811],[-71.061471,42.353345],[-71.0615,42.353344],[-71.06144,42.353634],[-71.061316,42.353581],[-71.061282,42.353618],[-71.061254,42.353603],[-71.061277,42.353553],[-71.06136,42.353145],[-71.061336,42.35258],[-71.061194,42.352592],[-71.061121,42.352806],[-71.061104,42.352801],[-71.06093,42.352995],[-71.060974,42.352797],[-71.061017,42.352793],[-71.061125,42.352254],[-71.061108,42.351986],[-71.061049,42.351593],[-71.061189,42.351258],[-71.061227,42.351071],[-71.060769,42.350979],[-71.060611,42.351308],[-71.060583,42.351443],[-71.060388,42.351402],[-71.060369,42.351415],[-71.060347,42.351522],[-71.06041,42.351719],[-71.060469,42.351731],[-71.060436,42.351892],[-71.060513,42.35218],[-71.0605,42.352135],[-71.060316,42.352167],[-71.060292,42.352284],[-71.060276,42.352208],[-71.060118,42.352221],[-71.060066,42.352475],[-71.060109,42.352759],[-71.060179,42.352759],[-71.060183,42.352806],[-71.060281,42.352821],[-71.060231,42.353043],[-71.060662,42.353255],[-71.060761,42.353144],[-71.060806,42.35315],[-71.060774,42.353304],[-71.060695,42.353272],[-71.060073,42.353928],[-71.060133,42.353635],[-71.059919,42.353517],[-71.06003,42.353468],[-71.060075,42.353419],[-71.06017,42.353468],[-71.060285,42.353345],[-71.060325,42.353148],[-71.060198,42.353083],[-71.060156,42.353018],[-71.059657,42.352762],[-71.059553,42.352772],[-71.059513,42.352905],[-71.059499,42.353034],[-71.059557,42.353396],[-71.059432,42.35339],[-71.059261,42.353544],[-71.059271,42.353492],[-71.059338,42.353418],[-71.059392,42.353157],[-71.059318,42.352574],[-71.059264,42.352567],[-71.059291,42.352434],[-71.059226,42.352012],[-71.059026,42.352083],[-71.058873,42.352183],[-71.058801,42.352281],[-71.058739,42.352528],[-71.058176,42.352542],[-71.058071,42.352594],[-71.058055,42.352616],[-71.057831,42.353736],[-71.057634,42.353669],[-71.057731,42.353195],[-71.057796,42.352781],[-71.057688,42.352735],[-71.05756,42.352748],[-71.05731,42.352888],[-71.057163,42.352943],[-71.05712,42.352979],[-71.056976,42.353628],[-71.056971,42.353492],[-71.056948,42.353395],[-71.056816,42.353425],[-71.056631,42.353508],[-71.05666,42.353366],[-71.056638,42.353263],[-71.056586,42.353241],[-71.056645,42.352949],[-71.056771,42.352915],[-71.056815,42.352856],[-71.056912,42.352663],[-71.05696,42.352429],[-71.056994,42.352437],[-71.057141,42.351687],[-71.057123,42.351679],[-71.057505,42.349748],[-71.057133,42.349667],[-71.05695,42.350087],[-71.056922,42.350095],[-71.056797,42.350339],[-71.05675,42.350567],[-71.056781,42.350571],[-71.056772,42.350616],[-71.056678,42.350643],[-71.056627,42.350738],[-71.056547,42.350949],[-71.056401,42.351249],[-71.056379,42.351358],[-71.056294,42.351331],[-71.056079,42.351765],[-71.056014,42.35208],[-71.056045,42.352088],[-71.05594,42.352127],[-71.055846,42.352326],[-71.055617,42.353445],[-71.055573,42.353469],[-71.055565,42.35351],[-71.055421,42.353589],[-71.055376,42.353638],[-71.055342,42.353603],[-71.054915,42.353838],[-71.054899,42.353918],[-71.054834,42.353899],[-71.054776,42.353908],[-71.054378,42.354122],[-71.054355,42.354162],[-71.05415,42.355161],[-71.054159,42.355205],[-71.054414,42.35547],[-71.054481,42.355484],[-71.054569,42.355436],[-71.054844,42.355191],[-71.054878,42.355138],[-71.054905,42.355155],[-71.054862,42.355407],[-71.055023,42.355555],[-71.055073,42.355559],[-71.055389,42.35537],[-71.055503,42.35486],[-71.055535,42.354825],[-71.055434,42.355318],[-71.055499,42.355682],[-71.055372,42.356303],[-71.055478,42.356881],[-71.05593,42.356837],[-71.056095,42.35603],[-71.056244,42.355997],[-71.056364,42.355412],[-71.056229,42.354666],[-71.0562,42.354653],[-71.056231,42.354504],[-71.056183,42.354334],[-71.05619,42.3543],[-71.056128,42.35396],[-71.056244,42.354008],[-71.056209,42.354178],[-71.056245,42.354391],[-71.056341,42.354445],[-71.056319,42.354549],[-71.056364,42.354797],[-71.056383,42.354809],[-71.056497,42.354798],[-71.056315,42.355687],[-71.056379,42.356044],[-71.057162,42.355985],[-71.05734,42.355118],[-71.057356,42.355123],[-71.057561,42.35479],[-71.057898,42.354895],[-71.058209,42.354592],[-71.058218,42.354557],[-71.058231,42.354564],[-71.058484,42.354309],[-71.058518,42.354319],[-71.05787,42.354957],[-71.057824,42.35519],[-71.057871,42.355208],[-71.058018,42.35521],[-71.058084,42.355341],[-71.058211,42.355356],[-71.058274,42.355334],[-71.05836,42.35525],[-71.058388,42.35511],[-71.058406,42.35512],[-71.058677,42.354873],[-71.058687,42.354824],[-71.058924,42.354628],[-71.058985,42.354638],[-71.058538,42.355044],[-71.0585,42.35523],[-71.058504,42.355256],[-71.058817,42.355392],[-71.058725,42.355842],[-71.058799,42.355897],[-71.059091,42.356016],[-71.059337,42.355802],[-71.0594,42.355724],[-71.059492,42.355274],[-71.0596,42.355174],[-71.059625,42.355049],[-71.060144,42.35544],[-71.060264,42.355353],[-71.060473,42.355492],[-71.060611,42.355368],[-71.060648,42.355396],[-71.061041,42.35503],[-71.061062,42.355042],[-71.061912,42.354231],[-71.061984,42.354158],[-71.061994,42.354108],[-71.062044,42.354132],[-71.061806,42.354365],[-71.061789,42.354448],[-71.061745,42.354425],[-71.061369,42.354786],[-71.061338,42.354937],[-71.061254,42.354893],[-71.06106,42.355076],[-71.061017,42.355284],[-71.06133,42.355441],[-71.061502,42.355254],[-71.061512,42.355207],[-71.061581,42.355243],[-71.061689,42.355129],[-71.06201,42.355308],[-71.062018,42.3553],[-71.062151,42.355368],[-71.062318,42.355189],[-71.062333,42.355116],[-71.062323,42.355196],[-71.062435,42.355259],[-71.062466,42.355232],[-71.062451,42.355304],[-71.062541,42.355355],[-71.062603,42.355291],[-71.062661,42.355324],[-71.062784,42.355196],[-71.062772,42.355255],[-71.063078,42.355417],[-71.063114,42.355384],[-71.063214,42.355406],[-71.06323,42.355377],[-71.063253,42.355383],[-71.063542,42.354847],[-71.063613,42.354579],[-71.063652,42.354506],[-71.063703,42.354473],[-71.063767,42.354356],[-71.06379,42.354249],[-71.063806,42.354253],[-71.063829,42.354222],[-71.063899,42.354096],[-71.063991,42.353669],[-71.064027,42.353678],[-71.064063,42.353574],[-71.064135,42.353494],[-71.064187,42.353305],[-71.0642,42.353305],[-71.064288,42.352962],[-71.064356,42.352609],[-71.064417,42.35259],[-71.064656,42.35159],[-71.064692,42.351594],[-71.064707,42.351542],[-71.064989,42.350307],[-71.065111,42.3499],[-71.065169,42.349617]],[[-71.064282,42.351121],[-71.064273,42.35117],[-71.063934,42.351133],[-71.063926,42.351161],[-71.063928,42.35115],[-71.063875,42.351138],[-71.063681,42.351111],[-71.063721,42.350919],[-71.064282,42.351121]],[[-71.064175,42.352259],[-71.064146,42.352402],[-71.064081,42.3524],[-71.064098,42.352319],[-71.064175,42.352259]],[[-71.064008,42.350513],[-71.06399,42.350541],[-71.063896,42.350508],[-71.063915,42.350416],[-71.063539,42.350364],[-71.063408,42.350576],[-71.063306,42.351072],[-71.06329,42.35107],[-71.063232,42.351357],[-71.063218,42.351362],[-71.063273,42.351069],[-71.063049,42.351044],[-71.063027,42.351108],[-71.063015,42.351107],[-71.062904,42.351525],[-71.063387,42.351594],[-71.06343,42.351593],[-71.063446,42.351533],[-71.063461,42.351534],[-71.063445,42.35161],[-71.062895,42.351546],[-71.062704,42.352487],[-71.062679,42.352486],[-71.062633,42.352705],[-71.062602,42.353337],[-71.062666,42.353392],[-71.062652,42.353473],[-71.062533,42.353622],[-71.062491,42.353619],[-71.06222,42.353944],[-71.062333,42.353683],[-71.062413,42.353293],[-71.062415,42.35316],[-71.062399,42.353161],[-71.062426,42.353031],[-71.06244,42.352749],[-71.062495,42.35255],[-71.06267,42.351702],[-71.062691,42.351707],[-71.062785,42.351355],[-71.062836,42.35136],[-71.062956,42.351017],[-71.063089,42.350443],[-71.063222,42.350464],[-71.0633,42.350301],[-71.063311,42.350303],[-71.06341,42.349942],[-71.063513,42.349954],[-71.064008,42.350513]],[[-71.063931,42.352447],[-71.063841,42.352979],[-71.063823,42.352971],[-71.063868,42.352438],[-71.063931,42.352447]],[[-71.063783,42.353552],[-71.063645,42.35376],[-71.063632,42.353825],[-71.063609,42.353818],[-71.063553,42.353908],[-71.06361,42.3538],[-71.063667,42.353544],[-71.063783,42.353552]],[[-71.063513,42.352309],[-71.063509,42.352383],[-71.063475,42.352383],[-71.063491,42.352306],[-71.063513,42.352309]],[[-71.06344,42.354066],[-71.063324,42.354193],[-71.063347,42.354061],[-71.06344,42.354066]],[[-71.063169,42.353506],[-71.063145,42.353622],[-71.063129,42.35402],[-71.063021,42.354012],[-71.06311,42.353501],[-71.063169,42.353506]],[[-71.062875,42.34813],[-71.062839,42.348285],[-71.062746,42.348271],[-71.062769,42.348171],[-71.062852,42.348189],[-71.062875,42.34813]],[[-71.062741,42.354845],[-71.062723,42.354934],[-71.062675,42.354909],[-71.062741,42.354845]],[[-71.06271,42.349473],[-71.062707,42.349488],[-71.062691,42.349482],[-71.06271,42.349473]],[[-71.062704,42.350308],[-71.062665,42.350453],[-71.062576,42.350415],[-71.062607,42.350267],[-71.062704,42.350308]],[[-71.062581,42.349451],[-71.062462,42.349405],[-71.062543,42.349363],[-71.06253,42.349427],[-71.062581,42.349451]],[[-71.062474,42.349908],[-71.062445,42.349947],[-71.062432,42.350006],[-71.062167,42.349895],[-71.062172,42.349884],[-71.062251,42.349917],[-71.062448,42.349843],[-71.062445,42.349895],[-71.062474,42.349908]],[[-71.062399,42.351593],[-71.062395,42.351592],[-71.062398,42.351579],[-71.062399,42.351593]],[[-71.062372,42.350594],[-71.062285,42.350707],[-71.062215,42.351047],[-71.062158,42.351034],[-71.062121,42.351216],[-71.062163,42.351543],[-71.06208,42.351531],[-71.06211,42.351383],[-71.06207,42.35108],[-71.06209,42.350996],[-71.06212,42.351004],[-71.062227,42.350848],[-71.062258,42.350695],[-71.062278,42.350701],[-71.062372,42.350594]],[[-71.062219,42.354873],[-71.062123,42.354843],[-71.062132,42.354832],[-71.062219,42.354873]],[[-71.060744,42.351971],[-71.060676,42.351759],[-71.060679,42.351758],[-71.060744,42.351971]],[[-71.060581,42.352633],[-71.060578,42.352633],[-71.060579,42.352628],[-71.060581,42.352633]],[[-71.059348,42.354651],[-71.059329,42.354741],[-71.059216,42.354663],[-71.059321,42.354674],[-71.059348,42.354651]],[[-71.059145,42.354045],[-71.059133,42.354047],[-71.059106,42.354022],[-71.059145,42.354045]],[[-71.059055,42.353993],[-71.059019,42.354027],[-71.059027,42.353988],[-71.059055,42.353993]],[[-71.057919,42.353917],[-71.057908,42.354007],[-71.057734,42.354289],[-71.057811,42.35391],[-71.057919,42.353917]],[[-71.057061,42.353814],[-71.056928,42.354031],[-71.056982,42.353769],[-71.05698,42.353715],[-71.057061,42.353814]],[[-71.057013,42.351014],[-71.056841,42.351433],[-71.056819,42.351541],[-71.056772,42.35152],[-71.0569,42.351241],[-71.056915,42.351164],[-71.056992,42.351016],[-71.057013,42.351014]],[[-71.056933,42.354189],[-71.056818,42.354752],[-71.056734,42.354758],[-71.056813,42.354373],[-71.05677,42.354135],[-71.056895,42.354094],[-71.056879,42.354171],[-71.056933,42.354189]],[[-71.055879,42.353909],[-71.055862,42.353996],[-71.055759,42.354041],[-71.055777,42.353954],[-71.055879,42.353909]],[[-71.055572,42.354724],[-71.055571,42.354724],[-71.055572,42.354723],[-71.055572,42.354724]],[[-71.055406,42.354111],[-71.055381,42.354228],[-71.055179,42.354313],[-71.055104,42.35437],[-71.055051,42.35444],[-71.055019,42.354454],[-71.05507,42.354204],[-71.05512,42.354254],[-71.055382,42.354087],[-71.055406,42.354111]]],[[[-71.06461,42.353278],[-71.064542,42.353266],[-71.064502,42.353396],[-71.06457,42.35341],[-71.06461,42.353278]]],[[[-71.064113,42.347947],[-71.063968,42.347919],[-71.063883,42.347989],[-71.063856,42.347985],[-71.063816,42.348143],[-71.063544,42.348106],[-71.063606,42.347866],[-71.06346,42.347843],[-71.063345,42.348293],[-71.063823,42.348365],[-71.063849,42.348417],[-71.063968,42.348434],[-71.063981,42.348388],[-71.06401,42.348393],[-71.064113,42.347947]]],[[[-71.063935,42.354829],[-71.063869,42.354811],[-71.06384,42.354889],[-71.063906,42.354906],[-71.063935,42.354829]]],[[[-71.062446,42.347953],[-71.061926,42.347827],[-71.061878,42.347943],[-71.061821,42.348222],[-71.061865,42.348232],[-71.061582,42.348951],[-71.061545,42.348977],[-71.061349,42.349469],[-71.061327,42.349576],[-71.061307,42.349568],[-71.061196,42.349845],[-71.061167,42.349986],[-71.061134,42.350069],[-71.06115,42.350072],[-71.061138,42.350126],[-71.06109,42.35016],[-71.061001,42.350379],[-71.060955,42.350601],[-71.060899,42.350587],[-71.060881,42.350626],[-71.060817,42.350882],[-71.061033,42.35093],[-71.061173,42.350914],[-71.06117,42.350931],[-71.061301,42.350957],[-71.06136,42.350735],[-71.061344,42.350724],[-71.061433,42.350744],[-71.061706,42.350079],[-71.061727,42.350068],[-71.06189,42.349685],[-71.061975,42.34927],[-71.061815,42.349236],[-71.061839,42.34916],[-71.061748,42.34914],[-71.061863,42.348885],[-71.061895,42.34873],[-71.061832,42.348716],[-71.061892,42.348568],[-71.062204,42.34864],[-71.062222,42.348601],[-71.06224,42.348605],[-71.062389,42.348232],[-71.062446,42.347953]],[[-71.062213,42.348311],[-71.062165,42.348433],[-71.061965,42.348387],[-71.062013,42.348266],[-71.062213,42.348311]]],[[[-71.061866,42.34764],[-71.061712,42.347604],[-71.061566,42.347954],[-71.061492,42.348326],[-71.061414,42.348308],[-71.061369,42.348474],[-71.061362,42.348526],[-71.061382,42.34855],[-71.061351,42.348556],[-71.061342,42.348577],[-71.061288,42.348565],[-71.061229,42.348746],[-71.061155,42.348757],[-71.061116,42.348821],[-71.061068,42.349033],[-71.061095,42.349054],[-71.061062,42.349184],[-71.06114,42.349201],[-71.061122,42.349287],[-71.061132,42.349311],[-71.061017,42.349264],[-71.061005,42.349287],[-71.06102,42.349213],[-71.060981,42.349208],[-71.061004,42.349108],[-71.060955,42.349076],[-71.061016,42.349084],[-71.061054,42.348944],[-71.060878,42.348902],[-71.060744,42.349244],[-71.060727,42.349326],[-71.060954,42.349417],[-71.060982,42.34935],[-71.060967,42.349424],[-71.061178,42.349516],[-71.061226,42.349445],[-71.061341,42.349171],[-71.061432,42.34884],[-71.061455,42.348845],[-71.061582,42.34852],[-71.061596,42.348523],[-71.06164,42.348359],[-71.061795,42.347986],[-71.061866,42.34764]],[[-71.06096,42.349214],[-71.060936,42.349221],[-71.060901,42.349209],[-71.06096,42.349214]]],[[[-71.061365,42.348369],[-71.061295,42.34834],[-71.061312,42.348228],[-71.061184,42.348198],[-71.061133,42.348276],[-71.061098,42.348406],[-71.061011,42.348618],[-71.060991,42.348715],[-71.061108,42.348742],[-71.061212,42.3485],[-71.061334,42.348517],[-71.061365,42.348369]]],[[[-71.061068,42.348118],[-71.061011,42.348097],[-71.060549,42.348739],[-71.060467,42.349138],[-71.060443,42.349109],[-71.060321,42.349063],[-71.060204,42.349326],[-71.059925,42.350048],[-71.059874,42.350298],[-71.059794,42.350499],[-71.059765,42.350639],[-71.059787,42.350643],[-71.059782,42.350721],[-71.059992,42.350766],[-71.060034,42.350661],[-71.060115,42.350682],[-71.060216,42.350431],[-71.060245,42.350293],[-71.060456,42.349799],[-71.060557,42.349308],[-71.060675,42.349336],[-71.060957,42.348658],[-71.061068,42.348118]]],[[[-71.060966,42.349994],[-71.060509,42.349891],[-71.06038,42.350207],[-71.06032,42.350499],[-71.06026,42.350485],[-71.059972,42.351168],[-71.059946,42.351293],[-71.060226,42.351355],[-71.060251,42.351309],[-71.060242,42.351349],[-71.060445,42.351394],[-71.060569,42.351112],[-71.060634,42.35085],[-71.060658,42.350855],[-71.060712,42.350712],[-71.060748,42.350722],[-71.060886,42.350383],[-71.060966,42.349994]],[[-71.060324,42.350821],[-71.060322,42.350861],[-71.060279,42.350851],[-71.060295,42.350815],[-71.060324,42.350821]]],[[[-71.060448,42.351979],[-71.060234,42.351369],[-71.059977,42.351309],[-71.059946,42.351385],[-71.059962,42.351307],[-71.059758,42.351262],[-71.059709,42.351391],[-71.059673,42.351568],[-71.059674,42.351642],[-71.059786,42.352272],[-71.060002,42.352254],[-71.060033,42.352102],[-71.059961,42.35166],[-71.060078,42.351656],[-71.060083,42.351634],[-71.060137,42.351626],[-71.060203,42.351842],[-71.060056,42.351864],[-71.060024,42.352018],[-71.060043,42.352139],[-71.060221,42.352131],[-71.060425,42.352091],[-71.060448,42.351979]]],[[[-71.059748,42.352478],[-71.059715,42.35226],[-71.059695,42.352262],[-71.059626,42.351804],[-71.059386,42.351848],[-71.059345,42.352048],[-71.059383,42.352303],[-71.059394,42.352302],[-71.059438,42.352657],[-71.059708,42.352674],[-71.059748,42.352478]]],[[[-71.059505,42.350215],[-71.059471,42.35018],[-71.059047,42.350086],[-71.058996,42.350102],[-71.058689,42.350861],[-71.058657,42.351016],[-71.058633,42.351011],[-71.058362,42.351689],[-71.058333,42.351831],[-71.058529,42.351874],[-71.058717,42.351696],[-71.058872,42.351502],[-71.058976,42.351325],[-71.059029,42.351145],[-71.059108,42.351163],[-71.059163,42.351147],[-71.059469,42.35039],[-71.059505,42.350215]]],[[[-71.059318,42.349726],[-71.059179,42.349693],[-71.059096,42.349909],[-71.059235,42.349942],[-71.059318,42.349726]]],[[[-71.058776,42.350034],[-71.058372,42.349945],[-71.058116,42.350879],[-71.058104,42.350876],[-71.058088,42.350927],[-71.057889,42.351687],[-71.057776,42.352039],[-71.057755,42.352033],[-71.057838,42.351684],[-71.05782,42.351681],[-71.057897,42.351292],[-71.057949,42.3513],[-71.058012,42.35107],[-71.058052,42.350873],[-71.058041,42.35087],[-71.058279,42.349972],[-71.058289,42.349924],[-71.058267,42.349919],[-71.058344,42.349727],[-71.058424,42.349376],[-71.057926,42.349266],[-71.057844,42.349509],[-71.057974,42.349537],[-71.057962,42.349568],[-71.057872,42.349548],[-71.057853,42.349597],[-71.057846,42.349633],[-71.057936,42.349653],[-71.057906,42.349837],[-71.057874,42.34983],[-71.057688,42.349927],[-71.057225,42.352285],[-71.057877,42.35249],[-71.057901,42.352485],[-71.058064,42.351987],[-71.058094,42.351842],[-71.058373,42.351152],[-71.058414,42.350953],[-71.058225,42.350906],[-71.058243,42.350867],[-71.058441,42.350917],[-71.058457,42.350905],[-71.058588,42.350628],[-71.058622,42.350464],[-71.058653,42.350471],[-71.058714,42.35036],[-71.058776,42.350034]]],[[[-71.058071,42.348706],[-71.057613,42.348605],[-71.057529,42.348814],[-71.057449,42.349204],[-71.057908,42.349305],[-71.05799,42.349101],[-71.058071,42.348706]]],[[[-71.056775,42.349199],[-71.056596,42.349149],[-71.055507,42.34946],[-71.056653,42.34775],[-71.056683,42.347603],[-71.056673,42.347544],[-71.055908,42.347262],[-71.054533,42.349309],[-71.054508,42.349432],[-71.054447,42.34941],[-71.053477,42.350853],[-71.053426,42.351102],[-71.054007,42.351317],[-71.054126,42.351164],[-71.054323,42.351237],[-71.055293,42.34979],[-71.055303,42.349744],[-71.05544,42.349559],[-71.055025,42.350377],[-71.054993,42.350531],[-71.055075,42.350594],[-71.055064,42.350648],[-71.055122,42.350664],[-71.055134,42.35064],[-71.055335,42.350793],[-71.055487,42.350849],[-71.056122,42.350843],[-71.056206,42.350827],[-71.056402,42.350435],[-71.056603,42.349936],[-71.056775,42.349199]]],[[[-71.055768,42.35162],[-71.055498,42.351545],[-71.054479,42.351779],[-71.054307,42.351954],[-71.054259,42.35219],[-71.054785,42.352468],[-71.054945,42.352519],[-71.055113,42.352544],[-71.05529,42.352504],[-71.05541,42.352414],[-71.055501,42.352305],[-71.05572,42.351856],[-71.055768,42.35162]]]]},"properties":{"kind":"building"}},{"type":"Feature","geometry":{"type":"MultiPolygon","coordinates":[[[[-71.066058,42.353451],[-71.066047,42.35341],[-71.066015,42.353375],[-71.065968,42.353351],[-71.065891,42.353346],[-71.065909,42.353261],[-71.065978,42.353213],[-71.06602,42.353057],[-71.066048,42.352923],[-71.066021,42.352832],[-71.065989,42.352797],[-71.065886,42.352765],[-71.06583,42.352773],[-71.065768,42.352813],[-71.065774,42.352784],[-71.06575,42.352742],[-71.065693,42.352724],[-71.06565,42.352735],[-71.06572,42.352711],[-71.065792,42.352743],[-71.065857,42.352714],[-71.065898,42.352747],[-71.065955,42.352747],[-71.065996,42.352717],[-71.066016,42.352576],[-71.065976,42.352546],[-71.065918,42.352546],[-71.065882,42.352572],[-71.065841,42.352538],[-71.065759,42.35255],[-71.065688,42.352518],[-71.065635,42.352534],[-71.065608,42.352598],[-71.065539,42.352598],[-71.06549,42.352634],[-71.06546,42.352774],[-71.065479,42.352813],[-71.06544,42.352969],[-71.065448,42.352996],[-71.065408,42.353037],[-71.065363,42.353224],[-71.065265,42.353195],[-71.0652,42.353208],[-71.065203,42.353192],[-71.065247,42.353191],[-71.065284,42.353164],[-71.065308,42.353051],[-71.065266,42.353005],[-71.065274,42.352968],[-71.06525,42.352941],[-71.065199,42.352957],[-71.065157,42.353124],[-71.065123,42.353143],[-71.06511,42.353201],[-71.06506,42.353168],[-71.065018,42.353161],[-71.064976,42.353168],[-71.064918,42.35321],[-71.064939,42.353107],[-71.064928,42.353066],[-71.064865,42.353015],[-71.06483,42.352952],[-71.064745,42.352926],[-71.06466,42.352952],[-71.064634,42.352981],[-71.064596,42.353155],[-71.064626,42.353211],[-71.064618,42.353247],[-71.064581,42.353265],[-71.064549,42.353323],[-71.064522,42.353454],[-71.064544,42.353501],[-71.064505,42.353658],[-71.064535,42.353711],[-71.064567,42.353727],[-71.064606,42.353733],[-71.064677,42.353711],[-71.064707,42.353658],[-71.064743,42.353454],[-71.064788,42.353461],[-71.064839,42.353446],[-71.064896,42.353298],[-71.064881,42.353374],[-71.064913,42.353432],[-71.064875,42.353478],[-71.064855,42.353574],[-71.064876,42.353612],[-71.064926,42.353627],[-71.064977,42.353612],[-71.064998,42.353574],[-71.065012,42.353458],[-71.065054,42.353439],[-71.065016,42.353616],[-71.065052,42.35368],[-71.065139,42.353707],[-71.065186,42.3537],[-71.065226,42.35368],[-71.065278,42.353609],[-71.065283,42.353698],[-71.065331,42.353741],[-71.065285,42.35377],[-71.065266,42.353858],[-71.065201,42.35385],[-71.065168,42.353875],[-71.065148,42.353964],[-71.065096,42.353943],[-71.065036,42.353973],[-71.065017,42.3541],[-71.065053,42.354126],[-71.065121,42.354117],[-71.065119,42.354165],[-71.065173,42.354192],[-71.065227,42.354165],[-71.065244,42.354087],[-71.065296,42.354109],[-71.065342,42.354095],[-71.065379,42.353974],[-71.065421,42.35399],[-71.065472,42.353965],[-71.065489,42.353851],[-71.065459,42.353829],[-71.065407,42.353834],[-71.065411,42.35377],[-71.065446,42.353795],[-71.065494,42.353795],[-71.065484,42.35396],[-71.065532,42.353984],[-71.06558,42.35396],[-71.065625,42.353756],[-71.065608,42.353725],[-71.065545,42.353716],[-71.065594,42.353508],[-71.065583,42.353467],[-71.065504,42.353408],[-71.065623,42.353322],[-71.065646,42.353219],[-71.065663,42.353217],[-71.065659,42.353288],[-71.065701,42.353319],[-71.065713,42.353362],[-71.065783,42.353403],[-71.065736,42.353599],[-71.065747,42.353641],[-71.065778,42.353676],[-71.065882,42.353707],[-71.065985,42.353676],[-71.066017,42.353641],[-71.066058,42.353451]],[[-71.065728,42.352932],[-71.065724,42.352949],[-71.065709,42.352941],[-71.065728,42.352932]],[[-71.065399,42.353407],[-71.065392,42.353408],[-71.065391,42.353403],[-71.065399,42.353407]],[[-71.065372,42.353921],[-71.065367,42.353943],[-71.065349,42.35393],[-71.065372,42.353921]],[[-71.065295,42.353925],[-71.065279,42.353931],[-71.065281,42.353919],[-71.065295,42.353925]],[[-71.06524,42.354017],[-71.065236,42.354039],[-71.065213,42.354025],[-71.06524,42.354017]],[[-71.065183,42.354022],[-71.065153,42.354032],[-71.065158,42.354006],[-71.065183,42.354022]],[[-71.065132,42.35326],[-71.065099,42.3534],[-71.065126,42.353257],[-71.065132,42.35326]]],[[[-71.066046,42.354972],[-71.066004,42.354925],[-71.06593,42.354936],[-71.06591,42.354972],[-71.065896,42.355085],[-71.065959,42.355116],[-71.066007,42.355101],[-71.066046,42.354972]]],[[[-71.06602,42.354061],[-71.065996,42.354034],[-71.065953,42.354041],[-71.065926,42.35414],[-71.065934,42.354067],[-71.065908,42.354048],[-71.065855,42.354056],[-71.065828,42.354171],[-71.065873,42.354193],[-71.065908,42.354183],[-71.065922,42.354159],[-71.06592,42.354211],[-71.065952,42.354211],[-71.065967,42.354157],[-71.066003,42.35414],[-71.06602,42.354061]]],[[[-71.065865,42.354468],[-71.065855,42.354431],[-71.065785,42.354379],[-71.065685,42.354379],[-71.065643,42.3544],[-71.065605,42.354468],[-71.065575,42.354616],[-71.065585,42.354653],[-71.065655,42.354705],[-71.065705,42.354712],[-71.065796,42.354684],[-71.065825,42.354653],[-71.065865,42.354468]]],[[[-71.06583,42.348038],[-71.06579,42.347994],[-71.06574,42.347994],[-71.065705,42.34802],[-71.065663,42.348262],[-71.065691,42.348297],[-71.065689,42.348341],[-71.065715,42.348341],[-71.065726,42.348302],[-71.065769,42.348278],[-71.065786,42.348166],[-71.065806,42.348147],[-71.06583,42.348038]]],[[[-71.065764,42.353939],[-71.065749,42.353914],[-71.065696,42.353906],[-71.06567,42.353925],[-71.065663,42.353954],[-71.06563,42.353965],[-71.0656,42.354066],[-71.065614,42.354092],[-71.065667,42.3541],[-71.065693,42.35408],[-71.0657,42.354051],[-71.065734,42.354041],[-71.065764,42.353939]]],[[[-71.065738,42.348446],[-71.065702,42.348406],[-71.065639,42.348415],[-71.065609,42.348547],[-71.065663,42.348574],[-71.065704,42.348561],[-71.065738,42.348446]]],[[[-71.065683,42.354843],[-71.065674,42.354808],[-71.065607,42.354759],[-71.06556,42.354752],[-71.065483,42.354774],[-71.065466,42.354722],[-71.065418,42.354708],[-71.065362,42.354731],[-71.065346,42.354723],[-71.065345,42.354674],[-71.065327,42.354655],[-71.065202,42.35461],[-71.065147,42.354627],[-71.065119,42.354695],[-71.065054,42.354729],[-71.065027,42.354853],[-71.06505,42.354894],[-71.065116,42.354928],[-71.065166,42.354943],[-71.065214,42.354929],[-71.065236,42.354969],[-71.065289,42.354985],[-71.065341,42.354969],[-71.06537,42.354897],[-71.065425,42.354898],[-71.065408,42.354986],[-71.065417,42.355021],[-71.065484,42.35507],[-71.065531,42.355077],[-71.065578,42.35507],[-71.065645,42.355021],[-71.065683,42.354843]]],[[[-71.065598,42.348957],[-71.065567,42.348947],[-71.06556,42.349002],[-71.065586,42.349002],[-71.065598,42.348957]]],[[[-71.065588,42.351223],[-71.065557,42.351213],[-71.065548,42.351277],[-71.065574,42.351277],[-71.065588,42.351223]]],[[[-71.065562,42.349094],[-71.065531,42.349084],[-71.065524,42.349139],[-71.06555,42.349139],[-71.065562,42.349094]]],[[[-71.065559,42.349236],[-71.065529,42.349203],[-71.065476,42.349211],[-71.065452,42.349316],[-71.065496,42.349338],[-71.065531,42.349327],[-71.065559,42.349236]]],[[[-71.065552,42.348316],[-71.065514,42.348274],[-71.065466,42.348274],[-71.065433,42.348299],[-71.06541,42.348404],[-71.065439,42.348441],[-71.065433,42.348511],[-71.065465,42.348511],[-71.065482,42.348448],[-71.065529,42.348421],[-71.065552,42.348316]]],[[[-71.065548,42.34811],[-71.065517,42.3481],[-71.065509,42.348158],[-71.065535,42.348158],[-71.065548,42.34811]]],[[[-71.065465,42.352587],[-71.065457,42.352558],[-71.065401,42.352516],[-71.065321,42.352516],[-71.065288,42.352533],[-71.065257,42.352587],[-71.065232,42.352712],[-71.065239,42.352742],[-71.065296,42.352783],[-71.065335,42.352789],[-71.065409,42.352767],[-71.065431,42.352742],[-71.065465,42.352587]]],[[[-71.065433,42.34879],[-71.065403,42.348757],[-71.06535,42.348765],[-71.065326,42.34887],[-71.06537,42.348892],[-71.065405,42.348881],[-71.065433,42.34879]]],[[[-71.065396,42.34894],[-71.065374,42.348916],[-71.065327,42.34893],[-71.065311,42.349005],[-71.065322,42.349023],[-71.065347,42.349031],[-71.06538,42.349015],[-71.065396,42.34894]]],[[[-71.065379,42.34907],[-71.065349,42.349037],[-71.065296,42.349045],[-71.065266,42.349146],[-71.06528,42.349172],[-71.065314,42.349182],[-71.065349,42.349172],[-71.065379,42.34907]]],[[[-71.065368,42.35121],[-71.065337,42.3512],[-71.065329,42.351261],[-71.065354,42.351261],[-71.065368,42.35121]]],[[[-71.065268,42.35121],[-71.065237,42.3512],[-71.065229,42.351258],[-71.065255,42.351258],[-71.065268,42.35121]]],[[[-71.065204,42.352785],[-71.065168,42.352745],[-71.065124,42.352745],[-71.065092,42.352768],[-71.06507,42.35287],[-71.065027,42.352928],[-71.065007,42.353024],[-71.065028,42.353062],[-71.065078,42.353077],[-71.065144,42.353045],[-71.065204,42.352785]]],[[[-71.065176,42.35072],[-71.06515,42.350701],[-71.065126,42.350713],[-71.065088,42.35084],[-71.065086,42.350913],[-71.065119,42.350903],[-71.065176,42.35072]]],[[[-71.065109,42.352581],[-71.065102,42.352553],[-71.065049,42.352515],[-71.064975,42.352515],[-71.064943,42.35253],[-71.064915,42.352581],[-71.06489,42.352701],[-71.064898,42.352728],[-71.06495,42.352767],[-71.064988,42.352773],[-71.065056,42.352751],[-71.065077,42.352728],[-71.065109,42.352581]]],[[[-71.065103,42.354592],[-71.065085,42.35456],[-71.065048,42.354547],[-71.065067,42.354458],[-71.065049,42.354426],[-71.064899,42.354414],[-71.064824,42.354451],[-71.064796,42.354579],[-71.064829,42.354626],[-71.064791,42.354775],[-71.064817,42.354822],[-71.064864,42.354839],[-71.064856,42.354877],[-71.064872,42.354906],[-71.064911,42.354918],[-71.064962,42.354893],[-71.064985,42.354715],[-71.065023,42.354725],[-71.065067,42.354712],[-71.065103,42.354592]],[[-71.06498,42.35459],[-71.064974,42.354619],[-71.064951,42.354604],[-71.064957,42.354585],[-71.06498,42.35459]]],[[[-71.065099,42.354179],[-71.065063,42.354139],[-71.065,42.354148],[-71.06497,42.35428],[-71.065024,42.354307],[-71.065065,42.354294],[-71.065099,42.354179]]],[[[-71.064955,42.354294],[-71.06494,42.354267],[-71.064899,42.354246],[-71.064911,42.354156],[-71.064885,42.354137],[-71.064832,42.354145],[-71.064802,42.354246],[-71.064816,42.354272],[-71.06485,42.354282],[-71.064835,42.354373],[-71.06485,42.3544],[-71.064887,42.354412],[-71.064924,42.3544],[-71.064955,42.354294]]],[[[-71.064944,42.35131],[-71.064913,42.3513],[-71.064905,42.351361],[-71.06493,42.351361],[-71.064944,42.35131]]],[[[-71.064935,42.35396],[-71.064911,42.353918],[-71.064854,42.3539],[-71.064797,42.353918],[-71.064773,42.35396],[-71.064779,42.353878],[-71.064737,42.353847],[-71.064652,42.353859],[-71.064629,42.3539],[-71.064638,42.353855],[-71.064614,42.353813],[-71.064557,42.353795],[-71.064508,42.353809],[-71.064437,42.353774],[-71.064464,42.353731],[-71.064478,42.353622],[-71.064443,42.353596],[-71.064372,42.353606],[-71.064313,42.35374],[-71.064284,42.353761],[-71.064206,42.354121],[-71.064125,42.354133],[-71.064074,42.354252],[-71.064054,42.354342],[-71.064005,42.354344],[-71.063961,42.354376],[-71.063946,42.354441],[-71.063903,42.354482],[-71.063867,42.354646],[-71.063818,42.354663],[-71.063789,42.354731],[-71.063755,42.354758],[-71.063734,42.354904],[-71.063776,42.354935],[-71.063836,42.354935],[-71.063934,42.354839],[-71.063949,42.35477],[-71.064008,42.354779],[-71.064111,42.354748],[-71.064143,42.354713],[-71.064182,42.354533],[-71.064289,42.354532],[-71.064369,42.354474],[-71.064409,42.354287],[-71.064459,42.35432],[-71.0645,42.354326],[-71.064575,42.354303],[-71.064599,42.354278],[-71.06463,42.354134],[-71.064645,42.354127],[-71.064704,42.354151],[-71.064755,42.354136],[-71.064774,42.354106],[-71.064832,42.354125],[-71.06489,42.354108],[-71.064907,42.354088],[-71.064935,42.35396]],[[-71.064516,42.354017],[-71.064511,42.354042],[-71.06445,42.354063],[-71.064427,42.354089],[-71.064395,42.354238],[-71.064351,42.3542],[-71.064398,42.353989],[-71.06446,42.353981],[-71.064516,42.354017]]],[[[-71.064911,42.354986],[-71.064903,42.354957],[-71.064847,42.354915],[-71.064767,42.354915],[-71.064734,42.354932],[-71.064703,42.354986],[-71.064678,42.355111],[-71.064685,42.355141],[-71.064742,42.355182],[-71.064781,42.355188],[-71.064855,42.355166],[-71.064877,42.355141],[-71.064911,42.354986]]],[[[-71.064857,42.348456],[-71.064826,42.348446],[-71.064818,42.348504],[-71.064844,42.348504],[-71.064857,42.348456]]],[[[-71.064806,42.354449],[-71.064798,42.354419],[-71.064748,42.35438],[-71.064759,42.354284],[-71.064722,42.354256],[-71.064648,42.354267],[-71.064617,42.354356],[-71.064571,42.354378],[-71.064555,42.354452],[-71.064507,42.354432],[-71.064466,42.354444],[-71.064438,42.354528],[-71.064404,42.354519],[-71.064363,42.354531],[-71.064338,42.3546],[-71.064296,42.3546],[-71.064268,42.35462],[-71.064253,42.354687],[-71.064212,42.354672],[-71.064173,42.354684],[-71.064144,42.354811],[-71.064174,42.354833],[-71.064216,42.354833],[-71.064212,42.354877],[-71.064233,42.354915],[-71.064283,42.35493],[-71.064334,42.354915],[-71.064367,42.354815],[-71.064422,42.354806],[-71.064448,42.354731],[-71.064515,42.354727],[-71.064539,42.354654],[-71.064578,42.354665],[-71.064673,42.354656],[-71.064748,42.354633],[-71.064772,42.354608],[-71.064806,42.354449]],[[-71.064573,42.354497],[-71.06456,42.354504],[-71.064562,42.35449],[-71.064573,42.354497]],[[-71.064457,42.354595],[-71.064455,42.354596],[-71.064456,42.354594],[-71.064457,42.354595]]],[[[-71.064739,42.354797],[-71.064708,42.354787],[-71.0647,42.354845],[-71.064726,42.354845],[-71.064739,42.354797]]],[[[-71.064624,42.351826],[-71.064593,42.351816],[-71.064585,42.351874],[-71.064611,42.351874],[-71.064624,42.351826]]],[[[-71.064621,42.348425],[-71.06459,42.348415],[-71.064582,42.348473],[-71.064608,42.348473],[-71.064621,42.348425]]],[[[-71.064568,42.352055],[-71.06455,42.352042],[-71.064532,42.352055],[-71.064509,42.352208],[-71.06454,42.352199],[-71.064568,42.352055]]],[[[-71.064436,42.348399],[-71.064405,42.348389],[-71.064397,42.348447],[-71.064423,42.348447],[-71.064436,42.348399]]],[[[-71.064238,42.350925],[-71.064207,42.350915],[-71.064199,42.350973],[-71.064225,42.350973],[-71.064238,42.350925]]],[[[-71.064209,42.34872],[-71.06417,42.348708],[-71.064159,42.348785],[-71.064191,42.348785],[-71.064209,42.34872]]],[[[-71.064168,42.34884],[-71.064137,42.34883],[-71.064127,42.348897],[-71.064153,42.348897],[-71.064168,42.34884]]],[[[-71.064148,42.350914],[-71.064117,42.350904],[-71.064109,42.350962],[-71.064135,42.350962],[-71.064148,42.350914]]],[[[-71.064088,42.3533],[-71.064057,42.35329],[-71.064047,42.353357],[-71.064073,42.353357],[-71.064088,42.3533]]],[[[-71.064082,42.350914],[-71.064062,42.350892],[-71.06402,42.350905],[-71.064005,42.350976],[-71.064014,42.350993],[-71.064037,42.351],[-71.064067,42.350985],[-71.064082,42.350914]]],[[[-71.064049,42.35339],[-71.064016,42.35338],[-71.064006,42.35345],[-71.064033,42.35345],[-71.064049,42.35339]]],[[[-71.064013,42.353283],[-71.063982,42.353273],[-71.063972,42.35334],[-71.063998,42.35334],[-71.064013,42.353283]]],[[[-71.063998,42.35376],[-71.063967,42.35375],[-71.063957,42.353817],[-71.063983,42.353817],[-71.063998,42.35376]]],[[[-71.063984,42.353386],[-71.063951,42.353376],[-71.063941,42.353446],[-71.063968,42.353446],[-71.063984,42.353386]]],[[[-71.063973,42.350903],[-71.063949,42.350876],[-71.063906,42.350883],[-71.063881,42.350971],[-71.063893,42.350991],[-71.063948,42.350991],[-71.063973,42.350903]]],[[[-71.063943,42.353268],[-71.063904,42.353256],[-71.063893,42.353333],[-71.063925,42.353333],[-71.063943,42.353268]]],[[[-71.063928,42.353374],[-71.063897,42.353364],[-71.063887,42.353431],[-71.063913,42.353431],[-71.063928,42.353374]]],[[[-71.063922,42.353967],[-71.063902,42.353945],[-71.06386,42.353958],[-71.063845,42.354029],[-71.063854,42.354046],[-71.063877,42.354053],[-71.063907,42.354038],[-71.063922,42.353967]]],[[[-71.063915,42.348675],[-71.063896,42.348661],[-71.063877,42.348675],[-71.063866,42.348725],[-71.063847,42.348743],[-71.063834,42.348841],[-71.06386,42.348841],[-71.06388,42.348803],[-71.063915,42.348675]]],[[[-71.063879,42.34887],[-71.063846,42.34886],[-71.063836,42.34893],[-71.063863,42.34893],[-71.063879,42.34887]]],[[[-71.063821,42.349148],[-71.06379,42.349138],[-71.063782,42.349196],[-71.063808,42.349196],[-71.063821,42.349148]]],[[[-71.063816,42.35412],[-71.06379,42.354101],[-71.063766,42.354113],[-71.06376,42.35419],[-71.063802,42.354183],[-71.063816,42.35412]]],[[[-71.063808,42.348427],[-71.063777,42.348417],[-71.063769,42.348475],[-71.063795,42.348475],[-71.063808,42.348427]]],[[[-71.063768,42.349293],[-71.063737,42.349283],[-71.063716,42.349383],[-71.063742,42.349383],[-71.063768,42.349293]]],[[[-71.063718,42.34841],[-71.063687,42.3484],[-71.063679,42.348458],[-71.063705,42.348458],[-71.063718,42.34841]]],[[[-71.063707,42.350883],[-71.063687,42.350861],[-71.063645,42.350874],[-71.06363,42.350945],[-71.063639,42.350962],[-71.063662,42.350969],[-71.063692,42.350954],[-71.063707,42.350883]]],[[[-71.063689,42.34976],[-71.063656,42.34975],[-71.063646,42.34982],[-71.063673,42.34982],[-71.063689,42.34976]]],[[[-71.063632,42.349854],[-71.063601,42.349844],[-71.063591,42.349911],[-71.063617,42.349911],[-71.063632,42.349854]]],[[[-71.063613,42.350876],[-71.063574,42.350864],[-71.063563,42.350941],[-71.063595,42.350941],[-71.063613,42.350876]]],[[[-71.063579,42.34995],[-71.063546,42.34994],[-71.063533,42.349987],[-71.063512,42.35],[-71.063507,42.350057],[-71.063533,42.350057],[-71.063545,42.350014],[-71.063568,42.350006],[-71.063579,42.34995]]],[[[-71.063569,42.3547],[-71.063539,42.354667],[-71.063501,42.354667],[-71.063475,42.354686],[-71.063458,42.354764],[-71.063415,42.354786],[-71.063398,42.354866],[-71.063412,42.354891],[-71.063446,42.354902],[-71.063491,42.35488],[-71.063508,42.354802],[-71.063551,42.35478],[-71.063569,42.3547]]],[[[-71.063546,42.350864],[-71.06352,42.350845],[-71.063496,42.350857],[-71.06349,42.350934],[-71.063532,42.350927],[-71.063546,42.350864]]],[[[-71.063458,42.350418],[-71.06344,42.350405],[-71.063422,42.350418],[-71.063389,42.350532],[-71.063368,42.350545],[-71.063364,42.350601],[-71.063389,42.350601],[-71.063403,42.35055],[-71.063424,42.350537],[-71.063458,42.350418]]],[[[-71.063458,42.35018],[-71.063427,42.35017],[-71.063418,42.350234],[-71.063393,42.350241],[-71.063367,42.35028],[-71.063363,42.350334],[-71.063389,42.350334],[-71.063398,42.350304],[-71.063414,42.3503],[-71.063423,42.350237],[-71.063448,42.35023],[-71.063458,42.35018]]],[[[-71.063386,42.350826],[-71.063369,42.350704],[-71.063336,42.350694],[-71.063313,42.350824],[-71.06333,42.350844],[-71.06333,42.350896],[-71.063372,42.350889],[-71.063386,42.350826]]],[[[-71.063368,42.35061],[-71.063337,42.3506],[-71.063329,42.350661],[-71.063354,42.350661],[-71.063368,42.35061]]],[[[-71.063328,42.35044],[-71.063297,42.35043],[-71.063286,42.35047],[-71.063263,42.350478],[-71.063185,42.350664],[-71.063163,42.350672],[-71.063137,42.350752],[-71.063112,42.350759],[-71.063106,42.350825],[-71.063133,42.350825],[-71.063146,42.350784],[-71.063168,42.350777],[-71.063196,42.35069],[-71.063217,42.350683],[-71.063246,42.350594],[-71.063264,42.350581],[-71.063296,42.350494],[-71.063318,42.350487],[-71.063328,42.35044]]],[[[-71.063144,42.352238],[-71.063113,42.352228],[-71.063105,42.352289],[-71.06313,42.352289],[-71.063144,42.352238]]],[[[-71.063083,42.35225],[-71.063052,42.35224],[-71.063044,42.352301],[-71.063069,42.352301],[-71.063083,42.35225]]],[[[-71.062983,42.352253],[-71.062952,42.352243],[-71.062944,42.352304],[-71.062969,42.352304],[-71.062983,42.352253]]],[[[-71.062922,42.35222],[-71.062891,42.35221],[-71.062882,42.352274],[-71.062908,42.352274],[-71.062922,42.35222]]],[[[-71.062848,42.352215],[-71.062817,42.352205],[-71.062809,42.352266],[-71.062834,42.352266],[-71.062848,42.352215]]],[[[-71.062829,42.353302],[-71.062796,42.353292],[-71.062786,42.353362],[-71.062813,42.353362],[-71.062829,42.353302]]],[[[-71.062829,42.353214],[-71.062796,42.353204],[-71.062786,42.353274],[-71.062813,42.353274],[-71.062829,42.353214]]],[[[-71.062763,42.353207],[-71.06273,42.353197],[-71.06272,42.353267],[-71.062747,42.353267],[-71.062763,42.353207]]],[[[-71.062763,42.353306],[-71.062724,42.353294],[-71.062713,42.353371],[-71.062745,42.353371],[-71.062763,42.353306]]],[[[-71.062559,42.348354],[-71.062541,42.348334],[-71.062509,42.348339],[-71.062489,42.348413],[-71.062497,42.348428],[-71.062539,42.348428],[-71.062559,42.348354]]],[[[-71.062496,42.349373],[-71.06247,42.349344],[-71.062424,42.349351],[-71.062397,42.349443],[-71.06241,42.349466],[-71.062469,42.349466],[-71.062496,42.349373]]],[[[-71.062463,42.348557],[-71.062424,42.348545],[-71.062413,42.348622],[-71.062445,42.348622],[-71.062463,42.348557]]],[[[-71.062409,42.348373],[-71.062385,42.348346],[-71.062342,42.348353],[-71.062317,42.348441],[-71.062329,42.348461],[-71.062384,42.348461],[-71.062409,42.348373]]],[[[-71.062392,42.349323],[-71.062366,42.349294],[-71.06232,42.349301],[-71.062293,42.349393],[-71.062306,42.349416],[-71.062365,42.349416],[-71.062392,42.349323]]],[[[-71.062039,42.353752],[-71.062006,42.353742],[-71.061996,42.353812],[-71.062023,42.353812],[-71.062039,42.353752]]],[[[-71.062006,42.349306],[-71.061975,42.349296],[-71.061967,42.349354],[-71.061993,42.349354],[-71.062006,42.349306]]],[[[-71.061988,42.35386],[-71.061957,42.35385],[-71.061949,42.353908],[-71.061975,42.353908],[-71.061988,42.35386]]],[[[-71.061951,42.349438],[-71.06192,42.349428],[-71.061912,42.349486],[-71.061938,42.349486],[-71.061951,42.349438]]],[[[-71.061941,42.349548],[-71.061911,42.349515],[-71.061858,42.349523],[-71.061834,42.349628],[-71.061878,42.34965],[-71.061913,42.349639],[-71.061941,42.349548]]],[[[-71.061928,42.34988],[-71.061897,42.34987],[-71.061885,42.349913],[-71.061863,42.349921],[-71.061859,42.349974],[-71.061885,42.349974],[-71.061928,42.34988]]],[[[-71.061924,42.3537],[-71.061891,42.35369],[-71.061881,42.35376],[-71.061908,42.35376],[-71.061924,42.3537]]],[[[-71.061909,42.353825],[-71.061876,42.353815],[-71.061866,42.353885],[-71.061893,42.353885],[-71.061909,42.353825]]],[[[-71.061892,42.35],[-71.061861,42.34999],[-71.061827,42.350068],[-71.061803,42.350075],[-71.061799,42.350128],[-71.061825,42.350128],[-71.061835,42.350095],[-71.061859,42.350088],[-71.061892,42.35]]],[[[-71.061851,42.348312],[-71.061823,42.348281],[-71.061789,42.348281],[-71.061764,42.348299],[-71.061746,42.348385],[-71.061758,42.348408],[-71.061735,42.348416],[-71.061731,42.348469],[-71.061757,42.348469],[-71.06177,42.348421],[-71.061833,42.348398],[-71.061851,42.348312]]],[[[-71.061828,42.353783],[-71.061797,42.353773],[-71.061789,42.353831],[-71.061815,42.353831],[-71.061828,42.353783]]],[[[-71.061825,42.353653],[-71.061792,42.353643],[-71.061782,42.353713],[-71.061809,42.353713],[-71.061825,42.353653]]],[[[-71.061824,42.350155],[-71.061793,42.350145],[-71.061781,42.350187],[-71.061762,42.3502],[-71.061759,42.350248],[-71.061785,42.350248],[-71.061824,42.350155]]],[[[-71.061789,42.350292],[-71.061765,42.350265],[-71.061714,42.350281],[-71.061706,42.350314],[-71.061675,42.350346],[-71.06166,42.350419],[-71.061673,42.350443],[-71.061705,42.350453],[-71.061747,42.350432],[-71.061789,42.350292]]],[[[-71.061766,42.349666],[-71.061736,42.349633],[-71.061683,42.349641],[-71.061659,42.349746],[-71.061703,42.349768],[-71.061738,42.349757],[-71.061766,42.349666]]],[[[-71.061759,42.353607],[-71.061729,42.353574],[-71.061676,42.353582],[-71.061652,42.353687],[-71.061696,42.353709],[-71.061731,42.353698],[-71.061759,42.353607]]],[[[-71.061747,42.353738],[-71.061716,42.353728],[-71.061708,42.353786],[-71.061734,42.353786],[-71.061747,42.353738]]],[[[-71.061692,42.348648],[-71.061666,42.348619],[-71.06162,42.348626],[-71.061593,42.348718],[-71.061606,42.348741],[-71.061665,42.348741],[-71.061692,42.348648]]],[[[-71.061645,42.348297],[-71.061611,42.348259],[-71.061551,42.348268],[-71.061522,42.348395],[-71.061573,42.34842],[-71.061612,42.348408],[-71.061645,42.348297]]],[[[-71.061628,42.35355],[-71.061597,42.35354],[-71.061588,42.353604],[-71.061614,42.353604],[-71.061628,42.35355]]],[[[-71.06161,42.348837],[-71.061579,42.348827],[-71.061571,42.348885],[-71.061597,42.348885],[-71.06161,42.348837]]],[[[-71.061608,42.3485],[-71.061577,42.34849],[-71.061569,42.348548],[-71.061595,42.348548],[-71.061608,42.3485]]],[[[-71.061597,42.348184],[-71.061566,42.348174],[-71.061557,42.348238],[-71.061583,42.348238],[-71.061597,42.348184]]],[[[-71.061565,42.34867],[-71.061537,42.348639],[-71.061488,42.348646],[-71.06146,42.348743],[-71.061473,42.348767],[-71.061537,42.348767],[-71.061565,42.34867]]],[[[-71.061548,42.349568],[-71.061518,42.349535],[-71.061465,42.349543],[-71.061441,42.349648],[-71.061485,42.34967],[-71.06152,42.349659],[-71.061548,42.349568]]],[[[-71.061502,42.348854],[-71.061476,42.348825],[-71.06143,42.348832],[-71.061403,42.348924],[-71.061416,42.348947],[-71.061475,42.348947],[-71.061502,42.348854]]],[[[-71.061493,42.35095],[-71.061454,42.350938],[-71.061443,42.351015],[-71.061475,42.351015],[-71.061493,42.35095]]],[[[-71.061472,42.34815],[-71.061434,42.348108],[-71.061386,42.348108],[-71.061353,42.348133],[-71.06133,42.348238],[-71.061348,42.34827],[-71.061381,42.348282],[-71.061375,42.34831],[-71.061395,42.348332],[-71.061437,42.348319],[-71.061472,42.34815]]],[[[-71.06145,42.349534],[-71.06142,42.349501],[-71.061367,42.349509],[-71.061343,42.349614],[-71.061387,42.349636],[-71.061422,42.349625],[-71.06145,42.349534]]],[[[-71.061438,42.349255],[-71.061407,42.349245],[-71.061398,42.349309],[-71.061424,42.349309],[-71.061438,42.349255]]],[[[-71.061418,42.351122],[-71.0614,42.351109],[-71.061382,42.351122],[-71.061317,42.351284],[-71.061313,42.351337],[-71.061344,42.351328],[-71.061418,42.351122]]],[[[-71.061399,42.349052],[-71.061366,42.349042],[-71.061356,42.349112],[-71.061383,42.349112],[-71.061399,42.349052]]],[[[-71.061368,42.34943],[-71.061337,42.34942],[-71.061329,42.349478],[-71.061355,42.349478],[-71.061368,42.34943]]],[[[-71.061349,42.349228],[-71.061331,42.349208],[-71.061299,42.349213],[-71.061279,42.349287],[-71.061287,42.349302],[-71.061329,42.349302],[-71.061349,42.349228]]],[[[-71.061282,42.34963],[-71.061251,42.34962],[-71.061226,42.349673],[-71.061222,42.349729],[-71.061247,42.349729],[-71.061282,42.34963]]],[[[-71.061244,42.35337],[-71.061213,42.35336],[-71.061205,42.353418],[-71.061231,42.353418],[-71.061244,42.35337]]],[[[-71.061238,42.354774],[-71.061207,42.354764],[-71.061199,42.354822],[-71.061225,42.354822],[-71.061238,42.354774]]],[[[-71.061222,42.34983],[-71.061196,42.349801],[-71.06115,42.349808],[-71.061123,42.3499],[-71.061136,42.349923],[-71.061195,42.349923],[-71.061222,42.34983]]],[[[-71.061188,42.354916],[-71.061157,42.354906],[-71.061149,42.354964],[-71.061175,42.354964],[-71.061188,42.354916]]],[[[-71.061188,42.353344],[-71.061157,42.353334],[-71.061149,42.353392],[-71.061175,42.353392],[-71.061188,42.353344]]],[[[-71.061156,42.35003],[-71.061124,42.349995],[-71.061067,42.350003],[-71.061036,42.350109],[-71.061051,42.350136],[-71.061088,42.350148],[-71.061125,42.350136],[-71.061156,42.35003]]],[[[-71.061138,42.35332],[-71.061107,42.35331],[-71.061099,42.353368],[-71.061125,42.353368],[-71.061138,42.35332]]],[[[-71.061048,42.353275],[-71.061017,42.353265],[-71.061008,42.353329],[-71.061034,42.353329],[-71.061048,42.353275]]],[[[-71.061038,42.34849],[-71.061007,42.34848],[-71.060999,42.348538],[-71.061025,42.348538],[-71.061038,42.34849]]],[[[-71.061032,42.348602],[-71.061,42.348567],[-71.06096,42.348567],[-71.060932,42.348587],[-71.060878,42.348799],[-71.060858,42.348827],[-71.060843,42.348897],[-71.060856,42.34892],[-71.060915,42.34892],[-71.06094,42.348839],[-71.060984,42.348815],[-71.061032,42.348602]]],[[[-71.060988,42.353363],[-71.060957,42.353353],[-71.060949,42.353411],[-71.060975,42.353411],[-71.060988,42.353363]]],[[[-71.060938,42.35322],[-71.060907,42.35321],[-71.060899,42.353268],[-71.060925,42.353268],[-71.060938,42.35322]]],[[[-71.060923,42.35333],[-71.060892,42.35332],[-71.060884,42.353381],[-71.060909,42.353381],[-71.060923,42.35333]]],[[[-71.060862,42.353302],[-71.060831,42.353292],[-71.060823,42.35335],[-71.060849,42.35335],[-71.060862,42.353302]]],[[[-71.060847,42.349174],[-71.060803,42.349125],[-71.060725,42.349137],[-71.060705,42.349174],[-71.06069,42.349291],[-71.060756,42.349323],[-71.060807,42.349308],[-71.060847,42.349174]]],[[[-71.060733,42.34939],[-71.060703,42.349357],[-71.060665,42.349357],[-71.060639,42.349376],[-71.060626,42.34947],[-71.060601,42.349492],[-71.060582,42.349582],[-71.060596,42.349608],[-71.06063,42.349618],[-71.060675,42.349596],[-71.060691,42.349492],[-71.060715,42.34947],[-71.060733,42.34939]]],[[[-71.060628,42.34926],[-71.060597,42.34925],[-71.060553,42.349337],[-71.060549,42.34939],[-71.060575,42.34939],[-71.060628,42.34926]]],[[[-71.060609,42.34967],[-71.060579,42.349637],[-71.060541,42.349637],[-71.060515,42.349656],[-71.060462,42.349871],[-71.060477,42.349898],[-71.060514,42.34991],[-71.060562,42.349886],[-71.060609,42.34967]]],[[[-71.060598,42.35304],[-71.060567,42.35303],[-71.060559,42.353088],[-71.060585,42.353088],[-71.060598,42.35304]]],[[[-71.060558,42.349407],[-71.06054,42.349394],[-71.060522,42.349407],[-71.060493,42.349544],[-71.060469,42.349551],[-71.060449,42.349688],[-71.060475,42.349688],[-71.060495,42.349644],[-71.060504,42.349557],[-71.060528,42.34955],[-71.060558,42.349407]]],[[[-71.060518,42.352997],[-71.060487,42.352987],[-71.060479,42.353045],[-71.060505,42.353045],[-71.060518,42.352997]]],[[[-71.060508,42.353283],[-71.060477,42.353273],[-71.060469,42.353334],[-71.060494,42.353334],[-71.060508,42.353283]]],[[[-71.060504,42.35315],[-71.060473,42.35314],[-71.060465,42.353198],[-71.060491,42.353198],[-71.060504,42.35315]]],[[[-71.060468,42.352974],[-71.060437,42.352964],[-71.060429,42.353025],[-71.060454,42.353025],[-71.060468,42.352974]]],[[[-71.060428,42.3531],[-71.060397,42.35309],[-71.060389,42.353148],[-71.060415,42.353148],[-71.060428,42.3531]]],[[[-71.060419,42.353405],[-71.060418,42.35338],[-71.0604,42.353367],[-71.060352,42.353385],[-71.060323,42.353442],[-71.060319,42.353495],[-71.060394,42.353493],[-71.060419,42.353405]]],[[[-71.060388,42.349884],[-71.060357,42.349874],[-71.060349,42.349935],[-71.060374,42.349935],[-71.060388,42.349884]]],[[[-71.060374,42.35307],[-71.060343,42.35306],[-71.060335,42.353118],[-71.060361,42.353118],[-71.060374,42.35307]]],[[[-71.060318,42.350037],[-71.060287,42.350027],[-71.060279,42.350085],[-71.060305,42.350085],[-71.060318,42.350037]]],[[[-71.060314,42.35015],[-71.060293,42.350095],[-71.060267,42.350095],[-71.06022,42.350136],[-71.060207,42.35023],[-71.060251,42.350252],[-71.060286,42.350241],[-71.060314,42.35015]]],[[[-71.060174,42.34947],[-71.06015,42.349443],[-71.060099,42.349459],[-71.060049,42.349615],[-71.060017,42.349634],[-71.060001,42.349709],[-71.060012,42.349727],[-71.060037,42.349735],[-71.06007,42.349719],[-71.060117,42.349566],[-71.060157,42.349549],[-71.060174,42.34947]]],[[[-71.060158,42.352962],[-71.060127,42.352952],[-71.060119,42.35301],[-71.060145,42.35301],[-71.060158,42.352962]]],[[[-71.060105,42.35341],[-71.060077,42.353379],[-71.060028,42.353386],[-71.06,42.353483],[-71.060013,42.353507],[-71.060077,42.353507],[-71.060105,42.35341]]],[[[-71.059972,42.351044],[-71.059946,42.351015],[-71.059891,42.351032],[-71.059873,42.351114],[-71.059849,42.351135],[-71.059845,42.351205],[-71.059873,42.351209],[-71.059899,42.351143],[-71.059955,42.351126],[-71.059972,42.351044]]],[[[-71.059858,42.3533],[-71.059827,42.35329],[-71.059819,42.353348],[-71.059845,42.353348],[-71.059858,42.3533]]],[[[-71.059822,42.35326],[-71.059796,42.353231],[-71.05975,42.353238],[-71.059723,42.35333],[-71.059736,42.353353],[-71.059795,42.353353],[-71.059822,42.35326]]],[[[-71.059758,42.352753],[-71.059727,42.352743],[-71.059719,42.352804],[-71.059744,42.352804],[-71.059758,42.352753]]],[[[-71.059688,42.352737],[-71.059657,42.352727],[-71.059649,42.352788],[-71.059674,42.352788],[-71.059688,42.352737]]],[[[-71.059669,42.354954],[-71.059651,42.354934],[-71.059619,42.354939],[-71.059613,42.354903],[-71.059562,42.354868],[-71.05952,42.354881],[-71.059505,42.354952],[-71.059514,42.354969],[-71.059565,42.355004],[-71.0596,42.354999],[-71.059617,42.355033],[-71.059649,42.355028],[-71.059669,42.354954]]],[[[-71.059649,42.35171],[-71.059619,42.351677],[-71.059566,42.351685],[-71.059542,42.35179],[-71.059586,42.351812],[-71.059621,42.351801],[-71.059649,42.35171]]],[[[-71.059634,42.35273],[-71.059603,42.35272],[-71.059595,42.352781],[-71.05962,42.352781],[-71.059634,42.35273]]],[[[-71.059589,42.352783],[-71.059559,42.35275],[-71.059506,42.352758],[-71.059482,42.352863],[-71.059526,42.352885],[-71.059561,42.352874],[-71.059589,42.352783]]],[[[-71.059562,42.3516],[-71.059542,42.351578],[-71.0595,42.351591],[-71.059485,42.351662],[-71.059494,42.351679],[-71.059517,42.351686],[-71.059547,42.351671],[-71.059562,42.3516]]],[[[-71.059544,42.35171],[-71.059511,42.3517],[-71.059501,42.35177],[-71.059528,42.35177],[-71.059544,42.35171]]],[[[-71.059518,42.351097],[-71.059487,42.351087],[-71.059479,42.351145],[-71.059505,42.351145],[-71.059518,42.351097]]],[[[-71.059482,42.354813],[-71.059462,42.354791],[-71.059428,42.354795],[-71.059432,42.354774],[-71.059389,42.354714],[-71.05935,42.354709],[-71.059331,42.354723],[-71.059318,42.354808],[-71.059351,42.354824],[-71.059364,42.354853],[-71.059409,42.354853],[-71.059414,42.354892],[-71.059437,42.354899],[-71.059467,42.354884],[-71.059482,42.354813]]],[[[-71.059478,42.35117],[-71.059447,42.35116],[-71.059439,42.351218],[-71.059465,42.351218],[-71.059478,42.35117]]],[[[-71.059456,42.351627],[-71.05943,42.351608],[-71.059406,42.35162],[-71.0594,42.351697],[-71.059442,42.35169],[-71.059456,42.351627]]],[[[-71.059428,42.3531],[-71.059397,42.35309],[-71.059389,42.353148],[-71.059415,42.353148],[-71.059428,42.3531]]],[[[-71.059418,42.35301],[-71.059387,42.353],[-71.059379,42.353058],[-71.059405,42.353058],[-71.059418,42.35301]]],[[[-71.059387,42.351704],[-71.059348,42.351692],[-71.059337,42.351769],[-71.059369,42.351769],[-71.059387,42.351704]]],[[[-71.059323,42.35178],[-71.059284,42.351768],[-71.059273,42.351845],[-71.059305,42.351845],[-71.059323,42.35178]]],[[[-71.059219,42.35129],[-71.059183,42.35123],[-71.059159,42.35123],[-71.059129,42.351197],[-71.059091,42.351197],[-71.059065,42.351216],[-71.059046,42.351306],[-71.05906,42.351332],[-71.059094,42.351342],[-71.059079,42.351447],[-71.059054,42.351499],[-71.059016,42.35151],[-71.05901,42.351587],[-71.059052,42.35158],[-71.059066,42.351517],[-71.059089,42.351504],[-71.059098,42.351463],[-71.059143,42.351467],[-71.059169,42.351447],[-71.059219,42.35129]]],[[[-71.059184,42.353294],[-71.059153,42.353284],[-71.059145,42.353342],[-71.059171,42.353342],[-71.059184,42.353294]]],[[[-71.059092,42.354385],[-71.059072,42.354363],[-71.05903,42.354376],[-71.059015,42.354447],[-71.059024,42.354464],[-71.059047,42.354471],[-71.059077,42.354456],[-71.059092,42.354385]]],[[[-71.059088,42.353287],[-71.059057,42.353277],[-71.059049,42.353335],[-71.059075,42.353335],[-71.059088,42.353287]]],[[[-71.059018,42.354332],[-71.058987,42.354322],[-71.058979,42.35438],[-71.059005,42.35438],[-71.059018,42.354332]]],[[[-71.059006,42.351604],[-71.058984,42.35158],[-71.058945,42.351585],[-71.058907,42.35167],[-71.058867,42.351673],[-71.058853,42.351712],[-71.058825,42.351719],[-71.058811,42.351755],[-71.058767,42.35177],[-71.058758,42.351813],[-71.058688,42.351825],[-71.058669,42.351883],[-71.058637,42.351889],[-71.058626,42.351914],[-71.058599,42.351924],[-71.058592,42.351957],[-71.058491,42.351968],[-71.058445,42.352041],[-71.058397,42.35205],[-71.058386,42.35209],[-71.058353,42.352092],[-71.058349,42.352148],[-71.058374,42.352148],[-71.058387,42.352103],[-71.058383,42.35216],[-71.058408,42.352178],[-71.058442,42.352178],[-71.058467,42.35216],[-71.058474,42.352131],[-71.058552,42.352108],[-71.058593,42.351995],[-71.05867,42.351985],[-71.058686,42.351939],[-71.058738,42.351924],[-71.058748,42.351881],[-71.058812,42.351863],[-71.058826,42.351827],[-71.058862,42.351821],[-71.058878,42.351776],[-71.058907,42.351761],[-71.05892,42.351704],[-71.05899,42.351679],[-71.059006,42.351604]]],[[[-71.058998,42.353283],[-71.058967,42.353273],[-71.058959,42.353331],[-71.058985,42.353331],[-71.058998,42.353283]]],[[[-71.058959,42.35429],[-71.058926,42.35428],[-71.058916,42.35435],[-71.058943,42.35435],[-71.058959,42.35429]]],[[[-71.058864,42.353268],[-71.058833,42.353258],[-71.058825,42.353316],[-71.058851,42.353316],[-71.058864,42.353268]]],[[[-71.058758,42.353268],[-71.058727,42.353258],[-71.058719,42.353316],[-71.058745,42.353316],[-71.058758,42.353268]]],[[[-71.058568,42.35253],[-71.058537,42.35252],[-71.058529,42.352578],[-71.058555,42.352578],[-71.058568,42.35253]]],[[[-71.058508,42.352524],[-71.058493,42.352511],[-71.058494,42.35247],[-71.058466,42.35247],[-71.05845,42.35253],[-71.058468,42.352544],[-71.058469,42.352572],[-71.058495,42.352572],[-71.058508,42.352524]]],[[[-71.058428,42.352528],[-71.058397,42.352518],[-71.058389,42.352579],[-71.058414,42.352579],[-71.058428,42.352528]]],[[[-71.058388,42.35247],[-71.058357,42.35246],[-71.058344,42.352509],[-71.058312,42.35252],[-71.058309,42.352568],[-71.058335,42.352568],[-71.058348,42.35252],[-71.05838,42.352509],[-71.058388,42.35247]]],[[[-71.058288,42.35091],[-71.058257,42.3509],[-71.058249,42.350958],[-71.058275,42.350958],[-71.058288,42.35091]]],[[[-71.058278,42.352467],[-71.05826,42.352454],[-71.058242,42.352467],[-71.058229,42.35256],[-71.05826,42.352551],[-71.058278,42.352467]]],[[[-71.058218,42.350887],[-71.058187,42.350877],[-71.058179,42.350935],[-71.058205,42.350935],[-71.058218,42.350887]]],[[[-71.058038,42.352665],[-71.058007,42.352655],[-71.057999,42.352713],[-71.058025,42.352713],[-71.058038,42.352665]]],[[[-71.058032,42.352768],[-71.058001,42.352758],[-71.057993,42.352816],[-71.058019,42.352816],[-71.058032,42.352768]]],[[[-71.058008,42.352905],[-71.057977,42.352895],[-71.057969,42.352953],[-71.057995,42.352953],[-71.058008,42.352905]]],[[[-71.057803,42.350693],[-71.057772,42.350683],[-71.057764,42.350741],[-71.05779,42.350741],[-71.057803,42.350693]]],[[[-71.057758,42.350677],[-71.057727,42.350667],[-71.057719,42.350725],[-71.057745,42.350725],[-71.057758,42.350677]]],[[[-71.05775,42.352226],[-71.057724,42.352207],[-71.0577,42.352219],[-71.057694,42.352296],[-71.057736,42.352289],[-71.05775,42.352226]]],[[[-71.057623,42.35219],[-71.057605,42.35217],[-71.057573,42.352175],[-71.057553,42.352249],[-71.057561,42.352264],[-71.057603,42.352264],[-71.057623,42.35219]]],[[[-71.057536,42.35216],[-71.05751,42.352141],[-71.057486,42.352153],[-71.05748,42.35223],[-71.057522,42.352223],[-71.057536,42.35216]]],[[[-71.057456,42.35214],[-71.05743,42.352121],[-71.057406,42.352133],[-71.0574,42.35221],[-71.057442,42.352203],[-71.057456,42.35214]]],[[[-71.057414,42.350403],[-71.057383,42.350393],[-71.057375,42.350451],[-71.057401,42.350451],[-71.057414,42.350403]]],[[[-71.057398,42.350494],[-71.057367,42.350484],[-71.057359,42.350542],[-71.057385,42.350542],[-71.057398,42.350494]]],[[[-71.057369,42.35211],[-71.057351,42.35209],[-71.057319,42.352095],[-71.057299,42.352169],[-71.057307,42.352184],[-71.057349,42.352184],[-71.057369,42.35211]]],[[[-71.057348,42.351707],[-71.05733,42.351694],[-71.057312,42.351707],[-71.057299,42.351798],[-71.05733,42.351789],[-71.057348,42.351707]]],[[[-71.057309,42.351897],[-71.057291,42.351884],[-71.057273,42.351897],[-71.05726,42.352],[-71.057291,42.351991],[-71.057309,42.351897]]],[[[-71.057298,42.350925],[-71.057267,42.350915],[-71.057258,42.350979],[-71.057284,42.350979],[-71.057298,42.350925]]],[[[-71.057268,42.351063],[-71.057237,42.351053],[-71.057228,42.351117],[-71.057254,42.351117],[-71.057268,42.351063]]],[[[-71.057208,42.35141],[-71.057177,42.3514],[-71.057169,42.351458],[-71.057195,42.351458],[-71.057208,42.35141]]],[[[-71.057198,42.35055],[-71.057167,42.35054],[-71.057159,42.350598],[-71.057185,42.350598],[-71.057198,42.35055]]],[[[-71.057147,42.350632],[-71.057116,42.350622],[-71.057108,42.35068],[-71.057134,42.35068],[-71.057147,42.350632]]],[[[-71.057094,42.350533],[-71.057063,42.350523],[-71.057055,42.350581],[-71.057081,42.350581],[-71.057094,42.350533]]],[[[-71.057038,42.34984],[-71.057007,42.34983],[-71.056994,42.349879],[-71.05696,42.349894],[-71.056945,42.349965],[-71.056954,42.349982],[-71.056977,42.349989],[-71.057007,42.349974],[-71.057038,42.34984]]],[[[-71.056868,42.352028],[-71.056837,42.352018],[-71.056827,42.352085],[-71.056853,42.352085],[-71.056868,42.352028]]],[[[-71.056834,42.35023],[-71.056803,42.35022],[-71.056795,42.350278],[-71.056821,42.350278],[-71.056834,42.35023]]],[[[-71.056829,42.34976],[-71.056805,42.349733],[-71.056754,42.349749],[-71.056719,42.34988],[-71.05668,42.349901],[-71.056665,42.349972],[-71.056635,42.349992],[-71.056589,42.350153],[-71.05656,42.350176],[-71.056545,42.350247],[-71.056554,42.350264],[-71.056577,42.350271],[-71.056607,42.350256],[-71.056619,42.350174],[-71.056647,42.350153],[-71.056657,42.350106],[-71.056711,42.350086],[-71.056727,42.350015],[-71.056756,42.349995],[-71.056829,42.34976]]],[[[-71.056798,42.350307],[-71.056767,42.350297],[-71.056759,42.350355],[-71.056785,42.350355],[-71.056798,42.350307]]],[[[-71.056748,42.351994],[-71.056717,42.351984],[-71.056708,42.352048],[-71.056734,42.352048],[-71.056748,42.351994]]],[[[-71.056643,42.350613],[-71.056612,42.350603],[-71.056602,42.35067],[-71.056628,42.35067],[-71.056643,42.350613]]],[[[-71.056626,42.353203],[-71.0566,42.353184],[-71.056576,42.353196],[-71.05657,42.353273],[-71.056612,42.353266],[-71.056626,42.353203]]],[[[-71.056608,42.35068],[-71.056577,42.35067],[-71.056567,42.350737],[-71.056593,42.350737],[-71.056608,42.35068]]],[[[-71.056559,42.353165],[-71.056526,42.353155],[-71.056516,42.353225],[-71.056543,42.353225],[-71.056559,42.353165]]],[[[-71.056559,42.350834],[-71.056529,42.350801],[-71.056476,42.350809],[-71.056452,42.350914],[-71.056496,42.350936],[-71.056531,42.350925],[-71.056559,42.350834]]],[[[-71.056484,42.353127],[-71.056451,42.353117],[-71.056441,42.353187],[-71.056468,42.353187],[-71.056484,42.353127]]],[[[-71.056468,42.35192],[-71.056437,42.35191],[-71.056427,42.351977],[-71.056453,42.351977],[-71.056468,42.35192]]],[[[-71.056428,42.35103],[-71.056397,42.35102],[-71.056389,42.351078],[-71.056415,42.351078],[-71.056428,42.35103]]],[[[-71.056398,42.351097],[-71.056367,42.351087],[-71.056357,42.351154],[-71.056383,42.351154],[-71.056398,42.351097]]],[[[-71.056393,42.35309],[-71.056354,42.353078],[-71.056343,42.353155],[-71.056375,42.353155],[-71.056393,42.35309]]],[[[-71.056388,42.3519],[-71.056357,42.35189],[-71.05635,42.351945],[-71.056376,42.351945],[-71.056388,42.3519]]],[[[-71.056364,42.351176],[-71.056333,42.351166],[-71.056325,42.351224],[-71.056351,42.351224],[-71.056364,42.351176]]],[[[-71.056338,42.35493],[-71.056307,42.35492],[-71.056297,42.354987],[-71.056323,42.354987],[-71.056338,42.35493]]],[[[-71.056328,42.354836],[-71.056297,42.354826],[-71.056287,42.354893],[-71.056313,42.354893],[-71.056328,42.354836]]],[[[-71.056309,42.35475],[-71.05629,42.354736],[-71.056306,42.35467],[-71.05627,42.354652],[-71.056243,42.354726],[-71.056269,42.354745],[-71.056266,42.35481],[-71.056293,42.35481],[-71.056309,42.35475]]],[[[-71.056258,42.351376],[-71.056227,42.351366],[-71.056197,42.351438],[-71.056173,42.351445],[-71.056169,42.351501],[-71.056194,42.351501],[-71.056205,42.351465],[-71.056229,42.351458],[-71.056258,42.351376]]],[[[-71.056256,42.350842],[-71.056225,42.350832],[-71.056215,42.350899],[-71.056241,42.350899],[-71.056256,42.350842]]],[[[-71.056248,42.35305],[-71.056217,42.35304],[-71.056209,42.353098],[-71.056235,42.353098],[-71.056248,42.35305]]],[[[-71.056226,42.350933],[-71.056195,42.350923],[-71.056185,42.35099],[-71.056211,42.35099],[-71.056226,42.350933]]],[[[-71.056186,42.351036],[-71.056155,42.351026],[-71.056145,42.351093],[-71.056171,42.351093],[-71.056186,42.351036]]],[[[-71.056148,42.351145],[-71.056117,42.351135],[-71.056107,42.351202],[-71.056133,42.351202],[-71.056148,42.351145]]],[[[-71.056078,42.35171],[-71.056047,42.3517],[-71.056039,42.351761],[-71.056064,42.351761],[-71.056078,42.35171]]],[[[-71.055977,42.351355],[-71.055946,42.351345],[-71.055917,42.351412],[-71.055912,42.351469],[-71.055938,42.351469],[-71.055977,42.351355]]],[[[-71.05592,42.351482],[-71.055889,42.351472],[-71.055879,42.351539],[-71.055905,42.351539],[-71.05592,42.351482]]],[[[-71.055888,42.351561],[-71.055857,42.351551],[-71.055842,42.351608],[-71.055823,42.351622],[-71.055818,42.351679],[-71.055844,42.351679],[-71.055888,42.351561]]],[[[-71.055869,42.352226],[-71.055839,42.352193],[-71.055786,42.352201],[-71.055768,42.352243],[-71.055741,42.352262],[-71.055724,42.352342],[-71.055738,42.352367],[-71.055772,42.352378],[-71.055807,42.352367],[-71.055825,42.352325],[-71.055851,42.352306],[-71.055869,42.352226]]],[[[-71.055808,42.351727],[-71.055777,42.351717],[-71.055747,42.351833],[-71.055773,42.351833],[-71.055808,42.351727]]],[[[-71.055788,42.353336],[-71.055779,42.353319],[-71.055744,42.353314],[-71.055726,42.353327],[-71.055715,42.353378],[-71.055674,42.353379],[-71.055654,42.353453],[-71.055662,42.353468],[-71.055704,42.353468],[-71.05572,42.353414],[-71.055766,42.353415],[-71.055788,42.353336]]],[[[-71.055645,42.35343],[-71.055612,42.35342],[-71.055602,42.35349],[-71.055629,42.35349],[-71.055645,42.35343]]],[[[-71.055558,42.353497],[-71.055527,42.353487],[-71.055517,42.353554],[-71.055543,42.353554],[-71.055558,42.353497]]],[[[-71.055498,42.35353],[-71.055467,42.35352],[-71.055459,42.353581],[-71.055484,42.353581],[-71.055498,42.35353]]],[[[-71.055262,42.353653],[-71.055244,42.35364],[-71.055199,42.353652],[-71.055178,42.353684],[-71.055149,42.353694],[-71.055143,42.353765],[-71.055219,42.353746],[-71.055233,42.353705],[-71.055253,42.353697],[-71.055262,42.353653]]]]},"properties":{"kind":"tree"}}]}