{"type":"FeatureCollection","features":[{"type":"Feature","geometry":{"type":"MultiPolygon","coordinates":[[[[-71.06703,42.351826],[-71.067007,42.351692],[-71.066747,42.351106],[-71.065824,42.351215],[-71.065991,42.350995],[-71.065959,42.350666],[-71.065915,42.350665],[-71.065953,42.350615],[-71.06593,42.350327],[-71.065829,42.350333],[-71.065916,42.350219],[-71.065881,42.34989],[-71.065833,42.349834],[-71.065878,42.349816],[-71.065928,42.349751],[-71.065936,42.349764],[-71.066024,42.34974],[-71.066095,42.349646],[-71.066046,42.34956],[-71.066107,42.349483],[-71.066051,42.349385],[-71.065989,42.349405],[-71.065931,42.349481],[-71.06562,42.349445],[-71.065521,42.349461],[-71.065389,42.349634],[-71.065299,42.350054],[-71.06513,42.350276],[-71.065042,42.350586],[-71.06519,42.350617],[-71.06518,42.35065],[-71.065208,42.350654],[-71.064841,42.351137],[-71.06477,42.351388],[-71.064789,42.351421],[-71.064816,42.351429],[-71.064791,42.351461],[-71.064689,42.351854],[-71.064722,42.351865],[-71.064599,42.352026],[-71.06444,42.352634],[-71.064612,42.352643],[-71.064604,42.352667],[-71.064669,42.352677],[-71.064692,42.352647],[-71.064833,42.352654],[-71.064831,42.352669],[-71.065249,42.352691],[-71.065338,42.352574],[-71.065463,42.352583],[-71.065446,42.352684],[-71.065643,42.352699],[-71.065804,42.352488],[-71.065809,42.352595],[-71.065905,42.3526],[-71.066063,42.352392],[-71.066071,42.352281],[-71.066185,42.352281],[-71.06627,42.352169],[-71.066274,42.352135],[-71.066616,42.352175],[-71.066799,42.35213],[-71.06703,42.351826]],[[-71.065929,42.352084],[-71.0659,42.352091],[-71.065902,42.35208],[-71.065929,42.352084]],[[-71.065751,42.349776],[-71.06566,42.349801],[-71.065681,42.349699],[-71.065751,42.349776]]],[[[-71.066483,42.348529],[-71.06591,42.348462],[-71.065995,42.348064],[-71.065837,42.348044],[-71.065611,42.348341],[-71.065526,42.348741],[-71.065593,42.34875],[-71.065562,42.348839],[-71.065658,42.34885],[-71.065726,42.348762],[-71.065742,42.348816],[-71.06628,42.348879],[-71.066458,42.348649],[-71.066483,42.348529]]],[[[-71.065565,42.354342],[-71.065534,42.354305],[-71.065469,42.354307],[-71.065394,42.354396],[-71.065389,42.354431],[-71.065424,42.35446],[-71.065484,42.354456],[-71.065565,42.354342]]],[[[-71.065529,42.347903],[-71.065483,42.347819],[-71.065392,42.347805],[-71.065371,42.347781],[-71.065303,42.347784],[-71.065318,42.347764],[-71.065319,42.347677],[-71.065257,42.347643],[-71.064894,42.347587],[-71.064503,42.347783],[-71.064414,42.347899],[-71.0643,42.348161],[-71.064251,42.348336],[-71.064287,42.348342],[-71.064411,42.348293],[-71.064432,42.348329],[-71.064192,42.348651],[-71.064166,42.348745],[-71.064186,42.348748],[-71.064077,42.349062],[-71.064393,42.34911],[-71.064234,42.349345],[-71.064478,42.349511],[-71.064416,42.349501],[-71.064365,42.349567],[-71.063761,42.349475],[-71.063665,42.349383],[-71.063696,42.349342],[-71.063746,42.349213],[-71.063772,42.349073],[-71.063736,42.349067],[-71.063827,42.348879],[-71.063945,42.348463],[-71.063623,42.348413],[-71.06339,42.348719],[-71.06331,42.349001],[-71.063074,42.348966],[-71.062947,42.349132],[-71.06292,42.349121],[-71.06303,42.348917],[-71.063239,42.348948],[-71.063365,42.348783],[-71.063476,42.348381],[-71.063174,42.348335],[-71.063229,42.348263],[-71.063253,42.34818],[-71.06323,42.348148],[-71.06328,42.348076],[-71.063299,42.348007],[-71.062961,42.347921],[-71.062904,42.347996],[-71.062855,42.347962],[-71.062735,42.347939],[-71.062662,42.348034],[-71.062618,42.348146],[-71.062632,42.348152],[-71.062586,42.348213],[-71.062559,42.348281],[-71.062578,42.348284],[-71.062478,42.348415],[-71.062322,42.348809],[-71.062358,42.348815],[-71.062285,42.348916],[-71.062117,42.349314],[-71.062141,42.349342],[-71.061979,42.349568],[-71.061997,42.349602],[-71.061847,42.349964],[-71.061871,42.349974],[-71.061723,42.350168],[-71.061678,42.35028],[-71.061703,42.35032],[-71.061653,42.350427],[-71.061671,42.350443],[-71.061638,42.350514],[-71.061506,42.350687],[-71.061433,42.350874],[-71.061501,42.350891],[-71.061432,42.35102],[-71.061449,42.351024],[-71.061386,42.351219],[-71.061207,42.351455],[-71.061111,42.351696],[-71.061152,42.351722],[-71.061088,42.351807],[-71.061151,42.352123],[-71.061268,42.352119],[-71.061285,42.352204],[-71.061432,42.352197],[-71.061441,42.352226],[-71.061103,42.35267],[-71.061105,42.352709],[-71.060953,42.352909],[-71.060919,42.353009],[-71.060703,42.353272],[-71.059969,42.354033],[-71.059395,42.3545],[-71.05925,42.354687],[-71.059171,42.35463],[-71.059763,42.354099],[-71.060133,42.353635],[-71.059854,42.353482],[-71.059941,42.353407],[-71.06006,42.353468],[-71.060175,42.353345],[-71.060325,42.353148],[-71.060191,42.353073],[-71.060563,42.353255],[-71.060766,42.353037],[-71.060985,42.352736],[-71.060995,42.352689],[-71.060985,42.352601],[-71.061084,42.352464],[-71.061125,42.352254],[-71.061106,42.352027],[-71.061073,42.352032],[-71.061108,42.351986],[-71.061041,42.351545],[-71.060999,42.351535],[-71.061099,42.3514],[-71.061227,42.351071],[-71.060769,42.350979],[-71.060598,42.351212],[-71.060497,42.351426],[-71.060388,42.351402],[-71.060291,42.351517],[-71.060247,42.351383],[-71.060165,42.351352],[-71.060191,42.351318],[-71.060178,42.351349],[-71.060381,42.351394],[-71.060469,42.351279],[-71.060595,42.350984],[-71.060568,42.350978],[-71.060747,42.35054],[-71.060684,42.350522],[-71.060828,42.350333],[-71.060966,42.349994],[-71.060509,42.349891],[-71.060211,42.35028],[-71.060083,42.350596],[-71.060165,42.350619],[-71.059879,42.351289],[-71.059758,42.351262],[-71.059623,42.351439],[-71.059574,42.351568],[-71.059583,42.351625],[-71.05957,42.351642],[-71.059597,42.351806],[-71.059386,42.351848],[-71.059233,42.352048],[-71.059255,42.352197],[-71.059226,42.352012],[-71.059026,42.352083],[-71.058906,42.352152],[-71.058603,42.352531],[-71.058142,42.35255],[-71.058071,42.352594],[-71.057762,42.353],[-71.057796,42.352781],[-71.057668,42.352733],[-71.05756,42.352748],[-71.057302,42.352898],[-71.057163,42.352943],[-71.05712,42.352979],[-71.056764,42.353446],[-71.0565,42.353576],[-71.05666,42.353366],[-71.056638,42.353263],[-71.056242,42.353099],[-71.056121,42.353159],[-71.056249,42.352991],[-71.05653,42.352915],[-71.056916,42.352405],[-71.057,42.352232],[-71.056933,42.352215],[-71.057078,42.352025],[-71.057141,42.351687],[-71.057059,42.351648],[-71.057156,42.351519],[-71.05732,42.350691],[-71.057242,42.350671],[-71.057348,42.350529],[-71.057505,42.349748],[-71.057133,42.349667],[-71.056892,42.349983],[-71.056791,42.350214],[-71.056825,42.350223],[-71.056748,42.350323],[-71.056623,42.350567],[-71.056646,42.35057],[-71.056536,42.350727],[-71.056565,42.350791],[-71.056423,42.351068],[-71.056447,42.351074],[-71.056393,42.351145],[-71.056303,42.351334],[-71.056054,42.351647],[-71.055839,42.352081],[-71.055972,42.352115],[-71.05594,42.352127],[-71.054792,42.353647],[-71.054715,42.353811],[-71.0549,42.353858],[-71.054864,42.353905],[-71.054776,42.353908],[-71.054378,42.354122],[-71.053597,42.355149],[-71.053602,42.355206],[-71.053857,42.355471],[-71.053924,42.355485],[-71.053974,42.355469],[-71.054299,42.355179],[-71.055012,42.354243],[-71.055023,42.354255],[-71.055221,42.354131],[-71.055281,42.354193],[-71.055336,42.354182],[-71.055266,42.354274],[-71.055139,42.35434],[-71.055044,42.354443],[-71.055004,42.35446],[-71.054973,42.3545],[-71.054951,42.354482],[-71.054775,42.354643],[-71.054527,42.354968],[-71.054598,42.355035],[-71.054361,42.35537],[-71.05436,42.355408],[-71.054521,42.355556],[-71.054571,42.35556],[-71.054958,42.355317],[-71.055267,42.354912],[-71.055284,42.354905],[-71.055298,42.354919],[-71.055445,42.354877],[-71.055108,42.355319],[-71.055141,42.355508],[-71.054534,42.356305],[-71.05464,42.356883],[-71.055092,42.356839],[-71.055703,42.356036],[-71.055865,42.356012],[-71.055871,42.356045],[-71.056654,42.355986],[-71.057349,42.355074],[-71.057329,42.354923],[-71.057092,42.354828],[-71.057535,42.354247],[-71.057633,42.354088],[-71.057728,42.354087],[-71.057742,42.35407],[-71.057821,42.354075],[-71.057925,42.353953],[-71.057399,42.354774],[-71.05779,42.354895],[-71.058325,42.354373],[-71.058376,42.354389],[-71.058602,42.354179],[-71.059031,42.353617],[-71.05914,42.353516],[-71.059375,42.353194],[-71.059412,42.353407],[-71.05902,42.353778],[-71.058924,42.353904],[-71.058895,42.353885],[-71.058709,42.354058],[-71.058491,42.354345],[-71.05787,42.354957],[-71.05771,42.355167],[-71.057707,42.35519],[-71.057754,42.355208],[-71.057829,42.355209],[-71.057895,42.355341],[-71.058022,42.355356],[-71.058085,42.355334],[-71.058171,42.35525],[-71.058277,42.355111],[-71.058295,42.355121],[-71.058566,42.354874],[-71.058612,42.354813],[-71.058818,42.354642],[-71.058964,42.354658],[-71.058538,42.355044],[-71.058396,42.35523],[-71.0584,42.355256],[-71.058697,42.355384],[-71.058348,42.355842],[-71.058422,42.355897],[-71.058714,42.356016],[-71.05896,42.355802],[-71.059312,42.355345],[-71.059537,42.355121],[-71.05996,42.355441],[-71.060137,42.355313],[-71.060412,42.355493],[-71.060533,42.355387],[-71.060546,42.355397],[-71.061467,42.354538],[-71.06185,42.354159],[-71.061997,42.353967],[-71.062076,42.354009],[-71.062124,42.35401],[-71.062122,42.354039],[-71.062072,42.354109],[-71.061873,42.354296],[-71.061756,42.354431],[-71.06173,42.354438],[-71.061369,42.354786],[-71.061278,42.354906],[-71.061254,42.354893],[-71.06106,42.355076],[-71.060902,42.355284],[-71.061215,42.355441],[-71.061543,42.3551],[-71.061914,42.355309],[-71.061924,42.355298],[-71.062061,42.355368],[-71.062272,42.355132],[-71.062231,42.355197],[-71.062343,42.35526],[-71.062374,42.355233],[-71.062319,42.355304],[-71.062409,42.355355],[-71.062488,42.355273],[-71.062578,42.355324],[-71.062676,42.355222],[-71.062685,42.355227],[-71.062637,42.355336],[-71.062849,42.355405],[-71.06288,42.355407],[-71.0629,42.35538],[-71.062969,42.355417],[-71.063013,42.355376],[-71.063255,42.355044],[-71.063852,42.353943],[-71.063862,42.353896],[-71.063847,42.353892],[-71.063915,42.353802],[-71.064052,42.353554],[-71.064097,42.353425],[-71.064054,42.353417],[-71.064146,42.353296],[-71.064266,42.352985],[-71.064309,42.35284],[-71.064289,42.352839],[-71.064309,42.352812],[-71.064353,42.352644],[-71.064373,42.352435],[-71.06436,42.352425],[-71.064484,42.352263],[-71.064616,42.351742],[-71.064583,42.351738],[-71.064631,42.351675],[-71.064664,42.351553],[-71.064631,42.351549],[-71.064671,42.351497],[-71.064745,42.351218],[-71.064636,42.351202],[-71.064822,42.350958],[-71.064902,42.350642],[-71.064892,42.350638],[-71.065001,42.350248],[-71.064939,42.350226],[-71.065043,42.35009],[-71.065169,42.349617],[-71.064487,42.349512],[-71.064674,42.349407],[-71.06475,42.349431],[-71.065012,42.349308],[-71.06514,42.34914],[-71.065237,42.34913],[-71.065279,42.349075],[-71.06533,42.348887],[-71.065323,42.348802],[-71.065279,42.348688],[-71.064992,42.348617],[-71.064701,42.34858],[-71.064844,42.348384],[-71.064856,42.348338],[-71.064894,42.348366],[-71.064929,42.348344],[-71.06507,42.348506],[-71.065094,42.348494],[-71.0651,42.348513],[-71.065394,42.348448],[-71.065427,42.34839],[-71.065348,42.3483],[-71.065475,42.348175],[-71.065475,42.348101],[-71.065415,42.348032],[-71.065486,42.347985],[-71.065529,42.347903]],[[-71.064127,42.351922],[-71.064087,42.351975],[-71.064002,42.351967],[-71.064044,42.351913],[-71.064127,42.351922]],[[-71.064126,42.351119],[-71.064104,42.351149],[-71.063934,42.351133],[-71.063922,42.351149],[-71.063461,42.351088],[-71.063597,42.35091],[-71.063701,42.350926],[-71.063755,42.35095],[-71.063733,42.350986],[-71.064126,42.351119]],[[-71.064124,42.35029],[-71.063964,42.350532],[-71.063929,42.35052],[-71.064124,42.35029]],[[-71.063901,42.352449],[-71.063863,42.352498],[-71.063867,42.352448],[-71.063901,42.352449]],[[-71.063726,42.353619],[-71.063441,42.353993],[-71.063322,42.354195],[-71.063162,42.354369],[-71.063339,42.354118],[-71.063351,42.354035],[-71.063328,42.354033],[-71.063523,42.353778],[-71.063645,42.353557],[-71.06372,42.353563],[-71.063702,42.353613],[-71.063726,42.353619]],[[-71.063703,42.350386],[-71.063539,42.350364],[-71.063148,42.350877],[-71.062964,42.351173],[-71.062867,42.351525],[-71.063341,42.351592],[-71.062895,42.351546],[-71.062616,42.351912],[-71.062678,42.351664],[-71.062634,42.351648],[-71.062728,42.351525],[-71.062859,42.351039],[-71.062778,42.351027],[-71.062951,42.350799],[-71.063068,42.350464],[-71.063279,42.350187],[-71.063368,42.350008],[-71.063703,42.350386]],[[-71.063353,42.352395],[-71.063316,42.352443],[-71.063347,42.352394],[-71.063353,42.352395]],[[-71.063219,42.348146],[-71.063187,42.348141],[-71.063166,42.348167],[-71.063056,42.348151],[-71.063085,42.348117],[-71.063219,42.348146]],[[-71.063067,42.353513],[-71.063064,42.353518],[-71.063065,42.353513],[-71.063067,42.353513]],[[-71.063014,42.3481],[-71.063001,42.348142],[-71.062886,42.348123],[-71.062805,42.348216],[-71.062789,42.348277],[-71.062705,42.348265],[-71.062764,42.348181],[-71.0628,42.348189],[-71.062878,42.348077],[-71.063014,42.3481]],[[-71.062887,42.354669],[-71.062679,42.354911],[-71.062604,42.354876],[-71.062825,42.354658],[-71.062887,42.354669]],[[-71.062678,42.34946],[-71.062668,42.349473],[-71.062658,42.349469],[-71.062678,42.34946]],[[-71.06261,42.350323],[-71.062557,42.350407],[-71.062526,42.350394],[-71.062052,42.351013],[-71.062111,42.350892],[-71.062044,42.350874],[-71.062177,42.350699],[-71.062515,42.350282],[-71.06261,42.350323]],[[-71.062576,42.349291],[-71.062481,42.349413],[-71.062417,42.349384],[-71.062499,42.349342],[-71.06255,42.349279],[-71.062576,42.349291]],[[-71.062537,42.352672],[-71.062511,42.352706],[-71.062487,42.353189],[-71.062413,42.353285],[-71.062415,42.35316],[-71.062325,42.353163],[-71.062426,42.353031],[-71.062444,42.352661],[-71.062537,42.352672]],[[-71.062454,42.349929],[-71.062405,42.349994],[-71.062111,42.349878],[-71.062227,42.349917],[-71.062289,42.349898],[-71.062377,42.349939],[-71.062401,42.349909],[-71.062454,42.349929]],[[-71.062255,42.354834],[-71.062217,42.354875],[-71.062107,42.354838],[-71.062157,42.354786],[-71.062255,42.354834]],[[-71.062064,42.351489],[-71.062061,42.351529],[-71.062001,42.351526],[-71.062058,42.351451],[-71.062064,42.351489]],[[-71.061428,42.353341],[-71.061235,42.353594],[-71.061142,42.353549],[-71.061284,42.353363],[-71.061326,42.353269],[-71.061331,42.353345],[-71.061428,42.353341]],[[-71.060459,42.351741],[-71.060399,42.35182],[-71.060364,42.351721],[-71.060459,42.351741]],[[-71.060422,42.352149],[-71.060316,42.352167],[-71.060278,42.352217],[-71.060118,42.352221],[-71.059924,42.352475],[-71.059967,42.352759],[-71.060142,42.352758],[-71.060146,42.352807],[-71.060205,42.352815],[-71.060142,42.35301],[-71.059657,42.352762],[-71.059553,42.352772],[-71.059375,42.353006],[-71.05933,42.352658],[-71.059598,42.352675],[-71.059748,42.352478],[-71.059717,42.352272],[-71.059917,42.352254],[-71.060005,42.352139],[-71.060363,42.352091],[-71.060393,42.352052],[-71.060422,42.352149]],[[-71.060282,42.350821],[-71.060264,42.350845],[-71.060268,42.350818],[-71.060282,42.350821]],[[-71.060144,42.351851],[-71.060056,42.351864],[-71.060005,42.351931],[-71.059959,42.351648],[-71.059963,42.351663],[-71.060044,42.351656],[-71.060077,42.351632],[-71.060144,42.351851]],[[-71.059973,42.351314],[-71.059952,42.351342],[-71.059961,42.351312],[-71.059973,42.351314]],[[-71.059699,42.352261],[-71.059639,42.351889],[-71.059696,42.352203],[-71.059699,42.352261]],[[-71.059608,42.353679],[-71.059527,42.353766],[-71.059598,42.353673],[-71.059608,42.353679]],[[-71.05934,42.35399],[-71.059322,42.354013],[-71.059273,42.354022],[-71.059317,42.353981],[-71.05934,42.35399]],[[-71.059323,42.35245],[-71.059301,42.352479],[-71.059316,42.352574],[-71.059196,42.352559],[-71.059291,42.352434],[-71.059272,42.352303],[-71.0593,42.352301],[-71.059323,42.35245]],[[-71.059018,42.354028],[-71.058972,42.35407],[-71.059003,42.354019],[-71.059018,42.354028]],[[-71.056954,42.351023],[-71.056749,42.35151],[-71.056703,42.35149],[-71.056784,42.351384],[-71.05694,42.351044],[-71.056922,42.35104],[-71.056937,42.351019],[-71.056954,42.351023]],[[-71.056939,42.353901],[-71.056768,42.354125],[-71.056749,42.354112],[-71.056627,42.354124],[-71.056739,42.354088],[-71.056884,42.353897],[-71.056939,42.353901]],[[-71.056439,42.354859],[-71.056298,42.355044],[-71.056254,42.354801],[-71.05633,42.354794],[-71.056316,42.354817],[-71.056439,42.354859]],[[-71.055812,42.353955],[-71.055741,42.354049],[-71.055688,42.354072],[-71.055615,42.354002],[-71.055652,42.353954],[-71.055729,42.35392],[-71.055812,42.353955]]],[[[-71.065421,42.352871],[-71.065303,42.352844],[-71.065255,42.352932],[-71.065281,42.353013],[-71.065347,42.353027],[-71.065378,42.352986],[-71.065421,42.352871]]],[[[-71.06461,42.353278],[-71.064542,42.353266],[-71.064485,42.353396],[-71.064553,42.35341],[-71.06461,42.353278]]],[[[-71.064113,42.347947],[-71.063968,42.347919],[-71.063883,42.347989],[-71.063856,42.347985],[-71.063744,42.348132],[-71.063538,42.348106],[-71.063606,42.347866],[-71.06346,42.347843],[-71.063399,42.347923],[-71.063289,42.348293],[-71.063683,42.348352],[-71.063715,42.348417],[-71.063834,42.348434],[-71.063875,42.348381],[-71.063944,42.348391],[-71.06402,42.348291],[-71.064113,42.347947]]],[[[-71.063935,42.354829],[-71.063869,42.354811],[-71.063824,42.354889],[-71.06389,42.354906],[-71.063935,42.354829]]],[[[-71.062446,42.347953],[-71.061926,42.347827],[-71.061711,42.348107],[-71.061665,42.348223],[-71.061819,42.348257],[-71.061615,42.348764],[-71.06156,42.348836],[-71.061389,42.349281],[-71.061326,42.349367],[-71.061211,42.349651],[-71.061209,42.349671],[-71.061224,42.349678],[-71.061093,42.349849],[-71.060982,42.350126],[-71.061083,42.350168],[-71.060899,42.350411],[-71.060811,42.350629],[-71.060858,42.350641],[-71.060799,42.350734],[-71.060812,42.35074],[-71.060757,42.350882],[-71.060973,42.35093],[-71.061115,42.350914],[-71.061109,42.350931],[-71.061229,42.350959],[-71.061321,42.350852],[-71.061357,42.350743],[-71.061322,42.350707],[-71.061484,42.350494],[-71.061778,42.349762],[-71.061741,42.349747],[-71.061812,42.349653],[-71.061975,42.34927],[-71.061808,42.349235],[-71.061839,42.34916],[-71.061745,42.349139],[-71.061697,42.349213],[-71.061783,42.348996],[-71.061769,42.348993],[-71.061895,42.34873],[-71.061814,42.348712],[-71.061871,42.348571],[-71.062171,42.348641],[-71.06226,42.348505],[-71.062367,42.34823],[-71.062282,42.348212],[-71.062411,42.348042],[-71.062446,42.347953]],[[-71.062173,42.34832],[-71.062132,42.348425],[-71.061947,42.348382],[-71.061982,42.348294],[-71.062173,42.34832]]],[[[-71.061866,42.34764],[-71.061712,42.347604],[-71.061448,42.34795],[-71.061302,42.3483],[-71.061297,42.348341],[-71.061269,42.348334],[-71.06131,42.348233],[-71.061184,42.348198],[-71.061062,42.348354],[-71.061028,42.348458],[-71.061038,42.34846],[-71.06094,42.348712],[-71.061056,42.348742],[-71.061127,42.348648],[-71.061189,42.348498],[-71.061275,42.348518],[-71.061308,42.348474],[-71.06132,42.348477],[-71.0613,42.348526],[-71.061338,42.348573],[-71.061288,42.348565],[-71.061197,42.348684],[-71.061168,42.348755],[-71.061026,42.348937],[-71.060878,42.348902],[-71.060806,42.348996],[-71.060681,42.349327],[-71.060909,42.349417],[-71.060939,42.349377],[-71.060921,42.349424],[-71.061129,42.349516],[-71.061196,42.349428],[-71.061244,42.349357],[-71.061229,42.349351],[-71.061269,42.349298],[-71.061362,42.349071],[-71.061384,42.349005],[-71.061353,42.348998],[-71.061436,42.348818],[-71.061419,42.348805],[-71.061479,42.348726],[-71.061585,42.348454],[-71.06164,42.348359],[-71.061484,42.348324],[-71.061674,42.348074],[-71.061722,42.347989],[-71.061866,42.34764]],[[-71.061103,42.349205],[-71.061063,42.349283],[-71.061017,42.349264],[-71.060981,42.349311],[-71.06102,42.349213],[-71.060916,42.349215],[-71.060929,42.349218],[-71.060995,42.349132],[-71.061004,42.349108],[-71.060965,42.349082],[-71.061,42.349036],[-71.061053,42.349077],[-71.061007,42.349184],[-71.061103,42.349205]]],[[[-71.061068,42.348118],[-71.061011,42.348097],[-71.060599,42.348638],[-71.060137,42.34928],[-71.060153,42.349284],[-71.059909,42.349604],[-71.059792,42.349867],[-71.059513,42.350589],[-71.059728,42.350656],[-71.059705,42.350721],[-71.059915,42.350766],[-71.059931,42.350744],[-71.059967,42.350752],[-71.060019,42.350684],[-71.06004,42.35063],[-71.060021,42.350626],[-71.060116,42.350367],[-71.060066,42.350353],[-71.060226,42.350142],[-71.060327,42.349891],[-71.060293,42.349844],[-71.060367,42.349747],[-71.060567,42.349259],[-71.060497,42.349175],[-71.060786,42.348796],[-71.061068,42.348118]]],[[[-71.059505,42.350215],[-71.059471,42.35018],[-71.059047,42.350086],[-71.058996,42.350102],[-71.058865,42.350274],[-71.058558,42.351033],[-71.058589,42.351068],[-71.058525,42.351153],[-71.058254,42.351831],[-71.05845,42.351874],[-71.058638,42.351696],[-71.058752,42.351559],[-71.058901,42.35136],[-71.059013,42.351163],[-71.059067,42.351147],[-71.059198,42.350975],[-71.059505,42.350215]]],[[[-71.059318,42.349726],[-71.059179,42.349693],[-71.059146,42.349736],[-71.059072,42.349909],[-71.059211,42.349942],[-71.059244,42.349899],[-71.059318,42.349726]]],[[[-71.058776,42.350034],[-71.058372,42.349945],[-71.058232,42.350129],[-71.058289,42.349924],[-71.058146,42.349895],[-71.058297,42.349696],[-71.058424,42.349376],[-71.057926,42.349266],[-71.057868,42.349342],[-71.057801,42.349509],[-71.057909,42.349532],[-71.057893,42.349553],[-71.057872,42.349548],[-71.057844,42.349584],[-71.057727,42.349876],[-71.057746,42.34989],[-71.057688,42.349927],[-71.057546,42.350114],[-71.057512,42.350288],[-71.057463,42.350352],[-71.057359,42.350857],[-71.057446,42.350878],[-71.057377,42.350969],[-71.057228,42.35173],[-71.057259,42.351735],[-71.057165,42.351858],[-71.057086,42.352285],[-71.057753,42.352491],[-71.057952,42.352235],[-71.058115,42.351737],[-71.058081,42.351716],[-71.058131,42.351651],[-71.058414,42.350953],[-71.058162,42.35089],[-71.058182,42.350864],[-71.058393,42.350917],[-71.058459,42.35083],[-71.058581,42.350557],[-71.058587,42.350541],[-71.058574,42.350538],[-71.058706,42.35021],[-71.058767,42.350099],[-71.058776,42.350034]],[[-71.05819,42.350401],[-71.058144,42.350461],[-71.058163,42.350395],[-71.05819,42.350401]],[[-71.058081,42.350906],[-71.058022,42.350984],[-71.058045,42.350898],[-71.058081,42.350906]],[[-71.058077,42.350741],[-71.05804,42.35087],[-71.057975,42.350855],[-71.058068,42.350726],[-71.058077,42.350741]],[[-71.057923,42.35119],[-71.057884,42.351343],[-71.057847,42.351338],[-71.057889,42.351283],[-71.057923,42.35119]],[[-71.057804,42.35163],[-71.057791,42.351677],[-71.057771,42.351673],[-71.057804,42.35163]],[[-71.057675,42.351997],[-71.057671,42.352011],[-71.057667,42.35201],[-71.057675,42.351997]]],[[[-71.058071,42.348706],[-71.057613,42.348605],[-71.057316,42.348995],[-71.057232,42.349204],[-71.057691,42.349305],[-71.057988,42.348915],[-71.058071,42.348706]]],[[[-71.056775,42.349199],[-71.056596,42.349149],[-71.055487,42.349466],[-71.05537,42.34962],[-71.054908,42.350531],[-71.054964,42.350574],[-71.054927,42.350648],[-71.054985,42.350664],[-71.05502,42.350618],[-71.05525,42.350793],[-71.055435,42.350854],[-71.056037,42.350843],[-71.056121,42.350827],[-71.056238,42.350673],[-71.056434,42.350281],[-71.056635,42.349782],[-71.056775,42.349199]]],[[[-71.056683,42.347603],[-71.056673,42.347544],[-71.055908,42.347262],[-71.055796,42.347409],[-71.054451,42.349411],[-71.054257,42.349659],[-71.053287,42.351102],[-71.053868,42.351317],[-71.05401,42.351135],[-71.054287,42.351237],[-71.055307,42.349724],[-71.055259,42.349706],[-71.05537,42.34956],[-71.056683,42.347603]]],[[[-71.055768,42.35162],[-71.055498,42.351545],[-71.054479,42.351779],[-71.054307,42.351954],[-71.054127,42.35219],[-71.054653,42.352468],[-71.054813,42.352519],[-71.054981,42.352544],[-71.055158,42.352504],[-71.055278,42.352414],[-71.055549,42.352069],[-71.055768,42.35162]]]]},"properties":{"kind":"building"}},{"type":"Feature","geometry":{"type":"MultiPolygon","coordinates":[[[[-71.066058,42.353451],[-71.066047,42.35341],[-71.065968,42.353351],[-71.065912,42.353343],[-71.065813,42.353373],[-71.065911,42.353246],[-71.065912,42.353197],[-71.066007,42.353073],[-71.066007,42.353005],[-71.066048,42.352923],[-71.066021,42.352832],[-71.065942,42.352773],[-71.06583,42.352773],[-71.065783,42.352797],[-71.065673,42.352935],[-71.065768,42.352807],[-71.065774,42.352784],[-71.06575,42.352742],[-71.065801,42.352714],[-71.065818,42.352735],[-71.065871,42.352752],[-71.06594,42.352718],[-71.066022,42.352597],[-71.065976,42.352546],[-71.065918,42.352546],[-71.065882,42.352572],[-71.065841,42.352538],[-71.065759,42.35255],[-71.065688,42.352518],[-71.065635,42.352534],[-71.065587,42.352595],[-71.06551,42.352612],[-71.065403,42.352748],[-71.065403,42.3528],[-71.065452,42.352836],[-71.065381,42.352941],[-71.065381,42.352996],[-71.065402,42.35302],[-71.065313,42.353162],[-71.065307,42.353201],[-71.065209,42.353203],[-71.065164,42.353226],[-71.065232,42.353164],[-71.065308,42.353051],[-71.065288,42.353015],[-71.065253,42.353003],[-71.065271,42.352957],[-71.06522,42.352941],[-71.065147,42.353025],[-71.065156,42.353056],[-71.065106,42.353125],[-71.065092,42.353183],[-71.065018,42.353161],[-71.064976,42.353168],[-71.06494,42.353185],[-71.064864,42.35328],[-71.064839,42.353265],[-71.064928,42.353148],[-71.064939,42.353107],[-71.064928,42.353066],[-71.064865,42.353015],[-71.06483,42.352952],[-71.064791,42.352933],[-71.064699,42.352933],[-71.06466,42.352952],[-71.064527,42.353121],[-71.064518,42.353155],[-71.064547,42.353211],[-71.064534,42.353256],[-71.064545,42.353297],[-71.064449,42.353454],[-71.064481,42.353512],[-71.064517,42.35353],[-71.064463,42.353606],[-71.064418,42.353592],[-71.064372,42.353606],[-71.064289,42.353712],[-71.064287,42.353741],[-71.064222,42.353844],[-71.064233,42.353888],[-71.064169,42.353989],[-71.064175,42.354012],[-71.064158,42.35405],[-71.064191,42.354098],[-71.064109,42.354151],[-71.064033,42.35425],[-71.064033,42.354293],[-71.064005,42.354342],[-71.063961,42.354376],[-71.063881,42.354481],[-71.063878,42.354515],[-71.06379,42.35463],[-71.063787,42.354701],[-71.063677,42.35486],[-71.063677,42.354904],[-71.063749,42.35494],[-71.063804,42.354923],[-71.063919,42.354779],[-71.064028,42.354748],[-71.064173,42.354564],[-71.064181,42.354536],[-71.064254,42.354509],[-71.064399,42.354325],[-71.064504,42.354303],[-71.064625,42.354149],[-71.064678,42.354147],[-71.064723,42.354111],[-71.064774,42.354125],[-71.064831,42.354108],[-71.064929,42.353983],[-71.064929,42.353937],[-71.064885,42.353905],[-71.064823,42.353905],[-71.064762,42.353959],[-71.064785,42.3539],[-71.064762,42.353859],[-71.064677,42.353847],[-71.064617,42.353902],[-71.064638,42.353855],[-71.064614,42.353813],[-71.064557,42.353795],[-71.064508,42.353809],[-71.064467,42.353779],[-71.064407,42.353779],[-71.064444,42.353728],[-71.064446,42.3537],[-71.064538,42.353733],[-71.064576,42.353727],[-71.064631,42.353687],[-71.064732,42.353536],[-71.064724,42.353508],[-71.064673,42.353469],[-71.064689,42.353448],[-71.064762,42.353457],[-71.064817,42.353407],[-71.064886,42.353451],[-71.064806,42.353554],[-71.064806,42.353595],[-71.064822,42.353612],[-71.064872,42.353627],[-71.064938,42.353595],[-71.064945,42.353651],[-71.064972,42.35368],[-71.065059,42.353707],[-71.065146,42.35368],[-71.0652,42.353616],[-71.065189,42.353657],[-71.0652,42.353698],[-71.065232,42.353733],[-71.065295,42.353759],[-71.065226,42.353847],[-71.065181,42.35386],[-71.065114,42.353946],[-71.06505,42.353957],[-71.064967,42.354063],[-71.064981,42.354116],[-71.065052,42.354126],[-71.065145,42.354024],[-71.065202,42.354012],[-71.065276,42.353933],[-71.065201,42.354022],[-71.065149,42.354033],[-71.065063,42.354139],[-71.065,42.354148],[-71.064919,42.354258],[-71.064866,42.354267],[-71.064791,42.354373],[-71.064806,42.3544],[-71.064843,42.354412],[-71.064879,42.3544],[-71.064951,42.354309],[-71.065018,42.354295],[-71.065103,42.354189],[-71.065167,42.35418],[-71.065225,42.354106],[-71.065292,42.354095],[-71.065374,42.35399],[-71.065414,42.353978],[-71.065437,42.353951],[-71.065468,42.353981],[-71.065508,42.353981],[-71.065596,42.353881],[-71.065596,42.353851],[-71.065574,42.353834],[-71.065621,42.353773],[-71.065621,42.353739],[-71.065589,42.353716],[-71.065545,42.353716],[-71.065448,42.353824],[-71.065399,42.353838],[-71.065331,42.353924],[-71.065317,42.353922],[-71.065414,42.353797],[-71.065465,42.353785],[-71.065545,42.353682],[-71.065532,42.353633],[-71.065583,42.353549],[-71.065594,42.353508],[-71.065583,42.353467],[-71.065551,42.353432],[-71.065448,42.3534],[-71.065479,42.353367],[-71.065538,42.353345],[-71.065597,42.353271],[-71.065644,42.35332],[-71.065648,42.353362],[-71.065669,42.353385],[-71.065735,42.353405],[-71.065798,42.353387],[-71.065664,42.353558],[-71.065653,42.3536],[-71.065664,42.353641],[-71.065696,42.353676],[-71.065743,42.353699],[-71.065799,42.353707],[-71.065902,42.353676],[-71.066047,42.353492],[-71.066058,42.353451]],[[-71.065682,42.352726],[-71.065636,42.352742],[-71.065601,42.352783],[-71.065586,42.352781],[-71.065628,42.352725],[-71.065665,42.352711],[-71.065682,42.352726]],[[-71.065135,42.353256],[-71.065017,42.35341],[-71.065006,42.353451],[-71.064987,42.353436],[-71.065135,42.353256]],[[-71.065016,42.353489],[-71.065014,42.353491],[-71.065015,42.353486],[-71.065016,42.353489]],[[-71.064473,42.35402],[-71.064345,42.354197],[-71.06432,42.354184],[-71.06437,42.354106],[-71.06437,42.35406],[-71.064342,42.354036],[-71.064378,42.353989],[-71.064401,42.353981],[-71.064419,42.354003],[-71.064473,42.35402]]],[[[-71.066046,42.354972],[-71.066004,42.354925],[-71.06593,42.354936],[-71.065844,42.355046],[-71.065844,42.355085],[-71.065907,42.355116],[-71.065955,42.355101],[-71.066046,42.354972]]],[[[-71.06602,42.354061],[-71.065981,42.354032],[-71.065933,42.354066],[-71.065908,42.354048],[-71.06587,42.354048],[-71.065786,42.354144],[-71.065786,42.354171],[-71.065812,42.354191],[-71.065849,42.354191],[-71.065897,42.354143],[-71.065914,42.354155],[-71.065885,42.354206],[-71.065915,42.354215],[-71.06602,42.354061]]],[[[-71.065865,42.354468],[-71.065855,42.354431],[-71.065785,42.354379],[-71.065685,42.354379],[-71.065643,42.3544],[-71.065502,42.35458],[-71.065502,42.354653],[-71.065572,42.354705],[-71.065622,42.354713],[-71.065714,42.354684],[-71.065855,42.354505],[-71.065865,42.354468]]],[[[-71.06583,42.348038],[-71.065811,42.348004],[-71.06574,42.347994],[-71.065636,42.34811],[-71.065636,42.348147],[-71.065671,42.348173],[-71.065617,42.348262],[-71.065633,42.348291],[-71.065683,42.348301],[-71.065664,42.348327],[-71.065673,42.348344],[-71.065697,42.348337],[-71.065727,42.348298],[-71.065723,42.348278],[-71.065786,42.348196],[-71.065786,42.348164],[-71.065758,42.348144],[-71.06583,42.348038]]],[[[-71.065764,42.353939],[-71.065734,42.353906],[-71.065681,42.353914],[-71.065561,42.354053],[-71.065561,42.35408],[-71.065606,42.354102],[-71.06564,42.354092],[-71.065764,42.353939]]],[[[-71.065738,42.348446],[-71.065702,42.348406],[-71.065639,42.348415],[-71.065561,42.348514],[-71.065561,42.348548],[-71.065615,42.348574],[-71.065657,42.348562],[-71.065738,42.348446]]],[[[-71.065683,42.354843],[-71.065674,42.354808],[-71.065607,42.354759],[-71.06556,42.354752],[-71.065482,42.354774],[-71.065481,42.354739],[-71.065444,42.354711],[-71.065392,42.354711],[-71.065362,42.354731],[-71.065345,42.354722],[-71.065351,42.354697],[-71.065327,42.354655],[-71.065202,42.35461],[-71.065147,42.354627],[-71.065054,42.354729],[-71.06497,42.354853],[-71.064993,42.354894],[-71.065085,42.354939],[-71.065159,42.35493],[-71.06518,42.354969],[-71.065233,42.354986],[-71.065286,42.354969],[-71.065341,42.354901],[-71.065373,42.354898],[-71.065337,42.354951],[-71.065337,42.355021],[-71.065404,42.35507],[-71.065451,42.355077],[-71.065538,42.35505],[-71.065674,42.354878],[-71.065683,42.354843]]],[[[-71.065598,42.348957],[-71.065567,42.348947],[-71.065536,42.348998],[-71.06556,42.349005],[-71.065598,42.348957]]],[[[-71.065588,42.351223],[-71.065557,42.351213],[-71.065519,42.351273],[-71.065543,42.35128],[-71.065588,42.351223]]],[[[-71.065562,42.349094],[-71.065531,42.349084],[-71.0655,42.349135],[-71.065524,42.349142],[-71.065562,42.349094]]],[[[-71.065559,42.349236],[-71.065529,42.349203],[-71.065476,42.349211],[-71.065415,42.349288],[-71.065415,42.349316],[-71.06546,42.349338],[-71.065494,42.349327],[-71.065559,42.349236]]],[[[-71.065552,42.348316],[-71.065514,42.348274],[-71.065466,42.348274],[-71.065433,42.348299],[-71.065361,42.348404],[-71.065379,42.348436],[-71.065423,42.348449],[-71.065398,42.348506],[-71.06544,42.348506],[-71.065481,42.348452],[-71.065471,42.348432],[-71.065552,42.348316]]],[[[-71.065548,42.34811],[-71.065517,42.3481],[-71.065484,42.348154],[-71.065507,42.348161],[-71.065548,42.34811]]],[[[-71.065465,42.352587],[-71.065457,42.352558],[-71.065401,42.352516],[-71.065321,42.352516],[-71.065288,42.352533],[-71.06517,42.352683],[-71.06517,42.352742],[-71.065105,42.352754],[-71.065027,42.352853],[-71.065039,42.352899],[-71.064953,42.353025],[-71.064974,42.353062],[-71.065024,42.353077],[-71.065075,42.353062],[-71.065164,42.352948],[-71.065153,42.352895],[-71.0652,42.352802],[-71.065201,42.352771],[-71.065265,42.352789],[-71.065339,42.352767],[-71.065457,42.352616],[-71.065465,42.352587]]],[[[-71.065433,42.34879],[-71.065403,42.348757],[-71.06535,42.348765],[-71.065289,42.348842],[-71.065289,42.34887],[-71.065334,42.348892],[-71.065368,42.348881],[-71.065433,42.34879]]],[[[-71.065396,42.34894],[-71.065374,42.348916],[-71.065335,42.348921],[-71.065278,42.348995],[-71.065278,42.349015],[-71.065311,42.349031],[-71.065336,42.349023],[-71.065396,42.34894]]],[[[-71.065379,42.34907],[-71.065349,42.349037],[-71.065296,42.349045],[-71.065227,42.349133],[-71.065227,42.34916],[-71.065272,42.349182],[-71.065306,42.349172],[-71.065379,42.34907]]],[[[-71.065368,42.35121],[-71.065337,42.3512],[-71.065301,42.351257],[-71.065325,42.351264],[-71.065368,42.35121]]],[[[-71.065268,42.35121],[-71.065237,42.3512],[-71.065204,42.351254],[-71.065227,42.351261],[-71.065268,42.35121]]],[[[-71.065176,42.35072],[-71.06514,42.350702],[-71.065083,42.350769],[-71.065091,42.35079],[-71.065058,42.350833],[-71.065082,42.350859],[-71.065054,42.350898],[-71.065064,42.350917],[-71.06509,42.350909],[-71.065128,42.350859],[-71.065117,42.35084],[-71.065176,42.35072]]],[[[-71.065109,42.352581],[-71.065102,42.352553],[-71.065049,42.352515],[-71.064975,42.352515],[-71.064943,42.35253],[-71.064831,42.352673],[-71.064831,42.352728],[-71.064884,42.352767],[-71.064921,42.352773],[-71.06499,42.352752],[-71.065109,42.352581]]],[[[-71.065103,42.354592],[-71.065065,42.35455],[-71.064998,42.354559],[-71.065062,42.354475],[-71.065049,42.354426],[-71.064899,42.354414],[-71.064842,42.354432],[-71.064738,42.354579],[-71.064761,42.354622],[-71.064818,42.354639],[-71.064734,42.354749],[-71.06473,42.354786],[-71.064704,42.354792],[-71.064675,42.354841],[-71.064698,42.354848],[-71.064737,42.354803],[-71.064783,42.354837],[-71.064831,42.35484],[-71.06481,42.354877],[-71.064826,42.354906],[-71.064865,42.354918],[-71.064904,42.354906],[-71.064983,42.354795],[-71.064967,42.354766],[-71.064937,42.354756],[-71.064961,42.354724],[-71.065018,42.354712],[-71.065103,42.354592]],[[-71.064981,42.354578],[-71.064958,42.354608],[-71.064905,42.354594],[-71.064981,42.354578]]],[[[-71.064944,42.35131],[-71.064913,42.3513],[-71.064877,42.351357],[-71.064901,42.351364],[-71.064944,42.35131]]],[[[-71.064915,42.35417],[-71.064885,42.354137],[-71.064832,42.354145],[-71.064763,42.354233],[-71.064763,42.35426],[-71.064808,42.354282],[-71.064842,42.354272],[-71.064915,42.35417]]],[[[-71.064911,42.354986],[-71.064903,42.354957],[-71.064847,42.354915],[-71.064767,42.354915],[-71.064734,42.354932],[-71.064616,42.355082],[-71.064616,42.355141],[-71.064672,42.355182],[-71.064711,42.355188],[-71.064785,42.355166],[-71.064903,42.355015],[-71.064911,42.354986]]],[[[-71.064857,42.348456],[-71.064826,42.348446],[-71.064793,42.3485],[-71.064816,42.348507],[-71.064857,42.348456]]],[[[-71.064806,42.354449],[-71.064775,42.354393],[-71.06472,42.354373],[-71.064759,42.354322],[-71.064759,42.354284],[-71.064722,42.354256],[-71.064648,42.354267],[-71.064528,42.354435],[-71.064466,42.354444],[-71.064407,42.354519],[-71.064363,42.354531],[-71.064227,42.354674],[-71.064173,42.354684],[-71.064099,42.35478],[-71.064099,42.354811],[-71.064149,42.354836],[-71.064188,42.354824],[-71.064158,42.354878],[-71.064179,42.354915],[-71.064229,42.35493],[-71.06428,42.354915],[-71.06443,42.354738],[-71.06447,42.354727],[-71.064521,42.354664],[-71.064642,42.35465],[-71.064677,42.354633],[-71.064798,42.354479],[-71.064806,42.354449]],[[-71.064495,42.354581],[-71.06449,42.354583],[-71.064494,42.354578],[-71.064495,42.354581]],[[-71.06445,42.354602],[-71.0644,42.354654],[-71.064439,42.354603],[-71.06445,42.354602]],[[-71.064341,42.35469],[-71.064311,42.354729],[-71.064304,42.354728],[-71.064341,42.35469]]],[[[-71.064624,42.351826],[-71.064593,42.351816],[-71.06456,42.35187],[-71.064583,42.351877],[-71.064624,42.351826]]],[[[-71.064621,42.348425],[-71.06459,42.348415],[-71.064557,42.348469],[-71.06458,42.348476],[-71.064621,42.348425]]],[[[-71.064568,42.352055],[-71.064537,42.352045],[-71.064501,42.352092],[-71.064511,42.352109],[-71.064484,42.352194],[-71.064493,42.352211],[-71.064517,42.352204],[-71.064547,42.352165],[-71.064537,42.352148],[-71.064563,42.35211],[-71.064552,42.352091],[-71.064568,42.352055]]],[[[-71.064436,42.348399],[-71.064405,42.348389],[-71.064372,42.348443],[-71.064395,42.34845],[-71.064436,42.348399]]],[[[-71.064238,42.350925],[-71.064207,42.350915],[-71.064174,42.350969],[-71.064197,42.350976],[-71.064238,42.350925]]],[[[-71.064209,42.34872],[-71.06417,42.348708],[-71.064124,42.34878],[-71.064154,42.348789],[-71.064209,42.34872]]],[[[-71.064168,42.34884],[-71.064137,42.34883],[-71.064097,42.348893],[-71.064121,42.3489],[-71.064168,42.34884]]],[[[-71.064148,42.350914],[-71.064117,42.350904],[-71.064084,42.350958],[-71.064107,42.350965],[-71.064148,42.350914]]],[[[-71.064088,42.3533],[-71.064057,42.35329],[-71.064017,42.353353],[-71.064041,42.35336],[-71.064088,42.3533]]],[[[-71.064082,42.350914],[-71.064062,42.350892],[-71.064027,42.350897],[-71.063973,42.350985],[-71.064003,42.351],[-71.064026,42.350993],[-71.064082,42.350914]]],[[[-71.064049,42.35339],[-71.064016,42.35338],[-71.063974,42.353446],[-71.063999,42.353454],[-71.064049,42.35339]]],[[[-71.064013,42.353283],[-71.063982,42.353273],[-71.063942,42.353336],[-71.063966,42.353343],[-71.064013,42.353283]]],[[[-71.063998,42.35376],[-71.063967,42.35375],[-71.063927,42.353813],[-71.063951,42.35382],[-71.063998,42.35376]]],[[[-71.063984,42.353386],[-71.063951,42.353376],[-71.063909,42.353442],[-71.063934,42.35345],[-71.063984,42.353386]]],[[[-71.063973,42.350903],[-71.063949,42.350876],[-71.063906,42.350883],[-71.063846,42.35096],[-71.063846,42.350982],[-71.063882,42.350999],[-71.06391,42.350991],[-71.063973,42.350903]]],[[[-71.063943,42.353268],[-71.063904,42.353256],[-71.063858,42.353328],[-71.063888,42.353337],[-71.063943,42.353268]]],[[[-71.063928,42.353374],[-71.063897,42.353364],[-71.063857,42.353427],[-71.063881,42.353434],[-71.063928,42.353374]]],[[[-71.063922,42.353967],[-71.063902,42.353945],[-71.063867,42.35395],[-71.063813,42.354038],[-71.063843,42.354053],[-71.063866,42.354046],[-71.063922,42.353967]]],[[[-71.063915,42.348675],[-71.063882,42.348665],[-71.06384,42.34872],[-71.063848,42.348738],[-71.063808,42.34879],[-71.063818,42.348844],[-71.063842,42.348837],[-71.063872,42.348798],[-71.063891,42.348749],[-71.063879,42.348727],[-71.063915,42.348675]]],[[[-71.063879,42.34887],[-71.063846,42.34886],[-71.063804,42.348926],[-71.063829,42.348934],[-71.063879,42.34887]]],[[[-71.063821,42.349148],[-71.06379,42.349138],[-71.063757,42.349192],[-71.06378,42.349199],[-71.063821,42.349148]]],[[[-71.063816,42.35412],[-71.06378,42.354102],[-71.063723,42.354183],[-71.063757,42.354194],[-71.063816,42.35412]]],[[[-71.063808,42.348427],[-71.063777,42.348417],[-71.063744,42.348471],[-71.063767,42.348478],[-71.063808,42.348427]]],[[[-71.063768,42.349293],[-71.063737,42.349283],[-71.063704,42.349327],[-71.063691,42.349379],[-71.063724,42.349379],[-71.063768,42.349293]]],[[[-71.063718,42.34841],[-71.063687,42.3484],[-71.063654,42.348454],[-71.063677,42.348461],[-71.063718,42.34841]]],[[[-71.063707,42.350883],[-71.063687,42.350861],[-71.063652,42.350866],[-71.063598,42.350954],[-71.063628,42.350969],[-71.063651,42.350962],[-71.063707,42.350883]]],[[[-71.063689,42.34976],[-71.063656,42.34975],[-71.063614,42.349816],[-71.063639,42.349824],[-71.063689,42.34976]]],[[[-71.063632,42.349854],[-71.063601,42.349844],[-71.063561,42.349907],[-71.063585,42.349914],[-71.063632,42.349854]]],[[[-71.063613,42.350876],[-71.063574,42.350864],[-71.063528,42.350936],[-71.063558,42.350945],[-71.063613,42.350876]]],[[[-71.063579,42.34995],[-71.063546,42.34994],[-71.063477,42.350053],[-71.063511,42.350053],[-71.063579,42.34995]]],[[[-71.063569,42.3547],[-71.063539,42.354667],[-71.063486,42.354675],[-71.063365,42.354852],[-71.063375,42.354891],[-71.06341,42.354902],[-71.063444,42.354891],[-71.063569,42.3547]]],[[[-71.063546,42.350864],[-71.06351,42.350846],[-71.063453,42.350927],[-71.063487,42.350938],[-71.063546,42.350864]]],[[[-71.063458,42.350418],[-71.063427,42.350408],[-71.063387,42.35046],[-71.063397,42.350478],[-71.063301,42.350647],[-71.063311,42.350664],[-71.063335,42.350657],[-71.063367,42.350615],[-71.063458,42.350418]]],[[[-71.063458,42.35018],[-71.063427,42.35017],[-71.063334,42.35033],[-71.063368,42.35033],[-71.063458,42.35018]]],[[[-71.063386,42.350826],[-71.06336,42.350807],[-71.063381,42.350757],[-71.063343,42.350745],[-71.063368,42.350698],[-71.063343,42.350691],[-71.063294,42.350749],[-71.063319,42.350768],[-71.063282,42.350816],[-71.063282,42.350832],[-71.063309,42.350846],[-71.063293,42.350889],[-71.063327,42.3509],[-71.063386,42.350826]]],[[[-71.063328,42.35044],[-71.063297,42.35043],[-71.063229,42.350522],[-71.063119,42.350753],[-71.063074,42.35081],[-71.063084,42.350829],[-71.06311,42.350821],[-71.063177,42.350732],[-71.063328,42.35044]]],[[[-71.063144,42.352238],[-71.063113,42.352228],[-71.063077,42.352285],[-71.063101,42.352292],[-71.063144,42.352238]]],[[[-71.063083,42.35225],[-71.063052,42.35224],[-71.063016,42.352297],[-71.06304,42.352304],[-71.063083,42.35225]]],[[[-71.062983,42.352253],[-71.062952,42.352243],[-71.062916,42.3523],[-71.06294,42.352307],[-71.062983,42.352253]]],[[[-71.062922,42.35222],[-71.062891,42.35221],[-71.062853,42.35227],[-71.062877,42.352277],[-71.062922,42.35222]]],[[[-71.062848,42.352215],[-71.062817,42.352205],[-71.062781,42.352262],[-71.062805,42.352269],[-71.062848,42.352215]]],[[[-71.062829,42.353302],[-71.062796,42.353292],[-71.062754,42.353358],[-71.062779,42.353366],[-71.062829,42.353302]]],[[[-71.062829,42.353214],[-71.062796,42.353204],[-71.062754,42.35327],[-71.062779,42.353278],[-71.062829,42.353214]]],[[[-71.062763,42.353207],[-71.06273,42.353197],[-71.062688,42.353263],[-71.062713,42.353271],[-71.062763,42.353207]]],[[[-71.062763,42.353306],[-71.062724,42.353294],[-71.062678,42.353366],[-71.062708,42.353375],[-71.062763,42.353306]]],[[[-71.062559,42.348354],[-71.062541,42.348334],[-71.062509,42.348339],[-71.062458,42.348421],[-71.062506,42.348428],[-71.062559,42.348354]]],[[[-71.062496,42.349373],[-71.06247,42.349344],[-71.062424,42.349351],[-71.062361,42.349432],[-71.062361,42.349456],[-71.0624,42.349475],[-71.06243,42.349466],[-71.062496,42.349373]]],[[[-71.062463,42.348557],[-71.062424,42.348545],[-71.062378,42.348617],[-71.062408,42.348626],[-71.062463,42.348557]]],[[[-71.062409,42.348373],[-71.062385,42.348346],[-71.062342,42.348353],[-71.062282,42.34843],[-71.062282,42.348452],[-71.062318,42.348469],[-71.062346,42.348461],[-71.062409,42.348373]]],[[[-71.062392,42.349323],[-71.062366,42.349294],[-71.06232,42.349301],[-71.062257,42.349382],[-71.062257,42.349406],[-71.062296,42.349425],[-71.062326,42.349416],[-71.062392,42.349323]]],[[[-71.062039,42.353752],[-71.062006,42.353742],[-71.061964,42.353808],[-71.061989,42.353816],[-71.062039,42.353752]]],[[[-71.062006,42.349306],[-71.061975,42.349296],[-71.061942,42.34935],[-71.061965,42.349357],[-71.062006,42.349306]]],[[[-71.061988,42.35386],[-71.061957,42.35385],[-71.061924,42.353904],[-71.061947,42.353911],[-71.061988,42.35386]]],[[[-71.061951,42.349438],[-71.06192,42.349428],[-71.061887,42.349482],[-71.06191,42.349489],[-71.061951,42.349438]]],[[[-71.061941,42.349548],[-71.061911,42.349515],[-71.061858,42.349523],[-71.061797,42.3496],[-71.061797,42.349628],[-71.061842,42.34965],[-71.061876,42.349639],[-71.061941,42.349548]]],[[[-71.061928,42.34988],[-71.061897,42.34987],[-71.061834,42.34997],[-71.061867,42.34997],[-71.061928,42.34988]]],[[[-71.061924,42.3537],[-71.061891,42.35369],[-71.061849,42.353756],[-71.061874,42.353764],[-71.061924,42.3537]]],[[[-71.061909,42.353825],[-71.061876,42.353815],[-71.061834,42.353881],[-71.061859,42.353889],[-71.061909,42.353825]]],[[[-71.061892,42.35],[-71.061861,42.34999],[-71.061774,42.350124],[-71.061807,42.350124],[-71.061892,42.35]]],[[[-71.061851,42.348312],[-71.061823,42.348281],[-71.061774,42.348288],[-71.061708,42.348373],[-71.061708,42.348398],[-71.061733,42.348416],[-71.061706,42.348465],[-71.061739,42.348465],[-71.061851,42.348312]]],[[[-71.061828,42.353783],[-71.061797,42.353773],[-71.061764,42.353827],[-71.061787,42.353834],[-71.061828,42.353783]]],[[[-71.061825,42.353653],[-71.061792,42.353643],[-71.06175,42.353709],[-71.061775,42.353717],[-71.061825,42.353653]]],[[[-71.061824,42.350155],[-71.061793,42.350145],[-71.061734,42.350244],[-71.061767,42.350244],[-71.061824,42.350155]]],[[[-71.061789,42.350292],[-71.061765,42.350265],[-71.061722,42.350272],[-71.061622,42.350407],[-71.061622,42.350432],[-71.061664,42.350453],[-71.061696,42.350443],[-71.061762,42.350359],[-71.061789,42.350292]]],[[[-71.061766,42.349666],[-71.061736,42.349633],[-71.061683,42.349641],[-71.061622,42.349718],[-71.061622,42.349746],[-71.061667,42.349768],[-71.061701,42.349757],[-71.061766,42.349666]]],[[[-71.061759,42.353607],[-71.061729,42.353574],[-71.061676,42.353582],[-71.061615,42.353659],[-71.061615,42.353687],[-71.06166,42.353709],[-71.061694,42.353698],[-71.061759,42.353607]]],[[[-71.061747,42.353738],[-71.061716,42.353728],[-71.061683,42.353782],[-71.061706,42.353789],[-71.061747,42.353738]]],[[[-71.061692,42.348648],[-71.061666,42.348619],[-71.06162,42.348626],[-71.061557,42.348707],[-71.061557,42.348731],[-71.061596,42.34875],[-71.061626,42.348741],[-71.061692,42.348648]]],[[[-71.061645,42.348297],[-71.061611,42.348259],[-71.061551,42.348268],[-71.061477,42.348364],[-71.061477,42.348395],[-71.061527,42.34842],[-71.061566,42.348408],[-71.061645,42.348297]]],[[[-71.061628,42.35355],[-71.061597,42.35354],[-71.061559,42.3536],[-71.061583,42.353607],[-71.061628,42.35355]]],[[[-71.06161,42.348837],[-71.061579,42.348827],[-71.061546,42.348881],[-71.061569,42.348888],[-71.06161,42.348837]]],[[[-71.061608,42.3485],[-71.061577,42.34849],[-71.061544,42.348544],[-71.061567,42.348551],[-71.061608,42.3485]]],[[[-71.061597,42.348184],[-71.061566,42.348174],[-71.061528,42.348234],[-71.061552,42.348241],[-71.061597,42.348184]]],[[[-71.061565,42.34867],[-71.061537,42.348639],[-71.061488,42.348646],[-71.061422,42.348731],[-71.061422,42.348756],[-71.061464,42.348777],[-71.061496,42.348767],[-71.061565,42.34867]]],[[[-71.061548,42.349568],[-71.061518,42.349535],[-71.061465,42.349543],[-71.061404,42.34962],[-71.061404,42.349648],[-71.061449,42.34967],[-71.061483,42.349659],[-71.061548,42.349568]]],[[[-71.061502,42.348854],[-71.061476,42.348825],[-71.06143,42.348832],[-71.061367,42.348913],[-71.061367,42.348937],[-71.061406,42.348956],[-71.061436,42.348947],[-71.061502,42.348854]]],[[[-71.061493,42.35095],[-71.061454,42.350938],[-71.061408,42.35101],[-71.061438,42.351019],[-71.061493,42.35095]]],[[[-71.061472,42.34815],[-71.061454,42.348118],[-71.061386,42.348108],[-71.061286,42.34822],[-71.061299,42.34827],[-71.061358,42.348281],[-71.061343,42.348301],[-71.06135,42.348327],[-71.061396,42.348327],[-71.06145,42.348257],[-71.061432,42.348226],[-71.061472,42.34815]]],[[[-71.06145,42.349534],[-71.06142,42.349501],[-71.061367,42.349509],[-71.061306,42.349586],[-71.061306,42.349614],[-71.061351,42.349636],[-71.061385,42.349625],[-71.06145,42.349534]]],[[[-71.061438,42.349255],[-71.061407,42.349245],[-71.061369,42.349305],[-71.061393,42.349312],[-71.061438,42.349255]]],[[[-71.061418,42.351122],[-71.061387,42.351112],[-71.061354,42.351156],[-71.061363,42.351173],[-71.061288,42.351323],[-71.061297,42.35134],[-71.061321,42.351333],[-71.061351,42.351294],[-71.06137,42.351245],[-71.061362,42.351229],[-71.061418,42.351122]]],[[[-71.061399,42.349052],[-71.061366,42.349042],[-71.061324,42.349108],[-71.061349,42.349116],[-71.061399,42.349052]]],[[[-71.061368,42.34943],[-71.061337,42.34942],[-71.061304,42.349474],[-71.061327,42.349481],[-71.061368,42.34943]]],[[[-71.061349,42.349228],[-71.061331,42.349208],[-71.061299,42.349213],[-71.061248,42.349295],[-71.061296,42.349302],[-71.061349,42.349228]]],[[[-71.061282,42.34963],[-71.061251,42.34962],[-71.061194,42.349725],[-71.061228,42.349725],[-71.061282,42.34963]]],[[[-71.061244,42.35337],[-71.061213,42.35336],[-71.06118,42.353414],[-71.061203,42.353421],[-71.061244,42.35337]]],[[[-71.061238,42.354774],[-71.061207,42.354764],[-71.061174,42.354818],[-71.061197,42.354825],[-71.061238,42.354774]]],[[[-71.061222,42.34983],[-71.061196,42.349801],[-71.06115,42.349808],[-71.061087,42.349889],[-71.061087,42.349913],[-71.061126,42.349932],[-71.061156,42.349923],[-71.061222,42.34983]]],[[[-71.061188,42.354916],[-71.061157,42.354906],[-71.061124,42.35496],[-71.061147,42.354967],[-71.061188,42.354916]]],[[[-71.061188,42.353344],[-71.061157,42.353334],[-71.061124,42.353388],[-71.061147,42.353395],[-71.061188,42.353344]]],[[[-71.061156,42.35003],[-71.061124,42.349995],[-71.061067,42.350003],[-71.060996,42.350095],[-71.060996,42.350124],[-71.061044,42.350148],[-71.06108,42.350136],[-71.061156,42.35003]]],[[[-71.061138,42.35332],[-71.061107,42.35331],[-71.061074,42.353364],[-71.061097,42.353371],[-71.061138,42.35332]]],[[[-71.061048,42.353275],[-71.061017,42.353265],[-71.060979,42.353325],[-71.061003,42.353332],[-71.061048,42.353275]]],[[[-71.061038,42.34849],[-71.061007,42.34848],[-71.060974,42.348534],[-71.060997,42.348541],[-71.061038,42.34849]]],[[[-71.061032,42.348602],[-71.061017,42.348575],[-71.06096,42.348567],[-71.060872,42.348667],[-71.060883,42.348708],[-71.060837,42.348784],[-71.060848,42.348828],[-71.060807,42.348886],[-71.060816,42.34892],[-71.060876,42.34892],[-71.060939,42.348839],[-71.060939,42.348815],[-71.061005,42.348717],[-71.060978,42.348683],[-71.061032,42.348602]]],[[[-71.060988,42.353363],[-71.060957,42.353353],[-71.060924,42.353407],[-71.060947,42.353414],[-71.060988,42.353363]]],[[[-71.060938,42.35322],[-71.060907,42.35321],[-71.060874,42.353264],[-71.060897,42.353271],[-71.060938,42.35322]]],[[[-71.060923,42.35333],[-71.060892,42.35332],[-71.060856,42.353377],[-71.06088,42.353384],[-71.060923,42.35333]]],[[[-71.060862,42.353302],[-71.060831,42.353292],[-71.060798,42.353346],[-71.060821,42.353353],[-71.060862,42.353302]]],[[[-71.060847,42.349174],[-71.060803,42.349125],[-71.060725,42.349137],[-71.060636,42.34925],[-71.060636,42.349291],[-71.060702,42.349323],[-71.060753,42.349308],[-71.060847,42.349174]]],[[[-71.060733,42.34939],[-71.060703,42.349357],[-71.060665,42.349357],[-71.060639,42.349376],[-71.060589,42.349442],[-71.060601,42.349492],[-71.060543,42.349569],[-71.060553,42.349608],[-71.060588,42.349618],[-71.060633,42.349596],[-71.060691,42.34952],[-71.060679,42.34947],[-71.060733,42.34939]]],[[[-71.060628,42.34926],[-71.060597,42.34925],[-71.060564,42.349294],[-71.060524,42.349376],[-71.060533,42.349393],[-71.060494,42.349441],[-71.060503,42.349458],[-71.060481,42.34949],[-71.060491,42.349507],[-71.06044,42.34959],[-71.060449,42.349607],[-71.060424,42.349674],[-71.060433,42.349691],[-71.060457,42.349684],[-71.060487,42.349645],[-71.060505,42.34955],[-71.060537,42.349508],[-71.060527,42.349491],[-71.060557,42.349412],[-71.060547,42.349395],[-71.060628,42.34926]]],[[[-71.060609,42.34967],[-71.060579,42.349637],[-71.060541,42.349637],[-71.060515,42.349656],[-71.060457,42.349733],[-71.060457,42.34976],[-71.060481,42.349779],[-71.060422,42.349857],[-71.060433,42.349898],[-71.06047,42.34991],[-71.060518,42.349886],[-71.060578,42.349807],[-71.060578,42.349777],[-71.06055,42.349757],[-71.060609,42.34967]]],[[[-71.060598,42.35304],[-71.060567,42.35303],[-71.060534,42.353084],[-71.060557,42.353091],[-71.060598,42.35304]]],[[[-71.060518,42.352997],[-71.060487,42.352987],[-71.060454,42.353041],[-71.060477,42.353048],[-71.060518,42.352997]]],[[[-71.060508,42.353283],[-71.060477,42.353273],[-71.060441,42.35333],[-71.060465,42.353337],[-71.060508,42.353283]]],[[[-71.060504,42.35315],[-71.060473,42.35314],[-71.06044,42.353194],[-71.060463,42.353201],[-71.060504,42.35315]]],[[[-71.060468,42.352974],[-71.060437,42.352964],[-71.060401,42.353021],[-71.060425,42.353028],[-71.060468,42.352974]]],[[[-71.060428,42.3531],[-71.060397,42.35309],[-71.060364,42.353144],[-71.060387,42.353151],[-71.060428,42.3531]]],[[[-71.060419,42.353405],[-71.060418,42.35338],[-71.0604,42.353367],[-71.060352,42.353385],[-71.060292,42.353462],[-71.060298,42.353495],[-71.060356,42.353493],[-71.060419,42.353405]]],[[[-71.060388,42.349884],[-71.060357,42.349874],[-71.060321,42.349931],[-71.060345,42.349938],[-71.060388,42.349884]]],[[[-71.060374,42.35307],[-71.060343,42.35306],[-71.06031,42.353114],[-71.060333,42.353121],[-71.060374,42.35307]]],[[[-71.060318,42.350037],[-71.060287,42.350027],[-71.060254,42.350081],[-71.060277,42.350088],[-71.060318,42.350037]]],[[[-71.060314,42.35015],[-71.06029,42.35012],[-71.060297,42.3501],[-71.060273,42.350093],[-71.06017,42.350202],[-71.06017,42.35023],[-71.060215,42.350252],[-71.060249,42.350241],[-71.060314,42.35015]]],[[[-71.060174,42.34947],[-71.06015,42.349443],[-71.060099,42.349459],[-71.060047,42.349527],[-71.060056,42.349558],[-71.059968,42.349699],[-71.059975,42.349727],[-71.060001,42.349735],[-71.060034,42.349719],[-71.060083,42.349654],[-71.060075,42.349625],[-71.060174,42.34947]]],[[[-71.060158,42.352962],[-71.060127,42.352952],[-71.060094,42.353006],[-71.060117,42.353013],[-71.060158,42.352962]]],[[[-71.060105,42.35341],[-71.060077,42.353379],[-71.060028,42.353386],[-71.059962,42.353471],[-71.059962,42.353496],[-71.060004,42.353517],[-71.060036,42.353507],[-71.060105,42.35341]]],[[[-71.059972,42.351044],[-71.059946,42.351015],[-71.0599,42.351022],[-71.059837,42.351103],[-71.059845,42.351135],[-71.059808,42.351198],[-71.059832,42.35121],[-71.059856,42.351198],[-71.059972,42.351044]]],[[[-71.059858,42.3533],[-71.059827,42.35329],[-71.059794,42.353344],[-71.059817,42.353351],[-71.059858,42.3533]]],[[[-71.059822,42.35326],[-71.059796,42.353231],[-71.05975,42.353238],[-71.059687,42.353319],[-71.059687,42.353343],[-71.059726,42.353362],[-71.059756,42.353353],[-71.059822,42.35326]]],[[[-71.059758,42.352753],[-71.059727,42.352743],[-71.059691,42.3528],[-71.059715,42.352807],[-71.059758,42.352753]]],[[[-71.059688,42.352737],[-71.059657,42.352727],[-71.059621,42.352784],[-71.059645,42.352791],[-71.059688,42.352737]]],[[[-71.059669,42.354954],[-71.059651,42.354934],[-71.059619,42.354939],[-71.059568,42.355021],[-71.059616,42.355028],[-71.059669,42.354954]]],[[[-71.059649,42.35171],[-71.059634,42.351685],[-71.059581,42.351677],[-71.059544,42.35171],[-71.059511,42.3517],[-71.059469,42.351766],[-71.059503,42.351767],[-71.059505,42.35179],[-71.059531,42.351809],[-71.059568,42.351809],[-71.059649,42.35171]]],[[[-71.059634,42.35273],[-71.059616,42.352717],[-71.059574,42.352757],[-71.05954,42.352747],[-71.059506,42.352758],[-71.059445,42.352835],[-71.059445,42.352863],[-71.05949,42.352885],[-71.059524,42.352874],[-71.059634,42.35273]]],[[[-71.059622,42.35492],[-71.059573,42.354873],[-71.059538,42.354868],[-71.059473,42.354943],[-71.059473,42.354961],[-71.05952,42.354999],[-71.059555,42.355004],[-71.059622,42.35492]]],[[[-71.059562,42.3516],[-71.059542,42.351578],[-71.059507,42.351583],[-71.059453,42.351671],[-71.059483,42.351686],[-71.059506,42.351679],[-71.059562,42.3516]]],[[[-71.059518,42.351097],[-71.059487,42.351087],[-71.059454,42.351141],[-71.059477,42.351148],[-71.059518,42.351097]]],[[[-71.059482,42.354813],[-71.059462,42.354791],[-71.059427,42.354796],[-71.059373,42.354884],[-71.059403,42.354899],[-71.059426,42.354892],[-71.059482,42.354813]]],[[[-71.059478,42.35117],[-71.059447,42.35116],[-71.059414,42.351214],[-71.059437,42.351221],[-71.059478,42.35117]]],[[[-71.059456,42.351627],[-71.05943,42.351608],[-71.059406,42.35162],[-71.059238,42.35184],[-71.05928,42.35184],[-71.059321,42.351774],[-71.059344,42.351764],[-71.059456,42.351627]]],[[[-71.059432,42.354774],[-71.059389,42.354714],[-71.05935,42.354709],[-71.059279,42.354798],[-71.059289,42.354816],[-71.059326,42.354822],[-71.05933,42.354853],[-71.059365,42.354858],[-71.059432,42.354774]]],[[[-71.059428,42.3531],[-71.059397,42.35309],[-71.059364,42.353144],[-71.059387,42.353151],[-71.059428,42.3531]]],[[[-71.059418,42.35301],[-71.059387,42.353],[-71.059354,42.353054],[-71.059377,42.353061],[-71.059418,42.35301]]],[[[-71.059219,42.35129],[-71.059187,42.351235],[-71.059144,42.351205],[-71.05911,42.351194],[-71.059076,42.351205],[-71.059003,42.351306],[-71.059033,42.35134],[-71.059081,42.351335],[-71.059033,42.351433],[-71.059057,42.351463],[-71.058973,42.351578],[-71.058945,42.351585],[-71.05873,42.351818],[-71.058688,42.351825],[-71.058576,42.351954],[-71.058491,42.351968],[-71.058433,42.352041],[-71.058397,42.35205],[-71.058357,42.352087],[-71.058321,42.352144],[-71.058367,42.352178],[-71.058416,42.352171],[-71.058449,42.35213],[-71.058506,42.352108],[-71.058585,42.351999],[-71.058636,42.351985],[-71.058733,42.35188],[-71.058826,42.351821],[-71.05892,42.351699],[-71.058954,42.351679],[-71.059095,42.351467],[-71.059185,42.351371],[-71.059185,42.351343],[-71.059219,42.35129]]],[[[-71.059184,42.353294],[-71.059153,42.353284],[-71.05912,42.353338],[-71.059143,42.353345],[-71.059184,42.353294]]],[[[-71.059092,42.354385],[-71.059072,42.354363],[-71.059037,42.354368],[-71.058983,42.354456],[-71.059,42.354469],[-71.059036,42.354464],[-71.059092,42.354385]]],[[[-71.059088,42.353287],[-71.059057,42.353277],[-71.059024,42.353331],[-71.059047,42.353338],[-71.059088,42.353287]]],[[[-71.059018,42.354332],[-71.058987,42.354322],[-71.058954,42.354376],[-71.058977,42.354383],[-71.059018,42.354332]]],[[[-71.058998,42.353283],[-71.058967,42.353273],[-71.058934,42.353327],[-71.058957,42.353334],[-71.058998,42.353283]]],[[[-71.058959,42.35429],[-71.058926,42.35428],[-71.058884,42.354346],[-71.058909,42.354354],[-71.058959,42.35429]]],[[[-71.058864,42.353268],[-71.058833,42.353258],[-71.0588,42.353312],[-71.058823,42.353319],[-71.058864,42.353268]]],[[[-71.058758,42.353268],[-71.058727,42.353258],[-71.058694,42.353312],[-71.058717,42.353319],[-71.058758,42.353268]]],[[[-71.058568,42.35253],[-71.058537,42.35252],[-71.058504,42.352574],[-71.058527,42.352581],[-71.058568,42.35253]]],[[[-71.058508,42.352524],[-71.058477,42.352514],[-71.058444,42.352568],[-71.058467,42.352575],[-71.058508,42.352524]]],[[[-71.058499,42.35248],[-71.058466,42.35247],[-71.058426,42.352522],[-71.058393,42.352523],[-71.058361,42.352575],[-71.058385,42.352582],[-71.058424,42.352537],[-71.058449,42.352544],[-71.058499,42.35248]]],[[[-71.058388,42.35247],[-71.058357,42.35246],[-71.058284,42.352564],[-71.058317,42.352564],[-71.058388,42.35247]]],[[[-71.058288,42.35091],[-71.058257,42.3509],[-71.058224,42.350954],[-71.058247,42.350961],[-71.058288,42.35091]]],[[[-71.058278,42.352467],[-71.058247,42.352457],[-71.058214,42.352501],[-71.058223,42.352518],[-71.058204,42.352556],[-71.058237,42.352556],[-71.058267,42.352517],[-71.058257,42.3525],[-71.058278,42.352467]]],[[[-71.058218,42.350887],[-71.058187,42.350877],[-71.058154,42.350931],[-71.058177,42.350938],[-71.058218,42.350887]]],[[[-71.058038,42.352665],[-71.058007,42.352655],[-71.057974,42.352709],[-71.057997,42.352716],[-71.058038,42.352665]]],[[[-71.058032,42.352768],[-71.058001,42.352758],[-71.057968,42.352812],[-71.057991,42.352819],[-71.058032,42.352768]]],[[[-71.058008,42.352905],[-71.057977,42.352895],[-71.057944,42.352949],[-71.057967,42.352956],[-71.058008,42.352905]]],[[[-71.057803,42.350693],[-71.057772,42.350683],[-71.057739,42.350737],[-71.057762,42.350744],[-71.057803,42.350693]]],[[[-71.057758,42.350677],[-71.057727,42.350667],[-71.057694,42.350721],[-71.057717,42.350728],[-71.057758,42.350677]]],[[[-71.05775,42.352226],[-71.057714,42.352208],[-71.057657,42.352289],[-71.057691,42.3523],[-71.05775,42.352226]]],[[[-71.057623,42.35219],[-71.057605,42.35217],[-71.057573,42.352175],[-71.057522,42.352257],[-71.05757,42.352264],[-71.057623,42.35219]]],[[[-71.057536,42.35216],[-71.0575,42.352142],[-71.057443,42.352223],[-71.057477,42.352234],[-71.057536,42.35216]]],[[[-71.057456,42.35214],[-71.05742,42.352122],[-71.057363,42.352203],[-71.057397,42.352214],[-71.057456,42.35214]]],[[[-71.057414,42.350403],[-71.057383,42.350393],[-71.05735,42.350447],[-71.057373,42.350454],[-71.057414,42.350403]]],[[[-71.057398,42.350494],[-71.057367,42.350484],[-71.057334,42.350538],[-71.057357,42.350545],[-71.057398,42.350494]]],[[[-71.057369,42.35211],[-71.057351,42.35209],[-71.057319,42.352095],[-71.057268,42.352177],[-71.057316,42.352184],[-71.057369,42.35211]]],[[[-71.057348,42.351707],[-71.057317,42.351697],[-71.057281,42.351744],[-71.057291,42.351761],[-71.057274,42.351794],[-71.057307,42.351794],[-71.057337,42.351755],[-71.057327,42.351738],[-71.057348,42.351707]]],[[[-71.057309,42.351897],[-71.057278,42.351887],[-71.057245,42.351931],[-71.057246,42.352003],[-71.057297,42.35196],[-71.057287,42.351943],[-71.057309,42.351897]]],[[[-71.057298,42.350925],[-71.057267,42.350915],[-71.057229,42.350975],[-71.057253,42.350982],[-71.057298,42.350925]]],[[[-71.057268,42.351063],[-71.057237,42.351053],[-71.057199,42.351113],[-71.057223,42.35112],[-71.057268,42.351063]]],[[[-71.057208,42.35141],[-71.057177,42.3514],[-71.057144,42.351454],[-71.057167,42.351461],[-71.057208,42.35141]]],[[[-71.057198,42.35055],[-71.057167,42.35054],[-71.057134,42.350594],[-71.057157,42.350601],[-71.057198,42.35055]]],[[[-71.057147,42.350632],[-71.057116,42.350622],[-71.057083,42.350676],[-71.057106,42.350683],[-71.057147,42.350632]]],[[[-71.057094,42.350533],[-71.057063,42.350523],[-71.05703,42.350577],[-71.057053,42.350584],[-71.057094,42.350533]]],[[[-71.057038,42.34984],[-71.057007,42.34983],[-71.056913,42.349956],[-71.05692,42.349982],[-71.056943,42.349989],[-71.056973,42.349974],[-71.05702,42.349912],[-71.057013,42.349886],[-71.057038,42.34984]]],[[[-71.056868,42.352028],[-71.056837,42.352018],[-71.056797,42.352081],[-71.056821,42.352088],[-71.056868,42.352028]]],[[[-71.056834,42.35023],[-71.056803,42.35022],[-71.05677,42.350274],[-71.056793,42.350281],[-71.056834,42.35023]]],[[[-71.056829,42.34976],[-71.056818,42.34974],[-71.056775,42.349733],[-71.056702,42.349817],[-71.056711,42.349848],[-71.056585,42.350058],[-71.056595,42.350097],[-71.056558,42.350145],[-71.056566,42.350169],[-71.056513,42.350238],[-71.05652,42.350264],[-71.056566,42.350264],[-71.05662,42.350194],[-71.056613,42.350168],[-71.056725,42.35002],[-71.056725,42.349992],[-71.05677,42.349929],[-71.056759,42.34989],[-71.056829,42.34976]]],[[[-71.056798,42.350307],[-71.056767,42.350297],[-71.056734,42.350351],[-71.056757,42.350358],[-71.056798,42.350307]]],[[[-71.056748,42.351994],[-71.056717,42.351984],[-71.056679,42.352044],[-71.056703,42.352051],[-71.056748,42.351994]]],[[[-71.056643,42.350613],[-71.056612,42.350603],[-71.056537,42.350733],[-71.056571,42.350733],[-71.056643,42.350613]]],[[[-71.056626,42.353203],[-71.05659,42.353185],[-71.056533,42.353266],[-71.056567,42.353277],[-71.056626,42.353203]]],[[[-71.056559,42.353165],[-71.056526,42.353155],[-71.056484,42.353221],[-71.056509,42.353229],[-71.056559,42.353165]]],[[[-71.056559,42.350834],[-71.056529,42.350801],[-71.056476,42.350809],[-71.056415,42.350886],[-71.056415,42.350914],[-71.05646,42.350936],[-71.056494,42.350925],[-71.056559,42.350834]]],[[[-71.056484,42.353127],[-71.056451,42.353117],[-71.056409,42.353183],[-71.056434,42.353191],[-71.056484,42.353127]]],[[[-71.056468,42.35192],[-71.056437,42.35191],[-71.056397,42.351973],[-71.056421,42.35198],[-71.056468,42.35192]]],[[[-71.056428,42.35103],[-71.056397,42.35102],[-71.056364,42.351074],[-71.056387,42.351081],[-71.056428,42.35103]]],[[[-71.056398,42.351097],[-71.056367,42.351087],[-71.056327,42.35115],[-71.056351,42.351157],[-71.056398,42.351097]]],[[[-71.056393,42.35309],[-71.056354,42.353078],[-71.056308,42.35315],[-71.056338,42.353159],[-71.056393,42.35309]]],[[[-71.056388,42.3519],[-71.056357,42.35189],[-71.056326,42.351941],[-71.05635,42.351948],[-71.056388,42.3519]]],[[[-71.056364,42.351176],[-71.056333,42.351166],[-71.0563,42.35122],[-71.056323,42.351227],[-71.056364,42.351176]]],[[[-71.056338,42.35493],[-71.056307,42.35492],[-71.056267,42.354983],[-71.056291,42.35499],[-71.056338,42.35493]]],[[[-71.056328,42.354836],[-71.056297,42.354826],[-71.056257,42.354889],[-71.056281,42.354896],[-71.056328,42.354836]]],[[[-71.056309,42.35475],[-71.056276,42.35474],[-71.056234,42.354806],[-71.056259,42.354814],[-71.056309,42.35475]]],[[[-71.056306,42.35467],[-71.05627,42.354652],[-71.056213,42.354733],[-71.056247,42.354744],[-71.056306,42.35467]]],[[[-71.056258,42.351376],[-71.056227,42.351366],[-71.056141,42.351497],[-71.056175,42.351497],[-71.056258,42.351376]]],[[[-71.056256,42.350842],[-71.056225,42.350832],[-71.056185,42.350895],[-71.056209,42.350902],[-71.056256,42.350842]]],[[[-71.056248,42.35305],[-71.056217,42.35304],[-71.056184,42.353094],[-71.056207,42.353101],[-71.056248,42.35305]]],[[[-71.056226,42.350933],[-71.056195,42.350923],[-71.056155,42.350986],[-71.056179,42.350993],[-71.056226,42.350933]]],[[[-71.056186,42.351036],[-71.056155,42.351026],[-71.056115,42.351089],[-71.056139,42.351096],[-71.056186,42.351036]]],[[[-71.056148,42.351145],[-71.056117,42.351135],[-71.056077,42.351198],[-71.056101,42.351205],[-71.056148,42.351145]]],[[[-71.056078,42.35171],[-71.056047,42.3517],[-71.056011,42.351757],[-71.056035,42.351764],[-71.056078,42.35171]]],[[[-71.055977,42.351355],[-71.055946,42.351345],[-71.055906,42.351397],[-71.055882,42.351454],[-71.055891,42.351472],[-71.055849,42.351524],[-71.055859,42.351542],[-71.055883,42.351535],[-71.055919,42.351487],[-71.05591,42.35147],[-71.055977,42.351355]]],[[[-71.055888,42.351561],[-71.055857,42.351551],[-71.055788,42.351675],[-71.055822,42.351675],[-71.055888,42.351561]]],[[[-71.055869,42.352226],[-71.055839,42.352193],[-71.055786,42.352201],[-71.055691,42.352328],[-71.055691,42.352356],[-71.055736,42.352378],[-71.05577,42.352367],[-71.055869,42.352226]]],[[[-71.055808,42.351727],[-71.055777,42.351717],[-71.055737,42.351769],[-71.055717,42.351829],[-71.055751,42.351829],[-71.055808,42.351727]]],[[[-71.055788,42.353336],[-71.055768,42.353314],[-71.055733,42.353319],[-71.055641,42.353421],[-71.055612,42.35342],[-71.05557,42.353486],[-71.055595,42.353494],[-71.055624,42.353462],[-71.055671,42.353468],[-71.055707,42.353422],[-71.055739,42.353407],[-71.055788,42.353336]]],[[[-71.055558,42.353497],[-71.05554,42.353484],[-71.055497,42.353526],[-71.055473,42.353518],[-71.055431,42.353577],[-71.055455,42.353584],[-71.055487,42.353549],[-71.055511,42.353557],[-71.055558,42.353497]]],[[[-71.055262,42.353653],[-71.055244,42.35364],[-71.055189,42.353657],[-71.055108,42.35376],[-71.055138,42.353769],[-71.055186,42.353746],[-71.055262,42.353653]]]]},"properties":{"kind":"tree"}}]}