{"type":"FeatureCollection","features":[{"type":"Feature","geometry":{"type":"MultiPolygon","coordinates":[[[[-71.06703,42.351826],[-71.067007,42.351692],[-71.066747,42.351106],[-71.065744,42.351224],[-71.065991,42.350995],[-71.065959,42.350666],[-71.065899,42.350665],[-71.065953,42.350615],[-71.06593,42.350327],[-71.065791,42.350335],[-71.065916,42.350219],[-71.065881,42.34989],[-71.065821,42.349821],[-71.065901,42.349755],[-71.065908,42.349767],[-71.065994,42.34974],[-71.066095,42.349646],[-71.066039,42.349546],[-71.066107,42.349483],[-71.066051,42.349385],[-71.065989,42.349405],[-71.06591,42.349478],[-71.06562,42.349445],[-71.065521,42.349461],[-71.065334,42.349634],[-71.065244,42.350054],[-71.065004,42.350277],[-71.064916,42.350587],[-71.065168,42.350625],[-71.065161,42.35065],[-71.065205,42.350657],[-71.064687,42.351137],[-71.064667,42.351207],[-71.064569,42.351193],[-71.064822,42.350958],[-71.064902,42.350642],[-71.06489,42.350637],[-71.065001,42.350248],[-71.064908,42.350215],[-71.065043,42.35009],[-71.065169,42.349617],[-71.064433,42.349504],[-71.064607,42.349409],[-71.064679,42.349431],[-71.064941,42.349308],[-71.065123,42.34914],[-71.06522,42.34913],[-71.065279,42.349075],[-71.06533,42.348887],[-71.065323,42.348802],[-71.065279,42.348688],[-71.064992,42.348617],[-71.064661,42.348576],[-71.064806,42.348442],[-71.064854,42.348347],[-71.06488,42.348366],[-71.064918,42.348342],[-71.065061,42.348506],[-71.065085,42.348494],[-71.065088,42.348513],[-71.065361,42.348458],[-71.065423,42.34841],[-71.065427,42.34839],[-71.065343,42.348296],[-71.065475,42.348175],[-71.065475,42.348101],[-71.065409,42.348027],[-71.06552,42.347941],[-71.065529,42.347903],[-71.065483,42.347819],[-71.065392,42.347805],[-71.065371,42.347781],[-71.065296,42.347784],[-71.065318,42.347764],[-71.065319,42.347677],[-71.065257,42.347643],[-71.064894,42.347587],[-71.064503,42.347783],[-71.064377,42.3479],[-71.064263,42.348162],[-71.064214,42.348337],[-71.06425,42.348343],[-71.064364,42.348297],[-71.064388,42.348329],[-71.064469,42.348289],[-71.064078,42.348652],[-71.064052,42.348746],[-71.06416,42.348762],[-71.064056,42.349062],[-71.064344,42.349106],[-71.06428,42.349165],[-71.064233,42.349272],[-71.064163,42.349345],[-71.064406,42.34951],[-71.064347,42.349565],[-71.063761,42.349475],[-71.063658,42.349377],[-71.063696,42.349342],[-71.063746,42.349213],[-71.063772,42.349073],[-71.063736,42.349067],[-71.063827,42.348879],[-71.063945,42.348463],[-71.063758,42.348434],[-71.063819,42.348377],[-71.063912,42.348391],[-71.06402,42.348291],[-71.064113,42.347947],[-71.063968,42.347919],[-71.063883,42.347989],[-71.063856,42.347985],[-71.063704,42.348126],[-71.063538,42.348106],[-71.063606,42.347866],[-71.06346,42.347843],[-71.063374,42.347923],[-71.063305,42.348177],[-71.063283,42.348197],[-71.063257,42.348293],[-71.063604,42.348345],[-71.063638,42.348415],[-71.063623,42.348413],[-71.063418,42.348603],[-71.063476,42.348381],[-71.063154,42.348332],[-71.063229,42.348263],[-71.063253,42.34818],[-71.06323,42.348148],[-71.063206,42.348144],[-71.06328,42.348076],[-71.063299,42.348007],[-71.062961,42.347921],[-71.062891,42.347986],[-71.062855,42.347962],[-71.062735,42.347939],[-71.062631,42.348034],[-71.062588,42.348146],[-71.062615,42.348155],[-71.062553,42.348213],[-71.062526,42.348281],[-71.062565,42.348286],[-71.062426,42.348415],[-71.06227,42.348809],[-71.062326,42.348819],[-71.062233,42.348916],[-71.062067,42.349314],[-71.062069,42.34933],[-71.062116,42.349355],[-71.06192,42.349537],[-71.061906,42.349568],[-71.061929,42.349613],[-71.061783,42.349964],[-71.061823,42.34998],[-71.061621,42.350167],[-71.061778,42.349762],[-71.06172,42.349738],[-71.061812,42.349653],[-71.061975,42.34927],[-71.061808,42.349235],[-71.061839,42.34916],[-71.061745,42.349139],[-71.061716,42.34916],[-71.061783,42.348996],[-71.061766,42.348992],[-71.061895,42.34873],[-71.061814,42.348712],[-71.061869,42.348575],[-71.062153,42.348641],[-71.062216,42.348582],[-71.06226,42.348505],[-71.062367,42.34823],[-71.062255,42.348206],[-71.062147,42.348306],[-71.062103,42.348418],[-71.061947,42.348382],[-71.061975,42.348313],[-71.062109,42.348322],[-71.062411,42.348042],[-71.062446,42.347953],[-71.061926,42.347827],[-71.061692,42.348042],[-71.061866,42.34764],[-71.061712,42.347604],[-71.061338,42.34795],[-71.06123,42.348208],[-71.061184,42.348198],[-71.061026,42.348354],[-71.060994,42.348458],[-71.061004,42.34846],[-71.06091,42.348712],[-71.061026,42.348742],[-71.061127,42.348648],[-71.061186,42.348505],[-71.061241,42.348518],[-71.061284,42.348478],[-71.061264,42.348526],[-71.061297,42.348567],[-71.06116,42.348684],[-71.061116,42.348791],[-71.060991,42.348928],[-71.060878,42.348902],[-71.060776,42.348996],[-71.060655,42.349327],[-71.060884,42.349417],[-71.060906,42.349397],[-71.060895,42.349424],[-71.061101,42.349516],[-71.061196,42.349428],[-71.061244,42.349357],[-71.061217,42.349346],[-71.061269,42.349298],[-71.061384,42.349005],[-71.061345,42.348996],[-71.061377,42.348967],[-71.061436,42.348818],[-71.061405,42.348795],[-71.061479,42.348726],[-71.061594,42.348433],[-71.06164,42.348359],[-71.06142,42.348309],[-71.061612,42.348131],[-71.061576,42.348223],[-71.061783,42.348269],[-71.06158,42.348772],[-71.061511,42.348836],[-71.061417,42.349094],[-71.061411,42.349148],[-71.061352,42.349281],[-71.061268,42.349367],[-71.061153,42.349651],[-71.061151,42.349671],[-71.061181,42.349685],[-71.061003,42.34985],[-71.060947,42.349989],[-71.060509,42.349891],[-71.060088,42.350281],[-71.060059,42.350351],[-71.060014,42.350338],[-71.060226,42.350142],[-71.060327,42.349891],[-71.06028,42.349827],[-71.060367,42.349747],[-71.060567,42.349259],[-71.060445,42.349112],[-71.060786,42.348796],[-71.061068,42.348118],[-71.061011,42.348097],[-71.060427,42.348638],[-71.060159,42.349006],[-71.059965,42.34928],[-71.060061,42.349304],[-71.059737,42.349604],[-71.05962,42.349867],[-71.059495,42.350205],[-71.059471,42.35018],[-71.059047,42.350086],[-71.058996,42.350102],[-71.05881,42.350274],[-71.058503,42.351033],[-71.058535,42.351069],[-71.058563,42.351076],[-71.058479,42.351153],[-71.058208,42.351831],[-71.058404,42.351874],[-71.058746,42.351554],[-71.058901,42.35136],[-71.059024,42.351136],[-71.059198,42.350975],[-71.059353,42.350593],[-71.059642,42.350683],[-71.059681,42.350647],[-71.05966,42.350721],[-71.05987,42.350766],[-71.059896,42.350742],[-71.059945,42.350752],[-71.060019,42.350684],[-71.06004,42.35063],[-71.060021,42.350626],[-71.060025,42.350615],[-71.060119,42.350642],[-71.059842,42.351281],[-71.059758,42.351262],[-71.059566,42.35144],[-71.059517,42.351569],[-71.059527,42.351627],[-71.059511,42.351642],[-71.05954,42.351816],[-71.059386,42.351848],[-71.059199,42.352022],[-71.059026,42.352083],[-71.058906,42.352152],[-71.058494,42.352534],[-71.058142,42.35255],[-71.058071,42.352594],[-71.057784,42.35286],[-71.057796,42.352781],[-71.057703,42.352739],[-71.057647,42.352734],[-71.05756,42.352748],[-71.057298,42.352899],[-71.057163,42.352943],[-71.056455,42.353594],[-71.056368,42.353637],[-71.05666,42.353366],[-71.056638,42.353263],[-71.056242,42.353099],[-71.055998,42.353225],[-71.055906,42.353311],[-71.055897,42.353294],[-71.055573,42.353469],[-71.055372,42.353634],[-71.056027,42.353014],[-71.056393,42.352916],[-71.056859,42.352484],[-71.05694,42.352364],[-71.057,42.352232],[-71.056886,42.352203],[-71.057049,42.352052],[-71.057006,42.352285],[-71.057658,42.35249],[-71.057673,42.352491],[-71.057949,42.352238],[-71.058115,42.351737],[-71.058103,42.35172],[-71.058064,42.351714],[-71.058131,42.351651],[-71.058414,42.350953],[-71.058133,42.350883],[-71.058152,42.350866],[-71.058365,42.350917],[-71.058459,42.35083],[-71.058581,42.350557],[-71.058587,42.350541],[-71.058574,42.350538],[-71.058706,42.35021],[-71.058767,42.350099],[-71.058776,42.350034],[-71.058372,42.349945],[-71.058254,42.350054],[-71.058289,42.349924],[-71.058093,42.349885],[-71.058297,42.349696],[-71.058424,42.349376],[-71.057926,42.349266],[-71.057844,42.349342],[-71.057777,42.349509],[-71.057856,42.349526],[-71.057721,42.34965],[-71.057631,42.349873],[-71.057445,42.350046],[-71.057505,42.349748],[-71.057133,42.349667],[-71.056792,42.349983],[-71.056691,42.350214],[-71.05676,42.350232],[-71.056751,42.350254],[-71.056676,42.350323],[-71.056554,42.350577],[-71.056439,42.350684],[-71.056414,42.350727],[-71.056434,42.350782],[-71.056493,42.350814],[-71.056366,42.351068],[-71.056403,42.351077],[-71.05633,42.351145],[-71.056202,42.351416],[-71.055953,42.351647],[-71.055738,42.352081],[-71.055933,42.352132],[-71.055474,42.352559],[-71.055457,42.352594],[-71.05432,42.353648],[-71.054243,42.353812],[-71.054727,42.353933],[-71.054378,42.354122],[-71.053298,42.355123],[-71.053275,42.355163],[-71.053278,42.35519],[-71.053539,42.355472],[-71.053606,42.355486],[-71.053656,42.35547],[-71.054982,42.354254],[-71.055128,42.354155],[-71.055165,42.354193],[-71.055242,42.354178],[-71.055372,42.35412],[-71.054966,42.354495],[-71.054951,42.354482],[-71.054424,42.354968],[-71.054452,42.354995],[-71.05418,42.355247],[-71.054195,42.35526],[-71.054075,42.35537],[-71.054074,42.355408],[-71.054235,42.355556],[-71.054285,42.35556],[-71.0547,42.355318],[-71.055087,42.354959],[-71.055227,42.354876],[-71.055296,42.354812],[-71.05533,42.354802],[-71.055359,42.35488],[-71.055403,42.354873],[-71.054921,42.355319],[-71.054949,42.355478],[-71.054057,42.356306],[-71.054163,42.356884],[-71.054615,42.35684],[-71.055477,42.356041],[-71.055578,42.356031],[-71.055581,42.356046],[-71.056364,42.355987],[-71.057349,42.355074],[-71.057329,42.354923],[-71.056964,42.354777],[-71.057535,42.354247],[-71.057711,42.35396],[-71.057795,42.353966],[-71.057736,42.35402],[-71.057677,42.354211],[-71.057687,42.354216],[-71.057338,42.354774],[-71.057728,42.354895],[-71.05852,42.354135],[-71.05848,42.354109],[-71.059213,42.35342],[-71.05922,42.353403],[-71.059185,42.353377],[-71.059306,42.353263],[-71.059329,42.353407],[-71.059382,42.353434],[-71.058318,42.35442],[-71.058368,42.354458],[-71.057643,42.355167],[-71.05764,42.35519],[-71.05772,42.355208],[-71.057787,42.355341],[-71.057914,42.355356],[-71.057977,42.355334],[-71.05876,42.354649],[-71.058952,42.354669],[-71.058337,42.35523],[-71.058341,42.355256],[-71.058619,42.355377],[-71.058133,42.355843],[-71.058207,42.355898],[-71.058499,42.356017],[-71.059466,42.355147],[-71.059855,42.355441],[-71.060069,42.355279],[-71.060379,42.355493],[-71.061121,42.354808],[-71.061856,42.354096],[-71.06193,42.354123],[-71.06158,42.354457],[-71.06142,42.354656],[-71.061471,42.354678],[-71.060835,42.355284],[-71.061148,42.355441],[-71.061494,42.355102],[-71.061604,42.355158],[-71.061593,42.355171],[-71.061859,42.355309],[-71.061871,42.355297],[-71.06201,42.355368],[-71.062184,42.355207],[-71.06229,42.35526],[-71.062244,42.355305],[-71.062334,42.355356],[-71.062429,42.355267],[-71.062446,42.355276],[-71.062426,42.355314],[-71.062455,42.355322],[-71.062447,42.355336],[-71.06247,42.355349],[-71.06269,42.355407],[-71.062762,42.35534],[-71.062907,42.355417],[-71.063162,42.355181],[-71.06318,42.355155],[-71.063158,42.355134],[-71.063255,42.355044],[-71.063852,42.353943],[-71.063862,42.353896],[-71.063834,42.353887],[-71.063915,42.353802],[-71.063985,42.353676],[-71.063998,42.353634],[-71.063974,42.353626],[-71.064052,42.353554],[-71.064097,42.353425],[-71.064022,42.353411],[-71.064146,42.353296],[-71.064266,42.352985],[-71.064309,42.35284],[-71.064281,42.352838],[-71.064309,42.352812],[-71.064353,42.352644],[-71.064601,42.352647],[-71.064594,42.352667],[-71.064659,42.352677],[-71.064687,42.352652],[-71.064728,42.352654],[-71.064727,42.352669],[-71.065145,42.352691],[-71.065271,42.352574],[-71.065362,42.352581],[-71.065346,42.352684],[-71.065543,42.352699],[-71.065735,42.352521],[-71.065743,42.352595],[-71.065839,42.3526],[-71.066063,42.352392],[-71.066072,42.352281],[-71.06615,42.352281],[-71.06627,42.352169],[-71.066272,42.352149],[-71.066519,42.352175],[-71.066702,42.35213],[-71.06703,42.351826]],[[-71.065716,42.349786],[-71.06566,42.349801],[-71.065674,42.349732],[-71.065716,42.349786]],[[-71.06473,42.35145],[-71.064621,42.351854],[-71.06467,42.351866],[-71.064558,42.35197],[-71.064616,42.351742],[-71.064565,42.351736],[-71.064631,42.351675],[-71.064664,42.351553],[-71.064616,42.351548],[-71.064671,42.351497],[-71.064689,42.351437],[-71.06473,42.35145]],[[-71.064638,42.348206],[-71.064625,42.348212],[-71.064633,42.348205],[-71.064638,42.348206]],[[-71.06449,42.348272],[-71.064479,42.348282],[-71.064489,42.348272],[-71.06449,42.348272]],[[-71.06442,42.352322],[-71.064363,42.352541],[-71.064373,42.352435],[-71.064327,42.352409],[-71.06442,42.352322]],[[-71.064075,42.350289],[-71.063971,42.350402],[-71.063903,42.350511],[-71.063865,42.350497],[-71.064075,42.350289]],[[-71.064055,42.351925],[-71.064008,42.351968],[-71.063857,42.351955],[-71.063908,42.351905],[-71.064055,42.351925]],[[-71.064028,42.351115],[-71.064001,42.351139],[-71.063934,42.351133],[-71.063918,42.351148],[-71.06339,42.351081],[-71.063572,42.350912],[-71.06368,42.350934],[-71.063648,42.350986],[-71.064028,42.351115]],[[-71.063704,42.353624],[-71.063314,42.353985],[-71.063284,42.35403],[-71.063253,42.354028],[-71.063522,42.353779],[-71.063641,42.353566],[-71.063678,42.353568],[-71.063662,42.353613],[-71.063704,42.353624]],[[-71.063579,42.350369],[-71.063539,42.350364],[-71.062985,42.350877],[-71.062854,42.351089],[-71.062873,42.351321],[-71.062898,42.351325],[-71.062899,42.351368],[-71.062846,42.351525],[-71.063287,42.351584],[-71.062895,42.351546],[-71.062656,42.351768],[-71.062678,42.351664],[-71.062606,42.351638],[-71.062728,42.351525],[-71.062859,42.351039],[-71.062716,42.351017],[-71.062951,42.350799],[-71.0631,42.350353],[-71.063279,42.350187],[-71.063327,42.350086],[-71.063579,42.350369]],[[-71.063358,42.352371],[-71.063315,42.352426],[-71.063313,42.35239],[-71.06333,42.352367],[-71.063358,42.352371]],[[-71.063242,42.348897],[-71.063216,42.348986],[-71.063074,42.348966],[-71.062931,42.349098],[-71.063026,42.348925],[-71.063187,42.348948],[-71.063242,42.348897]],[[-71.063183,42.348143],[-71.063159,42.348166],[-71.063039,42.348148],[-71.063071,42.348119],[-71.063183,42.348143]],[[-71.062991,42.3481],[-71.062979,42.348139],[-71.062886,42.348123],[-71.062776,42.348216],[-71.062761,42.348273],[-71.062686,42.348262],[-71.062876,42.348081],[-71.062991,42.3481]],[[-71.062805,42.354668],[-71.062798,42.354699],[-71.062715,42.354777],[-71.062631,42.354892],[-71.062569,42.354856],[-71.062773,42.354663],[-71.062805,42.354668]],[[-71.062545,42.349295],[-71.062457,42.349402],[-71.062391,42.349373],[-71.062449,42.349342],[-71.062515,42.349282],[-71.062545,42.349295]],[[-71.062502,42.350308],[-71.062434,42.350447],[-71.062212,42.350653],[-71.062502,42.350308]],[[-71.062458,42.35269],[-71.062442,42.352705],[-71.062443,42.352688],[-71.062458,42.35269]],[[-71.062425,42.353032],[-71.062424,42.35305],[-71.062301,42.353164],[-71.062282,42.353164],[-71.062425,42.353032]],[[-71.062377,42.349934],[-71.06235,42.349971],[-71.062217,42.349916],[-71.062284,42.349939],[-71.062322,42.349904],[-71.062377,42.349934]],[[-71.062224,42.354847],[-71.0622,42.354869],[-71.06207,42.354825],[-71.062105,42.354789],[-71.062224,42.354847]],[[-71.062137,42.350733],[-71.062128,42.350763],[-71.062031,42.350874],[-71.061995,42.350864],[-71.062137,42.350733]],[[-71.062131,42.349883],[-71.062098,42.349875],[-71.062103,42.349871],[-71.062131,42.349883]],[[-71.062007,42.351491],[-71.062002,42.351526],[-71.061955,42.351527],[-71.062005,42.35148],[-71.062007,42.351491]],[[-71.061608,42.350462],[-71.061582,42.350522],[-71.061406,42.350687],[-71.061333,42.350874],[-71.061448,42.350903],[-71.061409,42.35094],[-71.061377,42.35102],[-71.061406,42.351027],[-71.061407,42.351041],[-71.061348,42.35123],[-71.061106,42.351455],[-71.061049,42.351597],[-71.061041,42.351545],[-71.060962,42.351527],[-71.061098,42.351401],[-71.061227,42.351071],[-71.060769,42.350979],[-71.060567,42.351166],[-71.060442,42.351415],[-71.060388,42.351402],[-71.060283,42.351495],[-71.060236,42.35137],[-71.060345,42.351394],[-71.060469,42.351279],[-71.060595,42.350984],[-71.060568,42.350978],[-71.060747,42.35054],[-71.060638,42.350509],[-71.060828,42.350333],[-71.060909,42.350134],[-71.061054,42.350193],[-71.06082,42.35041],[-71.060731,42.350629],[-71.060828,42.350653],[-71.060764,42.350734],[-71.060777,42.35074],[-71.060722,42.350882],[-71.060938,42.35093],[-71.06108,42.350914],[-71.061074,42.350931],[-71.061194,42.350959],[-71.061321,42.350852],[-71.061346,42.350791],[-71.061356,42.350732],[-71.061279,42.350684],[-71.061484,42.350494],[-71.061576,42.350281],[-71.0616,42.35032],[-71.061551,42.350427],[-71.061608,42.350462]],[[-71.061388,42.35334],[-71.061156,42.353555],[-71.061135,42.353545],[-71.061166,42.353496],[-71.061155,42.35349],[-71.061293,42.353344],[-71.061388,42.35334]],[[-71.061359,42.352206],[-71.061085,42.35246],[-71.061125,42.352254],[-71.061114,42.352122],[-71.061222,42.352117],[-71.06124,42.352205],[-71.061359,42.352206]],[[-71.061097,42.351721],[-71.061071,42.351745],[-71.061068,42.351722],[-71.061097,42.351721]],[[-71.061075,42.349206],[-71.061033,42.349271],[-71.061017,42.349264],[-71.060991,42.349288],[-71.06102,42.349213],[-71.060909,42.349212],[-71.060995,42.349132],[-71.061004,42.349108],[-71.060947,42.349071],[-71.060973,42.349047],[-71.061022,42.349084],[-71.060975,42.349184],[-71.061075,42.349206]],[[-71.06088,42.352883],[-71.060852,42.352909],[-71.060789,42.353093],[-71.06047,42.353445],[-71.060487,42.353462],[-71.060045,42.353872],[-71.059675,42.354263],[-71.059218,42.354664],[-71.059161,42.354622],[-71.059145,42.354629],[-71.059094,42.354598],[-71.059912,42.353872],[-71.060133,42.353635],[-71.059812,42.353458],[-71.059871,42.353403],[-71.059997,42.353468],[-71.060313,42.353161],[-71.060506,42.353255],[-71.06088,42.352883]],[[-71.060449,42.351747],[-71.060392,42.351799],[-71.060367,42.351729],[-71.060449,42.351747]],[[-71.060372,42.352157],[-71.060316,42.352167],[-71.060271,42.352208],[-71.060118,42.352221],[-71.059844,42.352475],[-71.059887,42.352759],[-71.06012,42.352756],[-71.060125,42.352807],[-71.060154,42.352811],[-71.060093,42.352985],[-71.059657,42.352762],[-71.059553,42.352772],[-71.059363,42.352948],[-71.05933,42.352662],[-71.059536,42.352675],[-71.059748,42.352478],[-71.059716,42.352268],[-71.059869,42.352254],[-71.059994,42.352138],[-71.060327,42.352091],[-71.060347,42.352073],[-71.060372,42.352157]],[[-71.060149,42.351331],[-71.060142,42.351347],[-71.060133,42.351345],[-71.060149,42.351331]],[[-71.060111,42.351856],[-71.060056,42.351864],[-71.060002,42.351914],[-71.059962,42.351662],[-71.060025,42.351656],[-71.060044,42.351639],[-71.060111,42.351856]],[[-71.059964,42.351321],[-71.059956,42.351329],[-71.059958,42.35132],[-71.059964,42.351321]],[[-71.059799,42.353469],[-71.059788,42.353479],[-71.059782,42.353477],[-71.059799,42.353469]],[[-71.059379,42.353865],[-71.059255,42.354018],[-71.059195,42.354036],[-71.059379,42.353865]],[[-71.059252,42.352566],[-71.059161,42.352555],[-71.059239,42.352482],[-71.059252,42.352566]],[[-71.058997,42.354047],[-71.058973,42.35407],[-71.058989,42.354043],[-71.058997,42.354047]],[[-71.058064,42.350913],[-71.058033,42.350942],[-71.058042,42.350908],[-71.058064,42.350913]],[[-71.058021,42.350778],[-71.057997,42.35086],[-71.057945,42.350848],[-71.058021,42.350778]],[[-71.057725,42.349907],[-71.057486,42.350114],[-71.057454,42.350288],[-71.057385,42.350353],[-71.057315,42.35069],[-71.057209,42.350663],[-71.057348,42.350529],[-71.057441,42.350065],[-71.057463,42.350088],[-71.057504,42.350087],[-71.057705,42.349903],[-71.057725,42.349907]],[[-71.057403,42.350887],[-71.057314,42.350969],[-71.057165,42.35173],[-71.057215,42.351738],[-71.057115,42.351831],[-71.057141,42.351687],[-71.057031,42.351635],[-71.057156,42.351519],[-71.057287,42.350859],[-71.057403,42.350887]],[[-71.056722,42.351442],[-71.056701,42.351489],[-71.056681,42.35148],[-71.056722,42.351442]],[[-71.056564,42.354112],[-71.056542,42.354132],[-71.056482,42.354138],[-71.056564,42.354112]],[[-71.056388,42.354169],[-71.056188,42.354353],[-71.056368,42.354175],[-71.056388,42.354169]],[[-71.055736,42.353995],[-71.055672,42.354055],[-71.055589,42.353983],[-71.055504,42.354025],[-71.055608,42.353942],[-71.055736,42.353995]]],[[[-71.066483,42.348529],[-71.06591,42.348462],[-71.065995,42.348064],[-71.065837,42.348044],[-71.065517,42.348341],[-71.065432,42.348741],[-71.065499,42.34875],[-71.065476,42.348771],[-71.065461,42.34884],[-71.065557,42.348851],[-71.065653,42.348762],[-71.065668,42.348817],[-71.066206,42.34888],[-71.066458,42.348649],[-71.066483,42.348529]]],[[[-71.065565,42.354342],[-71.065534,42.354305],[-71.065469,42.354307],[-71.06537,42.354396],[-71.065365,42.354431],[-71.0654,42.35446],[-71.06546,42.354456],[-71.065558,42.354367],[-71.065565,42.354342]]],[[[-71.065421,42.352871],[-71.065303,42.352844],[-71.065259,42.352885],[-71.065242,42.352932],[-71.065268,42.353013],[-71.065334,42.353027],[-71.065378,42.352986],[-71.065421,42.352871]]],[[[-71.06461,42.353278],[-71.064542,42.353266],[-71.064509,42.353296],[-71.064475,42.353396],[-71.064543,42.35341],[-71.064576,42.35338],[-71.06461,42.353278]]],[[[-71.063935,42.354829],[-71.063869,42.354811],[-71.063815,42.354889],[-71.063881,42.354906],[-71.063935,42.354829]]],[[[-71.059318,42.349726],[-71.059179,42.349693],[-71.059132,42.349736],[-71.059058,42.349909],[-71.059197,42.349942],[-71.059244,42.349899],[-71.059318,42.349726]]],[[[-71.058071,42.348706],[-71.057613,42.348605],[-71.057192,42.348996],[-71.057108,42.349205],[-71.057567,42.349306],[-71.057988,42.348915],[-71.058071,42.348706]]],[[[-71.056775,42.349199],[-71.056596,42.349149],[-71.055487,42.349466],[-71.055321,42.34962],[-71.055274,42.349712],[-71.055234,42.349697],[-71.05537,42.34956],[-71.056683,42.347603],[-71.056673,42.347544],[-71.055908,42.347262],[-71.055749,42.347409],[-71.054374,42.349456],[-71.054372,42.34948],[-71.054178,42.349659],[-71.053208,42.351102],[-71.053789,42.351317],[-71.053987,42.351134],[-71.054266,42.351237],[-71.054337,42.351171],[-71.055146,42.349965],[-71.054859,42.350531],[-71.054894,42.350558],[-71.054849,42.350648],[-71.054907,42.350664],[-71.054963,42.350612],[-71.055201,42.350793],[-71.055386,42.350854],[-71.055988,42.350843],[-71.056072,42.350827],[-71.056238,42.350673],[-71.056434,42.350281],[-71.056635,42.349782],[-71.056775,42.349199]]],[[[-71.055768,42.35162],[-71.055498,42.351545],[-71.054479,42.351779],[-71.054052,42.352191],[-71.054578,42.352469],[-71.054738,42.35252],[-71.054906,42.352545],[-71.055083,42.352505],[-71.055203,42.352415],[-71.055458,42.352178],[-71.055549,42.352069],[-71.055768,42.35162]]]]},"properties":{"kind":"building"}},{"type":"Feature","geometry":{"type":"MultiPolygon","coordinates":[[[[-71.066058,42.353451],[-71.066047,42.35341],[-71.066015,42.353375],[-71.065968,42.353351],[-71.065856,42.353351],[-71.065809,42.353375],[-71.065617,42.353558],[-71.065606,42.3536],[-71.065617,42.353641],[-71.065696,42.353699],[-71.065807,42.353699],[-71.065855,42.353676],[-71.066015,42.353527],[-71.066047,42.353492],[-71.066058,42.353451]]],[[[-71.066048,42.352923],[-71.066021,42.352832],[-71.065989,42.352797],[-71.065886,42.352765],[-71.065783,42.352797],[-71.06561,42.352947],[-71.065768,42.352807],[-71.065768,42.352761],[-71.06574,42.352736],[-71.06577,42.352716],[-71.065811,42.352747],[-71.065892,42.352736],[-71.066,42.352636],[-71.066022,42.352597],[-71.065976,42.352546],[-71.065918,42.352546],[-71.065881,42.35257],[-71.065841,42.352538],[-71.065759,42.35255],[-71.065688,42.352518],[-71.065635,42.352534],[-71.065571,42.352593],[-71.06551,42.352612],[-71.065367,42.352748],[-71.065367,42.3528],[-71.065387,42.352821],[-71.065447,42.352841],[-71.065343,42.352941],[-71.065343,42.352996],[-71.065377,42.353026],[-71.065349,42.353055],[-71.065346,42.35309],[-71.065273,42.353162],[-71.065265,42.353192],[-71.065162,42.353227],[-71.065123,42.353262],[-71.065303,42.35307],[-71.065303,42.353032],[-71.065248,42.353002],[-71.065274,42.352968],[-71.065263,42.352948],[-71.065207,42.352948],[-71.065126,42.353025],[-71.065134,42.353056],[-71.065071,42.353145],[-71.065086,42.353175],[-71.064976,42.353168],[-71.064849,42.35327],[-71.064816,42.35326],[-71.064928,42.353148],[-71.064939,42.353107],[-71.064928,42.353066],[-71.064865,42.353015],[-71.06483,42.352952],[-71.064791,42.352933],[-71.064699,42.352933],[-71.06466,42.352952],[-71.064509,42.353092],[-71.064474,42.353155],[-71.064502,42.35321],[-71.064487,42.353256],[-71.064498,42.353297],[-71.06452,42.353322],[-71.064415,42.353423],[-71.064407,42.353454],[-71.064439,42.353512],[-71.064505,42.353534],[-71.064439,42.353595],[-71.064372,42.353606],[-71.06426,42.353713],[-71.06426,42.353749],[-71.064226,42.353783],[-71.064225,42.353814],[-71.064191,42.353859],[-71.064216,42.353892],[-71.064141,42.353965],[-71.064135,42.353989],[-71.06413,42.354073],[-71.06417,42.354103],[-71.064002,42.35425],[-71.064013,42.354305],[-71.063847,42.354481],[-71.063847,42.354527],[-71.063743,42.35463],[-71.063732,42.354672],[-71.063753,42.354724],[-71.063683,42.354791],[-71.06368,42.354825],[-71.063645,42.35486],[-71.063645,42.354904],[-71.063717,42.35494],[-71.063772,42.354923],[-71.063912,42.354774],[-71.063981,42.354748],[-71.064141,42.354599],[-71.064173,42.354564],[-71.064184,42.354523],[-71.064399,42.354325],[-71.064463,42.354303],[-71.064624,42.354151],[-71.064695,42.354113],[-71.06474,42.354125],[-71.064798,42.354108],[-71.064929,42.353983],[-71.064929,42.353937],[-71.064885,42.353905],[-71.064823,42.353905],[-71.064756,42.353955],[-71.064785,42.3539],[-71.064779,42.353878],[-71.064737,42.353847],[-71.064677,42.353847],[-71.064632,42.353878],[-71.064632,42.353832],[-71.064588,42.3538],[-71.064508,42.353809],[-71.064437,42.353774],[-71.064387,42.353789],[-71.064444,42.353728],[-71.064499,42.353733],[-71.06457,42.353711],[-71.064724,42.353564],[-71.064724,42.353508],[-71.064702,42.353483],[-71.064647,42.353464],[-71.064662,42.35345],[-71.064731,42.353457],[-71.064785,42.353417],[-71.064834,42.35345],[-71.064876,42.353456],[-71.064776,42.353554],[-71.064776,42.353595],[-71.064791,42.353612],[-71.064842,42.353627],[-71.064892,42.353612],[-71.0649,42.353651],[-71.064927,42.35368],[-71.065014,42.353707],[-71.065101,42.35368],[-71.065147,42.353638],[-71.065153,42.353698],[-71.065184,42.353733],[-71.065288,42.353765],[-71.064938,42.354064],[-71.064952,42.354116],[-71.065023,42.354126],[-71.065261,42.353931],[-71.065295,42.353918],[-71.065545,42.353682],[-71.065545,42.353648],[-71.065512,42.353623],[-71.065583,42.353549],[-71.065594,42.353508],[-71.065583,42.353467],[-71.065504,42.353408],[-71.065448,42.3534],[-71.065378,42.353415],[-71.065446,42.353364],[-71.0655,42.353345],[-71.065568,42.353282],[-71.065609,42.353318],[-71.065611,42.353362],[-71.065631,42.353385],[-71.065698,42.353405],[-71.065764,42.353385],[-71.065911,42.353246],[-71.065918,42.353219],[-71.065898,42.353178],[-71.066007,42.353073],[-71.066016,42.353039],[-71.065999,42.352996],[-71.066039,42.352955],[-71.066048,42.352923]],[[-71.065658,42.352731],[-71.065592,42.352782],[-71.065563,42.352777],[-71.065636,42.35271],[-71.065658,42.352731]],[[-71.064967,42.35342],[-71.064965,42.353428],[-71.06496,42.353427],[-71.064967,42.35342]],[[-71.064444,42.35402],[-71.064413,42.354052],[-71.064412,42.354098],[-71.06432,42.354184],[-71.064293,42.35418],[-71.06437,42.354106],[-71.064376,42.354083],[-71.06437,42.35406],[-71.064331,42.35403],[-71.064374,42.35399],[-71.064444,42.35402]]],[[[-71.066046,42.354972],[-71.066026,42.354936],[-71.065952,42.354925],[-71.065814,42.355046],[-71.065814,42.355085],[-71.065851,42.355112],[-71.065903,42.355112],[-71.066026,42.355008],[-71.066046,42.354972]]],[[[-71.06602,42.354061],[-71.065981,42.354032],[-71.06593,42.354063],[-71.06587,42.354048],[-71.065762,42.354144],[-71.065762,42.354171],[-71.065788,42.354191],[-71.065825,42.354191],[-71.065879,42.354148],[-71.065906,42.354157],[-71.065867,42.354199],[-71.065906,42.354211],[-71.065963,42.354158],[-71.065963,42.354134],[-71.06602,42.354061]]],[[[-71.065865,42.354468],[-71.065827,42.3544],[-71.065785,42.354379],[-71.065685,42.354379],[-71.065643,42.3544],[-71.065455,42.35458],[-71.065455,42.354653],[-71.065525,42.354705],[-71.065624,42.354705],[-71.065666,42.354685],[-71.065827,42.354536],[-71.065865,42.354468]]],[[[-71.06583,42.348038],[-71.065811,42.348004],[-71.06574,42.347994],[-71.065607,42.348111],[-71.065621,42.348163],[-71.065667,42.348177],[-71.065595,42.348247],[-71.065607,42.348291],[-71.065646,42.348303],[-71.065685,42.348291],[-71.065786,42.348196],[-71.065786,42.348164],[-71.065738,42.34814],[-71.06583,42.348038]]],[[[-71.065764,42.353939],[-71.065734,42.353906],[-71.065681,42.353914],[-71.065537,42.354053],[-71.065537,42.35408],[-71.065582,42.354102],[-71.065616,42.354092],[-71.065764,42.353939]]],[[[-71.065738,42.348446],[-71.065702,42.348406],[-71.065639,42.348415],[-71.065534,42.348515],[-71.065534,42.348548],[-71.065588,42.348574],[-71.06563,42.348562],[-71.065738,42.348446]]],[[[-71.065728,42.348293],[-71.065697,42.348283],[-71.065655,42.348322],[-71.065655,42.348341],[-71.065681,42.348341],[-71.065728,42.348293]]],[[[-71.065683,42.354843],[-71.065674,42.354808],[-71.065607,42.354759],[-71.06556,42.354752],[-71.065482,42.354774],[-71.065481,42.354739],[-71.065444,42.354711],[-71.065392,42.354711],[-71.065361,42.35473],[-71.065345,42.354722],[-71.065351,42.354697],[-71.065327,42.354655],[-71.065202,42.35461],[-71.065147,42.354627],[-71.064982,42.354792],[-71.064967,42.354766],[-71.064928,42.354754],[-71.065085,42.354624],[-71.065098,42.354575],[-71.065041,42.354546],[-71.064997,42.35456],[-71.06495,42.354604],[-71.06487,42.354599],[-71.064882,42.354586],[-71.064954,42.354578],[-71.065062,42.354475],[-71.065062,42.354441],[-71.065029,42.354416],[-71.064961,42.354426],[-71.064899,42.354414],[-71.064842,42.354432],[-71.064801,42.35447],[-71.064798,42.354419],[-71.064782,42.354401],[-71.064817,42.354412],[-71.064854,42.3544],[-71.065095,42.354196],[-71.06514,42.35418],[-71.065216,42.354109],[-71.065263,42.354095],[-71.065413,42.353955],[-71.065443,42.353981],[-71.065499,42.353972],[-71.0656,42.353866],[-71.065568,42.353831],[-71.065625,42.353756],[-71.065608,42.353725],[-71.065567,42.353713],[-71.065526,42.353725],[-71.06531,42.35392],[-71.065269,42.353936],[-71.065044,42.354133],[-71.065,42.354148],[-71.064781,42.354346],[-71.064769,42.354388],[-71.064709,42.354371],[-71.064759,42.354322],[-71.064764,42.354303],[-71.064744,42.354267],[-71.064696,42.354253],[-71.064648,42.354267],[-71.064532,42.354377],[-71.064531,42.354413],[-71.064511,42.354432],[-71.064466,42.354444],[-71.064209,42.354673],[-71.064173,42.354684],[-71.064068,42.354795],[-71.064102,42.354833],[-71.064144,42.354833],[-71.064241,42.354751],[-71.064127,42.354878],[-71.064171,42.354926],[-71.064226,42.354926],[-71.064514,42.354664],[-71.064636,42.354633],[-71.064707,42.354567],[-71.064728,42.354622],[-71.064816,42.354635],[-71.064698,42.354749],[-71.064697,42.354798],[-71.064661,42.354836],[-71.064679,42.354849],[-71.064717,42.354822],[-71.064812,42.354838],[-71.064784,42.354877],[-71.0648,42.354906],[-71.064734,42.354932],[-71.064598,42.355057],[-71.064568,42.355112],[-71.064598,42.355166],[-71.064672,42.355188],[-71.064745,42.355166],[-71.064903,42.355015],[-71.064903,42.354957],[-71.064849,42.354916],[-71.064938,42.35485],[-71.06496,42.354894],[-71.065054,42.354939],[-71.065127,42.354931],[-71.065149,42.35497],[-71.065202,42.354986],[-71.065254,42.35497],[-71.065343,42.354898],[-71.065292,42.354951],[-71.065292,42.355021],[-71.065359,42.35507],[-71.065406,42.355077],[-71.065493,42.35505],[-71.065647,42.354907],[-71.065683,42.354843]],[[-71.064458,42.354594],[-71.064391,42.354656],[-71.064371,42.354661],[-71.064437,42.3546],[-71.064458,42.354594]],[[-71.064343,42.354683],[-71.064292,42.35473],[-71.064277,42.354732],[-71.064343,42.354683]]],[[[-71.065598,42.348957],[-71.065567,42.348947],[-71.065528,42.348983],[-71.065528,42.349002],[-71.065554,42.349002],[-71.065598,42.348957]]],[[[-71.065588,42.351223],[-71.065557,42.351213],[-71.065509,42.351258],[-71.065509,42.351277],[-71.065535,42.351277],[-71.065588,42.351223]]],[[[-71.065562,42.349094],[-71.065531,42.349084],[-71.065492,42.34912],[-71.065492,42.349139],[-71.065518,42.349139],[-71.065562,42.349094]]],[[[-71.065559,42.349236],[-71.065544,42.349211],[-71.065491,42.349203],[-71.065394,42.349288],[-71.065394,42.349316],[-71.06542,42.349335],[-71.065457,42.349335],[-71.065559,42.349236]]],[[[-71.065552,42.348316],[-71.065534,42.348284],[-71.065466,42.348274],[-71.065338,42.348387],[-71.065338,42.348421],[-71.065372,42.348446],[-71.065419,42.348446],[-71.065534,42.348348],[-71.065552,42.348316]]],[[[-71.065548,42.34811],[-71.065517,42.3481],[-71.065475,42.348139],[-71.065475,42.348158],[-71.065501,42.348158],[-71.065548,42.34811]]],[[[-71.065483,42.348446],[-71.065444,42.348434],[-71.065386,42.348487],[-71.065386,42.348511],[-71.065419,42.348511],[-71.065483,42.348446]]],[[[-71.065465,42.352587],[-71.065457,42.352558],[-71.065401,42.352516],[-71.065321,42.352516],[-71.065288,42.352533],[-71.06513,42.352683],[-71.06513,42.352742],[-71.065,42.352854],[-71.065013,42.352901],[-71.064928,42.353004],[-71.064928,42.353045],[-71.064994,42.353077],[-71.065044,42.353062],[-71.065164,42.352948],[-71.065169,42.352928],[-71.065149,42.352891],[-71.065175,42.352866],[-71.065204,42.352786],[-71.065299,42.352767],[-71.065434,42.352641],[-71.065465,42.352587]]],[[[-71.065433,42.34879],[-71.065418,42.348765],[-71.065365,42.348757],[-71.065268,42.348842],[-71.065268,42.34887],[-71.065294,42.348889],[-71.065331,42.348889],[-71.065433,42.34879]]],[[[-71.065396,42.34894],[-71.065374,42.348916],[-71.065335,42.348921],[-71.065257,42.348995],[-71.065257,42.349015],[-71.06529,42.349031],[-71.065315,42.349023],[-71.065396,42.34894]]],[[[-71.065379,42.34907],[-71.065349,42.349037],[-71.065296,42.349045],[-71.065203,42.349133],[-71.065203,42.34916],[-71.065248,42.349182],[-71.065282,42.349172],[-71.065379,42.34907]]],[[[-71.065368,42.35121],[-71.065337,42.3512],[-71.065292,42.351242],[-71.065292,42.351261],[-71.065318,42.351261],[-71.065368,42.35121]]],[[[-71.065268,42.35121],[-71.065237,42.3512],[-71.065195,42.351239],[-71.065195,42.351258],[-71.065221,42.351258],[-71.065268,42.35121]]],[[[-71.065176,42.35072],[-71.06514,42.350702],[-71.065071,42.350763],[-71.065063,42.350776],[-71.065081,42.350794],[-71.065046,42.350827],[-71.065046,42.350854],[-71.065074,42.350858],[-71.065143,42.350798],[-71.065151,42.350784],[-71.065133,42.350766],[-71.065176,42.35072]]],[[[-71.065129,42.350853],[-71.065096,42.350843],[-71.065042,42.350893],[-71.065042,42.350914],[-71.065069,42.350914],[-71.065129,42.350853]]],[[[-71.065109,42.352581],[-71.065081,42.35253],[-71.065049,42.352515],[-71.064975,42.352515],[-71.064793,42.352673],[-71.064793,42.352728],[-71.064846,42.352767],[-71.06492,42.352767],[-71.065081,42.352632],[-71.065109,42.352581]]],[[[-71.064944,42.35131],[-71.064913,42.3513],[-71.064868,42.351342],[-71.064868,42.351361],[-71.064894,42.351361],[-71.064944,42.35131]]],[[[-71.064915,42.35417],[-71.064885,42.354137],[-71.064832,42.354145],[-71.064739,42.354233],[-71.064739,42.35426],[-71.064784,42.354282],[-71.064818,42.354272],[-71.064915,42.35417]]],[[[-71.064857,42.348456],[-71.064826,42.348446],[-71.064784,42.348485],[-71.064784,42.348504],[-71.06481,42.348504],[-71.064857,42.348456]]],[[[-71.064624,42.351826],[-71.064593,42.351816],[-71.064551,42.351855],[-71.064551,42.351874],[-71.064577,42.351874],[-71.064624,42.351826]]],[[[-71.064621,42.348425],[-71.06459,42.348415],[-71.064548,42.348454],[-71.064548,42.348473],[-71.064574,42.348473],[-71.064621,42.348425]]],[[[-71.064568,42.352055],[-71.064537,42.352045],[-71.064492,42.352087],[-71.064492,42.352106],[-71.064518,42.352106],[-71.064471,42.352154],[-71.064491,42.352169],[-71.064475,42.352208],[-71.064501,42.352208],[-71.064543,42.35217],[-71.06453,42.352147],[-71.064564,42.352104],[-71.064531,42.352094],[-71.064568,42.352055]]],[[[-71.064436,42.348399],[-71.064405,42.348389],[-71.064363,42.348428],[-71.064363,42.348447],[-71.064389,42.348447],[-71.064436,42.348399]]],[[[-71.064238,42.350925],[-71.064207,42.350915],[-71.064165,42.350954],[-71.064165,42.350973],[-71.064191,42.350973],[-71.064238,42.350925]]],[[[-71.064209,42.34872],[-71.06417,42.348708],[-71.064112,42.348761],[-71.064112,42.348785],[-71.064145,42.348785],[-71.064209,42.34872]]],[[[-71.064168,42.34884],[-71.064137,42.34883],[-71.064086,42.348878],[-71.064086,42.348897],[-71.064112,42.348897],[-71.064168,42.34884]]],[[[-71.064148,42.350914],[-71.064117,42.350904],[-71.064075,42.350943],[-71.064075,42.350962],[-71.064101,42.350962],[-71.064148,42.350914]]],[[[-71.064088,42.3533],[-71.064057,42.35329],[-71.064006,42.353338],[-71.064006,42.353357],[-71.064032,42.353357],[-71.064088,42.3533]]],[[[-71.064082,42.350914],[-71.064062,42.350892],[-71.064027,42.350897],[-71.063953,42.350967],[-71.063953,42.350985],[-71.063971,42.350998],[-71.064006,42.350993],[-71.064082,42.350914]]],[[[-71.064049,42.35339],[-71.064016,42.35338],[-71.063962,42.35343],[-71.063962,42.353451],[-71.063989,42.353451],[-71.064049,42.35339]]],[[[-71.064013,42.353283],[-71.063982,42.353273],[-71.063931,42.353321],[-71.063931,42.35334],[-71.063957,42.35334],[-71.064013,42.353283]]],[[[-71.063998,42.35376],[-71.063967,42.35375],[-71.063916,42.353798],[-71.063916,42.353817],[-71.063942,42.353817],[-71.063998,42.35376]]],[[[-71.063984,42.353386],[-71.063951,42.353376],[-71.063897,42.353426],[-71.063897,42.353447],[-71.063924,42.353447],[-71.063984,42.353386]]],[[[-71.063973,42.350903],[-71.063949,42.350876],[-71.063906,42.350883],[-71.063825,42.35096],[-71.063825,42.350982],[-71.063861,42.351],[-71.063888,42.350991],[-71.063973,42.350903]]],[[[-71.063943,42.353268],[-71.063904,42.353256],[-71.063846,42.353309],[-71.063846,42.353333],[-71.063879,42.353333],[-71.063943,42.353268]]],[[[-71.063928,42.353374],[-71.063897,42.353364],[-71.063846,42.353412],[-71.063846,42.353431],[-71.063872,42.353431],[-71.063928,42.353374]]],[[[-71.063922,42.353967],[-71.063902,42.353945],[-71.063867,42.35395],[-71.063793,42.35402],[-71.063793,42.354038],[-71.063811,42.354051],[-71.063846,42.354046],[-71.063922,42.353967]]],[[[-71.063915,42.348675],[-71.063882,42.348665],[-71.063828,42.348715],[-71.063842,42.34874],[-71.06379,42.348796],[-71.06381,42.348813],[-71.0638,42.348841],[-71.063826,42.348841],[-71.063868,42.348803],[-71.063893,42.348743],[-71.06387,42.348726],[-71.063915,42.348675]]],[[[-71.063879,42.34887],[-71.063846,42.34886],[-71.063792,42.34891],[-71.063792,42.348931],[-71.063819,42.348931],[-71.063879,42.34887]]],[[[-71.063821,42.349148],[-71.06379,42.349138],[-71.063748,42.349177],[-71.063748,42.349196],[-71.063774,42.349196],[-71.063821,42.349148]]],[[[-71.063816,42.35412],[-71.06378,42.354102],[-71.063711,42.354163],[-71.063711,42.35419],[-71.063739,42.354194],[-71.063816,42.35412]]],[[[-71.063808,42.348427],[-71.063777,42.348417],[-71.063735,42.348456],[-71.063735,42.348475],[-71.063761,42.348475],[-71.063808,42.348427]]],[[[-71.063768,42.349293],[-71.063737,42.349283],[-71.063695,42.349322],[-71.063682,42.349383],[-71.063708,42.349383],[-71.06375,42.349345],[-71.063768,42.349293]]],[[[-71.063718,42.34841],[-71.063687,42.3484],[-71.063645,42.348439],[-71.063645,42.348458],[-71.063671,42.348458],[-71.063718,42.34841]]],[[[-71.063707,42.350883],[-71.063687,42.350861],[-71.063652,42.350866],[-71.063578,42.350936],[-71.063578,42.350954],[-71.063608,42.350969],[-71.063631,42.350962],[-71.063707,42.350883]]],[[[-71.063689,42.34976],[-71.063656,42.34975],[-71.063602,42.3498],[-71.063602,42.349821],[-71.063629,42.349821],[-71.063689,42.34976]]],[[[-71.063632,42.349854],[-71.063601,42.349844],[-71.06355,42.349892],[-71.06355,42.349911],[-71.063576,42.349911],[-71.063632,42.349854]]],[[[-71.063613,42.350876],[-71.063574,42.350864],[-71.063516,42.350917],[-71.063516,42.350941],[-71.063549,42.350941],[-71.063613,42.350876]]],[[[-71.063579,42.34995],[-71.063546,42.34994],[-71.063492,42.34999],[-71.063466,42.350057],[-71.063492,42.350057],[-71.063543,42.35001],[-71.063579,42.34995]]],[[[-71.063569,42.3547],[-71.063539,42.354667],[-71.063486,42.354675],[-71.063404,42.354752],[-71.063411,42.354788],[-71.063344,42.354852],[-71.063344,42.35488],[-71.063389,42.354902],[-71.063423,42.354892],[-71.063505,42.354814],[-71.063498,42.354778],[-71.063569,42.3547]]],[[[-71.063546,42.350864],[-71.06351,42.350846],[-71.063441,42.350907],[-71.063441,42.350934],[-71.063469,42.350938],[-71.063546,42.350864]]],[[[-71.063458,42.350418],[-71.063427,42.350408],[-71.063376,42.350456],[-71.063376,42.350475],[-71.063402,42.350475],[-71.063458,42.350418]]],[[[-71.063458,42.35018],[-71.063427,42.35017],[-71.063379,42.350215],[-71.063392,42.350238],[-71.063324,42.350315],[-71.063324,42.350334],[-71.06335,42.350334],[-71.063398,42.35029],[-71.063428,42.350246],[-71.06341,42.350233],[-71.063458,42.35018]]],[[[-71.063434,42.350487],[-71.063403,42.350477],[-71.063355,42.350522],[-71.063367,42.350545],[-71.063327,42.350582],[-71.063292,42.350661],[-71.063318,42.350661],[-71.063363,42.35062],[-71.063403,42.35055],[-71.063386,42.350537],[-71.063434,42.350487]]],[[[-71.063386,42.350826],[-71.06335,42.350808],[-71.063281,42.350869],[-71.063281,42.350896],[-71.063309,42.3509],[-71.063386,42.350826]]],[[[-71.063383,42.350765],[-71.063365,42.350745],[-71.063333,42.35075],[-71.06327,42.350809],[-71.06327,42.350839],[-71.063311,42.350839],[-71.063383,42.350765]]],[[[-71.063369,42.350704],[-71.063336,42.350694],[-71.063282,42.350744],[-71.063282,42.350765],[-71.063309,42.350765],[-71.063369,42.350704]]],[[[-71.063328,42.35044],[-71.063297,42.35043],[-71.063219,42.350518],[-71.063123,42.350713],[-71.063138,42.350726],[-71.063062,42.350805],[-71.063062,42.350826],[-71.063089,42.350826],[-71.063173,42.350737],[-71.063163,42.350714],[-71.063223,42.35064],[-71.063243,42.350572],[-71.063328,42.35044]]],[[[-71.063144,42.352238],[-71.063113,42.352228],[-71.063068,42.35227],[-71.063068,42.352289],[-71.063094,42.352289],[-71.063144,42.352238]]],[[[-71.063083,42.35225],[-71.063052,42.35224],[-71.063007,42.352282],[-71.063007,42.352301],[-71.063033,42.352301],[-71.063083,42.35225]]],[[[-71.062983,42.352253],[-71.062952,42.352243],[-71.062907,42.352285],[-71.062907,42.352304],[-71.062933,42.352304],[-71.062983,42.352253]]],[[[-71.062922,42.35222],[-71.062891,42.35221],[-71.062843,42.352255],[-71.062843,42.352274],[-71.062869,42.352274],[-71.062922,42.35222]]],[[[-71.062848,42.352215],[-71.062817,42.352205],[-71.062772,42.352247],[-71.062772,42.352266],[-71.062798,42.352266],[-71.062848,42.352215]]],[[[-71.062829,42.353302],[-71.062796,42.353292],[-71.062742,42.353342],[-71.062742,42.353363],[-71.062769,42.353363],[-71.062829,42.353302]]],[[[-71.062829,42.353214],[-71.062796,42.353204],[-71.062742,42.353254],[-71.062742,42.353275],[-71.062769,42.353275],[-71.062829,42.353214]]],[[[-71.062763,42.353207],[-71.06273,42.353197],[-71.062676,42.353247],[-71.062676,42.353268],[-71.062703,42.353268],[-71.062763,42.353207]]],[[[-71.062763,42.353306],[-71.062724,42.353294],[-71.062666,42.353347],[-71.062666,42.353371],[-71.062699,42.353371],[-71.062763,42.353306]]],[[[-71.062559,42.348354],[-71.062541,42.348334],[-71.062509,42.348339],[-71.062446,42.348398],[-71.062446,42.348428],[-71.062487,42.348428],[-71.062559,42.348354]]],[[[-71.062496,42.349373],[-71.06247,42.349344],[-71.062424,42.349351],[-71.062339,42.349432],[-71.062339,42.349456],[-71.062378,42.349475],[-71.062408,42.349466],[-71.062496,42.349373]]],[[[-71.062463,42.348557],[-71.062424,42.348545],[-71.062366,42.348598],[-71.062366,42.348622],[-71.062399,42.348622],[-71.062463,42.348557]]],[[[-71.062409,42.348373],[-71.062385,42.348346],[-71.062342,42.348353],[-71.062261,42.34843],[-71.062261,42.348452],[-71.062297,42.34847],[-71.062324,42.348461],[-71.062409,42.348373]]],[[[-71.062392,42.349323],[-71.062366,42.349294],[-71.06232,42.349301],[-71.062235,42.349382],[-71.062235,42.349406],[-71.062274,42.349425],[-71.062304,42.349416],[-71.062392,42.349323]]],[[[-71.062039,42.353752],[-71.062006,42.353742],[-71.061952,42.353792],[-71.061952,42.353813],[-71.061979,42.353813],[-71.062039,42.353752]]],[[[-71.062006,42.349306],[-71.061975,42.349296],[-71.061933,42.349335],[-71.061933,42.349354],[-71.061959,42.349354],[-71.062006,42.349306]]],[[[-71.061988,42.35386],[-71.061957,42.35385],[-71.061915,42.353889],[-71.061915,42.353908],[-71.061941,42.353908],[-71.061988,42.35386]]],[[[-71.061951,42.349438],[-71.06192,42.349428],[-71.061878,42.349467],[-71.061878,42.349486],[-71.061904,42.349486],[-71.061951,42.349438]]],[[[-71.061941,42.349548],[-71.061926,42.349523],[-71.061873,42.349515],[-71.061776,42.3496],[-71.061776,42.349628],[-71.061802,42.349647],[-71.061839,42.349647],[-71.061941,42.349548]]],[[[-71.061928,42.34988],[-71.061897,42.34987],[-71.061855,42.349909],[-71.061825,42.349974],[-71.061851,42.349974],[-71.061928,42.34988]]],[[[-71.061924,42.3537],[-71.061891,42.35369],[-71.061837,42.35374],[-71.061837,42.353761],[-71.061864,42.353761],[-71.061924,42.3537]]],[[[-71.061909,42.353825],[-71.061876,42.353815],[-71.061822,42.353865],[-71.061822,42.353886],[-71.061849,42.353886],[-71.061909,42.353825]]],[[[-71.061892,42.35],[-71.061861,42.34999],[-71.061819,42.350029],[-71.061765,42.350128],[-71.061791,42.350128],[-71.061833,42.35009],[-71.061892,42.35]]],[[[-71.061851,42.348312],[-71.061838,42.348288],[-71.061789,42.348281],[-71.061695,42.348362],[-71.061685,42.348398],[-71.061727,42.348419],[-71.061697,42.348469],[-71.061723,42.348469],[-71.061765,42.348431],[-71.061765,42.348411],[-71.061851,42.348312]]],[[[-71.061828,42.353783],[-71.061797,42.353773],[-71.061755,42.353812],[-71.061755,42.353831],[-71.061781,42.353831],[-71.061828,42.353783]]],[[[-71.061825,42.353653],[-71.061792,42.353643],[-71.061738,42.353693],[-71.061738,42.353714],[-71.061765,42.353714],[-71.061825,42.353653]]],[[[-71.061824,42.350155],[-71.061793,42.350145],[-71.061754,42.350181],[-71.061725,42.350248],[-71.061751,42.350248],[-71.061793,42.35021],[-71.061824,42.350155]]],[[[-71.061789,42.350292],[-71.061765,42.350265],[-71.061722,42.350272],[-71.061641,42.350349],[-71.061599,42.350407],[-71.061599,42.350432],[-71.061641,42.350453],[-71.061673,42.350443],[-71.061762,42.350359],[-71.061789,42.350292]]],[[[-71.061766,42.349666],[-71.061751,42.349641],[-71.061698,42.349633],[-71.061601,42.349718],[-71.061601,42.349746],[-71.061627,42.349765],[-71.061664,42.349765],[-71.061766,42.349666]]],[[[-71.061759,42.353607],[-71.061744,42.353582],[-71.061691,42.353574],[-71.061594,42.353659],[-71.061594,42.353687],[-71.06162,42.353706],[-71.061657,42.353706],[-71.061759,42.353607]]],[[[-71.061747,42.353738],[-71.061716,42.353728],[-71.061674,42.353767],[-71.061674,42.353786],[-71.0617,42.353786],[-71.061747,42.353738]]],[[[-71.061692,42.348648],[-71.06168,42.348626],[-71.061634,42.348619],[-71.061563,42.348679],[-71.061552,42.348646],[-71.061503,42.348639],[-71.061399,42.348731],[-71.061399,42.348756],[-71.061423,42.348774],[-71.061458,42.348774],[-71.061534,42.348711],[-71.061544,42.348741],[-71.06159,42.348747],[-71.061692,42.348648]]],[[[-71.061645,42.348297],[-71.061611,42.348259],[-71.061551,42.348268],[-71.06145,42.348364],[-71.06145,42.348395],[-71.061501,42.34842],[-71.06154,42.348408],[-71.061645,42.348297]]],[[[-71.061628,42.35355],[-71.061597,42.35354],[-71.061549,42.353585],[-71.061549,42.353604],[-71.061575,42.353604],[-71.061628,42.35355]]],[[[-71.06161,42.348837],[-71.061579,42.348827],[-71.061537,42.348866],[-71.061537,42.348885],[-71.061563,42.348885],[-71.06161,42.348837]]],[[[-71.061608,42.3485],[-71.061577,42.34849],[-71.061535,42.348529],[-71.061535,42.348548],[-71.061561,42.348548],[-71.061608,42.3485]]],[[[-71.061597,42.348184],[-71.061566,42.348174],[-71.061518,42.348219],[-71.061518,42.348238],[-71.061544,42.348238],[-71.061597,42.348184]]],[[[-71.061548,42.349568],[-71.061533,42.349543],[-71.06148,42.349535],[-71.061383,42.34962],[-71.061383,42.349648],[-71.061409,42.349667],[-71.061446,42.349667],[-71.061548,42.349568]]],[[[-71.061502,42.348854],[-71.061476,42.348825],[-71.06143,42.348832],[-71.061345,42.348913],[-71.061345,42.348937],[-71.061384,42.348956],[-71.061414,42.348947],[-71.061502,42.348854]]],[[[-71.061493,42.35095],[-71.061454,42.350938],[-71.061396,42.350991],[-71.061396,42.351015],[-71.061429,42.351015],[-71.061493,42.35095]]],[[[-71.061472,42.34815],[-71.061454,42.348118],[-71.061386,42.348108],[-71.061258,42.348221],[-71.061258,42.348255],[-71.061292,42.34828],[-71.06135,42.348274],[-71.061323,42.348319],[-71.061366,42.348332],[-71.06145,42.348257],[-71.061443,42.348231],[-71.061408,42.348226],[-71.061472,42.34815]]],[[[-71.06145,42.349534],[-71.061435,42.349509],[-71.061382,42.349501],[-71.061285,42.349586],[-71.061285,42.349614],[-71.061311,42.349633],[-71.061348,42.349633],[-71.06145,42.349534]]],[[[-71.061438,42.349255],[-71.061407,42.349245],[-71.061359,42.34929],[-71.061359,42.349309],[-71.061385,42.349309],[-71.061438,42.349255]]],[[[-71.061418,42.351122],[-71.061387,42.351112],[-71.061345,42.351151],[-71.061358,42.351174],[-71.061319,42.351219],[-71.061337,42.351232],[-71.061293,42.351279],[-71.061308,42.351292],[-71.061279,42.351318],[-71.061279,42.351337],[-71.061305,42.351337],[-71.061347,42.351299],[-71.061337,42.351276],[-71.061371,42.35124],[-71.061353,42.351227],[-71.061392,42.35119],[-71.061379,42.351167],[-71.061418,42.351122]]],[[[-71.061399,42.349052],[-71.061366,42.349042],[-71.061312,42.349092],[-71.061312,42.349113],[-71.061339,42.349113],[-71.061399,42.349052]]],[[[-71.061368,42.34943],[-71.061337,42.34942],[-71.061295,42.349459],[-71.061295,42.349478],[-71.061321,42.349478],[-71.061368,42.34943]]],[[[-71.061349,42.349228],[-71.061331,42.349208],[-71.061299,42.349213],[-71.061236,42.349272],[-71.061236,42.349302],[-71.061277,42.349302],[-71.061349,42.349228]]],[[[-71.061282,42.34963],[-71.061251,42.34962],[-71.061206,42.349662],[-71.061185,42.349729],[-71.061211,42.349729],[-71.061256,42.349688],[-71.061282,42.34963]]],[[[-71.061244,42.35337],[-71.061213,42.35336],[-71.061171,42.353399],[-71.061171,42.353418],[-71.061197,42.353418],[-71.061244,42.35337]]],[[[-71.061238,42.354774],[-71.061207,42.354764],[-71.061165,42.354803],[-71.061165,42.354822],[-71.061191,42.354822],[-71.061238,42.354774]]],[[[-71.061222,42.34983],[-71.061196,42.349801],[-71.06115,42.349808],[-71.061065,42.349889],[-71.061065,42.349913],[-71.061104,42.349932],[-71.061134,42.349923],[-71.061222,42.34983]]],[[[-71.061188,42.354916],[-71.061157,42.354906],[-71.061115,42.354945],[-71.061115,42.354964],[-71.061141,42.354964],[-71.061188,42.354916]]],[[[-71.061188,42.353344],[-71.061157,42.353334],[-71.061115,42.353373],[-71.061115,42.353392],[-71.061141,42.353392],[-71.061188,42.353344]]],[[[-71.061156,42.35003],[-71.061124,42.349995],[-71.061067,42.350003],[-71.06097,42.350095],[-71.06097,42.350124],[-71.061018,42.350148],[-71.061055,42.350136],[-71.061156,42.35003]]],[[[-71.061138,42.35332],[-71.061107,42.35331],[-71.061065,42.353349],[-71.061065,42.353368],[-71.061091,42.353368],[-71.061138,42.35332]]],[[[-71.061048,42.353275],[-71.061017,42.353265],[-71.060969,42.35331],[-71.060969,42.353329],[-71.060995,42.353329],[-71.061048,42.353275]]],[[[-71.061038,42.34849],[-71.061007,42.34848],[-71.060965,42.348519],[-71.060965,42.348538],[-71.060991,42.348538],[-71.061038,42.34849]]],[[[-71.061032,42.348602],[-71.061017,42.348575],[-71.06096,42.348567],[-71.060846,42.348667],[-71.060846,42.348696],[-71.060875,42.348717],[-71.06081,42.348784],[-71.06081,42.348815],[-71.060837,42.348835],[-71.060785,42.348886],[-71.060794,42.34892],[-71.060854,42.34892],[-71.060939,42.348839],[-71.06093,42.348805],[-71.061005,42.348717],[-71.060971,42.348679],[-71.061032,42.348602]]],[[[-71.060988,42.353363],[-71.060957,42.353353],[-71.060915,42.353392],[-71.060915,42.353411],[-71.060941,42.353411],[-71.060988,42.353363]]],[[[-71.060938,42.35322],[-71.060907,42.35321],[-71.060865,42.353249],[-71.060865,42.353268],[-71.060891,42.353268],[-71.060938,42.35322]]],[[[-71.060923,42.35333],[-71.060892,42.35332],[-71.060847,42.353362],[-71.060847,42.353381],[-71.060873,42.353381],[-71.060923,42.35333]]],[[[-71.060862,42.353302],[-71.060831,42.353292],[-71.060789,42.353331],[-71.060789,42.35335],[-71.060815,42.35335],[-71.060862,42.353302]]],[[[-71.060847,42.349174],[-71.060803,42.349125],[-71.060725,42.349137],[-71.060555,42.349289],[-71.060515,42.34939],[-71.060541,42.34939],[-71.060583,42.349352],[-71.060603,42.34929],[-71.060672,42.349323],[-71.060722,42.349308],[-71.060827,42.349211],[-71.060847,42.349174]]],[[[-71.060733,42.34939],[-71.060718,42.349365],[-71.060665,42.349357],[-71.060578,42.349431],[-71.060568,42.34947],[-71.060594,42.349489],[-71.060519,42.349569],[-71.060529,42.349608],[-71.060564,42.349618],[-71.060598,42.349608],[-71.06068,42.349531],[-71.060695,42.349506],[-71.060665,42.349473],[-71.060733,42.34939]]],[[[-71.060609,42.34967],[-71.060594,42.349645],[-71.060541,42.349637],[-71.060433,42.349733],[-71.060433,42.34976],[-71.060475,42.349782],[-71.060396,42.349857],[-71.060408,42.349898],[-71.060444,42.34991],[-71.060481,42.349898],[-71.060578,42.349807],[-71.060578,42.349777],[-71.060531,42.349754],[-71.060609,42.34967]]],[[[-71.060598,42.35304],[-71.060567,42.35303],[-71.060525,42.353069],[-71.060525,42.353088],[-71.060551,42.353088],[-71.060598,42.35304]]],[[[-71.060558,42.349407],[-71.060527,42.349397],[-71.060485,42.349436],[-71.060498,42.349459],[-71.060467,42.349495],[-71.060485,42.349508],[-71.060431,42.349604],[-71.060457,42.349604],[-71.060499,42.349566],[-71.060499,42.349546],[-71.060538,42.349503],[-71.06052,42.34949],[-71.060548,42.349453],[-71.06053,42.34944],[-71.060558,42.349407]]],[[[-71.060518,42.352997],[-71.060487,42.352987],[-71.060445,42.353026],[-71.060445,42.353045],[-71.060471,42.353045],[-71.060518,42.352997]]],[[[-71.060508,42.353283],[-71.060477,42.353273],[-71.060432,42.353315],[-71.060432,42.353334],[-71.060458,42.353334],[-71.060508,42.353283]]],[[[-71.060504,42.35315],[-71.060473,42.35314],[-71.060431,42.353179],[-71.060431,42.353198],[-71.060457,42.353198],[-71.060504,42.35315]]],[[[-71.060504,42.3496],[-71.060473,42.34959],[-71.060431,42.349629],[-71.060415,42.349688],[-71.060441,42.349688],[-71.060483,42.34965],[-71.060504,42.3496]]],[[[-71.060468,42.352974],[-71.060437,42.352964],[-71.060392,42.353006],[-71.060392,42.353025],[-71.060418,42.353025],[-71.060468,42.352974]]],[[[-71.060428,42.3531],[-71.060397,42.35309],[-71.060355,42.353129],[-71.060355,42.353148],[-71.060381,42.353148],[-71.060428,42.3531]]],[[[-71.060419,42.353405],[-71.060418,42.35338],[-71.0604,42.353367],[-71.060352,42.353385],[-71.060271,42.353462],[-71.060271,42.353484],[-71.060307,42.353502],[-71.060334,42.353493],[-71.060419,42.353405]]],[[[-71.060388,42.349884],[-71.060357,42.349874],[-71.060312,42.349916],[-71.060312,42.349935],[-71.060338,42.349935],[-71.060388,42.349884]]],[[[-71.060374,42.35307],[-71.060343,42.35306],[-71.060301,42.353099],[-71.060301,42.353118],[-71.060327,42.353118],[-71.060374,42.35307]]],[[[-71.060318,42.350037],[-71.060287,42.350027],[-71.060245,42.350066],[-71.060245,42.350085],[-71.060271,42.350085],[-71.060318,42.350037]]],[[[-71.060314,42.35015],[-71.060288,42.350119],[-71.060297,42.3501],[-71.060273,42.350093],[-71.060159,42.350191],[-71.060149,42.35023],[-71.060175,42.350249],[-71.060212,42.350249],[-71.060314,42.35015]]],[[[-71.060174,42.34947],[-71.060163,42.34945],[-71.06012,42.349443],[-71.060026,42.349527],[-71.060026,42.349549],[-71.060045,42.349563],[-71.059997,42.349615],[-71.060015,42.349635],[-71.059947,42.349699],[-71.059955,42.349727],[-71.060005,42.349727],[-71.060083,42.349654],[-71.060064,42.34962],[-71.060174,42.34947]]],[[[-71.060158,42.352962],[-71.060127,42.352952],[-71.060085,42.352991],[-71.060085,42.35301],[-71.060111,42.35301],[-71.060158,42.352962]]],[[[-71.060105,42.35341],[-71.060077,42.353379],[-71.060028,42.353386],[-71.059939,42.353471],[-71.059939,42.353496],[-71.059981,42.353517],[-71.060013,42.353507],[-71.060105,42.35341]]],[[[-71.059972,42.351044],[-71.059946,42.351015],[-71.0599,42.351022],[-71.059815,42.351103],[-71.059815,42.351127],[-71.059835,42.351142],[-71.059796,42.351178],[-71.059796,42.351205],[-71.059824,42.351209],[-71.059893,42.351149],[-71.059896,42.351125],[-71.059972,42.351044]]],[[[-71.059858,42.3533],[-71.059827,42.35329],[-71.059785,42.353329],[-71.059785,42.353348],[-71.059811,42.353348],[-71.059858,42.3533]]],[[[-71.059822,42.35326],[-71.059796,42.353231],[-71.05975,42.353238],[-71.059665,42.353319],[-71.059665,42.353343],[-71.059704,42.353362],[-71.059734,42.353353],[-71.059822,42.35326]]],[[[-71.059758,42.352753],[-71.059727,42.352743],[-71.059682,42.352785],[-71.059682,42.352804],[-71.059708,42.352804],[-71.059758,42.352753]]],[[[-71.059688,42.352737],[-71.059657,42.352727],[-71.059612,42.352769],[-71.059612,42.352788],[-71.059638,42.352788],[-71.059688,42.352737]]],[[[-71.059669,42.354954],[-71.059651,42.354934],[-71.059619,42.354939],[-71.059556,42.354998],[-71.059556,42.355028],[-71.059597,42.355028],[-71.059669,42.354954]]],[[[-71.059649,42.35171],[-71.059634,42.351685],[-71.059581,42.351677],[-71.059543,42.351705],[-71.059518,42.351697],[-71.059451,42.35176],[-71.059481,42.351772],[-71.059494,42.351802],[-71.059547,42.351809],[-71.059649,42.35171]]],[[[-71.059634,42.35273],[-71.059616,42.352717],[-71.059567,42.352754],[-71.059506,42.352758],[-71.059424,42.352835],[-71.059424,42.352863],[-71.059469,42.352885],[-71.059503,42.352875],[-71.059634,42.35273]]],[[[-71.059622,42.35492],[-71.059573,42.354873],[-71.059538,42.354868],[-71.05946,42.354935],[-71.059453,42.354961],[-71.0595,42.354999],[-71.059536,42.355004],[-71.059622,42.35492]]],[[[-71.059562,42.3516],[-71.05953,42.351576],[-71.059455,42.351632],[-71.05944,42.351609],[-71.05942,42.351609],[-71.059351,42.35167],[-71.059347,42.351693],[-71.059226,42.351821],[-71.059226,42.351845],[-71.059259,42.351845],[-71.059432,42.351655],[-71.05944,42.351679],[-71.059476,42.351684],[-71.059562,42.3516]]],[[[-71.059518,42.351097],[-71.059487,42.351087],[-71.059445,42.351126],[-71.059445,42.351145],[-71.059471,42.351145],[-71.059518,42.351097]]],[[[-71.059482,42.354813],[-71.059462,42.354791],[-71.059427,42.354796],[-71.059353,42.354866],[-71.059353,42.354884],[-71.059383,42.354899],[-71.059406,42.354892],[-71.059482,42.354813]]],[[[-71.059478,42.35117],[-71.059447,42.35116],[-71.059405,42.351199],[-71.059405,42.351218],[-71.059431,42.351218],[-71.059478,42.35117]]],[[[-71.059432,42.354774],[-71.059389,42.354714],[-71.059364,42.354707],[-71.059339,42.354714],[-71.059258,42.354798],[-71.059269,42.354816],[-71.059307,42.354822],[-71.05931,42.354853],[-71.059333,42.35486],[-71.059432,42.354774]]],[[[-71.059428,42.3531],[-71.059397,42.35309],[-71.059355,42.353129],[-71.059355,42.353148],[-71.059381,42.353148],[-71.059428,42.3531]]],[[[-71.059418,42.35301],[-71.059387,42.353],[-71.059345,42.353039],[-71.059345,42.353058],[-71.059371,42.353058],[-71.059418,42.35301]]],[[[-71.059219,42.35129],[-71.059204,42.351265],[-71.059177,42.351255],[-71.059187,42.351235],[-71.05911,42.351194],[-71.059076,42.351205],[-71.058993,42.351281],[-71.058983,42.35132],[-71.059028,42.351342],[-71.059062,42.351332],[-71.059109,42.351288],[-71.059043,42.351353],[-71.059043,42.35138],[-71.059013,42.35142],[-71.059013,42.351447],[-71.059039,42.351467],[-71.05902,42.351499],[-71.058785,42.351756],[-71.058688,42.351825],[-71.058557,42.351962],[-71.058491,42.351968],[-71.058312,42.352129],[-71.058329,42.352171],[-71.058378,42.352178],[-71.05848,42.352108],[-71.058585,42.351997],[-71.058616,42.351985],[-71.058875,42.351757],[-71.058922,42.351689],[-71.059003,42.351614],[-71.059003,42.351594],[-71.059066,42.351517],[-71.059058,42.351503],[-71.059185,42.351371],[-71.059185,42.351343],[-71.059219,42.35129]]],[[[-71.059184,42.353294],[-71.059153,42.353284],[-71.059111,42.353323],[-71.059111,42.353342],[-71.059137,42.353342],[-71.059184,42.353294]]],[[[-71.059092,42.354385],[-71.059072,42.354363],[-71.059037,42.354368],[-71.058963,42.354438],[-71.058963,42.354456],[-71.058993,42.354471],[-71.059016,42.354464],[-71.059092,42.354385]]],[[[-71.059088,42.353287],[-71.059057,42.353277],[-71.059015,42.353316],[-71.059015,42.353335],[-71.059041,42.353335],[-71.059088,42.353287]]],[[[-71.059018,42.354332],[-71.058987,42.354322],[-71.058945,42.354361],[-71.058945,42.35438],[-71.058971,42.35438],[-71.059018,42.354332]]],[[[-71.058998,42.353283],[-71.058967,42.353273],[-71.058925,42.353312],[-71.058925,42.353331],[-71.058951,42.353331],[-71.058998,42.353283]]],[[[-71.058959,42.35429],[-71.058926,42.35428],[-71.058872,42.35433],[-71.058872,42.354351],[-71.058899,42.354351],[-71.058959,42.35429]]],[[[-71.058864,42.353268],[-71.058833,42.353258],[-71.058791,42.353297],[-71.058791,42.353316],[-71.058817,42.353316],[-71.058864,42.353268]]],[[[-71.058758,42.353268],[-71.058727,42.353258],[-71.058685,42.353297],[-71.058685,42.353316],[-71.058711,42.353316],[-71.058758,42.353268]]],[[[-71.058568,42.35253],[-71.058537,42.35252],[-71.058495,42.352559],[-71.058495,42.352578],[-71.058521,42.352578],[-71.058568,42.35253]]],[[[-71.058508,42.352524],[-71.058477,42.352514],[-71.058435,42.352553],[-71.058435,42.352572],[-71.058461,42.352572],[-71.058508,42.352524]]],[[[-71.058499,42.35248],[-71.058466,42.35247],[-71.058352,42.35256],[-71.058352,42.352579],[-71.058378,42.352579],[-71.058433,42.352544],[-71.058499,42.35248]]],[[[-71.058388,42.35247],[-71.058357,42.35246],[-71.058275,42.352549],[-71.058275,42.352568],[-71.058301,42.352568],[-71.058388,42.35247]]],[[[-71.058288,42.35091],[-71.058257,42.3509],[-71.058215,42.350939],[-71.058215,42.350958],[-71.058241,42.350958],[-71.058288,42.35091]]],[[[-71.058278,42.352467],[-71.058247,42.352457],[-71.058205,42.352496],[-71.058218,42.352519],[-71.058195,42.35256],[-71.058221,42.35256],[-71.058263,42.352522],[-71.05825,42.352499],[-71.058278,42.352467]]],[[[-71.058218,42.350887],[-71.058187,42.350877],[-71.058145,42.350916],[-71.058145,42.350935],[-71.058171,42.350935],[-71.058218,42.350887]]],[[[-71.058038,42.352665],[-71.058007,42.352655],[-71.057965,42.352694],[-71.057965,42.352713],[-71.057991,42.352713],[-71.058038,42.352665]]],[[[-71.058032,42.352768],[-71.058001,42.352758],[-71.057959,42.352797],[-71.057959,42.352816],[-71.057985,42.352816],[-71.058032,42.352768]]],[[[-71.058008,42.352905],[-71.057977,42.352895],[-71.057935,42.352934],[-71.057935,42.352953],[-71.057961,42.352953],[-71.058008,42.352905]]],[[[-71.057803,42.350693],[-71.057772,42.350683],[-71.05773,42.350722],[-71.05773,42.350741],[-71.057756,42.350741],[-71.057803,42.350693]]],[[[-71.057758,42.350677],[-71.057727,42.350667],[-71.057685,42.350706],[-71.057685,42.350725],[-71.057711,42.350725],[-71.057758,42.350677]]],[[[-71.05775,42.352226],[-71.057714,42.352208],[-71.057645,42.352269],[-71.057645,42.352296],[-71.057673,42.3523],[-71.05775,42.352226]]],[[[-71.057623,42.35219],[-71.057605,42.35217],[-71.057573,42.352175],[-71.05751,42.352234],[-71.05751,42.352264],[-71.057551,42.352264],[-71.057623,42.35219]]],[[[-71.057536,42.35216],[-71.0575,42.352142],[-71.057431,42.352203],[-71.057431,42.35223],[-71.057459,42.352234],[-71.057536,42.35216]]],[[[-71.057456,42.35214],[-71.05742,42.352122],[-71.057351,42.352183],[-71.057351,42.35221],[-71.057379,42.352214],[-71.057456,42.35214]]],[[[-71.057414,42.350403],[-71.057383,42.350393],[-71.057341,42.350432],[-71.057341,42.350451],[-71.057367,42.350451],[-71.057414,42.350403]]],[[[-71.057398,42.350494],[-71.057367,42.350484],[-71.057325,42.350523],[-71.057325,42.350542],[-71.057351,42.350542],[-71.057398,42.350494]]],[[[-71.057369,42.35211],[-71.057351,42.35209],[-71.057319,42.352095],[-71.057256,42.352154],[-71.057256,42.352184],[-71.057297,42.352184],[-71.057369,42.35211]]],[[[-71.057348,42.351707],[-71.057317,42.351697],[-71.057272,42.351739],[-71.057284,42.351762],[-71.057265,42.351798],[-71.057291,42.351798],[-71.057333,42.35176],[-71.057321,42.351737],[-71.057348,42.351707]]],[[[-71.057309,42.351897],[-71.057278,42.351887],[-71.057236,42.351926],[-71.057236,42.351945],[-71.057262,42.351945],[-71.057309,42.351897]]],[[[-71.057298,42.351955],[-71.057267,42.351945],[-71.057228,42.351981],[-71.057228,42.352],[-71.057254,42.352],[-71.057298,42.351955]]],[[[-71.057298,42.350925],[-71.057267,42.350915],[-71.057219,42.35096],[-71.057219,42.350979],[-71.057245,42.350979],[-71.057298,42.350925]]],[[[-71.057268,42.351063],[-71.057237,42.351053],[-71.057189,42.351098],[-71.057189,42.351117],[-71.057215,42.351117],[-71.057268,42.351063]]],[[[-71.057208,42.35141],[-71.057177,42.3514],[-71.057135,42.351439],[-71.057135,42.351458],[-71.057161,42.351458],[-71.057208,42.35141]]],[[[-71.057198,42.35055],[-71.057167,42.35054],[-71.057125,42.350579],[-71.057125,42.350598],[-71.057151,42.350598],[-71.057198,42.35055]]],[[[-71.057147,42.350632],[-71.057116,42.350622],[-71.057074,42.350661],[-71.057074,42.35068],[-71.0571,42.35068],[-71.057147,42.350632]]],[[[-71.057094,42.350533],[-71.057063,42.350523],[-71.057021,42.350562],[-71.057021,42.350581],[-71.057047,42.350581],[-71.057094,42.350533]]],[[[-71.057038,42.34984],[-71.057007,42.34983],[-71.056965,42.349869],[-71.056965,42.349888],[-71.056893,42.349956],[-71.0569,42.349982],[-71.056946,42.349982],[-71.057013,42.34992],[-71.05702,42.349894],[-71.057002,42.349881],[-71.057038,42.34984]]],[[[-71.056868,42.352028],[-71.056837,42.352018],[-71.056786,42.352066],[-71.056786,42.352085],[-71.056812,42.352085],[-71.056868,42.352028]]],[[[-71.056834,42.35023],[-71.056803,42.35022],[-71.056761,42.350259],[-71.056761,42.350278],[-71.056787,42.350278],[-71.056834,42.35023]]],[[[-71.056829,42.34976],[-71.056818,42.34974],[-71.056775,42.349733],[-71.056681,42.349817],[-71.056681,42.349839],[-71.056702,42.349854],[-71.056609,42.349967],[-71.056619,42.350006],[-71.056564,42.350058],[-71.056564,42.350086],[-71.056584,42.350102],[-71.056537,42.350153],[-71.056555,42.350173],[-71.056493,42.350238],[-71.0565,42.350264],[-71.056546,42.350264],[-71.05662,42.350194],[-71.056602,42.350163],[-71.056725,42.35002],[-71.056715,42.349981],[-71.05677,42.349929],[-71.056759,42.34989],[-71.05679,42.349849],[-71.056783,42.349823],[-71.056829,42.34976]]],[[[-71.056798,42.350307],[-71.056767,42.350297],[-71.056725,42.350336],[-71.056725,42.350355],[-71.056751,42.350355],[-71.056798,42.350307]]],[[[-71.056748,42.351994],[-71.056717,42.351984],[-71.056669,42.352029],[-71.056669,42.352048],[-71.056695,42.352048],[-71.056748,42.351994]]],[[[-71.056643,42.350613],[-71.056612,42.350603],[-71.056561,42.350651],[-71.056573,42.350674],[-71.056526,42.350718],[-71.056526,42.350737],[-71.056552,42.350737],[-71.056603,42.35069],[-71.05659,42.350667],[-71.056643,42.350613]]],[[[-71.056626,42.353203],[-71.05659,42.353185],[-71.056521,42.353246],[-71.056521,42.353273],[-71.056549,42.353277],[-71.056626,42.353203]]],[[[-71.056559,42.353165],[-71.056526,42.353155],[-71.056472,42.353205],[-71.056472,42.353226],[-71.056499,42.353226],[-71.056559,42.353165]]],[[[-71.056559,42.350834],[-71.056544,42.350809],[-71.056491,42.350801],[-71.056394,42.350886],[-71.056394,42.350914],[-71.05642,42.350933],[-71.056457,42.350933],[-71.056559,42.350834]]],[[[-71.056484,42.353127],[-71.056451,42.353117],[-71.056397,42.353167],[-71.056397,42.353188],[-71.056424,42.353188],[-71.056484,42.353127]]],[[[-71.056468,42.35192],[-71.056437,42.35191],[-71.056386,42.351958],[-71.056386,42.351977],[-71.056412,42.351977],[-71.056468,42.35192]]],[[[-71.056428,42.35103],[-71.056397,42.35102],[-71.056355,42.351059],[-71.056355,42.351078],[-71.056381,42.351078],[-71.056428,42.35103]]],[[[-71.056398,42.351097],[-71.056367,42.351087],[-71.056316,42.351135],[-71.056316,42.351154],[-71.056342,42.351154],[-71.056398,42.351097]]],[[[-71.056393,42.35309],[-71.056354,42.353078],[-71.056296,42.353131],[-71.056296,42.353155],[-71.056329,42.353155],[-71.056393,42.35309]]],[[[-71.056388,42.3519],[-71.056357,42.35189],[-71.056318,42.351926],[-71.056318,42.351945],[-71.056344,42.351945],[-71.056388,42.3519]]],[[[-71.056364,42.351176],[-71.056333,42.351166],[-71.056291,42.351205],[-71.056291,42.351224],[-71.056317,42.351224],[-71.056364,42.351176]]],[[[-71.056338,42.35493],[-71.056307,42.35492],[-71.056256,42.354968],[-71.056256,42.354987],[-71.056282,42.354987],[-71.056338,42.35493]]],[[[-71.056328,42.354836],[-71.056297,42.354826],[-71.056246,42.354874],[-71.056246,42.354893],[-71.056272,42.354893],[-71.056328,42.354836]]],[[[-71.056309,42.35475],[-71.056276,42.35474],[-71.056222,42.35479],[-71.056222,42.354811],[-71.056249,42.354811],[-71.056309,42.35475]]],[[[-71.056306,42.35467],[-71.05627,42.354652],[-71.056201,42.354713],[-71.056201,42.35474],[-71.056229,42.354744],[-71.056306,42.35467]]],[[[-71.056258,42.351376],[-71.056227,42.351366],[-71.056182,42.351408],[-71.056132,42.351501],[-71.056158,42.351501],[-71.056203,42.35146],[-71.056258,42.351376]]],[[[-71.056256,42.350842],[-71.056225,42.350832],[-71.056174,42.35088],[-71.056174,42.350899],[-71.0562,42.350899],[-71.056256,42.350842]]],[[[-71.056248,42.35305],[-71.056217,42.35304],[-71.056175,42.353079],[-71.056175,42.353098],[-71.056201,42.353098],[-71.056248,42.35305]]],[[[-71.056226,42.350933],[-71.056195,42.350923],[-71.056144,42.350971],[-71.056144,42.35099],[-71.05617,42.35099],[-71.056226,42.350933]]],[[[-71.056186,42.351036],[-71.056155,42.351026],[-71.056104,42.351074],[-71.056104,42.351093],[-71.05613,42.351093],[-71.056186,42.351036]]],[[[-71.056148,42.351145],[-71.056117,42.351135],[-71.056066,42.351183],[-71.056066,42.351202],[-71.056092,42.351202],[-71.056148,42.351145]]],[[[-71.056078,42.35171],[-71.056047,42.3517],[-71.056002,42.351742],[-71.056002,42.351761],[-71.056028,42.351761],[-71.056078,42.35171]]],[[[-71.055977,42.351355],[-71.055946,42.351345],[-71.055895,42.351393],[-71.055908,42.351416],[-71.055871,42.35145],[-71.055884,42.351473],[-71.055838,42.35152],[-71.055838,42.351539],[-71.055864,42.351539],[-71.055915,42.351492],[-71.055902,42.351469],[-71.055948,42.351422],[-71.055935,42.351399],[-71.055977,42.351355]]],[[[-71.055888,42.351561],[-71.055857,42.351551],[-71.055806,42.351599],[-71.055818,42.351622],[-71.055777,42.35166],[-71.055777,42.351679],[-71.055803,42.351679],[-71.055854,42.351632],[-71.055842,42.351609],[-71.055888,42.351561]]],[[[-71.055869,42.352226],[-71.055839,42.352193],[-71.055786,42.352201],[-71.055704,42.352278],[-71.05567,42.352328],[-71.05567,42.352356],[-71.055715,42.352378],[-71.055749,42.352368],[-71.055831,42.35229],[-71.055869,42.352226]]],[[[-71.055808,42.351727],[-71.055777,42.351717],[-71.055726,42.351765],[-71.055706,42.351833],[-71.055732,42.351833],[-71.055783,42.351786],[-71.055808,42.351727]]],[[[-71.055788,42.353336],[-71.055768,42.353314],[-71.055733,42.353319],[-71.055558,42.35347],[-71.055558,42.353491],[-71.055585,42.353491],[-71.05561,42.353468],[-71.055652,42.353468],[-71.055788,42.353336]]],[[[-71.055558,42.353497],[-71.05554,42.353484],[-71.055492,42.35352],[-71.055467,42.35352],[-71.055422,42.353562],[-71.055422,42.353581],[-71.055502,42.353554],[-71.055558,42.353497]]],[[[-71.055262,42.353653],[-71.055244,42.35364],[-71.055189,42.353657],[-71.055096,42.353741],[-71.055096,42.353765],[-71.055167,42.353746],[-71.055262,42.353653]]]]},"properties":{"kind":"tree"}}]}