{"type":"FeatureCollection","features":[{"type":"Feature","geometry":{"type":"MultiPolygon","coordinates":[[[[-71.06703,42.351826],[-71.067007,42.351692],[-71.066747,42.351106],[-71.065643,42.351236],[-71.065991,42.350995],[-71.065959,42.350666],[-71.065881,42.350665],[-71.065953,42.350615],[-71.06593,42.350327],[-71.065758,42.350337],[-71.065706,42.350364],[-71.065916,42.350219],[-71.065881,42.34989],[-71.065805,42.349803],[-71.065869,42.349759],[-71.06596,42.34974],[-71.066095,42.349646],[-71.066032,42.349535],[-71.066107,42.349483],[-71.066051,42.349385],[-71.065989,42.349405],[-71.065887,42.349476],[-71.06562,42.349445],[-71.065521,42.349461],[-71.065271,42.349634],[-71.065181,42.350054],[-71.064935,42.350225],[-71.064877,42.350205],[-71.065043,42.35009],[-71.065169,42.349617],[-71.064416,42.349501],[-71.064328,42.349562],[-71.063761,42.349475],[-71.063653,42.349372],[-71.063696,42.349342],[-71.063746,42.349213],[-71.063772,42.349073],[-71.063736,42.349067],[-71.063827,42.348879],[-71.063945,42.348463],[-71.063687,42.348423],[-71.063758,42.348374],[-71.063875,42.348391],[-71.06402,42.348291],[-71.064113,42.347947],[-71.063968,42.347919],[-71.063662,42.348119],[-71.063538,42.348106],[-71.063606,42.347866],[-71.06346,42.347843],[-71.063345,42.347923],[-71.063276,42.348177],[-71.063248,42.348196],[-71.06323,42.348148],[-71.063187,42.348141],[-71.06328,42.348076],[-71.063299,42.348007],[-71.063239,42.347985],[-71.062961,42.347921],[-71.062879,42.347978],[-71.062735,42.347939],[-71.062597,42.348034],[-71.062553,42.348146],[-71.062593,42.348158],[-71.062514,42.348213],[-71.062487,42.348281],[-71.062547,42.34829],[-71.062366,42.348415],[-71.06221,42.348809],[-71.062288,42.348822],[-71.062174,42.348916],[-71.062055,42.34922],[-71.062066,42.349225],[-71.062011,42.349315],[-71.062013,42.349331],[-71.062082,42.349366],[-71.061875,42.34951],[-71.061975,42.34927],[-71.061808,42.349235],[-71.061839,42.34916],[-71.061745,42.349139],[-71.061719,42.349152],[-71.061783,42.348996],[-71.061763,42.348991],[-71.061895,42.34873],[-71.061814,42.348712],[-71.061867,42.34858],[-71.062131,42.348641],[-71.062216,42.348582],[-71.06226,42.348505],[-71.062367,42.34823],[-71.062255,42.348206],[-71.062111,42.348306],[-71.062069,42.348411],[-71.061947,42.348382],[-71.061972,42.34832],[-71.062007,42.348322],[-71.062411,42.348042],[-71.062446,42.347953],[-71.061926,42.347827],[-71.061735,42.347958],[-71.061866,42.34764],[-71.061712,42.347604],[-71.061211,42.347951],[-71.061077,42.348272],[-71.060985,42.348354],[-71.060955,42.348458],[-71.060965,42.34846],[-71.060896,42.348625],[-71.060915,42.348629],[-71.060875,42.348712],[-71.060991,42.348742],[-71.061127,42.348648],[-71.061183,42.348513],[-71.061202,42.348518],[-71.061236,42.348494],[-71.061223,42.348526],[-71.061266,42.34858],[-71.061116,42.348684],[-71.061072,42.348791],[-71.061097,42.348797],[-71.060969,42.348886],[-71.060949,42.348918],[-71.060878,42.348902],[-71.060742,42.348996],[-71.060723,42.349044],[-71.060625,42.349327],[-71.060855,42.349417],[-71.060872,42.349405],[-71.060865,42.349425],[-71.061069,42.349516],[-71.061168,42.349447],[-71.061052,42.349745],[-71.0609,42.34985],[-71.060853,42.349968],[-71.060509,42.349891],[-71.060257,42.350065],[-71.060327,42.349891],[-71.06027,42.349814],[-71.060367,42.349747],[-71.060567,42.349259],[-71.060443,42.349109],[-71.060372,42.349082],[-71.060786,42.348796],[-71.061068,42.348118],[-71.061011,42.348097],[-71.060229,42.348639],[-71.059767,42.349281],[-71.059944,42.349324],[-71.059539,42.349605],[-71.059319,42.350146],[-71.059047,42.350086],[-71.058996,42.350102],[-71.058747,42.350274],[-71.05844,42.351033],[-71.058472,42.351069],[-71.05853,42.351082],[-71.058427,42.351154],[-71.058156,42.351832],[-71.058352,42.351875],[-71.058558,42.351732],[-71.058721,42.35158],[-71.05892,42.351331],[-71.059005,42.351183],[-71.059038,42.351101],[-71.059022,42.351097],[-71.059198,42.350975],[-71.05933,42.350648],[-71.059444,42.350684],[-71.059615,42.350565],[-71.059592,42.350639],[-71.059634,42.350648],[-71.059609,42.350721],[-71.059819,42.350766],[-71.059858,42.350739],[-71.05992,42.350752],[-71.060019,42.350684],[-71.06003,42.350657],[-71.060067,42.350668],[-71.0598,42.351271],[-71.059758,42.351262],[-71.059501,42.35144],[-71.059452,42.351569],[-71.059463,42.351629],[-71.059443,42.351642],[-71.059472,42.351819],[-71.05952,42.351815],[-71.059386,42.351848],[-71.059096,42.352049],[-71.058906,42.352152],[-71.058349,42.352538],[-71.058142,42.35255],[-71.057795,42.352785],[-71.057688,42.352735],[-71.05756,42.352748],[-71.05729,42.352902],[-71.057163,42.352943],[-71.056646,42.3533],[-71.056638,42.353263],[-71.056242,42.353099],[-71.055573,42.353469],[-71.055357,42.353619],[-71.055342,42.353603],[-71.054826,42.3539],[-71.054776,42.353908],[-71.054391,42.354111],[-71.052944,42.355113],[-71.052912,42.355151],[-71.052911,42.355191],[-71.053172,42.355473],[-71.053239,42.355487],[-71.053289,42.355471],[-71.054736,42.354469],[-71.055049,42.354192],[-71.055294,42.354095],[-71.055475,42.35397],[-71.05555,42.354001],[-71.054945,42.354407],[-71.054987,42.354446],[-71.054669,42.354666],[-71.054358,42.35492],[-71.053885,42.355248],[-71.053902,42.355263],[-71.053745,42.355371],[-71.053744,42.355409],[-71.053786,42.355447],[-71.053777,42.35546],[-71.053905,42.355557],[-71.053955,42.355561],[-71.054115,42.355466],[-71.054134,42.355482],[-71.054403,42.355318],[-71.054863,42.355],[-71.054984,42.354952],[-71.05522,42.354791],[-71.055253,42.35488],[-71.055367,42.354863],[-71.054706,42.35532],[-71.054731,42.355459],[-71.053506,42.356307],[-71.053612,42.356885],[-71.054064,42.356841],[-71.055211,42.356046],[-71.05603,42.355988],[-71.057349,42.355074],[-71.057329,42.354923],[-71.05689,42.354747],[-71.056804,42.354753],[-71.057519,42.354258],[-71.05758,42.354295],[-71.057267,42.354774],[-71.057656,42.354895],[-71.057938,42.3547],[-71.058208,42.354438],[-71.058276,42.354488],[-71.057812,42.35493],[-71.057554,42.355125],[-71.057572,42.355161],[-71.057564,42.35519],[-71.057592,42.355201],[-71.057663,42.355342],[-71.05779,42.355357],[-71.057853,42.355335],[-71.058451,42.354923],[-71.058723,42.354659],[-71.058871,42.354675],[-71.059417,42.354293],[-71.059433,42.354299],[-71.05942,42.354313],[-71.059447,42.354416],[-71.059179,42.354635],[-71.059081,42.35459],[-71.059033,42.354595],[-71.058919,42.354674],[-71.058771,42.354808],[-71.058594,42.354931],[-71.058269,42.35523],[-71.058273,42.355256],[-71.05848,42.355346],[-71.058165,42.355568],[-71.057885,42.355843],[-71.057959,42.355898],[-71.058251,42.356017],[-71.058935,42.355544],[-71.058959,42.355554],[-71.059228,42.355368],[-71.059411,42.355198],[-71.059734,42.355441],[-71.060002,42.355259],[-71.06034,42.355493],[-71.060574,42.355319],[-71.061247,42.354679],[-71.061407,42.354678],[-71.06108,42.354946],[-71.060915,42.355101],[-71.06094,42.355114],[-71.060759,42.355284],[-71.061072,42.355441],[-71.061373,42.355233],[-71.061475,42.355122],[-71.061543,42.355157],[-71.061529,42.355171],[-71.061795,42.355309],[-71.061812,42.355297],[-71.061951,42.355368],[-71.062162,42.355222],[-71.062213,42.35525],[-71.062157,42.355305],[-71.062247,42.355356],[-71.06247,42.355407],[-71.062621,42.355303],[-71.062836,42.355417],[-71.063118,42.355222],[-71.06318,42.355155],[-71.063146,42.355127],[-71.063255,42.355044],[-71.063852,42.353943],[-71.063862,42.353896],[-71.06382,42.353883],[-71.063892,42.353833],[-71.063985,42.353676],[-71.063998,42.353634],[-71.063956,42.353621],[-71.064052,42.353554],[-71.064097,42.353425],[-71.06399,42.353404],[-71.064146,42.353296],[-71.064266,42.352985],[-71.064309,42.35284],[-71.064272,42.352837],[-71.064309,42.352812],[-71.064353,42.352644],[-71.064588,42.352653],[-71.064583,42.352667],[-71.064648,42.352677],[-71.065024,42.352692],[-71.065193,42.352575],[-71.065246,42.352579],[-71.065229,42.352685],[-71.065426,42.3527],[-71.06566,42.352538],[-71.065667,42.352595],[-71.065763,42.3526],[-71.066063,42.352392],[-71.066072,42.352281],[-71.066109,42.352281],[-71.06627,42.352169],[-71.066408,42.352175],[-71.066591,42.35213],[-71.06703,42.351826]],[[-71.065675,42.349797],[-71.06566,42.349801],[-71.065664,42.349783],[-71.065675,42.349797]],[[-71.0652,42.350659],[-71.064835,42.350911],[-71.064855,42.350843],[-71.064842,42.350842],[-71.064902,42.350642],[-71.064888,42.350636],[-71.064903,42.350616],[-71.065142,42.350629],[-71.065138,42.35065],[-71.0652,42.350659]],[[-71.064614,42.351536],[-71.064611,42.351547],[-71.0646,42.351546],[-71.064614,42.351536]],[[-71.064609,42.351868],[-71.064579,42.351889],[-71.064585,42.351866],[-71.064609,42.351868]],[[-71.06458,42.351711],[-71.064573,42.351737],[-71.064546,42.351734],[-71.06458,42.351711]],[[-71.064496,42.351184],[-71.064496,42.351185],[-71.064493,42.351186],[-71.064496,42.351184]],[[-71.064282,42.352403],[-71.064281,42.352407],[-71.064276,42.352407],[-71.064282,42.352403]],[[-71.064006,42.350306],[-71.063881,42.350411],[-71.06386,42.350408],[-71.064006,42.350306]],[[-71.063971,42.351927],[-71.063922,42.351961],[-71.063857,42.351955],[-71.063876,42.351916],[-71.063971,42.351927]],[[-71.063916,42.351111],[-71.063877,42.351138],[-71.063315,42.351073],[-71.063542,42.350915],[-71.06359,42.350922],[-71.063549,42.350986],[-71.063916,42.351111]],[[-71.063675,42.353628],[-71.063568,42.353702],[-71.063619,42.353606],[-71.063675,42.353628]],[[-71.063606,42.348425],[-71.063434,42.348544],[-71.063476,42.348381],[-71.063133,42.348329],[-71.063229,42.348263],[-71.06322,42.348293],[-71.063512,42.348337],[-71.063551,42.348417],[-71.063606,42.348425]],[[-71.063482,42.350403],[-71.062964,42.350762],[-71.063114,42.350301],[-71.063279,42.350187],[-71.063482,42.350403]],[[-71.063296,42.352359],[-71.063294,42.352388],[-71.06324,42.352398],[-71.063296,42.352359]],[[-71.063224,42.351579],[-71.062895,42.351546],[-71.06267,42.351702],[-71.062678,42.351664],[-71.062576,42.35163],[-71.062728,42.351525],[-71.062777,42.351335],[-71.062867,42.351349],[-71.062875,42.351368],[-71.062822,42.351525],[-71.063224,42.351579]],[[-71.063176,42.348148],[-71.063151,42.348165],[-71.063024,42.348146],[-71.063058,42.348122],[-71.063176,42.348148]],[[-71.063115,42.348947],[-71.063109,42.34897],[-71.063074,42.348966],[-71.062957,42.349047],[-71.063022,42.348933],[-71.063115,42.348947]],[[-71.062965,42.3481],[-71.062955,42.348135],[-71.062886,42.348123],[-71.062741,42.348216],[-71.062728,42.348268],[-71.062664,42.348259],[-71.062871,42.348095],[-71.062965,42.3481]],[[-71.062932,42.352431],[-71.062889,42.352436],[-71.0629,42.352428],[-71.062932,42.352431]],[[-71.062767,42.350926],[-71.062711,42.351017],[-71.062649,42.351008],[-71.062767,42.350926]],[[-71.06257,42.353495],[-71.061989,42.353897],[-71.061956,42.353882],[-71.062502,42.35349],[-71.06257,42.353495]],[[-71.062504,42.349297],[-71.062428,42.349389],[-71.062361,42.349359],[-71.062476,42.349285],[-71.062504,42.349297]],[[-71.062289,42.34994],[-71.062213,42.349914],[-71.062229,42.349907],[-71.062289,42.34994]],[[-71.062174,42.354854],[-71.062068,42.354824],[-71.062084,42.354811],[-71.062174,42.354854]],[[-71.062095,42.349874],[-71.062085,42.349872],[-71.062087,42.349871],[-71.062095,42.349874]],[[-71.061936,42.351527],[-71.0619,42.351528],[-71.061934,42.351505],[-71.061936,42.351527]],[[-71.06185,42.349625],[-71.06171,42.349964],[-71.061764,42.349987],[-71.061665,42.350056],[-71.061778,42.349762],[-71.061701,42.34973],[-71.061812,42.349653],[-71.061836,42.349598],[-71.06185,42.349625]],[[-71.06174,42.348283],[-71.061542,42.348775],[-71.061454,42.348836],[-71.06136,42.349094],[-71.061374,42.349097],[-71.061361,42.349137],[-71.06137,42.349151],[-71.06132,42.349228],[-71.061309,42.349281],[-71.061206,42.349342],[-71.061269,42.349298],[-71.061362,42.349071],[-71.061384,42.349005],[-71.061337,42.348995],[-71.061377,42.348967],[-71.061436,42.348818],[-71.061393,42.348786],[-71.061479,42.348726],[-71.061598,42.348425],[-71.06164,42.348359],[-71.061414,42.348308],[-71.061341,42.348359],[-71.061295,42.34834],[-71.061479,42.348209],[-71.061474,42.348223],[-71.06174,42.348283]],[[-71.061536,42.350485],[-71.061521,42.350522],[-71.061291,42.350687],[-71.061228,42.350671],[-71.061484,42.350494],[-71.061496,42.350466],[-71.061536,42.350485]],[[-71.061379,42.350916],[-71.061345,42.35094],[-71.061313,42.35102],[-71.06137,42.351033],[-71.061307,42.351236],[-71.061109,42.351373],[-71.061227,42.351071],[-71.060769,42.350979],[-71.06053,42.351144],[-71.060595,42.350984],[-71.060568,42.350978],[-71.0607,42.350649],[-71.060785,42.350666],[-71.060743,42.350695],[-71.060683,42.350882],[-71.060899,42.35093],[-71.06104,42.350914],[-71.061034,42.350931],[-71.061154,42.350959],[-71.061269,42.350888],[-71.061379,42.350916]],[[-71.061344,42.353338],[-71.061137,42.353481],[-71.061123,42.353474],[-71.061284,42.353363],[-71.061294,42.35334],[-71.061344,42.353338]],[[-71.061253,42.352201],[-71.061113,42.352298],[-71.061125,42.352254],[-71.061114,42.352118],[-71.06117,42.352116],[-71.061188,42.352205],[-71.061253,42.352201]],[[-71.061042,42.349207],[-71.061016,42.349226],[-71.06102,42.349213],[-71.060994,42.349204],[-71.060936,42.349221],[-71.06089,42.349204],[-71.060945,42.349167],[-71.060938,42.349185],[-71.061042,42.349207]],[[-71.061008,42.350217],[-71.060729,42.35041],[-71.060683,42.350522],[-71.060592,42.350497],[-71.060828,42.350333],[-71.060894,42.35017],[-71.061008,42.350217]],[[-71.060991,42.349088],[-71.060987,42.349097],[-71.060941,42.349067],[-71.060991,42.349088]],[[-71.060978,42.351484],[-71.060961,42.351526],[-71.060928,42.351519],[-71.060978,42.351484]],[[-71.060673,42.353094],[-71.060353,42.353445],[-71.060398,42.353476],[-71.060054,42.353714],[-71.060133,42.353635],[-71.059811,42.353458],[-71.059783,42.353477],[-71.059727,42.353453],[-71.059799,42.353403],[-71.059925,42.353468],[-71.06021,42.353271],[-71.060292,42.353183],[-71.06044,42.353255],[-71.060673,42.353094]],[[-71.060434,42.351752],[-71.060387,42.351785],[-71.06037,42.351738],[-71.060434,42.351752]],[[-71.060416,42.351316],[-71.060375,42.351411],[-71.060277,42.351478],[-71.060247,42.351383],[-71.060302,42.351394],[-71.060416,42.351316]],[[-71.060312,42.35216],[-71.060239,42.352211],[-71.060118,42.352221],[-71.05975,42.352476],[-71.059793,42.35276],[-71.060096,42.352757],[-71.060101,42.352804],[-71.060079,42.352819],[-71.060036,42.352956],[-71.059657,42.352762],[-71.059553,42.352772],[-71.059359,42.352906],[-71.059331,42.352666],[-71.059464,42.352675],[-71.059748,42.352478],[-71.059715,42.352263],[-71.059813,42.352254],[-71.059986,42.352135],[-71.060099,42.352109],[-71.060103,42.352122],[-71.060286,42.352091],[-71.060312,42.35216]],[[-71.060104,42.351337],[-71.060104,42.351339],[-71.060102,42.351338],[-71.060104,42.351337]],[[-71.060072,42.351862],[-71.06,42.351903],[-71.059961,42.35166],[-71.060002,42.351656],[-71.060072,42.351862]],[[-71.059333,42.353459],[-71.058965,42.353713],[-71.058837,42.353827],[-71.058868,42.353845],[-71.058768,42.353953],[-71.058784,42.353962],[-71.058484,42.35417],[-71.05852,42.354135],[-71.058457,42.354094],[-71.05861,42.353988],[-71.05922,42.353403],[-71.059185,42.353377],[-71.05913,42.353376],[-71.059218,42.353315],[-71.059233,42.353407],[-71.059333,42.353459]],[[-71.059179,42.352557],[-71.059124,42.352551],[-71.059173,42.352517],[-71.059179,42.352557]],[[-71.056169,42.353706],[-71.056167,42.353768],[-71.056101,42.353814],[-71.056092,42.353765],[-71.05607,42.353774],[-71.056169,42.353706]],[[-71.055668,42.354007],[-71.055643,42.354024],[-71.055639,42.35402],[-71.055668,42.354007]]],[[[-71.066483,42.348529],[-71.06591,42.348462],[-71.065995,42.348064],[-71.065837,42.348044],[-71.065408,42.348341],[-71.065403,42.348363],[-71.065343,42.348295],[-71.065475,42.348175],[-71.065475,42.348101],[-71.065403,42.34802],[-71.06552,42.347941],[-71.065529,42.347903],[-71.065491,42.347827],[-71.065392,42.347805],[-71.065371,42.347781],[-71.065289,42.347784],[-71.065318,42.347764],[-71.065319,42.347677],[-71.065257,42.347643],[-71.064894,42.347587],[-71.064503,42.347783],[-71.064335,42.3479],[-71.064221,42.348162],[-71.064172,42.348337],[-71.064208,42.348343],[-71.064312,42.348301],[-71.064337,42.348329],[-71.064594,42.348199],[-71.064633,42.348208],[-71.064497,42.348267],[-71.063977,42.348627],[-71.063946,42.348652],[-71.06392,42.348746],[-71.06413,42.348778],[-71.064032,42.349062],[-71.06429,42.349102],[-71.064199,42.349165],[-71.064152,42.349272],[-71.064165,42.349288],[-71.064082,42.349345],[-71.064331,42.349514],[-71.064528,42.34941],[-71.064598,42.349431],[-71.06486,42.349308],[-71.065103,42.34914],[-71.0652,42.34913],[-71.065279,42.349075],[-71.06533,42.348887],[-71.065323,42.348802],[-71.065279,42.348688],[-71.064992,42.348617],[-71.064618,42.348572],[-71.064806,42.348442],[-71.064851,42.348357],[-71.064864,42.348366],[-71.064905,42.34834],[-71.065049,42.348506],[-71.065068,42.348497],[-71.065074,42.348513],[-71.065347,42.348458],[-71.065388,42.348434],[-71.065323,42.348741],[-71.06539,42.34875],[-71.06536,42.348771],[-71.065345,42.34884],[-71.065419,42.348849],[-71.065441,42.348851],[-71.065568,42.348763],[-71.065584,42.348817],[-71.066122,42.34888],[-71.066458,42.348649],[-71.066483,42.348529]]],[[[-71.065565,42.354342],[-71.065534,42.354305],[-71.065469,42.354307],[-71.065347,42.354392],[-71.065338,42.354431],[-71.065373,42.35446],[-71.065433,42.354456],[-71.065545,42.354379],[-71.065565,42.354342]]],[[[-71.065421,42.352871],[-71.065303,42.352844],[-71.065244,42.352885],[-71.065227,42.352932],[-71.065253,42.353013],[-71.065319,42.353027],[-71.065378,42.352986],[-71.065421,42.352871]]],[[[-71.06461,42.353278],[-71.064542,42.353266],[-71.064498,42.353296],[-71.064464,42.353396],[-71.064532,42.35341],[-71.064576,42.35338],[-71.06461,42.353278]]],[[[-71.063935,42.354829],[-71.063869,42.354811],[-71.063827,42.35484],[-71.063804,42.354889],[-71.06387,42.354906],[-71.063912,42.354877],[-71.063935,42.354829]]],[[[-71.059318,42.349726],[-71.059179,42.349693],[-71.059116,42.349736],[-71.059042,42.349909],[-71.059181,42.349942],[-71.059244,42.349899],[-71.059318,42.349726]]],[[[-71.058776,42.350034],[-71.058372,42.349945],[-71.058263,42.35002],[-71.058289,42.349924],[-71.058046,42.34987],[-71.058297,42.349696],[-71.058424,42.349376],[-71.057926,42.349266],[-71.057817,42.349342],[-71.05775,42.349509],[-71.057798,42.349519],[-71.057608,42.349651],[-71.057533,42.349836],[-71.05748,42.349873],[-71.057505,42.349748],[-71.057133,42.349667],[-71.056676,42.349983],[-71.056575,42.350214],[-71.056684,42.350242],[-71.056673,42.350267],[-71.056596,42.350321],[-71.056543,42.350393],[-71.056445,42.350581],[-71.056304,42.350679],[-71.056273,42.350727],[-71.056283,42.350769],[-71.05633,42.350809],[-71.056419,42.350818],[-71.0563,42.351068],[-71.056351,42.351081],[-71.056258,42.351145],[-71.056116,42.351446],[-71.055838,42.351647],[-71.055623,42.352081],[-71.055901,42.352154],[-71.055316,42.352559],[-71.055299,42.352594],[-71.053775,42.353649],[-71.053698,42.353813],[-71.054292,42.353962],[-71.054574,42.353857],[-71.055741,42.353049],[-71.056235,42.352916],[-71.056859,42.352484],[-71.05697,42.352303],[-71.057581,42.352491],[-71.057949,42.352238],[-71.058115,42.351737],[-71.058103,42.35172],[-71.058045,42.351711],[-71.058131,42.351651],[-71.058414,42.350953],[-71.058105,42.350876],[-71.058334,42.350917],[-71.058459,42.35083],[-71.058581,42.350557],[-71.058587,42.350541],[-71.058574,42.350538],[-71.058706,42.35021],[-71.058767,42.350099],[-71.058776,42.350034]],[[-71.05804,42.35092],[-71.058039,42.350921],[-71.058039,42.35092],[-71.05804,42.35092]],[[-71.057959,42.350811],[-71.057948,42.350849],[-71.057915,42.350841],[-71.057959,42.350811]],[[-71.057606,42.349906],[-71.057451,42.350013],[-71.05746,42.349972],[-71.057567,42.349898],[-71.057606,42.349906]],[[-71.057445,42.350829],[-71.057268,42.350951],[-71.057283,42.35088],[-71.057341,42.350894],[-71.057445,42.350829]],[[-71.057242,42.35061],[-71.05723,42.350668],[-71.057176,42.350655],[-71.057242,42.35061]],[[-71.057163,42.351741],[-71.057127,42.351766],[-71.057132,42.351739],[-71.057163,42.351741]],[[-71.057132,42.351536],[-71.057105,42.35167],[-71.057005,42.351624],[-71.057132,42.351536]],[[-71.056945,42.352117],[-71.056927,42.352213],[-71.056838,42.352191],[-71.056945,42.352117]]],[[[-71.058071,42.348706],[-71.057613,42.348605],[-71.057049,42.348996],[-71.056965,42.349205],[-71.057424,42.349306],[-71.057988,42.348915],[-71.058071,42.348706]]],[[[-71.056775,42.349199],[-71.056596,42.349149],[-71.055487,42.349466],[-71.055387,42.349536],[-71.056683,42.347603],[-71.056673,42.347544],[-71.055908,42.347262],[-71.055696,42.347409],[-71.054321,42.349456],[-71.0543,42.349512],[-71.054087,42.34966],[-71.053117,42.351103],[-71.053698,42.351318],[-71.053962,42.351134],[-71.054241,42.351237],[-71.054337,42.351171],[-71.054913,42.350312],[-71.054758,42.350648],[-71.054816,42.350664],[-71.0549,42.350607],[-71.055144,42.350793],[-71.055329,42.350854],[-71.055931,42.350843],[-71.056015,42.350827],[-71.056238,42.350673],[-71.056434,42.350281],[-71.056635,42.349782],[-71.056775,42.349199]]],[[[-71.055768,42.35162],[-71.055498,42.351545],[-71.054479,42.351779],[-71.054137,42.352016],[-71.053965,42.352191],[-71.054491,42.352469],[-71.054651,42.35252],[-71.054819,42.352545],[-71.054996,42.352505],[-71.055458,42.352178],[-71.055549,42.352069],[-71.055768,42.35162]]]]},"properties":{"kind":"building"}},{"type":"Feature","geometry":{"type":"MultiPolygon","coordinates":[[[[-71.066058,42.353451],[-71.066047,42.35341],[-71.066015,42.353375],[-71.065968,42.353351],[-71.065856,42.353351],[-71.065594,42.353523],[-71.065583,42.353467],[-71.065551,42.353432],[-71.065448,42.3534],[-71.065378,42.353415],[-71.065361,42.353396],[-71.065535,42.353292],[-71.065566,42.353316],[-71.065568,42.353363],[-71.065589,42.353385],[-71.065655,42.353405],[-71.065691,42.3534],[-71.065911,42.353246],[-71.065918,42.353219],[-71.065891,42.35317],[-71.066007,42.353073],[-71.066016,42.353039],[-71.065997,42.352994],[-71.066039,42.352955],[-71.066048,42.352923],[-71.066021,42.352832],[-71.065989,42.352797],[-71.065886,42.352765],[-71.06583,42.352773],[-71.065768,42.352807],[-71.065768,42.352761],[-71.065724,42.352729],[-71.065735,42.352718],[-71.065775,42.352748],[-71.065832,42.352748],[-71.066,42.352636],[-71.066022,42.352597],[-71.065976,42.352546],[-71.065918,42.352546],[-71.065881,42.352568],[-71.065812,42.352534],[-71.065759,42.35255],[-71.065688,42.352518],[-71.065635,42.352534],[-71.065325,42.352748],[-71.065325,42.3528],[-71.065345,42.352822],[-71.065437,42.352837],[-71.065299,42.352941],[-71.065299,42.352996],[-71.065339,42.353029],[-71.065311,42.353055],[-71.065309,42.353096],[-71.065227,42.353162],[-71.065221,42.353201],[-71.065126,42.353251],[-71.065125,42.35323],[-71.065207,42.353169],[-71.065207,42.353143],[-71.065303,42.35307],[-71.065303,42.353032],[-71.065244,42.353001],[-71.065271,42.352979],[-71.065271,42.352957],[-71.065235,42.352939],[-71.065101,42.353025],[-71.065101,42.353047],[-71.065122,42.353062],[-71.065042,42.353126],[-71.065042,42.353164],[-71.064976,42.353168],[-71.064829,42.353262],[-71.064808,42.353259],[-71.064928,42.353148],[-71.064939,42.353107],[-71.06493,42.353073],[-71.065009,42.353062],[-71.065164,42.352948],[-71.065169,42.352928],[-71.065149,42.352891],[-71.065175,42.352866],[-71.065167,42.35283],[-71.065204,42.352786],[-71.065253,42.352767],[-71.065457,42.352616],[-71.065465,42.352587],[-71.065434,42.352533],[-71.065361,42.35251],[-71.065288,42.352533],[-71.065084,42.352683],[-71.065076,42.352713],[-71.065099,42.352759],[-71.064969,42.352854],[-71.064974,42.352941],[-71.064908,42.352987],[-71.064887,42.353025],[-71.064865,42.353015],[-71.06483,42.352952],[-71.064791,42.352933],[-71.064699,42.352933],[-71.064432,42.353121],[-71.064423,42.353155],[-71.064449,42.353208],[-71.064432,42.353256],[-71.064443,42.353297],[-71.064475,42.353332],[-71.064391,42.353397],[-71.064359,42.353454],[-71.064391,42.353512],[-71.064488,42.353533],[-71.064227,42.353713],[-71.064227,42.353749],[-71.064193,42.353783],[-71.064193,42.353819],[-71.064161,42.353859],[-71.064192,42.353895],[-71.06412,42.353945],[-71.064095,42.353989],[-71.064092,42.354073],[-71.064136,42.354106],[-71.063965,42.354251],[-71.06396,42.354272],[-71.063981,42.35431],[-71.063943,42.354343],[-71.063911,42.354403],[-71.063809,42.354481],[-71.063809,42.354527],[-71.063688,42.354631],[-71.063677,42.354672],[-71.06371,42.354738],[-71.063644,42.354791],[-71.063641,42.35483],[-71.063607,42.35486],[-71.063607,42.354905],[-71.063649,42.354936],[-71.063709,42.354936],[-71.063882,42.354821],[-71.063956,42.354731],[-71.064173,42.354564],[-71.064176,42.354493],[-71.064367,42.35436],[-71.064403,42.35431],[-71.064602,42.354175],[-71.064663,42.354117],[-71.064702,42.354125],[-71.064759,42.354108],[-71.064929,42.353983],[-71.064929,42.353937],[-71.064885,42.353905],[-71.064823,42.353905],[-71.064746,42.353952],[-71.064785,42.3539],[-71.064779,42.353878],[-71.064737,42.353847],[-71.064677,42.353847],[-71.064634,42.353872],[-71.064632,42.353832],[-71.064588,42.3538],[-71.064508,42.353809],[-71.064437,42.353774],[-71.064387,42.353789],[-71.064441,42.353731],[-71.064525,42.353711],[-71.064724,42.353564],[-71.064724,42.353508],[-71.06467,42.353467],[-71.064617,42.353464],[-71.064632,42.353453],[-71.064696,42.353457],[-71.064746,42.353427],[-71.064828,42.353456],[-71.064906,42.353432],[-71.06474,42.353555],[-71.06474,42.353595],[-71.064756,42.353612],[-71.064834,42.353623],[-71.064874,42.35368],[-71.064914,42.3537],[-71.065009,42.3537],[-71.065088,42.353653],[-71.065098,42.353698],[-71.065177,42.353757],[-71.065233,42.353765],[-71.0653,42.353751],[-71.064919,42.354048],[-71.064905,42.3541],[-71.064965,42.35413],[-71.065011,42.354116],[-71.065136,42.354029],[-71.06501,42.354143],[-71.064877,42.354234],[-71.064736,42.354373],[-71.064699,42.35437],[-71.064759,42.354322],[-71.064759,42.354284],[-71.064911,42.354184],[-71.0649,42.354145],[-71.064866,42.354134],[-71.064832,42.354145],[-71.064721,42.354221],[-71.064707,42.354246],[-71.064648,42.354267],[-71.064512,42.354361],[-71.064477,42.354439],[-71.064343,42.35453],[-71.064223,42.354647],[-71.064054,42.354766],[-71.064038,42.354795],[-71.064054,42.354824],[-71.064114,42.354833],[-71.064416,42.354613],[-71.064097,42.354858],[-71.064097,42.354898],[-71.064136,42.354926],[-71.064214,42.354915],[-71.064354,42.354818],[-71.064372,42.35477],[-71.06452,42.354656],[-71.064589,42.354634],[-71.064666,42.35458],[-71.064689,42.354622],[-71.064716,42.354635],[-71.064778,42.354635],[-71.064853,42.354588],[-71.064921,42.354578],[-71.065049,42.35449],[-71.065067,42.354458],[-71.065029,42.354416],[-71.064868,42.354419],[-71.064804,42.354458],[-71.064798,42.354419],[-71.06494,42.354321],[-71.065098,42.354185],[-71.065361,42.354004],[-71.065385,42.353959],[-71.065414,42.353981],[-71.065453,42.353981],[-71.065596,42.353881],[-71.065596,42.353851],[-71.065549,42.353828],[-71.065621,42.353773],[-71.065621,42.353739],[-71.065589,42.353716],[-71.065526,42.353725],[-71.065412,42.353804],[-71.065413,42.353779],[-71.065545,42.353682],[-71.065545,42.353648],[-71.065498,42.353621],[-71.065551,42.353584],[-71.065562,42.353641],[-71.065594,42.353676],[-71.065697,42.353708],[-71.065753,42.3537],[-71.066015,42.353527],[-71.066047,42.353492],[-71.066058,42.353451]],[[-71.06564,42.35274],[-71.06558,42.35278],[-71.065531,42.352782],[-71.065613,42.352725],[-71.06564,42.35274]],[[-71.065389,42.35383],[-71.065143,42.354023],[-71.065158,42.354001],[-71.065389,42.35383]],[[-71.064408,42.35402],[-71.064372,42.354052],[-71.064326,42.354028],[-71.064351,42.354005],[-71.064408,42.35402]],[[-71.064381,42.354111],[-71.064283,42.354179],[-71.06437,42.354106],[-71.064381,42.354111]]],[[[-71.066046,42.354972],[-71.066026,42.354936],[-71.065952,42.354925],[-71.065794,42.35503],[-71.065774,42.355066],[-71.06578,42.355085],[-71.065816,42.355112],[-71.065869,42.355112],[-71.066026,42.355008],[-71.066046,42.354972]]],[[[-71.06602,42.354061],[-71.065981,42.354032],[-71.065927,42.354059],[-71.06587,42.354048],[-71.065744,42.354132],[-71.065734,42.354171],[-71.065779,42.354193],[-71.065859,42.354151],[-71.065898,42.354155],[-71.065847,42.354199],[-71.065886,42.354211],[-71.065963,42.354158],[-71.065963,42.354134],[-71.065936,42.354132],[-71.06602,42.354061]]],[[[-71.065865,42.354468],[-71.065827,42.3544],[-71.065785,42.354379],[-71.065685,42.354379],[-71.065428,42.354549],[-71.06539,42.354617],[-71.0654,42.354654],[-71.06547,42.354705],[-71.06557,42.354705],[-71.065827,42.354536],[-71.065865,42.354468]]],[[[-71.06583,42.348038],[-71.065811,42.348004],[-71.06574,42.347994],[-71.065588,42.348095],[-71.065569,42.348129],[-71.065588,42.348163],[-71.065634,42.348177],[-71.065678,42.348163],[-71.065565,42.348247],[-71.065577,42.348291],[-71.065637,42.3483],[-71.065774,42.348209],[-71.06579,42.34818],[-71.065774,42.348151],[-71.065735,42.348139],[-71.065697,42.348151],[-71.065811,42.348072],[-71.06583,42.348038]]],[[[-71.065764,42.353939],[-71.065734,42.353906],[-71.065681,42.353914],[-71.06557,42.35399],[-71.065509,42.354053],[-71.065509,42.35408],[-71.065554,42.354102],[-71.065588,42.354092],[-71.065698,42.354015],[-71.065764,42.353939]]],[[[-71.065738,42.348446],[-71.065721,42.348415],[-71.065658,42.348406],[-71.065516,42.348501],[-71.065503,42.348548],[-71.065535,42.348571],[-71.065579,42.348571],[-71.065721,42.348477],[-71.065738,42.348446]]],[[[-71.065728,42.348293],[-71.065697,42.348283],[-71.065636,42.348332],[-71.065667,42.348341],[-71.065728,42.348293]]],[[[-71.065683,42.354843],[-71.065674,42.354808],[-71.065607,42.354759],[-71.06556,42.354752],[-71.065482,42.354774],[-71.065466,42.354722],[-71.065418,42.354708],[-71.06536,42.354729],[-71.065345,42.354722],[-71.065351,42.354697],[-71.065327,42.354655],[-71.065232,42.354615],[-71.065172,42.354615],[-71.064999,42.35473],[-71.064976,42.354771],[-71.064907,42.354757],[-71.06477,42.354848],[-71.064754,42.354877],[-71.064784,42.354913],[-71.064734,42.354932],[-71.064552,42.355057],[-71.064522,42.355112],[-71.064552,42.355166],[-71.064586,42.355183],[-71.064626,42.355188],[-71.064699,42.355166],[-71.064903,42.355015],[-71.064903,42.354957],[-71.064834,42.354913],[-71.064904,42.354868],[-71.064923,42.354894],[-71.065019,42.354939],[-71.065091,42.354931],[-71.065137,42.354982],[-71.065194,42.354982],[-71.065238,42.354955],[-71.06524,42.355021],[-71.065266,42.35505],[-71.065353,42.355077],[-71.065401,42.35507],[-71.065647,42.354907],[-71.065683,42.354843]]],[[[-71.065598,42.348957],[-71.065567,42.348947],[-71.06551,42.348993],[-71.065541,42.349002],[-71.065598,42.348957]]],[[[-71.065588,42.351223],[-71.065557,42.351213],[-71.065487,42.351268],[-71.065518,42.351277],[-71.065588,42.351223]]],[[[-71.065562,42.349094],[-71.065531,42.349084],[-71.065474,42.34913],[-71.065505,42.349139],[-71.065562,42.349094]]],[[[-71.065559,42.349236],[-71.065544,42.349211],[-71.065491,42.349203],[-71.06538,42.349277],[-71.06537,42.349316],[-71.065396,42.349335],[-71.065433,42.349335],[-71.065544,42.349261],[-71.065559,42.349236]]],[[[-71.065552,42.348316],[-71.065534,42.348284],[-71.065466,42.348274],[-71.065319,42.348372],[-71.065306,42.348421],[-71.065339,42.348446],[-71.065386,42.348446],[-71.065534,42.348348],[-71.065552,42.348316]]],[[[-71.065548,42.34811],[-71.065517,42.3481],[-71.065456,42.348149],[-71.065487,42.348158],[-71.065548,42.34811]]],[[[-71.065483,42.348446],[-71.065444,42.348434],[-71.06536,42.348499],[-71.065399,42.348511],[-71.065483,42.348446]]],[[[-71.065433,42.34879],[-71.065418,42.348765],[-71.065365,42.348757],[-71.065254,42.348831],[-71.065244,42.34887],[-71.06527,42.348889],[-71.065307,42.348889],[-71.065418,42.348815],[-71.065433,42.34879]]],[[[-71.065396,42.34894],[-71.065385,42.348921],[-71.065346,42.348916],[-71.065241,42.348986],[-71.065233,42.349015],[-71.06528,42.349029],[-71.065396,42.34894]]],[[[-71.065379,42.34907],[-71.065364,42.349045],[-71.065311,42.349037],[-71.065185,42.349121],[-71.065175,42.34916],[-71.065201,42.34918],[-71.065238,42.34918],[-71.065364,42.349095],[-71.065379,42.34907]]],[[[-71.065368,42.35121],[-71.065337,42.3512],[-71.065271,42.351252],[-71.065303,42.351261],[-71.065368,42.35121]]],[[[-71.065268,42.35121],[-71.065237,42.3512],[-71.065176,42.351249],[-71.065207,42.351258],[-71.065268,42.35121]]],[[[-71.065176,42.35072],[-71.06514,42.350702],[-71.065051,42.350763],[-71.065051,42.35079],[-71.065069,42.350795],[-71.065025,42.350827],[-71.065025,42.350854],[-71.065054,42.350858],[-71.065143,42.350798],[-71.065151,42.350784],[-71.065125,42.350765],[-71.065176,42.35072]]],[[[-71.065129,42.350853],[-71.065096,42.350843],[-71.065018,42.350903],[-71.065051,42.350914],[-71.065129,42.350853]]],[[[-71.065109,42.352581],[-71.065081,42.35253],[-71.065049,42.352515],[-71.064975,42.352515],[-71.06477,42.35265],[-71.064742,42.352701],[-71.064749,42.352728],[-71.064802,42.352767],[-71.064876,42.352767],[-71.065081,42.352632],[-71.065109,42.352581]]],[[[-71.065103,42.354592],[-71.065085,42.35456],[-71.065041,42.354546],[-71.06494,42.354599],[-71.064905,42.354594],[-71.064841,42.354613],[-71.064656,42.354749],[-71.064649,42.354775],[-71.064669,42.354815],[-71.064647,42.354836],[-71.064665,42.354849],[-71.064696,42.354833],[-71.06474,42.354842],[-71.064805,42.354823],[-71.065085,42.354624],[-71.065103,42.354592]]],[[[-71.064944,42.35131],[-71.064913,42.3513],[-71.064847,42.351352],[-71.064879,42.351361],[-71.064944,42.35131]]],[[[-71.064857,42.348456],[-71.064826,42.348446],[-71.064765,42.348495],[-71.064796,42.348504],[-71.064857,42.348456]]],[[[-71.064624,42.351826],[-71.064593,42.351816],[-71.064532,42.351865],[-71.064563,42.351874],[-71.064624,42.351826]]],[[[-71.064621,42.348425],[-71.06459,42.348415],[-71.064529,42.348464],[-71.06456,42.348473],[-71.064621,42.348425]]],[[[-71.064568,42.352055],[-71.064537,42.352045],[-71.064471,42.352097],[-71.064503,42.352106],[-71.064568,42.352055]]],[[[-71.064564,42.352104],[-71.064531,42.352094],[-71.064453,42.352154],[-71.064486,42.352165],[-71.064564,42.352104]]],[[[-71.064548,42.35216],[-71.064517,42.35215],[-71.064456,42.352199],[-71.064487,42.352208],[-71.064548,42.35216]]],[[[-71.064436,42.348399],[-71.064405,42.348389],[-71.064344,42.348438],[-71.064375,42.348447],[-71.064436,42.348399]]],[[[-71.064238,42.350925],[-71.064207,42.350915],[-71.064146,42.350964],[-71.064177,42.350973],[-71.064238,42.350925]]],[[[-71.064209,42.34872],[-71.06417,42.348708],[-71.064086,42.348773],[-71.064125,42.348785],[-71.064209,42.34872]]],[[[-71.064168,42.34884],[-71.064137,42.34883],[-71.064063,42.348888],[-71.064094,42.348897],[-71.064168,42.34884]]],[[[-71.064148,42.350914],[-71.064117,42.350904],[-71.064056,42.350953],[-71.064087,42.350962],[-71.064148,42.350914]]],[[[-71.064088,42.3533],[-71.064057,42.35329],[-71.063983,42.353348],[-71.064014,42.353357],[-71.064088,42.3533]]],[[[-71.064082,42.350914],[-71.064073,42.350897],[-71.064038,42.350892],[-71.063937,42.350959],[-71.06393,42.350985],[-71.063973,42.350998],[-71.064082,42.350914]]],[[[-71.064049,42.35339],[-71.064016,42.35338],[-71.063938,42.35344],[-71.063971,42.353451],[-71.064049,42.35339]]],[[[-71.064013,42.353283],[-71.063982,42.353273],[-71.063908,42.353331],[-71.063939,42.35334],[-71.064013,42.353283]]],[[[-71.063998,42.35376],[-71.063967,42.35375],[-71.063893,42.353808],[-71.063924,42.353817],[-71.063998,42.35376]]],[[[-71.063984,42.353386],[-71.063951,42.353376],[-71.063873,42.353436],[-71.063906,42.353447],[-71.063984,42.353386]]],[[[-71.063973,42.350903],[-71.063962,42.350883],[-71.063919,42.350876],[-71.063809,42.35095],[-71.0638,42.350982],[-71.063851,42.350997],[-71.063973,42.350903]]],[[[-71.063943,42.353268],[-71.063904,42.353256],[-71.06382,42.353321],[-71.063859,42.353333],[-71.063943,42.353268]]],[[[-71.063928,42.353374],[-71.063897,42.353364],[-71.063823,42.353422],[-71.063854,42.353431],[-71.063928,42.353374]]],[[[-71.063922,42.353967],[-71.063913,42.35395],[-71.063878,42.353945],[-71.063777,42.354012],[-71.06377,42.354038],[-71.063813,42.354051],[-71.063922,42.353967]]],[[[-71.063915,42.348675],[-71.063882,42.348665],[-71.063804,42.348725],[-71.063837,42.348736],[-71.063915,42.348675]]],[[[-71.063893,42.348743],[-71.063854,42.348731],[-71.063777,42.348784],[-71.063777,42.348808],[-71.063793,42.348813],[-71.063786,42.348841],[-71.063812,42.348841],[-71.063868,42.348803],[-71.063855,42.34878],[-71.063893,42.348743]]],[[[-71.063879,42.34887],[-71.063846,42.34886],[-71.063768,42.34892],[-71.063801,42.348931],[-71.063879,42.34887]]],[[[-71.063821,42.349148],[-71.06379,42.349138],[-71.063729,42.349187],[-71.06376,42.349196],[-71.063821,42.349148]]],[[[-71.063816,42.35412],[-71.06378,42.354102],[-71.063683,42.354176],[-71.063719,42.354194],[-71.063816,42.35412]]],[[[-71.063808,42.348427],[-71.063777,42.348417],[-71.063716,42.348466],[-71.063747,42.348475],[-71.063808,42.348427]]],[[[-71.063768,42.349293],[-71.063737,42.349283],[-71.063681,42.349322],[-71.063694,42.349345],[-71.063668,42.349364],[-71.063668,42.349383],[-71.063694,42.349383],[-71.06375,42.349345],[-71.063737,42.349322],[-71.063768,42.349293]]],[[[-71.063718,42.34841],[-71.063687,42.3484],[-71.063626,42.348449],[-71.063657,42.348458],[-71.063718,42.34841]]],[[[-71.063707,42.350883],[-71.063698,42.350866],[-71.063663,42.350861],[-71.063562,42.350928],[-71.063555,42.350954],[-71.063598,42.350967],[-71.063707,42.350883]]],[[[-71.063689,42.34976],[-71.063656,42.34975],[-71.063578,42.34981],[-71.063611,42.349821],[-71.063689,42.34976]]],[[[-71.063632,42.349854],[-71.063601,42.349844],[-71.063527,42.349902],[-71.063558,42.349911],[-71.063632,42.349854]]],[[[-71.063613,42.350876],[-71.063574,42.350864],[-71.06349,42.350929],[-71.063529,42.350941],[-71.063613,42.350876]]],[[[-71.063579,42.34995],[-71.063546,42.34994],[-71.063473,42.34999],[-71.063483,42.350014],[-71.063448,42.350038],[-71.063448,42.350057],[-71.063474,42.350057],[-71.063543,42.35001],[-71.063579,42.34995]]],[[[-71.063569,42.3547],[-71.063554,42.354675],[-71.063501,42.354667],[-71.06339,42.354741],[-71.063376,42.354766],[-71.06339,42.354792],[-71.06332,42.354852],[-71.06332,42.35488],[-71.063346,42.354899],[-71.063383,42.354899],[-71.063494,42.354825],[-71.063509,42.3548],[-71.063494,42.354775],[-71.063569,42.3547]]],[[[-71.063546,42.350864],[-71.06351,42.350846],[-71.063413,42.35092],[-71.063449,42.350938],[-71.063546,42.350864]]],[[[-71.063458,42.350418],[-71.063427,42.350408],[-71.063353,42.350466],[-71.063384,42.350475],[-71.063458,42.350418]]],[[[-71.063458,42.35018],[-71.063427,42.35017],[-71.063357,42.350225],[-71.063388,42.350234],[-71.063458,42.35018]]],[[[-71.063434,42.350487],[-71.063403,42.350477],[-71.063333,42.350532],[-71.063364,42.350541],[-71.063434,42.350487]]],[[[-71.063428,42.350246],[-71.063397,42.350236],[-71.063333,42.350281],[-71.063308,42.350334],[-71.063333,42.350334],[-71.063398,42.35029],[-71.063428,42.350246]]],[[[-71.063403,42.35055],[-71.063372,42.35054],[-71.063312,42.350582],[-71.063325,42.350605],[-71.063277,42.350642],[-71.063277,42.350661],[-71.063303,42.350661],[-71.063363,42.35062],[-71.06335,42.350597],[-71.063403,42.35055]]],[[[-71.063386,42.350826],[-71.06335,42.350808],[-71.063253,42.350882],[-71.063289,42.3509],[-71.063386,42.350826]]],[[[-71.063383,42.350765],[-71.063343,42.350745],[-71.063239,42.350824],[-71.06328,42.350844],[-71.063383,42.350765]]],[[[-71.063369,42.350704],[-71.063336,42.350694],[-71.063258,42.350754],[-71.063291,42.350765],[-71.063369,42.350704]]],[[[-71.063328,42.35044],[-71.063297,42.35043],[-71.063237,42.350472],[-71.063237,42.350491],[-71.063203,42.350518],[-71.063216,42.350541],[-71.063178,42.350571],[-71.063143,42.35063],[-71.063161,42.350643],[-71.063128,42.350668],[-71.06311,42.350713],[-71.063128,42.350726],[-71.063043,42.350805],[-71.063043,42.350826],[-71.063071,42.350826],[-71.063173,42.350737],[-71.06316,42.350714],[-71.063223,42.35064],[-71.06321,42.350617],[-71.063243,42.350592],[-71.063273,42.350536],[-71.063255,42.350523],[-71.063328,42.35044]]],[[[-71.063144,42.352238],[-71.063126,42.352225],[-71.063083,42.352249],[-71.063052,42.35224],[-71.062986,42.352292],[-71.063005,42.352305],[-71.063048,42.35228],[-71.063079,42.352289],[-71.063144,42.352238]]],[[[-71.062983,42.352253],[-71.062952,42.352243],[-71.062886,42.352295],[-71.062918,42.352304],[-71.062983,42.352253]]],[[[-71.062922,42.35222],[-71.062891,42.35221],[-71.062821,42.352265],[-71.062852,42.352274],[-71.062922,42.35222]]],[[[-71.062848,42.352215],[-71.062817,42.352205],[-71.062751,42.352257],[-71.062783,42.352266],[-71.062848,42.352215]]],[[[-71.062829,42.353302],[-71.062796,42.353292],[-71.062718,42.353352],[-71.062751,42.353363],[-71.062829,42.353302]]],[[[-71.062829,42.353214],[-71.062796,42.353204],[-71.062718,42.353264],[-71.062751,42.353275],[-71.062829,42.353214]]],[[[-71.062763,42.353207],[-71.06273,42.353197],[-71.062652,42.353257],[-71.062685,42.353268],[-71.062763,42.353207]]],[[[-71.062763,42.353306],[-71.062724,42.353294],[-71.06264,42.353359],[-71.062679,42.353371],[-71.062763,42.353306]]],[[[-71.062559,42.348354],[-71.062519,42.348334],[-71.062415,42.348413],[-71.062456,42.348433],[-71.062559,42.348354]]],[[[-71.062496,42.349373],[-71.062484,42.349351],[-71.062438,42.349344],[-71.062322,42.349422],[-71.062313,42.349456],[-71.062368,42.349473],[-71.062496,42.349373]]],[[[-71.062463,42.348557],[-71.062424,42.348545],[-71.06234,42.34861],[-71.062379,42.348622],[-71.062463,42.348557]]],[[[-71.062409,42.348373],[-71.062398,42.348353],[-71.062355,42.348346],[-71.062245,42.34842],[-71.062236,42.348452],[-71.062287,42.348467],[-71.062409,42.348373]]],[[[-71.062392,42.349323],[-71.06238,42.349301],[-71.062334,42.349294],[-71.062218,42.349372],[-71.062209,42.349406],[-71.062264,42.349423],[-71.062392,42.349323]]],[[[-71.062039,42.353752],[-71.062006,42.353742],[-71.061928,42.353802],[-71.061961,42.353813],[-71.062039,42.353752]]],[[[-71.062006,42.349306],[-71.061975,42.349296],[-71.061914,42.349345],[-71.061945,42.349354],[-71.062006,42.349306]]],[[[-71.061988,42.35386],[-71.061957,42.35385],[-71.061896,42.353899],[-71.061927,42.353908],[-71.061988,42.35386]]],[[[-71.061951,42.349438],[-71.06192,42.349428],[-71.061859,42.349477],[-71.06189,42.349486],[-71.061951,42.349438]]],[[[-71.061941,42.349548],[-71.061926,42.349523],[-71.061873,42.349515],[-71.061762,42.349589],[-71.061752,42.349628],[-71.061778,42.349647],[-71.061815,42.349647],[-71.061926,42.349573],[-71.061941,42.349548]]],[[[-71.061928,42.34988],[-71.061897,42.34987],[-71.061841,42.349909],[-71.061811,42.349974],[-71.061837,42.349974],[-71.061893,42.349936],[-71.061893,42.349916],[-71.061928,42.34988]]],[[[-71.061924,42.3537],[-71.061891,42.35369],[-71.061813,42.35375],[-71.061846,42.353761],[-71.061924,42.3537]]],[[[-71.061909,42.353825],[-71.061876,42.353815],[-71.061798,42.353875],[-71.061831,42.353886],[-71.061909,42.353825]]],[[[-71.061892,42.35],[-71.061861,42.34999],[-71.061805,42.350029],[-71.061751,42.350128],[-71.061777,42.350128],[-71.061833,42.35009],[-71.061892,42.35]]],[[[-71.061851,42.348312],[-71.061838,42.348288],[-71.061789,42.348281],[-71.061668,42.348362],[-71.061658,42.348398],[-71.061682,42.348417],[-71.061717,42.348417],[-71.061838,42.348336],[-71.061851,42.348312]]],[[[-71.061828,42.353783],[-71.061797,42.353773],[-71.061736,42.353822],[-71.061767,42.353831],[-71.061828,42.353783]]],[[[-71.061825,42.353653],[-71.061792,42.353643],[-71.061714,42.353703],[-71.061747,42.353714],[-71.061825,42.353653]]],[[[-71.061824,42.350155],[-71.061793,42.350145],[-71.061741,42.350181],[-71.061711,42.350248],[-71.061737,42.350248],[-71.061793,42.35021],[-71.061824,42.350155]]],[[[-71.061789,42.350292],[-71.061765,42.350265],[-71.061722,42.350272],[-71.061625,42.350339],[-71.061616,42.350371],[-71.061572,42.350407],[-71.061572,42.350432],[-71.061614,42.350453],[-71.061646,42.350443],[-71.061752,42.35037],[-71.061789,42.350292]]],[[[-71.06177,42.348421],[-71.061739,42.348411],[-71.061678,42.34846],[-71.061709,42.348469],[-71.06177,42.348421]]],[[[-71.061766,42.349666],[-71.061751,42.349641],[-71.061698,42.349633],[-71.061587,42.349707],[-71.061577,42.349746],[-71.061603,42.349765],[-71.06164,42.349765],[-71.061751,42.349691],[-71.061766,42.349666]]],[[[-71.061759,42.353607],[-71.061744,42.353582],[-71.061691,42.353574],[-71.06158,42.353648],[-71.06157,42.353687],[-71.061596,42.353706],[-71.061633,42.353706],[-71.061744,42.353632],[-71.061759,42.353607]]],[[[-71.061747,42.353738],[-71.061716,42.353728],[-71.061655,42.353777],[-71.061686,42.353786],[-71.061747,42.353738]]],[[[-71.061692,42.348648],[-71.06168,42.348626],[-71.06165,42.348617],[-71.061564,42.348665],[-71.061537,42.348639],[-71.061503,42.348639],[-71.061382,42.34872],[-71.061372,42.348756],[-71.061396,42.348775],[-71.061431,42.348775],[-71.061507,42.348725],[-71.061532,42.348748],[-71.061564,42.348748],[-71.061692,42.348648]]],[[[-71.061645,42.348297],[-71.061629,42.348268],[-71.061569,42.348259],[-71.061432,42.34835],[-71.06142,42.348395],[-71.06145,42.348417],[-71.061492,42.348417],[-71.061629,42.348326],[-71.061645,42.348297]]],[[[-71.061628,42.35355],[-71.061597,42.35354],[-71.061527,42.353595],[-71.061558,42.353604],[-71.061628,42.35355]]],[[[-71.06161,42.348837],[-71.061579,42.348827],[-71.061518,42.348876],[-71.061549,42.348885],[-71.06161,42.348837]]],[[[-71.061608,42.3485],[-71.061577,42.34849],[-71.061516,42.348539],[-71.061547,42.348548],[-71.061608,42.3485]]],[[[-71.061597,42.348184],[-71.061566,42.348174],[-71.061496,42.348229],[-71.061527,42.348238],[-71.061597,42.348184]]],[[[-71.061548,42.349568],[-71.061533,42.349543],[-71.06148,42.349535],[-71.061369,42.349609],[-71.061359,42.349648],[-71.061385,42.349667],[-71.061422,42.349667],[-71.061533,42.349593],[-71.061548,42.349568]]],[[[-71.061502,42.348854],[-71.06149,42.348832],[-71.061444,42.348825],[-71.061328,42.348903],[-71.061319,42.348937],[-71.061374,42.348954],[-71.061502,42.348854]]],[[[-71.061493,42.35095],[-71.061454,42.350938],[-71.06137,42.351003],[-71.061409,42.351015],[-71.061493,42.35095]]],[[[-71.061472,42.34815],[-71.061454,42.348118],[-71.061386,42.348108],[-71.061239,42.348206],[-71.061226,42.348255],[-71.061259,42.34828],[-71.061306,42.34828],[-71.061454,42.348182],[-71.061472,42.34815]]],[[[-71.061452,42.348248],[-71.061443,42.348231],[-71.061408,42.348226],[-71.061308,42.348293],[-71.0613,42.348319],[-71.061343,42.348332],[-71.061452,42.348248]]],[[[-71.06145,42.349534],[-71.061435,42.349509],[-71.061382,42.349501],[-71.061271,42.349575],[-71.061261,42.349614],[-71.061191,42.349662],[-71.061204,42.349685],[-71.06117,42.34971],[-71.06117,42.349729],[-71.061196,42.349729],[-71.061256,42.349688],[-71.061243,42.349665],[-71.061287,42.349633],[-71.06134,42.349626],[-71.061435,42.349559],[-71.06145,42.349534]]],[[[-71.061438,42.349255],[-71.061407,42.349245],[-71.061337,42.3493],[-71.061368,42.349309],[-71.061438,42.349255]]],[[[-71.061418,42.351122],[-71.061387,42.351112],[-71.061326,42.351161],[-71.061357,42.35117],[-71.061418,42.351122]]],[[[-71.061399,42.349052],[-71.061366,42.349042],[-71.061288,42.349102],[-71.061321,42.349113],[-71.061399,42.349052]]],[[[-71.061397,42.35118],[-71.061366,42.35117],[-71.061305,42.351219],[-71.061336,42.351228],[-71.061397,42.35118]]],[[[-71.061371,42.35124],[-71.06134,42.35123],[-71.061284,42.351269],[-71.061297,42.351292],[-71.061265,42.351318],[-71.061265,42.351337],[-71.061291,42.351337],[-71.061347,42.351299],[-71.061334,42.351276],[-71.061371,42.35124]]],[[[-71.061368,42.34943],[-71.061337,42.34942],[-71.061276,42.349469],[-71.061307,42.349478],[-71.061368,42.34943]]],[[[-71.061349,42.349228],[-71.061309,42.349208],[-71.061205,42.349287],[-71.061246,42.349307],[-71.061349,42.349228]]],[[[-71.061244,42.35337],[-71.061213,42.35336],[-71.061152,42.353409],[-71.061183,42.353418],[-71.061244,42.35337]]],[[[-71.061238,42.354774],[-71.061207,42.354764],[-71.061146,42.354813],[-71.061177,42.354822],[-71.061238,42.354774]]],[[[-71.061222,42.34983],[-71.06121,42.349808],[-71.061164,42.349801],[-71.061048,42.349879],[-71.061039,42.349913],[-71.061094,42.34993],[-71.061222,42.34983]]],[[[-71.061188,42.354916],[-71.061157,42.354906],[-71.061096,42.354955],[-71.061127,42.354964],[-71.061188,42.354916]]],[[[-71.061188,42.353344],[-71.061157,42.353334],[-71.061096,42.353383],[-71.061127,42.353392],[-71.061188,42.353344]]],[[[-71.061156,42.35003],[-71.061141,42.350003],[-71.061084,42.349995],[-71.060953,42.350082],[-71.060941,42.350124],[-71.06097,42.350145],[-71.061009,42.350145],[-71.061141,42.350057],[-71.061156,42.35003]]],[[[-71.061138,42.35332],[-71.061107,42.35331],[-71.061046,42.353359],[-71.061077,42.353368],[-71.061138,42.35332]]],[[[-71.061048,42.353275],[-71.061017,42.353265],[-71.060947,42.35332],[-71.060978,42.353329],[-71.061048,42.353275]]],[[[-71.061038,42.34849],[-71.061007,42.34848],[-71.060946,42.348529],[-71.060977,42.348538],[-71.061038,42.34849]]],[[[-71.061032,42.348602],[-71.061017,42.348575],[-71.06096,42.348567],[-71.060817,42.348667],[-71.060829,42.348709],[-71.060865,42.34872],[-71.06078,42.348784],[-71.06078,42.348815],[-71.060822,42.348839],[-71.060759,42.348886],[-71.060768,42.34892],[-71.060814,42.348927],[-71.060939,42.348839],[-71.060939,42.348815],[-71.060916,42.348798],[-71.060989,42.348746],[-71.061005,42.348717],[-71.060989,42.348688],[-71.06095,42.348676],[-71.061032,42.348602]]],[[[-71.060988,42.353363],[-71.060957,42.353353],[-71.060896,42.353402],[-71.060927,42.353411],[-71.060988,42.353363]]],[[[-71.060938,42.35322],[-71.060907,42.35321],[-71.060846,42.353259],[-71.060877,42.353268],[-71.060938,42.35322]]],[[[-71.060923,42.35333],[-71.060892,42.35332],[-71.060826,42.353372],[-71.060858,42.353381],[-71.060923,42.35333]]],[[[-71.060862,42.353302],[-71.060831,42.353292],[-71.06077,42.353341],[-71.060801,42.35335],[-71.060862,42.353302]]],[[[-71.060847,42.349174],[-71.060803,42.349125],[-71.060725,42.349137],[-71.06057,42.349251],[-71.060501,42.34939],[-71.060527,42.34939],[-71.060583,42.349352],[-71.060597,42.349314],[-71.060636,42.349324],[-71.060687,42.349308],[-71.060827,42.349211],[-71.060847,42.349174]]],[[[-71.060733,42.34939],[-71.060718,42.349365],[-71.060665,42.349357],[-71.060457,42.349485],[-71.06047,42.349508],[-71.060542,42.349463],[-71.060589,42.349492],[-71.060504,42.349555],[-71.060489,42.349543],[-71.060533,42.349513],[-71.060533,42.349493],[-71.060507,42.349493],[-71.060447,42.349535],[-71.060457,42.349558],[-71.060417,42.349585],[-71.060417,42.349604],[-71.060443,42.349604],[-71.06049,42.349572],[-71.060487,42.349582],[-71.060417,42.349629],[-71.060401,42.349688],[-71.060427,42.349688],[-71.060483,42.34965],[-71.060499,42.34961],[-71.060554,42.349616],[-71.06068,42.349531],[-71.060691,42.349492],[-71.060646,42.34947],[-71.060733,42.34939]]],[[[-71.060609,42.34967],[-71.060594,42.349645],[-71.060541,42.349637],[-71.060415,42.349721],[-71.060401,42.349746],[-71.060415,42.349772],[-71.060481,42.349774],[-71.060379,42.349844],[-71.060363,42.349871],[-71.060297,42.349916],[-71.060297,42.349935],[-71.060323,42.349935],[-71.060378,42.349897],[-71.060435,42.349907],[-71.060567,42.349819],[-71.060582,42.349792],[-71.060567,42.349765],[-71.06053,42.349754],[-71.060497,42.349763],[-71.060594,42.349695],[-71.060609,42.34967]]],[[[-71.060598,42.35304],[-71.060567,42.35303],[-71.060506,42.353079],[-71.060537,42.353088],[-71.060598,42.35304]]],[[[-71.060558,42.349407],[-71.060527,42.349397],[-71.060466,42.349446],[-71.060497,42.349455],[-71.060558,42.349407]]],[[[-71.060518,42.352997],[-71.060487,42.352987],[-71.060426,42.353036],[-71.060457,42.353045],[-71.060518,42.352997]]],[[[-71.060508,42.353283],[-71.060477,42.353273],[-71.060411,42.353325],[-71.060443,42.353334],[-71.060508,42.353283]]],[[[-71.060504,42.35315],[-71.060473,42.35314],[-71.060412,42.353189],[-71.060443,42.353198],[-71.060504,42.35315]]],[[[-71.060468,42.352974],[-71.060437,42.352964],[-71.060371,42.353016],[-71.060403,42.353025],[-71.060468,42.352974]]],[[[-71.060428,42.3531],[-71.060397,42.35309],[-71.060336,42.353139],[-71.060367,42.353148],[-71.060428,42.3531]]],[[[-71.060419,42.353405],[-71.060413,42.35337],[-71.060365,42.353378],[-71.060255,42.353452],[-71.060246,42.353484],[-71.060297,42.353499],[-71.060419,42.353405]]],[[[-71.060374,42.35307],[-71.060343,42.35306],[-71.060282,42.353109],[-71.060313,42.353118],[-71.060374,42.35307]]],[[[-71.060318,42.350037],[-71.060287,42.350027],[-71.060226,42.350076],[-71.060257,42.350085],[-71.060318,42.350037]]],[[[-71.060314,42.35015],[-71.060287,42.350119],[-71.060297,42.3501],[-71.060273,42.350093],[-71.060135,42.350191],[-71.060125,42.35023],[-71.060151,42.350249],[-71.060188,42.350249],[-71.060299,42.350175],[-71.060314,42.35015]]],[[[-71.060174,42.34947],[-71.060163,42.34945],[-71.06012,42.349443],[-71.06001,42.349517],[-71.060001,42.349549],[-71.060033,42.349566],[-71.059984,42.3496],[-71.059984,42.34963],[-71.060005,42.349637],[-71.059923,42.349699],[-71.059931,42.349728],[-71.05997,42.349733],[-71.060075,42.349663],[-71.060083,42.349634],[-71.06005,42.349618],[-71.060111,42.349571],[-71.060119,42.349556],[-71.060101,42.349536],[-71.060174,42.34947]]],[[[-71.060158,42.352962],[-71.060127,42.352952],[-71.060066,42.353001],[-71.060097,42.35301],[-71.060158,42.352962]]],[[[-71.060105,42.35341],[-71.060092,42.353386],[-71.060043,42.353379],[-71.059922,42.35346],[-71.059912,42.353496],[-71.059936,42.353515],[-71.059971,42.353515],[-71.060092,42.353434],[-71.060105,42.35341]]],[[[-71.059972,42.351044],[-71.05996,42.351022],[-71.059914,42.351015],[-71.059798,42.351093],[-71.059789,42.351127],[-71.059823,42.351145],[-71.059775,42.351178],[-71.059775,42.351205],[-71.059804,42.351209],[-71.059893,42.351149],[-71.059893,42.351121],[-71.059972,42.351044]]],[[[-71.059858,42.3533],[-71.059827,42.35329],[-71.059766,42.353339],[-71.059797,42.353348],[-71.059858,42.3533]]],[[[-71.059822,42.35326],[-71.05981,42.353238],[-71.059764,42.353231],[-71.059648,42.353309],[-71.059639,42.353343],[-71.059694,42.35336],[-71.059822,42.35326]]],[[[-71.059758,42.352753],[-71.059727,42.352743],[-71.059661,42.352795],[-71.059693,42.352804],[-71.059758,42.352753]]],[[[-71.059688,42.352737],[-71.059657,42.352727],[-71.059591,42.352779],[-71.059623,42.352788],[-71.059688,42.352737]]],[[[-71.059669,42.354954],[-71.059629,42.354934],[-71.059525,42.355013],[-71.059566,42.355033],[-71.059669,42.354954]]],[[[-71.059649,42.35171],[-71.059634,42.351685],[-71.059581,42.351677],[-71.059541,42.351702],[-71.059511,42.3517],[-71.059433,42.35176],[-71.05947,42.351802],[-71.059523,42.351809],[-71.059634,42.351735],[-71.059649,42.35171]]],[[[-71.059634,42.35273],[-71.059616,42.352717],[-71.05956,42.35275],[-71.059506,42.352758],[-71.05941,42.352824],[-71.0594,42.352863],[-71.059445,42.352885],[-71.059479,42.352875],[-71.059574,42.352808],[-71.059585,42.35277],[-71.059634,42.35273]]],[[[-71.059622,42.35492],[-71.059573,42.354873],[-71.059538,42.354868],[-71.059437,42.354935],[-71.05943,42.354961],[-71.059477,42.354999],[-71.059513,42.355004],[-71.059622,42.35492]]],[[[-71.059562,42.3516],[-71.059553,42.351583],[-71.059518,42.351578],[-71.059454,42.35162],[-71.05942,42.351609],[-71.05933,42.35167],[-71.05933,42.351697],[-71.059207,42.351821],[-71.059207,42.351845],[-71.059239,42.351845],[-71.059316,42.351792],[-71.059316,42.351768],[-71.05938,42.351716],[-71.05938,42.351692],[-71.059409,42.351667],[-71.059453,42.351684],[-71.059562,42.3516]]],[[[-71.059518,42.351097],[-71.059487,42.351087],[-71.059426,42.351136],[-71.059457,42.351145],[-71.059518,42.351097]]],[[[-71.059482,42.354813],[-71.059473,42.354796],[-71.059438,42.354791],[-71.059337,42.354858],[-71.05933,42.354884],[-71.059373,42.354897],[-71.059482,42.354813]]],[[[-71.059478,42.35117],[-71.059447,42.35116],[-71.059386,42.351209],[-71.059417,42.351218],[-71.059478,42.35117]]],[[[-71.059432,42.354774],[-71.059389,42.354714],[-71.059364,42.354707],[-71.059235,42.354798],[-71.059257,42.354822],[-71.059284,42.354822],[-71.059287,42.354853],[-71.05931,42.35486],[-71.059432,42.354774]]],[[[-71.059428,42.3531],[-71.059397,42.35309],[-71.059336,42.353139],[-71.059367,42.353148],[-71.059428,42.3531]]],[[[-71.059418,42.35301],[-71.059387,42.353],[-71.059326,42.353049],[-71.059357,42.353058],[-71.059418,42.35301]]],[[[-71.059219,42.35129],[-71.059204,42.351265],[-71.059175,42.351255],[-71.059187,42.351235],[-71.05911,42.351194],[-71.058965,42.351281],[-71.058955,42.35132],[-71.059,42.351342],[-71.059095,42.35129],[-71.059015,42.351353],[-71.059023,42.351389],[-71.058985,42.35142],[-71.058995,42.351459],[-71.059042,42.351468],[-71.05894,42.35156],[-71.05894,42.351587],[-71.058851,42.35165],[-71.058843,42.351679],[-71.05877,42.351758],[-71.058591,42.351892],[-71.058582,42.351924],[-71.058372,42.35205],[-71.058293,42.352134],[-71.058302,42.352171],[-71.058351,42.352179],[-71.058472,42.352098],[-71.058875,42.351757],[-71.05892,42.351681],[-71.059003,42.351614],[-71.058986,42.351581],[-71.059058,42.351531],[-71.059058,42.351503],[-71.059098,42.35146],[-71.059082,42.351447],[-71.059185,42.351371],[-71.059177,42.351334],[-71.059219,42.35129]]],[[[-71.059184,42.353294],[-71.059153,42.353284],[-71.059092,42.353333],[-71.059123,42.353342],[-71.059184,42.353294]]],[[[-71.059092,42.354385],[-71.059083,42.354368],[-71.059048,42.354363],[-71.058947,42.35443],[-71.05894,42.354456],[-71.058983,42.354469],[-71.059092,42.354385]]],[[[-71.059088,42.353287],[-71.059057,42.353277],[-71.058996,42.353326],[-71.059027,42.353335],[-71.059088,42.353287]]],[[[-71.059018,42.354332],[-71.058987,42.354322],[-71.058926,42.354371],[-71.058957,42.35438],[-71.059018,42.354332]]],[[[-71.058998,42.353283],[-71.058967,42.353273],[-71.058906,42.353322],[-71.058937,42.353331],[-71.058998,42.353283]]],[[[-71.058959,42.35429],[-71.058926,42.35428],[-71.058848,42.35434],[-71.058881,42.354351],[-71.058959,42.35429]]],[[[-71.058864,42.353268],[-71.058833,42.353258],[-71.058772,42.353307],[-71.058803,42.353316],[-71.058864,42.353268]]],[[[-71.058758,42.353268],[-71.058727,42.353258],[-71.058666,42.353307],[-71.058697,42.353316],[-71.058758,42.353268]]],[[[-71.058568,42.35253],[-71.058537,42.35252],[-71.058476,42.352569],[-71.058507,42.352578],[-71.058568,42.35253]]],[[[-71.058508,42.352524],[-71.058477,42.352514],[-71.058416,42.352563],[-71.058447,42.352572],[-71.058508,42.352524]]],[[[-71.058499,42.35248],[-71.058466,42.35247],[-71.058337,42.35256],[-71.058337,42.352579],[-71.058363,42.352579],[-71.058499,42.35248]]],[[[-71.058388,42.35247],[-71.058357,42.35246],[-71.058301,42.352499],[-71.058261,42.352568],[-71.058287,42.352568],[-71.058343,42.35253],[-71.058343,42.35251],[-71.058388,42.35247]]],[[[-71.058288,42.35091],[-71.058257,42.3509],[-71.058196,42.350949],[-71.058227,42.350958],[-71.058288,42.35091]]],[[[-71.058278,42.352467],[-71.058247,42.352457],[-71.058186,42.352506],[-71.058217,42.352515],[-71.058278,42.352467]]],[[[-71.058268,42.352512],[-71.058237,42.352502],[-71.058176,42.352551],[-71.058207,42.35256],[-71.058268,42.352512]]],[[[-71.058218,42.350887],[-71.058187,42.350877],[-71.058126,42.350926],[-71.058157,42.350935],[-71.058218,42.350887]]],[[[-71.058038,42.352665],[-71.058007,42.352655],[-71.057946,42.352704],[-71.057977,42.352713],[-71.058038,42.352665]]],[[[-71.058032,42.352768],[-71.058001,42.352758],[-71.05794,42.352807],[-71.057971,42.352816],[-71.058032,42.352768]]],[[[-71.058008,42.352905],[-71.057977,42.352895],[-71.057916,42.352944],[-71.057947,42.352953],[-71.058008,42.352905]]],[[[-71.057803,42.350693],[-71.057772,42.350683],[-71.057711,42.350732],[-71.057742,42.350741],[-71.057803,42.350693]]],[[[-71.057758,42.350677],[-71.057727,42.350667],[-71.057666,42.350716],[-71.057697,42.350725],[-71.057758,42.350677]]],[[[-71.05775,42.352226],[-71.057714,42.352208],[-71.057617,42.352282],[-71.057653,42.3523],[-71.05775,42.352226]]],[[[-71.057623,42.35219],[-71.057583,42.35217],[-71.057479,42.352249],[-71.05752,42.352269],[-71.057623,42.35219]]],[[[-71.057536,42.35216],[-71.0575,42.352142],[-71.057403,42.352216],[-71.057439,42.352234],[-71.057536,42.35216]]],[[[-71.057456,42.35214],[-71.05742,42.352122],[-71.057323,42.352196],[-71.057359,42.352214],[-71.057456,42.35214]]],[[[-71.057414,42.350403],[-71.057383,42.350393],[-71.057322,42.350442],[-71.057353,42.350451],[-71.057414,42.350403]]],[[[-71.057398,42.350494],[-71.057367,42.350484],[-71.057306,42.350533],[-71.057337,42.350542],[-71.057398,42.350494]]],[[[-71.057369,42.35211],[-71.057329,42.35209],[-71.057225,42.352169],[-71.057266,42.352189],[-71.057369,42.35211]]],[[[-71.057348,42.351707],[-71.057317,42.351697],[-71.057257,42.351739],[-71.05727,42.351762],[-71.057251,42.351798],[-71.057277,42.351798],[-71.057333,42.35176],[-71.05732,42.351737],[-71.057348,42.351707]]],[[[-71.057309,42.351897],[-71.057278,42.351887],[-71.057217,42.351936],[-71.057248,42.351945],[-71.057309,42.351897]]],[[[-71.057298,42.351955],[-71.057267,42.351945],[-71.05721,42.351991],[-71.057241,42.352],[-71.057298,42.351955]]],[[[-71.057298,42.350925],[-71.057267,42.350915],[-71.057197,42.35097],[-71.057228,42.350979],[-71.057298,42.350925]]],[[[-71.057268,42.351063],[-71.057237,42.351053],[-71.057167,42.351108],[-71.057198,42.351117],[-71.057268,42.351063]]],[[[-71.057208,42.35141],[-71.057177,42.3514],[-71.057116,42.351449],[-71.057147,42.351458],[-71.057208,42.35141]]],[[[-71.057198,42.35055],[-71.057167,42.35054],[-71.057106,42.350589],[-71.057137,42.350598],[-71.057198,42.35055]]],[[[-71.057147,42.350632],[-71.057116,42.350622],[-71.057055,42.350671],[-71.057086,42.35068],[-71.057147,42.350632]]],[[[-71.057094,42.350533],[-71.057063,42.350523],[-71.057002,42.350572],[-71.057033,42.350581],[-71.057094,42.350533]]],[[[-71.057038,42.34984],[-71.057007,42.34983],[-71.056951,42.349869],[-71.056951,42.349888],[-71.056877,42.349948],[-71.05687,42.349974],[-71.056913,42.349987],[-71.057013,42.34992],[-71.05702,42.349894],[-71.05699,42.349879],[-71.057038,42.34984]]],[[[-71.056868,42.352028],[-71.056837,42.352018],[-71.056763,42.352076],[-71.056794,42.352085],[-71.056868,42.352028]]],[[[-71.056834,42.35023],[-71.056803,42.35022],[-71.056742,42.350269],[-71.056773,42.350278],[-71.056834,42.35023]]],[[[-71.056829,42.34976],[-71.056818,42.34974],[-71.056775,42.349733],[-71.056656,42.349817],[-71.056656,42.349839],[-71.056689,42.349856],[-71.05664,42.349893],[-71.056647,42.349919],[-71.056585,42.349967],[-71.056595,42.350007],[-71.056536,42.350072],[-71.056566,42.350105],[-71.056524,42.350138],[-71.056524,42.350168],[-71.056556,42.350173],[-71.056651,42.350109],[-71.056651,42.350079],[-71.056725,42.35002],[-71.056714,42.349981],[-71.056774,42.349915],[-71.056746,42.349883],[-71.05679,42.349849],[-71.056772,42.349818],[-71.056829,42.34976]]],[[[-71.056798,42.350307],[-71.056767,42.350297],[-71.056706,42.350346],[-71.056737,42.350355],[-71.056798,42.350307]]],[[[-71.056748,42.351994],[-71.056717,42.351984],[-71.056647,42.352039],[-71.056678,42.352048],[-71.056748,42.351994]]],[[[-71.056643,42.350613],[-71.056612,42.350603],[-71.056538,42.350661],[-71.056569,42.35067],[-71.056643,42.350613]]],[[[-71.056626,42.353203],[-71.05659,42.353185],[-71.056493,42.353259],[-71.056529,42.353277],[-71.056626,42.353203]]],[[[-71.056622,42.350185],[-71.056613,42.350168],[-71.056578,42.350163],[-71.056477,42.35023],[-71.05647,42.350256],[-71.056513,42.350269],[-71.056622,42.350185]]],[[[-71.056608,42.35068],[-71.056577,42.35067],[-71.056503,42.350728],[-71.056534,42.350737],[-71.056608,42.35068]]],[[[-71.056559,42.353165],[-71.056526,42.353155],[-71.056448,42.353215],[-71.056481,42.353226],[-71.056559,42.353165]]],[[[-71.056559,42.350834],[-71.056544,42.350809],[-71.056491,42.350801],[-71.05638,42.350875],[-71.05637,42.350914],[-71.056396,42.350933],[-71.056433,42.350933],[-71.056544,42.350859],[-71.056559,42.350834]]],[[[-71.056484,42.353127],[-71.056451,42.353117],[-71.056373,42.353177],[-71.056406,42.353188],[-71.056484,42.353127]]],[[[-71.056468,42.35192],[-71.056437,42.35191],[-71.056363,42.351968],[-71.056394,42.351977],[-71.056468,42.35192]]],[[[-71.056428,42.35103],[-71.056397,42.35102],[-71.056336,42.351069],[-71.056367,42.351078],[-71.056428,42.35103]]],[[[-71.056398,42.351097],[-71.056367,42.351087],[-71.056293,42.351145],[-71.056324,42.351154],[-71.056398,42.351097]]],[[[-71.056393,42.35309],[-71.056354,42.353078],[-71.05627,42.353143],[-71.056309,42.353155],[-71.056393,42.35309]]],[[[-71.056388,42.3519],[-71.056357,42.35189],[-71.0563,42.351936],[-71.056331,42.351945],[-71.056388,42.3519]]],[[[-71.056364,42.351176],[-71.056333,42.351166],[-71.056272,42.351215],[-71.056303,42.351224],[-71.056364,42.351176]]],[[[-71.056338,42.35493],[-71.056307,42.35492],[-71.056233,42.354978],[-71.056264,42.354987],[-71.056338,42.35493]]],[[[-71.056328,42.354836],[-71.056297,42.354826],[-71.056223,42.354884],[-71.056254,42.354893],[-71.056328,42.354836]]],[[[-71.056309,42.35475],[-71.056276,42.35474],[-71.056198,42.3548],[-71.056231,42.354811],[-71.056309,42.35475]]],[[[-71.056306,42.35467],[-71.05627,42.354652],[-71.056173,42.354726],[-71.056209,42.354744],[-71.056306,42.35467]]],[[[-71.056258,42.351376],[-71.056227,42.351366],[-71.056167,42.351408],[-71.056117,42.351501],[-71.056143,42.351501],[-71.056203,42.35146],[-71.056258,42.351376]]],[[[-71.056256,42.350842],[-71.056225,42.350832],[-71.056151,42.35089],[-71.056182,42.350899],[-71.056256,42.350842]]],[[[-71.056248,42.35305],[-71.056217,42.35304],[-71.056156,42.353089],[-71.056187,42.353098],[-71.056248,42.35305]]],[[[-71.056226,42.350933],[-71.056195,42.350923],[-71.056121,42.350981],[-71.056152,42.35099],[-71.056226,42.350933]]],[[[-71.056186,42.351036],[-71.056155,42.351026],[-71.056081,42.351084],[-71.056112,42.351093],[-71.056186,42.351036]]],[[[-71.056148,42.351145],[-71.056117,42.351135],[-71.056043,42.351193],[-71.056074,42.351202],[-71.056148,42.351145]]],[[[-71.056078,42.35171],[-71.056047,42.3517],[-71.055981,42.351752],[-71.056013,42.351761],[-71.056078,42.35171]]],[[[-71.055977,42.351355],[-71.055946,42.351345],[-71.055872,42.351403],[-71.055903,42.351412],[-71.055977,42.351355]]],[[[-71.055953,42.351412],[-71.055922,42.351402],[-71.055848,42.35146],[-71.055879,42.351469],[-71.055953,42.351412]]],[[[-71.05592,42.351482],[-71.055889,42.351472],[-71.055815,42.35153],[-71.055846,42.351539],[-71.05592,42.351482]]],[[[-71.055888,42.351561],[-71.055857,42.351551],[-71.055783,42.351609],[-71.055814,42.351618],[-71.055888,42.351561]]],[[[-71.055869,42.352226],[-71.055839,42.352193],[-71.055786,42.352201],[-71.05568,42.352278],[-71.055646,42.352328],[-71.055646,42.352356],[-71.055691,42.352378],[-71.055725,42.352368],[-71.05582,42.352301],[-71.055869,42.352226]]],[[[-71.055859,42.351622],[-71.055828,42.351612],[-71.055754,42.35167],[-71.055785,42.351679],[-71.055859,42.351622]]],[[[-71.055808,42.351727],[-71.055777,42.351717],[-71.055708,42.351765],[-71.055721,42.351788],[-71.055688,42.351814],[-71.055688,42.351833],[-71.055714,42.351833],[-71.055783,42.351786],[-71.05577,42.351763],[-71.055808,42.351727]]],[[[-71.055788,42.353336],[-71.055768,42.353314],[-71.055733,42.353319],[-71.055643,42.353381],[-71.055636,42.353405],[-71.055407,42.353562],[-71.055407,42.353581],[-71.055478,42.353557],[-71.055595,42.353471],[-71.05563,42.353468],[-71.055788,42.353336]]],[[[-71.055262,42.353653],[-71.055244,42.35364],[-71.055189,42.353657],[-71.055077,42.353741],[-71.055077,42.353765],[-71.055145,42.353746],[-71.055262,42.353653]]]]},"properties":{"kind":"tree"}}]}