{"type":"FeatureCollection","features":[{"type":"Feature","geometry":{"type":"MultiPolygon","coordinates":[[[[-71.06703,42.351826],[-71.067007,42.351692],[-71.066747,42.351106],[-71.065506,42.351252],[-71.065991,42.350995],[-71.065959,42.350666],[-71.06586,42.350664],[-71.065953,42.350615],[-71.06593,42.350327],[-71.065758,42.350337],[-71.065706,42.350364],[-71.065633,42.350369],[-71.065916,42.350219],[-71.065881,42.34989],[-71.065788,42.349783],[-71.065918,42.34974],[-71.066095,42.349646],[-71.066027,42.349526],[-71.066107,42.349483],[-71.066051,42.349385],[-71.065861,42.349473],[-71.06562,42.349445],[-71.065521,42.349461],[-71.065194,42.349635],[-71.065104,42.350055],[-71.065044,42.350086],[-71.065169,42.349617],[-71.064416,42.349501],[-71.064308,42.349559],[-71.063761,42.349475],[-71.063653,42.349372],[-71.063696,42.349342],[-71.063746,42.349213],[-71.063772,42.349073],[-71.063736,42.349067],[-71.063827,42.348879],[-71.06386,42.348762],[-71.064093,42.348797],[-71.064002,42.349062],[-71.064229,42.349097],[-71.0641,42.349166],[-71.064053,42.349273],[-71.064074,42.349297],[-71.063983,42.349346],[-71.064232,42.349515],[-71.064432,42.349411],[-71.064499,42.349432],[-71.065078,42.34914],[-71.065175,42.34913],[-71.065279,42.349075],[-71.06533,42.348887],[-71.065326,42.348838],[-71.065466,42.348763],[-71.065482,42.348817],[-71.06602,42.34888],[-71.066458,42.348649],[-71.066483,42.348529],[-71.06591,42.348462],[-71.065995,42.348064],[-71.065837,42.348044],[-71.06535,42.348303],[-71.065475,42.348175],[-71.065484,42.348131],[-71.065475,42.348101],[-71.065402,42.348018],[-71.06552,42.347941],[-71.065529,42.347903],[-71.065483,42.347819],[-71.065392,42.347805],[-71.065371,42.347781],[-71.065289,42.347784],[-71.065318,42.347764],[-71.065319,42.347677],[-71.065257,42.347643],[-71.064894,42.347587],[-71.064283,42.3479],[-71.064169,42.348162],[-71.06412,42.348337],[-71.064156,42.348343],[-71.064253,42.348304],[-71.064274,42.348329],[-71.064551,42.348194],[-71.064626,42.348211],[-71.063913,42.348577],[-71.063945,42.348463],[-71.063623,42.348413],[-71.063443,42.348509],[-71.063466,42.348421],[-71.063563,42.348435],[-71.063686,42.34837],[-71.063831,42.348391],[-71.06402,42.348291],[-71.064113,42.347947],[-71.063968,42.347919],[-71.063607,42.348111],[-71.063538,42.348106],[-71.063606,42.347866],[-71.06346,42.347843],[-71.063309,42.347923],[-71.063289,42.347996],[-71.062961,42.347921],[-71.062868,42.347971],[-71.062735,42.347939],[-71.062554,42.348034],[-71.062512,42.348146],[-71.062565,42.348161],[-71.062467,42.348213],[-71.06244,42.348281],[-71.062523,42.348293],[-71.062296,42.348414],[-71.062367,42.34823],[-71.062255,42.348206],[-71.062067,42.348306],[-71.062029,42.348401],[-71.061947,42.348382],[-71.061995,42.348263],[-71.062411,42.348042],[-71.062446,42.347953],[-71.061926,42.347827],[-71.061752,42.347918],[-71.061866,42.34764],[-71.061712,42.347604],[-71.061057,42.347951],[-71.060992,42.348107],[-71.059989,42.348639],[-71.059527,42.349281],[-71.059764,42.349338],[-71.060786,42.348796],[-71.060856,42.348627],[-71.060876,42.348631],[-71.060834,42.348712],[-71.06095,42.348742],[-71.061127,42.348648],[-71.061176,42.34853],[-71.061229,42.348596],[-71.061063,42.348684],[-71.061019,42.348791],[-71.061069,42.348803],[-71.060912,42.348886],[-71.060899,42.348907],[-71.060878,42.348902],[-71.0607,42.348997],[-71.060588,42.349327],[-71.060819,42.349417],[-71.060834,42.349409],[-71.060828,42.349425],[-71.06103,42.349516],[-71.061068,42.349496],[-71.061043,42.349559],[-71.060909,42.34963],[-71.060842,42.349815],[-71.060775,42.34985],[-71.060738,42.349942],[-71.060509,42.349891],[-71.060278,42.350013],[-71.060327,42.349891],[-71.060262,42.349803],[-71.060367,42.349747],[-71.060567,42.349259],[-71.060443,42.349109],[-71.060321,42.349063],[-71.059299,42.349605],[-71.059254,42.349705],[-71.059179,42.349693],[-71.059097,42.349736],[-71.059023,42.349909],[-71.059155,42.349941],[-71.059097,42.350097],[-71.059047,42.350086],[-71.058996,42.350102],[-71.058682,42.350268],[-71.058767,42.350099],[-71.058776,42.350034],[-71.058372,42.349945],[-71.058269,42.35],[-71.058289,42.349924],[-71.057992,42.349858],[-71.058297,42.349696],[-71.058424,42.349376],[-71.057926,42.349266],[-71.057783,42.349342],[-71.057716,42.349509],[-71.057732,42.349513],[-71.057471,42.349651],[-71.057438,42.349733],[-71.057133,42.349667],[-71.056559,42.349972],[-71.056635,42.349782],[-71.056775,42.349199],[-71.056596,42.349149],[-71.055487,42.349466],[-71.055404,42.34951],[-71.056683,42.347603],[-71.056673,42.347544],[-71.055908,42.347262],[-71.05563,42.347409],[-71.054311,42.349373],[-71.054244,42.349441],[-71.054211,42.349491],[-71.054208,42.349537],[-71.053976,42.34966],[-71.053006,42.351103],[-71.053587,42.351318],[-71.053933,42.351134],[-71.054212,42.351237],[-71.054337,42.351171],[-71.054682,42.350658],[-71.054707,42.350665],[-71.054825,42.350602],[-71.054905,42.350664],[-71.054896,42.350682],[-71.054945,42.350695],[-71.055076,42.350793],[-71.055261,42.350854],[-71.055863,42.350843],[-71.055947,42.350827],[-71.056103,42.350745],[-71.056135,42.350794],[-71.056212,42.350822],[-71.056265,42.350815],[-71.056362,42.350766],[-71.05642,42.35078],[-71.056338,42.350823],[-71.05629,42.350912],[-71.05622,42.351068],[-71.056285,42.351085],[-71.056171,42.351145],[-71.056029,42.351446],[-71.056056,42.351457],[-71.055756,42.351617],[-71.055498,42.351545],[-71.054479,42.351779],[-71.054032,42.352016],[-71.05386,42.352191],[-71.054386,42.352469],[-71.054546,42.35252],[-71.054714,42.352545],[-71.054891,42.352505],[-71.055338,42.352268],[-71.055458,42.352178],[-71.055529,42.352093],[-71.055774,42.352157],[-71.055745,42.35223],[-71.055124,42.35256],[-71.055107,42.352595],[-71.053115,42.353651],[-71.053038,42.353815],[-71.053632,42.353964],[-71.053914,42.353859],[-71.055417,42.353062],[-71.05546,42.353074],[-71.056043,42.352917],[-71.056859,42.352484],[-71.056956,42.352333],[-71.05747,42.352492],[-71.057949,42.352238],[-71.058115,42.351737],[-71.058103,42.35172],[-71.058024,42.351708],[-71.058131,42.351651],[-71.058378,42.35105],[-71.058396,42.35107],[-71.058485,42.35109],[-71.058364,42.351154],[-71.058093,42.351832],[-71.058289,42.351875],[-71.058558,42.351732],[-71.058669,42.351632],[-71.058838,42.351445],[-71.058956,42.351272],[-71.059038,42.351101],[-71.058988,42.351089],[-71.059198,42.350975],[-71.059346,42.350609],[-71.059585,42.350482],[-71.05953,42.350639],[-71.059572,42.350648],[-71.059547,42.350721],[-71.059757,42.350766],[-71.059814,42.350736],[-71.05989,42.350752],[-71.059995,42.350697],[-71.059998,42.350713],[-71.059746,42.351269],[-71.059423,42.35144],[-71.059374,42.351569],[-71.059384,42.35163],[-71.05936,42.351643],[-71.059389,42.35182],[-71.05945,42.351814],[-71.059454,42.351834],[-71.059386,42.351848],[-71.059007,42.352049],[-71.059013,42.35209],[-71.057749,42.352758],[-71.057668,42.352733],[-71.05756,42.352748],[-71.056594,42.353245],[-71.056242,42.353099],[-71.054972,42.353769],[-71.054979,42.353796],[-71.054766,42.353913],[-71.052487,42.355125],[-71.052464,42.355165],[-71.052473,42.355209],[-71.052695,42.355443],[-71.052741,42.35548],[-71.052831,42.355478],[-71.054736,42.354469],[-71.054804,42.35441],[-71.05484,42.354443],[-71.054702,42.354516],[-71.054735,42.354548],[-71.054564,42.354639],[-71.054471,42.354716],[-71.053791,42.355077],[-71.053526,42.355249],[-71.053537,42.355258],[-71.053346,42.355372],[-71.053345,42.35541],[-71.053372,42.355436],[-71.053357,42.355455],[-71.053425,42.355525],[-71.053462,42.355518],[-71.053506,42.355558],[-71.053556,42.355562],[-71.053748,42.355461],[-71.053773,42.355483],[-71.054408,42.355147],[-71.054823,42.35496],[-71.0551,42.354814],[-71.055125,42.354881],[-71.055281,42.354856],[-71.055262,42.354888],[-71.054446,42.355321],[-71.054468,42.355444],[-71.052838,42.356309],[-71.052944,42.356887],[-71.053396,42.356843],[-71.054885,42.356053],[-71.055624,42.355989],[-71.057349,42.355074],[-71.057329,42.354923],[-71.05689,42.354747],[-71.056544,42.354773],[-71.057414,42.354324],[-71.057471,42.354341],[-71.057181,42.354774],[-71.05757,42.354895],[-71.057938,42.3547],[-71.058138,42.354507],[-71.058164,42.354525],[-71.05801,42.354649],[-71.057724,42.35493],[-71.05746,42.35507],[-71.057403,42.355125],[-71.057512,42.355342],[-71.057639,42.355357],[-71.058343,42.354995],[-71.058451,42.354923],[-71.058718,42.354674],[-71.059183,42.354424],[-71.059211,42.354532],[-71.059117,42.354612],[-71.059081,42.35459],[-71.059033,42.354595],[-71.058884,42.354674],[-71.058727,42.354817],[-71.058512,42.354931],[-71.058187,42.35523],[-71.058191,42.355256],[-71.058315,42.35531],[-71.057961,42.355498],[-71.057864,42.355569],[-71.057584,42.355844],[-71.057658,42.355899],[-71.05795,42.356018],[-71.058848,42.355542],[-71.058877,42.355554],[-71.059228,42.355368],[-71.059345,42.355259],[-71.059587,42.355441],[-71.059959,42.355261],[-71.060297,42.355492],[-71.060496,42.355387],[-71.060795,42.355112],[-71.060831,42.35513],[-71.060667,42.355285],[-71.06098,42.355442],[-71.061373,42.355233],[-71.061452,42.355147],[-71.061468,42.355156],[-71.061453,42.355171],[-71.061719,42.355309],[-71.061741,42.355297],[-71.06188,42.355368],[-71.061945,42.355334],[-71.062204,42.355408],[-71.062387,42.355311],[-71.06241,42.355324],[-71.062465,42.355295],[-71.062749,42.355418],[-71.063118,42.355222],[-71.06318,42.355155],[-71.063122,42.355115],[-71.063255,42.355044],[-71.063852,42.353943],[-71.063862,42.353896],[-71.063806,42.353879],[-71.063892,42.353833],[-71.063985,42.353676],[-71.063998,42.353634],[-71.063937,42.353615],[-71.064052,42.353554],[-71.064097,42.353425],[-71.063954,42.353398],[-71.064146,42.353296],[-71.064309,42.35284],[-71.064262,42.352837],[-71.064309,42.352812],[-71.064351,42.352649],[-71.064462,42.352654],[-71.064461,42.35267],[-71.064879,42.352692],[-71.065099,42.352575],[-71.065088,42.352685],[-71.065285,42.3527],[-71.065569,42.35255],[-71.065574,42.352595],[-71.06567,42.3526],[-71.066063,42.352392],[-71.066072,42.352274],[-71.06626,42.352174],[-71.066456,42.35213],[-71.06703,42.351826]],[[-71.065248,42.348475],[-71.065229,42.348566],[-71.065213,42.348574],[-71.065195,42.348666],[-71.065207,42.348667],[-71.064992,42.348617],[-71.06457,42.348567],[-71.064806,42.348442],[-71.064849,42.348364],[-71.064892,42.348341],[-71.065035,42.348506],[-71.065057,42.348513],[-71.065248,42.348475]],[[-71.065157,42.350657],[-71.065153,42.350682],[-71.06484,42.350841],[-71.064902,42.350642],[-71.064886,42.350636],[-71.06512,42.350619],[-71.065111,42.35065],[-71.065157,42.350657]],[[-71.063931,42.350314],[-71.063791,42.350398],[-71.063776,42.350396],[-71.063931,42.350314]],[[-71.063784,42.351107],[-71.06376,42.35112],[-71.06329,42.35107],[-71.06327,42.35108],[-71.063273,42.351069],[-71.063229,42.351064],[-71.063458,42.350942],[-71.06343,42.350987],[-71.063784,42.351107]],[[-71.063638,42.353633],[-71.063592,42.353657],[-71.063609,42.353625],[-71.063638,42.353633]],[[-71.063407,42.34834],[-71.063398,42.348369],[-71.063111,42.348326],[-71.063177,42.348291],[-71.063402,42.348327],[-71.063407,42.34834]],[[-71.063373,42.350452],[-71.063004,42.350648],[-71.063123,42.35027],[-71.063183,42.350238],[-71.063373,42.350452]],[[-71.063266,42.348084],[-71.063243,42.348166],[-71.06323,42.348148],[-71.063187,42.348141],[-71.063143,42.348164],[-71.063005,42.348143],[-71.06304,42.348125],[-71.063145,42.348148],[-71.063266,42.348084]],[[-71.063218,42.352374],[-71.063217,42.3524],[-71.063155,42.352407],[-71.063218,42.352374]],[[-71.063112,42.351569],[-71.062895,42.351546],[-71.062675,42.351663],[-71.062543,42.351623],[-71.062728,42.351525],[-71.062787,42.351298],[-71.062865,42.351257],[-71.062836,42.351357],[-71.062846,42.351369],[-71.062793,42.351526],[-71.063112,42.351569]],[[-71.062934,42.3481],[-71.062925,42.348129],[-71.062886,42.348123],[-71.062764,42.348182],[-71.062773,42.348147],[-71.062871,42.348095],[-71.062934,42.3481]],[[-71.062884,42.352437],[-71.062724,42.352454],[-71.062447,42.352601],[-71.062449,42.352561],[-71.062717,42.352419],[-71.062884,42.352437]],[[-71.062697,42.348226],[-71.062687,42.348262],[-71.062641,42.348255],[-71.062697,42.348226]],[[-71.06251,42.353503],[-71.062244,42.353644],[-71.062336,42.353489],[-71.06251,42.353503]],[[-71.062448,42.349298],[-71.062357,42.349357],[-71.062324,42.349343],[-71.062427,42.349288],[-71.062448,42.349298]],[[-71.062256,42.348507],[-71.062136,42.348809],[-71.062239,42.348826],[-71.062117,42.34889],[-71.062101,42.348916],[-71.061983,42.34922],[-71.061997,42.349226],[-71.061962,42.349267],[-71.061808,42.349235],[-71.061839,42.34916],[-71.061745,42.349139],[-71.061721,42.349148],[-71.061783,42.348996],[-71.06176,42.348991],[-71.061778,42.348981],[-71.061895,42.34873],[-71.061814,42.348712],[-71.061865,42.348585],[-71.062105,42.348641],[-71.062216,42.348582],[-71.062256,42.348507]],[[-71.062034,42.349378],[-71.061902,42.349448],[-71.061949,42.349333],[-71.062034,42.349378]],[[-71.061855,42.351529],[-71.061833,42.35153],[-71.061854,42.351519],[-71.061855,42.351529]],[[-71.061733,42.349695],[-71.061716,42.349736],[-71.061682,42.349722],[-71.061733,42.349695]],[[-71.06169,42.349993],[-71.061683,42.349997],[-71.061685,42.349991],[-71.06169,42.349993]],[[-71.061689,42.3483],[-71.061496,42.348777],[-71.061429,42.348813],[-71.061381,42.348778],[-71.061479,42.348726],[-71.061599,42.34842],[-71.061619,42.34841],[-71.06164,42.348359],[-71.061414,42.348308],[-71.061328,42.348354],[-71.061269,42.348334],[-71.06129,42.348281],[-71.06138,42.34823],[-71.061689,42.3483]],[[-71.061456,42.350526],[-71.061197,42.350663],[-71.061176,42.350657],[-71.061451,42.350511],[-71.061456,42.350526]],[[-71.061445,42.354503],[-71.061405,42.354544],[-71.061373,42.354561],[-71.061445,42.354503]],[[-71.061325,42.354682],[-71.061248,42.354753],[-71.061069,42.354856],[-71.061271,42.354657],[-71.061325,42.354682]],[[-71.061319,42.351039],[-71.061257,42.351239],[-71.061134,42.351305],[-71.061227,42.351071],[-71.060769,42.350979],[-71.06055,42.351095],[-71.060595,42.350984],[-71.060568,42.350978],[-71.060691,42.350671],[-71.060725,42.350679],[-71.060695,42.350695],[-71.060677,42.350734],[-71.06069,42.35074],[-71.060635,42.350882],[-71.060851,42.35093],[-71.060992,42.350914],[-71.060985,42.350932],[-71.061105,42.35096],[-71.061213,42.350909],[-71.061289,42.350929],[-71.061267,42.35094],[-71.061235,42.35102],[-71.061319,42.351039]],[[-71.060989,42.349206],[-71.060936,42.349221],[-71.060872,42.349197],[-71.060895,42.349185],[-71.060989,42.349206]],[[-71.060911,42.350229],[-71.060857,42.350262],[-71.060876,42.350214],[-71.060911,42.350229]],[[-71.060599,42.350454],[-71.060583,42.350494],[-71.060545,42.350483],[-71.060599,42.350454]],[[-71.060398,42.353236],[-71.060211,42.353445],[-71.060283,42.353489],[-71.060072,42.353601],[-71.059811,42.353458],[-71.059778,42.353475],[-71.059666,42.353428],[-71.059711,42.353404],[-71.059837,42.353469],[-71.06021,42.353271],[-71.060267,42.35321],[-71.06036,42.353256],[-71.060398,42.353236]],[[-71.060385,42.351751],[-71.060376,42.351756],[-71.060374,42.351749],[-71.060385,42.351751]],[[-71.060312,42.351362],[-71.060272,42.35146],[-71.060251,42.351395],[-71.060312,42.351362]],[[-71.060239,42.35216],[-71.05974,42.352422],[-71.059715,42.35226],[-71.059695,42.352262],[-71.059746,42.352254],[-71.060047,42.352104],[-71.060053,42.352122],[-71.060219,42.352094],[-71.060239,42.35216]],[[-71.060069,42.352783],[-71.059999,42.35282],[-71.059968,42.352921],[-71.059657,42.352762],[-71.059553,42.352772],[-71.059356,42.352877],[-71.059332,42.352672],[-71.059376,42.352675],[-71.059646,42.352532],[-71.059681,42.35276],[-71.060064,42.352758],[-71.060069,42.352783]],[[-71.060028,42.351879],[-71.059999,42.351894],[-71.059962,42.351665],[-71.060028,42.351879]],[[-71.05926,42.353481],[-71.058997,42.353621],[-71.059187,42.353444],[-71.05926,42.353481]],[[-71.059112,42.353376],[-71.059072,42.353376],[-71.059108,42.353356],[-71.059112,42.353376]],[[-71.05909,42.352547],[-71.059084,42.352546],[-71.059089,42.352543],[-71.05909,42.352547]],[[-71.05876,42.353871],[-71.05869,42.353953],[-71.058727,42.353974],[-71.058477,42.354107],[-71.058436,42.35408],[-71.05861,42.353988],[-71.058747,42.353859],[-71.05876,42.353871]],[[-71.058442,42.350839],[-71.058398,42.350949],[-71.058221,42.350905],[-71.058295,42.350917],[-71.058442,42.350839]],[[-71.058097,42.35088],[-71.058042,42.350909],[-71.058067,42.350873],[-71.058097,42.35088]],[[-71.057889,42.350831],[-71.057888,42.350835],[-71.057883,42.350834],[-71.057889,42.350831]],[[-71.057651,42.349947],[-71.057443,42.350057],[-71.057462,42.349962],[-71.057537,42.349922],[-71.057651,42.349947]],[[-71.057402,42.350838],[-71.057278,42.350904],[-71.057285,42.350866],[-71.057358,42.350827],[-71.057402,42.350838]],[[-71.057035,42.351583],[-71.057026,42.35163],[-71.05698,42.351613],[-71.057035,42.351583]],[[-71.056826,42.352158],[-71.056821,42.352187],[-71.056789,42.352178],[-71.056826,42.352158]],[[-71.056591,42.350255],[-71.056582,42.350274],[-71.056494,42.350321],[-71.056469,42.350364],[-71.056413,42.350394],[-71.056373,42.350467],[-71.056337,42.350488],[-71.056279,42.3506],[-71.056458,42.350221],[-71.056591,42.350255]],[[-71.055941,42.353822],[-71.055612,42.354],[-71.055589,42.353983],[-71.055519,42.354016],[-71.054827,42.354389],[-71.055049,42.354192],[-71.055082,42.354128],[-71.055309,42.354002],[-71.055378,42.35403],[-71.055864,42.353788],[-71.055877,42.353816],[-71.055941,42.353822]]],[[[-71.065565,42.354342],[-71.065534,42.354305],[-71.065487,42.354301],[-71.065323,42.354384],[-71.065303,42.354426],[-71.06534,42.35446],[-71.065387,42.354461],[-71.06554,42.354382],[-71.065565,42.354342]]],[[[-71.065421,42.352871],[-71.065303,42.352844],[-71.065225,42.352885],[-71.065208,42.352932],[-71.065234,42.353013],[-71.0653,42.353027],[-71.065378,42.352986],[-71.065421,42.352871]]],[[[-71.06461,42.353278],[-71.064542,42.353266],[-71.064485,42.353296],[-71.064451,42.353396],[-71.064519,42.35341],[-71.064576,42.35338],[-71.06461,42.353278]]],[[[-71.063935,42.354829],[-71.063869,42.354811],[-71.063815,42.35484],[-71.063792,42.354889],[-71.063858,42.354906],[-71.063912,42.354877],[-71.063935,42.354829]]],[[[-71.058071,42.348706],[-71.057613,42.348605],[-71.056875,42.348996],[-71.056791,42.349205],[-71.05725,42.349306],[-71.057988,42.348915],[-71.058071,42.348706]]]]},"properties":{"kind":"building"}},{"type":"Feature","geometry":{"type":"MultiPolygon","coordinates":[[[[-71.066058,42.353451],[-71.066047,42.35341],[-71.066015,42.353375],[-71.065912,42.353343],[-71.065856,42.353351],[-71.065589,42.353491],[-71.065551,42.353432],[-71.065504,42.353408],[-71.065448,42.3534],[-71.065378,42.353415],[-71.065349,42.35339],[-71.065495,42.353298],[-71.065515,42.353313],[-71.065516,42.353363],[-71.065537,42.353385],[-71.065603,42.353406],[-71.065639,42.3534],[-71.065911,42.353246],[-71.065911,42.353192],[-71.065871,42.35316],[-71.065981,42.353102],[-71.066007,42.353073],[-71.066016,42.353039],[-71.065995,42.352992],[-71.066039,42.352955],[-71.066048,42.352923],[-71.066021,42.352832],[-71.065989,42.352797],[-71.065886,42.352765],[-71.065769,42.352804],[-71.06576,42.352752],[-71.066,42.352636],[-71.066022,42.352597],[-71.066,42.352558],[-71.065947,42.352542],[-71.065879,42.352566],[-71.065841,42.352538],[-71.065759,42.35255],[-71.065688,42.352518],[-71.065447,42.352634],[-71.065275,42.352749],[-71.065275,42.3528],[-71.065294,42.352822],[-71.065359,42.352841],[-71.065393,42.352836],[-71.065586,42.352735],[-71.065634,42.352742],[-71.065567,42.352778],[-71.065525,42.352783],[-71.065246,42.352941],[-71.06522,42.352941],[-71.06508,42.353016],[-71.065071,42.353047],[-71.065092,42.353062],[-71.065015,42.353109],[-71.065,42.353164],[-71.064798,42.353261],[-71.064846,42.353233],[-71.064928,42.353148],[-71.064931,42.353075],[-71.065164,42.352948],[-71.065169,42.352928],[-71.065149,42.352891],[-71.065175,42.352866],[-71.065165,42.352827],[-71.0652,42.352802],[-71.0652,42.352768],[-71.065434,42.352641],[-71.065465,42.352587],[-71.065434,42.352533],[-71.065401,42.352516],[-71.065321,42.352516],[-71.06505,42.352659],[-71.06502,42.352713],[-71.065028,42.352742],[-71.065066,42.352775],[-71.064931,42.352854],[-71.064941,42.352942],[-71.064865,42.352988],[-71.064791,42.352933],[-71.064699,42.352933],[-71.064396,42.353093],[-71.06437,42.353121],[-71.06436,42.353155],[-71.064385,42.353206],[-71.064366,42.353256],[-71.064377,42.353297],[-71.064433,42.353344],[-71.064309,42.353423],[-71.064309,42.353486],[-71.064333,42.353512],[-71.064411,42.353536],[-71.064453,42.35353],[-71.064595,42.353456],[-71.064653,42.353458],[-71.064697,42.353435],[-71.06477,42.353456],[-71.064843,42.353435],[-71.064843,42.353469],[-71.06473,42.353529],[-71.064702,42.353483],[-71.06467,42.353467],[-71.064592,42.353467],[-71.064328,42.353606],[-71.064303,42.353643],[-71.064186,42.353713],[-71.064186,42.353749],[-71.064152,42.353783],[-71.064152,42.353819],[-71.064125,42.353859],[-71.064159,42.353897],[-71.064072,42.353945],[-71.064047,42.353989],[-71.064045,42.354073],[-71.064109,42.354109],[-71.064039,42.354146],[-71.064015,42.354189],[-71.063937,42.354233],[-71.063915,42.354272],[-71.063937,42.354311],[-71.063848,42.354392],[-71.063838,42.354431],[-71.063762,42.354482],[-71.063762,42.354527],[-71.063622,42.354631],[-71.063611,42.354672],[-71.063622,42.354713],[-71.063654,42.354748],[-71.063596,42.354792],[-71.063594,42.354834],[-71.063562,42.354861],[-71.063562,42.354905],[-71.063604,42.354936],[-71.063663,42.354936],[-71.063882,42.354821],[-71.063902,42.35477],[-71.063956,42.354731],[-71.063959,42.354696],[-71.064141,42.354599],[-71.064173,42.354564],[-71.064184,42.354523],[-71.064162,42.354469],[-71.064367,42.35436],[-71.064399,42.354325],[-71.06441,42.354284],[-71.064602,42.354175],[-71.064632,42.354122],[-71.064686,42.354121],[-71.064929,42.353983],[-71.064929,42.353937],[-71.064885,42.353905],[-71.064823,42.353905],[-71.06477,42.353931],[-71.064779,42.353878],[-71.064737,42.353847],[-71.064677,42.353847],[-71.064635,42.353869],[-71.064632,42.353832],[-71.064588,42.3538],[-71.064508,42.353809],[-71.064437,42.353774],[-71.064387,42.353789],[-71.064387,42.353766],[-71.06447,42.353712],[-71.064697,42.353592],[-71.064736,42.353624],[-71.064777,42.353626],[-71.064811,42.353681],[-71.064851,42.3537],[-71.064945,42.3537],[-71.065022,42.353661],[-71.065064,42.353733],[-71.065111,42.353757],[-71.065167,42.353765],[-71.065265,42.353736],[-71.065265,42.353771],[-71.065123,42.353847],[-71.065107,42.353899],[-71.065015,42.353948],[-71.064997,42.35398],[-71.064864,42.354064],[-71.064878,42.354116],[-71.064924,42.35413],[-71.065079,42.354058],[-71.065081,42.35407],[-71.064988,42.354119],[-71.064974,42.354162],[-71.064839,42.354234],[-71.064826,42.354281],[-71.064756,42.354325],[-71.064764,42.354303],[-71.064751,42.354275],[-71.064911,42.354184],[-71.064911,42.354156],[-71.064885,42.354137],[-71.064847,42.354137],[-71.064687,42.354221],[-71.06467,42.354256],[-71.064471,42.354361],[-71.064451,42.354397],[-71.064466,42.354428],[-71.064423,42.354467],[-71.064305,42.35453],[-71.064288,42.35456],[-71.064202,42.354617],[-71.064114,42.354714],[-71.064018,42.354767],[-71.064006,42.354811],[-71.064057,42.354836],[-71.064191,42.354774],[-71.064054,42.354858],[-71.064054,42.354898],[-71.064093,42.354927],[-71.064148,42.354927],[-71.064354,42.354818],[-71.064369,42.354801],[-71.064369,42.354761],[-71.064621,42.354587],[-71.064669,42.354635],[-71.064731,42.354635],[-71.06482,42.354589],[-71.064862,42.354588],[-71.065049,42.35449],[-71.065067,42.354458],[-71.065029,42.354416],[-71.064868,42.354419],[-71.064806,42.354451],[-71.064784,42.354403],[-71.06494,42.354321],[-71.064951,42.354279],[-71.065082,42.35421],[-71.065096,42.354166],[-71.065231,42.354095],[-71.065248,42.354064],[-71.065596,42.353881],[-71.065596,42.353851],[-71.065568,42.353831],[-71.065488,42.353851],[-71.065608,42.353787],[-71.065625,42.353756],[-71.065608,42.353725],[-71.065545,42.353716],[-71.065415,42.353784],[-71.065411,42.35377],[-71.065544,42.353684],[-71.065631,42.353708],[-71.065687,42.3537],[-71.066015,42.353527],[-71.066047,42.353492],[-71.066058,42.353451]],[[-71.065696,42.352724],[-71.06568,42.352726],[-71.065692,42.35272],[-71.065696,42.352724]],[[-71.06549,42.35362],[-71.065484,42.35362],[-71.06549,42.353617],[-71.06549,42.35362]],[[-71.065355,42.353861],[-71.065285,42.353899],[-71.065285,42.353884],[-71.06535,42.353849],[-71.065355,42.353861]],[[-71.065264,42.3531],[-71.065199,42.353134],[-71.065264,42.3531],[-71.065264,42.3531]],[[-71.065251,42.353002],[-71.06524,42.353001],[-71.065246,42.352997],[-71.065251,42.353002]],[[-71.06523,42.353957],[-71.06516,42.353994],[-71.065159,42.353983],[-71.065229,42.353945],[-71.06523,42.353957]],[[-71.065172,42.353222],[-71.065128,42.353245],[-71.065122,42.35322],[-71.065164,42.353197],[-71.065172,42.353222]],[[-71.064705,42.354359],[-71.064702,42.35437],[-71.06468,42.354373],[-71.064705,42.354359]],[[-71.064379,42.354635],[-71.064366,42.354642],[-71.064376,42.354629],[-71.064379,42.354635]],[[-71.064365,42.35402],[-71.064342,42.354032],[-71.064306,42.354025],[-71.064365,42.35402]],[[-71.064294,42.354693],[-71.064266,42.354716],[-71.064266,42.354708],[-71.064294,42.354693]]],[[[-71.066046,42.354972],[-71.066026,42.354936],[-71.065952,42.354925],[-71.065753,42.35503],[-71.065733,42.355066],[-71.065738,42.355085],[-71.065775,42.355112],[-71.065827,42.355112],[-71.066026,42.355008],[-71.066046,42.354972]]],[[[-71.06602,42.354061],[-71.065981,42.354032],[-71.065924,42.354056],[-71.06587,42.354048],[-71.06571,42.354132],[-71.0657,42.354171],[-71.065745,42.354194],[-71.065834,42.354154],[-71.065868,42.354155],[-71.066009,42.354081],[-71.06602,42.354061]]],[[[-71.06597,42.354146],[-71.065931,42.354134],[-71.065824,42.354199],[-71.065862,42.354211],[-71.06597,42.354146]]],[[[-71.065865,42.354468],[-71.065827,42.3544],[-71.065785,42.354379],[-71.065685,42.354379],[-71.065362,42.354549],[-71.065324,42.354617],[-71.065334,42.354654],[-71.065404,42.354706],[-71.065504,42.354706],[-71.065827,42.354536],[-71.065865,42.354468]]],[[[-71.06583,42.348038],[-71.065811,42.348004],[-71.06574,42.347994],[-71.065438,42.348149],[-71.065457,42.348162],[-71.065529,42.348127],[-71.065548,42.348163],[-71.065618,42.348173],[-71.065811,42.348072],[-71.06583,42.348038]]],[[[-71.06579,42.34818],[-71.065774,42.348151],[-71.065714,42.348142],[-71.065541,42.348234],[-71.065529,42.348278],[-71.065559,42.3483],[-71.065601,42.3483],[-71.065774,42.348209],[-71.06579,42.34818]]],[[[-71.065764,42.353939],[-71.065749,42.353914],[-71.065696,42.353906],[-71.065536,42.35399],[-71.065475,42.354053],[-71.065475,42.35408],[-71.065501,42.3541],[-71.065538,42.3541],[-71.065698,42.354015],[-71.065764,42.353939]]],[[[-71.065738,42.348446],[-71.065721,42.348415],[-71.065658,42.348406],[-71.065478,42.348501],[-71.065465,42.348548],[-71.065497,42.348571],[-71.065542,42.348571],[-71.065721,42.348477],[-71.065738,42.348446]]],[[[-71.065728,42.348293],[-71.065697,42.348283],[-71.065618,42.348332],[-71.06565,42.348341],[-71.065728,42.348293]]],[[[-71.065683,42.354843],[-71.065674,42.354808],[-71.065607,42.354759],[-71.06556,42.354752],[-71.065482,42.354774],[-71.065466,42.354722],[-71.065418,42.354708],[-71.065358,42.354729],[-71.065327,42.354655],[-71.065232,42.354615],[-71.065172,42.354615],[-71.064734,42.354849],[-71.064722,42.354893],[-71.064764,42.354917],[-71.064496,42.355058],[-71.064466,42.355112],[-71.064496,42.355166],[-71.06453,42.355183],[-71.06461,42.355183],[-71.06488,42.35504],[-71.064903,42.355015],[-71.064903,42.354957],[-71.06488,42.354932],[-71.064807,42.354909],[-71.064863,42.354879],[-71.064976,42.35494],[-71.065047,42.354932],[-71.065092,42.354982],[-71.065171,42.354971],[-71.065176,42.355021],[-71.065243,42.35507],[-71.065337,42.35507],[-71.065647,42.354907],[-71.065683,42.354843]]],[[[-71.065598,42.348957],[-71.065567,42.348947],[-71.065494,42.348993],[-71.065525,42.349003],[-71.065598,42.348957]]],[[[-71.065588,42.351223],[-71.065557,42.351213],[-71.065467,42.351268],[-71.065499,42.351277],[-71.065588,42.351223]]],[[[-71.065562,42.349094],[-71.065531,42.349084],[-71.065458,42.34913],[-71.065489,42.34914],[-71.065562,42.349094]]],[[[-71.065559,42.349236],[-71.065544,42.349211],[-71.065491,42.349203],[-71.065351,42.349277],[-71.06534,42.349316],[-71.065367,42.349335],[-71.065404,42.349335],[-71.065544,42.349261],[-71.065559,42.349236]]],[[[-71.065552,42.348316],[-71.065534,42.348284],[-71.065466,42.348274],[-71.06528,42.348372],[-71.065267,42.348422],[-71.0653,42.348446],[-71.065347,42.348446],[-71.065534,42.348348],[-71.065552,42.348316]]],[[[-71.065483,42.348446],[-71.065444,42.348434],[-71.065337,42.348499],[-71.065375,42.348511],[-71.065483,42.348446]]],[[[-71.065433,42.34879],[-71.065418,42.348765],[-71.065365,42.348757],[-71.065225,42.348831],[-71.065214,42.34887],[-71.065241,42.348889],[-71.065278,42.348889],[-71.065418,42.348815],[-71.065433,42.34879]]],[[[-71.065396,42.34894],[-71.065385,42.348921],[-71.065346,42.348916],[-71.065212,42.348986],[-71.065205,42.349015],[-71.065251,42.349029],[-71.065385,42.348959],[-71.065396,42.34894]]],[[[-71.065379,42.34907],[-71.065364,42.349045],[-71.065311,42.349037],[-71.065151,42.349121],[-71.065141,42.34916],[-71.065167,42.34918],[-71.065204,42.34918],[-71.065364,42.349095],[-71.065379,42.34907]]],[[[-71.065368,42.35121],[-71.065337,42.3512],[-71.065253,42.351252],[-71.065284,42.351261],[-71.065368,42.35121]]],[[[-71.065268,42.35121],[-71.065237,42.3512],[-71.065158,42.351249],[-71.06519,42.351258],[-71.065268,42.35121]]],[[[-71.065176,42.35072],[-71.06514,42.350702],[-71.065018,42.350776],[-71.065054,42.350794],[-71.065176,42.35072]]],[[[-71.065151,42.350784],[-71.065115,42.350766],[-71.064993,42.35084],[-71.065029,42.350858],[-71.065151,42.350784]]],[[[-71.065129,42.350853],[-71.065096,42.350843],[-71.064995,42.350903],[-71.065029,42.350914],[-71.065129,42.350853]]],[[[-71.065109,42.352581],[-71.065081,42.35253],[-71.065049,42.352515],[-71.064975,42.352515],[-71.064717,42.35265],[-71.064688,42.352701],[-71.064696,42.352729],[-71.064748,42.352767],[-71.064823,42.352767],[-71.065081,42.352632],[-71.065109,42.352581]]],[[[-71.065103,42.354592],[-71.065085,42.35456],[-71.065041,42.354546],[-71.064927,42.354597],[-71.06487,42.354599],[-71.064625,42.354728],[-71.064599,42.354775],[-71.064606,42.354801],[-71.064635,42.354845],[-71.064724,42.354837],[-71.064969,42.354709],[-71.064993,42.354673],[-71.065085,42.354624],[-71.065103,42.354592]]],[[[-71.064944,42.35131],[-71.064913,42.3513],[-71.064829,42.351352],[-71.06486,42.351361],[-71.064944,42.35131]]],[[[-71.064857,42.348456],[-71.064826,42.348446],[-71.064747,42.348495],[-71.064779,42.348504],[-71.064857,42.348456]]],[[[-71.064624,42.351826],[-71.064593,42.351816],[-71.064514,42.351865],[-71.064546,42.351874],[-71.064624,42.351826]]],[[[-71.064621,42.348425],[-71.06459,42.348415],[-71.064511,42.348464],[-71.064543,42.348473],[-71.064621,42.348425]]],[[[-71.064568,42.352055],[-71.064537,42.352045],[-71.064453,42.352097],[-71.064484,42.352106],[-71.064568,42.352055]]],[[[-71.064564,42.352104],[-71.064531,42.352094],[-71.06443,42.352154],[-71.064464,42.352165],[-71.064564,42.352104]]],[[[-71.064548,42.35216],[-71.064517,42.35215],[-71.064438,42.352199],[-71.06447,42.352208],[-71.064548,42.35216]]],[[[-71.064436,42.348399],[-71.064405,42.348389],[-71.064326,42.348438],[-71.064358,42.348447],[-71.064436,42.348399]]],[[[-71.064238,42.350925],[-71.064207,42.350915],[-71.064128,42.350964],[-71.06416,42.350973],[-71.064238,42.350925]]],[[[-71.064209,42.34872],[-71.06417,42.348708],[-71.064063,42.348773],[-71.064101,42.348785],[-71.064209,42.34872]]],[[[-71.064168,42.34884],[-71.064137,42.34883],[-71.064042,42.348888],[-71.064073,42.348897],[-71.064168,42.34884]]],[[[-71.064148,42.350914],[-71.06413,42.350901],[-71.064078,42.350925],[-71.064073,42.350897],[-71.064038,42.350892],[-71.06391,42.350959],[-71.063903,42.350985],[-71.063945,42.350998],[-71.06404,42.350949],[-71.064057,42.350966],[-71.064148,42.350914]]],[[[-71.064088,42.3533],[-71.064057,42.35329],[-71.063962,42.353348],[-71.063993,42.353357],[-71.064088,42.3533]]],[[[-71.064049,42.35339],[-71.064016,42.35338],[-71.063915,42.35344],[-71.063949,42.353451],[-71.064049,42.35339]]],[[[-71.064013,42.353283],[-71.063982,42.353273],[-71.063887,42.353331],[-71.063918,42.35334],[-71.064013,42.353283]]],[[[-71.063998,42.35376],[-71.063967,42.35375],[-71.063872,42.353808],[-71.063903,42.353817],[-71.063998,42.35376]]],[[[-71.063984,42.353386],[-71.063951,42.353376],[-71.06385,42.353436],[-71.063884,42.353447],[-71.063984,42.353386]]],[[[-71.063973,42.350903],[-71.063962,42.350883],[-71.063919,42.350876],[-71.063779,42.350951],[-71.06377,42.350982],[-71.063821,42.350997],[-71.063962,42.350923],[-71.063973,42.350903]]],[[[-71.063943,42.353268],[-71.063904,42.353256],[-71.063797,42.353321],[-71.063835,42.353333],[-71.063943,42.353268]]],[[[-71.063928,42.353374],[-71.063897,42.353364],[-71.063802,42.353422],[-71.063833,42.353431],[-71.063928,42.353374]]],[[[-71.063922,42.353967],[-71.063913,42.35395],[-71.063878,42.353945],[-71.06375,42.354012],[-71.063743,42.354038],[-71.063785,42.354051],[-71.063922,42.353967]]],[[[-71.063915,42.348675],[-71.063882,42.348665],[-71.063781,42.348725],[-71.063815,42.348736],[-71.063915,42.348675]]],[[[-71.063893,42.348743],[-71.063854,42.348731],[-71.063747,42.348796],[-71.063785,42.348808],[-71.063893,42.348743]]],[[[-71.063879,42.34887],[-71.063846,42.34886],[-71.063745,42.34892],[-71.063779,42.348931],[-71.063879,42.34887]]],[[[-71.063873,42.348793],[-71.063842,42.348783],[-71.063763,42.348832],[-71.063795,42.348841],[-71.063873,42.348793]]],[[[-71.063821,42.349148],[-71.06379,42.349138],[-71.063711,42.349187],[-71.063743,42.349196],[-71.063821,42.349148]]],[[[-71.063816,42.35412],[-71.06378,42.354102],[-71.063658,42.354176],[-71.063694,42.354194],[-71.063816,42.35412]]],[[[-71.063808,42.348427],[-71.063777,42.348417],[-71.063698,42.348466],[-71.06373,42.348475],[-71.063808,42.348427]]],[[[-71.063768,42.349293],[-71.063737,42.349283],[-71.063658,42.349332],[-71.06369,42.349341],[-71.063768,42.349293]]],[[[-71.063755,42.349335],[-71.063724,42.349325],[-71.063645,42.349374],[-71.063677,42.349383],[-71.063755,42.349335]]],[[[-71.063718,42.34841],[-71.063687,42.3484],[-71.063608,42.348449],[-71.06364,42.348458],[-71.063718,42.34841]]],[[[-71.063707,42.350883],[-71.063698,42.350866],[-71.063663,42.350861],[-71.063535,42.350928],[-71.063528,42.350954],[-71.06357,42.350967],[-71.063707,42.350883]]],[[[-71.063689,42.34976],[-71.063656,42.34975],[-71.063555,42.34981],[-71.063589,42.349821],[-71.063689,42.34976]]],[[[-71.063632,42.349854],[-71.063601,42.349844],[-71.063506,42.349902],[-71.063537,42.349911],[-71.063632,42.349854]]],[[[-71.063613,42.350876],[-71.063574,42.350864],[-71.063467,42.350929],[-71.063505,42.350941],[-71.063613,42.350876]]],[[[-71.063579,42.34995],[-71.063546,42.34994],[-71.063445,42.35],[-71.063479,42.350011],[-71.063579,42.34995]]],[[[-71.063569,42.3547],[-71.063554,42.354675],[-71.063501,42.354667],[-71.063361,42.354741],[-71.06335,42.35478],[-71.063377,42.354799],[-71.063301,42.354841],[-71.06329,42.35488],[-71.063317,42.354899],[-71.063354,42.354899],[-71.063494,42.354825],[-71.063509,42.3548],[-71.063479,42.354767],[-71.063554,42.354725],[-71.063569,42.3547]]],[[[-71.063548,42.35],[-71.063517,42.34999],[-71.063422,42.350048],[-71.063453,42.350057],[-71.063548,42.35]]],[[[-71.063546,42.350864],[-71.06351,42.350846],[-71.063388,42.35092],[-71.063424,42.350938],[-71.063546,42.350864]]],[[[-71.063458,42.350418],[-71.063427,42.350408],[-71.063332,42.350466],[-71.063363,42.350475],[-71.063458,42.350418]]],[[[-71.063458,42.35018],[-71.063427,42.35017],[-71.063337,42.350225],[-71.063369,42.350234],[-71.063458,42.35018]]],[[[-71.063434,42.350487],[-71.063403,42.350477],[-71.063313,42.350532],[-71.063345,42.350541],[-71.063434,42.350487]]],[[[-71.063428,42.350246],[-71.06341,42.350233],[-71.063313,42.350281],[-71.063288,42.350334],[-71.063398,42.35029],[-71.063398,42.35027],[-71.063428,42.350246]]],[[[-71.063403,42.35055],[-71.063372,42.35054],[-71.063288,42.350592],[-71.063319,42.350601],[-71.063403,42.35055]]],[[[-71.063386,42.350826],[-71.06335,42.350808],[-71.063228,42.350882],[-71.063264,42.3509],[-71.063386,42.350826]]],[[[-71.063383,42.350765],[-71.063343,42.350745],[-71.063213,42.350824],[-71.063254,42.350844],[-71.063383,42.350765]]],[[[-71.063369,42.350704],[-71.063336,42.350694],[-71.063235,42.350754],[-71.063269,42.350765],[-71.063369,42.350704]]],[[[-71.063368,42.35061],[-71.063337,42.3506],[-71.063253,42.350652],[-71.063284,42.350661],[-71.063368,42.35061]]],[[[-71.063328,42.35044],[-71.06331,42.350427],[-71.063218,42.350472],[-71.063183,42.350537],[-71.063293,42.350493],[-71.063293,42.350473],[-71.063328,42.35044]]],[[[-71.063273,42.350536],[-71.063255,42.350523],[-71.063158,42.350571],[-71.063158,42.35059],[-71.063183,42.350591],[-71.063127,42.35062],[-71.063127,42.350639],[-71.063243,42.350592],[-71.063243,42.350572],[-71.063218,42.350572],[-71.063273,42.350536]]],[[[-71.063228,42.35063],[-71.063197,42.35062],[-71.063107,42.350668],[-71.06312,42.350691],[-71.063099,42.350703],[-71.063099,42.350723],[-71.063193,42.350687],[-71.06318,42.350664],[-71.063228,42.35063]]],[[[-71.063178,42.350727],[-71.06316,42.350714],[-71.063063,42.350762],[-71.063063,42.350781],[-71.063021,42.350805],[-71.063021,42.350826],[-71.063049,42.350826],[-71.063144,42.350775],[-71.063144,42.350755],[-71.063178,42.350727]]],[[[-71.063144,42.352238],[-71.063126,42.352225],[-71.063082,42.352245],[-71.063058,42.352238],[-71.062968,42.352292],[-71.062986,42.352305],[-71.06303,42.352285],[-71.063054,42.352292],[-71.063144,42.352238]]],[[[-71.062983,42.352253],[-71.062952,42.352243],[-71.062868,42.352295],[-71.062899,42.352304],[-71.062983,42.352253]]],[[[-71.062922,42.35222],[-71.062891,42.35221],[-71.062801,42.352265],[-71.062833,42.352274],[-71.062922,42.35222]]],[[[-71.062848,42.352215],[-71.062817,42.352205],[-71.062733,42.352257],[-71.062764,42.352266],[-71.062848,42.352215]]],[[[-71.062829,42.353302],[-71.06281,42.353288],[-71.062762,42.35331],[-71.062731,42.35329],[-71.062617,42.353359],[-71.062639,42.353376],[-71.062696,42.35335],[-71.062715,42.353367],[-71.062829,42.353302]]],[[[-71.062829,42.353214],[-71.062796,42.353204],[-71.062695,42.353264],[-71.062729,42.353275],[-71.062829,42.353214]]],[[[-71.062763,42.353207],[-71.06273,42.353197],[-71.062629,42.353257],[-71.062663,42.353268],[-71.062763,42.353207]]],[[[-71.062559,42.348354],[-71.062519,42.348334],[-71.062389,42.348413],[-71.06243,42.348433],[-71.062559,42.348354]]],[[[-71.062496,42.349373],[-71.062484,42.349351],[-71.062438,42.349344],[-71.062291,42.349422],[-71.062282,42.349456],[-71.062337,42.349473],[-71.062484,42.349395],[-71.062496,42.349373]]],[[[-71.062463,42.348557],[-71.062424,42.348545],[-71.062317,42.34861],[-71.062355,42.348622],[-71.062463,42.348557]]],[[[-71.062409,42.348373],[-71.062398,42.348353],[-71.062355,42.348346],[-71.062215,42.348421],[-71.062206,42.348452],[-71.062257,42.348467],[-71.062398,42.348393],[-71.062409,42.348373]]],[[[-71.062392,42.349323],[-71.06238,42.349301],[-71.062334,42.349294],[-71.062187,42.349372],[-71.062178,42.349406],[-71.062233,42.349423],[-71.06238,42.349345],[-71.062392,42.349323]]],[[[-71.062039,42.353752],[-71.062006,42.353742],[-71.061905,42.353802],[-71.061939,42.353813],[-71.062039,42.353752]]],[[[-71.062006,42.349306],[-71.061975,42.349296],[-71.061896,42.349345],[-71.061928,42.349354],[-71.062006,42.349306]]],[[[-71.061988,42.35386],[-71.061957,42.35385],[-71.061878,42.353899],[-71.06191,42.353908],[-71.061988,42.35386]]],[[[-71.061951,42.349438],[-71.06192,42.349428],[-71.061841,42.349477],[-71.061873,42.349486],[-71.061951,42.349438]]],[[[-71.061941,42.349548],[-71.061911,42.349515],[-71.061858,42.349523],[-71.061733,42.349589],[-71.061722,42.349628],[-71.061558,42.349707],[-71.061547,42.349746],[-71.061592,42.349768],[-71.061627,42.349758],[-71.061751,42.349691],[-71.061762,42.349652],[-71.061926,42.349573],[-71.061941,42.349548]]],[[[-71.061928,42.34988],[-71.06191,42.349867],[-71.061824,42.349909],[-71.061837,42.349932],[-71.061794,42.349955],[-71.061794,42.349974],[-71.061893,42.349936],[-71.06188,42.349913],[-71.061928,42.34988]]],[[[-71.061924,42.3537],[-71.061891,42.35369],[-71.06179,42.35375],[-71.061824,42.353761],[-71.061924,42.3537]]],[[[-71.061909,42.353825],[-71.061876,42.353815],[-71.061775,42.353875],[-71.061809,42.353886],[-71.061909,42.353825]]],[[[-71.061892,42.35],[-71.061874,42.349987],[-71.061788,42.350029],[-71.061801,42.350052],[-71.061764,42.350073],[-71.061734,42.350128],[-71.061833,42.35009],[-71.061833,42.35007],[-71.061868,42.350044],[-71.06185,42.350031],[-71.061892,42.35]]],[[[-71.061851,42.348312],[-71.061838,42.348288],[-71.061789,42.348281],[-71.061635,42.348362],[-71.061625,42.348399],[-71.06165,42.348417],[-71.061685,42.348417],[-71.061838,42.348336],[-71.061851,42.348312]]],[[[-71.061828,42.353783],[-71.061797,42.353773],[-71.061718,42.353822],[-71.06175,42.353831],[-71.061828,42.353783]]],[[[-71.061825,42.353653],[-71.061792,42.353643],[-71.061691,42.353703],[-71.061725,42.353714],[-71.061825,42.353653]]],[[[-71.061824,42.350155],[-71.061806,42.350142],[-71.061725,42.350181],[-71.061738,42.350204],[-71.061694,42.350229],[-71.061694,42.350248],[-71.061793,42.35021],[-71.06178,42.350187],[-71.061824,42.350155]]],[[[-71.061789,42.350292],[-71.061778,42.350272],[-71.061735,42.350265],[-71.061595,42.35034],[-71.061586,42.350371],[-71.061539,42.350407],[-71.061539,42.350433],[-71.061564,42.350451],[-71.061598,42.350451],[-71.061752,42.35037],[-71.061765,42.350346],[-71.061754,42.350325],[-71.061789,42.350292]]],[[[-71.06177,42.348421],[-71.061739,42.348411],[-71.06166,42.34846],[-71.061692,42.348469],[-71.06177,42.348421]]],[[[-71.061759,42.353607],[-71.061744,42.353582],[-71.061691,42.353574],[-71.061551,42.353648],[-71.06154,42.353687],[-71.061567,42.353706],[-71.061604,42.353706],[-71.061744,42.353632],[-71.061759,42.353607]]],[[[-71.061747,42.353738],[-71.061716,42.353728],[-71.061637,42.353777],[-71.061669,42.353786],[-71.061747,42.353738]]],[[[-71.061692,42.348648],[-71.06168,42.348626],[-71.06165,42.348617],[-71.061562,42.348657],[-71.061537,42.348639],[-71.061503,42.348639],[-71.061349,42.34872],[-71.061339,42.348757],[-71.061381,42.348777],[-71.061479,42.348732],[-71.061533,42.348748],[-71.06168,42.34867],[-71.061692,42.348648]]],[[[-71.061645,42.348297],[-71.061629,42.348268],[-71.061569,42.348259],[-71.061396,42.348351],[-71.061384,42.348395],[-71.061414,42.348417],[-71.061456,42.348417],[-71.061629,42.348326],[-71.061645,42.348297]]],[[[-71.061628,42.35355],[-71.061597,42.35354],[-71.061507,42.353595],[-71.061539,42.353604],[-71.061628,42.35355]]],[[[-71.06161,42.348837],[-71.061579,42.348827],[-71.0615,42.348876],[-71.061532,42.348885],[-71.06161,42.348837]]],[[[-71.061608,42.3485],[-71.061577,42.34849],[-71.061498,42.348539],[-71.06153,42.348548],[-71.061608,42.3485]]],[[[-71.061597,42.348184],[-71.061566,42.348174],[-71.061476,42.348229],[-71.061508,42.348238],[-71.061597,42.348184]]],[[[-71.061548,42.349568],[-71.061533,42.349543],[-71.061499,42.349532],[-71.061438,42.349557],[-71.06145,42.349534],[-71.061435,42.349509],[-71.061382,42.349501],[-71.061242,42.349575],[-71.061227,42.3496],[-71.061242,42.349625],[-71.061167,42.349672],[-71.061198,42.349681],[-71.061337,42.349611],[-71.061325,42.349634],[-71.06134,42.34966],[-71.061393,42.349667],[-71.061533,42.349593],[-71.061548,42.349568]]],[[[-71.061502,42.348854],[-71.06149,42.348832],[-71.061444,42.348825],[-71.061297,42.348903],[-71.061288,42.348937],[-71.061343,42.348954],[-71.06149,42.348876],[-71.061502,42.348854]]],[[[-71.061493,42.35095],[-71.061454,42.350938],[-71.061347,42.351003],[-71.061385,42.351015],[-71.061493,42.35095]]],[[[-71.061472,42.34815],[-71.061454,42.348118],[-71.061386,42.348108],[-71.0612,42.348206],[-71.061187,42.348256],[-71.06122,42.34828],[-71.061267,42.34828],[-71.061454,42.348182],[-71.061472,42.34815]]],[[[-71.061452,42.348248],[-71.061443,42.348231],[-71.061408,42.348226],[-71.06128,42.348293],[-71.061273,42.348319],[-71.061315,42.348332],[-71.061452,42.348248]]],[[[-71.061438,42.349255],[-71.061407,42.349245],[-71.061317,42.3493],[-71.061349,42.349309],[-71.061438,42.349255]]],[[[-71.061418,42.351122],[-71.061387,42.351112],[-71.061308,42.351161],[-71.06134,42.35117],[-71.061418,42.351122]]],[[[-71.061399,42.349052],[-71.061366,42.349042],[-71.061265,42.349102],[-71.061299,42.349113],[-71.061399,42.349052]]],[[[-71.061397,42.35118],[-71.061366,42.35117],[-71.061287,42.351219],[-71.061319,42.351228],[-71.061397,42.35118]]],[[[-71.061371,42.35124],[-71.06134,42.35123],[-71.061261,42.351279],[-71.061293,42.351288],[-71.061371,42.35124]]],[[[-71.061368,42.34943],[-71.061337,42.34942],[-71.061258,42.349469],[-71.06129,42.349478],[-71.061368,42.34943]]],[[[-71.061352,42.351289],[-71.061321,42.351279],[-71.061242,42.351328],[-71.061274,42.351337],[-71.061352,42.351289]]],[[[-71.061349,42.349228],[-71.061309,42.349208],[-71.061179,42.349287],[-71.06122,42.349307],[-71.061349,42.349228]]],[[[-71.061261,42.349678],[-71.06123,42.349668],[-71.061146,42.34972],[-71.061177,42.349729],[-71.061261,42.349678]]],[[[-71.061244,42.35337],[-71.061213,42.35336],[-71.061134,42.353409],[-71.061166,42.353418],[-71.061244,42.35337]]],[[[-71.061238,42.354774],[-71.061207,42.354764],[-71.061128,42.354813],[-71.06116,42.354822],[-71.061238,42.354774]]],[[[-71.061222,42.34983],[-71.06121,42.349808],[-71.061164,42.349801],[-71.061017,42.349879],[-71.061008,42.349913],[-71.061063,42.34993],[-71.06121,42.349852],[-71.061222,42.34983]]],[[[-71.061188,42.354916],[-71.061157,42.354906],[-71.061078,42.354955],[-71.06111,42.354964],[-71.061188,42.354916]]],[[[-71.061188,42.353344],[-71.061157,42.353334],[-71.061078,42.353383],[-71.06111,42.353392],[-71.061188,42.353344]]],[[[-71.061156,42.35003],[-71.061141,42.350003],[-71.061084,42.349995],[-71.060917,42.350082],[-71.060906,42.350124],[-71.060934,42.350145],[-71.060974,42.350145],[-71.061141,42.350057],[-71.061156,42.35003]]],[[[-71.061138,42.35332],[-71.061107,42.35331],[-71.061028,42.353359],[-71.06106,42.353368],[-71.061138,42.35332]]],[[[-71.061048,42.353275],[-71.061017,42.353265],[-71.060927,42.35332],[-71.060959,42.353329],[-71.061048,42.353275]]],[[[-71.061038,42.34849],[-71.061007,42.34848],[-71.060928,42.348529],[-71.06096,42.348538],[-71.061038,42.34849]]],[[[-71.061032,42.348602],[-71.061017,42.348575],[-71.06096,42.348567],[-71.060793,42.348654],[-71.060782,42.348696],[-71.06081,42.348717],[-71.06085,42.348717],[-71.061017,42.348629],[-71.061032,42.348602]]],[[[-71.061005,42.348717],[-71.060989,42.348688],[-71.060929,42.348679],[-71.060756,42.348771],[-71.060744,42.348815],[-71.060774,42.348837],[-71.060807,42.348838],[-71.060737,42.348876],[-71.060728,42.34891],[-71.060783,42.348927],[-71.06093,42.348849],[-71.060939,42.348815],[-71.0609,42.348796],[-71.060989,42.348746],[-71.061005,42.348717]]],[[[-71.060988,42.353363],[-71.060957,42.353353],[-71.060878,42.353402],[-71.06091,42.353411],[-71.060988,42.353363]]],[[[-71.060938,42.35322],[-71.060907,42.35321],[-71.060828,42.353259],[-71.06086,42.353268],[-71.060938,42.35322]]],[[[-71.060923,42.35333],[-71.060892,42.35332],[-71.060808,42.353372],[-71.060839,42.353381],[-71.060923,42.35333]]],[[[-71.060862,42.353302],[-71.060831,42.353292],[-71.060752,42.353341],[-71.060784,42.35335],[-71.060862,42.353302]]],[[[-71.060847,42.349174],[-71.060827,42.349137],[-71.060749,42.349125],[-71.060543,42.349234],[-71.060518,42.349299],[-71.060536,42.349312],[-71.060504,42.349329],[-71.060517,42.349352],[-71.060484,42.349371],[-71.060484,42.34939],[-71.060583,42.349352],[-71.06057,42.349329],[-71.06058,42.349322],[-71.060621,42.34932],[-71.060827,42.349211],[-71.060847,42.349174]]],[[[-71.060733,42.34939],[-71.060718,42.349365],[-71.060684,42.349354],[-71.060554,42.349415],[-71.060557,42.349402],[-71.060533,42.349395],[-71.060454,42.349436],[-71.060467,42.349459],[-71.060524,42.349432],[-71.060433,42.349495],[-71.060451,42.349508],[-71.060519,42.349475],[-71.060578,42.349489],[-71.060718,42.349415],[-71.060733,42.34939]]],[[[-71.060695,42.349506],[-71.06068,42.349481],[-71.060627,42.349473],[-71.0604,42.349585],[-71.060413,42.349608],[-71.060455,42.349589],[-71.0604,42.349629],[-71.060413,42.349652],[-71.060384,42.349669],[-71.060384,42.349688],[-71.060483,42.34965],[-71.06047,42.349627],[-71.06052,42.349616],[-71.06068,42.349531],[-71.060695,42.349506]]],[[[-71.060609,42.34967],[-71.060594,42.349645],[-71.060541,42.349637],[-71.060381,42.349721],[-71.060371,42.34976],[-71.060397,42.34978],[-71.060434,42.34978],[-71.060594,42.349695],[-71.060609,42.34967]]],[[[-71.060598,42.35304],[-71.060567,42.35303],[-71.060488,42.353079],[-71.06052,42.353088],[-71.060598,42.35304]]],[[[-71.060582,42.349792],[-71.060567,42.349765],[-71.06051,42.349757],[-71.060343,42.349844],[-71.060332,42.349886],[-71.060273,42.349926],[-71.060291,42.349939],[-71.060359,42.349906],[-71.0604,42.349907],[-71.060567,42.349819],[-71.060582,42.349792]]],[[[-71.060538,42.349503],[-71.060507,42.349493],[-71.060423,42.349545],[-71.060454,42.349554],[-71.060538,42.349503]]],[[[-71.060518,42.352997],[-71.060487,42.352987],[-71.060408,42.353036],[-71.06044,42.353045],[-71.060518,42.352997]]],[[[-71.060508,42.353283],[-71.060477,42.353273],[-71.060393,42.353325],[-71.060424,42.353334],[-71.060508,42.353283]]],[[[-71.060504,42.35315],[-71.060473,42.35314],[-71.060394,42.353189],[-71.060426,42.353198],[-71.060504,42.35315]]],[[[-71.060468,42.352974],[-71.060437,42.352964],[-71.060353,42.353016],[-71.060384,42.353025],[-71.060468,42.352974]]],[[[-71.060428,42.3531],[-71.060397,42.35309],[-71.060318,42.353139],[-71.06035,42.353148],[-71.060428,42.3531]]],[[[-71.060419,42.353405],[-71.060413,42.35337],[-71.060387,42.35337],[-71.060225,42.353453],[-71.060216,42.353484],[-71.060237,42.353499],[-71.06028,42.353495],[-71.060408,42.353425],[-71.060419,42.353405]]],[[[-71.060374,42.35307],[-71.060343,42.35306],[-71.060264,42.353109],[-71.060296,42.353118],[-71.060374,42.35307]]],[[[-71.060318,42.350037],[-71.060287,42.350027],[-71.060208,42.350076],[-71.06024,42.350085],[-71.060318,42.350037]]],[[[-71.060314,42.35015],[-71.060286,42.350118],[-71.060297,42.3501],[-71.060273,42.350093],[-71.060106,42.350191],[-71.060095,42.35023],[-71.060122,42.350249],[-71.060159,42.350249],[-71.060299,42.350175],[-71.060314,42.35015]]],[[[-71.060174,42.34947],[-71.060163,42.34945],[-71.06012,42.349443],[-71.05998,42.349518],[-71.059971,42.349549],[-71.060022,42.349564],[-71.060163,42.34949],[-71.060174,42.34947]]],[[[-71.060158,42.352962],[-71.060127,42.352952],[-71.060048,42.353001],[-71.06008,42.35301],[-71.060158,42.352962]]],[[[-71.060119,42.349556],[-71.060079,42.349536],[-71.059949,42.349615],[-71.05999,42.349635],[-71.060119,42.349556]]],[[[-71.060105,42.35341],[-71.060092,42.353386],[-71.060043,42.353379],[-71.059889,42.35346],[-71.059879,42.353497],[-71.059904,42.353515],[-71.059938,42.353515],[-71.060092,42.353434],[-71.060105,42.35341]]],[[[-71.060086,42.349644],[-71.060075,42.349625],[-71.060036,42.34962],[-71.059902,42.34969],[-71.059895,42.349719],[-71.059941,42.349733],[-71.060075,42.349663],[-71.060086,42.349644]]],[[[-71.059972,42.351044],[-71.05996,42.351022],[-71.059914,42.351015],[-71.059767,42.351093],[-71.059758,42.351127],[-71.059813,42.351144],[-71.05996,42.351066],[-71.059972,42.351044]]],[[[-71.059901,42.351135],[-71.059865,42.351117],[-71.059743,42.351191],[-71.059779,42.351209],[-71.059901,42.351135]]],[[[-71.059858,42.3533],[-71.059827,42.35329],[-71.059748,42.353339],[-71.05978,42.353348],[-71.059858,42.3533]]],[[[-71.059822,42.35326],[-71.05981,42.353238],[-71.059764,42.353231],[-71.059617,42.353309],[-71.059608,42.353343],[-71.059663,42.35336],[-71.05981,42.353282],[-71.059822,42.35326]]],[[[-71.059758,42.352753],[-71.059727,42.352743],[-71.059643,42.352795],[-71.059674,42.352804],[-71.059758,42.352753]]],[[[-71.059688,42.352737],[-71.05967,42.352724],[-71.059583,42.352767],[-71.059629,42.35274],[-71.059616,42.352717],[-71.059521,42.35275],[-71.059381,42.352824],[-71.05937,42.352863],[-71.059397,42.352882],[-71.059434,42.352882],[-71.059688,42.352737]]],[[[-71.059669,42.354954],[-71.059629,42.354934],[-71.059499,42.355013],[-71.05954,42.355033],[-71.059669,42.354954]]],[[[-71.059649,42.35171],[-71.059634,42.351685],[-71.059581,42.351677],[-71.059511,42.3517],[-71.05941,42.35176],[-71.059441,42.351802],[-71.059494,42.351809],[-71.059634,42.351735],[-71.059649,42.35171]]],[[[-71.059622,42.35492],[-71.059573,42.354873],[-71.059538,42.354868],[-71.05941,42.354935],[-71.059403,42.354961],[-71.05945,42.354999],[-71.059485,42.355004],[-71.059622,42.35492]]],[[[-71.059562,42.3516],[-71.05953,42.351576],[-71.059449,42.351614],[-71.05942,42.351609],[-71.059306,42.35167],[-71.059306,42.351697],[-71.059324,42.351702],[-71.059241,42.351757],[-71.059279,42.351769],[-71.05938,42.351716],[-71.059387,42.351704],[-71.059364,42.351687],[-71.059385,42.351674],[-71.059425,42.351684],[-71.059562,42.3516]]],[[[-71.059518,42.351097],[-71.059487,42.351087],[-71.059408,42.351136],[-71.05944,42.351145],[-71.059518,42.351097]]],[[[-71.059482,42.354813],[-71.059473,42.354796],[-71.059438,42.354791],[-71.05931,42.354858],[-71.059303,42.354884],[-71.059345,42.354897],[-71.059482,42.354813]]],[[[-71.059478,42.35117],[-71.059447,42.35116],[-71.059368,42.351209],[-71.0594,42.351218],[-71.059478,42.35117]]],[[[-71.059432,42.354774],[-71.059389,42.354714],[-71.059364,42.354707],[-71.059216,42.354779],[-71.059206,42.354798],[-71.059228,42.354822],[-71.059255,42.354822],[-71.05926,42.354853],[-71.059283,42.35486],[-71.059432,42.354774]]],[[[-71.059428,42.3531],[-71.059397,42.35309],[-71.059318,42.353139],[-71.05935,42.353148],[-71.059428,42.3531]]],[[[-71.059418,42.35301],[-71.059387,42.353],[-71.059308,42.353049],[-71.05934,42.353058],[-71.059418,42.35301]]],[[[-71.059323,42.35178],[-71.059284,42.351768],[-71.059177,42.351833],[-71.059215,42.351845],[-71.059323,42.35178]]],[[[-71.059219,42.35129],[-71.059204,42.351265],[-71.059173,42.351255],[-71.059183,42.35123],[-71.059159,42.35123],[-71.059144,42.351205],[-71.05911,42.351194],[-71.058931,42.351281],[-71.058921,42.35132],[-71.058966,42.351343],[-71.059078,42.351291],[-71.058981,42.351353],[-71.058991,42.351392],[-71.058951,42.35142],[-71.058951,42.351447],[-71.058977,42.351467],[-71.059014,42.351467],[-71.059174,42.351382],[-71.059189,42.351357],[-71.059174,42.351332],[-71.059219,42.35129]]],[[[-71.059184,42.353294],[-71.059153,42.353284],[-71.059074,42.353333],[-71.059106,42.353342],[-71.059184,42.353294]]],[[[-71.059098,42.35146],[-71.05908,42.351447],[-71.058994,42.351489],[-71.059005,42.351512],[-71.058916,42.35156],[-71.058908,42.351573],[-71.058932,42.351592],[-71.058822,42.35165],[-71.058812,42.351669],[-71.058822,42.351688],[-71.05875,42.351735],[-71.058743,42.351761],[-71.058642,42.351845],[-71.058561,42.351893],[-71.058552,42.351924],[-71.058513,42.351959],[-71.058336,42.352051],[-71.058315,42.3521],[-71.058259,42.352135],[-71.058259,42.352161],[-71.058284,42.352179],[-71.058318,42.352179],[-71.058472,42.352098],[-71.058485,42.352074],[-71.058569,42.352026],[-71.058581,42.351983],[-71.058683,42.351923],[-71.05869,42.351897],[-71.058875,42.351757],[-71.058883,42.351728],[-71.05892,42.351699],[-71.058913,42.351673],[-71.059003,42.351614],[-71.059003,42.351594],[-71.05897,42.351578],[-71.059058,42.351531],[-71.059066,42.351517],[-71.05904,42.351498],[-71.059098,42.35146]]],[[[-71.059092,42.354385],[-71.059083,42.354368],[-71.059048,42.354363],[-71.05892,42.35443],[-71.058913,42.354456],[-71.058955,42.354469],[-71.059092,42.354385]]],[[[-71.059088,42.353287],[-71.059057,42.353277],[-71.058978,42.353326],[-71.05901,42.353335],[-71.059088,42.353287]]],[[[-71.059018,42.354332],[-71.058987,42.354322],[-71.058908,42.354371],[-71.05894,42.35438],[-71.059018,42.354332]]],[[[-71.058998,42.353283],[-71.058967,42.353273],[-71.058888,42.353322],[-71.05892,42.353331],[-71.058998,42.353283]]],[[[-71.058959,42.35429],[-71.058926,42.35428],[-71.058825,42.35434],[-71.058859,42.354351],[-71.058959,42.35429]]],[[[-71.058864,42.353268],[-71.058833,42.353258],[-71.058754,42.353307],[-71.058786,42.353316],[-71.058864,42.353268]]],[[[-71.058758,42.353268],[-71.058727,42.353258],[-71.058648,42.353307],[-71.05868,42.353316],[-71.058758,42.353268]]],[[[-71.058568,42.35253],[-71.058537,42.35252],[-71.058458,42.352569],[-71.05849,42.352578],[-71.058568,42.35253]]],[[[-71.058508,42.352524],[-71.058477,42.352514],[-71.058398,42.352563],[-71.05843,42.352572],[-71.058508,42.352524]]],[[[-71.058499,42.35248],[-71.058466,42.35247],[-71.058313,42.35257],[-71.058344,42.352579],[-71.058499,42.35248]]],[[[-71.058388,42.35247],[-71.05837,42.352457],[-71.058284,42.352499],[-71.058295,42.352522],[-71.058244,42.352549],[-71.058244,42.352568],[-71.058343,42.35253],[-71.058332,42.352507],[-71.058388,42.35247]]],[[[-71.058288,42.35091],[-71.058257,42.3509],[-71.058178,42.350949],[-71.05821,42.350958],[-71.058288,42.35091]]],[[[-71.058278,42.352467],[-71.058247,42.352457],[-71.058168,42.352506],[-71.0582,42.352515],[-71.058278,42.352467]]],[[[-71.058268,42.352512],[-71.058237,42.352502],[-71.058158,42.352551],[-71.05819,42.35256],[-71.058268,42.352512]]],[[[-71.058218,42.350887],[-71.058187,42.350877],[-71.058108,42.350926],[-71.05814,42.350935],[-71.058218,42.350887]]],[[[-71.058038,42.352665],[-71.058007,42.352655],[-71.057928,42.352704],[-71.05796,42.352713],[-71.058038,42.352665]]],[[[-71.058032,42.352768],[-71.058001,42.352758],[-71.057922,42.352807],[-71.057954,42.352816],[-71.058032,42.352768]]],[[[-71.058008,42.352905],[-71.057977,42.352895],[-71.057898,42.352944],[-71.05793,42.352953],[-71.058008,42.352905]]],[[[-71.057803,42.350693],[-71.057772,42.350683],[-71.057693,42.350732],[-71.057725,42.350741],[-71.057803,42.350693]]],[[[-71.057758,42.350677],[-71.057727,42.350667],[-71.057648,42.350716],[-71.05768,42.350725],[-71.057758,42.350677]]],[[[-71.05775,42.352226],[-71.057714,42.352208],[-71.057592,42.352282],[-71.057628,42.3523],[-71.05775,42.352226]]],[[[-71.057623,42.35219],[-71.057583,42.35217],[-71.057453,42.352249],[-71.057494,42.352269],[-71.057623,42.35219]]],[[[-71.057536,42.35216],[-71.0575,42.352142],[-71.057378,42.352216],[-71.057414,42.352234],[-71.057536,42.35216]]],[[[-71.057456,42.35214],[-71.05742,42.352122],[-71.057298,42.352196],[-71.057334,42.352214],[-71.057456,42.35214]]],[[[-71.057414,42.350403],[-71.057383,42.350393],[-71.057304,42.350442],[-71.057336,42.350451],[-71.057414,42.350403]]],[[[-71.057398,42.350494],[-71.057367,42.350484],[-71.057288,42.350533],[-71.05732,42.350542],[-71.057398,42.350494]]],[[[-71.057369,42.35211],[-71.057329,42.35209],[-71.057199,42.352169],[-71.05724,42.352189],[-71.057369,42.35211]]],[[[-71.057348,42.351707],[-71.057317,42.351697],[-71.057233,42.351749],[-71.057264,42.351758],[-71.057348,42.351707]]],[[[-71.057338,42.35175],[-71.057307,42.35174],[-71.057228,42.351789],[-71.05726,42.351798],[-71.057338,42.35175]]],[[[-71.057309,42.351897],[-71.057278,42.351887],[-71.057199,42.351936],[-71.057231,42.351945],[-71.057309,42.351897]]],[[[-71.057298,42.351955],[-71.057267,42.351945],[-71.057194,42.351991],[-71.057225,42.352001],[-71.057298,42.351955]]],[[[-71.057298,42.350925],[-71.057267,42.350915],[-71.057177,42.35097],[-71.057209,42.350979],[-71.057298,42.350925]]],[[[-71.057268,42.351063],[-71.057237,42.351053],[-71.057147,42.351108],[-71.057179,42.351117],[-71.057268,42.351063]]],[[[-71.057208,42.35141],[-71.057177,42.3514],[-71.057098,42.351449],[-71.05713,42.351458],[-71.057208,42.35141]]],[[[-71.057198,42.35055],[-71.057167,42.35054],[-71.057088,42.350589],[-71.05712,42.350598],[-71.057198,42.35055]]],[[[-71.057147,42.350632],[-71.057116,42.350622],[-71.057037,42.350671],[-71.057069,42.35068],[-71.057147,42.350632]]],[[[-71.057094,42.350533],[-71.057063,42.350523],[-71.056984,42.350572],[-71.057016,42.350581],[-71.057094,42.350533]]],[[[-71.057038,42.34984],[-71.057007,42.34983],[-71.056928,42.349879],[-71.05696,42.349888],[-71.057038,42.34984]]],[[[-71.057022,42.349903],[-71.057013,42.349886],[-71.056978,42.349881],[-71.05685,42.349948],[-71.056843,42.349974],[-71.056885,42.349987],[-71.057022,42.349903]]],[[[-71.056868,42.352028],[-71.056837,42.352018],[-71.056742,42.352076],[-71.056773,42.352085],[-71.056868,42.352028]]],[[[-71.056834,42.35023],[-71.056803,42.35022],[-71.056724,42.350269],[-71.056756,42.350278],[-71.056834,42.35023]]],[[[-71.056829,42.34976],[-71.056818,42.34974],[-71.056775,42.349733],[-71.056626,42.349817],[-71.056635,42.349848],[-71.056689,42.349849],[-71.05662,42.349885],[-71.05662,42.349919],[-71.056555,42.349967],[-71.056555,42.349995],[-71.056582,42.350014],[-71.05651,42.350058],[-71.05651,42.350086],[-71.056554,42.350108],[-71.056498,42.350138],[-71.056498,42.350168],[-71.05653,42.350173],[-71.056651,42.350109],[-71.056659,42.350094],[-71.056641,42.350074],[-71.056725,42.35002],[-71.056725,42.349992],[-71.056699,42.349973],[-71.05677,42.349929],[-71.05677,42.349901],[-71.056744,42.349882],[-71.05679,42.349849],[-71.056783,42.349823],[-71.056738,42.349823],[-71.056818,42.34978],[-71.056829,42.34976]]],[[[-71.056798,42.350307],[-71.056767,42.350297],[-71.056688,42.350346],[-71.05672,42.350355],[-71.056798,42.350307]]],[[[-71.056748,42.351994],[-71.056717,42.351984],[-71.056627,42.352039],[-71.056659,42.352048],[-71.056748,42.351994]]],[[[-71.056643,42.350613],[-71.056612,42.350603],[-71.056517,42.350661],[-71.056548,42.35067],[-71.056643,42.350613]]],[[[-71.056626,42.353203],[-71.05659,42.353185],[-71.056468,42.353259],[-71.056504,42.353277],[-71.056626,42.353203]]],[[[-71.056622,42.350185],[-71.056613,42.350168],[-71.056578,42.350163],[-71.05645,42.35023],[-71.056443,42.350256],[-71.056485,42.350269],[-71.056622,42.350185]]],[[[-71.056608,42.35068],[-71.056577,42.35067],[-71.056482,42.350728],[-71.056513,42.350737],[-71.056608,42.35068]]],[[[-71.056559,42.353165],[-71.056526,42.353155],[-71.056425,42.353215],[-71.056459,42.353226],[-71.056559,42.353165]]],[[[-71.056559,42.350834],[-71.056544,42.350809],[-71.056491,42.350801],[-71.056351,42.350875],[-71.05634,42.350914],[-71.056367,42.350933],[-71.056404,42.350933],[-71.056544,42.350859],[-71.056559,42.350834]]],[[[-71.056484,42.353127],[-71.056451,42.353117],[-71.05635,42.353177],[-71.056384,42.353188],[-71.056484,42.353127]]],[[[-71.056468,42.35192],[-71.056437,42.35191],[-71.056342,42.351968],[-71.056373,42.351977],[-71.056468,42.35192]]],[[[-71.056428,42.35103],[-71.056397,42.35102],[-71.056318,42.351069],[-71.05635,42.351078],[-71.056428,42.35103]]],[[[-71.056398,42.351097],[-71.056367,42.351087],[-71.056272,42.351145],[-71.056303,42.351154],[-71.056398,42.351097]]],[[[-71.056393,42.35309],[-71.056354,42.353078],[-71.056247,42.353143],[-71.056285,42.353155],[-71.056393,42.35309]]],[[[-71.056388,42.3519],[-71.056357,42.35189],[-71.056284,42.351936],[-71.056315,42.351946],[-71.056388,42.3519]]],[[[-71.056364,42.351176],[-71.056333,42.351166],[-71.056254,42.351215],[-71.056286,42.351224],[-71.056364,42.351176]]],[[[-71.056338,42.35493],[-71.056307,42.35492],[-71.056212,42.354978],[-71.056243,42.354987],[-71.056338,42.35493]]],[[[-71.056328,42.354836],[-71.056297,42.354826],[-71.056202,42.354884],[-71.056233,42.354893],[-71.056328,42.354836]]],[[[-71.056309,42.35475],[-71.056276,42.35474],[-71.056175,42.3548],[-71.056209,42.354811],[-71.056309,42.35475]]],[[[-71.056306,42.35467],[-71.05627,42.354652],[-71.056148,42.354726],[-71.056184,42.354744],[-71.056306,42.35467]]],[[[-71.056258,42.351376],[-71.05624,42.351363],[-71.056148,42.351408],[-71.056098,42.351501],[-71.056203,42.35146],[-71.056203,42.35144],[-71.056234,42.351421],[-71.056258,42.351376]]],[[[-71.056256,42.350842],[-71.056225,42.350832],[-71.05613,42.35089],[-71.056161,42.350899],[-71.056256,42.350842]]],[[[-71.056248,42.35305],[-71.056217,42.35304],[-71.056138,42.353089],[-71.05617,42.353098],[-71.056248,42.35305]]],[[[-71.056226,42.350933],[-71.056195,42.350923],[-71.0561,42.350981],[-71.056131,42.35099],[-71.056226,42.350933]]],[[[-71.056186,42.351036],[-71.056155,42.351026],[-71.05606,42.351084],[-71.056091,42.351093],[-71.056186,42.351036]]],[[[-71.056148,42.351145],[-71.056117,42.351135],[-71.056022,42.351193],[-71.056053,42.351202],[-71.056148,42.351145]]],[[[-71.056078,42.35171],[-71.056047,42.3517],[-71.055963,42.351752],[-71.055994,42.351761],[-71.056078,42.35171]]],[[[-71.055977,42.351355],[-71.055946,42.351345],[-71.055851,42.351403],[-71.055882,42.351412],[-71.055977,42.351355]]],[[[-71.055953,42.351412],[-71.055922,42.351402],[-71.055827,42.35146],[-71.055858,42.351469],[-71.055953,42.351412]]],[[[-71.05592,42.351482],[-71.055889,42.351472],[-71.055794,42.35153],[-71.055825,42.351539],[-71.05592,42.351482]]],[[[-71.055888,42.351561],[-71.055857,42.351551],[-71.055762,42.351609],[-71.055793,42.351618],[-71.055888,42.351561]]],[[[-71.055869,42.352226],[-71.055839,42.352193],[-71.055786,42.352201],[-71.055661,42.352267],[-71.05565,42.352305],[-71.055616,42.352328],[-71.055616,42.352356],[-71.055661,42.352378],[-71.055696,42.352368],[-71.05582,42.352301],[-71.055831,42.352264],[-71.055869,42.352226]]],[[[-71.055859,42.351622],[-71.055828,42.351612],[-71.055733,42.35167],[-71.055764,42.351679],[-71.055859,42.351622]]],[[[-71.055808,42.351727],[-71.055777,42.351717],[-71.055682,42.351775],[-71.055713,42.351784],[-71.055808,42.351727]]],[[[-71.055788,42.353336],[-71.055779,42.353319],[-71.055744,42.353314],[-71.055616,42.353381],[-71.055609,42.353407],[-71.055517,42.35347],[-71.055517,42.353491],[-71.055388,42.353562],[-71.055388,42.353581],[-71.055414,42.353581],[-71.055553,42.353507],[-71.055553,42.353487],[-71.055576,42.353474],[-71.055716,42.353409],[-71.05572,42.353384],[-71.055788,42.353336]]],[[[-71.055788,42.351776],[-71.055757,42.351766],[-71.055662,42.351824],[-71.055693,42.351833],[-71.055788,42.351776]]],[[[-71.055262,42.353653],[-71.055244,42.35364],[-71.055199,42.353652],[-71.055078,42.353716],[-71.055047,42.353753],[-71.055085,42.353765],[-71.055231,42.353687],[-71.055262,42.353653]]]]},"properties":{"kind":"tree"}}]}