{"type":"FeatureCollection","features":[{"type":"Feature","geometry":{"type":"MultiPolygon","coordinates":[[[[-71.06703,42.351826],[-71.067007,42.351692],[-71.066747,42.351106],[-71.065467,42.351257],[-71.065363,42.351251],[-71.065991,42.350995],[-71.065959,42.350666],[-71.065834,42.350664],[-71.065953,42.350615],[-71.06593,42.350327],[-71.065758,42.350337],[-71.065688,42.350366],[-71.065625,42.35037],[-71.065584,42.350354],[-71.065916,42.350219],[-71.065881,42.34989],[-71.065776,42.349769],[-71.065742,42.349778],[-71.066095,42.349646],[-71.066022,42.349518],[-71.066107,42.349483],[-71.066051,42.349385],[-71.065831,42.349469],[-71.06562,42.349445],[-71.065521,42.349461],[-71.065147,42.349614],[-71.064416,42.349501],[-71.064284,42.349555],[-71.063761,42.349475],[-71.063653,42.349372],[-71.063696,42.349342],[-71.063746,42.349213],[-71.063772,42.349073],[-71.063736,42.349067],[-71.063827,42.348879],[-71.063852,42.348792],[-71.06392,42.348803],[-71.064078,42.348739],[-71.063965,42.349062],[-71.064154,42.349092],[-71.063972,42.349166],[-71.063925,42.349273],[-71.063949,42.349301],[-71.063855,42.349346],[-71.064104,42.349515],[-71.064335,42.349421],[-71.064371,42.349432],[-71.065071,42.349138],[-71.065144,42.34913],[-71.065279,42.349075],[-71.06533,42.348887],[-71.065312,42.348773],[-71.065335,42.348764],[-71.06535,42.348817],[-71.065888,42.34888],[-71.066458,42.348649],[-71.066483,42.348529],[-71.06591,42.348462],[-71.065995,42.348064],[-71.065837,42.348044],[-71.065442,42.348205],[-71.065475,42.348175],[-71.065484,42.348131],[-71.065475,42.348101],[-71.065402,42.348018],[-71.06552,42.347941],[-71.065529,42.347903],[-71.065483,42.347819],[-71.065392,42.347805],[-71.065371,42.347781],[-71.065289,42.347784],[-71.065318,42.347764],[-71.065319,42.347677],[-71.065257,42.347643],[-71.064894,42.347587],[-71.064607,42.347704],[-71.064216,42.3479],[-71.064102,42.348162],[-71.064053,42.348337],[-71.064089,42.348343],[-71.064176,42.348308],[-71.064194,42.34833],[-71.064527,42.348194],[-71.064606,42.348213],[-71.063937,42.34849],[-71.063945,42.348463],[-71.063623,42.348413],[-71.063449,42.348484],[-71.063466,42.348419],[-71.063598,42.348365],[-71.063774,42.348391],[-71.06402,42.348291],[-71.064113,42.347947],[-71.063968,42.347919],[-71.063542,42.348093],[-71.063606,42.347866],[-71.06346,42.347843],[-71.063264,42.347923],[-71.063246,42.347987],[-71.062961,42.347921],[-71.062857,42.347963],[-71.062735,42.347939],[-71.0625,42.348034],[-71.062458,42.348146],[-71.062526,42.348164],[-71.062406,42.348213],[-71.062379,42.348281],[-71.062489,42.348297],[-71.062313,42.348369],[-71.062367,42.34823],[-71.062255,42.348206],[-71.06201,42.348306],[-71.061977,42.348389],[-71.061947,42.348382],[-71.062019,42.348202],[-71.062411,42.348042],[-71.062446,42.347953],[-71.061926,42.347827],[-71.061763,42.347893],[-71.061866,42.34764],[-71.061712,42.347604],[-71.06086,42.347952],[-71.060755,42.348201],[-71.05968,42.34864],[-71.059218,42.349282],[-71.059455,42.349339],[-71.060786,42.348796],[-71.060816,42.348724],[-71.060896,42.348742],[-71.060986,42.348705],[-71.060951,42.348792],[-71.061027,42.348809],[-71.060839,42.348886],[-71.060813,42.348928],[-71.060646,42.348997],[-71.060627,42.349045],[-71.060642,42.349048],[-71.060541,42.349327],[-71.060671,42.349383],[-71.060786,42.349412],[-71.060781,42.349425],[-71.06096,42.349508],[-71.060672,42.349631],[-71.060572,42.349905],[-71.060509,42.349891],[-71.060291,42.349979],[-71.060327,42.349891],[-71.060261,42.349801],[-71.060367,42.349747],[-71.060567,42.349259],[-71.060443,42.349109],[-71.060321,42.349063],[-71.05899,42.349606],[-71.058873,42.349869],[-71.058749,42.350203],[-71.058701,42.350222],[-71.058767,42.350099],[-71.058776,42.350034],[-71.058372,42.349945],[-71.058272,42.349986],[-71.058289,42.349924],[-71.057934,42.349844],[-71.058297,42.349696],[-71.058424,42.349376],[-71.057926,42.349266],[-71.05774,42.349342],[-71.057678,42.349495],[-71.057295,42.349652],[-71.057276,42.349698],[-71.057133,42.349667],[-71.056592,42.349888],[-71.056635,42.349782],[-71.056763,42.34925],[-71.057027,42.349307],[-71.057988,42.348915],[-71.05807,42.348711],[-71.057613,42.348605],[-71.056652,42.348997],[-71.056591,42.349151],[-71.055413,42.349496],[-71.056683,42.347603],[-71.056673,42.347544],[-71.055908,42.347262],[-71.055547,42.34741],[-71.054296,42.34927],[-71.054129,42.349442],[-71.054096,42.349492],[-71.054092,42.349555],[-71.053834,42.34966],[-71.052864,42.351103],[-71.053445,42.351318],[-71.053895,42.351134],[-71.054174,42.351237],[-71.054337,42.351171],[-71.054731,42.350598],[-71.054789,42.350643],[-71.054769,42.350683],[-71.054858,42.350707],[-71.055036,42.350818],[-71.055173,42.350855],[-71.055775,42.350844],[-71.055925,42.350801],[-71.056029,42.350819],[-71.056162,42.350769],[-71.056292,42.350801],[-71.056235,42.350824],[-71.056117,42.351069],[-71.056198,42.351089],[-71.056058,42.351146],[-71.056033,42.351192],[-71.055916,42.351447],[-71.055963,42.351466],[-71.05566,42.35159],[-71.055498,42.351545],[-71.054479,42.351779],[-71.053897,42.352017],[-71.053725,42.352192],[-71.054251,42.35247],[-71.054411,42.352521],[-71.054579,42.352546],[-71.054756,42.352506],[-71.055338,42.352268],[-71.055496,42.352133],[-71.055547,42.352146],[-71.055487,42.35229],[-71.05552,42.352298],[-71.054878,42.35256],[-71.054861,42.352595],[-71.052267,42.353654],[-71.05219,42.353818],[-71.052784,42.353967],[-71.055084,42.353038],[-71.055214,42.353074],[-71.055797,42.352917],[-71.056859,42.352484],[-71.056935,42.352372],[-71.057327,42.352492],[-71.057952,42.352235],[-71.058079,42.351847],[-71.058208,42.351875],[-71.058558,42.351732],[-71.058669,42.351632],[-71.05886,42.351417],[-71.059005,42.351183],[-71.059038,42.351101],[-71.058943,42.351079],[-71.059198,42.350975],[-71.059398,42.35048],[-71.059483,42.350445],[-71.059421,42.350598],[-71.059459,42.350609],[-71.05945,42.350639],[-71.059492,42.350649],[-71.059467,42.350721],[-71.059677,42.350766],[-71.059759,42.350733],[-71.059851,42.350753],[-71.059897,42.350734],[-71.059916,42.350755],[-71.059901,42.350799],[-71.059738,42.351112],[-71.059664,42.351294],[-71.059675,42.351296],[-71.059321,42.35144],[-71.059272,42.351569],[-71.059283,42.351631],[-71.059254,42.351643],[-71.059283,42.35182],[-71.059361,42.351813],[-71.059368,42.351855],[-71.058893,42.352049],[-71.058905,42.352132],[-71.057323,42.352778],[-71.057203,42.352847],[-71.057131,42.352923],[-71.056469,42.353193],[-71.056242,42.353099],[-71.054902,42.353642],[-71.054663,42.35377],[-71.054685,42.353854],[-71.05452,42.353957],[-71.054475,42.354006],[-71.054493,42.354024],[-71.052313,42.354913],[-71.051928,42.355116],[-71.051892,42.355167],[-71.051901,42.355211],[-71.052156,42.355476],[-71.052223,42.35549],[-71.054229,42.354676],[-71.054245,42.354692],[-71.053331,42.355078],[-71.052832,42.355374],[-71.052841,42.355422],[-71.052811,42.355456],[-71.052879,42.355526],[-71.052942,42.355514],[-71.052992,42.35556],[-71.053042,42.355564],[-71.053287,42.355464],[-71.05331,42.355485],[-71.054154,42.355141],[-71.05418,42.355166],[-71.054593,42.354997],[-71.054571,42.355032],[-71.054693,42.355074],[-71.054111,42.355322],[-71.054131,42.355434],[-71.05198,42.356311],[-71.052086,42.356889],[-71.052538,42.356845],[-71.054454,42.356064],[-71.055103,42.35599],[-71.057212,42.35513],[-71.057319,42.355343],[-71.057446,42.355358],[-71.05833,42.355],[-71.058081,42.355231],[-71.058085,42.355257],[-71.058126,42.355275],[-71.057575,42.355499],[-71.057478,42.35557],[-71.057198,42.355845],[-71.057272,42.3559],[-71.057564,42.356019],[-71.058738,42.35554],[-71.058771,42.355555],[-71.059228,42.355368],[-71.05926,42.355338],[-71.059398,42.355442],[-71.059616,42.355353],[-71.05964,42.355371],[-71.059903,42.355264],[-71.060235,42.355494],[-71.060494,42.355388],[-71.060588,42.355306],[-71.060861,42.355442],[-71.061373,42.355233],[-71.061405,42.355198],[-71.061529,42.355262],[-71.061499,42.355316],[-71.061832,42.355407],[-71.061863,42.355409],[-71.062224,42.355267],[-71.062435,42.355369],[-71.062507,42.355349],[-71.062638,42.355418],[-71.063118,42.355222],[-71.06318,42.355155],[-71.063104,42.355106],[-71.063255,42.355044],[-71.063852,42.353943],[-71.063862,42.353896],[-71.063791,42.353874],[-71.063892,42.353833],[-71.063985,42.353676],[-71.063998,42.353634],[-71.063918,42.353609],[-71.064052,42.353554],[-71.064097,42.353425],[-71.063915,42.35339],[-71.064146,42.353296],[-71.064309,42.35284],[-71.064251,42.352836],[-71.064309,42.352812],[-71.064341,42.352674],[-71.064691,42.352693],[-71.064921,42.352599],[-71.064907,42.352686],[-71.065104,42.352701],[-71.065451,42.352559],[-71.065456,42.352596],[-71.065552,42.352601],[-71.066063,42.352392],[-71.066074,42.352249],[-71.06627,42.352169],[-71.066274,42.352133],[-71.06703,42.351826]],[[-71.065094,42.350554],[-71.065085,42.350589],[-71.065058,42.3506],[-71.065048,42.350643],[-71.065076,42.350644],[-71.065066,42.350711],[-71.064861,42.350794],[-71.064902,42.350642],[-71.064883,42.350635],[-71.065094,42.350554]],[[-71.065072,42.348506],[-71.06506,42.348561],[-71.065028,42.348575],[-71.065018,42.348623],[-71.064513,42.348562],[-71.064806,42.348442],[-71.064852,42.348353],[-71.064876,42.348343],[-71.065018,42.348506],[-71.065072,42.348506]],[[-71.063832,42.350328],[-71.063694,42.350385],[-71.063693,42.350385],[-71.063832,42.350328]],[[-71.063618,42.351103],[-71.063271,42.351078],[-71.063131,42.351052],[-71.063285,42.35099],[-71.063618,42.351103]],[[-71.063256,42.348314],[-71.063247,42.348346],[-71.063085,42.348322],[-71.063145,42.348297],[-71.063256,42.348314]],[[-71.063215,42.350496],[-71.063031,42.350571],[-71.063097,42.350363],[-71.063215,42.350496]],[[-71.063215,42.348103],[-71.063204,42.348144],[-71.063134,42.348162],[-71.062985,42.34814],[-71.063014,42.348128],[-71.063104,42.348148],[-71.063215,42.348103]],[[-71.063119,42.352385],[-71.063118,42.352411],[-71.06303,42.352421],[-71.063119,42.352385]],[[-71.062893,42.3481],[-71.062886,42.348123],[-71.062768,42.348167],[-71.062776,42.348134],[-71.062893,42.3481]],[[-71.062867,42.35116],[-71.062826,42.351259],[-71.062809,42.351266],[-71.062755,42.351526],[-71.062865,42.351558],[-71.062639,42.35165],[-71.062507,42.351615],[-71.062728,42.351525],[-71.06282,42.351179],[-71.062867,42.35116]],[[-71.062822,42.352443],[-71.062724,42.352454],[-71.062449,42.352566],[-71.062452,42.352508],[-71.062412,42.352483],[-71.062279,42.352494],[-71.062492,42.352407],[-71.062822,42.352443]],[[-71.062639,42.348242],[-71.062636,42.348255],[-71.062615,42.348252],[-71.062639,42.348242]],[[-71.062424,42.353512],[-71.062293,42.353565],[-71.062326,42.353509],[-71.062424,42.353512]],[[-71.062172,42.34883],[-71.062024,42.348891],[-71.061919,42.349149],[-71.061882,42.349201],[-71.061908,42.349227],[-71.061888,42.349251],[-71.061808,42.349235],[-71.061839,42.34916],[-71.061722,42.349145],[-71.061783,42.348996],[-71.061756,42.34899],[-71.061778,42.348981],[-71.061895,42.34873],[-71.061814,42.348712],[-71.061862,42.348592],[-71.062072,42.348641],[-71.062116,42.348623],[-71.062042,42.34881],[-71.062172,42.34883]],[[-71.061967,42.349389],[-71.061919,42.349408],[-71.061934,42.349371],[-71.061967,42.349389]],[[-71.061752,42.351532],[-71.061745,42.351532],[-71.061752,42.351529],[-71.061752,42.351532]],[[-71.061719,42.35425],[-71.061685,42.354264],[-71.061703,42.354247],[-71.061719,42.35425]],[[-71.061625,42.348317],[-71.061611,42.348352],[-71.061414,42.348308],[-71.061315,42.348348],[-71.061269,42.348334],[-71.061303,42.348249],[-71.061625,42.348317]],[[-71.061456,42.348735],[-71.061439,42.348779],[-71.061403,42.348793],[-71.061371,42.34877],[-71.061456,42.348735]],[[-71.061253,42.351046],[-71.061193,42.351242],[-71.061154,42.351258],[-71.061227,42.351071],[-71.060769,42.350979],[-71.060563,42.351063],[-71.060595,42.350984],[-71.060568,42.350978],[-71.060603,42.35089],[-71.060789,42.350931],[-71.060929,42.350915],[-71.060923,42.350932],[-71.061043,42.35096],[-71.061123,42.350933],[-71.061166,42.350944],[-71.061135,42.35102],[-71.061253,42.351046]],[[-71.061166,42.348598],[-71.061136,42.348627],[-71.061154,42.348582],[-71.061166,42.348598]],[[-71.06095,42.34921],[-71.060926,42.349219],[-71.060865,42.349194],[-71.06095,42.34921]],[[-71.06017,42.353287],[-71.060029,42.353446],[-71.060128,42.353503],[-71.059993,42.353558],[-71.059811,42.353458],[-71.059773,42.353473],[-71.059744,42.353461],[-71.06017,42.353287]],[[-71.060145,42.352161],[-71.05974,42.352326],[-71.059753,42.35237],[-71.059733,42.352378],[-71.059715,42.35226],[-71.059695,42.352262],[-71.059692,42.352241],[-71.059989,42.35212],[-71.060126,42.352099],[-71.060145,42.352161]],[[-71.059803,42.352836],[-71.059657,42.352762],[-71.059553,42.352772],[-71.059353,42.352853],[-71.059329,42.352649],[-71.059508,42.352576],[-71.059535,42.35276],[-71.059796,42.352757],[-71.059803,42.352836]],[[-71.059175,42.35443],[-71.058943,42.354632],[-71.058839,42.354674],[-71.058681,42.354818],[-71.05847,42.354905],[-71.058718,42.354674],[-71.058709,42.354669],[-71.058876,42.354541],[-71.058889,42.354547],[-71.059175,42.35443]],[[-71.059153,42.353504],[-71.059099,42.353526],[-71.059134,42.353494],[-71.059153,42.353504]],[[-71.058647,42.353986],[-71.058428,42.354076],[-71.058415,42.354067],[-71.058625,42.353973],[-71.058647,42.353986]],[[-71.058421,42.351098],[-71.058349,42.351127],[-71.058365,42.351085],[-71.058421,42.351098]],[[-71.058326,42.350884],[-71.058309,42.350927],[-71.058255,42.350913],[-71.058326,42.350884]],[[-71.058075,42.351674],[-71.058059,42.351713],[-71.058001,42.351704],[-71.058075,42.351674]],[[-71.058067,42.350891],[-71.058045,42.3509],[-71.058048,42.350887],[-71.058067,42.350891]],[[-71.057777,42.354766],[-71.05761,42.354931],[-71.057344,42.355039],[-71.057329,42.354923],[-71.05689,42.354747],[-71.056502,42.354776],[-71.056267,42.354872],[-71.056248,42.354772],[-71.057212,42.354379],[-71.057257,42.354392],[-71.05734,42.354359],[-71.057071,42.354775],[-71.057458,42.354896],[-71.057777,42.354766]],[[-71.057548,42.349963],[-71.057454,42.350002],[-71.057465,42.349945],[-71.057548,42.349963]],[[-71.057337,42.350847],[-71.057285,42.350869],[-71.057291,42.350836],[-71.057337,42.350847]],[[-71.056472,42.350271],[-71.056427,42.350295],[-71.056441,42.350263],[-71.056472,42.350271]],[[-71.055282,42.354072],[-71.055081,42.354161],[-71.055059,42.354199],[-71.055025,42.354213],[-71.055079,42.354153],[-71.055081,42.354118],[-71.055189,42.354067],[-71.055282,42.354072]]],[[[-71.065565,42.354342],[-71.065534,42.354305],[-71.065487,42.354301],[-71.065287,42.354381],[-71.065261,42.354426],[-71.065298,42.35446],[-71.065345,42.354461],[-71.065534,42.354385],[-71.065565,42.354342]]],[[[-71.065421,42.352871],[-71.065303,42.352844],[-71.065202,42.352885],[-71.065185,42.352932],[-71.065211,42.353013],[-71.065277,42.353027],[-71.065378,42.352986],[-71.065421,42.352871]]],[[[-71.06461,42.353278],[-71.064542,42.353266],[-71.064468,42.353296],[-71.064434,42.353396],[-71.064502,42.35341],[-71.064576,42.35338],[-71.06461,42.353278]]],[[[-71.063935,42.354829],[-71.063869,42.354811],[-71.063798,42.35484],[-71.063775,42.354889],[-71.063841,42.354906],[-71.063912,42.354877],[-71.063935,42.354829]]]]},"properties":{"kind":"building"}},{"type":"Feature","geometry":{"type":"MultiPolygon","coordinates":[[[[-71.066058,42.353451],[-71.066047,42.35341],[-71.066015,42.353375],[-71.065912,42.353343],[-71.065856,42.353351],[-71.06558,42.353464],[-71.065504,42.353408],[-71.065448,42.3534],[-71.065377,42.353414],[-71.065348,42.353389],[-71.065405,42.353327],[-71.065448,42.353309],[-71.06545,42.353363],[-71.06547,42.353385],[-71.065537,42.353406],[-71.065573,42.353401],[-71.06586,42.353283],[-71.065911,42.353246],[-71.065911,42.353192],[-71.06586,42.353155],[-71.065981,42.353102],[-71.066007,42.353073],[-71.066016,42.353039],[-71.065995,42.352992],[-71.066039,42.352955],[-71.066048,42.352923],[-71.066021,42.352832],[-71.065989,42.352797],[-71.065886,42.352765],[-71.065771,42.352798],[-71.06575,42.352742],[-71.066,42.352636],[-71.066022,42.352597],[-71.066,42.352558],[-71.065947,42.352542],[-71.065877,42.352563],[-71.065812,42.352534],[-71.065755,42.35255],[-71.065688,42.352518],[-71.06546,42.352603],[-71.065457,42.352558],[-71.065434,42.352533],[-71.065361,42.35251],[-71.065103,42.352605],[-71.065102,42.352553],[-71.065081,42.35253],[-71.065012,42.352509],[-71.064649,42.35265],[-71.06462,42.352701],[-71.064627,42.352729],[-71.06468,42.352768],[-71.064755,42.352768],[-71.064956,42.352686],[-71.064956,42.352742],[-71.065024,42.352786],[-71.064895,42.35284],[-71.064878,42.35287],[-71.064905,42.352906],[-71.064897,42.352942],[-71.064847,42.352971],[-71.064791,42.352933],[-71.064699,42.352933],[-71.064316,42.353093],[-71.064281,42.353156],[-71.064303,42.353204],[-71.064281,42.353256],[-71.064292,42.353298],[-71.064362,42.353351],[-71.064258,42.353397],[-71.064226,42.353455],[-71.064258,42.353513],[-71.064336,42.353536],[-71.064636,42.353442],[-71.064695,42.353456],[-71.064756,42.353443],[-71.064764,42.353492],[-71.064724,42.353509],[-71.06467,42.353467],[-71.064592,42.353467],[-71.064258,42.353607],[-71.064229,42.353659],[-71.064149,42.353697],[-71.064078,42.353859],[-71.064112,42.353897],[-71.06401,42.353946],[-71.063986,42.35399],[-71.063985,42.354074],[-71.06406,42.354111],[-71.063979,42.354146],[-71.063958,42.354199],[-71.063864,42.354251],[-71.063864,42.354293],[-71.06388,42.354311],[-71.063795,42.354357],[-71.063763,42.354392],[-71.063756,42.354445],[-71.063702,42.354482],[-71.063702,42.354528],[-71.063569,42.354596],[-71.063528,42.354665],[-71.063323,42.354741],[-71.063312,42.35478],[-71.063355,42.354802],[-71.063263,42.354841],[-71.063252,42.35488],[-71.063279,42.3549],[-71.063316,42.3549],[-71.063494,42.354825],[-71.063505,42.354786],[-71.063462,42.354764],[-71.06355,42.354728],[-71.063584,42.354756],[-71.063534,42.354792],[-71.063533,42.354836],[-71.063497,42.354883],[-71.06352,42.354924],[-71.063545,42.354936],[-71.063605,42.354936],[-71.063882,42.354821],[-71.063902,42.354768],[-71.063956,42.354731],[-71.063956,42.354683],[-71.064141,42.354599],[-71.064173,42.354564],[-71.064184,42.354523],[-71.064148,42.354454],[-71.064367,42.35436],[-71.064399,42.354325],[-71.064403,42.354259],[-71.064602,42.354175],[-71.064633,42.354119],[-71.064885,42.354015],[-71.064929,42.353983],[-71.064935,42.35396],[-71.064911,42.353918],[-71.064854,42.3539],[-71.064778,42.353923],[-71.064779,42.353878],[-71.064737,42.353847],[-71.064636,42.353864],[-71.064632,42.353832],[-71.064588,42.3538],[-71.064507,42.353807],[-71.064437,42.353774],[-71.064387,42.353787],[-71.064386,42.353763],[-71.064444,42.353728],[-71.064445,42.353696],[-71.064656,42.35361],[-71.064696,42.353626],[-71.064729,42.353681],[-71.064769,42.353701],[-71.064864,42.353701],[-71.06494,42.35367],[-71.064979,42.353734],[-71.065026,42.353757],[-71.065138,42.353757],[-71.065237,42.353717],[-71.06521,42.353753],[-71.065225,42.353782],[-71.065069,42.353847],[-71.065049,42.353883],[-71.065054,42.353902],[-71.064965,42.353948],[-71.064951,42.353996],[-71.064813,42.354064],[-71.064827,42.354116],[-71.064873,42.35413],[-71.06503,42.354072],[-71.064939,42.354119],[-71.064922,42.354149],[-71.064934,42.354174],[-71.064911,42.354183],[-71.0649,42.354145],[-71.064847,42.354137],[-71.064644,42.354221],[-71.064629,42.354247],[-71.06464,42.354269],[-71.064417,42.354361],[-71.064397,42.354397],[-71.064417,42.354432],[-71.064379,42.354469],[-71.064256,42.35453],[-71.064244,42.354577],[-71.064153,42.354617],[-71.064141,42.354663],[-71.063971,42.354767],[-71.063959,42.354811],[-71.063989,42.354833],[-71.06403,42.354833],[-71.063994,42.354878],[-71.064038,42.354927],[-71.064093,42.354927],[-71.064354,42.354818],[-71.064369,42.354801],[-71.064369,42.354761],[-71.064439,42.354724],[-71.064452,42.354682],[-71.064531,42.354648],[-71.064542,42.354607],[-71.064564,42.354599],[-71.064609,42.354635],[-71.064671,42.354635],[-71.065049,42.35449],[-71.065067,42.354458],[-71.065029,42.354416],[-71.06495,42.354429],[-71.064899,42.354414],[-71.064805,42.354444],[-71.064775,42.354393],[-71.06494,42.354321],[-71.064955,42.354294],[-71.064941,42.354269],[-71.065082,42.35421],[-71.065099,42.354179],[-71.065088,42.354155],[-71.065231,42.354095],[-71.065245,42.354053],[-71.065596,42.353881],[-71.065596,42.353851],[-71.065568,42.353831],[-71.065486,42.353848],[-71.065608,42.353787],[-71.065625,42.353756],[-71.065608,42.353725],[-71.065545,42.353716],[-71.065411,42.353771],[-71.065397,42.353754],[-71.065512,42.353707],[-71.065602,42.3537],[-71.065968,42.353551],[-71.066015,42.353527],[-71.066047,42.353492],[-71.066058,42.353451]],[[-71.065648,42.352734],[-71.065199,42.352918],[-71.065172,42.352961],[-71.065041,42.353016],[-71.065032,42.353047],[-71.065067,42.353065],[-71.064961,42.353109],[-71.064941,42.353145],[-71.064956,42.353176],[-71.06486,42.353215],[-71.064928,42.353148],[-71.064939,42.353107],[-71.064928,42.353066],[-71.065164,42.352948],[-71.065169,42.352928],[-71.065149,42.352891],[-71.065179,42.352852],[-71.065164,42.352827],[-71.065204,42.352785],[-71.065177,42.352749],[-71.065228,42.352728],[-71.065203,42.352774],[-71.06521,42.3528],[-71.065259,42.352836],[-71.065294,42.352842],[-71.065558,42.352743],[-71.065638,42.352723],[-71.065648,42.352734]],[[-71.065315,42.353871],[-71.065284,42.353883],[-71.065281,42.353873],[-71.065315,42.353871]],[[-71.065187,42.353968],[-71.065158,42.35398],[-71.065155,42.353972],[-71.065187,42.353968]],[[-71.064792,42.354296],[-71.064763,42.354308],[-71.064744,42.354267],[-71.064779,42.354246],[-71.064773,42.354264],[-71.064792,42.354296]],[[-71.064302,42.35402],[-71.064296,42.354023],[-71.064295,42.354023],[-71.064302,42.35402]]],[[[-71.066046,42.354972],[-71.066026,42.354936],[-71.065952,42.354925],[-71.065699,42.35503],[-71.065679,42.355066],[-71.065684,42.355085],[-71.065721,42.355113],[-71.065773,42.355113],[-71.066026,42.355008],[-71.066046,42.354972]]],[[[-71.06602,42.354061],[-71.065981,42.354032],[-71.065919,42.354054],[-71.06587,42.354048],[-71.065667,42.354132],[-71.065656,42.354171],[-71.065682,42.354191],[-71.06572,42.354191],[-71.065996,42.354088],[-71.06602,42.354061]]],[[[-71.06597,42.354146],[-71.065947,42.354129],[-71.065807,42.354184],[-71.065795,42.354206],[-71.065825,42.354215],[-71.06597,42.354146]]],[[[-71.065865,42.354468],[-71.065827,42.3544],[-71.065785,42.354379],[-71.065685,42.354379],[-71.065277,42.354549],[-71.065239,42.354617],[-71.065172,42.354615],[-71.064985,42.354691],[-71.064996,42.354662],[-71.065085,42.354624],[-71.065103,42.354592],[-71.065085,42.35456],[-71.065017,42.35455],[-71.06459,42.354713],[-71.064541,42.35475],[-71.064534,42.354775],[-71.06456,42.354823],[-71.064632,42.354848],[-71.064879,42.354748],[-71.064872,42.354771],[-71.064687,42.354849],[-71.064675,42.354893],[-71.064726,42.354918],[-71.064813,42.354888],[-71.064921,42.35494],[-71.06499,42.354934],[-71.065011,42.35497],[-71.065086,42.354983],[-71.065095,42.355021],[-71.065121,42.355051],[-71.065208,42.355078],[-71.065256,42.355071],[-71.065647,42.354907],[-71.065683,42.354843],[-71.065674,42.354808],[-71.065607,42.354759],[-71.06556,42.354752],[-71.065483,42.354771],[-71.065481,42.354739],[-71.065444,42.354711],[-71.065354,42.354727],[-71.065348,42.35471],[-71.065419,42.354706],[-71.065785,42.354557],[-71.065827,42.354536],[-71.065865,42.354468]]],[[[-71.06583,42.348038],[-71.065811,42.348004],[-71.06574,42.347994],[-71.065496,42.348095],[-71.065418,42.348154],[-71.065441,42.348161],[-71.065481,42.348145],[-71.065517,42.348173],[-71.065566,42.348173],[-71.065811,42.348072],[-71.06583,42.348038]]],[[[-71.06579,42.34818],[-71.065774,42.348151],[-71.065714,42.348142],[-71.065512,42.348225],[-71.065466,42.348274],[-71.06523,42.348372],[-71.065217,42.348422],[-71.06525,42.348446],[-71.065297,42.348446],[-71.065514,42.348358],[-71.065547,42.348333],[-71.065548,42.348301],[-71.065774,42.348209],[-71.06579,42.34818]]],[[[-71.065764,42.353939],[-71.065749,42.353914],[-71.065696,42.353906],[-71.065508,42.353982],[-71.065431,42.354053],[-71.065431,42.35408],[-71.065457,42.3541],[-71.065495,42.3541],[-71.065683,42.354023],[-71.065764,42.353939]]],[[[-71.065738,42.348446],[-71.065721,42.348415],[-71.065658,42.348406],[-71.065429,42.348501],[-71.065417,42.348548],[-71.065448,42.348571],[-71.065493,42.348571],[-71.065721,42.348477],[-71.065738,42.348446]]],[[[-71.065728,42.348293],[-71.06571,42.34828],[-71.065608,42.34832],[-71.065598,42.348337],[-71.065621,42.348344],[-71.065728,42.348293]]],[[[-71.065598,42.348957],[-71.06558,42.348944],[-71.065485,42.348981],[-71.065475,42.348998],[-71.065499,42.349006],[-71.065598,42.348957]]],[[[-71.065588,42.351223],[-71.06557,42.35121],[-71.065453,42.351255],[-71.065443,42.351273],[-71.065467,42.35128],[-71.065588,42.351223]]],[[[-71.065562,42.349094],[-71.065544,42.349081],[-71.065449,42.349118],[-71.065439,42.349135],[-71.065463,42.349143],[-71.065562,42.349094]]],[[[-71.065559,42.349236],[-71.065544,42.349211],[-71.065491,42.349203],[-71.065313,42.349277],[-71.065302,42.349316],[-71.065329,42.349336],[-71.065366,42.349336],[-71.065544,42.349261],[-71.065559,42.349236]]],[[[-71.065483,42.348446],[-71.06546,42.348429],[-71.06532,42.348484],[-71.065308,42.348506],[-71.065338,42.348515],[-71.065483,42.348446]]],[[[-71.065433,42.34879],[-71.065418,42.348765],[-71.065365,42.348757],[-71.065187,42.348831],[-71.065177,42.34887],[-71.065203,42.34889],[-71.06524,42.34889],[-71.065418,42.348815],[-71.065433,42.34879]]],[[[-71.065396,42.34894],[-71.065385,42.348921],[-71.065346,42.348916],[-71.065175,42.348986],[-71.065168,42.349015],[-71.065214,42.349029],[-71.065374,42.348964],[-71.065396,42.34894]]],[[[-71.065379,42.34907],[-71.065364,42.349045],[-71.065311,42.349037],[-71.065108,42.349121],[-71.065097,42.34916],[-71.065123,42.34918],[-71.065161,42.34918],[-71.065364,42.349095],[-71.065379,42.34907]]],[[[-71.065368,42.35121],[-71.06535,42.351197],[-71.06524,42.351239],[-71.065231,42.351257],[-71.065254,42.351264],[-71.065368,42.35121]]],[[[-71.065268,42.35121],[-71.06525,42.351197],[-71.065148,42.351237],[-71.065138,42.351254],[-71.065161,42.351261],[-71.065268,42.35121]]],[[[-71.065176,42.35072],[-71.06514,42.350702],[-71.065002,42.350759],[-71.064988,42.350784],[-71.065022,42.350794],[-71.065176,42.35072]]],[[[-71.065151,42.350784],[-71.065115,42.350766],[-71.064977,42.350823],[-71.064963,42.350848],[-71.064997,42.350858],[-71.065151,42.350784]]],[[[-71.065129,42.350853],[-71.06511,42.350839],[-71.064979,42.35089],[-71.064968,42.350909],[-71.064994,42.350917],[-71.065129,42.350853]]],[[[-71.064944,42.35131],[-71.064926,42.351297],[-71.064816,42.351339],[-71.064807,42.351357],[-71.06483,42.351364],[-71.064944,42.35131]]],[[[-71.064911,42.354986],[-71.06488,42.354932],[-71.064847,42.354915],[-71.064767,42.354915],[-71.064425,42.355058],[-71.064394,42.355112],[-71.064402,42.355141],[-71.064458,42.355183],[-71.064538,42.355183],[-71.06488,42.35504],[-71.064911,42.354986]]],[[[-71.064857,42.348456],[-71.064839,42.348443],[-71.064737,42.348483],[-71.064727,42.3485],[-71.06475,42.348507],[-71.064857,42.348456]]],[[[-71.064624,42.351826],[-71.064606,42.351813],[-71.064504,42.351853],[-71.064494,42.35187],[-71.064517,42.351877],[-71.064624,42.351826]]],[[[-71.064621,42.348425],[-71.064603,42.348412],[-71.064501,42.348452],[-71.064491,42.348469],[-71.064514,42.348476],[-71.064621,42.348425]]],[[[-71.064568,42.352055],[-71.06455,42.352042],[-71.06444,42.352084],[-71.064431,42.352102],[-71.064454,42.352109],[-71.064568,42.352055]]],[[[-71.064564,42.352104],[-71.064545,42.35209],[-71.064414,42.352141],[-71.064403,42.35216],[-71.064429,42.352168],[-71.064564,42.352104]]],[[[-71.064548,42.35216],[-71.06453,42.352147],[-71.064428,42.352187],[-71.064418,42.352204],[-71.064441,42.352211],[-71.064548,42.35216]]],[[[-71.064436,42.348399],[-71.064418,42.348386],[-71.064316,42.348426],[-71.064306,42.348443],[-71.064329,42.34845],[-71.064436,42.348399]]],[[[-71.064238,42.350925],[-71.06422,42.350912],[-71.064118,42.350952],[-71.064108,42.350969],[-71.064131,42.350976],[-71.064238,42.350925]]],[[[-71.064209,42.34872],[-71.064186,42.348703],[-71.064046,42.348758],[-71.064034,42.34878],[-71.064064,42.348789],[-71.064209,42.34872]]],[[[-71.064168,42.34884],[-71.06415,42.348827],[-71.064026,42.348875],[-71.064016,42.348893],[-71.06404,42.3489],[-71.064168,42.34884]]],[[[-71.064148,42.350914],[-71.06413,42.350901],[-71.064081,42.350919],[-71.064073,42.350897],[-71.06405,42.35089],[-71.063962,42.350923],[-71.06397,42.350892],[-71.063934,42.350874],[-71.063752,42.350944],[-71.063728,42.350971],[-71.063767,42.351],[-71.063874,42.35096],[-71.063875,42.350993],[-71.063898,42.351],[-71.064017,42.350955],[-71.064041,42.350965],[-71.064148,42.350914]]],[[[-71.064088,42.3533],[-71.06407,42.353287],[-71.063946,42.353335],[-71.063936,42.353353],[-71.06396,42.35336],[-71.064088,42.3533]]],[[[-71.064049,42.35339],[-71.06403,42.353376],[-71.063981,42.353394],[-71.063983,42.35338],[-71.063958,42.353373],[-71.063834,42.353423],[-71.063823,42.353442],[-71.063849,42.35345],[-71.06389,42.353433],[-71.063888,42.353446],[-71.063914,42.353454],[-71.064049,42.35339]]],[[[-71.064013,42.353283],[-71.063995,42.35327],[-71.063871,42.353318],[-71.063861,42.353336],[-71.063885,42.353343],[-71.064013,42.353283]]],[[[-71.063998,42.35376],[-71.06398,42.353747],[-71.063856,42.353795],[-71.063846,42.353813],[-71.06387,42.35382],[-71.063998,42.35376]]],[[[-71.063943,42.353268],[-71.06392,42.353251],[-71.06378,42.353306],[-71.063768,42.353328],[-71.063798,42.353337],[-71.063943,42.353268]]],[[[-71.063928,42.353374],[-71.06391,42.353361],[-71.063786,42.353409],[-71.063776,42.353427],[-71.0638,42.353434],[-71.063928,42.353374]]],[[[-71.063922,42.353967],[-71.063913,42.35395],[-71.063878,42.353945],[-71.063715,42.354012],[-71.063708,42.354038],[-71.06375,42.354051],[-71.063902,42.353989],[-71.063922,42.353967]]],[[[-71.063915,42.348675],[-71.063896,42.348661],[-71.063765,42.348712],[-71.063754,42.348731],[-71.06378,42.348739],[-71.063915,42.348675]]],[[[-71.063893,42.348743],[-71.06387,42.348726],[-71.06373,42.348781],[-71.063718,42.348803],[-71.063748,42.348812],[-71.063893,42.348743]]],[[[-71.063879,42.34887],[-71.06386,42.348856],[-71.063729,42.348907],[-71.063718,42.348926],[-71.063744,42.348934],[-71.063879,42.34887]]],[[[-71.063873,42.348793],[-71.063855,42.34878],[-71.063753,42.34882],[-71.063743,42.348837],[-71.063766,42.348844],[-71.063873,42.348793]]],[[[-71.063821,42.349148],[-71.063803,42.349135],[-71.063701,42.349175],[-71.063691,42.349192],[-71.063714,42.349199],[-71.063821,42.349148]]],[[[-71.063816,42.35412],[-71.06378,42.354102],[-71.063642,42.354159],[-71.063628,42.354184],[-71.063662,42.354194],[-71.063816,42.35412]]],[[[-71.063808,42.348427],[-71.06379,42.348414],[-71.063688,42.348454],[-71.063678,42.348471],[-71.063701,42.348478],[-71.063808,42.348427]]],[[[-71.063768,42.349293],[-71.06375,42.34928],[-71.063648,42.34932],[-71.063638,42.349337],[-71.063661,42.349344],[-71.063768,42.349293]]],[[[-71.063755,42.349335],[-71.063737,42.349322],[-71.063635,42.349362],[-71.063625,42.349379],[-71.063648,42.349386],[-71.063755,42.349335]]],[[[-71.063718,42.34841],[-71.0637,42.348397],[-71.063598,42.348437],[-71.063588,42.348454],[-71.063611,42.348461],[-71.063718,42.34841]]],[[[-71.063707,42.350883],[-71.063675,42.350859],[-71.063611,42.350882],[-71.063599,42.35086],[-71.063533,42.35088],[-71.063544,42.350857],[-71.06352,42.350845],[-71.063372,42.350903],[-71.063358,42.350928],[-71.063382,42.35094],[-71.063447,42.350915],[-71.063438,42.350936],[-71.06345,42.350945],[-71.063494,42.350934],[-71.0635,42.350962],[-71.063523,42.350969],[-71.063687,42.350905],[-71.063707,42.350883]]],[[[-71.063689,42.34976],[-71.06367,42.349746],[-71.063539,42.349797],[-71.063528,42.349816],[-71.063554,42.349824],[-71.063689,42.34976]]],[[[-71.063632,42.349854],[-71.063614,42.349841],[-71.06349,42.349889],[-71.06348,42.349907],[-71.063504,42.349914],[-71.063632,42.349854]]],[[[-71.063579,42.34995],[-71.06356,42.349936],[-71.063429,42.349987],[-71.063418,42.350006],[-71.063444,42.350014],[-71.063579,42.34995]]],[[[-71.063548,42.35],[-71.06353,42.349987],[-71.063406,42.350035],[-71.063396,42.350053],[-71.06342,42.35006],[-71.063548,42.35]]],[[[-71.063458,42.350418],[-71.06344,42.350405],[-71.063316,42.350453],[-71.063306,42.350471],[-71.06333,42.350478],[-71.063458,42.350418]]],[[[-71.063458,42.35018],[-71.06344,42.350167],[-71.063323,42.350212],[-71.063313,42.35023],[-71.063337,42.350237],[-71.063458,42.35018]]],[[[-71.063434,42.350487],[-71.063416,42.350474],[-71.063299,42.350519],[-71.063289,42.350537],[-71.063313,42.350544],[-71.063434,42.350487]]],[[[-71.063428,42.350246],[-71.06341,42.350233],[-71.063293,42.350278],[-71.063292,42.350303],[-71.063258,42.35033],[-71.063282,42.350337],[-71.063392,42.350292],[-71.063393,42.350268],[-71.063428,42.350246]]],[[[-71.063403,42.35055],[-71.063385,42.350537],[-71.063275,42.350579],[-71.063266,42.350597],[-71.063289,42.350604],[-71.063403,42.35055]]],[[[-71.063386,42.350826],[-71.06335,42.350808],[-71.063212,42.350865],[-71.063198,42.35089],[-71.063232,42.3509],[-71.063386,42.350826]]],[[[-71.063383,42.350765],[-71.063343,42.350745],[-71.063198,42.350804],[-71.06318,42.350824],[-71.06322,42.350844],[-71.063365,42.350785],[-71.063383,42.350765]]],[[[-71.063369,42.350704],[-71.06335,42.35069],[-71.063219,42.350741],[-71.063208,42.35076],[-71.063234,42.350768],[-71.063369,42.350704]]],[[[-71.063368,42.35061],[-71.06335,42.350597],[-71.06324,42.350639],[-71.063231,42.350657],[-71.063254,42.350664],[-71.063368,42.35061]]],[[[-71.063328,42.35044],[-71.06331,42.350427],[-71.0632,42.350469],[-71.063191,42.350487],[-71.063214,42.350494],[-71.063328,42.35044]]],[[[-71.063298,42.350483],[-71.06328,42.35047],[-71.063163,42.350515],[-71.063153,42.350533],[-71.063177,42.35054],[-71.063298,42.350483]]],[[[-71.063273,42.350536],[-71.063255,42.350523],[-71.063138,42.350568],[-71.063128,42.350586],[-71.063152,42.350593],[-71.063273,42.350536]]],[[[-71.063248,42.350582],[-71.06323,42.350569],[-71.063106,42.350617],[-71.063096,42.350635],[-71.06312,42.350642],[-71.063248,42.350582]]],[[[-71.063228,42.35063],[-71.06321,42.350617],[-71.063086,42.350665],[-71.063076,42.350683],[-71.0631,42.35069],[-71.063228,42.35063]]],[[[-71.063198,42.350677],[-71.06318,42.350664],[-71.063085,42.350701],[-71.063075,42.350718],[-71.063099,42.350726],[-71.063198,42.350677]]],[[[-71.063178,42.350727],[-71.06316,42.350714],[-71.063043,42.350759],[-71.063043,42.350784],[-71.062988,42.350821],[-71.063014,42.350829],[-71.063137,42.350778],[-71.063148,42.350771],[-71.063137,42.350752],[-71.063178,42.350727]]],[[[-71.063144,42.352238],[-71.063126,42.352225],[-71.063065,42.352237],[-71.062955,42.352279],[-71.062946,42.352297],[-71.063023,42.352293],[-71.063144,42.352238]]],[[[-71.062983,42.352253],[-71.062965,42.35224],[-71.062855,42.352282],[-71.062846,42.3523],[-71.062869,42.352307],[-71.062983,42.352253]]],[[[-71.062922,42.35222],[-71.062904,42.352207],[-71.062787,42.352252],[-71.062777,42.35227],[-71.062801,42.352277],[-71.062922,42.35222]]],[[[-71.062848,42.352215],[-71.06283,42.352202],[-71.06272,42.352244],[-71.062711,42.352262],[-71.062734,42.352269],[-71.062848,42.352215]]],[[[-71.062829,42.353302],[-71.06281,42.353288],[-71.062763,42.353305],[-71.06274,42.353289],[-71.0626,42.353344],[-71.062588,42.353366],[-71.062618,42.353375],[-71.062667,42.353355],[-71.062694,42.353366],[-71.062829,42.353302]]],[[[-71.062829,42.353214],[-71.06281,42.3532],[-71.062679,42.353251],[-71.062668,42.35327],[-71.062694,42.353278],[-71.062829,42.353214]]],[[[-71.062763,42.353207],[-71.062744,42.353193],[-71.062613,42.353244],[-71.062602,42.353263],[-71.062628,42.353271],[-71.062763,42.353207]]],[[[-71.062559,42.348354],[-71.062519,42.348334],[-71.062407,42.34838],[-71.062398,42.348353],[-71.062355,42.348346],[-71.062176,42.348421],[-71.062164,42.348441],[-71.062203,42.34847],[-71.062356,42.348411],[-71.062374,42.348433],[-71.062396,42.348433],[-71.062541,42.348374],[-71.062559,42.348354]]],[[[-71.062496,42.349373],[-71.062484,42.349351],[-71.062438,42.349344],[-71.06225,42.349422],[-71.062241,42.349456],[-71.062296,42.349473],[-71.062484,42.349395],[-71.062496,42.349373]]],[[[-71.062463,42.348557],[-71.06244,42.34854],[-71.0623,42.348595],[-71.062288,42.348617],[-71.062318,42.348626],[-71.062463,42.348557]]],[[[-71.062392,42.349323],[-71.06238,42.349301],[-71.062334,42.349294],[-71.062146,42.349372],[-71.062137,42.349406],[-71.062192,42.349423],[-71.06238,42.349345],[-71.062392,42.349323]]],[[[-71.062039,42.353752],[-71.06202,42.353738],[-71.061889,42.353789],[-71.061748,42.353881],[-71.061774,42.353889],[-71.061897,42.353838],[-71.061908,42.353819],[-71.062039,42.353752]]],[[[-71.062006,42.349306],[-71.061988,42.349293],[-71.061886,42.349333],[-71.061876,42.34935],[-71.061899,42.349357],[-71.062006,42.349306]]],[[[-71.061988,42.35386],[-71.06197,42.353847],[-71.061868,42.353887],[-71.061858,42.353904],[-71.061881,42.353911],[-71.061988,42.35386]]],[[[-71.061951,42.349438],[-71.061933,42.349425],[-71.061831,42.349465],[-71.061821,42.349482],[-71.061844,42.349489],[-71.061951,42.349438]]],[[[-71.061941,42.349548],[-71.061926,42.349523],[-71.061892,42.349512],[-71.061711,42.349581],[-71.061684,42.349601],[-71.061691,42.349636],[-71.06152,42.349707],[-71.061509,42.349746],[-71.061536,42.349766],[-71.061573,42.349766],[-71.061736,42.349699],[-71.061762,42.34968],[-71.061755,42.349645],[-71.061926,42.349573],[-71.061941,42.349548]]],[[[-71.061928,42.34988],[-71.06191,42.349867],[-71.061808,42.349907],[-71.061798,42.349924],[-71.061821,42.349931],[-71.061928,42.34988]]],[[[-71.061924,42.3537],[-71.061905,42.353686],[-71.061774,42.353737],[-71.061763,42.353756],[-71.061789,42.353764],[-71.061924,42.3537]]],[[[-71.061898,42.349926],[-71.06188,42.349913],[-71.061778,42.349953],[-71.061768,42.34997],[-71.061791,42.349977],[-71.061898,42.349926]]],[[[-71.061892,42.35],[-71.061874,42.349987],[-71.061772,42.350027],[-71.061762,42.350044],[-71.061785,42.350051],[-71.061892,42.35]]],[[[-71.061868,42.350044],[-71.06185,42.350031],[-71.061748,42.350071],[-71.061746,42.350095],[-71.061708,42.350124],[-71.061731,42.350131],[-71.061827,42.350092],[-71.061828,42.350068],[-71.061868,42.350044]]],[[[-71.061851,42.348312],[-71.061838,42.348288],[-71.061789,42.348281],[-71.061593,42.348362],[-71.061583,42.348399],[-71.061608,42.348417],[-71.061643,42.348417],[-71.061838,42.348336],[-71.061851,42.348312]]],[[[-71.061828,42.353783],[-71.06181,42.35377],[-71.061708,42.35381],[-71.061698,42.353827],[-71.061721,42.353834],[-71.061828,42.353783]]],[[[-71.061825,42.353653],[-71.061806,42.353639],[-71.061675,42.35369],[-71.061664,42.353709],[-71.06169,42.353717],[-71.061825,42.353653]]],[[[-71.061824,42.350155],[-71.061806,42.350142],[-71.061711,42.350179],[-71.061701,42.350196],[-71.061725,42.350204],[-71.061824,42.350155]]],[[[-71.061798,42.3502],[-71.06178,42.350187],[-71.061678,42.350227],[-71.061668,42.350244],[-71.061691,42.350251],[-71.061798,42.3502]]],[[[-71.061789,42.350292],[-71.061778,42.350272],[-71.061735,42.350265],[-71.061569,42.350333],[-71.061547,42.350349],[-71.061547,42.350371],[-71.061497,42.350407],[-71.061497,42.350433],[-71.061522,42.350451],[-71.061557,42.350451],[-71.061737,42.350377],[-71.061762,42.350359],[-71.061753,42.350323],[-71.061789,42.350292]]],[[[-71.06177,42.348421],[-71.061752,42.348408],[-71.06165,42.348448],[-71.06164,42.348465],[-71.061663,42.348472],[-71.06177,42.348421]]],[[[-71.061759,42.353607],[-71.061744,42.353582],[-71.061691,42.353574],[-71.061513,42.353648],[-71.061502,42.353687],[-71.061529,42.353707],[-71.061566,42.353707],[-71.061744,42.353632],[-71.061759,42.353607]]],[[[-71.061747,42.353738],[-71.061729,42.353725],[-71.061627,42.353765],[-71.061617,42.353782],[-71.06164,42.353789],[-71.061747,42.353738]]],[[[-71.061692,42.348648],[-71.06168,42.348626],[-71.06165,42.348617],[-71.061556,42.348651],[-71.061503,42.348639],[-71.061307,42.34872],[-71.061294,42.348744],[-71.061307,42.348768],[-71.061339,42.348777],[-71.061445,42.348739],[-71.061492,42.348748],[-71.06168,42.34867],[-71.061692,42.348648]]],[[[-71.061645,42.348297],[-71.061629,42.348268],[-71.061569,42.348259],[-71.061349,42.348351],[-71.061337,42.348395],[-71.061367,42.348417],[-71.061409,42.348417],[-71.061629,42.348326],[-71.061645,42.348297]]],[[[-71.061628,42.35355],[-71.06161,42.353537],[-71.061493,42.353582],[-71.061483,42.3536],[-71.061507,42.353607],[-71.061628,42.35355]]],[[[-71.06161,42.348837],[-71.061592,42.348824],[-71.061501,42.348859],[-71.06149,42.348832],[-71.061444,42.348825],[-71.061256,42.348903],[-71.061244,42.348925],[-71.06127,42.348954],[-71.061302,42.348954],[-71.061476,42.348883],[-71.061503,42.348888],[-71.06161,42.348837]]],[[[-71.061608,42.3485],[-71.06159,42.348487],[-71.061488,42.348527],[-71.061478,42.348544],[-71.061501,42.348551],[-71.061608,42.3485]]],[[[-71.061597,42.348184],[-71.061579,42.348171],[-71.061462,42.348216],[-71.061452,42.348234],[-71.061476,42.348241],[-71.061597,42.348184]]],[[[-71.061548,42.349568],[-71.061518,42.349535],[-71.061444,42.349549],[-71.061435,42.349509],[-71.061382,42.349501],[-71.061204,42.349575],[-71.06119,42.3496],[-71.061219,42.349633],[-71.061154,42.349659],[-71.061145,42.349677],[-71.061168,42.349684],[-71.061271,42.349642],[-71.061293,42.349619],[-71.061302,42.34966],[-71.061355,42.349668],[-71.061533,42.349593],[-71.061548,42.349568]]],[[[-71.061493,42.35095],[-71.06147,42.350933],[-71.06133,42.350988],[-71.061318,42.35101],[-71.061348,42.351019],[-71.061493,42.35095]]],[[[-71.061472,42.34815],[-71.061454,42.348118],[-71.061386,42.348108],[-71.06115,42.348206],[-71.061137,42.348256],[-71.06117,42.34828],[-71.061217,42.34828],[-71.061454,42.348182],[-71.061472,42.34815]]],[[[-71.061452,42.348248],[-71.061443,42.348231],[-71.061408,42.348226],[-71.061245,42.348293],[-71.061238,42.348319],[-71.06128,42.348332],[-71.061432,42.34827],[-71.061452,42.348248]]],[[[-71.061438,42.349255],[-71.06142,42.349242],[-71.061303,42.349287],[-71.061293,42.349305],[-71.061317,42.349312],[-71.061438,42.349255]]],[[[-71.061418,42.351122],[-71.0614,42.351109],[-71.061298,42.351149],[-71.061288,42.351166],[-71.061311,42.351173],[-71.061418,42.351122]]],[[[-71.061399,42.349052],[-71.06138,42.349038],[-71.061249,42.349089],[-71.061238,42.349108],[-71.061264,42.349116],[-71.061399,42.349052]]],[[[-71.061397,42.35118],[-71.061379,42.351167],[-71.061277,42.351207],[-71.061267,42.351224],[-71.06129,42.351231],[-71.061397,42.35118]]],[[[-71.061371,42.35124],[-71.061353,42.351227],[-71.061251,42.351267],[-71.061241,42.351284],[-71.061264,42.351291],[-71.061371,42.35124]]],[[[-71.061368,42.34943],[-71.06135,42.349417],[-71.061248,42.349457],[-71.061238,42.349474],[-71.061261,42.349481],[-71.061368,42.34943]]],[[[-71.061352,42.351289],[-71.061334,42.351276],[-71.061232,42.351316],[-71.061222,42.351333],[-71.061245,42.35134],[-71.061352,42.351289]]],[[[-71.061349,42.349228],[-71.061309,42.349208],[-71.061164,42.349267],[-71.061146,42.349287],[-71.061186,42.349307],[-71.061331,42.349248],[-71.061349,42.349228]]],[[[-71.061261,42.349678],[-71.061243,42.349665],[-71.061133,42.349707],[-71.061124,42.349725],[-71.061147,42.349732],[-71.061261,42.349678]]],[[[-71.061244,42.35337],[-71.061226,42.353357],[-71.061124,42.353397],[-71.061114,42.353414],[-71.061137,42.353421],[-71.061244,42.35337]]],[[[-71.061238,42.354774],[-71.06122,42.354761],[-71.061118,42.354801],[-71.061108,42.354818],[-71.061131,42.354825],[-71.061238,42.354774]]],[[[-71.061222,42.34983],[-71.06121,42.349808],[-71.061164,42.349801],[-71.060976,42.349879],[-71.060967,42.349913],[-71.061022,42.34993],[-71.06121,42.349852],[-71.061222,42.34983]]],[[[-71.061188,42.354916],[-71.06117,42.354903],[-71.061068,42.354943],[-71.061058,42.35496],[-71.061081,42.354967],[-71.061188,42.354916]]],[[[-71.061188,42.353344],[-71.06117,42.353331],[-71.061068,42.353371],[-71.061058,42.353388],[-71.061081,42.353395],[-71.061188,42.353344]]],[[[-71.061156,42.35003],[-71.061141,42.350003],[-71.061084,42.349995],[-71.060872,42.350082],[-71.060861,42.350124],[-71.060889,42.350145],[-71.060929,42.350145],[-71.061141,42.350057],[-71.061156,42.35003]]],[[[-71.061138,42.35332],[-71.06112,42.353307],[-71.061018,42.353347],[-71.061008,42.353364],[-71.061031,42.353371],[-71.061138,42.35332]]],[[[-71.061048,42.353275],[-71.06103,42.353262],[-71.060795,42.353359],[-71.060786,42.353377],[-71.060809,42.353384],[-71.061048,42.353275]]],[[[-71.061038,42.34849],[-71.06102,42.348477],[-71.060918,42.348517],[-71.060908,42.348534],[-71.060931,42.348541],[-71.061038,42.34849]]],[[[-71.061032,42.348602],[-71.061017,42.348575],[-71.06096,42.348567],[-71.060748,42.348654],[-71.060737,42.348696],[-71.060765,42.348717],[-71.060805,42.348717],[-71.061017,42.348629],[-71.061032,42.348602]]],[[[-71.061005,42.348717],[-71.060989,42.348688],[-71.060929,42.348679],[-71.060709,42.348771],[-71.060697,42.348815],[-71.060727,42.348837],[-71.060769,42.348837],[-71.060989,42.348746],[-71.061005,42.348717]]],[[[-71.060988,42.353363],[-71.06097,42.35335],[-71.060868,42.35339],[-71.060858,42.353407],[-71.060881,42.353414],[-71.060988,42.353363]]],[[[-71.060942,42.348827],[-71.06093,42.348805],[-71.060884,42.348798],[-71.060696,42.348876],[-71.060687,42.34891],[-71.060742,42.348927],[-71.06093,42.348849],[-71.060942,42.348827]]],[[[-71.060938,42.35322],[-71.06092,42.353207],[-71.060818,42.353247],[-71.060808,42.353264],[-71.060831,42.353271],[-71.060938,42.35322]]],[[[-71.060862,42.353302],[-71.060844,42.353289],[-71.060742,42.353329],[-71.060732,42.353346],[-71.060755,42.353353],[-71.060862,42.353302]]],[[[-71.060847,42.349174],[-71.060827,42.349137],[-71.060776,42.349121],[-71.060511,42.349222],[-71.060472,42.349251],[-71.060472,42.349291],[-71.060508,42.349318],[-71.060478,42.349344],[-71.060501,42.349351],[-71.060803,42.349223],[-71.060847,42.349174]]],[[[-71.060733,42.34939],[-71.060718,42.349365],[-71.060665,42.349357],[-71.060438,42.349434],[-71.060428,42.349451],[-71.060475,42.349449],[-71.060474,42.349461],[-71.060411,42.3495],[-71.060503,42.34949],[-71.060401,42.34954],[-71.060423,42.349557],[-71.060374,42.3496],[-71.060424,42.349608],[-71.060374,42.349644],[-71.060397,42.349651],[-71.06068,42.349531],[-71.060695,42.349506],[-71.060665,42.349473],[-71.060627,42.349473],[-71.060535,42.349511],[-71.060528,42.349491],[-71.060718,42.349415],[-71.060733,42.34939]]],[[[-71.060609,42.34967],[-71.060594,42.349645],[-71.060541,42.349637],[-71.060338,42.349721],[-71.060327,42.34976],[-71.060353,42.34978],[-71.060391,42.34978],[-71.060594,42.349695],[-71.060609,42.34967]]],[[[-71.060598,42.35304],[-71.06058,42.353027],[-71.060478,42.353067],[-71.060468,42.353084],[-71.060491,42.353091],[-71.060598,42.35304]]],[[[-71.060588,42.349342],[-71.06057,42.349329],[-71.060468,42.349369],[-71.060458,42.349386],[-71.060481,42.349393],[-71.060588,42.349342]]],[[[-71.060582,42.349792],[-71.060567,42.349765],[-71.06051,42.349757],[-71.060315,42.349836],[-71.060287,42.349857],[-71.060298,42.349898],[-71.060251,42.349931],[-71.060274,42.349938],[-71.06055,42.349827],[-71.060582,42.349792]]],[[[-71.060518,42.352997],[-71.0605,42.352984],[-71.060398,42.353024],[-71.060388,42.353041],[-71.060411,42.353048],[-71.060518,42.352997]]],[[[-71.060508,42.353283],[-71.06049,42.35327],[-71.06038,42.353312],[-71.060371,42.35333],[-71.060394,42.353337],[-71.060508,42.353283]]],[[[-71.060504,42.35315],[-71.060486,42.353137],[-71.060384,42.353177],[-71.060374,42.353194],[-71.060397,42.353201],[-71.060504,42.35315]]],[[[-71.060488,42.34964],[-71.06047,42.349627],[-71.060368,42.349667],[-71.060358,42.349684],[-71.060381,42.349691],[-71.060488,42.34964]]],[[[-71.060468,42.352974],[-71.06045,42.352961],[-71.06034,42.353003],[-71.060331,42.353021],[-71.060354,42.353028],[-71.060468,42.352974]]],[[[-71.060428,42.3531],[-71.06041,42.353087],[-71.060308,42.353127],[-71.060298,42.353144],[-71.060321,42.353151],[-71.060428,42.3531]]],[[[-71.060419,42.353405],[-71.060418,42.35338],[-71.0604,42.353367],[-71.060186,42.353453],[-71.060177,42.353484],[-71.060198,42.3535],[-71.060245,42.353499],[-71.060347,42.353459],[-71.060419,42.353405]]],[[[-71.060374,42.35307],[-71.060356,42.353057],[-71.060254,42.353097],[-71.060244,42.353114],[-71.060267,42.353121],[-71.060374,42.35307]]],[[[-71.060318,42.350037],[-71.0603,42.350024],[-71.060198,42.350064],[-71.060188,42.350081],[-71.060211,42.350088],[-71.060318,42.350037]]],[[[-71.060314,42.35015],[-71.060286,42.350118],[-71.060297,42.3501],[-71.060273,42.350093],[-71.060068,42.350191],[-71.060057,42.35023],[-71.060084,42.35025],[-71.060121,42.35025],[-71.060299,42.350175],[-71.060314,42.35015]]],[[[-71.060174,42.34947],[-71.060163,42.34945],[-71.06012,42.349443],[-71.059941,42.349518],[-71.059932,42.349549],[-71.059983,42.349565],[-71.060163,42.34949],[-71.060174,42.34947]]],[[[-71.060158,42.352962],[-71.06014,42.352949],[-71.060038,42.352989],[-71.060028,42.353006],[-71.060051,42.353013],[-71.060158,42.352962]]],[[[-71.060119,42.349556],[-71.060079,42.349536],[-71.059934,42.349595],[-71.059916,42.349615],[-71.059956,42.349635],[-71.060101,42.349576],[-71.060119,42.349556]]],[[[-71.060105,42.35341],[-71.060092,42.353386],[-71.060043,42.353379],[-71.059847,42.35346],[-71.059837,42.353497],[-71.059862,42.353515],[-71.059897,42.353515],[-71.060092,42.353434],[-71.060105,42.35341]]],[[[-71.060086,42.349644],[-71.060075,42.349625],[-71.060036,42.34962],[-71.059865,42.34969],[-71.059858,42.349719],[-71.059904,42.349733],[-71.060064,42.349668],[-71.060086,42.349644]]],[[[-71.059972,42.351044],[-71.05996,42.351022],[-71.059914,42.351015],[-71.059726,42.351093],[-71.059717,42.351127],[-71.059772,42.351144],[-71.05996,42.351066],[-71.059972,42.351044]]],[[[-71.059901,42.351135],[-71.059865,42.351117],[-71.059727,42.351174],[-71.059713,42.351199],[-71.059747,42.351209],[-71.059901,42.351135]]],[[[-71.059858,42.3533],[-71.05984,42.353287],[-71.059738,42.353327],[-71.059728,42.353344],[-71.059751,42.353351],[-71.059858,42.3533]]],[[[-71.059822,42.35326],[-71.05981,42.353238],[-71.059764,42.353231],[-71.059576,42.353309],[-71.059567,42.353343],[-71.059622,42.35336],[-71.05981,42.353282],[-71.059822,42.35326]]],[[[-71.059758,42.352753],[-71.05974,42.35274],[-71.05963,42.352782],[-71.059621,42.3528],[-71.059644,42.352807],[-71.059758,42.352753]]],[[[-71.059688,42.352737],[-71.05967,42.352724],[-71.05963,42.352738],[-71.059633,42.352725],[-71.059609,42.352718],[-71.059343,42.352824],[-71.059332,42.352863],[-71.059359,42.352883],[-71.059396,42.352883],[-71.059574,42.352808],[-71.059588,42.352786],[-71.059688,42.352737]]],[[[-71.059669,42.354954],[-71.059629,42.354934],[-71.059484,42.354993],[-71.059466,42.355013],[-71.059506,42.355033],[-71.059651,42.354974],[-71.059669,42.354954]]],[[[-71.059649,42.35171],[-71.059634,42.351685],[-71.059581,42.351677],[-71.059394,42.351747],[-71.059383,42.351766],[-71.059403,42.351802],[-71.059456,42.35181],[-71.059634,42.351735],[-71.059649,42.35171]]],[[[-71.059622,42.35492],[-71.059573,42.354873],[-71.059538,42.354868],[-71.059375,42.354935],[-71.059368,42.354961],[-71.059415,42.354999],[-71.05945,42.355004],[-71.059602,42.354942],[-71.059622,42.35492]]],[[[-71.059562,42.3516],[-71.059553,42.351583],[-71.059518,42.351578],[-71.059282,42.351666],[-71.059268,42.351691],[-71.059292,42.351703],[-71.059355,42.351679],[-71.05939,42.351684],[-71.059542,42.351622],[-71.059562,42.3516]]],[[[-71.059518,42.351097],[-71.0595,42.351084],[-71.059398,42.351124],[-71.059388,42.351141],[-71.059411,42.351148],[-71.059518,42.351097]]],[[[-71.059482,42.354813],[-71.059473,42.354796],[-71.059438,42.354791],[-71.059275,42.354858],[-71.059268,42.354884],[-71.05931,42.354897],[-71.059462,42.354835],[-71.059482,42.354813]]],[[[-71.059478,42.35117],[-71.05946,42.351157],[-71.059358,42.351197],[-71.059348,42.351214],[-71.059371,42.351221],[-71.059478,42.35117]]],[[[-71.059432,42.354774],[-71.059389,42.354714],[-71.059364,42.354707],[-71.059191,42.354774],[-71.059169,42.354798],[-71.059191,42.354822],[-71.059218,42.354822],[-71.059225,42.354853],[-71.059248,42.35486],[-71.059412,42.354796],[-71.059432,42.354774]]],[[[-71.059428,42.3531],[-71.05941,42.353087],[-71.059308,42.353127],[-71.059298,42.353144],[-71.059321,42.353151],[-71.059428,42.3531]]],[[[-71.059418,42.35301],[-71.0594,42.352997],[-71.059298,42.353037],[-71.059288,42.353054],[-71.059311,42.353061],[-71.059418,42.35301]]],[[[-71.059387,42.351704],[-71.059364,42.351687],[-71.059224,42.351742],[-71.059212,42.351764],[-71.059242,42.351773],[-71.059387,42.351704]]],[[[-71.059323,42.35178],[-71.0593,42.351763],[-71.05916,42.351818],[-71.059148,42.35184],[-71.059178,42.351849],[-71.059323,42.35178]]],[[[-71.059219,42.35129],[-71.059204,42.351265],[-71.059172,42.351254],[-71.059183,42.35123],[-71.05911,42.351194],[-71.058888,42.351281],[-71.058877,42.35132],[-71.058922,42.351343],[-71.059057,42.351293],[-71.058948,42.351341],[-71.058933,42.351367],[-71.058948,42.351392],[-71.058907,42.35142],[-71.058907,42.351447],[-71.058933,42.351467],[-71.058971,42.351467],[-71.059174,42.351382],[-71.059189,42.351357],[-71.059174,42.351332],[-71.059219,42.35129]]],[[[-71.059184,42.353294],[-71.059166,42.353281],[-71.059064,42.353321],[-71.059054,42.353338],[-71.059077,42.353345],[-71.059184,42.353294]]],[[[-71.059098,42.35146],[-71.05908,42.351447],[-71.058978,42.351487],[-71.058968,42.351504],[-71.058991,42.351511],[-71.059098,42.35146]]],[[[-71.059092,42.354385],[-71.059083,42.354368],[-71.059048,42.354363],[-71.058885,42.35443],[-71.058878,42.354456],[-71.05892,42.354469],[-71.059072,42.354407],[-71.059092,42.354385]]],[[[-71.059088,42.353287],[-71.05907,42.353274],[-71.058968,42.353314],[-71.058958,42.353331],[-71.058981,42.353338],[-71.059088,42.353287]]],[[[-71.059066,42.351517],[-71.05903,42.351499],[-71.058892,42.351556],[-71.058878,42.351581],[-71.058912,42.351591],[-71.059066,42.351517]]],[[[-71.059018,42.354332],[-71.059,42.354319],[-71.058898,42.354359],[-71.058888,42.354376],[-71.058911,42.354383],[-71.059018,42.354332]]],[[[-71.059006,42.351604],[-71.058995,42.351585],[-71.058956,42.35158],[-71.058785,42.35165],[-71.058778,42.351679],[-71.058797,42.351693],[-71.058715,42.351735],[-71.058708,42.351761],[-71.058608,42.351835],[-71.058608,42.351855],[-71.058522,42.351893],[-71.05851,42.351913],[-71.058522,42.351933],[-71.058476,42.35197],[-71.058289,42.352051],[-71.058275,42.352103],[-71.058227,42.352124],[-71.058217,42.352161],[-71.058242,42.352179],[-71.058277,42.352179],[-71.058472,42.352098],[-71.058485,42.352074],[-71.058569,42.352026],[-71.058598,42.351967],[-71.058683,42.351923],[-71.05869,42.351897],[-71.058744,42.351865],[-71.058777,42.351821],[-71.058875,42.351757],[-71.058883,42.351728],[-71.05892,42.351699],[-71.058913,42.351673],[-71.059006,42.351604]]],[[[-71.058998,42.353283],[-71.05898,42.35327],[-71.058878,42.35331],[-71.058868,42.353327],[-71.058891,42.353334],[-71.058998,42.353283]]],[[[-71.058959,42.35429],[-71.05894,42.354276],[-71.058809,42.354327],[-71.058798,42.354346],[-71.058824,42.354354],[-71.058959,42.35429]]],[[[-71.058864,42.353268],[-71.058846,42.353255],[-71.058744,42.353295],[-71.058734,42.353312],[-71.058757,42.353319],[-71.058864,42.353268]]],[[[-71.058758,42.353268],[-71.05874,42.353255],[-71.058638,42.353295],[-71.058628,42.353312],[-71.058651,42.353319],[-71.058758,42.353268]]],[[[-71.058568,42.35253],[-71.05855,42.352517],[-71.058499,42.352536],[-71.058507,42.352519],[-71.058483,42.352512],[-71.058425,42.352535],[-71.058498,42.352486],[-71.058473,42.352467],[-71.058349,42.352517],[-71.058323,42.352508],[-71.058228,42.352547],[-71.058218,42.352564],[-71.058241,42.352571],[-71.058337,42.352532],[-71.058291,42.352575],[-71.058314,42.352582],[-71.058379,42.352556],[-71.058378,42.352568],[-71.058401,42.352575],[-71.058446,42.352557],[-71.058438,42.352574],[-71.058461,42.352581],[-71.058568,42.35253]]],[[[-71.058388,42.35247],[-71.05837,42.352457],[-71.058243,42.3525],[-71.058148,42.352539],[-71.058138,42.352556],[-71.058161,42.352563],[-71.058388,42.35247]]],[[[-71.058288,42.35091],[-71.05827,42.350897],[-71.058168,42.350937],[-71.058158,42.350954],[-71.058181,42.350961],[-71.058288,42.35091]]],[[[-71.058278,42.352467],[-71.05826,42.352454],[-71.058158,42.352494],[-71.058148,42.352511],[-71.058171,42.352518],[-71.058278,42.352467]]],[[[-71.058218,42.350887],[-71.0582,42.350874],[-71.058098,42.350914],[-71.058088,42.350931],[-71.058111,42.350938],[-71.058218,42.350887]]],[[[-71.058038,42.352665],[-71.05802,42.352652],[-71.057918,42.352692],[-71.057908,42.352709],[-71.057931,42.352716],[-71.058038,42.352665]]],[[[-71.058032,42.352768],[-71.058014,42.352755],[-71.057912,42.352795],[-71.057902,42.352812],[-71.057925,42.352819],[-71.058032,42.352768]]],[[[-71.058008,42.352905],[-71.05799,42.352892],[-71.057888,42.352932],[-71.057878,42.352949],[-71.057901,42.352956],[-71.058008,42.352905]]],[[[-71.057803,42.350693],[-71.057785,42.35068],[-71.057683,42.35072],[-71.057673,42.350737],[-71.057696,42.350744],[-71.057803,42.350693]]],[[[-71.057758,42.350677],[-71.05774,42.350664],[-71.057638,42.350704],[-71.057628,42.350721],[-71.057651,42.350728],[-71.057758,42.350677]]],[[[-71.05775,42.352226],[-71.057714,42.352208],[-71.057576,42.352265],[-71.057562,42.35229],[-71.057596,42.3523],[-71.05775,42.352226]]],[[[-71.057623,42.35219],[-71.057583,42.35217],[-71.057438,42.352229],[-71.05742,42.352249],[-71.05746,42.352269],[-71.057605,42.35221],[-71.057623,42.35219]]],[[[-71.057536,42.35216],[-71.0575,42.352142],[-71.057362,42.352199],[-71.057348,42.352224],[-71.057382,42.352234],[-71.057536,42.35216]]],[[[-71.057456,42.35214],[-71.05742,42.352122],[-71.057282,42.352179],[-71.057268,42.352204],[-71.057302,42.352214],[-71.057456,42.35214]]],[[[-71.057414,42.350403],[-71.057396,42.35039],[-71.057294,42.35043],[-71.057284,42.350447],[-71.057307,42.350454],[-71.057414,42.350403]]],[[[-71.057398,42.350494],[-71.05738,42.350481],[-71.057278,42.350521],[-71.057268,42.350538],[-71.057291,42.350545],[-71.057398,42.350494]]],[[[-71.057369,42.35211],[-71.057329,42.35209],[-71.057184,42.352149],[-71.057166,42.352169],[-71.057206,42.352189],[-71.057351,42.35213],[-71.057369,42.35211]]],[[[-71.057348,42.351707],[-71.05733,42.351694],[-71.05722,42.351736],[-71.057211,42.351754],[-71.057234,42.351761],[-71.057348,42.351707]]],[[[-71.057338,42.35175],[-71.05732,42.351737],[-71.057218,42.351777],[-71.057208,42.351794],[-71.057231,42.351801],[-71.057338,42.35175]]],[[[-71.057309,42.351897],[-71.057291,42.351884],[-71.057189,42.351924],[-71.057179,42.351941],[-71.057202,42.351948],[-71.057309,42.351897]]],[[[-71.057298,42.351955],[-71.05728,42.351942],[-71.057185,42.351979],[-71.057175,42.351996],[-71.057199,42.352004],[-71.057298,42.351955]]],[[[-71.057298,42.350925],[-71.05728,42.350912],[-71.057163,42.350957],[-71.057153,42.350975],[-71.057177,42.350982],[-71.057298,42.350925]]],[[[-71.057268,42.351063],[-71.05725,42.35105],[-71.057133,42.351095],[-71.057123,42.351113],[-71.057147,42.35112],[-71.057268,42.351063]]],[[[-71.057208,42.35141],[-71.05719,42.351397],[-71.057088,42.351437],[-71.057078,42.351454],[-71.057101,42.351461],[-71.057208,42.35141]]],[[[-71.057198,42.35055],[-71.05718,42.350537],[-71.057078,42.350577],[-71.057068,42.350594],[-71.057091,42.350601],[-71.057198,42.35055]]],[[[-71.057147,42.350632],[-71.057129,42.350619],[-71.057027,42.350659],[-71.057017,42.350676],[-71.05704,42.350683],[-71.057147,42.350632]]],[[[-71.057094,42.350533],[-71.057076,42.35052],[-71.056974,42.35056],[-71.056964,42.350577],[-71.056987,42.350584],[-71.057094,42.350533]]],[[[-71.057038,42.34984],[-71.05702,42.349827],[-71.056918,42.349867],[-71.056908,42.349884],[-71.056931,42.349891],[-71.057038,42.34984]]],[[[-71.057022,42.349903],[-71.057013,42.349886],[-71.056978,42.349881],[-71.056815,42.349948],[-71.056808,42.349974],[-71.05685,42.349987],[-71.057002,42.349925],[-71.057022,42.349903]]],[[[-71.056868,42.352028],[-71.05685,42.352015],[-71.056726,42.352063],[-71.056716,42.352081],[-71.05674,42.352088],[-71.056868,42.352028]]],[[[-71.056834,42.35023],[-71.056816,42.350217],[-71.056714,42.350257],[-71.056704,42.350274],[-71.056727,42.350281],[-71.056834,42.35023]]],[[[-71.056829,42.34976],[-71.056818,42.34974],[-71.056775,42.349733],[-71.056596,42.349808],[-71.056587,42.349839],[-71.056638,42.349855],[-71.056818,42.34978],[-71.056829,42.34976]]],[[[-71.056798,42.350307],[-71.05678,42.350294],[-71.056678,42.350334],[-71.056668,42.350351],[-71.056691,42.350358],[-71.056798,42.350307]]],[[[-71.056792,42.34984],[-71.056783,42.349823],[-71.056748,42.349818],[-71.056585,42.349885],[-71.056578,42.349911],[-71.056595,42.349924],[-71.056528,42.349956],[-71.056514,42.349981],[-71.056528,42.350007],[-71.056555,42.350016],[-71.056483,42.350047],[-71.056472,42.350086],[-71.056499,42.350106],[-71.056536,42.350106],[-71.056714,42.350031],[-71.056725,42.349992],[-71.056688,42.349971],[-71.05677,42.349929],[-71.05677,42.349901],[-71.05673,42.34988],[-71.056792,42.34984]]],[[[-71.056748,42.351994],[-71.05673,42.351981],[-71.056613,42.352026],[-71.056603,42.352044],[-71.056627,42.352051],[-71.056748,42.351994]]],[[[-71.056659,42.350094],[-71.056619,42.350074],[-71.056474,42.350133],[-71.056456,42.350153],[-71.056496,42.350173],[-71.056641,42.350114],[-71.056659,42.350094]]],[[[-71.056643,42.350613],[-71.056625,42.3506],[-71.056501,42.350648],[-71.056491,42.350666],[-71.056515,42.350673],[-71.056643,42.350613]]],[[[-71.056626,42.353203],[-71.05659,42.353185],[-71.056452,42.353242],[-71.056438,42.353267],[-71.056472,42.353277],[-71.056626,42.353203]]],[[[-71.056622,42.350185],[-71.056613,42.350168],[-71.056578,42.350163],[-71.056415,42.35023],[-71.056408,42.350256],[-71.05645,42.350269],[-71.056602,42.350207],[-71.056622,42.350185]]],[[[-71.056608,42.35068],[-71.05659,42.350667],[-71.056466,42.350715],[-71.056456,42.350733],[-71.05648,42.35074],[-71.056608,42.35068]]],[[[-71.056559,42.353165],[-71.05654,42.353151],[-71.056409,42.353202],[-71.056398,42.353221],[-71.056424,42.353229],[-71.056559,42.353165]]],[[[-71.056559,42.350834],[-71.056544,42.350809],[-71.056491,42.350801],[-71.056313,42.350875],[-71.056302,42.350914],[-71.056329,42.350934],[-71.056366,42.350934],[-71.056544,42.350859],[-71.056559,42.350834]]],[[[-71.056484,42.353127],[-71.056465,42.353113],[-71.056334,42.353164],[-71.056323,42.353183],[-71.056349,42.353191],[-71.056484,42.353127]]],[[[-71.056468,42.35192],[-71.05645,42.351907],[-71.056326,42.351955],[-71.056316,42.351973],[-71.05634,42.35198],[-71.056468,42.35192]]],[[[-71.056428,42.35103],[-71.05641,42.351017],[-71.056308,42.351057],[-71.056298,42.351074],[-71.056321,42.351081],[-71.056428,42.35103]]],[[[-71.056398,42.351097],[-71.05638,42.351084],[-71.056256,42.351132],[-71.056246,42.35115],[-71.05627,42.351157],[-71.056398,42.351097]]],[[[-71.056393,42.35309],[-71.05637,42.353073],[-71.05623,42.353128],[-71.056218,42.35315],[-71.056248,42.353159],[-71.056393,42.35309]]],[[[-71.056388,42.3519],[-71.05637,42.351887],[-71.056275,42.351924],[-71.056265,42.351941],[-71.056289,42.351949],[-71.056388,42.3519]]],[[[-71.056364,42.351176],[-71.056346,42.351163],[-71.056244,42.351203],[-71.056234,42.35122],[-71.056257,42.351227],[-71.056364,42.351176]]],[[[-71.056338,42.35493],[-71.05632,42.354917],[-71.056196,42.354965],[-71.056186,42.354983],[-71.05621,42.35499],[-71.056338,42.35493]]],[[[-71.056328,42.354836],[-71.05631,42.354823],[-71.056186,42.354871],[-71.056176,42.354889],[-71.0562,42.354896],[-71.056328,42.354836]]],[[[-71.056309,42.35475],[-71.05629,42.354736],[-71.056159,42.354787],[-71.056148,42.354806],[-71.056174,42.354814],[-71.056309,42.35475]]],[[[-71.056306,42.35467],[-71.05627,42.354652],[-71.056132,42.354709],[-71.056118,42.354734],[-71.056152,42.354744],[-71.056306,42.35467]]],[[[-71.056258,42.351376],[-71.05624,42.351363],[-71.05613,42.351405],[-71.05613,42.35143],[-71.056102,42.351448],[-71.056111,42.351465],[-71.056071,42.351497],[-71.056094,42.351504],[-71.056197,42.351462],[-71.056197,42.351438],[-71.056238,42.351416],[-71.056228,42.351399],[-71.056258,42.351376]]],[[[-71.056256,42.350842],[-71.056238,42.350829],[-71.056114,42.350877],[-71.056104,42.350895],[-71.056128,42.350902],[-71.056256,42.350842]]],[[[-71.056248,42.35305],[-71.05623,42.353037],[-71.056128,42.353077],[-71.056118,42.353094],[-71.056141,42.353101],[-71.056248,42.35305]]],[[[-71.056226,42.350933],[-71.056208,42.35092],[-71.056084,42.350968],[-71.056074,42.350986],[-71.056098,42.350993],[-71.056226,42.350933]]],[[[-71.056186,42.351036],[-71.056168,42.351023],[-71.056044,42.351071],[-71.056034,42.351089],[-71.056058,42.351096],[-71.056186,42.351036]]],[[[-71.056148,42.351145],[-71.05613,42.351132],[-71.056006,42.35118],[-71.055996,42.351198],[-71.05602,42.351205],[-71.056148,42.351145]]],[[[-71.056078,42.35171],[-71.05606,42.351697],[-71.05595,42.351739],[-71.055941,42.351757],[-71.055964,42.351764],[-71.056078,42.35171]]],[[[-71.055977,42.351355],[-71.055959,42.351342],[-71.055835,42.35139],[-71.055825,42.351408],[-71.055849,42.351415],[-71.055977,42.351355]]],[[[-71.055953,42.351412],[-71.055935,42.351399],[-71.055811,42.351447],[-71.055801,42.351465],[-71.055825,42.351472],[-71.055953,42.351412]]],[[[-71.05592,42.351482],[-71.055902,42.351469],[-71.055778,42.351517],[-71.055768,42.351535],[-71.055792,42.351542],[-71.05592,42.351482]]],[[[-71.055888,42.351561],[-71.05587,42.351548],[-71.055746,42.351596],[-71.055736,42.351614],[-71.05576,42.351621],[-71.055888,42.351561]]],[[[-71.055869,42.352226],[-71.055854,42.352201],[-71.05582,42.35219],[-71.055639,42.352259],[-71.055612,42.352279],[-71.055612,42.352306],[-71.055578,42.352329],[-71.055578,42.352356],[-71.055605,42.352376],[-71.055642,42.352376],[-71.055805,42.352309],[-71.055869,42.352226]]],[[[-71.055859,42.351622],[-71.055841,42.351609],[-71.055717,42.351657],[-71.055707,42.351675],[-71.055731,42.351682],[-71.055859,42.351622]]],[[[-71.055808,42.351727],[-71.05579,42.351714],[-71.055666,42.351762],[-71.055656,42.35178],[-71.05568,42.351787],[-71.055808,42.351727]]],[[[-71.055788,42.353336],[-71.055779,42.353319],[-71.055744,42.353314],[-71.055591,42.353376],[-71.055574,42.353389],[-71.055581,42.353415],[-71.055529,42.353438],[-71.055484,42.353486],[-71.05551,42.353494],[-71.055706,42.353414],[-71.055724,42.353394],[-71.055716,42.353379],[-71.055788,42.353336]]],[[[-71.055788,42.351776],[-71.05577,42.351763],[-71.055646,42.351811],[-71.055636,42.351829],[-71.05566,42.351836],[-71.055788,42.351776]]],[[[-71.055558,42.353497],[-71.05554,42.353484],[-71.055416,42.353532],[-71.055361,42.353577],[-71.055384,42.353584],[-71.055558,42.353497]]],[[[-71.055262,42.353653],[-71.055244,42.35364],[-71.055199,42.353652],[-71.055054,42.353711],[-71.055016,42.353753],[-71.055039,42.35377],[-71.055179,42.353716],[-71.055262,42.353653]]]]},"properties":{"kind":"tree"}}]}