{"type":"FeatureCollection","features":[{"type":"Feature","geometry":{"type":"MultiPolygon","coordinates":[[[[-71.06703,42.351826],[-71.067007,42.351692],[-71.066747,42.351106],[-71.065467,42.351257],[-71.065195,42.351242],[-71.065991,42.350995],[-71.065959,42.350666],[-71.065798,42.350663],[-71.065953,42.350615],[-71.06593,42.350327],[-71.065758,42.350337],[-71.065625,42.35037],[-71.065537,42.350337],[-71.065916,42.350219],[-71.065881,42.34989],[-71.065776,42.349769],[-71.06566,42.349801],[-71.065665,42.349779],[-71.066095,42.349646],[-71.066018,42.349511],[-71.066107,42.349483],[-71.066051,42.349385],[-71.065793,42.349465],[-71.06562,42.349445],[-71.065521,42.349461],[-71.065067,42.349602],[-71.064416,42.349501],[-71.064256,42.349551],[-71.063961,42.349505],[-71.06492,42.349208],[-71.065083,42.349132],[-71.065279,42.349075],[-71.06533,42.348887],[-71.065326,42.348837],[-71.065705,42.348881],[-71.066458,42.348649],[-71.066483,42.348529],[-71.06591,42.348462],[-71.065995,42.348064],[-71.065837,42.348044],[-71.065479,42.348155],[-71.065475,42.348101],[-71.065402,42.348018],[-71.06552,42.347941],[-71.065529,42.347903],[-71.065483,42.347819],[-71.065392,42.347805],[-71.065371,42.347781],[-71.065289,42.347784],[-71.065318,42.347764],[-71.065319,42.347677],[-71.065257,42.347643],[-71.064894,42.347587],[-71.064515,42.347704],[-71.064124,42.3479],[-71.064104,42.347946],[-71.063968,42.347919],[-71.063555,42.348047],[-71.063606,42.347866],[-71.06346,42.347843],[-71.063201,42.347923],[-71.063187,42.347974],[-71.062961,42.347921],[-71.062839,42.347959],[-71.062735,42.347939],[-71.062425,42.348035],[-71.062384,42.348147],[-71.062469,42.348168],[-71.062322,42.348214],[-71.062255,42.348206],[-71.061984,42.34829],[-71.062034,42.348165],[-71.062411,42.348042],[-71.062446,42.347953],[-71.061926,42.347827],[-71.06177,42.347875],[-71.061866,42.34764],[-71.061712,42.347604],[-71.060585,42.347953],[-71.060453,42.34827],[-71.059251,42.348642],[-71.058789,42.349284],[-71.059026,42.349341],[-71.060786,42.348796],[-71.060809,42.34874],[-71.060885,42.348723],[-71.060857,42.348792],[-71.060963,42.348816],[-71.060737,42.348886],[-71.060698,42.34895],[-71.060571,42.348997],[-71.060552,42.349045],[-71.060574,42.34905],[-71.060518,42.3492],[-71.060443,42.349109],[-71.060321,42.349063],[-71.058561,42.349608],[-71.058413,42.349954],[-71.058372,42.349945],[-71.058275,42.349975],[-71.058289,42.349924],[-71.057874,42.34983],[-71.057463,42.349957],[-71.057471,42.349916],[-71.057547,42.349892],[-71.057615,42.349907],[-71.058297,42.349696],[-71.058424,42.349376],[-71.057926,42.349266],[-71.05768,42.349342],[-71.057627,42.349474],[-71.057051,42.349652],[-71.057032,42.349698],[-71.056617,42.349827],[-71.056752,42.349298],[-71.057988,42.348915],[-71.05807,42.348711],[-71.057613,42.348605],[-71.056343,42.348998],[-71.056259,42.349207],[-71.056334,42.349224],[-71.055419,42.349487],[-71.056683,42.347603],[-71.056673,42.347544],[-71.055908,42.347262],[-71.05543,42.34741],[-71.054276,42.349128],[-71.053969,42.349442],[-71.053936,42.349492],[-71.053931,42.34957],[-71.053636,42.349661],[-71.052666,42.351104],[-71.053247,42.351319],[-71.053843,42.351135],[-71.054122,42.351238],[-71.054337,42.351171],[-71.054654,42.3507],[-71.05473,42.350692],[-71.054886,42.350805],[-71.054969,42.350838],[-71.055085,42.350858],[-71.055653,42.350844],[-71.055902,42.350777],[-71.056021,42.350806],[-71.056192,42.350755],[-71.056259,42.350771],[-71.056092,42.350824],[-71.055974,42.351069],[-71.056073,42.351093],[-71.055902,42.351146],[-71.05576,42.351447],[-71.055829,42.351475],[-71.055553,42.35156],[-71.055498,42.351545],[-71.054479,42.351779],[-71.05371,42.352017],[-71.053538,42.352192],[-71.054064,42.35247],[-71.054224,42.352521],[-71.054392,42.352546],[-71.054569,42.352506],[-71.055216,42.352306],[-71.05527,42.35232],[-71.054798,42.352465],[-71.054536,42.352561],[-71.054528,42.352578],[-71.05138,42.353553],[-71.051091,42.353658],[-71.051014,42.353822],[-71.051608,42.353971],[-71.054725,42.353006],[-71.054743,42.353041],[-71.054872,42.353075],[-71.055455,42.352918],[-71.056859,42.352484],[-71.056903,42.352425],[-71.057129,42.352493],[-71.057943,42.352241],[-71.058071,42.35187],[-71.058095,42.351875],[-71.058558,42.351732],[-71.05877,42.351527],[-71.05892,42.351331],[-71.059038,42.351101],[-71.058895,42.351069],[-71.059198,42.350975],[-71.059326,42.350659],[-71.059375,42.350673],[-71.059356,42.350722],[-71.059566,42.350767],[-71.059688,42.350729],[-71.059739,42.35074],[-71.059808,42.350808],[-71.059749,42.350933],[-71.059719,42.350942],[-71.059565,42.351294],[-71.059617,42.351306],[-71.059181,42.351441],[-71.059132,42.35157],[-71.059142,42.351632],[-71.059106,42.351643],[-71.059135,42.35182],[-71.059238,42.351811],[-71.059251,42.35189],[-71.058734,42.35205],[-71.05875,42.352159],[-71.056775,42.35278],[-71.056622,42.35288],[-71.056563,42.352954],[-71.056524,42.353047],[-71.056296,42.353121],[-71.056242,42.353099],[-71.054472,42.353643],[-71.054233,42.353771],[-71.054252,42.353843],[-71.054196,42.353874],[-71.054235,42.35389],[-71.054228,42.35396],[-71.054185,42.354006],[-71.054219,42.354041],[-71.054216,42.35407],[-71.054245,42.354072],[-71.051538,42.354909],[-71.051136,42.355118],[-71.0511,42.355169],[-71.051109,42.355213],[-71.051364,42.355478],[-71.051414,42.355492],[-71.052624,42.355124],[-71.052433,42.355188],[-71.052118,42.355376],[-71.052118,42.355396],[-71.052053,42.355459],[-71.052121,42.355529],[-71.052218,42.355506],[-71.052278,42.355562],[-71.052328,42.355566],[-71.052646,42.355468],[-71.052667,42.355487],[-71.053868,42.355115],[-71.053922,42.355166],[-71.054023,42.355135],[-71.054094,42.355159],[-71.054441,42.355052],[-71.053751,42.35527],[-71.053647,42.355323],[-71.053665,42.355425],[-71.050789,42.356315],[-71.050895,42.356893],[-71.051347,42.356849],[-71.053857,42.356072],[-71.054351,42.35603],[-71.054457,42.356002],[-71.056364,42.355412],[-71.056358,42.355381],[-71.056973,42.35519],[-71.05705,42.355343],[-71.057177,42.355358],[-71.058106,42.355071],[-71.057944,42.355221],[-71.057039,42.355501],[-71.056942,42.355572],[-71.056662,42.355847],[-71.056736,42.355902],[-71.057028,42.356021],[-71.058586,42.355539],[-71.058623,42.355555],[-71.059093,42.35541],[-71.059136,42.355443],[-71.05945,42.355346],[-71.059483,42.355372],[-71.059824,42.355266],[-71.060142,42.355494],[-71.060491,42.355389],[-71.060528,42.35536],[-71.060696,42.355442],[-71.061035,42.355338],[-71.061209,42.355389],[-71.061249,42.355377],[-71.061388,42.355411],[-71.061609,42.355343],[-71.061661,42.355369],[-71.061775,42.355334],[-71.061817,42.355357],[-71.062027,42.355292],[-71.062186,42.35537],[-71.062321,42.355333],[-71.062483,42.355418],[-71.063118,42.355222],[-71.06318,42.355155],[-71.063085,42.355097],[-71.063255,42.355044],[-71.063852,42.353943],[-71.063862,42.353896],[-71.063775,42.353869],[-71.063892,42.353833],[-71.063985,42.353676],[-71.063998,42.353634],[-71.063896,42.353602],[-71.064052,42.353554],[-71.064097,42.353425],[-71.06387,42.353381],[-71.064146,42.353296],[-71.064309,42.35284],[-71.064239,42.352835],[-71.064309,42.352812],[-71.064338,42.352689],[-71.064431,42.352693],[-71.06453,42.352663],[-71.064594,42.352677],[-71.064661,42.352657],[-71.064656,42.352686],[-71.064853,42.352701],[-71.065287,42.352567],[-71.065291,42.352596],[-71.065387,42.352601],[-71.066063,42.352392],[-71.066075,42.352229],[-71.06627,42.352169],[-71.066283,42.352057],[-71.06703,42.351826]],[[-71.064991,42.350505],[-71.064969,42.350593],[-71.064944,42.350601],[-71.064934,42.350644],[-71.06496,42.350644],[-71.064948,42.350733],[-71.064871,42.350757],[-71.064902,42.350642],[-71.064881,42.350634],[-71.0649,42.350628],[-71.064927,42.350525],[-71.064991,42.350505]],[[-71.064868,42.348362],[-71.064826,42.348558],[-71.064768,42.348587],[-71.064442,42.348555],[-71.064806,42.348442],[-71.064854,42.348346],[-71.064868,42.348362]],[[-71.064577,42.348215],[-71.063831,42.348445],[-71.063623,42.348413],[-71.063454,42.348465],[-71.063476,42.348381],[-71.063434,42.348375],[-71.063481,42.34836],[-71.063695,42.348392],[-71.06397,42.348307],[-71.063961,42.348337],[-71.063997,42.348343],[-71.064074,42.348319],[-71.064084,42.34833],[-71.06451,42.348198],[-71.064577,42.348215]],[[-71.06405,42.348676],[-71.063913,42.349062],[-71.064029,42.349081],[-71.064025,42.349095],[-71.063796,42.349167],[-71.063749,42.349274],[-71.063773,42.349302],[-71.063698,42.349337],[-71.063746,42.349213],[-71.063772,42.349073],[-71.063736,42.349067],[-71.063827,42.348879],[-71.063869,42.348732],[-71.06405,42.348676]],[[-71.063899,42.349496],[-71.063761,42.349475],[-71.063653,42.349372],[-71.063684,42.34935],[-71.063899,42.349496]],[[-71.063315,42.351073],[-71.063049,42.351044],[-71.06284,42.351109],[-71.062845,42.35109],[-71.063117,42.351006],[-71.063315,42.351073]],[[-71.063148,42.348117],[-71.063137,42.348156],[-71.063123,42.348161],[-71.062961,42.348136],[-71.063047,42.348148],[-71.063148,42.348117]],[[-71.062994,42.352425],[-71.062819,42.352444],[-71.062981,42.352393],[-71.062994,42.352425]],[[-71.062835,42.348106],[-71.062825,42.348138],[-71.062771,42.348155],[-71.062777,42.348131],[-71.062764,42.348128],[-71.062835,42.348106]],[[-71.062736,42.352453],[-71.06245,42.352539],[-71.062452,42.352508],[-71.062412,42.352483],[-71.061916,42.352525],[-71.062302,42.352405],[-71.062736,42.352453]],[[-71.062562,42.348254],[-71.062326,42.348336],[-71.062344,42.348289],[-71.062416,42.348299],[-71.062562,42.348254]],[[-71.062074,42.348836],[-71.061895,42.348891],[-71.061795,42.34914],[-71.061723,42.349143],[-71.061783,42.348996],[-71.061752,42.348989],[-71.061778,42.348981],[-71.061895,42.34873],[-71.061814,42.348712],[-71.061858,42.348602],[-71.061982,42.348631],[-71.061911,42.34881],[-71.062074,42.348836]],[[-71.061549,42.348309],[-71.061538,42.348336],[-71.061477,42.348322],[-71.061549,42.348309]],[[-71.061385,42.348317],[-71.061302,42.348343],[-71.061269,42.348334],[-71.061284,42.348296],[-71.061385,42.348317]],[[-71.061367,42.348761],[-71.061364,42.348768],[-71.061351,42.348766],[-71.061367,42.348761]],[[-71.061138,42.35159],[-71.061052,42.351616],[-71.061059,42.351592],[-71.061138,42.35159]],[[-71.06086,42.350938],[-71.060845,42.350991],[-71.060769,42.350979],[-71.060573,42.35104],[-71.060595,42.350984],[-71.060568,42.350978],[-71.060597,42.350908],[-71.060703,42.350931],[-71.060814,42.350918],[-71.06086,42.350938]],[[-71.060831,42.349471],[-71.060425,42.349606],[-71.06053,42.349349],[-71.060831,42.349471]],[[-71.060285,42.349789],[-71.060274,42.349819],[-71.060261,42.349801],[-71.060285,42.349789]],[[-71.060014,42.352161],[-71.059695,42.35226],[-71.059687,42.352209],[-71.06,42.352112],[-71.060014,42.352161]],[[-71.059826,42.35339],[-71.059775,42.353447],[-71.059793,42.353464],[-71.059768,42.353471],[-71.059682,42.353434],[-71.059826,42.35339]],[[-71.057571,42.354814],[-71.057451,42.354931],[-71.057335,42.354967],[-71.057329,42.354923],[-71.057073,42.35482],[-71.057304,42.354896],[-71.057571,42.354814]],[[-71.057184,42.354368],[-71.056927,42.354762],[-71.05689,42.354747],[-71.056502,42.354776],[-71.056263,42.35485],[-71.056229,42.354666],[-71.05621,42.354657],[-71.057165,42.354361],[-71.057184,42.354368]]],[[[-71.065565,42.354342],[-71.065534,42.354305],[-71.065487,42.354301],[-71.065228,42.354382],[-71.065204,42.354407],[-71.065204,42.354432],[-71.065239,42.354461],[-71.065286,42.354462],[-71.065534,42.354385],[-71.065565,42.354342]]],[[[-71.065421,42.352871],[-71.065303,42.352844],[-71.06517,42.352885],[-71.065153,42.352932],[-71.065179,42.353013],[-71.065245,42.353027],[-71.065378,42.352986],[-71.065421,42.352871]]],[[[-71.06461,42.353278],[-71.064542,42.353266],[-71.064444,42.353296],[-71.06441,42.353396],[-71.064478,42.35341],[-71.064576,42.35338],[-71.06461,42.353278]]],[[[-71.063935,42.354829],[-71.063869,42.354811],[-71.063775,42.35484],[-71.063752,42.354889],[-71.063818,42.354906],[-71.063912,42.354877],[-71.063935,42.354829]]]]},"properties":{"kind":"building"}},{"type":"Feature","geometry":{"type":"MultiPolygon","coordinates":[[[[-71.066058,42.353451],[-71.066047,42.35341],[-71.066015,42.353375],[-71.065912,42.353343],[-71.065561,42.353443],[-71.065467,42.353403],[-71.06586,42.353283],[-71.065911,42.353246],[-71.065911,42.353192],[-71.06586,42.353155],[-71.065981,42.353102],[-71.066007,42.353073],[-71.066016,42.353039],[-71.065995,42.352992],[-71.066039,42.352955],[-71.066048,42.352923],[-71.066021,42.352832],[-71.065942,42.352773],[-71.065886,42.352765],[-71.065772,42.352791],[-71.065768,42.352761],[-71.065724,42.352729],[-71.066,42.352636],[-71.066022,42.352597],[-71.066,42.352558],[-71.065947,42.352542],[-71.065874,42.35256],[-71.065812,42.352534],[-71.065753,42.352548],[-71.065688,42.352518],[-71.065464,42.352583],[-71.065434,42.352533],[-71.065361,42.35251],[-71.065109,42.352582],[-71.065081,42.35253],[-71.065012,42.352509],[-71.064554,42.352651],[-71.064525,42.352702],[-71.064533,42.352729],[-71.064585,42.352768],[-71.06466,42.352768],[-71.06485,42.352709],[-71.064879,42.352768],[-71.064953,42.35279],[-71.065124,42.352743],[-71.064828,42.35284],[-71.064811,42.352871],[-71.064843,42.352908],[-71.064831,42.352953],[-71.064791,42.352933],[-71.064699,42.352933],[-71.064244,42.353074],[-71.064179,42.353122],[-71.06417,42.353156],[-71.064188,42.3532],[-71.064164,42.353257],[-71.064175,42.353298],[-71.064254,42.353356],[-71.064154,42.353397],[-71.06413,42.353424],[-71.06413,42.353486],[-71.064154,42.353513],[-71.064232,42.353537],[-71.064547,42.35345],[-71.064633,42.353451],[-71.064638,42.353463],[-71.064161,42.353607],[-71.064139,42.353631],[-71.064136,42.353675],[-71.064077,42.353698],[-71.064063,42.35375],[-71.064029,42.353783],[-71.064036,42.353828],[-71.064013,42.35386],[-71.064046,42.353897],[-71.064039,42.353905],[-71.063917,42.353954],[-71.063878,42.353945],[-71.063666,42.354012],[-71.063659,42.354039],[-71.063689,42.354053],[-71.0639,42.35399],[-71.063902,42.354074],[-71.063977,42.354111],[-71.064171,42.354056],[-71.063895,42.354147],[-71.063878,42.354166],[-71.063876,42.354206],[-71.063785,42.354251],[-71.06378,42.354272],[-71.063801,42.35431],[-71.063677,42.354357],[-71.063646,42.354392],[-71.063642,42.35446],[-71.063612,42.354505],[-71.063619,42.354528],[-71.063451,42.354596],[-71.06342,42.354631],[-71.063414,42.354694],[-71.063286,42.354733],[-71.063256,42.354766],[-71.063271,42.354792],[-71.063305,42.354802],[-71.063465,42.354756],[-71.063482,42.354764],[-71.063226,42.354833],[-71.0632,42.354853],[-71.0632,42.35488],[-71.063245,42.354902],[-71.063435,42.354847],[-71.063416,42.354883],[-71.063422,42.354905],[-71.063494,42.354941],[-71.063857,42.354833],[-71.063893,42.354809],[-71.063945,42.354836],[-71.063917,42.354878],[-71.063938,42.354916],[-71.064016,42.354927],[-71.064354,42.354818],[-71.064374,42.354781],[-71.06436,42.354751],[-71.064439,42.354724],[-71.064451,42.354679],[-71.06454,42.354638],[-71.064588,42.354635],[-71.065049,42.35449],[-71.065067,42.354458],[-71.065029,42.354416],[-71.064946,42.354427],[-71.064899,42.354414],[-71.064803,42.354439],[-71.064753,42.354382],[-71.06494,42.354321],[-71.064955,42.354294],[-71.064928,42.354261],[-71.065082,42.35421],[-71.065099,42.354179],[-71.065082,42.354148],[-71.065231,42.354095],[-71.065244,42.354047],[-71.065361,42.354004],[-71.06538,42.35397],[-71.065596,42.353881],[-71.065596,42.353851],[-71.065568,42.353831],[-71.065483,42.353845],[-71.065468,42.353834],[-71.065608,42.353787],[-71.065625,42.353756],[-71.065608,42.353725],[-71.065567,42.353713],[-71.065402,42.35376],[-71.065383,42.353747],[-71.065968,42.353551],[-71.066015,42.353527],[-71.066047,42.353492],[-71.066058,42.353451]],[[-71.065598,42.352748],[-71.065154,42.352897],[-71.065142,42.352887],[-71.065175,42.352866],[-71.065175,42.352838],[-71.065238,42.352837],[-71.065569,42.352734],[-71.065598,42.352748]],[[-71.065425,42.353403],[-71.065376,42.353413],[-71.065348,42.353389],[-71.065368,42.353379],[-71.065425,42.353403]],[[-71.065318,42.353668],[-71.065158,42.353721],[-71.06514,42.353754],[-71.065167,42.35379],[-71.064995,42.353848],[-71.064975,42.353883],[-71.064991,42.353915],[-71.064927,42.353935],[-71.064854,42.3539],[-71.06478,42.353918],[-71.064779,42.353878],[-71.064762,42.353859],[-71.064707,42.353842],[-71.064637,42.353859],[-71.064632,42.353832],[-71.064588,42.3538],[-71.064505,42.353806],[-71.064437,42.353774],[-71.064388,42.353785],[-71.064386,42.353761],[-71.064444,42.353728],[-71.064444,42.353692],[-71.064471,42.353666],[-71.064584,42.353631],[-71.064616,42.353681],[-71.064656,42.353701],[-71.064703,42.353708],[-71.064824,42.353678],[-71.064861,42.353734],[-71.064965,42.353766],[-71.065318,42.353668]],[[-71.065022,42.353064],[-71.064935,42.353091],[-71.064908,42.353044],[-71.064983,42.353021],[-71.064987,42.353057],[-71.065022,42.353064]],[[-71.064966,42.354087],[-71.064599,42.354214],[-71.064569,42.354247],[-71.064597,42.354279],[-71.06438,42.354346],[-71.06441,42.354284],[-71.064399,42.354244],[-71.064602,42.354175],[-71.064625,42.354149],[-71.064627,42.354095],[-71.064746,42.354059],[-71.064741,42.354101],[-71.064801,42.35413],[-71.064966,42.354087]],[[-71.064905,42.35319],[-71.064863,42.353202],[-71.064894,42.353184],[-71.064905,42.35319]],[[-71.064349,42.354436],[-71.064323,42.354455],[-71.064322,42.35448],[-71.064179,42.354541],[-71.064173,42.354482],[-71.064132,42.354442],[-71.06432,42.354384],[-71.064349,42.354436]],[[-71.064176,42.354586],[-71.064145,42.354595],[-71.064173,42.354564],[-71.064176,42.354586]],[[-71.064076,42.354668],[-71.064021,42.354688],[-71.06401,42.354729],[-71.063906,42.354767],[-71.063956,42.354731],[-71.063962,42.354707],[-71.063943,42.354669],[-71.064076,42.354628],[-71.064076,42.354668]]],[[[-71.066046,42.354972],[-71.066026,42.354936],[-71.065952,42.354925],[-71.065647,42.35502],[-71.065605,42.355066],[-71.065647,42.355113],[-71.065699,42.355113],[-71.066004,42.355019],[-71.066046,42.354972]]],[[[-71.06602,42.354061],[-71.065981,42.354032],[-71.06587,42.354048],[-71.065622,42.354125],[-71.065592,42.354158],[-71.065622,42.354191],[-71.065659,42.354191],[-71.065996,42.354088],[-71.06602,42.354061]]],[[[-71.06597,42.354146],[-71.065947,42.354129],[-71.065765,42.354184],[-71.065753,42.354206],[-71.065782,42.354215],[-71.06597,42.354146]]],[[[-71.065865,42.354468],[-71.065827,42.3544],[-71.065785,42.354379],[-71.065685,42.354379],[-71.065202,42.354529],[-71.065132,42.354581],[-71.065125,42.354629],[-71.064993,42.35467],[-71.064995,42.354656],[-71.065098,42.354609],[-71.065085,42.35456],[-71.065017,42.35455],[-71.0645,42.354714],[-71.06445,42.35475],[-71.064443,42.354776],[-71.06447,42.354823],[-71.0645,42.354838],[-71.064595,42.35485],[-71.064728,42.354809],[-71.064792,42.354769],[-71.064796,42.354791],[-71.06464,42.35484],[-71.064606,42.354878],[-71.06464,42.354915],[-71.064742,42.354897],[-71.064792,42.354911],[-71.064359,42.355041],[-71.064303,42.355083],[-71.064303,42.355142],[-71.064359,42.355183],[-71.064438,42.355183],[-71.064847,42.355057],[-71.064903,42.355015],[-71.064911,42.354986],[-71.064889,42.354941],[-71.064912,42.354936],[-71.064933,42.35497],[-71.064973,42.354984],[-71.065008,42.355051],[-71.065095,42.355078],[-71.065607,42.354927],[-71.065674,42.354878],[-71.065683,42.354843],[-71.065647,42.354779],[-71.06556,42.354752],[-71.065483,42.354768],[-71.065466,42.354722],[-71.065418,42.354708],[-71.06535,42.354724],[-71.065351,42.354697],[-71.065785,42.354557],[-71.065827,42.354536],[-71.065865,42.354468]]],[[[-71.06583,42.348038],[-71.065811,42.348004],[-71.06574,42.347994],[-71.065445,42.348085],[-71.06541,42.348111],[-71.065387,42.348154],[-71.065494,42.348174],[-71.06579,42.348082],[-71.06583,42.348038]]],[[[-71.06579,42.34818],[-71.065774,42.348151],[-71.065735,42.348139],[-71.065447,42.348225],[-71.065417,42.348247],[-71.065425,42.348287],[-71.06518,42.348362],[-71.065147,42.348387],[-71.065147,42.348422],[-71.06518,42.348447],[-71.065228,42.348447],[-71.065514,42.348358],[-71.065547,42.348333],[-71.065536,42.348286],[-71.065756,42.348218],[-71.06579,42.34818]]],[[[-71.065764,42.353939],[-71.065749,42.353914],[-71.065715,42.353903],[-71.065448,42.353983],[-71.065422,42.354002],[-71.065421,42.354026],[-71.065371,42.354053],[-71.065371,42.354081],[-71.065397,42.3541],[-71.065434,42.3541],[-71.065683,42.354023],[-71.065709,42.354004],[-71.06571,42.35398],[-71.065749,42.353964],[-71.065764,42.353939]]],[[[-71.065738,42.348446],[-71.065721,42.348415],[-71.065658,42.348406],[-71.065381,42.348492],[-71.065345,42.348532],[-71.065381,42.348571],[-71.065426,42.348571],[-71.065702,42.348486],[-71.065738,42.348446]]],[[[-71.065728,42.348293],[-71.06571,42.34828],[-71.065577,42.34832],[-71.065567,42.348337],[-71.065591,42.348345],[-71.065728,42.348293]]],[[[-71.065598,42.348957],[-71.06558,42.348944],[-71.065456,42.348981],[-71.065446,42.348998],[-71.06547,42.349006],[-71.065598,42.348957]]],[[[-71.065588,42.351223],[-71.06557,42.35121],[-71.065418,42.351255],[-71.065408,42.351273],[-71.065432,42.35128],[-71.065588,42.351223]]],[[[-71.065562,42.349094],[-71.065544,42.349081],[-71.06542,42.349118],[-71.06541,42.349135],[-71.065434,42.349143],[-71.065562,42.349094]]],[[[-71.065559,42.349236],[-71.065544,42.349211],[-71.065491,42.349203],[-71.065277,42.349269],[-71.065246,42.349302],[-71.065277,42.349336],[-71.065314,42.349336],[-71.065529,42.349269],[-71.065559,42.349236]]],[[[-71.065483,42.348446],[-71.06546,42.348429],[-71.065278,42.348484],[-71.065266,42.348506],[-71.065295,42.348515],[-71.065483,42.348446]]],[[[-71.065433,42.34879],[-71.065418,42.348765],[-71.065365,42.348757],[-71.065151,42.348823],[-71.06512,42.348856],[-71.065151,42.34889],[-71.065188,42.34889],[-71.065403,42.348823],[-71.065433,42.34879]]],[[[-71.065396,42.34894],[-71.065385,42.348921],[-71.065346,42.348916],[-71.065136,42.348981],[-71.065114,42.349005],[-71.065136,42.34903],[-71.065163,42.34903],[-71.065374,42.348964],[-71.065396,42.34894]]],[[[-71.065379,42.34907],[-71.065364,42.349045],[-71.065311,42.349037],[-71.065063,42.349114],[-71.065033,42.349147],[-71.065063,42.34918],[-71.0651,42.34918],[-71.065349,42.349103],[-71.065379,42.34907]]],[[[-71.065368,42.35121],[-71.06535,42.351197],[-71.065207,42.35124],[-71.065198,42.351257],[-71.065221,42.351264],[-71.065368,42.35121]]],[[[-71.065268,42.35121],[-71.06525,42.351197],[-71.065117,42.351237],[-71.065107,42.351254],[-71.065131,42.351262],[-71.065268,42.35121]]],[[[-71.065176,42.35072],[-71.06514,42.350702],[-71.064957,42.350759],[-71.064943,42.350784],[-71.064977,42.350794],[-71.06516,42.350738],[-71.065176,42.35072]]],[[[-71.065151,42.350784],[-71.065115,42.350766],[-71.064932,42.350823],[-71.064918,42.350848],[-71.064952,42.350858],[-71.065135,42.350802],[-71.065151,42.350784]]],[[[-71.065129,42.350853],[-71.06511,42.350839],[-71.064939,42.35089],[-71.064928,42.350909],[-71.064954,42.350917],[-71.065129,42.350853]]],[[[-71.064944,42.35131],[-71.064926,42.351297],[-71.064783,42.35134],[-71.064774,42.351357],[-71.064797,42.351364],[-71.064944,42.35131]]],[[[-71.064857,42.348456],[-71.064839,42.348443],[-71.064706,42.348483],[-71.064696,42.3485],[-71.06472,42.348508],[-71.064857,42.348456]]],[[[-71.064624,42.351826],[-71.064606,42.351813],[-71.064473,42.351853],[-71.064463,42.35187],[-71.064487,42.351878],[-71.064624,42.351826]]],[[[-71.064621,42.348425],[-71.064603,42.348412],[-71.06447,42.348452],[-71.06446,42.348469],[-71.064484,42.348477],[-71.064621,42.348425]]],[[[-71.064568,42.352055],[-71.06455,42.352042],[-71.064407,42.352085],[-71.064398,42.352102],[-71.064421,42.352109],[-71.064568,42.352055]]],[[[-71.064564,42.352104],[-71.064545,42.35209],[-71.064374,42.352141],[-71.064363,42.35216],[-71.064389,42.352168],[-71.064564,42.352104]]],[[[-71.064548,42.35216],[-71.06453,42.352147],[-71.064397,42.352187],[-71.064387,42.352204],[-71.064411,42.352212],[-71.064548,42.35216]]],[[[-71.064436,42.348399],[-71.064418,42.348386],[-71.064285,42.348426],[-71.064275,42.348443],[-71.064299,42.348451],[-71.064436,42.348399]]],[[[-71.064238,42.350925],[-71.06422,42.350912],[-71.064087,42.350952],[-71.064077,42.350969],[-71.064101,42.350977],[-71.064238,42.350925]]],[[[-71.064209,42.34872],[-71.064186,42.348703],[-71.064004,42.348758],[-71.063992,42.34878],[-71.064021,42.348789],[-71.064209,42.34872]]],[[[-71.064168,42.34884],[-71.06415,42.348827],[-71.063989,42.348875],[-71.063979,42.348893],[-71.064003,42.3489],[-71.064168,42.34884]]],[[[-71.064148,42.350914],[-71.06413,42.350901],[-71.064082,42.350914],[-71.06405,42.35089],[-71.06397,42.350913],[-71.063962,42.350883],[-71.063934,42.350874],[-71.063699,42.350945],[-71.063675,42.350971],[-71.063714,42.351],[-71.063818,42.35097],[-71.063826,42.350993],[-71.063849,42.351],[-71.063988,42.350959],[-71.064011,42.350966],[-71.064148,42.350914]]],[[[-71.064088,42.3533],[-71.06407,42.353287],[-71.063909,42.353335],[-71.063899,42.353353],[-71.063923,42.35336],[-71.064088,42.3533]]],[[[-71.064049,42.35339],[-71.06403,42.353376],[-71.063984,42.353389],[-71.063965,42.353372],[-71.063923,42.353383],[-71.06391,42.353361],[-71.063749,42.353409],[-71.063739,42.353427],[-71.063787,42.353427],[-71.063801,42.353451],[-71.063847,42.353438],[-71.063866,42.353455],[-71.064049,42.35339]]],[[[-71.064013,42.353283],[-71.063995,42.35327],[-71.063834,42.353318],[-71.063824,42.353336],[-71.063848,42.353343],[-71.064013,42.353283]]],[[[-71.063998,42.35376],[-71.06398,42.353747],[-71.063819,42.353795],[-71.063809,42.353813],[-71.063833,42.35382],[-71.063998,42.35376]]],[[[-71.063943,42.353268],[-71.06392,42.353251],[-71.063738,42.353306],[-71.063726,42.353328],[-71.063755,42.353337],[-71.063943,42.353268]]],[[[-71.063915,42.348675],[-71.063896,42.348661],[-71.063725,42.348712],[-71.063714,42.348731],[-71.06374,42.348739],[-71.063915,42.348675]]],[[[-71.063893,42.348743],[-71.06387,42.348726],[-71.063688,42.348781],[-71.063676,42.348803],[-71.063705,42.348812],[-71.063893,42.348743]]],[[[-71.063879,42.34887],[-71.06386,42.348856],[-71.063689,42.348907],[-71.063678,42.348926],[-71.063704,42.348934],[-71.063879,42.34887]]],[[[-71.063873,42.348793],[-71.063855,42.34878],[-71.063722,42.34882],[-71.063712,42.348837],[-71.063736,42.348845],[-71.063873,42.348793]]],[[[-71.063821,42.349148],[-71.063803,42.349135],[-71.06367,42.349175],[-71.06366,42.349192],[-71.063684,42.3492],[-71.063821,42.349148]]],[[[-71.063816,42.35412],[-71.06378,42.354102],[-71.063597,42.354159],[-71.063583,42.354184],[-71.063617,42.354194],[-71.0638,42.354138],[-71.063816,42.35412]]],[[[-71.063808,42.348427],[-71.06379,42.348414],[-71.063657,42.348454],[-71.063647,42.348471],[-71.063671,42.348479],[-71.063808,42.348427]]],[[[-71.063768,42.349293],[-71.06375,42.34928],[-71.063617,42.34932],[-71.063607,42.349337],[-71.063631,42.349345],[-71.063768,42.349293]]],[[[-71.063755,42.349335],[-71.063737,42.349322],[-71.063604,42.349362],[-71.063594,42.349379],[-71.063618,42.349387],[-71.063755,42.349335]]],[[[-71.063718,42.34841],[-71.0637,42.348397],[-71.063567,42.348437],[-71.063557,42.348454],[-71.063581,42.348462],[-71.063718,42.34841]]],[[[-71.063707,42.350883],[-71.063675,42.350859],[-71.063613,42.350876],[-71.06359,42.350859],[-71.063543,42.350872],[-71.063544,42.350857],[-71.06352,42.350845],[-71.063327,42.350903],[-71.063313,42.350928],[-71.063337,42.35094],[-71.063396,42.350923],[-71.063408,42.350945],[-71.063443,42.35094],[-71.063451,42.350962],[-71.063474,42.350969],[-71.063687,42.350905],[-71.063707,42.350883]]],[[[-71.063689,42.34976],[-71.06367,42.349746],[-71.063499,42.349797],[-71.063488,42.349816],[-71.063514,42.349824],[-71.063689,42.34976]]],[[[-71.063632,42.349854],[-71.063614,42.349841],[-71.063453,42.349889],[-71.063443,42.349907],[-71.063467,42.349914],[-71.063632,42.349854]]],[[[-71.063579,42.34995],[-71.06356,42.349936],[-71.063389,42.349987],[-71.063378,42.350006],[-71.063404,42.350014],[-71.063579,42.34995]]],[[[-71.063548,42.35],[-71.06353,42.349987],[-71.063369,42.350035],[-71.063359,42.350053],[-71.063383,42.35006],[-71.063548,42.35]]],[[[-71.063458,42.350418],[-71.06344,42.350405],[-71.063328,42.350438],[-71.063303,42.350428],[-71.063167,42.35047],[-71.063158,42.350487],[-71.063181,42.350494],[-71.063268,42.350468],[-71.063128,42.350515],[-71.063118,42.350533],[-71.063142,42.35054],[-71.063287,42.350495],[-71.063297,42.350478],[-71.063458,42.350418]]],[[[-71.063458,42.35018],[-71.06344,42.350167],[-71.063288,42.350212],[-71.063278,42.35023],[-71.063302,42.350237],[-71.063458,42.35018]]],[[[-71.063434,42.350487],[-71.063416,42.350474],[-71.063103,42.350568],[-71.063093,42.350586],[-71.063117,42.350593],[-71.063434,42.350487]]],[[[-71.063428,42.350246],[-71.06341,42.350233],[-71.063258,42.350278],[-71.063258,42.350303],[-71.063223,42.35033],[-71.063247,42.350337],[-71.063392,42.350292],[-71.063392,42.350268],[-71.063428,42.350246]]],[[[-71.063403,42.35055],[-71.063385,42.350537],[-71.063247,42.350578],[-71.063223,42.35057],[-71.063069,42.350617],[-71.063059,42.350635],[-71.063083,42.350642],[-71.063232,42.350596],[-71.063256,42.350604],[-71.063403,42.35055]]],[[[-71.063386,42.350826],[-71.06335,42.350808],[-71.063167,42.350865],[-71.063153,42.35089],[-71.063187,42.3509],[-71.06337,42.350844],[-71.063386,42.350826]]],[[[-71.063383,42.350765],[-71.063343,42.350745],[-71.063151,42.350804],[-71.063133,42.350824],[-71.063173,42.350844],[-71.063365,42.350785],[-71.063383,42.350765]]],[[[-71.063369,42.350704],[-71.06335,42.35069],[-71.063179,42.350741],[-71.063168,42.35076],[-71.063194,42.350768],[-71.063369,42.350704]]],[[[-71.063368,42.35061],[-71.06335,42.350597],[-71.063227,42.350633],[-71.06321,42.350617],[-71.063049,42.350665],[-71.063039,42.350683],[-71.063063,42.35069],[-71.063197,42.350649],[-71.063214,42.350665],[-71.063368,42.35061]]],[[[-71.063198,42.350677],[-71.06318,42.350664],[-71.063056,42.350701],[-71.063046,42.350718],[-71.06307,42.350726],[-71.063198,42.350677]]],[[[-71.063178,42.350727],[-71.06316,42.350714],[-71.063008,42.350759],[-71.063008,42.350784],[-71.062959,42.350802],[-71.062948,42.350821],[-71.062974,42.350829],[-71.063137,42.350778],[-71.063148,42.350771],[-71.063137,42.350752],[-71.063178,42.350727]]],[[[-71.063144,42.352238],[-71.063126,42.352225],[-71.062978,42.352262],[-71.062965,42.35224],[-71.062822,42.352283],[-71.062813,42.3523],[-71.062836,42.352307],[-71.062916,42.352283],[-71.062929,42.352305],[-71.063144,42.352238]]],[[[-71.062922,42.35222],[-71.062904,42.352207],[-71.062843,42.352224],[-71.06283,42.352202],[-71.062687,42.352245],[-71.062678,42.352262],[-71.062746,42.352256],[-71.062759,42.352278],[-71.062922,42.35222]]],[[[-71.062829,42.353302],[-71.06281,42.353288],[-71.062762,42.353301],[-71.062731,42.35329],[-71.062558,42.353344],[-71.062546,42.353366],[-71.062654,42.353366],[-71.062829,42.353302]]],[[[-71.062829,42.353214],[-71.06281,42.3532],[-71.062761,42.353214],[-71.062737,42.353194],[-71.062573,42.353244],[-71.062562,42.353263],[-71.062629,42.353258],[-71.062654,42.353278],[-71.062829,42.353214]]],[[[-71.062559,42.348354],[-71.06253,42.348332],[-71.062408,42.348368],[-71.062385,42.348346],[-71.062355,42.348346],[-71.062135,42.348415],[-71.062111,42.348441],[-71.06215,42.34847],[-71.062312,42.348422],[-71.062349,42.348433],[-71.062541,42.348374],[-71.062559,42.348354]]],[[[-71.062496,42.349373],[-71.062484,42.349351],[-71.062438,42.349344],[-71.062208,42.349415],[-71.062182,42.349444],[-71.062208,42.349473],[-71.062241,42.349473],[-71.06247,42.349402],[-71.062496,42.349373]]],[[[-71.062463,42.348557],[-71.06244,42.34854],[-71.062258,42.348595],[-71.062246,42.348617],[-71.062275,42.348626],[-71.062463,42.348557]]],[[[-71.062392,42.349323],[-71.06238,42.349301],[-71.062334,42.349294],[-71.062104,42.349365],[-71.062078,42.349394],[-71.062104,42.349423],[-71.062137,42.349423],[-71.062366,42.349352],[-71.062392,42.349323]]],[[[-71.062039,42.353752],[-71.06202,42.353738],[-71.061849,42.353789],[-71.061838,42.353808],[-71.061864,42.353816],[-71.062039,42.353752]]],[[[-71.062006,42.349306],[-71.061988,42.349293],[-71.061855,42.349333],[-71.061845,42.34935],[-71.061869,42.349358],[-71.062006,42.349306]]],[[[-71.061988,42.35386],[-71.06197,42.353847],[-71.061837,42.353887],[-71.061827,42.353904],[-71.061851,42.353912],[-71.061988,42.35386]]],[[[-71.061951,42.349438],[-71.061933,42.349425],[-71.0618,42.349465],[-71.06179,42.349482],[-71.061814,42.34949],[-71.061951,42.349438]]],[[[-71.061941,42.349548],[-71.061926,42.349523],[-71.061892,42.349512],[-71.061659,42.349581],[-71.061628,42.349614],[-71.061655,42.349646],[-71.061468,42.349707],[-71.061457,42.349746],[-71.061484,42.349766],[-71.061521,42.349766],[-71.061736,42.349699],[-71.061766,42.349666],[-71.061739,42.349634],[-71.061911,42.349581],[-71.061941,42.349548]]],[[[-71.061928,42.34988],[-71.06191,42.349867],[-71.061777,42.349907],[-71.061767,42.349924],[-71.061791,42.349932],[-71.061928,42.34988]]],[[[-71.061924,42.3537],[-71.061905,42.353686],[-71.061746,42.353734],[-71.061722,42.353726],[-71.061596,42.353765],[-71.061586,42.353782],[-71.06161,42.35379],[-71.061723,42.353755],[-71.061749,42.353764],[-71.061924,42.3537]]],[[[-71.061909,42.353825],[-71.06189,42.353811],[-71.061719,42.353862],[-71.061708,42.353881],[-71.061734,42.353889],[-71.061909,42.353825]]],[[[-71.061898,42.349926],[-71.06188,42.349913],[-71.061747,42.349953],[-71.061737,42.34997],[-71.061761,42.349978],[-71.061898,42.349926]]],[[[-71.061892,42.35],[-71.061874,42.349987],[-71.061741,42.350027],[-71.061731,42.350044],[-71.061755,42.350052],[-71.061892,42.35]]],[[[-71.061868,42.350044],[-71.06185,42.350031],[-71.061717,42.350071],[-71.061717,42.350096],[-71.061677,42.350124],[-71.061701,42.350132],[-71.061827,42.350092],[-71.061827,42.350068],[-71.061868,42.350044]]],[[[-71.061851,42.348312],[-71.061838,42.348288],[-71.061789,42.348281],[-71.06155,42.348355],[-71.061522,42.348386],[-71.06155,42.348417],[-71.061584,42.348417],[-71.061823,42.348343],[-71.061851,42.348312]]],[[[-71.061828,42.353783],[-71.06181,42.35377],[-71.061677,42.35381],[-71.061667,42.353827],[-71.061691,42.353835],[-71.061828,42.353783]]],[[[-71.061825,42.353653],[-71.061806,42.353639],[-71.061635,42.35369],[-71.061624,42.353709],[-71.06165,42.353717],[-71.061825,42.353653]]],[[[-71.061824,42.350155],[-71.061806,42.350142],[-71.061682,42.350179],[-71.061672,42.350196],[-71.061696,42.350204],[-71.061824,42.350155]]],[[[-71.061798,42.3502],[-71.06178,42.350187],[-71.061647,42.350227],[-71.061637,42.350244],[-71.061661,42.350252],[-71.061798,42.3502]]],[[[-71.061789,42.350292],[-71.061778,42.350272],[-71.061735,42.350265],[-71.061515,42.350334],[-71.061494,42.350349],[-71.061494,42.350371],[-71.061439,42.350407],[-71.061439,42.350433],[-71.061464,42.350451],[-71.061498,42.350451],[-71.061737,42.350377],[-71.061762,42.350359],[-71.061752,42.350322],[-71.061789,42.350292]]],[[[-71.06177,42.348421],[-71.061752,42.348408],[-71.061619,42.348448],[-71.061609,42.348465],[-71.061633,42.348473],[-71.06177,42.348421]]],[[[-71.061759,42.353607],[-71.061744,42.353582],[-71.061691,42.353574],[-71.061476,42.35364],[-71.061446,42.353673],[-71.061476,42.353707],[-71.061514,42.353707],[-71.061729,42.35364],[-71.061759,42.353607]]],[[[-71.061692,42.348648],[-71.06168,42.348626],[-71.06165,42.348617],[-71.06155,42.348645],[-71.061503,42.348639],[-71.061264,42.348713],[-71.061236,42.348744],[-71.061249,42.348768],[-71.061281,42.348778],[-71.061397,42.348744],[-71.061437,42.348748],[-71.061666,42.348677],[-71.061692,42.348648]]],[[[-71.061645,42.348297],[-71.061629,42.348268],[-71.061569,42.348259],[-71.061302,42.348342],[-71.061268,42.34838],[-71.061302,42.348417],[-71.061344,42.348417],[-71.061611,42.348335],[-71.061645,42.348297]]],[[[-71.061628,42.35355],[-71.06161,42.353537],[-71.061458,42.353582],[-71.061448,42.3536],[-71.061472,42.353607],[-71.061628,42.35355]]],[[[-71.06161,42.348837],[-71.061592,42.348824],[-71.061501,42.34885],[-71.061476,42.348825],[-71.061444,42.348825],[-71.061214,42.348896],[-71.061188,42.348925],[-71.061214,42.348954],[-71.061247,42.348954],[-71.06161,42.348837]]],[[[-71.061608,42.3485],[-71.06159,42.348487],[-71.061457,42.348527],[-71.061447,42.348544],[-71.061471,42.348552],[-71.061608,42.3485]]],[[[-71.061597,42.348184],[-71.061579,42.348171],[-71.061206,42.348288],[-71.061189,42.34832],[-71.061231,42.348333],[-71.061432,42.34827],[-71.06145,42.348239],[-71.061597,42.348184]]],[[[-71.061548,42.349568],[-71.061518,42.349535],[-71.061447,42.349545],[-71.061435,42.349509],[-71.061382,42.349501],[-71.061152,42.349575],[-71.061141,42.349614],[-71.061168,42.349634],[-71.061205,42.349634],[-71.061121,42.34966],[-71.061112,42.349677],[-71.061135,42.349684],[-71.061242,42.349651],[-71.061303,42.349668],[-71.061518,42.349601],[-71.061548,42.349568]]],[[[-71.061493,42.35095],[-71.06147,42.350933],[-71.061288,42.350988],[-71.061276,42.35101],[-71.061305,42.351019],[-71.061493,42.35095]]],[[[-71.061472,42.34815],[-71.061454,42.348118],[-71.061386,42.348108],[-71.0611,42.348196],[-71.061062,42.348239],[-71.0611,42.348281],[-71.061148,42.348281],[-71.061434,42.348192],[-71.061472,42.34815]]],[[[-71.061438,42.349255],[-71.06142,42.349242],[-71.061268,42.349287],[-71.061258,42.349305],[-71.061282,42.349312],[-71.061438,42.349255]]],[[[-71.061418,42.351122],[-71.0614,42.351109],[-71.061267,42.351149],[-71.061257,42.351166],[-71.061281,42.351174],[-71.061418,42.351122]]],[[[-71.061399,42.349052],[-71.06138,42.349038],[-71.061209,42.349089],[-71.061198,42.349108],[-71.061224,42.349116],[-71.061399,42.349052]]],[[[-71.061397,42.35118],[-71.061379,42.351167],[-71.061246,42.351207],[-71.061236,42.351224],[-71.06126,42.351232],[-71.061397,42.35118]]],[[[-71.061371,42.35124],[-71.061353,42.351227],[-71.06122,42.351267],[-71.06121,42.351284],[-71.061234,42.351292],[-71.061371,42.35124]]],[[[-71.061368,42.34943],[-71.06135,42.349417],[-71.061217,42.349457],[-71.061207,42.349474],[-71.061231,42.349482],[-71.061368,42.34943]]],[[[-71.061352,42.351289],[-71.061334,42.351276],[-71.061201,42.351316],[-71.061191,42.351333],[-71.061215,42.351341],[-71.061352,42.351289]]],[[[-71.061349,42.349228],[-71.061309,42.349208],[-71.061117,42.349267],[-71.061099,42.349287],[-71.061139,42.349307],[-71.061331,42.349248],[-71.061349,42.349228]]],[[[-71.061261,42.349678],[-71.061243,42.349665],[-71.0611,42.349708],[-71.061091,42.349725],[-71.061114,42.349732],[-71.061261,42.349678]]],[[[-71.061244,42.35337],[-71.061226,42.353357],[-71.061093,42.353397],[-71.061083,42.353414],[-71.061107,42.353422],[-71.061244,42.35337]]],[[[-71.061238,42.354774],[-71.06122,42.354761],[-71.061087,42.354801],[-71.061077,42.354818],[-71.061101,42.354826],[-71.061238,42.354774]]],[[[-71.061222,42.34983],[-71.06121,42.349808],[-71.061164,42.349801],[-71.060934,42.349872],[-71.060908,42.349901],[-71.060934,42.34993],[-71.060967,42.34993],[-71.061196,42.349859],[-71.061222,42.34983]]],[[[-71.061188,42.354916],[-71.06117,42.354903],[-71.061037,42.354943],[-71.061027,42.35496],[-71.061051,42.354968],[-71.061188,42.354916]]],[[[-71.061188,42.353344],[-71.06117,42.353331],[-71.061037,42.353371],[-71.061027,42.353388],[-71.061051,42.353396],[-71.061188,42.353344]]],[[[-71.061156,42.35003],[-71.061141,42.350003],[-71.061084,42.349995],[-71.060826,42.350074],[-71.060794,42.35011],[-71.060826,42.350145],[-71.060866,42.350145],[-71.061124,42.350065],[-71.061156,42.35003]]],[[[-71.061138,42.35332],[-71.06112,42.353307],[-71.060837,42.35339],[-71.060827,42.353407],[-71.060851,42.353415],[-71.061138,42.35332]]],[[[-71.061048,42.353275],[-71.06103,42.353262],[-71.060878,42.353307],[-71.060868,42.353325],[-71.060762,42.35336],[-71.060752,42.353377],[-71.060776,42.353384],[-71.060912,42.353342],[-71.060922,42.353325],[-71.061048,42.353275]]],[[[-71.061038,42.34849],[-71.06102,42.348477],[-71.060887,42.348517],[-71.060877,42.348534],[-71.060901,42.348542],[-71.061038,42.34849]]],[[[-71.061032,42.348602],[-71.061017,42.348575],[-71.06096,42.348567],[-71.060702,42.348646],[-71.06067,42.348682],[-71.060702,42.348717],[-71.060742,42.348717],[-71.061,42.348637],[-71.061032,42.348602]]],[[[-71.061005,42.348717],[-71.060989,42.348688],[-71.060929,42.348679],[-71.060662,42.348762],[-71.060628,42.3488],[-71.060662,42.348837],[-71.060704,42.348837],[-71.060971,42.348755],[-71.061005,42.348717]]],[[[-71.060942,42.348827],[-71.06093,42.348805],[-71.060884,42.348798],[-71.060654,42.348869],[-71.060628,42.348898],[-71.060654,42.348927],[-71.060687,42.348927],[-71.060916,42.348856],[-71.060942,42.348827]]],[[[-71.060938,42.35322],[-71.06092,42.353207],[-71.060787,42.353247],[-71.060777,42.353264],[-71.060801,42.353272],[-71.060938,42.35322]]],[[[-71.060862,42.353302],[-71.060844,42.353289],[-71.060711,42.353329],[-71.060701,42.353346],[-71.060725,42.353354],[-71.060862,42.353302]]],[[[-71.060847,42.349174],[-71.060827,42.349137],[-71.060749,42.349125],[-71.060434,42.349222],[-71.06039,42.349271],[-71.060411,42.349309],[-71.060462,42.349324],[-71.060446,42.349339],[-71.060464,42.349353],[-71.060597,42.349312],[-71.060597,42.349288],[-71.060803,42.349223],[-71.060847,42.349174]]],[[[-71.060733,42.34939],[-71.060718,42.349365],[-71.060684,42.349354],[-71.060407,42.349434],[-71.060397,42.349451],[-71.060424,42.34947],[-71.060378,42.3495],[-71.060488,42.34949],[-71.060703,42.349423],[-71.060733,42.34939]]],[[[-71.060695,42.349506],[-71.06068,42.349481],[-71.060646,42.34947],[-71.060538,42.349501],[-71.060513,42.349491],[-71.060377,42.349533],[-71.060342,42.349595],[-71.060379,42.349616],[-71.060343,42.349644],[-71.060367,42.349652],[-71.060493,42.349612],[-71.060503,42.349595],[-71.06068,42.349531],[-71.060695,42.349506]]],[[[-71.060609,42.34967],[-71.060594,42.349645],[-71.060541,42.349637],[-71.060293,42.349714],[-71.060263,42.349747],[-71.060293,42.34978],[-71.06033,42.34978],[-71.060579,42.349703],[-71.060609,42.34967]]],[[[-71.060598,42.35304],[-71.06058,42.353027],[-71.060447,42.353067],[-71.060437,42.353084],[-71.060461,42.353092],[-71.060598,42.35304]]],[[[-71.060588,42.349342],[-71.06057,42.349329],[-71.060437,42.349369],[-71.060427,42.349386],[-71.060451,42.349394],[-71.060588,42.349342]]],[[[-71.060582,42.349792],[-71.060567,42.349765],[-71.06053,42.349754],[-71.060252,42.349836],[-71.06022,42.349872],[-71.06025,42.349906],[-71.060218,42.349931],[-71.060241,42.349938],[-71.060377,42.349896],[-71.060387,42.349879],[-71.060567,42.349819],[-71.060582,42.349792]]],[[[-71.060518,42.352997],[-71.0605,42.352984],[-71.060367,42.353024],[-71.060357,42.353041],[-71.060381,42.353049],[-71.060518,42.352997]]],[[[-71.060508,42.353283],[-71.06049,42.35327],[-71.060347,42.353313],[-71.060337,42.35333],[-71.060361,42.353337],[-71.060508,42.353283]]],[[[-71.060504,42.35315],[-71.060486,42.353137],[-71.060353,42.353177],[-71.060343,42.353194],[-71.060367,42.353202],[-71.060504,42.35315]]],[[[-71.060488,42.34964],[-71.06047,42.349627],[-71.060337,42.349667],[-71.060327,42.349684],[-71.060351,42.349692],[-71.060488,42.34964]]],[[[-71.060468,42.352974],[-71.06045,42.352961],[-71.060307,42.353004],[-71.060297,42.353021],[-71.060321,42.353028],[-71.060468,42.352974]]],[[[-71.060428,42.3531],[-71.06041,42.353087],[-71.060277,42.353127],[-71.060267,42.353144],[-71.060291,42.353152],[-71.060428,42.3531]]],[[[-71.060419,42.353405],[-71.060418,42.35338],[-71.0604,42.353367],[-71.060145,42.353447],[-71.060121,42.353473],[-71.060145,42.3535],[-71.060221,42.353499],[-71.060347,42.353459],[-71.060419,42.353405]]],[[[-71.060374,42.35307],[-71.060356,42.353057],[-71.060223,42.353097],[-71.060213,42.353114],[-71.060237,42.353122],[-71.060374,42.35307]]],[[[-71.060318,42.350037],[-71.0603,42.350024],[-71.060167,42.350064],[-71.060157,42.350081],[-71.060181,42.350089],[-71.060318,42.350037]]],[[[-71.060314,42.35015],[-71.060286,42.350118],[-71.060297,42.3501],[-71.060273,42.350093],[-71.060032,42.350183],[-71.060001,42.350216],[-71.060032,42.35025],[-71.060069,42.35025],[-71.060284,42.350183],[-71.060314,42.35015]]],[[[-71.060174,42.34947],[-71.060163,42.34945],[-71.06012,42.349443],[-71.0599,42.349512],[-71.059876,42.349538],[-71.0599,42.349565],[-71.05993,42.349565],[-71.06015,42.349497],[-71.060174,42.34947]]],[[[-71.060158,42.352962],[-71.06014,42.352949],[-71.060007,42.352989],[-71.059997,42.353006],[-71.060021,42.353014],[-71.060158,42.352962]]],[[[-71.060119,42.349556],[-71.060079,42.349536],[-71.059887,42.349595],[-71.059869,42.349615],[-71.059909,42.349635],[-71.060101,42.349576],[-71.060119,42.349556]]],[[[-71.060105,42.35341],[-71.060092,42.353386],[-71.060043,42.353379],[-71.059804,42.353453],[-71.059776,42.353484],[-71.059804,42.353515],[-71.059838,42.353515],[-71.060077,42.353441],[-71.060105,42.35341]]],[[[-71.060086,42.349644],[-71.060075,42.349625],[-71.060036,42.34962],[-71.059826,42.349685],[-71.059804,42.349709],[-71.059826,42.349734],[-71.059853,42.349734],[-71.060064,42.349668],[-71.060086,42.349644]]],[[[-71.059972,42.351044],[-71.05996,42.351022],[-71.059914,42.351015],[-71.059684,42.351086],[-71.059658,42.351115],[-71.059684,42.351144],[-71.059717,42.351144],[-71.059946,42.351073],[-71.059972,42.351044]]],[[[-71.059901,42.351135],[-71.059865,42.351117],[-71.059682,42.351174],[-71.059668,42.351199],[-71.059702,42.351209],[-71.059885,42.351153],[-71.059901,42.351135]]],[[[-71.059858,42.3533],[-71.05984,42.353287],[-71.059707,42.353327],[-71.059697,42.353344],[-71.059721,42.353352],[-71.059858,42.3533]]],[[[-71.059822,42.35326],[-71.05981,42.353238],[-71.059764,42.353231],[-71.059534,42.353302],[-71.059508,42.353331],[-71.059534,42.35336],[-71.059567,42.35336],[-71.059796,42.353289],[-71.059822,42.35326]]],[[[-71.059758,42.352753],[-71.05974,42.35274],[-71.059597,42.352783],[-71.059587,42.3528],[-71.059611,42.352807],[-71.059758,42.352753]]],[[[-71.059688,42.352737],[-71.05967,42.352724],[-71.059633,42.352734],[-71.059616,42.352717],[-71.059473,42.35276],[-71.059291,42.352824],[-71.05928,42.352863],[-71.059307,42.352883],[-71.059344,42.352883],[-71.059559,42.352816],[-71.059589,42.352783],[-71.059688,42.352737]]],[[[-71.059669,42.354954],[-71.059629,42.354934],[-71.059437,42.354993],[-71.059419,42.355013],[-71.059459,42.355033],[-71.059651,42.354974],[-71.059669,42.354954]]],[[[-71.059649,42.35171],[-71.059634,42.351685],[-71.059581,42.351677],[-71.059354,42.351747],[-71.059336,42.351776],[-71.059367,42.35181],[-71.059404,42.35181],[-71.059619,42.351743],[-71.059649,42.35171]]],[[[-71.059622,42.35492],[-71.05955,42.354866],[-71.059336,42.35493],[-71.059319,42.354962],[-71.059389,42.355006],[-71.059602,42.354942],[-71.059622,42.35492]]],[[[-71.059562,42.3516],[-71.059553,42.351583],[-71.059518,42.351578],[-71.059237,42.351666],[-71.059223,42.351691],[-71.059247,42.351703],[-71.059341,42.351685],[-71.059542,42.351622],[-71.059562,42.3516]]],[[[-71.059518,42.351097],[-71.0595,42.351084],[-71.059367,42.351124],[-71.059357,42.351141],[-71.059381,42.351149],[-71.059518,42.351097]]],[[[-71.059482,42.354813],[-71.059473,42.354796],[-71.059438,42.354791],[-71.059236,42.354853],[-71.059219,42.354885],[-71.059261,42.354898],[-71.059462,42.354835],[-71.059482,42.354813]]],[[[-71.059478,42.35117],[-71.05946,42.351157],[-71.059327,42.351197],[-71.059317,42.351214],[-71.059341,42.351222],[-71.059478,42.35117]]],[[[-71.059432,42.354774],[-71.059389,42.354714],[-71.059364,42.354707],[-71.05914,42.354774],[-71.059117,42.354798],[-71.05914,42.354823],[-71.059167,42.354823],[-71.059176,42.354853],[-71.059199,42.35486],[-71.059412,42.354796],[-71.059432,42.354774]]],[[[-71.059428,42.3531],[-71.05941,42.353087],[-71.059277,42.353127],[-71.059267,42.353144],[-71.059291,42.353152],[-71.059428,42.3531]]],[[[-71.059418,42.35301],[-71.0594,42.352997],[-71.059267,42.353037],[-71.059257,42.353054],[-71.059281,42.353062],[-71.059418,42.35301]]],[[[-71.059387,42.351704],[-71.059364,42.351687],[-71.059182,42.351742],[-71.05917,42.351764],[-71.059199,42.351773],[-71.059387,42.351704]]],[[[-71.059323,42.35178],[-71.0593,42.351763],[-71.059118,42.351818],[-71.059106,42.35184],[-71.059135,42.351849],[-71.059323,42.35178]]],[[[-71.059219,42.35129],[-71.059204,42.351265],[-71.059171,42.351254],[-71.059183,42.35123],[-71.05911,42.351194],[-71.058843,42.351274],[-71.058813,42.351307],[-71.058827,42.351332],[-71.058862,42.351343],[-71.059028,42.351294],[-71.058877,42.351353],[-71.058887,42.351392],[-71.058843,42.351434],[-71.058857,42.351459],[-71.058892,42.35147],[-71.059174,42.351382],[-71.059189,42.351357],[-71.059174,42.351332],[-71.059219,42.35129]]],[[[-71.059184,42.353294],[-71.059166,42.353281],[-71.059033,42.353321],[-71.059023,42.353338],[-71.059047,42.353346],[-71.059184,42.353294]]],[[[-71.059098,42.35146],[-71.05908,42.351447],[-71.058947,42.351487],[-71.058937,42.351504],[-71.058961,42.351512],[-71.059098,42.35146]]],[[[-71.059092,42.354385],[-71.059083,42.354368],[-71.059048,42.354363],[-71.058846,42.354425],[-71.058829,42.354457],[-71.058871,42.35447],[-71.059072,42.354407],[-71.059092,42.354385]]],[[[-71.059088,42.353287],[-71.05907,42.353274],[-71.058937,42.353314],[-71.058927,42.353331],[-71.058951,42.353339],[-71.059088,42.353287]]],[[[-71.059066,42.351517],[-71.05903,42.351499],[-71.058847,42.351556],[-71.058833,42.351581],[-71.058867,42.351591],[-71.05905,42.351535],[-71.059066,42.351517]]],[[[-71.059018,42.354332],[-71.059,42.354319],[-71.058867,42.354359],[-71.058857,42.354376],[-71.058881,42.354384],[-71.059018,42.354332]]],[[[-71.059006,42.351604],[-71.058995,42.351585],[-71.058956,42.35158],[-71.058734,42.351651],[-71.058726,42.351679],[-71.058772,42.3517],[-71.058666,42.351735],[-71.058659,42.351762],[-71.058564,42.351827],[-71.058556,42.351855],[-71.058468,42.351893],[-71.058457,42.351913],[-71.058468,42.351934],[-71.058429,42.351959],[-71.058425,42.351985],[-71.058224,42.352051],[-71.058208,42.35208],[-71.058219,42.352103],[-71.058169,42.352124],[-71.058159,42.352161],[-71.058184,42.352179],[-71.058218,42.352179],[-71.058472,42.352098],[-71.058485,42.352074],[-71.058581,42.352013],[-71.058593,42.351957],[-71.058683,42.351923],[-71.058683,42.351889],[-71.058744,42.351865],[-71.058777,42.351821],[-71.058875,42.351757],[-71.058876,42.35172],[-71.05892,42.351699],[-71.058913,42.351673],[-71.059006,42.351604]]],[[[-71.058998,42.353283],[-71.05898,42.35327],[-71.058847,42.35331],[-71.058837,42.353327],[-71.058861,42.353335],[-71.058998,42.353283]]],[[[-71.058959,42.35429],[-71.05894,42.354276],[-71.058769,42.354327],[-71.058758,42.354346],[-71.058784,42.354354],[-71.058959,42.35429]]],[[[-71.058864,42.353268],[-71.058846,42.353255],[-71.058713,42.353295],[-71.058703,42.353312],[-71.058727,42.35332],[-71.058864,42.353268]]],[[[-71.058758,42.353268],[-71.05874,42.353255],[-71.058607,42.353295],[-71.058597,42.353312],[-71.058621,42.35332],[-71.058758,42.353268]]],[[[-71.058568,42.35253],[-71.05855,42.352517],[-71.058507,42.352529],[-71.05849,42.352511],[-71.058428,42.352529],[-71.058423,42.352518],[-71.058498,42.352486],[-71.058473,42.352467],[-71.058197,42.352547],[-71.058187,42.352564],[-71.058211,42.352572],[-71.058305,42.352542],[-71.058257,42.352575],[-71.058407,42.352564],[-71.058424,42.352583],[-71.058568,42.35253]]],[[[-71.058388,42.35247],[-71.05837,42.352457],[-71.058237,42.352497],[-71.058117,42.352539],[-71.058107,42.352556],[-71.058131,42.352564],[-71.058388,42.35247]]],[[[-71.058288,42.35091],[-71.05827,42.350897],[-71.058137,42.350937],[-71.058127,42.350954],[-71.058151,42.350962],[-71.058288,42.35091]]],[[[-71.058278,42.352467],[-71.05826,42.352454],[-71.058127,42.352494],[-71.058117,42.352511],[-71.058141,42.352519],[-71.058278,42.352467]]],[[[-71.058218,42.350887],[-71.0582,42.350874],[-71.058067,42.350914],[-71.058057,42.350931],[-71.058081,42.350939],[-71.058218,42.350887]]],[[[-71.058038,42.352665],[-71.05802,42.352652],[-71.057887,42.352692],[-71.057877,42.352709],[-71.057901,42.352717],[-71.058038,42.352665]]],[[[-71.058032,42.352768],[-71.058014,42.352755],[-71.057881,42.352795],[-71.057871,42.352812],[-71.057895,42.35282],[-71.058032,42.352768]]],[[[-71.058008,42.352905],[-71.05799,42.352892],[-71.057857,42.352932],[-71.057847,42.352949],[-71.057871,42.352957],[-71.058008,42.352905]]],[[[-71.057803,42.350693],[-71.057785,42.35068],[-71.057652,42.35072],[-71.057642,42.350737],[-71.057666,42.350745],[-71.057803,42.350693]]],[[[-71.057758,42.350677],[-71.05774,42.350664],[-71.057607,42.350704],[-71.057597,42.350721],[-71.057621,42.350729],[-71.057758,42.350677]]],[[[-71.05775,42.352226],[-71.057714,42.352208],[-71.057531,42.352265],[-71.057517,42.35229],[-71.057551,42.3523],[-71.057734,42.352244],[-71.05775,42.352226]]],[[[-71.057623,42.35219],[-71.057583,42.35217],[-71.057391,42.352229],[-71.057373,42.352249],[-71.057413,42.352269],[-71.057605,42.35221],[-71.057623,42.35219]]],[[[-71.057536,42.35216],[-71.0575,42.352142],[-71.057317,42.352199],[-71.057303,42.352224],[-71.057337,42.352234],[-71.05752,42.352178],[-71.057536,42.35216]]],[[[-71.057456,42.35214],[-71.05742,42.352122],[-71.057237,42.352179],[-71.057223,42.352204],[-71.057257,42.352214],[-71.05744,42.352158],[-71.057456,42.35214]]],[[[-71.057414,42.350403],[-71.057396,42.35039],[-71.057263,42.35043],[-71.057253,42.350447],[-71.057277,42.350455],[-71.057414,42.350403]]],[[[-71.057398,42.350494],[-71.05738,42.350481],[-71.057247,42.350521],[-71.057237,42.350538],[-71.057261,42.350546],[-71.057398,42.350494]]],[[[-71.057369,42.35211],[-71.057329,42.35209],[-71.057137,42.352149],[-71.057119,42.352169],[-71.057159,42.352189],[-71.057351,42.35213],[-71.057369,42.35211]]],[[[-71.057348,42.351707],[-71.05733,42.351694],[-71.057187,42.351737],[-71.057178,42.351754],[-71.057201,42.351761],[-71.057348,42.351707]]],[[[-71.057338,42.35175],[-71.05732,42.351737],[-71.057187,42.351777],[-71.057177,42.351794],[-71.057201,42.351802],[-71.057338,42.35175]]],[[[-71.057309,42.351897],[-71.057291,42.351884],[-71.057158,42.351924],[-71.057148,42.351941],[-71.057172,42.351949],[-71.057309,42.351897]]],[[[-71.057298,42.351955],[-71.05728,42.351942],[-71.057156,42.351979],[-71.057146,42.351996],[-71.05717,42.352004],[-71.057298,42.351955]]],[[[-71.057298,42.350925],[-71.05728,42.350912],[-71.057128,42.350957],[-71.057118,42.350975],[-71.057142,42.350982],[-71.057298,42.350925]]],[[[-71.057268,42.351063],[-71.05725,42.35105],[-71.057098,42.351095],[-71.057088,42.351113],[-71.057112,42.35112],[-71.057268,42.351063]]],[[[-71.057208,42.35141],[-71.05719,42.351397],[-71.057057,42.351437],[-71.057047,42.351454],[-71.057071,42.351462],[-71.057208,42.35141]]],[[[-71.057198,42.35055],[-71.05718,42.350537],[-71.057047,42.350577],[-71.057037,42.350594],[-71.057061,42.350602],[-71.057198,42.35055]]],[[[-71.057147,42.350632],[-71.057129,42.350619],[-71.056996,42.350659],[-71.056986,42.350676],[-71.05701,42.350684],[-71.057147,42.350632]]],[[[-71.057094,42.350533],[-71.057076,42.35052],[-71.056943,42.35056],[-71.056933,42.350577],[-71.056957,42.350585],[-71.057094,42.350533]]],[[[-71.057038,42.34984],[-71.05702,42.349827],[-71.056887,42.349867],[-71.056877,42.349884],[-71.056901,42.349892],[-71.057038,42.34984]]],[[[-71.057022,42.349903],[-71.057013,42.349886],[-71.056978,42.349881],[-71.056776,42.349943],[-71.056759,42.349975],[-71.056801,42.349988],[-71.057002,42.349925],[-71.057022,42.349903]]],[[[-71.056868,42.352028],[-71.05685,42.352015],[-71.056689,42.352063],[-71.056679,42.352081],[-71.056703,42.352088],[-71.056868,42.352028]]],[[[-71.056834,42.35023],[-71.056816,42.350217],[-71.056683,42.350257],[-71.056673,42.350274],[-71.056697,42.350282],[-71.056834,42.35023]]],[[[-71.056829,42.34976],[-71.056818,42.34974],[-71.056775,42.349733],[-71.056555,42.349802],[-71.056531,42.349828],[-71.056555,42.349855],[-71.056585,42.349855],[-71.056805,42.349787],[-71.056829,42.34976]]],[[[-71.056798,42.350307],[-71.05678,42.350294],[-71.056647,42.350334],[-71.056637,42.350351],[-71.056661,42.350359],[-71.056798,42.350307]]],[[[-71.056792,42.34984],[-71.056783,42.349823],[-71.056748,42.349818],[-71.056536,42.349885],[-71.056529,42.349912],[-71.056559,42.349926],[-71.056476,42.349956],[-71.056461,42.349981],[-71.056476,42.350007],[-71.056523,42.350016],[-71.056431,42.350047],[-71.05642,42.350086],[-71.056447,42.350106],[-71.056484,42.350106],[-71.056714,42.350031],[-71.056725,42.349992],[-71.056667,42.349972],[-71.056759,42.34994],[-71.05677,42.349901],[-71.056712,42.349881],[-71.056783,42.349857],[-71.056792,42.34984]]],[[[-71.056748,42.351994],[-71.05673,42.351981],[-71.056578,42.352026],[-71.056568,42.352044],[-71.056592,42.352051],[-71.056748,42.351994]]],[[[-71.056659,42.350094],[-71.056619,42.350074],[-71.056427,42.350133],[-71.056409,42.350153],[-71.056449,42.350173],[-71.056641,42.350114],[-71.056659,42.350094]]],[[[-71.056643,42.350613],[-71.056625,42.3506],[-71.056464,42.350648],[-71.056454,42.350666],[-71.056478,42.350673],[-71.056643,42.350613]]],[[[-71.056626,42.353203],[-71.05659,42.353185],[-71.056407,42.353242],[-71.056393,42.353267],[-71.056427,42.353277],[-71.05661,42.353221],[-71.056626,42.353203]]],[[[-71.056622,42.350185],[-71.056613,42.350168],[-71.056578,42.350163],[-71.056376,42.350225],[-71.056359,42.350257],[-71.056401,42.35027],[-71.056602,42.350207],[-71.056622,42.350185]]],[[[-71.056608,42.35068],[-71.05659,42.350667],[-71.056429,42.350715],[-71.056419,42.350733],[-71.056443,42.35074],[-71.056608,42.35068]]],[[[-71.056559,42.353165],[-71.05654,42.353151],[-71.056369,42.353202],[-71.056358,42.353221],[-71.056384,42.353229],[-71.056559,42.353165]]],[[[-71.056559,42.350834],[-71.056544,42.350809],[-71.056491,42.350801],[-71.056277,42.350867],[-71.056246,42.3509],[-71.056277,42.350934],[-71.056314,42.350934],[-71.056529,42.350867],[-71.056559,42.350834]]],[[[-71.056484,42.353127],[-71.056465,42.353113],[-71.056294,42.353164],[-71.056283,42.353183],[-71.056309,42.353191],[-71.056484,42.353127]]],[[[-71.056468,42.35192],[-71.05645,42.351907],[-71.056289,42.351955],[-71.056279,42.351973],[-71.056303,42.35198],[-71.056468,42.35192]]],[[[-71.056428,42.35103],[-71.05641,42.351017],[-71.056277,42.351057],[-71.056267,42.351074],[-71.056291,42.351082],[-71.056428,42.35103]]],[[[-71.056398,42.351097],[-71.05638,42.351084],[-71.056219,42.351132],[-71.056209,42.35115],[-71.056233,42.351157],[-71.056398,42.351097]]],[[[-71.056393,42.35309],[-71.05637,42.353073],[-71.056188,42.353128],[-71.056176,42.35315],[-71.056205,42.353159],[-71.056393,42.35309]]],[[[-71.056388,42.3519],[-71.05637,42.351887],[-71.056246,42.351924],[-71.056236,42.351941],[-71.05626,42.351949],[-71.056388,42.3519]]],[[[-71.056364,42.351176],[-71.056346,42.351163],[-71.056213,42.351203],[-71.056203,42.35122],[-71.056227,42.351228],[-71.056364,42.351176]]],[[[-71.056338,42.35493],[-71.05632,42.354917],[-71.056159,42.354965],[-71.056149,42.354983],[-71.056173,42.35499],[-71.056338,42.35493]]],[[[-71.056328,42.354836],[-71.05631,42.354823],[-71.056149,42.354871],[-71.056139,42.354889],[-71.056163,42.354896],[-71.056328,42.354836]]],[[[-71.056309,42.35475],[-71.05629,42.354736],[-71.056119,42.354787],[-71.056108,42.354806],[-71.056134,42.354814],[-71.056309,42.35475]]],[[[-71.056306,42.35467],[-71.05627,42.354652],[-71.056087,42.354709],[-71.056073,42.354734],[-71.056107,42.354744],[-71.05629,42.354688],[-71.056306,42.35467]]],[[[-71.056258,42.351376],[-71.05624,42.351363],[-71.056097,42.351406],[-71.056088,42.351423],[-71.056111,42.351431],[-71.056069,42.351458],[-71.056092,42.351465],[-71.056228,42.351423],[-71.056238,42.351406],[-71.056215,42.351398],[-71.056258,42.351376]]],[[[-71.056256,42.350842],[-71.056238,42.350829],[-71.056077,42.350877],[-71.056067,42.350895],[-71.056091,42.350902],[-71.056256,42.350842]]],[[[-71.056248,42.35305],[-71.05623,42.353037],[-71.056097,42.353077],[-71.056087,42.353094],[-71.056111,42.353102],[-71.056248,42.35305]]],[[[-71.056226,42.350933],[-71.056208,42.35092],[-71.056047,42.350968],[-71.056037,42.350986],[-71.056061,42.350993],[-71.056226,42.350933]]],[[[-71.056208,42.35145],[-71.05619,42.351437],[-71.056047,42.35148],[-71.056038,42.351497],[-71.056061,42.351504],[-71.056208,42.35145]]],[[[-71.056186,42.351036],[-71.056168,42.351023],[-71.056007,42.351071],[-71.055997,42.351089],[-71.056021,42.351096],[-71.056186,42.351036]]],[[[-71.056148,42.351145],[-71.05613,42.351132],[-71.055969,42.35118],[-71.055959,42.351198],[-71.055983,42.351205],[-71.056148,42.351145]]],[[[-71.056078,42.35171],[-71.05606,42.351697],[-71.055917,42.35174],[-71.055908,42.351757],[-71.055931,42.351764],[-71.056078,42.35171]]],[[[-71.055977,42.351355],[-71.055959,42.351342],[-71.055798,42.35139],[-71.055788,42.351408],[-71.055812,42.351415],[-71.055977,42.351355]]],[[[-71.055953,42.351412],[-71.055935,42.351399],[-71.055774,42.351447],[-71.055764,42.351465],[-71.055788,42.351472],[-71.055953,42.351412]]],[[[-71.05592,42.351482],[-71.055902,42.351469],[-71.055741,42.351517],[-71.055731,42.351535],[-71.055755,42.351542],[-71.05592,42.351482]]],[[[-71.055888,42.351561],[-71.05587,42.351548],[-71.055709,42.351596],[-71.055699,42.351614],[-71.055723,42.351621],[-71.055888,42.351561]]],[[[-71.055869,42.352226],[-71.055854,42.352201],[-71.05582,42.35219],[-71.055587,42.352259],[-71.05556,42.352279],[-71.05556,42.352306],[-71.055526,42.352329],[-71.055526,42.352356],[-71.055553,42.352376],[-71.05559,42.352376],[-71.055805,42.352309],[-71.055869,42.352226]]],[[[-71.055859,42.351622],[-71.055841,42.351609],[-71.05568,42.351657],[-71.05567,42.351675],[-71.055694,42.351682],[-71.055859,42.351622]]],[[[-71.055808,42.351727],[-71.05579,42.351714],[-71.055629,42.351762],[-71.055619,42.35178],[-71.055643,42.351787],[-71.055808,42.351727]]],[[[-71.055788,42.353336],[-71.055779,42.353319],[-71.055744,42.353314],[-71.055542,42.353376],[-71.055525,42.353389],[-71.055532,42.353415],[-71.055482,42.353438],[-71.055444,42.353486],[-71.05547,42.353494],[-71.055706,42.353414],[-71.055724,42.353394],[-71.055716,42.353379],[-71.055788,42.353336]]],[[[-71.055788,42.351776],[-71.05577,42.351763],[-71.055609,42.351811],[-71.055599,42.351829],[-71.055623,42.351836],[-71.055788,42.351776]]],[[[-71.055558,42.353497],[-71.05554,42.353484],[-71.055379,42.353532],[-71.055327,42.353577],[-71.055351,42.353584],[-71.055487,42.353542],[-71.055558,42.353497]]],[[[-71.055262,42.353653],[-71.055244,42.35364],[-71.055007,42.353711],[-71.054974,42.353754],[-71.054997,42.35377],[-71.055179,42.353716],[-71.055262,42.353653]]]]},"properties":{"kind":"tree"}}]}