{"type":"FeatureCollection","features":[{"type":"Feature","geometry":{"type":"MultiPolygon","coordinates":[[[[-71.06703,42.351826],[-71.067007,42.351692],[-71.066747,42.351106],[-71.065467,42.351257],[-71.064967,42.35123],[-71.064729,42.351284],[-71.065991,42.350995],[-71.065959,42.350666],[-71.065745,42.350662],[-71.065953,42.350615],[-71.06593,42.350327],[-71.065758,42.350337],[-71.06562,42.350368],[-71.065453,42.350324],[-71.065916,42.350219],[-71.065881,42.34989],[-71.065776,42.349769],[-71.065661,42.349795],[-71.065669,42.349758],[-71.066095,42.349646],[-71.066017,42.349509],[-71.066107,42.349483],[-71.066051,42.349385],[-71.06573,42.349457],[-71.06562,42.349445],[-71.065521,42.349461],[-71.064967,42.349586],[-71.064416,42.349501],[-71.06422,42.349545],[-71.063815,42.349483],[-71.064653,42.349291],[-71.064733,42.34925],[-71.06492,42.349208],[-71.065134,42.349108],[-71.065279,42.349075],[-71.065329,42.348871],[-71.065423,42.348882],[-71.066458,42.348649],[-71.066483,42.348529],[-71.06591,42.348462],[-71.065995,42.348064],[-71.065837,42.348044],[-71.065482,42.348124],[-71.065402,42.348018],[-71.06552,42.347941],[-71.065529,42.347903],[-71.065483,42.347819],[-71.065392,42.347805],[-71.065371,42.347781],[-71.065289,42.347784],[-71.065318,42.347764],[-71.065319,42.347677],[-71.065257,42.347643],[-71.064894,42.347587],[-71.064372,42.347705],[-71.063981,42.347901],[-71.063973,42.34792],[-71.063565,42.34801],[-71.063606,42.347866],[-71.06346,42.347843],[-71.063103,42.347924],[-71.063096,42.347951],[-71.062961,42.347921],[-71.062814,42.347954],[-71.062735,42.347939],[-71.062424,42.348009],[-71.062446,42.347953],[-71.062334,42.347917],[-71.061926,42.347827],[-71.061776,42.34786],[-71.061866,42.34764],[-71.061712,42.347604],[-71.060161,42.347954],[-71.060013,42.348322],[-71.058589,42.348644],[-71.058126,42.349286],[-71.058363,42.349343],[-71.060756,42.348803],[-71.060853,42.348825],[-71.06058,42.348887],[-71.060532,42.34898],[-71.060456,42.348997],[-71.060437,42.349045],[-71.060467,42.349052],[-71.060447,42.349114],[-71.060321,42.349063],[-71.058374,42.349503],[-71.058424,42.349376],[-71.057926,42.349266],[-71.057587,42.349343],[-71.057541,42.349458],[-71.056673,42.349654],[-71.05666,42.349687],[-71.056775,42.349199],[-71.056755,42.349193],[-71.057988,42.348915],[-71.05807,42.348711],[-71.057613,42.348605],[-71.055865,42.349],[-71.055781,42.349209],[-71.056059,42.34927],[-71.055456,42.349434],[-71.056683,42.347603],[-71.056673,42.347544],[-71.055908,42.347262],[-71.05525,42.34741],[-71.05419,42.348988],[-71.054159,42.348995],[-71.053722,42.349443],[-71.053689,42.349493],[-71.053683,42.349582],[-71.053331,42.349662],[-71.052361,42.351105],[-71.052942,42.35132],[-71.053762,42.351135],[-71.054041,42.351238],[-71.054337,42.351171],[-71.054619,42.350752],[-71.054764,42.350834],[-71.054947,42.350859],[-71.055464,42.350845],[-71.055852,42.35076],[-71.055965,42.350785],[-71.056282,42.350713],[-71.056308,42.35072],[-71.055872,42.350825],[-71.055754,42.35107],[-71.055873,42.351099],[-71.055661,42.351147],[-71.055519,42.351448],[-71.055611,42.351485],[-71.054881,42.35165],[-71.054861,42.351689],[-71.05342,42.352018],[-71.053248,42.352193],[-71.053774,42.352471],[-71.053934,42.352522],[-71.054065,42.352542],[-71.050393,42.35337],[-71.050104,42.353475],[-71.050027,42.353639],[-71.050621,42.353788],[-71.054185,42.352984],[-71.054215,42.353043],[-71.054344,42.353077],[-71.056276,42.352641],[-71.056822,42.352494],[-71.057943,42.352241],[-71.058082,42.35184],[-71.058558,42.351732],[-71.058615,42.351682],[-71.05886,42.351417],[-71.05899,42.351213],[-71.059038,42.351101],[-71.058847,42.351058],[-71.059198,42.350975],[-71.059291,42.350745],[-71.059395,42.350767],[-71.059491,42.350746],[-71.059544,42.350807],[-71.059646,42.350829],[-71.059607,42.350933],[-71.059566,42.350942],[-71.059412,42.351294],[-71.059514,42.351317],[-71.058963,42.351441],[-71.058914,42.35157],[-71.058925,42.351634],[-71.058878,42.351644],[-71.058907,42.351821],[-71.059046,42.351809],[-71.059064,42.351913],[-71.059081,42.351916],[-71.058488,42.352051],[-71.058507,42.352174],[-71.056127,42.352711],[-71.055866,42.352815],[-71.055807,42.352851],[-71.055735,42.352927],[-71.055676,42.353049],[-71.055817,42.353074],[-71.053738,42.353544],[-71.053651,42.35361],[-71.052914,42.353779],[-71.052909,42.35382],[-71.052738,42.353859],[-71.052716,42.354075],[-71.053176,42.354101],[-71.053284,42.354077],[-71.053453,42.354088],[-71.05375,42.354021],[-71.053843,42.354116],[-71.050312,42.354913],[-71.04991,42.355122],[-71.049874,42.355173],[-71.049883,42.355217],[-71.050138,42.355482],[-71.050188,42.355496],[-71.051195,42.355273],[-71.050961,42.35539],[-71.050882,42.355462],[-71.05095,42.355532],[-71.051104,42.3555],[-71.051176,42.355566],[-71.051226,42.35557],[-71.051654,42.355473],[-71.051673,42.35549],[-71.053443,42.355091],[-71.053519,42.355163],[-71.053033,42.355272],[-71.052929,42.355325],[-71.052945,42.355419],[-71.049859,42.356115],[-71.049965,42.356693],[-71.050417,42.356649],[-71.05306,42.356053],[-71.053063,42.356071],[-71.053178,42.356076],[-71.053633,42.356032],[-71.056364,42.355412],[-71.056344,42.355301],[-71.056585,42.355246],[-71.056635,42.355345],[-71.056762,42.35536],[-71.057826,42.35512],[-71.057798,42.355145],[-71.056211,42.355504],[-71.056114,42.355575],[-71.055834,42.35585],[-71.055908,42.355905],[-71.0562,42.356024],[-71.058354,42.355538],[-71.058396,42.355556],[-71.059699,42.355269],[-71.060015,42.355494],[-71.060378,42.355414],[-71.060441,42.355443],[-71.060606,42.355406],[-71.060655,42.355413],[-71.061223,42.355285],[-71.061272,42.35531],[-71.061324,42.355299],[-71.061463,42.35537],[-71.061695,42.35532],[-71.0618,42.355372],[-71.062054,42.355319],[-71.062244,42.355419],[-71.063118,42.355222],[-71.063177,42.355145],[-71.063066,42.355087],[-71.063255,42.355044],[-71.063852,42.353943],[-71.063862,42.353896],[-71.063757,42.353864],[-71.063892,42.353833],[-71.063985,42.353676],[-71.063998,42.353634],[-71.063871,42.353595],[-71.064052,42.353554],[-71.064097,42.353425],[-71.063837,42.353375],[-71.063695,42.353407],[-71.063697,42.353397],[-71.064146,42.353296],[-71.064309,42.35284],[-71.064213,42.352834],[-71.064309,42.352812],[-71.064337,42.352693],[-71.064464,42.352703],[-71.065034,42.352574],[-71.065036,42.352597],[-71.065132,42.352602],[-71.066063,42.352392],[-71.066077,42.352213],[-71.06627,42.352169],[-71.066288,42.351997],[-71.06703,42.351826]],[[-71.064522,42.348215],[-71.063458,42.34845],[-71.063476,42.348381],[-71.063304,42.348355],[-71.063572,42.348392],[-71.063819,42.348336],[-71.063854,42.348344],[-71.064477,42.348203],[-71.064522,42.348215]],[[-71.064471,42.348518],[-71.064463,42.348556],[-71.064347,42.348546],[-71.064471,42.348518]],[[-71.064095,42.348603],[-71.06398,42.348649],[-71.063835,42.349052],[-71.063799,42.349061],[-71.063791,42.349092],[-71.063767,42.349098],[-71.063772,42.349073],[-71.063736,42.349067],[-71.063827,42.348879],[-71.063893,42.348648],[-71.064095,42.348603]],[[-71.063172,42.350424],[-71.063155,42.350451],[-71.063066,42.350471],[-71.063074,42.350446],[-71.063172,42.350424]],[[-71.062959,42.351064],[-71.062845,42.35109],[-71.062859,42.351039],[-71.062807,42.351031],[-71.062839,42.351024],[-71.062959,42.351064]],[[-71.062748,42.352406],[-71.062739,42.352452],[-71.062452,42.352515],[-71.062412,42.352483],[-71.061487,42.352561],[-71.061337,42.352595],[-71.061336,42.35258],[-71.061194,42.352592],[-71.06099,42.352638],[-71.060985,42.352601],[-71.060659,42.352627],[-71.061046,42.352539],[-71.061053,42.35257],[-71.061391,42.352511],[-71.061395,42.352549],[-71.061671,42.352533],[-71.062171,42.35242],[-71.062518,42.352458],[-71.062748,42.352406]],[[-71.062444,42.348264],[-71.062438,42.348288],[-71.062336,42.348311],[-71.062345,42.348286],[-71.062444,42.348264]],[[-71.062374,42.348173],[-71.061994,42.348265],[-71.062034,42.348165],[-71.061968,42.348142],[-71.062295,42.348068],[-71.062269,42.348147],[-71.062374,42.348173]],[[-71.061913,42.348843],[-71.061839,42.348859],[-71.061852,42.348833],[-71.061913,42.348843]],[[-71.061446,42.34826],[-71.061426,42.348311],[-71.061269,42.348334],[-71.061284,42.348296],[-71.061446,42.34826]],[[-71.061109,42.351584],[-71.061049,42.351597],[-71.061048,42.351586],[-71.061109,42.351584]],[[-71.060625,42.349429],[-71.060614,42.349457],[-71.060473,42.349489],[-71.060517,42.34938],[-71.060625,42.349429]],[[-71.059893,42.352741],[-71.05969,42.352779],[-71.059892,42.352733],[-71.059893,42.352741]],[[-71.057811,42.349806],[-71.057792,42.349848],[-71.05747,42.349921],[-71.057478,42.349881],[-71.057811,42.349806]],[[-71.057295,42.354845],[-71.057249,42.354891],[-71.057192,42.354868],[-71.057295,42.354845]],[[-71.056943,42.354381],[-71.056691,42.354762],[-71.056502,42.354776],[-71.056259,42.354831],[-71.056229,42.354666],[-71.056094,42.354605],[-71.055658,42.35468],[-71.05501,42.354826],[-71.056943,42.354381]]],[[[-71.065565,42.354342],[-71.065534,42.354305],[-71.065487,42.354301],[-71.065149,42.354377],[-71.065118,42.354397],[-71.065113,42.354432],[-71.065136,42.354456],[-71.065182,42.354465],[-71.065527,42.354387],[-71.065558,42.354367],[-71.065565,42.354342]]],[[[-71.065421,42.352871],[-71.065303,42.352844],[-71.065119,42.352885],[-71.065102,42.352932],[-71.065128,42.353013],[-71.065194,42.353027],[-71.065378,42.352986],[-71.065421,42.352871]]],[[[-71.06461,42.353278],[-71.064542,42.353266],[-71.064407,42.353297],[-71.064373,42.353397],[-71.064441,42.353411],[-71.064576,42.35338],[-71.06461,42.353278]]],[[[-71.063935,42.354829],[-71.063869,42.354811],[-71.06374,42.35484],[-71.063717,42.354889],[-71.063783,42.354906],[-71.063912,42.354877],[-71.063935,42.354829]]]]},"properties":{"kind":"building"}},{"type":"Feature","geometry":{"type":"MultiPolygon","coordinates":[[[[-71.066058,42.353451],[-71.066047,42.35341],[-71.066015,42.353375],[-71.065912,42.353343],[-71.065535,42.353424],[-71.065448,42.3534],[-71.065375,42.353412],[-71.065361,42.353396],[-71.065891,42.353268],[-71.065918,42.353219],[-71.065911,42.353192],[-71.06586,42.353155],[-71.065877,42.353136],[-71.065981,42.353102],[-71.066007,42.353073],[-71.066016,42.353039],[-71.065995,42.352992],[-71.066039,42.352955],[-71.066048,42.352923],[-71.066021,42.352832],[-71.065989,42.352797],[-71.065886,42.352765],[-71.065774,42.352786],[-71.06575,42.352742],[-71.065693,42.352724],[-71.065176,42.352842],[-71.065164,42.352827],[-71.065976,42.352648],[-71.066016,42.352618],[-71.066022,42.352597],[-71.066,42.352558],[-71.065947,42.352542],[-71.065871,42.352557],[-71.065812,42.352534],[-71.065751,42.352545],[-71.065688,42.352518],[-71.065459,42.352567],[-71.065434,42.352533],[-71.065361,42.35251],[-71.065105,42.352565],[-71.065081,42.35253],[-71.065012,42.352509],[-71.064439,42.352636],[-71.064386,42.352674],[-71.064379,42.352702],[-71.064407,42.352753],[-71.064439,42.352768],[-71.064513,42.352768],[-71.064699,42.352727],[-71.064726,42.352768],[-71.064799,42.352791],[-71.064979,42.352753],[-71.064973,42.352775],[-71.064724,42.35284],[-71.064707,42.352871],[-71.064743,42.352911],[-71.06474,42.352927],[-71.064072,42.353074],[-71.064007,42.353122],[-71.063985,42.353271],[-71.063766,42.353326],[-71.063789,42.353343],[-71.063992,42.353298],[-71.06385,42.353336],[-71.063841,42.353353],[-71.063864,42.35336],[-71.064017,42.353326],[-71.064109,42.353362],[-71.063984,42.353385],[-71.063965,42.353372],[-71.063926,42.35338],[-71.063903,42.353362],[-71.063681,42.353417],[-71.06369,42.353434],[-71.063722,42.35343],[-71.063732,42.35345],[-71.063785,42.353442],[-71.063804,42.353455],[-71.063976,42.353417],[-71.063961,42.353456],[-71.063969,42.353487],[-71.064029,42.353531],[-71.064071,42.353537],[-71.064454,42.353454],[-71.064465,42.353495],[-71.064043,42.353591],[-71.063989,42.353631],[-71.063989,42.353687],[-71.063951,42.353713],[-71.063951,42.35375],[-71.063751,42.353803],[-71.063774,42.35382],[-71.063916,42.353788],[-71.063928,42.353832],[-71.063912,42.35386],[-71.063928,42.353889],[-71.063907,42.353913],[-71.063819,42.353933],[-71.063774,42.353966],[-71.0636,42.354007],[-71.063583,42.35402],[-71.06359,42.354047],[-71.063625,42.354052],[-71.063777,42.354018],[-71.063773,42.354074],[-71.063848,42.354111],[-71.064031,42.354073],[-71.063812,42.35413],[-71.063808,42.354106],[-71.06378,42.354102],[-71.063515,42.354169],[-71.063539,42.354196],[-71.063772,42.354144],[-71.063749,42.354166],[-71.063748,42.354212],[-71.063664,42.354251],[-71.063674,42.354305],[-71.063543,42.354334],[-71.063464,42.354393],[-71.063452,42.354434],[-71.06349,42.354528],[-71.063317,42.354573],[-71.063238,42.354632],[-71.063226,42.354673],[-71.063246,42.354724],[-71.06319,42.354741],[-71.063179,42.354781],[-71.063224,42.354803],[-71.063326,42.354781],[-71.063146,42.354834],[-71.063119,42.354853],[-71.063119,42.354881],[-71.063164,42.354903],[-71.063293,42.354875],[-71.063313,42.354924],[-71.063369,42.354941],[-71.06382,42.354842],[-71.063799,42.354879],[-71.063804,42.354899],[-71.06387,42.354931],[-71.06433,42.35483],[-71.064395,42.354843],[-71.064669,42.354784],[-71.06454,42.354824],[-71.064505,42.354878],[-71.064539,42.354916],[-71.064631,42.354904],[-71.064687,42.354909],[-71.064703,42.354929],[-71.064172,42.355059],[-71.064141,42.355113],[-71.064149,42.355142],[-71.064205,42.355184],[-71.064245,42.35519],[-71.064845,42.355057],[-71.06492,42.355078],[-71.064968,42.355072],[-71.065607,42.354927],[-71.065674,42.354878],[-71.065683,42.354843],[-71.065647,42.354779],[-71.06556,42.354752],[-71.065484,42.354765],[-71.065481,42.354739],[-71.065444,42.354711],[-71.065345,42.354722],[-71.065351,42.354697],[-71.065331,42.354659],[-71.065785,42.354557],[-71.065827,42.354536],[-71.065865,42.354468],[-71.065855,42.354431],[-71.065785,42.354379],[-71.065685,42.354379],[-71.06502,42.35453],[-71.064968,42.354561],[-71.064624,42.354639],[-71.064592,42.354662],[-71.064455,42.354693],[-71.064451,42.354679],[-71.064531,42.354648],[-71.064546,42.354621],[-71.065049,42.35449],[-71.065067,42.354458],[-71.065029,42.354416],[-71.064942,42.354425],[-71.064899,42.354414],[-71.064802,42.354433],[-71.064775,42.354393],[-71.064726,42.354374],[-71.06494,42.354321],[-71.064951,42.354279],[-71.064903,42.354256],[-71.065082,42.35421],[-71.065099,42.354179],[-71.065063,42.354139],[-71.065231,42.354095],[-71.065248,42.354064],[-71.065235,42.354038],[-71.065325,42.354018],[-71.065273,42.354067],[-71.065288,42.354093],[-71.065322,42.354103],[-71.065698,42.354015],[-71.065709,42.353978],[-71.06576,42.353953],[-71.06576,42.353925],[-71.065734,42.353906],[-71.065378,42.353978],[-71.065375,42.353952],[-71.065585,42.353893],[-71.0656,42.353866],[-71.065568,42.353831],[-71.06548,42.353841],[-71.065448,42.353828],[-71.065589,42.353796],[-71.065625,42.353756],[-71.065608,42.353725],[-71.065567,42.353713],[-71.065391,42.353751],[-71.065363,42.353741],[-71.065532,42.353697],[-71.065545,42.353648],[-71.065968,42.353551],[-71.066015,42.353527],[-71.066047,42.353492],[-71.066058,42.353451]],[[-71.065168,42.35369],[-71.065051,42.353722],[-71.065037,42.353771],[-71.065071,42.353796],[-71.064902,42.353837],[-71.064865,42.353864],[-71.064865,42.353902],[-71.064781,42.353914],[-71.064779,42.353878],[-71.064737,42.353847],[-71.064638,42.353856],[-71.064632,42.353832],[-71.064588,42.3538],[-71.064504,42.353805],[-71.064437,42.353774],[-71.064389,42.353783],[-71.064386,42.353761],[-71.064444,42.353728],[-71.064444,42.353692],[-71.064528,42.353708],[-71.064644,42.353686],[-71.064679,42.353735],[-71.064783,42.353766],[-71.065168,42.35369]],[[-71.064996,42.353052],[-71.064929,42.353069],[-71.064927,42.353064],[-71.064996,42.353052]],[[-71.064895,42.353029],[-71.064895,42.35303],[-71.064893,42.353029],[-71.064895,42.353029]],[[-71.064785,42.354111],[-71.064751,42.35415],[-71.064505,42.354214],[-71.064475,42.354247],[-71.064505,42.35428],[-71.064602,42.354267],[-71.064401,42.354317],[-71.06441,42.354284],[-71.064389,42.354232],[-71.064602,42.354175],[-71.064633,42.354119],[-71.064618,42.354081],[-71.064664,42.354127],[-71.064785,42.354111]],[[-71.064244,42.354441],[-71.064225,42.354469],[-71.064174,42.354485],[-71.06411,42.354431],[-71.064211,42.354408],[-71.064244,42.354441]],[[-71.063976,42.354672],[-71.063951,42.354677],[-71.063938,42.354663],[-71.063966,42.354652],[-71.063976,42.354672]]],[[[-71.066046,42.354972],[-71.066026,42.354936],[-71.065952,42.354925],[-71.065532,42.35502],[-71.06549,42.355067],[-71.065532,42.355113],[-71.065584,42.355113],[-71.066004,42.355019],[-71.066046,42.354972]]],[[[-71.06602,42.354061],[-71.065981,42.354032],[-71.06587,42.354048],[-71.065528,42.354125],[-71.065498,42.354158],[-71.065528,42.354191],[-71.065566,42.354191],[-71.065908,42.354114],[-71.065996,42.354088],[-71.06602,42.354061]]],[[[-71.06597,42.354146],[-71.065947,42.354129],[-71.0657,42.354184],[-71.065688,42.354206],[-71.065717,42.354215],[-71.065956,42.354162],[-71.06597,42.354146]]],[[[-71.06583,42.348038],[-71.065811,42.348004],[-71.06574,42.347994],[-71.065334,42.348086],[-71.065293,42.34813],[-71.065334,42.348174],[-71.065383,42.348174],[-71.06579,42.348082],[-71.06583,42.348038]]],[[[-71.06579,42.34818],[-71.065774,42.348151],[-71.065735,42.348139],[-71.065346,42.348225],[-71.065312,42.348263],[-71.065346,42.348301],[-71.065073,42.348363],[-71.065039,42.348387],[-71.065039,42.348422],[-71.065073,42.348447],[-71.06512,42.348447],[-71.065717,42.348305],[-71.065727,42.348288],[-71.065703,42.348281],[-71.065551,42.348315],[-71.065514,42.348274],[-71.065756,42.348218],[-71.06579,42.34818]]],[[[-71.065738,42.348446],[-71.065721,42.348415],[-71.06568,42.348403],[-71.065483,42.348446],[-71.06546,42.348429],[-71.065213,42.348484],[-71.065201,42.348506],[-71.065249,42.348511],[-71.065245,42.348548],[-71.065299,42.348575],[-71.065702,42.348486],[-71.065738,42.348446]]],[[[-71.065598,42.348957],[-71.06558,42.348944],[-71.065412,42.348981],[-71.065402,42.348998],[-71.065426,42.349006],[-71.065598,42.348957]]],[[[-71.065588,42.351223],[-71.06557,42.35121],[-71.065363,42.351256],[-71.065354,42.351273],[-71.065377,42.351281],[-71.065588,42.351223]]],[[[-71.065562,42.349094],[-71.065544,42.349081],[-71.065376,42.349118],[-71.065366,42.349135],[-71.06539,42.349143],[-71.065562,42.349094]]],[[[-71.065559,42.349236],[-71.065544,42.349211],[-71.065491,42.349203],[-71.065196,42.34927],[-71.065166,42.349303],[-71.065196,42.349336],[-71.065233,42.349336],[-71.065529,42.349269],[-71.065559,42.349236]]],[[[-71.065433,42.34879],[-71.065418,42.348765],[-71.065365,42.348757],[-71.06507,42.348824],[-71.06504,42.348857],[-71.06507,42.34889],[-71.065107,42.34889],[-71.065403,42.348823],[-71.065433,42.34879]]],[[[-71.065396,42.34894],[-71.065385,42.348921],[-71.065346,42.348916],[-71.065056,42.348981],[-71.065034,42.349006],[-71.065056,42.34903],[-71.065083,42.34903],[-71.065374,42.348964],[-71.065396,42.34894]]],[[[-71.065379,42.34907],[-71.065364,42.349045],[-71.065311,42.349037],[-71.064969,42.349114],[-71.064939,42.349147],[-71.064969,42.34918],[-71.065007,42.34918],[-71.065349,42.349103],[-71.065379,42.34907]]],[[[-71.065368,42.35121],[-71.06535,42.351197],[-71.065267,42.351215],[-71.06525,42.351197],[-71.065069,42.351237],[-71.065059,42.351254],[-71.065146,42.351247],[-71.065163,42.351266],[-71.065368,42.35121]]],[[[-71.065176,42.35072],[-71.06514,42.350702],[-71.064889,42.350759],[-71.064875,42.350784],[-71.064909,42.350794],[-71.06516,42.350738],[-71.065176,42.35072]]],[[[-71.065151,42.350784],[-71.065115,42.350766],[-71.064864,42.350823],[-71.06485,42.350848],[-71.064884,42.350858],[-71.065135,42.350802],[-71.065151,42.350784]]],[[[-71.065129,42.350853],[-71.06511,42.350839],[-71.064877,42.350891],[-71.064866,42.350909],[-71.064892,42.350917],[-71.065129,42.350853]]],[[[-71.064944,42.35131],[-71.064926,42.351297],[-71.064732,42.35134],[-71.064722,42.351357],[-71.064746,42.351365],[-71.064944,42.35131]]],[[[-71.064857,42.348456],[-71.064839,42.348443],[-71.064658,42.348483],[-71.064648,42.3485],[-71.064672,42.348508],[-71.064857,42.348456]]],[[[-71.064624,42.351826],[-71.064606,42.351813],[-71.064425,42.351853],[-71.064415,42.35187],[-71.064439,42.351878],[-71.064624,42.351826]]],[[[-71.064621,42.348425],[-71.064603,42.348412],[-71.064422,42.348452],[-71.064412,42.348469],[-71.064436,42.348477],[-71.064621,42.348425]]],[[[-71.064568,42.352055],[-71.06455,42.352042],[-71.064356,42.352085],[-71.064346,42.352102],[-71.06437,42.35211],[-71.064568,42.352055]]],[[[-71.064564,42.352104],[-71.064545,42.35209],[-71.064312,42.352142],[-71.064301,42.35216],[-71.064327,42.352168],[-71.064564,42.352104]]],[[[-71.064548,42.35216],[-71.06453,42.352147],[-71.064349,42.352187],[-71.064339,42.352204],[-71.064363,42.352212],[-71.064548,42.35216]]],[[[-71.064436,42.348399],[-71.064418,42.348386],[-71.064237,42.348426],[-71.064227,42.348443],[-71.064251,42.348451],[-71.064436,42.348399]]],[[[-71.064238,42.350925],[-71.06422,42.350912],[-71.064039,42.350952],[-71.064029,42.350969],[-71.064053,42.350977],[-71.064238,42.350925]]],[[[-71.064209,42.34872],[-71.064186,42.348703],[-71.063939,42.348758],[-71.063927,42.34878],[-71.063956,42.348789],[-71.064195,42.348736],[-71.064209,42.34872]]],[[[-71.064168,42.34884],[-71.06415,42.348827],[-71.06393,42.348876],[-71.063921,42.348893],[-71.063944,42.3489],[-71.064168,42.34884]]],[[[-71.064148,42.350914],[-71.06413,42.350901],[-71.064082,42.350911],[-71.06405,42.35089],[-71.063972,42.350907],[-71.063962,42.350883],[-71.063934,42.350874],[-71.063616,42.350945],[-71.063592,42.350971],[-71.063616,42.350998],[-71.06374,42.350977],[-71.063773,42.351001],[-71.064148,42.350914]]],[[[-71.063943,42.353268],[-71.06392,42.353251],[-71.063673,42.353306],[-71.063661,42.353328],[-71.06369,42.353337],[-71.063929,42.353284],[-71.063943,42.353268]]],[[[-71.063915,42.348675],[-71.063896,42.348661],[-71.063663,42.348713],[-71.063653,42.348731],[-71.063678,42.348739],[-71.063915,42.348675]]],[[[-71.063893,42.348743],[-71.06387,42.348726],[-71.063623,42.348781],[-71.063611,42.348803],[-71.06364,42.348812],[-71.063879,42.348759],[-71.063893,42.348743]]],[[[-71.063879,42.34887],[-71.06386,42.348856],[-71.063627,42.348908],[-71.063617,42.348926],[-71.063642,42.348934],[-71.063879,42.34887]]],[[[-71.063873,42.348793],[-71.063855,42.34878],[-71.063674,42.34882],[-71.063664,42.348837],[-71.063688,42.348845],[-71.063873,42.348793]]],[[[-71.063821,42.349148],[-71.063803,42.349135],[-71.063622,42.349175],[-71.063612,42.349192],[-71.063636,42.3492],[-71.063821,42.349148]]],[[[-71.063808,42.348427],[-71.06379,42.348414],[-71.063609,42.348454],[-71.063599,42.348471],[-71.063623,42.348479],[-71.063808,42.348427]]],[[[-71.063768,42.349293],[-71.06375,42.34928],[-71.063569,42.34932],[-71.063559,42.349337],[-71.063583,42.349345],[-71.063768,42.349293]]],[[[-71.063755,42.349335],[-71.063737,42.349322],[-71.063556,42.349362],[-71.063546,42.349379],[-71.06357,42.349387],[-71.063755,42.349335]]],[[[-71.063718,42.34841],[-71.0637,42.348397],[-71.063519,42.348437],[-71.063509,42.348454],[-71.063533,42.348462],[-71.063718,42.34841]]],[[[-71.063707,42.350883],[-71.063675,42.350859],[-71.063545,42.350869],[-71.06352,42.350845],[-71.063259,42.350903],[-71.063245,42.350928],[-71.063269,42.35094],[-71.06333,42.350927],[-71.063398,42.35097],[-71.063687,42.350905],[-71.063707,42.350883]]],[[[-71.063689,42.34976],[-71.06367,42.349746],[-71.063437,42.349798],[-71.063427,42.349816],[-71.063452,42.349824],[-71.063689,42.34976]]],[[[-71.063632,42.349854],[-71.063614,42.349841],[-71.063394,42.34989],[-71.063385,42.349907],[-71.063408,42.349914],[-71.063632,42.349854]]],[[[-71.063579,42.34995],[-71.06356,42.349936],[-71.063327,42.349988],[-71.063317,42.350006],[-71.063342,42.350014],[-71.063579,42.34995]]],[[[-71.063548,42.35],[-71.06353,42.349987],[-71.06331,42.350036],[-71.063301,42.350053],[-71.063324,42.35006],[-71.063548,42.35]]],[[[-71.063458,42.350418],[-71.06344,42.350405],[-71.06331,42.350427],[-71.063116,42.35047],[-71.063106,42.350487],[-71.063227,42.350479],[-71.063458,42.350418]]],[[[-71.063458,42.35018],[-71.06344,42.350167],[-71.063233,42.350213],[-71.063224,42.35023],[-71.063247,42.350238],[-71.063458,42.35018]]],[[[-71.063434,42.350487],[-71.063416,42.350474],[-71.063209,42.35052],[-71.063048,42.350569],[-71.063039,42.350586],[-71.063062,42.350594],[-71.063262,42.350548],[-71.063434,42.350487]]],[[[-71.063428,42.350246],[-71.06341,42.350233],[-71.063203,42.350279],[-71.063194,42.350296],[-71.063217,42.350304],[-71.063428,42.350246]]],[[[-71.063403,42.35055],[-71.063385,42.350537],[-71.063223,42.35057],[-71.06301,42.350618],[-71.063001,42.350635],[-71.063024,42.350642],[-71.063205,42.350605],[-71.063403,42.35055]]],[[[-71.063403,42.35028],[-71.063385,42.350267],[-71.063178,42.350313],[-71.063169,42.35033],[-71.063192,42.350338],[-71.063403,42.35028]]],[[[-71.063386,42.350826],[-71.06335,42.350808],[-71.063099,42.350865],[-71.063085,42.35089],[-71.063119,42.3509],[-71.06337,42.350844],[-71.063386,42.350826]]],[[[-71.063383,42.350765],[-71.063343,42.350745],[-71.063078,42.350805],[-71.06306,42.350825],[-71.063101,42.350845],[-71.063365,42.350785],[-71.063383,42.350765]]],[[[-71.063369,42.350704],[-71.06335,42.35069],[-71.063178,42.350728],[-71.06316,42.350714],[-71.062953,42.35076],[-71.062944,42.350777],[-71.062967,42.350785],[-71.063105,42.350753],[-71.062897,42.350803],[-71.062886,42.350821],[-71.062912,42.350829],[-71.063137,42.350778],[-71.063369,42.350704]]],[[[-71.063368,42.35061],[-71.06335,42.350597],[-71.063203,42.350618],[-71.06299,42.350666],[-71.062981,42.350683],[-71.06317,42.350665],[-71.063368,42.35061]]],[[[-71.063298,42.350483],[-71.06328,42.35047],[-71.063073,42.350516],[-71.063064,42.350533],[-71.063087,42.350541],[-71.063298,42.350483]]],[[[-71.063198,42.350677],[-71.06318,42.350664],[-71.063012,42.350701],[-71.063002,42.350718],[-71.063026,42.350726],[-71.063198,42.350677]]],[[[-71.063144,42.352238],[-71.063126,42.352225],[-71.062983,42.352255],[-71.062965,42.35224],[-71.062771,42.352283],[-71.062761,42.3523],[-71.06286,42.352291],[-71.062878,42.352306],[-71.063144,42.352238]]],[[[-71.062922,42.35222],[-71.062904,42.352207],[-71.062847,42.352219],[-71.06283,42.352202],[-71.062636,42.352245],[-71.062626,42.352262],[-71.062687,42.352261],[-71.062704,42.352279],[-71.062922,42.35222]]],[[[-71.062829,42.353302],[-71.06281,42.353288],[-71.062731,42.35329],[-71.062493,42.353344],[-71.062481,42.353366],[-71.062584,42.353367],[-71.062829,42.353302]]],[[[-71.062829,42.353214],[-71.06281,42.3532],[-71.062763,42.35321],[-71.062744,42.353193],[-71.062511,42.353245],[-71.0625,42.353263],[-71.062566,42.353262],[-71.062584,42.353279],[-71.062829,42.353214]]],[[[-71.062559,42.348354],[-71.06253,42.348332],[-71.062404,42.34836],[-71.062355,42.348346],[-71.062052,42.348415],[-71.062028,42.348441],[-71.062052,42.348468],[-71.062082,42.348468],[-71.062541,42.348374],[-71.062559,42.348354]]],[[[-71.062496,42.349373],[-71.062484,42.349351],[-71.062438,42.349344],[-71.062122,42.349416],[-71.062096,42.349444],[-71.062122,42.349473],[-71.062154,42.349473],[-71.06247,42.349402],[-71.062496,42.349373]]],[[[-71.062463,42.348557],[-71.06244,42.34854],[-71.062193,42.348595],[-71.062181,42.348617],[-71.06221,42.348626],[-71.062449,42.348573],[-71.062463,42.348557]]],[[[-71.062392,42.349323],[-71.06238,42.349301],[-71.062334,42.349294],[-71.062018,42.349366],[-71.061992,42.349394],[-71.062018,42.349423],[-71.06205,42.349423],[-71.062366,42.349352],[-71.062392,42.349323]]],[[[-71.062039,42.353752],[-71.06202,42.353738],[-71.061828,42.35378],[-71.061803,42.353771],[-71.061629,42.35381],[-71.061619,42.353827],[-71.061643,42.353835],[-71.061776,42.353805],[-71.061802,42.353816],[-71.062039,42.353752]]],[[[-71.062006,42.349306],[-71.061988,42.349293],[-71.061807,42.349333],[-71.061797,42.34935],[-71.061821,42.349358],[-71.062006,42.349306]]],[[[-71.061988,42.35386],[-71.06197,42.353847],[-71.061789,42.353887],[-71.061779,42.353904],[-71.061803,42.353912],[-71.061988,42.35386]]],[[[-71.061951,42.349438],[-71.061933,42.349425],[-71.061752,42.349465],[-71.061742,42.349482],[-71.061766,42.34949],[-71.061951,42.349438]]],[[[-71.061941,42.349548],[-71.061926,42.349523],[-71.061873,42.349515],[-71.061578,42.349582],[-71.061548,42.349615],[-71.061578,42.349648],[-71.061615,42.349648],[-71.061911,42.349581],[-71.061941,42.349548]]],[[[-71.061928,42.34988],[-71.06191,42.349867],[-71.061729,42.349907],[-71.061719,42.349924],[-71.061743,42.349932],[-71.061928,42.34988]]],[[[-71.061924,42.3537],[-71.061905,42.353686],[-71.061548,42.353765],[-71.061538,42.353782],[-71.061562,42.35379],[-71.061687,42.353764],[-71.061924,42.3537]]],[[[-71.061909,42.353825],[-71.06189,42.353811],[-71.061657,42.353863],[-71.061646,42.353881],[-71.061672,42.353889],[-71.061909,42.353825]]],[[[-71.061898,42.349926],[-71.06188,42.349913],[-71.061699,42.349953],[-71.061689,42.34997],[-71.061713,42.349978],[-71.061898,42.349926]]],[[[-71.061892,42.35],[-71.061874,42.349987],[-71.061693,42.350027],[-71.061683,42.350044],[-71.061707,42.350052],[-71.061892,42.35]]],[[[-71.061868,42.350044],[-71.06185,42.350031],[-71.061669,42.350071],[-71.061659,42.350088],[-71.061683,42.350096],[-71.061868,42.350044]]],[[[-71.061851,42.348312],[-71.061838,42.348288],[-71.061806,42.348278],[-71.061639,42.348315],[-71.061641,42.348281],[-71.06159,42.348256],[-71.061201,42.348342],[-71.061167,42.34838],[-71.061183,42.348409],[-71.061222,42.348421],[-71.061435,42.348374],[-71.061445,42.34841],[-71.061477,42.34842],[-71.061823,42.348343],[-71.061851,42.348312]]],[[[-71.061838,42.35008],[-71.06182,42.350067],[-71.061639,42.350107],[-71.061629,42.350124],[-71.061653,42.350132],[-71.061838,42.35008]]],[[[-71.061825,42.353653],[-71.061806,42.353639],[-71.061573,42.353691],[-71.061562,42.353709],[-71.061588,42.353717],[-71.061825,42.353653]]],[[[-71.061824,42.350155],[-71.061806,42.350142],[-71.061638,42.350179],[-71.061628,42.350196],[-71.061652,42.350204],[-71.061824,42.350155]]],[[[-71.061798,42.3502],[-71.06178,42.350187],[-71.061599,42.350227],[-71.061589,42.350244],[-71.061613,42.350252],[-71.061798,42.3502]]],[[[-71.061789,42.350292],[-71.06175,42.350263],[-71.061432,42.350334],[-71.061411,42.350349],[-71.061418,42.350379],[-71.061359,42.350397],[-71.061349,42.350433],[-71.061391,42.350454],[-71.061737,42.350377],[-71.061762,42.350359],[-71.061752,42.350322],[-71.061789,42.350292]]],[[[-71.06177,42.348421],[-71.061752,42.348408],[-71.061571,42.348448],[-71.061561,42.348465],[-71.061585,42.348473],[-71.06177,42.348421]]],[[[-71.061766,42.349666],[-71.061751,42.349641],[-71.061698,42.349633],[-71.061403,42.3497],[-71.061373,42.349733],[-71.061403,42.349766],[-71.06144,42.349766],[-71.061736,42.349699],[-71.061766,42.349666]]],[[[-71.061759,42.353607],[-71.061744,42.353582],[-71.061691,42.353574],[-71.061396,42.353641],[-71.061366,42.353674],[-71.061396,42.353707],[-71.061433,42.353707],[-71.061729,42.35364],[-71.061759,42.353607]]],[[[-71.061692,42.348648],[-71.06168,42.348626],[-71.06165,42.348617],[-71.061503,42.348639],[-71.061174,42.348713],[-71.061146,42.348744],[-71.061174,42.348775],[-71.061208,42.348775],[-71.061666,42.348677],[-71.061692,42.348648]]],[[[-71.061628,42.35355],[-71.06161,42.353537],[-71.061403,42.353583],[-71.061393,42.3536],[-71.061417,42.353608],[-71.061628,42.35355]]],[[[-71.06161,42.348837],[-71.061592,42.348824],[-71.061499,42.348844],[-71.061476,42.348825],[-71.061444,42.348825],[-71.061128,42.348897],[-71.061102,42.348925],[-71.061128,42.348954],[-71.06116,42.348954],[-71.061476,42.348883],[-71.06161,42.348837]]],[[[-71.061608,42.3485],[-71.06159,42.348487],[-71.061409,42.348527],[-71.061399,42.348544],[-71.061423,42.348552],[-71.061608,42.3485]]],[[[-71.061597,42.348184],[-71.061579,42.348171],[-71.061372,42.348217],[-71.061363,42.348234],[-71.06113,42.348288],[-71.061113,42.34832],[-71.061155,42.348333],[-71.061432,42.34827],[-71.06145,42.348257],[-71.061443,42.348231],[-71.061597,42.348184]]],[[[-71.061548,42.349568],[-71.061518,42.349535],[-71.061447,42.349542],[-71.061435,42.349509],[-71.061382,42.349501],[-71.061071,42.349575],[-71.061057,42.349601],[-71.061071,42.349626],[-71.061105,42.349637],[-71.061157,42.349627],[-71.061156,42.34964],[-71.06107,42.34966],[-71.06106,42.349677],[-71.061222,42.349668],[-71.061518,42.349601],[-71.061548,42.349568]]],[[[-71.061493,42.35095],[-71.06147,42.350933],[-71.061223,42.350988],[-71.061211,42.35101],[-71.06124,42.351019],[-71.061479,42.350966],[-71.061493,42.35095]]],[[[-71.061472,42.34815],[-71.061454,42.348118],[-71.061386,42.348108],[-71.060993,42.348197],[-71.060955,42.348239],[-71.060993,42.348281],[-71.06104,42.348281],[-71.061434,42.348192],[-71.061472,42.34815]]],[[[-71.061438,42.349255],[-71.06142,42.349242],[-71.061213,42.349288],[-71.061204,42.349305],[-71.061227,42.349313],[-71.061438,42.349255]]],[[[-71.061418,42.351122],[-71.0614,42.351109],[-71.061219,42.351149],[-71.061209,42.351166],[-71.061233,42.351174],[-71.061418,42.351122]]],[[[-71.061399,42.349052],[-71.06138,42.349038],[-71.061147,42.34909],[-71.061137,42.349108],[-71.061162,42.349116],[-71.061399,42.349052]]],[[[-71.061397,42.35118],[-71.061379,42.351167],[-71.061198,42.351207],[-71.061188,42.351224],[-71.061212,42.351232],[-71.061397,42.35118]]],[[[-71.061371,42.35124],[-71.061353,42.351227],[-71.061172,42.351267],[-71.061162,42.351284],[-71.061186,42.351292],[-71.061371,42.35124]]],[[[-71.061368,42.34943],[-71.06135,42.349417],[-71.061169,42.349457],[-71.061159,42.349474],[-71.061183,42.349482],[-71.061368,42.34943]]],[[[-71.061352,42.351289],[-71.061334,42.351276],[-71.061153,42.351316],[-71.061143,42.351333],[-71.061167,42.351341],[-71.061352,42.351289]]],[[[-71.061349,42.349228],[-71.061309,42.349208],[-71.061045,42.349268],[-71.061026,42.349288],[-71.061067,42.349308],[-71.061331,42.349248],[-71.061349,42.349228]]],[[[-71.061261,42.349678],[-71.061243,42.349665],[-71.061049,42.349708],[-71.061039,42.349725],[-71.061063,42.349733],[-71.061261,42.349678]]],[[[-71.061244,42.35337],[-71.061226,42.353357],[-71.061045,42.353397],[-71.061035,42.353414],[-71.061059,42.353422],[-71.061244,42.35337]]],[[[-71.061238,42.354774],[-71.06122,42.354761],[-71.061039,42.354801],[-71.061029,42.354818],[-71.061053,42.354826],[-71.061238,42.354774]]],[[[-71.061222,42.34983],[-71.06121,42.349808],[-71.061164,42.349801],[-71.060848,42.349873],[-71.060822,42.349901],[-71.060848,42.34993],[-71.06088,42.34993],[-71.061196,42.349859],[-71.061222,42.34983]]],[[[-71.061188,42.354916],[-71.06117,42.354903],[-71.060989,42.354943],[-71.060979,42.35496],[-71.061003,42.354968],[-71.061188,42.354916]]],[[[-71.061188,42.353344],[-71.06117,42.353331],[-71.060989,42.353371],[-71.060979,42.353388],[-71.061003,42.353396],[-71.061188,42.353344]]],[[[-71.061156,42.35003],[-71.061141,42.350003],[-71.061084,42.349995],[-71.060729,42.350075],[-71.060697,42.35011],[-71.060729,42.350146],[-71.060769,42.350146],[-71.061124,42.350065],[-71.061156,42.35003]]],[[[-71.061138,42.35332],[-71.06112,42.353307],[-71.060939,42.353347],[-71.060789,42.35339],[-71.060779,42.353407],[-71.060803,42.353415],[-71.060977,42.353375],[-71.061138,42.35332]]],[[[-71.061048,42.353275],[-71.06103,42.353262],[-71.060861,42.353299],[-71.060837,42.35329],[-71.060663,42.353329],[-71.060653,42.353346],[-71.060677,42.353354],[-71.060813,42.353323],[-71.060823,42.353333],[-71.060701,42.353367],[-71.060725,42.353385],[-71.060912,42.353342],[-71.060912,42.353318],[-71.061048,42.353275]]],[[[-71.061038,42.34849],[-71.06102,42.348477],[-71.060839,42.348517],[-71.060829,42.348534],[-71.060853,42.348542],[-71.061038,42.34849]]],[[[-71.061032,42.348602],[-71.061017,42.348575],[-71.06096,42.348567],[-71.060605,42.348647],[-71.060573,42.348682],[-71.060605,42.348718],[-71.060645,42.348718],[-71.061,42.348637],[-71.061032,42.348602]]],[[[-71.061005,42.348717],[-71.060989,42.348688],[-71.060929,42.348679],[-71.060561,42.348762],[-71.060527,42.3488],[-71.060561,42.348838],[-71.060603,42.348838],[-71.060971,42.348755],[-71.061005,42.348717]]],[[[-71.060942,42.348827],[-71.06093,42.348805],[-71.060884,42.348798],[-71.060568,42.34887],[-71.060542,42.348898],[-71.060568,42.348927],[-71.0606,42.348927],[-71.060916,42.348856],[-71.060942,42.348827]]],[[[-71.060938,42.35322],[-71.06092,42.353207],[-71.060739,42.353247],[-71.060729,42.353264],[-71.060753,42.353272],[-71.060938,42.35322]]],[[[-71.060847,42.349174],[-71.060827,42.349137],[-71.060749,42.349125],[-71.060316,42.349223],[-71.060272,42.349272],[-71.060316,42.34932],[-71.060436,42.349313],[-71.060803,42.349223],[-71.060847,42.349174]]],[[[-71.060733,42.34939],[-71.060718,42.349365],[-71.060684,42.349354],[-71.06037,42.349424],[-71.060343,42.349443],[-71.060351,42.349479],[-71.060326,42.3495],[-71.06035,42.349508],[-71.060703,42.349423],[-71.060733,42.34939]]],[[[-71.060695,42.349506],[-71.06068,42.349481],[-71.060646,42.34947],[-71.06052,42.34949],[-71.060326,42.349533],[-71.06027,42.349558],[-71.060255,42.349583],[-71.060285,42.349616],[-71.060323,42.349616],[-71.060665,42.349539],[-71.060695,42.349506]]],[[[-71.060609,42.34967],[-71.060579,42.349637],[-71.060481,42.34965],[-71.060488,42.34964],[-71.06047,42.349627],[-71.060289,42.349667],[-71.060289,42.349692],[-71.060199,42.349714],[-71.060169,42.349747],[-71.060199,42.34978],[-71.060237,42.34978],[-71.060579,42.349703],[-71.060609,42.34967]]],[[[-71.060608,42.3493],[-71.06059,42.349287],[-71.060409,42.349327],[-71.060399,42.349344],[-71.060423,42.349352],[-71.060608,42.3493]]],[[[-71.060598,42.35304],[-71.06058,42.353027],[-71.060399,42.353067],[-71.060389,42.353084],[-71.060229,42.353127],[-71.060219,42.353144],[-71.060243,42.353152],[-71.060417,42.353112],[-71.060427,42.353095],[-71.060598,42.35304]]],[[[-71.060588,42.349342],[-71.06057,42.349329],[-71.060389,42.349369],[-71.060379,42.349386],[-71.060403,42.349394],[-71.060588,42.349342]]],[[[-71.060582,42.349792],[-71.060567,42.349765],[-71.06051,42.349757],[-71.060155,42.349837],[-71.060123,42.349872],[-71.060155,42.349908],[-71.060195,42.349908],[-71.06055,42.349827],[-71.060582,42.349792]]],[[[-71.060518,42.352997],[-71.0605,42.352984],[-71.060319,42.353024],[-71.060309,42.353041],[-71.060333,42.353049],[-71.060518,42.352997]]],[[[-71.060508,42.353283],[-71.06049,42.35327],[-71.060296,42.353313],[-71.060286,42.35333],[-71.06031,42.353338],[-71.060508,42.353283]]],[[[-71.060504,42.35315],[-71.060486,42.353137],[-71.060305,42.353177],[-71.060295,42.353194],[-71.060319,42.353202],[-71.060504,42.35315]]],[[[-71.060504,42.3496],[-71.060486,42.349587],[-71.060305,42.349627],[-71.060295,42.349644],[-71.060319,42.349652],[-71.060504,42.3496]]],[[[-71.060468,42.352974],[-71.06045,42.352961],[-71.060256,42.353004],[-71.060246,42.353021],[-71.06027,42.353029],[-71.060468,42.352974]]],[[[-71.060419,42.353405],[-71.060418,42.35338],[-71.0604,42.353367],[-71.060062,42.353447],[-71.060038,42.353473],[-71.060062,42.3535],[-71.060148,42.353487],[-71.060173,42.353499],[-71.060347,42.353459],[-71.060419,42.353405]]],[[[-71.060388,42.349884],[-71.06037,42.349871],[-71.060176,42.349914],[-71.060166,42.349931],[-71.06019,42.349939],[-71.060388,42.349884]]],[[[-71.060374,42.35307],[-71.060356,42.353057],[-71.060175,42.353097],[-71.060165,42.353114],[-71.060189,42.353122],[-71.060374,42.35307]]],[[[-71.060318,42.350037],[-71.0603,42.350024],[-71.060119,42.350064],[-71.060109,42.350081],[-71.060133,42.350089],[-71.060318,42.350037]]],[[[-71.060314,42.35015],[-71.060286,42.350118],[-71.060297,42.3501],[-71.060273,42.350093],[-71.059951,42.350184],[-71.059921,42.350217],[-71.059951,42.35025],[-71.059988,42.35025],[-71.060284,42.350183],[-71.060314,42.35015]]],[[[-71.060174,42.34947],[-71.060163,42.34945],[-71.06012,42.349443],[-71.059817,42.349512],[-71.059793,42.349538],[-71.059817,42.349565],[-71.059847,42.349565],[-71.06015,42.349497],[-71.060174,42.34947]]],[[[-71.060158,42.352962],[-71.06014,42.352949],[-71.059959,42.352989],[-71.059949,42.353006],[-71.059973,42.353014],[-71.060158,42.352962]]],[[[-71.060119,42.349556],[-71.060079,42.349536],[-71.059814,42.349596],[-71.059796,42.349616],[-71.059837,42.349636],[-71.060101,42.349576],[-71.060119,42.349556]]],[[[-71.060105,42.35341],[-71.060092,42.353386],[-71.060043,42.353379],[-71.059714,42.353453],[-71.059686,42.353484],[-71.059714,42.353515],[-71.059748,42.353515],[-71.060077,42.353441],[-71.060105,42.35341]]],[[[-71.060086,42.349644],[-71.060075,42.349625],[-71.060036,42.34962],[-71.059746,42.349685],[-71.059724,42.34971],[-71.059746,42.349734],[-71.059773,42.349734],[-71.060064,42.349668],[-71.060086,42.349644]]],[[[-71.059972,42.351044],[-71.05996,42.351022],[-71.059914,42.351015],[-71.059598,42.351087],[-71.059572,42.351115],[-71.059598,42.351144],[-71.05963,42.351144],[-71.059946,42.351073],[-71.059972,42.351044]]],[[[-71.059901,42.351135],[-71.059865,42.351117],[-71.059614,42.351174],[-71.0596,42.351199],[-71.059634,42.351209],[-71.059885,42.351153],[-71.059901,42.351135]]],[[[-71.059858,42.3533],[-71.05984,42.353287],[-71.059659,42.353327],[-71.059649,42.353344],[-71.059673,42.353352],[-71.059858,42.3533]]],[[[-71.059822,42.35326],[-71.05981,42.353238],[-71.059764,42.353231],[-71.059448,42.353303],[-71.059422,42.353331],[-71.059448,42.35336],[-71.05948,42.35336],[-71.059796,42.353289],[-71.059822,42.35326]]],[[[-71.059758,42.352753],[-71.05974,42.35274],[-71.059586,42.352774],[-71.059687,42.352742],[-71.059677,42.352725],[-71.059634,42.352731],[-71.059616,42.352717],[-71.059226,42.352817],[-71.059196,42.35285],[-71.059226,42.352883],[-71.059263,42.352883],[-71.059559,42.352816],[-71.059758,42.352753]]],[[[-71.059669,42.354954],[-71.059651,42.354934],[-71.059611,42.354938],[-71.05962,42.354911],[-71.05955,42.354866],[-71.059243,42.354943],[-71.05925,42.35497],[-71.0593,42.355005],[-71.059356,42.354998],[-71.059349,42.355022],[-71.059376,42.355035],[-71.059651,42.354974],[-71.059669,42.354954]]],[[[-71.059649,42.35171],[-71.059634,42.351685],[-71.059581,42.351677],[-71.059286,42.351744],[-71.059259,42.351763],[-71.059053,42.351818],[-71.059041,42.35184],[-71.05907,42.351849],[-71.059273,42.351804],[-71.059323,42.35181],[-71.059619,42.351743],[-71.059649,42.35171]]],[[[-71.059562,42.3516],[-71.059553,42.351583],[-71.059518,42.351578],[-71.05924,42.35164],[-71.059169,42.351666],[-71.059155,42.351691],[-71.059189,42.351701],[-71.059542,42.351622],[-71.059562,42.3516]]],[[[-71.059518,42.351097],[-71.0595,42.351084],[-71.059319,42.351124],[-71.059309,42.351141],[-71.059333,42.351149],[-71.059518,42.351097]]],[[[-71.059482,42.354813],[-71.059473,42.354796],[-71.059438,42.354791],[-71.05916,42.354853],[-71.059143,42.354885],[-71.059185,42.354898],[-71.059462,42.354835],[-71.059482,42.354813]]],[[[-71.059478,42.35117],[-71.05946,42.351157],[-71.059279,42.351197],[-71.059269,42.351214],[-71.059293,42.351222],[-71.059478,42.35117]]],[[[-71.059432,42.354774],[-71.059389,42.354714],[-71.059364,42.354707],[-71.05906,42.354774],[-71.059038,42.354799],[-71.05906,42.354823],[-71.059099,42.35482],[-71.0591,42.354854],[-71.059123,42.354861],[-71.059412,42.354796],[-71.059432,42.354774]]],[[[-71.059428,42.3531],[-71.05941,42.353087],[-71.059229,42.353127],[-71.059219,42.353144],[-71.059243,42.353152],[-71.059428,42.3531]]],[[[-71.059418,42.35301],[-71.0594,42.352997],[-71.059219,42.353037],[-71.059209,42.353054],[-71.059233,42.353062],[-71.059418,42.35301]]],[[[-71.059387,42.351704],[-71.059364,42.351687],[-71.059117,42.351742],[-71.059105,42.351764],[-71.059134,42.351773],[-71.059373,42.35172],[-71.059387,42.351704]]],[[[-71.059219,42.35129],[-71.059204,42.351265],[-71.05917,42.351254],[-71.059183,42.35123],[-71.05911,42.351194],[-71.058749,42.351274],[-71.058719,42.351307],[-71.058749,42.35134],[-71.058804,42.351336],[-71.058779,42.351367],[-71.058794,42.351393],[-71.058749,42.351434],[-71.058764,42.35146],[-71.058798,42.35147],[-71.059159,42.35139],[-71.059185,42.351371],[-71.059174,42.351332],[-71.059219,42.35129]]],[[[-71.059184,42.353294],[-71.059166,42.353281],[-71.058985,42.353321],[-71.058975,42.353338],[-71.058999,42.353346],[-71.059184,42.353294]]],[[[-71.059098,42.35146],[-71.05908,42.351447],[-71.058899,42.351487],[-71.058889,42.351504],[-71.058913,42.351512],[-71.059098,42.35146]]],[[[-71.059092,42.354385],[-71.059083,42.354368],[-71.059048,42.354363],[-71.05877,42.354425],[-71.058753,42.354457],[-71.058795,42.35447],[-71.059072,42.354407],[-71.059092,42.354385]]],[[[-71.059088,42.353287],[-71.05907,42.353274],[-71.058995,42.35329],[-71.058997,42.353278],[-71.058973,42.353271],[-71.058799,42.35331],[-71.058789,42.353327],[-71.058881,42.353319],[-71.058879,42.353331],[-71.058903,42.353339],[-71.059088,42.353287]]],[[[-71.059066,42.351517],[-71.05903,42.351499],[-71.058779,42.351556],[-71.058765,42.351581],[-71.058799,42.351591],[-71.05905,42.351535],[-71.059066,42.351517]]],[[[-71.059018,42.354332],[-71.059,42.354319],[-71.058819,42.354359],[-71.058809,42.354376],[-71.058833,42.354384],[-71.059018,42.354332]]],[[[-71.059006,42.351604],[-71.05897,42.351578],[-71.058655,42.351651],[-71.058644,42.35167],[-71.058655,42.351688],[-71.058717,42.351701],[-71.05859,42.351736],[-71.05859,42.351769],[-71.058535,42.351785],[-71.058527,42.351814],[-71.058477,42.351835],[-71.058485,42.351864],[-71.058385,42.351893],[-71.058377,42.351924],[-71.058398,42.35194],[-71.058353,42.351959],[-71.058361,42.35199],[-71.058123,42.352051],[-71.058107,42.35208],[-71.058123,42.352109],[-71.058079,42.352125],[-71.058069,42.352161],[-71.058094,42.352179],[-71.058128,42.352179],[-71.058472,42.352098],[-71.058483,42.352064],[-71.058581,42.352013],[-71.058593,42.351957],[-71.058683,42.351923],[-71.05869,42.351897],[-71.058674,42.351884],[-71.058744,42.351865],[-71.058777,42.351831],[-71.058769,42.351814],[-71.058825,42.351799],[-71.058833,42.35177],[-71.058875,42.351757],[-71.058886,42.351738],[-71.058875,42.351719],[-71.05892,42.351699],[-71.058902,42.351668],[-71.058995,42.351623],[-71.059006,42.351604]]],[[[-71.058959,42.35429],[-71.05894,42.354276],[-71.058707,42.354328],[-71.058696,42.354346],[-71.058722,42.354354],[-71.058959,42.35429]]],[[[-71.058864,42.353268],[-71.058846,42.353255],[-71.058756,42.353274],[-71.058733,42.353256],[-71.058559,42.353295],[-71.058549,42.353312],[-71.058656,42.353301],[-71.058679,42.35332],[-71.058864,42.353268]]],[[[-71.058568,42.35253],[-71.05855,42.352517],[-71.058508,42.352525],[-71.05849,42.352511],[-71.058343,42.352529],[-71.058487,42.352493],[-71.058498,42.352486],[-71.058487,42.352467],[-71.058268,42.352513],[-71.058377,42.352482],[-71.058387,42.352465],[-71.058363,42.352458],[-71.058268,42.352479],[-71.058277,42.352462],[-71.058253,42.352455],[-71.058079,42.352494],[-71.058079,42.352519],[-71.058188,42.352497],[-71.058069,42.352539],[-71.058059,42.352556],[-71.058143,42.35255],[-71.058156,42.352573],[-71.05821,42.352561],[-71.058223,42.352584],[-71.058299,42.352567],[-71.058358,42.352568],[-71.058376,42.352583],[-71.058568,42.35253]]],[[[-71.058288,42.35091],[-71.05827,42.350897],[-71.058089,42.350937],[-71.058079,42.350954],[-71.058103,42.350962],[-71.058288,42.35091]]],[[[-71.058218,42.350887],[-71.0582,42.350874],[-71.058019,42.350914],[-71.058009,42.350931],[-71.058033,42.350939],[-71.058218,42.350887]]],[[[-71.058038,42.352665],[-71.05802,42.352652],[-71.057839,42.352692],[-71.057829,42.352709],[-71.057853,42.352717],[-71.058038,42.352665]]],[[[-71.058032,42.352768],[-71.058014,42.352755],[-71.057833,42.352795],[-71.057823,42.352812],[-71.057847,42.35282],[-71.058032,42.352768]]],[[[-71.058008,42.352905],[-71.05799,42.352892],[-71.057809,42.352932],[-71.057799,42.352949],[-71.057823,42.352957],[-71.058008,42.352905]]],[[[-71.057803,42.350693],[-71.057785,42.35068],[-71.057753,42.350686],[-71.05774,42.350664],[-71.057559,42.350704],[-71.057549,42.350721],[-71.057598,42.350723],[-71.057611,42.350746],[-71.057803,42.350693]]],[[[-71.05775,42.352226],[-71.057714,42.352208],[-71.057463,42.352265],[-71.057449,42.35229],[-71.057483,42.3523],[-71.057734,42.352244],[-71.05775,42.352226]]],[[[-71.057623,42.35219],[-71.057583,42.35217],[-71.057318,42.35223],[-71.0573,42.35225],[-71.057341,42.35227],[-71.057605,42.35221],[-71.057623,42.35219]]],[[[-71.057536,42.35216],[-71.05751,42.352141],[-71.057447,42.352154],[-71.057454,42.352133],[-71.05743,42.352121],[-71.057169,42.352179],[-71.057155,42.352204],[-71.057179,42.352216],[-71.057242,42.352202],[-71.057235,42.352224],[-71.057259,42.352236],[-71.05752,42.352178],[-71.057536,42.35216]]],[[[-71.057414,42.350403],[-71.057396,42.35039],[-71.057215,42.35043],[-71.057205,42.350447],[-71.057229,42.350455],[-71.057414,42.350403]]],[[[-71.057398,42.350494],[-71.05738,42.350481],[-71.057199,42.350521],[-71.057189,42.350538],[-71.056999,42.350577],[-71.056989,42.350594],[-71.057013,42.350602],[-71.057187,42.350562],[-71.057197,42.350545],[-71.057398,42.350494]]],[[[-71.057369,42.35211],[-71.057329,42.35209],[-71.057064,42.35215],[-71.057046,42.35217],[-71.057087,42.35219],[-71.057351,42.35213],[-71.057369,42.35211]]],[[[-71.057348,42.351707],[-71.05733,42.351694],[-71.057136,42.351737],[-71.057126,42.351754],[-71.05715,42.351762],[-71.057348,42.351707]]],[[[-71.057338,42.35175],[-71.05732,42.351737],[-71.057139,42.351777],[-71.057129,42.351794],[-71.057153,42.351802],[-71.057338,42.35175]]],[[[-71.057309,42.351897],[-71.057291,42.351884],[-71.05711,42.351924],[-71.0571,42.351941],[-71.057124,42.351949],[-71.057309,42.351897]]],[[[-71.057298,42.351955],[-71.05728,42.351942],[-71.057112,42.351979],[-71.057102,42.351996],[-71.057126,42.352004],[-71.057298,42.351955]]],[[[-71.057298,42.350925],[-71.05728,42.350912],[-71.057073,42.350958],[-71.057064,42.350975],[-71.057087,42.350983],[-71.057298,42.350925]]],[[[-71.057268,42.351063],[-71.05725,42.35105],[-71.057043,42.351096],[-71.057034,42.351113],[-71.057057,42.351121],[-71.057268,42.351063]]],[[[-71.057208,42.35141],[-71.05719,42.351397],[-71.057009,42.351437],[-71.056999,42.351454],[-71.057023,42.351462],[-71.057208,42.35141]]],[[[-71.057147,42.350632],[-71.057129,42.350619],[-71.056948,42.350659],[-71.056938,42.350676],[-71.056962,42.350684],[-71.057147,42.350632]]],[[[-71.057094,42.350533],[-71.057076,42.35052],[-71.056895,42.35056],[-71.056885,42.350577],[-71.056909,42.350585],[-71.057094,42.350533]]],[[[-71.057038,42.34984],[-71.05702,42.349827],[-71.056839,42.349867],[-71.056829,42.349884],[-71.056853,42.349892],[-71.057038,42.34984]]],[[[-71.057022,42.349903],[-71.05699,42.349879],[-71.05677,42.349928],[-71.056759,42.34989],[-71.056725,42.349879],[-71.056411,42.349949],[-71.056384,42.349968],[-71.056384,42.349996],[-71.056429,42.350018],[-71.056681,42.349962],[-71.056366,42.35004],[-71.056336,42.350073],[-71.05635,42.350098],[-71.056384,42.350109],[-71.056699,42.350039],[-71.056725,42.35002],[-71.056725,42.349992],[-71.057002,42.349925],[-71.057022,42.349903]]],[[[-71.056868,42.352028],[-71.05685,42.352015],[-71.05663,42.352064],[-71.056621,42.352081],[-71.056644,42.352088],[-71.056868,42.352028]]],[[[-71.056834,42.35023],[-71.056816,42.350217],[-71.056635,42.350257],[-71.056625,42.350274],[-71.056649,42.350282],[-71.056834,42.35023]]],[[[-71.056829,42.34976],[-71.056818,42.34974],[-71.056775,42.349733],[-71.056472,42.349802],[-71.056448,42.349828],[-71.056472,42.349855],[-71.056502,42.349855],[-71.056805,42.349787],[-71.056829,42.34976]]],[[[-71.056798,42.350307],[-71.05678,42.350294],[-71.056599,42.350334],[-71.056589,42.350351],[-71.056613,42.350359],[-71.056798,42.350307]]],[[[-71.056792,42.34984],[-71.056783,42.349823],[-71.056748,42.349818],[-71.05647,42.34988],[-71.056453,42.349912],[-71.056495,42.349925],[-71.056772,42.349862],[-71.056792,42.34984]]],[[[-71.056748,42.351994],[-71.05673,42.351981],[-71.056523,42.352027],[-71.056513,42.352044],[-71.056537,42.352052],[-71.056748,42.351994]]],[[[-71.056659,42.350094],[-71.056619,42.350074],[-71.056354,42.350134],[-71.056336,42.350154],[-71.056377,42.350174],[-71.056641,42.350114],[-71.056659,42.350094]]],[[[-71.056643,42.350613],[-71.056625,42.3506],[-71.056405,42.350649],[-71.056396,42.350666],[-71.056419,42.350673],[-71.056643,42.350613]]],[[[-71.056626,42.353203],[-71.05659,42.353185],[-71.056339,42.353242],[-71.056325,42.353267],[-71.056359,42.353277],[-71.05661,42.353221],[-71.056626,42.353203]]],[[[-71.056622,42.350185],[-71.056613,42.350168],[-71.056578,42.350163],[-71.0563,42.350225],[-71.056283,42.350257],[-71.056325,42.35027],[-71.056602,42.350207],[-71.056622,42.350185]]],[[[-71.056608,42.35068],[-71.05659,42.350667],[-71.05637,42.350716],[-71.056361,42.350733],[-71.056384,42.35074],[-71.056608,42.35068]]],[[[-71.056559,42.353165],[-71.05654,42.353151],[-71.056307,42.353203],[-71.056296,42.353221],[-71.056322,42.353229],[-71.056559,42.353165]]],[[[-71.056559,42.350834],[-71.056544,42.350809],[-71.05651,42.350798],[-71.056196,42.350868],[-71.056169,42.350887],[-71.056179,42.350925],[-71.055988,42.350969],[-71.055979,42.350986],[-71.056002,42.350993],[-71.056529,42.350867],[-71.056559,42.350834]]],[[[-71.056484,42.353127],[-71.056465,42.353113],[-71.056232,42.353165],[-71.056221,42.353183],[-71.056247,42.353191],[-71.056484,42.353127]]],[[[-71.056468,42.35192],[-71.05645,42.351907],[-71.05623,42.351956],[-71.056221,42.351973],[-71.056244,42.35198],[-71.056468,42.35192]]],[[[-71.056428,42.35103],[-71.05641,42.351017],[-71.056229,42.351057],[-71.056219,42.351074],[-71.056243,42.351082],[-71.056428,42.35103]]],[[[-71.056398,42.351097],[-71.05638,42.351084],[-71.05616,42.351133],[-71.056151,42.35115],[-71.056174,42.351157],[-71.056398,42.351097]]],[[[-71.056393,42.35309],[-71.05637,42.353073],[-71.056123,42.353128],[-71.056111,42.35315],[-71.05614,42.353159],[-71.056379,42.353106],[-71.056393,42.35309]]],[[[-71.056388,42.3519],[-71.05637,42.351887],[-71.056202,42.351924],[-71.056192,42.351941],[-71.056216,42.351949],[-71.056388,42.3519]]],[[[-71.056364,42.351176],[-71.056346,42.351163],[-71.056165,42.351203],[-71.056155,42.35122],[-71.056179,42.351228],[-71.056364,42.351176]]],[[[-71.056338,42.35493],[-71.05632,42.354917],[-71.0561,42.354966],[-71.056091,42.354983],[-71.056114,42.35499],[-71.056338,42.35493]]],[[[-71.056328,42.354836],[-71.05631,42.354823],[-71.05609,42.354872],[-71.056081,42.354889],[-71.056104,42.354896],[-71.056328,42.354836]]],[[[-71.056309,42.35475],[-71.05629,42.354736],[-71.056057,42.354788],[-71.056046,42.354806],[-71.056072,42.354814],[-71.056309,42.35475]]],[[[-71.056306,42.35467],[-71.05627,42.354652],[-71.056019,42.354709],[-71.056005,42.354734],[-71.056039,42.354744],[-71.05629,42.354688],[-71.056306,42.35467]]],[[[-71.056258,42.351376],[-71.05624,42.351363],[-71.056046,42.351406],[-71.056036,42.351423],[-71.05606,42.351431],[-71.056258,42.351376]]],[[[-71.056256,42.350842],[-71.056238,42.350829],[-71.056018,42.350878],[-71.056009,42.350895],[-71.056032,42.350902],[-71.056256,42.350842]]],[[[-71.056248,42.35305],[-71.05623,42.353037],[-71.056049,42.353077],[-71.056039,42.353094],[-71.056063,42.353102],[-71.056248,42.35305]]],[[[-71.056239,42.351411],[-71.056221,42.351398],[-71.056027,42.351441],[-71.056017,42.351458],[-71.056041,42.351466],[-71.056239,42.351411]]],[[[-71.056208,42.35145],[-71.05619,42.351437],[-71.055996,42.35148],[-71.055986,42.351497],[-71.05601,42.351505],[-71.056208,42.35145]]],[[[-71.056186,42.351036],[-71.056168,42.351023],[-71.055948,42.351072],[-71.055939,42.351089],[-71.055962,42.351096],[-71.056186,42.351036]]],[[[-71.056148,42.351145],[-71.05613,42.351132],[-71.05591,42.351181],[-71.055901,42.351198],[-71.055924,42.351205],[-71.056148,42.351145]]],[[[-71.056078,42.35171],[-71.05606,42.351697],[-71.055866,42.35174],[-71.055856,42.351757],[-71.05588,42.351765],[-71.056078,42.35171]]],[[[-71.055977,42.351355],[-71.055959,42.351342],[-71.055739,42.351391],[-71.05573,42.351408],[-71.055753,42.351415],[-71.055977,42.351355]]],[[[-71.055953,42.351412],[-71.055935,42.351399],[-71.055715,42.351448],[-71.055706,42.351465],[-71.055729,42.351472],[-71.055953,42.351412]]],[[[-71.05592,42.351482],[-71.055902,42.351469],[-71.055682,42.351518],[-71.055673,42.351535],[-71.055696,42.351542],[-71.05592,42.351482]]],[[[-71.055888,42.351561],[-71.05587,42.351548],[-71.05565,42.351597],[-71.055641,42.351614],[-71.055664,42.351621],[-71.055888,42.351561]]],[[[-71.055869,42.352226],[-71.055854,42.352201],[-71.05582,42.35219],[-71.055506,42.35226],[-71.055479,42.352279],[-71.055479,42.352307],[-71.055445,42.352329],[-71.055445,42.352357],[-71.05549,42.352379],[-71.055805,42.352309],[-71.055869,42.352226]]],[[[-71.055859,42.351622],[-71.055841,42.351609],[-71.055621,42.351658],[-71.055612,42.351675],[-71.055635,42.351682],[-71.055859,42.351622]]],[[[-71.055808,42.351727],[-71.05579,42.351714],[-71.05557,42.351763],[-71.055561,42.35178],[-71.055584,42.351787],[-71.055808,42.351727]]],[[[-71.055788,42.353336],[-71.055756,42.353312],[-71.055466,42.353376],[-71.055449,42.353408],[-71.055466,42.353421],[-71.05541,42.353438],[-71.055382,42.353486],[-71.055408,42.353494],[-71.055633,42.353443],[-71.055716,42.353409],[-71.055724,42.353394],[-71.055706,42.353374],[-71.055768,42.353358],[-71.055788,42.353336]]],[[[-71.055788,42.351776],[-71.05577,42.351763],[-71.05555,42.351812],[-71.055541,42.351829],[-71.055564,42.351836],[-71.055788,42.351776]]],[[[-71.055558,42.353497],[-71.05554,42.353484],[-71.05532,42.353533],[-71.055276,42.353577],[-71.0553,42.353585],[-71.055487,42.353542],[-71.055558,42.353497]]],[[[-71.055262,42.353653],[-71.055244,42.35364],[-71.054934,42.353712],[-71.054909,42.353754],[-71.054932,42.353771],[-71.055179,42.353716],[-71.055262,42.353653]]]]},"properties":{"kind":"tree"}}]}