{"type":"FeatureCollection","features":[{"type":"Feature","geometry":{"type":"MultiPolygon","coordinates":[[[[-71.06703,42.351826],[-71.067007,42.351692],[-71.066747,42.351106],[-71.065139,42.351239],[-71.064967,42.35123],[-71.064738,42.351249],[-71.064745,42.351218],[-71.064502,42.351183],[-71.064162,42.351158],[-71.065776,42.351025],[-71.065991,42.350995],[-71.065959,42.350666],[-71.065638,42.35066],[-71.065953,42.350615],[-71.06593,42.350327],[-71.065577,42.350352],[-71.06531,42.3503],[-71.06498,42.350327],[-71.064988,42.350296],[-71.065916,42.350219],[-71.065881,42.34989],[-71.065776,42.349769],[-71.065665,42.349778],[-71.065676,42.349724],[-71.065904,42.349705],[-71.066095,42.349646],[-71.066015,42.349505],[-71.066107,42.349483],[-71.066051,42.349385],[-71.065103,42.349463],[-71.065041,42.349483],[-71.065046,42.349492],[-71.064599,42.349529],[-71.064416,42.349501],[-71.064102,42.349527],[-71.063761,42.349475],[-71.063654,42.349374],[-71.064653,42.349291],[-71.064795,42.349218],[-71.06492,42.349208],[-71.065182,42.349085],[-71.065279,42.349075],[-71.06533,42.348887],[-71.065323,42.348802],[-71.065301,42.348745],[-71.066458,42.348649],[-71.066483,42.348529],[-71.06591,42.348462],[-71.065995,42.348064],[-71.065837,42.348044],[-71.065453,42.348076],[-71.065402,42.348018],[-71.06552,42.347941],[-71.065529,42.347903],[-71.065483,42.347819],[-71.065392,42.347805],[-71.065371,42.347781],[-71.065289,42.347784],[-71.065318,42.347764],[-71.065319,42.347677],[-71.065257,42.347643],[-71.064894,42.347587],[-71.06344,42.347707],[-71.063112,42.347872],[-71.062465,42.347925],[-71.062455,42.347962],[-71.062442,42.347963],[-71.062446,42.347953],[-71.062334,42.347917],[-71.061926,42.347827],[-71.061785,42.347838],[-71.061866,42.34764],[-71.061712,42.347604],[-71.05739,42.347961],[-71.057244,42.348311],[-71.057233,42.348403],[-71.057252,42.348408],[-71.05608,42.348504],[-71.056683,42.347603],[-71.056673,42.347544],[-71.055908,42.347262],[-71.054075,42.347413],[-71.053037,42.348958],[-71.052544,42.348999],[-71.052107,42.349447],[-71.052074,42.349497],[-71.052066,42.349607],[-71.051337,42.349667],[-71.050367,42.35111],[-71.050948,42.351325],[-71.053232,42.351136],[-71.053511,42.351239],[-71.054062,42.351194],[-71.053943,42.351452],[-71.054093,42.351513],[-71.052355,42.351656],[-71.052255,42.351856],[-71.051568,42.351924],[-71.051441,42.352111],[-71.051355,42.352198],[-71.051383,42.352213],[-71.051349,42.352301],[-71.051731,42.3524],[-71.050817,42.352476],[-71.050722,42.352511],[-71.050165,42.352557],[-71.049876,42.352662],[-71.049799,42.352826],[-71.050393,42.352975],[-71.050709,42.352948],[-71.050761,42.353052],[-71.05089,42.353086],[-71.053054,42.352907],[-71.053232,42.352939],[-71.056541,42.352665],[-71.056545,42.352677],[-71.052095,42.35305],[-71.052008,42.353116],[-71.051994,42.353201],[-71.051513,42.353248],[-71.051263,42.353388],[-71.051108,42.353448],[-71.051054,42.35352],[-71.05019,42.353597],[-71.049951,42.353725],[-71.049979,42.35383],[-71.050357,42.353986],[-71.0509,42.353941],[-71.050808,42.354015],[-71.050833,42.354041],[-71.050459,42.354073],[-71.050272,42.354164],[-71.050277,42.354275],[-71.048746,42.354402],[-71.048344,42.354611],[-71.048312,42.354649],[-71.048311,42.354689],[-71.048572,42.354971],[-71.048639,42.354985],[-71.049019,42.354953],[-71.049,42.35497],[-71.048999,42.355008],[-71.04916,42.355156],[-71.049245,42.355157],[-71.04926,42.35517],[-71.050785,42.355044],[-71.050047,42.355105],[-71.049611,42.35518],[-71.049507,42.355233],[-71.049641,42.355979],[-71.049756,42.355984],[-71.052897,42.355724],[-71.053182,42.35584],[-71.056855,42.355536],[-71.056909,42.35556],[-71.0587,42.355412],[-71.058776,42.355448],[-71.059078,42.355423],[-71.059192,42.355496],[-71.060491,42.355389],[-71.060541,42.355348],[-71.060682,42.355423],[-71.063118,42.355222],[-71.063177,42.355145],[-71.063028,42.355068],[-71.063255,42.355044],[-71.063852,42.353943],[-71.063862,42.353896],[-71.063707,42.353848],[-71.063892,42.353833],[-71.063985,42.353676],[-71.063998,42.353634],[-71.063804,42.353574],[-71.064052,42.353554],[-71.064097,42.353425],[-71.063837,42.353375],[-71.063697,42.353387],[-71.063651,42.353352],[-71.063532,42.353347],[-71.064146,42.353296],[-71.064309,42.35284],[-71.064107,42.352829],[-71.064309,42.352812],[-71.064341,42.352676],[-71.064692,42.352647],[-71.064727,42.352541],[-71.064662,42.352531],[-71.064361,42.352556],[-71.064364,42.352532],[-71.066063,42.352392],[-71.066079,42.352185],[-71.06627,42.352169],[-71.066293,42.351917],[-71.066847,42.351871],[-71.06703,42.351826]],[[-71.061531,42.348115],[-71.061529,42.348121],[-71.061051,42.34816],[-71.061053,42.348154],[-71.061531,42.348115]],[[-71.060714,42.352592],[-71.059339,42.352723],[-71.059323,42.352611],[-71.060101,42.352547],[-71.060087,42.352613],[-71.060364,42.352621],[-71.060714,42.352592]],[[-71.059261,42.348922],[-71.059196,42.349156],[-71.056737,42.349359],[-71.056775,42.349199],[-71.056596,42.349149],[-71.055592,42.349232],[-71.059261,42.348922]],[[-71.054492,42.351117],[-71.054366,42.351128],[-71.05439,42.351092],[-71.054492,42.351117]]],[[[-71.065565,42.354342],[-71.065545,42.354311],[-71.065508,42.354299],[-71.064577,42.354375],[-71.064534,42.35439],[-71.064519,42.354428],[-71.064544,42.354457],[-71.06459,42.354466],[-71.065514,42.35439],[-71.06555,42.354375],[-71.065565,42.354342]]],[[[-71.065421,42.352871],[-71.065303,42.352844],[-71.064791,42.352886],[-71.064774,42.352933],[-71.0648,42.353014],[-71.064866,42.353028],[-71.065378,42.352986],[-71.065421,42.352871]]],[[[-71.06461,42.353278],[-71.064542,42.353266],[-71.064165,42.353297],[-71.064131,42.353397],[-71.064199,42.353411],[-71.064576,42.35338],[-71.06461,42.353278]]],[[[-71.063935,42.354829],[-71.063869,42.354811],[-71.063509,42.354841],[-71.063486,42.35489],[-71.063552,42.354907],[-71.063912,42.354877],[-71.063935,42.354829]]]]},"properties":{"kind":"building"}},{"type":"Feature","geometry":{"type":"MultiPolygon","coordinates":[[[[-71.066058,42.353451],[-71.066047,42.35341],[-71.066015,42.353375],[-71.065912,42.353343],[-71.065349,42.35339],[-71.065406,42.353323],[-71.065824,42.353289],[-71.065891,42.353268],[-71.065918,42.353219],[-71.065911,42.353192],[-71.06586,42.353155],[-71.065883,42.353129],[-71.065981,42.353102],[-71.066007,42.353073],[-71.066016,42.353039],[-71.065995,42.352992],[-71.066039,42.352955],[-71.066048,42.352923],[-71.066021,42.352832],[-71.065989,42.352797],[-71.065886,42.352765],[-71.065772,42.352775],[-71.06575,42.352742],[-71.065693,42.352724],[-71.065197,42.352765],[-71.065609,42.352722],[-71.065661,42.352676],[-71.065976,42.352648],[-71.066022,42.352597],[-71.065976,42.352546],[-71.065746,42.352539],[-71.065688,42.352518],[-71.06544,42.352538],[-71.065361,42.35251],[-71.065084,42.352533],[-71.065012,42.352509],[-71.063481,42.352638],[-71.063428,42.352677],[-71.063421,42.352704],[-71.063449,42.352755],[-71.063481,42.352771],[-71.063712,42.35276],[-71.063795,42.352793],[-71.064063,42.352771],[-71.064088,42.352825],[-71.064031,42.352856],[-71.064043,42.352903],[-71.063832,42.353002],[-71.062953,42.353077],[-71.062914,42.353097],[-71.062878,42.353159],[-71.062819,42.353202],[-71.062751,42.353194],[-71.062102,42.353249],[-71.062102,42.353269],[-71.062174,42.353279],[-71.062801,42.353229],[-71.0628,42.353288],[-71.062075,42.353344],[-71.062053,42.353361],[-71.062075,42.353378],[-71.06281,42.353316],[-71.062883,42.35336],[-71.062938,42.353368],[-71.063285,42.35334],[-71.062979,42.353383],[-71.062919,42.353427],[-71.06291,42.353458],[-71.062943,42.353516],[-71.062979,42.353534],[-71.063293,42.353517],[-71.063326,42.353542],[-71.063283,42.353573],[-71.063062,42.353594],[-71.063008,42.353634],[-71.063,42.353662],[-71.06303,42.353715],[-71.063062,42.353731],[-71.063222,42.353727],[-71.063225,42.353752],[-71.063186,42.353804],[-71.063205,42.353838],[-71.063251,42.353852],[-71.063257,42.353872],[-71.06313,42.353884],[-71.063087,42.353916],[-71.062954,42.353935],[-71.062908,42.353969],[-71.062908,42.354016],[-71.062948,42.354096],[-71.063005,42.354114],[-71.063146,42.354102],[-71.063158,42.354117],[-71.062924,42.354149],[-71.062825,42.354221],[-71.062817,42.354251],[-71.062836,42.354294],[-71.062409,42.354329],[-71.062306,42.354361],[-71.062274,42.354396],[-71.062263,42.354437],[-71.062274,42.354479],[-71.062353,42.354537],[-71.062409,42.354545],[-71.062646,42.354526],[-71.062127,42.354577],[-71.062048,42.354635],[-71.062037,42.354676],[-71.062048,42.354718],[-71.062127,42.354776],[-71.062183,42.354784],[-71.062659,42.354745],[-71.062496,42.354761],[-71.06245,42.354795],[-71.062444,42.354819],[-71.062477,42.354908],[-71.062549,42.354943],[-71.063034,42.354903],[-71.063097,42.354933],[-71.063776,42.354877],[-71.063793,42.354897],[-71.06369,42.354926],[-71.063664,42.354955],[-71.063658,42.355004],[-71.063241,42.355039],[-71.063167,42.355061],[-71.063137,42.355115],[-71.063145,42.355145],[-71.063201,42.355186],[-71.063241,42.355192],[-71.064741,42.355068],[-71.06476,42.355104],[-71.064809,42.355119],[-71.066004,42.355019],[-71.066046,42.354972],[-71.066026,42.354936],[-71.065978,42.354922],[-71.064904,42.35501],[-71.06491,42.354988],[-71.06556,42.354934],[-71.065647,42.354907],[-71.065683,42.354843],[-71.065647,42.354779],[-71.06556,42.354752],[-71.065486,42.354758],[-71.065444,42.354711],[-71.065347,42.354714],[-71.065345,42.354674],[-71.065327,42.354655],[-71.065232,42.354615],[-71.065089,42.35462],[-71.065785,42.354557],[-71.065827,42.354536],[-71.065865,42.354468],[-71.065855,42.354431],[-71.065785,42.354379],[-71.065735,42.354372],[-71.065051,42.354429],[-71.065005,42.354412],[-71.064799,42.354422],[-71.06474,42.354376],[-71.064657,42.354373],[-71.064635,42.354359],[-71.064923,42.354329],[-71.064951,42.354309],[-71.06494,42.354267],[-71.064903,42.354256],[-71.064745,42.354269],[-71.064696,42.354253],[-71.064408,42.354276],[-71.065041,42.354222],[-71.065082,42.35421],[-71.065099,42.354182],[-71.065889,42.354117],[-71.066009,42.354081],[-71.066017,42.35405],[-71.065981,42.354032],[-71.065232,42.354094],[-71.065248,42.354064],[-71.065683,42.354023],[-71.065709,42.354004],[-71.065709,42.353976],[-71.065749,42.353964],[-71.06576,42.353925],[-71.065715,42.353903],[-71.065354,42.353933],[-71.065322,42.353923],[-71.065585,42.353893],[-71.0656,42.353866],[-71.065568,42.353831],[-71.065384,42.353831],[-71.065407,42.353812],[-71.065608,42.353787],[-71.065625,42.353756],[-71.065589,42.353716],[-71.0645,42.3538],[-71.065512,42.353707],[-71.06555,42.353665],[-71.065512,42.353623],[-71.064448,42.353705],[-71.065448,42.353616],[-71.065541,42.35359],[-71.065968,42.353551],[-71.066015,42.353527],[-71.066047,42.353492],[-71.066058,42.353451]],[[-71.06491,42.35413],[-71.064895,42.354142],[-71.06462,42.354154],[-71.06491,42.35413]]],[[[-71.06597,42.354146],[-71.065947,42.354129],[-71.065282,42.354184],[-71.06526,42.354201],[-71.065282,42.354218],[-71.065947,42.354163],[-71.06597,42.354146]]],[[[-71.06583,42.348038],[-71.065811,42.348004],[-71.065765,42.34799],[-71.064632,42.348084],[-71.064586,42.348098],[-71.064567,42.348132],[-71.064586,42.348166],[-71.064632,42.34818],[-71.065028,42.348147],[-71.065046,42.348163],[-71.06553,42.348123],[-71.065548,42.34811],[-71.06579,42.348082],[-71.06583,42.348038]]],[[[-71.06579,42.34818],[-71.065774,42.348151],[-71.065735,42.348139],[-71.06471,42.348224],[-71.064671,42.348236],[-71.064655,42.348265],[-71.064671,42.348294],[-71.06471,42.348305],[-71.065735,42.348221],[-71.065774,42.348209],[-71.06579,42.34818]]],[[[-71.065738,42.348446],[-71.065721,42.348415],[-71.06568,42.348403],[-71.064619,42.348491],[-71.064578,42.348503],[-71.06456,42.348534],[-71.064578,42.348564],[-71.064619,42.348577],[-71.06568,42.348489],[-71.065721,42.348477],[-71.065738,42.348446]]],[[[-71.065728,42.348293],[-71.06571,42.34828],[-71.065542,42.348293],[-71.06549,42.34827],[-71.064393,42.348361],[-71.064336,42.348389],[-71.063934,42.348426],[-71.063916,42.348439],[-71.063934,42.348452],[-71.064335,42.348419],[-71.064344,42.348433],[-71.064119,42.348452],[-71.064101,42.348465],[-71.064119,42.348478],[-71.06549,42.348362],[-71.065534,42.348348],[-71.065551,42.34832],[-71.06571,42.348306],[-71.065728,42.348293]]],[[[-71.065598,42.348957],[-71.06558,42.348944],[-71.065383,42.34896],[-71.065393,42.34893],[-71.06536,42.348914],[-71.064551,42.34898],[-71.064516,42.349007],[-71.064551,42.349033],[-71.065117,42.348986],[-71.065125,42.349006],[-71.06558,42.34897],[-71.065598,42.348957]]],[[[-71.065588,42.351223],[-71.06557,42.35121],[-71.065014,42.351255],[-71.064995,42.351269],[-71.065014,42.351282],[-71.06557,42.351236],[-71.065588,42.351223]]],[[[-71.065562,42.349094],[-71.065544,42.349081],[-71.065365,42.349095],[-71.065375,42.349056],[-71.06533,42.349034],[-71.064377,42.349113],[-71.064343,42.349123],[-71.064328,42.349149],[-71.064343,42.349174],[-71.064377,42.349185],[-71.065079,42.349127],[-71.065096,42.349145],[-71.065544,42.349107],[-71.065562,42.349094]]],[[[-71.065559,42.349236],[-71.065544,42.349211],[-71.06551,42.3492],[-71.064686,42.349268],[-71.064651,42.349279],[-71.064637,42.349304],[-71.064651,42.34933],[-71.064686,42.34934],[-71.06551,42.349272],[-71.065544,42.349261],[-71.065559,42.349236]]],[[[-71.065433,42.34879],[-71.065418,42.348765],[-71.065384,42.348754],[-71.06456,42.348822],[-71.064525,42.348833],[-71.064511,42.348858],[-71.064525,42.348884],[-71.06456,42.348894],[-71.065384,42.348826],[-71.065418,42.348815],[-71.065433,42.34879]]],[[[-71.065368,42.35121],[-71.06535,42.351197],[-71.065257,42.351198],[-71.064766,42.351237],[-71.064748,42.35125],[-71.064823,42.351265],[-71.06535,42.351223],[-71.065368,42.35121]]],[[[-71.065176,42.35072],[-71.06515,42.350701],[-71.064449,42.350759],[-71.064425,42.350785],[-71.064449,42.350797],[-71.06515,42.350739],[-71.065176,42.35072]]],[[[-71.065151,42.350784],[-71.065125,42.350765],[-71.064424,42.350823],[-71.0644,42.350849],[-71.064424,42.350861],[-71.065125,42.350803],[-71.065151,42.350784]]],[[[-71.065129,42.350853],[-71.06511,42.350839],[-71.064482,42.350891],[-71.064462,42.350905],[-71.064482,42.350919],[-71.06511,42.350867],[-71.065129,42.350853]]],[[[-71.064944,42.35131],[-71.064926,42.351297],[-71.064406,42.351339],[-71.064387,42.351353],[-71.064406,42.351366],[-71.064926,42.351323],[-71.064944,42.35131]]],[[[-71.064857,42.348456],[-71.064839,42.348443],[-71.064355,42.348483],[-71.064337,42.348496],[-71.064355,42.348509],[-71.064839,42.348469],[-71.064857,42.348456]]],[[[-71.064624,42.351826],[-71.064606,42.351813],[-71.064122,42.351853],[-71.064104,42.351866],[-71.064122,42.351879],[-71.064606,42.351839],[-71.064624,42.351826]]],[[[-71.064568,42.352055],[-71.06455,42.352042],[-71.06403,42.352084],[-71.064011,42.352098],[-71.06403,42.352111],[-71.06455,42.352068],[-71.064568,42.352055]]],[[[-71.064564,42.352104],[-71.064545,42.35209],[-71.063917,42.352142],[-71.063897,42.352156],[-71.063917,42.35217],[-71.064545,42.352118],[-71.064564,42.352104]]],[[[-71.064548,42.35216],[-71.06453,42.352147],[-71.064046,42.352187],[-71.064027,42.3522],[-71.064046,42.352213],[-71.06453,42.352173],[-71.064548,42.35216]]],[[[-71.064238,42.350925],[-71.06405,42.35089],[-71.063971,42.350896],[-71.063934,42.350874],[-71.063704,42.350893],[-71.063687,42.350861],[-71.063546,42.350863],[-71.06352,42.350845],[-71.062795,42.350915],[-71.062809,42.35094],[-71.062873,42.350937],[-71.06289,42.350969],[-71.063057,42.350958],[-71.063053,42.350984],[-71.063089,42.351002],[-71.063249,42.350988],[-71.063277,42.351002],[-71.063718,42.350965],[-71.063736,42.350978],[-71.06422,42.350938],[-71.064238,42.350925]]],[[[-71.064209,42.34872],[-71.064186,42.348703],[-71.06387,42.348726],[-71.063205,42.348781],[-71.063183,42.348798],[-71.063205,42.348815],[-71.063521,42.348792],[-71.064186,42.348737],[-71.064209,42.34872]]],[[[-71.064168,42.34884],[-71.06415,42.348827],[-71.063558,42.348875],[-71.063232,42.348908],[-71.063212,42.348922],[-71.063232,42.348936],[-71.06386,42.348884],[-71.06415,42.348853],[-71.064168,42.34884]]],[[[-71.063915,42.348675],[-71.063896,42.348661],[-71.063268,42.348713],[-71.063248,42.348727],[-71.063268,42.348741],[-71.063896,42.348689],[-71.063915,42.348675]]],[[[-71.063873,42.348793],[-71.063855,42.34878],[-71.063371,42.34882],[-71.063353,42.348833],[-71.063371,42.348846],[-71.063855,42.348806],[-71.063873,42.348793]]],[[[-71.063821,42.349148],[-71.063803,42.349135],[-71.063319,42.349175],[-71.063301,42.349188],[-71.063319,42.349201],[-71.063803,42.349161],[-71.063821,42.349148]]],[[[-71.063808,42.348427],[-71.06379,42.348414],[-71.063712,42.34842],[-71.063718,42.34841],[-71.0637,42.348397],[-71.063216,42.348437],[-71.063198,42.34845],[-71.063216,42.348463],[-71.063294,42.348457],[-71.063288,42.348467],[-71.063306,42.34848],[-71.06379,42.34844],[-71.063808,42.348427]]],[[[-71.063768,42.349293],[-71.06375,42.34928],[-71.063266,42.34932],[-71.063248,42.349333],[-71.063266,42.349346],[-71.06375,42.349306],[-71.063768,42.349293]]],[[[-71.063755,42.349335],[-71.063737,42.349322],[-71.063253,42.349362],[-71.063235,42.349375],[-71.063253,42.349388],[-71.063737,42.349348],[-71.063755,42.349335]]],[[[-71.063689,42.34976],[-71.06367,42.349746],[-71.063042,42.349798],[-71.063022,42.349812],[-71.063042,42.349826],[-71.06367,42.349774],[-71.063689,42.34976]]],[[[-71.063632,42.349854],[-71.063614,42.349841],[-71.063022,42.349889],[-71.063003,42.349903],[-71.063022,42.349916],[-71.063614,42.349867],[-71.063632,42.349854]]],[[[-71.063579,42.34995],[-71.06356,42.349936],[-71.062932,42.349988],[-71.062912,42.350002],[-71.062932,42.350016],[-71.06356,42.349964],[-71.063579,42.34995]]],[[[-71.063548,42.35],[-71.06353,42.349987],[-71.062938,42.350035],[-71.062919,42.350049],[-71.062938,42.350062],[-71.06353,42.350013],[-71.063548,42.35]]],[[[-71.063458,42.350418],[-71.06344,42.350405],[-71.062848,42.350453],[-71.062771,42.350483],[-71.06279,42.350496],[-71.06331,42.350453],[-71.063458,42.350418]]],[[[-71.063458,42.35018],[-71.06344,42.350167],[-71.062884,42.350212],[-71.062865,42.350226],[-71.062884,42.350239],[-71.06344,42.350193],[-71.063458,42.35018]]],[[[-71.063434,42.350487],[-71.063416,42.350474],[-71.063298,42.350483],[-71.06328,42.35047],[-71.062724,42.350515],[-71.062705,42.350529],[-71.062724,42.350542],[-71.062841,42.350533],[-71.06286,42.350546],[-71.063416,42.3505],[-71.063434,42.350487]]],[[[-71.063428,42.350246],[-71.06341,42.350233],[-71.062854,42.350278],[-71.062835,42.350292],[-71.062854,42.350305],[-71.06341,42.350259],[-71.063428,42.350246]]],[[[-71.063403,42.35055],[-71.063385,42.350537],[-71.063266,42.350546],[-71.063273,42.350536],[-71.063255,42.350523],[-71.062699,42.350568],[-71.06268,42.350582],[-71.062699,42.350595],[-71.062853,42.350583],[-71.062619,42.350631],[-71.062638,42.350644],[-71.06323,42.350595],[-71.063403,42.35055]]],[[[-71.063403,42.35028],[-71.063385,42.350267],[-71.062829,42.350312],[-71.06281,42.350326],[-71.062829,42.350339],[-71.063385,42.350293],[-71.063403,42.35028]]],[[[-71.063386,42.350826],[-71.06336,42.350807],[-71.062659,42.350865],[-71.062635,42.350891],[-71.062659,42.350903],[-71.06336,42.350845],[-71.063386,42.350826]]],[[[-71.063383,42.350765],[-71.063354,42.350743],[-71.063137,42.350752],[-71.062502,42.350803],[-71.062482,42.350817],[-71.062502,42.350831],[-71.062589,42.350824],[-71.062617,42.350847],[-71.063354,42.350787],[-71.063383,42.350765]]],[[[-71.063369,42.350704],[-71.06335,42.35069],[-71.062722,42.350742],[-71.062585,42.350773],[-71.062604,42.350786],[-71.06316,42.35074],[-71.06335,42.350718],[-71.063369,42.350704]]],[[[-71.063368,42.35061],[-71.06335,42.350597],[-71.06283,42.350639],[-71.062618,42.350665],[-71.062599,42.350679],[-71.062618,42.350692],[-71.06321,42.350643],[-71.063368,42.35061]]],[[[-71.063198,42.350677],[-71.06318,42.350664],[-71.062732,42.350701],[-71.062714,42.350714],[-71.062732,42.350728],[-71.06318,42.35069],[-71.063198,42.350677]]],[[[-71.063144,42.352238],[-71.063126,42.352225],[-71.062445,42.352282],[-71.062426,42.352296],[-71.062445,42.352309],[-71.062545,42.352306],[-71.063065,42.352263],[-71.063144,42.352238]]],[[[-71.062922,42.35222],[-71.062837,42.352203],[-71.06231,42.352244],[-71.062291,42.352258],[-71.062341,42.352278],[-71.062904,42.352233],[-71.062922,42.35222]]],[[[-71.062559,42.348354],[-71.06253,42.348332],[-71.061525,42.348414],[-71.061268,42.348448],[-71.06125,42.348461],[-71.061268,42.348474],[-71.061491,42.348456],[-71.061525,42.348472],[-71.06237,42.348402],[-71.062541,42.348374],[-71.062559,42.348354]]],[[[-71.062496,42.349373],[-71.06247,42.349344],[-71.062373,42.349348],[-71.062389,42.349311],[-71.06235,42.349292],[-71.061469,42.349365],[-71.06143,42.349384],[-71.061439,42.349418],[-71.06155,42.34942],[-71.061534,42.349457],[-71.061431,42.349478],[-71.061449,42.349491],[-71.062454,42.349404],[-71.062484,42.349395],[-71.062496,42.349373]]],[[[-71.062463,42.348557],[-71.06244,42.34854],[-71.061775,42.348595],[-71.061753,42.348612],[-71.061775,42.348629],[-71.06244,42.348574],[-71.062463,42.348557]]],[[[-71.062039,42.353752],[-71.06202,42.353738],[-71.061391,42.35379],[-71.061307,42.353823],[-71.061326,42.353836],[-71.06181,42.353796],[-71.061828,42.353783],[-71.06202,42.353766],[-71.062039,42.353752]]],[[[-71.062006,42.349306],[-71.061988,42.349293],[-71.061504,42.349333],[-71.061486,42.349346],[-71.061504,42.349359],[-71.061988,42.349319],[-71.062006,42.349306]]],[[[-71.061988,42.35386],[-71.06197,42.353847],[-71.061486,42.353887],[-71.061467,42.3539],[-71.061486,42.353913],[-71.06197,42.353873],[-71.061988,42.35386]]],[[[-71.061941,42.349548],[-71.061926,42.349523],[-71.061892,42.349512],[-71.061532,42.349542],[-71.061449,42.349536],[-71.061435,42.349509],[-71.061401,42.349498],[-71.060558,42.349569],[-71.060528,42.349602],[-71.060556,42.349634],[-71.060488,42.34964],[-71.06047,42.349627],[-71.060079,42.349659],[-71.060085,42.349647],[-71.060486,42.349613],[-71.060504,42.3496],[-71.060486,42.349587],[-71.059241,42.349684],[-71.059206,42.349711],[-71.059241,42.349737],[-71.059968,42.349677],[-71.059588,42.349716],[-71.059562,42.349735],[-71.059562,42.349763],[-71.059607,42.349785],[-71.060579,42.349703],[-71.060609,42.34967],[-71.060581,42.349638],[-71.060627,42.349634],[-71.060656,42.349669],[-71.060727,42.349668],[-71.060737,42.349685],[-71.061892,42.349584],[-71.061926,42.349573],[-71.061941,42.349548]]],[[[-71.061928,42.34988],[-71.06191,42.349867],[-71.061426,42.349907],[-71.061408,42.34992],[-71.061426,42.349933],[-71.06191,42.349893],[-71.061928,42.34988]]],[[[-71.061924,42.3537],[-71.061905,42.353686],[-71.061276,42.353738],[-71.061263,42.353762],[-71.061226,42.353778],[-71.061245,42.353791],[-71.061729,42.353751],[-71.061742,42.353728],[-71.061905,42.353714],[-71.061924,42.3537]]],[[[-71.061909,42.353825],[-71.06189,42.353811],[-71.061261,42.353863],[-71.061242,42.353877],[-71.061261,42.353891],[-71.06189,42.353839],[-71.061909,42.353825]]],[[[-71.061898,42.349926],[-71.06188,42.349913],[-71.061396,42.349953],[-71.061378,42.349966],[-71.061396,42.349979],[-71.06188,42.349939],[-71.061898,42.349926]]],[[[-71.061892,42.35],[-71.061874,42.349987],[-71.06139,42.350027],[-71.061372,42.35004],[-71.06139,42.350053],[-71.061874,42.350013],[-71.061892,42.35]]],[[[-71.061868,42.350044],[-71.06185,42.350031],[-71.061366,42.350071],[-71.061348,42.350084],[-71.061366,42.350097],[-71.06185,42.350057],[-71.061868,42.350044]]],[[[-71.061851,42.348312],[-71.061838,42.348288],[-71.061806,42.348278],[-71.061644,42.348292],[-71.061629,42.348268],[-71.06159,42.348256],[-71.061435,42.348269],[-71.06145,42.348239],[-71.06142,42.348224],[-71.060635,42.34829],[-71.060617,42.348321],[-71.060635,42.348334],[-71.060544,42.348344],[-71.06051,42.348382],[-71.060526,42.348411],[-71.060565,42.348422],[-71.060847,42.348399],[-71.060889,42.348421],[-71.061806,42.348346],[-71.061838,42.348336],[-71.061851,42.348312]]],[[[-71.061838,42.35008],[-71.06182,42.350067],[-71.061336,42.350107],[-71.061318,42.35012],[-71.061336,42.350133],[-71.06182,42.350093],[-71.061838,42.35008]]],[[[-71.061825,42.353653],[-71.061806,42.353639],[-71.061177,42.353691],[-71.061158,42.353705],[-71.061177,42.353719],[-71.061806,42.353667],[-71.061825,42.353653]]],[[[-71.061824,42.350155],[-71.061806,42.350142],[-71.061358,42.350179],[-71.06134,42.350192],[-71.061358,42.350206],[-71.061806,42.350168],[-71.061824,42.350155]]],[[[-71.061798,42.3502],[-71.06178,42.350187],[-71.061296,42.350227],[-71.061278,42.35024],[-71.061296,42.350253],[-71.06178,42.350213],[-71.061798,42.3502]]],[[[-71.061789,42.350292],[-71.06175,42.350263],[-71.060905,42.350333],[-71.060869,42.350351],[-71.060878,42.350382],[-71.060786,42.350391],[-71.060758,42.350422],[-71.060771,42.350445],[-71.060803,42.350455],[-71.06172,42.35038],[-71.061762,42.350359],[-71.061752,42.350322],[-71.061789,42.350292]]],[[[-71.061766,42.349666],[-71.061751,42.349641],[-71.061717,42.34963],[-71.060723,42.349707],[-71.060704,42.349721],[-71.060723,42.349734],[-71.060847,42.349724],[-71.060858,42.34976],[-71.060893,42.34977],[-71.061717,42.349702],[-71.061751,42.349691],[-71.061766,42.349666]]],[[[-71.061759,42.353607],[-71.061744,42.353582],[-71.06171,42.353571],[-71.060886,42.353639],[-71.060851,42.35365],[-71.060837,42.353675],[-71.060851,42.353701],[-71.060886,42.353711],[-71.06171,42.353643],[-71.061744,42.353632],[-71.061759,42.353607]]],[[[-71.061692,42.348648],[-71.06168,42.348626],[-71.06165,42.348617],[-71.060769,42.34869],[-71.059925,42.348761],[-71.059886,42.348773],[-71.05987,42.348802],[-71.059886,42.348831],[-71.059925,42.348842],[-71.06095,42.348758],[-71.061537,42.348701],[-71.061666,42.348677],[-71.061692,42.348648]]],[[[-71.061628,42.35355],[-71.06161,42.353537],[-71.061054,42.353582],[-71.061035,42.353596],[-71.061054,42.353609],[-71.06161,42.353563],[-71.061628,42.35355]]],[[[-71.06161,42.348837],[-71.061592,42.348824],[-71.06146,42.348823],[-71.060579,42.348896],[-71.060549,42.348905],[-71.060537,42.348927],[-71.060549,42.348949],[-71.060579,42.348958],[-71.06146,42.348885],[-71.06161,42.348837]]],[[[-71.061608,42.3485],[-71.06159,42.348487],[-71.061106,42.348527],[-71.061088,42.34854],[-71.061106,42.348553],[-71.06159,42.348513],[-71.061608,42.3485]]],[[[-71.061597,42.348184],[-71.061579,42.348171],[-71.061455,42.348181],[-71.061467,42.348133],[-71.06141,42.348104],[-71.060313,42.348195],[-71.060269,42.348208],[-71.060251,42.348241],[-71.060269,42.348273],[-71.060313,42.348286],[-71.061005,42.348229],[-71.061023,42.348243],[-71.061579,42.348197],[-71.061597,42.348184]]],[[[-71.061493,42.35095],[-71.06147,42.350933],[-71.060805,42.350988],[-71.060783,42.351005],[-71.060805,42.351022],[-71.06147,42.350967],[-71.061493,42.35095]]],[[[-71.061438,42.349255],[-71.06142,42.349242],[-71.060864,42.349287],[-71.060845,42.349301],[-71.060864,42.349314],[-71.06142,42.349268],[-71.061438,42.349255]]],[[[-71.061418,42.351122],[-71.0614,42.351109],[-71.060916,42.351149],[-71.060898,42.351162],[-71.060916,42.351175],[-71.0614,42.351135],[-71.061418,42.351122]]],[[[-71.061399,42.349052],[-71.06138,42.349038],[-71.060752,42.34909],[-71.060732,42.349104],[-71.060752,42.349118],[-71.06138,42.349066],[-71.061399,42.349052]]],[[[-71.061397,42.35118],[-71.061379,42.351167],[-71.060895,42.351207],[-71.060877,42.35122],[-71.060895,42.351233],[-71.061379,42.351193],[-71.061397,42.35118]]],[[[-71.061371,42.35124],[-71.061353,42.351227],[-71.060869,42.351267],[-71.060851,42.35128],[-71.060869,42.351293],[-71.061353,42.351253],[-71.061371,42.35124]]],[[[-71.061368,42.34943],[-71.06135,42.349417],[-71.060866,42.349457],[-71.060848,42.34947],[-71.060866,42.349483],[-71.06135,42.349443],[-71.061368,42.34943]]],[[[-71.061352,42.351289],[-71.061334,42.351276],[-71.06085,42.351316],[-71.060832,42.351329],[-71.06085,42.351342],[-71.061334,42.351302],[-71.061352,42.351289]]],[[[-71.061349,42.349228],[-71.06132,42.349206],[-71.060627,42.349264],[-71.06061,42.349247],[-71.060126,42.349287],[-71.060108,42.3493],[-71.060126,42.349313],[-71.060559,42.349278],[-71.060554,42.349289],[-71.060106,42.349327],[-71.060088,42.34934],[-71.060106,42.349353],[-71.06132,42.34925],[-71.061349,42.349228]]],[[[-71.061244,42.35337],[-71.061226,42.353357],[-71.060742,42.353397],[-71.060723,42.35341],[-71.060742,42.353423],[-71.061226,42.353383],[-71.061244,42.35337]]],[[[-71.061238,42.354774],[-71.06122,42.354761],[-71.060736,42.354801],[-71.060717,42.354814],[-71.060736,42.354827],[-71.06122,42.354787],[-71.061238,42.354774]]],[[[-71.061222,42.34983],[-71.06121,42.349808],[-71.06118,42.349799],[-71.05985,42.349913],[-71.059831,42.349927],[-71.05985,42.34994],[-71.060258,42.349907],[-71.060299,42.349934],[-71.06118,42.349861],[-71.06121,42.349852],[-71.061222,42.34983]]],[[[-71.061188,42.354916],[-71.06117,42.354903],[-71.060686,42.354943],[-71.060667,42.354956],[-71.060686,42.354969],[-71.06117,42.354929],[-71.061188,42.354916]]],[[[-71.061188,42.353344],[-71.06117,42.353331],[-71.060486,42.35339],[-71.060467,42.353403],[-71.060486,42.353416],[-71.06117,42.353357],[-71.061188,42.353344]]],[[[-71.061156,42.35003],[-71.061141,42.350003],[-71.061104,42.349992],[-71.060115,42.350073],[-71.060078,42.350085],[-71.060064,42.350109],[-71.059796,42.350132],[-71.059782,42.350154],[-71.059422,42.350185],[-71.059392,42.350218],[-71.059406,42.350244],[-71.059441,42.350254],[-71.060265,42.350186],[-71.060299,42.350175],[-71.06031,42.350136],[-71.061104,42.350068],[-71.061141,42.350057],[-71.061156,42.35003]]],[[[-71.061138,42.35332],[-71.06112,42.353307],[-71.060905,42.353317],[-71.060097,42.353392],[-71.06006,42.353376],[-71.059143,42.353452],[-71.059111,42.353462],[-71.059098,42.353486],[-71.059111,42.353509],[-71.059143,42.353519],[-71.059842,42.353478],[-71.059849,42.353499],[-71.06034,42.35346],[-71.060353,42.353437],[-71.060408,42.353425],[-71.060417,42.353384],[-71.06112,42.353333],[-71.061138,42.35332]]],[[[-71.061048,42.353275],[-71.06103,42.353262],[-71.060474,42.353307],[-71.060341,42.353342],[-71.06036,42.353355],[-71.060844,42.353315],[-71.061048,42.353275]]],[[[-71.061038,42.34849],[-71.06102,42.348477],[-71.060536,42.348517],[-71.060518,42.34853],[-71.060536,42.348543],[-71.06102,42.348503],[-71.061038,42.34849]]],[[[-71.061032,42.348602],[-71.061017,42.348575],[-71.06098,42.348564],[-71.059991,42.348645],[-71.059954,42.348657],[-71.059939,42.348684],[-71.059954,42.348711],[-71.059991,42.348722],[-71.06098,42.34864],[-71.061017,42.348629],[-71.061032,42.348602]]],[[[-71.060942,42.348827],[-71.06093,42.348805],[-71.0609,42.348796],[-71.060019,42.348869],[-71.059989,42.348878],[-71.059977,42.3489],[-71.059989,42.348922],[-71.060019,42.348931],[-71.0609,42.348858],[-71.06093,42.348849],[-71.060942,42.348827]]],[[[-71.060938,42.35322],[-71.06092,42.353207],[-71.060436,42.353247],[-71.060417,42.35326],[-71.060436,42.353273],[-71.06092,42.353233],[-71.060938,42.35322]]],[[[-71.060847,42.349174],[-71.060827,42.349137],[-71.060776,42.349121],[-71.059571,42.349221],[-71.05952,42.349236],[-71.059499,42.349274],[-71.05952,42.349311],[-71.059571,42.349326],[-71.060776,42.349227],[-71.060827,42.349211],[-71.060847,42.349174]]],[[[-71.060733,42.34939],[-71.060718,42.349365],[-71.060684,42.349354],[-71.05986,42.349422],[-71.059825,42.349433],[-71.059814,42.349468],[-71.05929,42.349511],[-71.059251,42.34954],[-71.05929,42.349569],[-71.06053,42.349466],[-71.060548,42.349453],[-71.06053,42.34944],[-71.060174,42.349469],[-71.060684,42.349426],[-71.060718,42.349415],[-71.060733,42.34939]]],[[[-71.060695,42.349506],[-71.06068,42.349481],[-71.060646,42.34947],[-71.059693,42.349549],[-71.059648,42.349571],[-71.059342,42.349597],[-71.059324,42.349617],[-71.059353,42.349638],[-71.059984,42.349597],[-71.060002,42.349609],[-71.060486,42.349569],[-71.060504,42.349556],[-71.060665,42.349539],[-71.060695,42.349506]]],[[[-71.060598,42.35304],[-71.06058,42.353027],[-71.060096,42.353067],[-71.060078,42.35308],[-71.059872,42.353097],[-71.059853,42.35311],[-71.059872,42.353123],[-71.060356,42.353083],[-71.060374,42.35307],[-71.06058,42.353053],[-71.060598,42.35304]]],[[[-71.060588,42.349342],[-71.06057,42.349329],[-71.060086,42.349369],[-71.060068,42.349382],[-71.060086,42.349395],[-71.06057,42.349355],[-71.060588,42.349342]]],[[[-71.060582,42.349792],[-71.060567,42.349765],[-71.06053,42.349754],[-71.059541,42.349835],[-71.059504,42.349847],[-71.059489,42.349874],[-71.059504,42.349901],[-71.059541,42.349912],[-71.06053,42.34983],[-71.060567,42.349819],[-71.060582,42.349792]]],[[[-71.060518,42.352997],[-71.0605,42.352984],[-71.060016,42.353024],[-71.059997,42.353037],[-71.060016,42.35305],[-71.0605,42.35301],[-71.060518,42.352997]]],[[[-71.060508,42.353283],[-71.06049,42.35327],[-71.05997,42.353312],[-71.059951,42.353326],[-71.05997,42.353339],[-71.06049,42.353296],[-71.060508,42.353283]]],[[[-71.060504,42.35315],[-71.060486,42.353137],[-71.060002,42.353177],[-71.059983,42.35319],[-71.060002,42.353203],[-71.060486,42.353163],[-71.060504,42.35315]]],[[[-71.060468,42.352974],[-71.06045,42.352961],[-71.05993,42.353003],[-71.059911,42.353017],[-71.05993,42.35303],[-71.06045,42.352987],[-71.060468,42.352974]]],[[[-71.060428,42.3531],[-71.06041,42.353087],[-71.059926,42.353127],[-71.059907,42.35314],[-71.059926,42.353153],[-71.06041,42.353113],[-71.060428,42.3531]]],[[[-71.060318,42.350037],[-71.0603,42.350024],[-71.059816,42.350064],[-71.059798,42.350077],[-71.059816,42.35009],[-71.0603,42.35005],[-71.060318,42.350037]]],[[[-71.060158,42.352962],[-71.06014,42.352949],[-71.059656,42.352989],[-71.059637,42.353002],[-71.059656,42.353015],[-71.06014,42.352975],[-71.060158,42.352962]]],[[[-71.059972,42.351044],[-71.05996,42.351022],[-71.05993,42.351013],[-71.059049,42.351086],[-71.059019,42.351095],[-71.058998,42.351137],[-71.059016,42.35115],[-71.05993,42.351075],[-71.05996,42.351066],[-71.059972,42.351044]]],[[[-71.059901,42.351135],[-71.059875,42.351116],[-71.059174,42.351174],[-71.058157,42.351273],[-71.058123,42.351283],[-71.058108,42.351309],[-71.058138,42.351342],[-71.058184,42.351342],[-71.058168,42.351369],[-71.058193,42.351399],[-71.058153,42.35141],[-71.058138,42.351436],[-71.058153,42.351461],[-71.058187,42.351472],[-71.05914,42.351393],[-71.059185,42.351371],[-71.059185,42.351343],[-71.059164,42.351326],[-71.059204,42.351315],[-71.059219,42.35129],[-71.059189,42.351257],[-71.059143,42.351256],[-71.059188,42.35124],[-71.059158,42.351228],[-71.059164,42.351211],[-71.059875,42.351154],[-71.059901,42.351135]]],[[[-71.059858,42.3533],[-71.05984,42.353287],[-71.059356,42.353327],[-71.059337,42.35334],[-71.059356,42.353353],[-71.05984,42.353313],[-71.059858,42.3533]]],[[[-71.059822,42.35326],[-71.05981,42.353238],[-71.05978,42.353229],[-71.059088,42.353286],[-71.058987,42.353271],[-71.058854,42.35328],[-71.058853,42.353256],[-71.058747,42.353256],[-71.058256,42.353295],[-71.058237,42.353308],[-71.058256,42.353321],[-71.058488,42.353311],[-71.058489,42.353335],[-71.058664,42.353334],[-71.058682,42.353347],[-71.058857,42.353333],[-71.058869,42.353355],[-71.058899,42.353364],[-71.05978,42.353291],[-71.05981,42.353282],[-71.059822,42.35326]]],[[[-71.059758,42.352753],[-71.059623,42.352718],[-71.059096,42.352759],[-71.059083,42.352783],[-71.058697,42.352818],[-71.058667,42.352851],[-71.058681,42.352877],[-71.058716,42.352887],[-71.05954,42.352819],[-71.059574,42.352808],[-71.059589,42.352783],[-71.05974,42.352766],[-71.059758,42.352753]]],[[[-71.059669,42.354954],[-71.059651,42.354934],[-71.059615,42.354934],[-71.059613,42.354903],[-71.05955,42.354866],[-71.058777,42.35493],[-71.058747,42.354945],[-71.058747,42.354963],[-71.058794,42.355001],[-71.05888,42.355003],[-71.058883,42.35503],[-71.058903,42.355036],[-71.05964,42.354976],[-71.059669,42.354954]]],[[[-71.059649,42.35171],[-71.059634,42.351685],[-71.0596,42.351674],[-71.058875,42.351719],[-71.058913,42.351707],[-71.058922,42.351688],[-71.05944,42.351645],[-71.059553,42.351617],[-71.05956,42.351591],[-71.05953,42.351576],[-71.058998,42.35162],[-71.059003,42.351594],[-71.05897,42.351578],[-71.058161,42.351644],[-71.058126,42.351671],[-71.058161,42.351697],[-71.058365,42.35168],[-71.058367,42.351704],[-71.058705,42.351678],[-71.058105,42.351732],[-71.058087,42.351745],[-71.058094,42.351771],[-71.058016,42.351786],[-71.058008,42.351815],[-71.057966,42.351828],[-71.057956,42.351847],[-71.057991,42.351873],[-71.058624,42.351821],[-71.057871,42.351886],[-71.057832,42.351915],[-71.057871,42.351944],[-71.058716,42.351874],[-71.058755,42.351845],[-71.0593,42.351797],[-71.059316,42.351792],[-71.059317,42.351769],[-71.059619,42.351743],[-71.059649,42.35171]]],[[[-71.059482,42.354813],[-71.059462,42.354791],[-71.059422,42.354791],[-71.05943,42.354765],[-71.059413,42.354738],[-71.059364,42.354707],[-71.058555,42.354773],[-71.05852,42.3548],[-71.058542,42.354824],[-71.058603,42.354822],[-71.058604,42.354855],[-71.058655,42.35486],[-71.058647,42.354886],[-71.058677,42.354901],[-71.05945,42.354837],[-71.059482,42.354813]]],[[[-71.059428,42.3531],[-71.05941,42.353087],[-71.058926,42.353127],[-71.058907,42.35314],[-71.058926,42.353153],[-71.05941,42.353113],[-71.059428,42.3531]]],[[[-71.059418,42.35301],[-71.0594,42.352997],[-71.058916,42.353037],[-71.058897,42.35305],[-71.058916,42.353063],[-71.0594,42.353023],[-71.059418,42.35301]]],[[[-71.059098,42.35146],[-71.05908,42.351447],[-71.058596,42.351487],[-71.058578,42.3515],[-71.058596,42.351513],[-71.05908,42.351473],[-71.059098,42.35146]]],[[[-71.059092,42.354385],[-71.05906,42.354361],[-71.058287,42.354425],[-71.058257,42.35444],[-71.058257,42.354458],[-71.058287,42.354473],[-71.05906,42.354409],[-71.059092,42.354385]]],[[[-71.059066,42.351517],[-71.05904,42.351498],[-71.058339,42.351556],[-71.058315,42.351582],[-71.058339,42.351594],[-71.05904,42.351536],[-71.059066,42.351517]]],[[[-71.059018,42.354332],[-71.059,42.354319],[-71.058516,42.354359],[-71.058497,42.354372],[-71.058516,42.354385],[-71.059,42.354345],[-71.059018,42.354332]]],[[[-71.058959,42.35429],[-71.05894,42.354276],[-71.058311,42.354328],[-71.058292,42.354342],[-71.058311,42.354356],[-71.05894,42.354304],[-71.058959,42.35429]]],[[[-71.058692,42.351906],[-71.05866,42.351882],[-71.057887,42.351946],[-71.057857,42.351961],[-71.057857,42.351979],[-71.057947,42.352],[-71.05862,42.351947],[-71.058683,42.351923],[-71.058692,42.351906]]],[[[-71.058598,42.351967],[-71.05858,42.351954],[-71.057484,42.352044],[-71.05745,42.352082],[-71.057466,42.352111],[-71.0575,42.352122],[-71.057454,42.352145],[-71.05744,42.352122],[-71.057357,42.352127],[-71.057367,42.352102],[-71.05734,42.352088],[-71.056603,42.352149],[-71.056574,42.352171],[-71.056603,42.352192],[-71.056713,42.352183],[-71.056705,42.352205],[-71.056719,42.352216],[-71.056785,42.352212],[-71.056799,42.352236],[-71.056839,42.352235],[-71.05683,42.352259],[-71.056857,42.352272],[-71.057594,42.352212],[-71.057615,42.352205],[-71.057615,42.352176],[-71.058457,42.352105],[-71.058482,42.352087],[-71.058482,42.352062],[-71.058569,42.352026],[-71.058598,42.351967]]],[[[-71.058568,42.35253],[-71.058497,42.352512],[-71.058348,42.35252],[-71.058331,42.352507],[-71.05848,42.352494],[-71.058499,42.35248],[-71.05848,42.352466],[-71.058387,42.352473],[-71.05837,42.352457],[-71.058267,42.352455],[-71.057776,42.352494],[-71.057757,42.352507],[-71.057776,42.35252],[-71.057868,42.352513],[-71.057747,42.352552],[-71.05789,42.352584],[-71.058059,42.352582],[-71.05855,42.352543],[-71.058568,42.35253]]],[[[-71.058288,42.35091],[-71.05827,42.350897],[-71.057786,42.350937],[-71.057768,42.35095],[-71.057786,42.350963],[-71.05827,42.350923],[-71.058288,42.35091]]],[[[-71.058218,42.350887],[-71.0582,42.350874],[-71.057716,42.350914],[-71.057698,42.350927],[-71.057716,42.35094],[-71.0582,42.3509],[-71.058218,42.350887]]],[[[-71.058038,42.352665],[-71.05802,42.352652],[-71.057536,42.352692],[-71.057517,42.352705],[-71.057536,42.352718],[-71.05802,42.352678],[-71.058038,42.352665]]],[[[-71.058032,42.352768],[-71.058014,42.352755],[-71.05753,42.352795],[-71.057511,42.352808],[-71.05753,42.352821],[-71.058014,42.352781],[-71.058032,42.352768]]],[[[-71.058008,42.352905],[-71.05799,42.352892],[-71.057506,42.352932],[-71.057487,42.352945],[-71.057506,42.352958],[-71.05799,42.352918],[-71.058008,42.352905]]],[[[-71.057803,42.350693],[-71.05774,42.350664],[-71.057256,42.350704],[-71.057238,42.350717],[-71.057301,42.350746],[-71.057785,42.350706],[-71.057803,42.350693]]],[[[-71.05775,42.352226],[-71.057724,42.352207],[-71.057023,42.352265],[-71.056999,42.352291],[-71.057023,42.352303],[-71.057724,42.352245],[-71.05775,42.352226]]],[[[-71.057414,42.350403],[-71.057396,42.35039],[-71.056912,42.35043],[-71.056894,42.350443],[-71.056912,42.350456],[-71.057396,42.350416],[-71.057414,42.350403]]],[[[-71.057398,42.350494],[-71.05738,42.350481],[-71.056896,42.350521],[-71.056878,42.350534],[-71.056592,42.35056],[-71.056574,42.350573],[-71.056592,42.350586],[-71.056686,42.350579],[-71.056678,42.35059],[-71.056696,42.350603],[-71.05718,42.350563],[-71.057198,42.35055],[-71.05718,42.350537],[-71.057085,42.350544],[-71.057094,42.350533],[-71.05738,42.350507],[-71.057398,42.350494]]],[[[-71.057348,42.351707],[-71.05733,42.351694],[-71.05681,42.351736],[-71.056791,42.35175],[-71.05681,42.351763],[-71.05733,42.35172],[-71.057348,42.351707]]],[[[-71.057338,42.35175],[-71.05732,42.351737],[-71.056836,42.351777],[-71.056818,42.35179],[-71.056836,42.351803],[-71.05732,42.351763],[-71.057338,42.35175]]],[[[-71.057309,42.351897],[-71.057291,42.351884],[-71.056807,42.351924],[-71.056789,42.351937],[-71.056807,42.35195],[-71.057291,42.35191],[-71.057309,42.351897]]],[[[-71.057298,42.351955],[-71.05728,42.351942],[-71.056832,42.351979],[-71.056814,42.351992],[-71.056832,42.352006],[-71.05728,42.351968],[-71.057298,42.351955]]],[[[-71.057298,42.350925],[-71.05728,42.350912],[-71.056724,42.350957],[-71.056705,42.350971],[-71.056724,42.350984],[-71.05728,42.350938],[-71.057298,42.350925]]],[[[-71.057268,42.351063],[-71.05725,42.35105],[-71.056694,42.351095],[-71.056675,42.351109],[-71.056694,42.351122],[-71.05725,42.351076],[-71.057268,42.351063]]],[[[-71.057208,42.35141],[-71.05719,42.351397],[-71.056706,42.351437],[-71.056688,42.35145],[-71.056706,42.351463],[-71.05719,42.351423],[-71.057208,42.35141]]],[[[-71.057147,42.350632],[-71.057129,42.350619],[-71.056645,42.350659],[-71.056627,42.350672],[-71.056645,42.350685],[-71.057129,42.350645],[-71.057147,42.350632]]],[[[-71.057038,42.34984],[-71.05702,42.349827],[-71.056791,42.349845],[-71.056783,42.349823],[-71.05676,42.349816],[-71.055987,42.34988],[-71.055957,42.349895],[-71.055957,42.349913],[-71.055987,42.349928],[-71.056529,42.349892],[-71.05702,42.349853],[-71.057038,42.34984]]],[[[-71.057022,42.349903],[-71.05699,42.349879],[-71.056767,42.349897],[-71.056725,42.349879],[-71.055901,42.349947],[-71.055866,42.349958],[-71.055852,42.349983],[-71.055866,42.350009],[-71.055901,42.350019],[-71.05699,42.349927],[-71.057022,42.349903]]],[[[-71.056868,42.352028],[-71.05685,42.352015],[-71.056258,42.352063],[-71.056239,42.352077],[-71.056258,42.35209],[-71.05685,42.352041],[-71.056868,42.352028]]],[[[-71.056834,42.35023],[-71.056816,42.350217],[-71.056332,42.350257],[-71.056314,42.35027],[-71.056332,42.350283],[-71.056816,42.350243],[-71.056834,42.35023]]],[[[-71.056829,42.34976],[-71.05679,42.349731],[-71.055945,42.349801],[-71.055906,42.34983],[-71.055945,42.349859],[-71.05679,42.349789],[-71.056829,42.34976]]],[[[-71.056798,42.350307],[-71.05678,42.350294],[-71.056296,42.350334],[-71.056278,42.350347],[-71.056296,42.35036],[-71.05678,42.35032],[-71.056798,42.350307]]],[[[-71.056748,42.351994],[-71.05673,42.351981],[-71.056174,42.352026],[-71.056155,42.35204],[-71.056174,42.352053],[-71.05673,42.352007],[-71.056748,42.351994]]],[[[-71.056729,42.350006],[-71.056714,42.349981],[-71.05668,42.34997],[-71.055856,42.350038],[-71.055821,42.350049],[-71.055807,42.350074],[-71.055821,42.3501],[-71.055856,42.35011],[-71.05668,42.350042],[-71.056714,42.350031],[-71.056729,42.350006]]],[[[-71.056659,42.350094],[-71.05663,42.350072],[-71.055893,42.350133],[-71.055864,42.350155],[-71.055893,42.350176],[-71.05663,42.350116],[-71.056659,42.350094]]],[[[-71.056643,42.350613],[-71.056625,42.3506],[-71.056033,42.350648],[-71.056014,42.350662],[-71.056033,42.350675],[-71.056625,42.350626],[-71.056643,42.350613]]],[[[-71.056626,42.353203],[-71.0566,42.353184],[-71.055899,42.353242],[-71.055875,42.353268],[-71.055899,42.35328],[-71.0566,42.353222],[-71.056626,42.353203]]],[[[-71.056622,42.350185],[-71.05659,42.350161],[-71.055817,42.350225],[-71.055787,42.35024],[-71.055787,42.350258],[-71.055817,42.350273],[-71.05659,42.350209],[-71.056622,42.350185]]],[[[-71.056608,42.35068],[-71.05659,42.350667],[-71.055998,42.350715],[-71.055979,42.350729],[-71.055998,42.350742],[-71.05659,42.350693],[-71.056608,42.35068]]],[[[-71.056559,42.353165],[-71.05654,42.353151],[-71.055911,42.353203],[-71.055892,42.353217],[-71.055911,42.353231],[-71.05654,42.353179],[-71.056559,42.353165]]],[[[-71.056559,42.350834],[-71.056544,42.350809],[-71.05651,42.350798],[-71.055686,42.350866],[-71.055639,42.350878],[-71.055629,42.350896],[-71.055651,42.350928],[-71.055686,42.350938],[-71.05651,42.35087],[-71.056544,42.350859],[-71.056559,42.350834]]],[[[-71.056484,42.353127],[-71.056465,42.353113],[-71.055836,42.353165],[-71.055817,42.353179],[-71.055836,42.353193],[-71.056465,42.353141],[-71.056484,42.353127]]],[[[-71.056468,42.35192],[-71.05645,42.351907],[-71.056376,42.351913],[-71.056387,42.351905],[-71.056377,42.351888],[-71.055922,42.351924],[-71.055904,42.351937],[-71.05592,42.35195],[-71.055839,42.351969],[-71.055858,42.351982],[-71.05645,42.351933],[-71.056468,42.35192]]],[[[-71.056428,42.35103],[-71.05641,42.351017],[-71.056186,42.351035],[-71.056175,42.351024],[-71.055576,42.351071],[-71.055557,42.351085],[-71.055576,42.351098],[-71.055908,42.351071],[-71.055919,42.351082],[-71.05641,42.351043],[-71.056428,42.35103]]],[[[-71.056398,42.351097],[-71.05638,42.351084],[-71.055788,42.351132],[-71.055769,42.351146],[-71.055788,42.351159],[-71.05638,42.35111],[-71.056398,42.351097]]],[[[-71.056393,42.35309],[-71.05637,42.353073],[-71.055705,42.353128],[-71.055683,42.353145],[-71.055705,42.353162],[-71.05637,42.353107],[-71.056393,42.35309]]],[[[-71.056364,42.351176],[-71.056346,42.351163],[-71.055862,42.351203],[-71.055844,42.351216],[-71.055862,42.351229],[-71.056346,42.351189],[-71.056364,42.351176]]],[[[-71.056338,42.35493],[-71.05632,42.354917],[-71.055728,42.354965],[-71.055709,42.354979],[-71.055728,42.354992],[-71.05632,42.354943],[-71.056338,42.35493]]],[[[-71.056328,42.354836],[-71.05631,42.354823],[-71.055718,42.354871],[-71.055699,42.354885],[-71.055718,42.354898],[-71.05631,42.354849],[-71.056328,42.354836]]],[[[-71.056309,42.35475],[-71.05629,42.354736],[-71.055661,42.354788],[-71.055642,42.354802],[-71.055661,42.354816],[-71.05629,42.354764],[-71.056309,42.35475]]],[[[-71.056306,42.35467],[-71.05628,42.354651],[-71.055579,42.354709],[-71.055555,42.354735],[-71.055579,42.354747],[-71.05628,42.354689],[-71.056306,42.35467]]],[[[-71.056258,42.351376],[-71.05624,42.351363],[-71.05572,42.351405],[-71.055343,42.351447],[-71.055324,42.351461],[-71.055343,42.351474],[-71.055686,42.351446],[-71.055694,42.351466],[-71.056221,42.351424],[-71.056239,42.351411],[-71.056221,42.351398],[-71.055949,42.35142],[-71.05624,42.351389],[-71.056258,42.351376]]],[[[-71.056248,42.35305],[-71.05623,42.353037],[-71.055746,42.353077],[-71.055727,42.35309],[-71.055746,42.353103],[-71.05623,42.353063],[-71.056248,42.35305]]],[[[-71.056226,42.350933],[-71.056208,42.35092],[-71.055616,42.350968],[-71.055597,42.350982],[-71.055616,42.350995],[-71.056208,42.350946],[-71.056226,42.350933]]],[[[-71.056208,42.35145],[-71.05619,42.351437],[-71.05567,42.351479],[-71.05531,42.351517],[-71.055291,42.351531],[-71.05531,42.351544],[-71.055902,42.351495],[-71.05619,42.351463],[-71.056208,42.35145]]],[[[-71.056148,42.351145],[-71.05613,42.351132],[-71.055538,42.35118],[-71.055519,42.351194],[-71.055538,42.351207],[-71.05613,42.351158],[-71.056148,42.351145]]],[[[-71.056078,42.35171],[-71.05606,42.351697],[-71.05579,42.351714],[-71.055198,42.351762],[-71.055179,42.351776],[-71.055198,42.351789],[-71.05554,42.351766],[-71.05606,42.351723],[-71.056078,42.35171]]],[[[-71.055977,42.351355],[-71.055959,42.351342],[-71.055367,42.35139],[-71.055348,42.351404],[-71.055367,42.351417],[-71.055959,42.351368],[-71.055977,42.351355]]],[[[-71.055888,42.351561],[-71.05587,42.351548],[-71.055278,42.351596],[-71.055259,42.35161],[-71.055278,42.351623],[-71.05587,42.351574],[-71.055888,42.351561]]],[[[-71.055869,42.352226],[-71.055854,42.352201],[-71.05582,42.35219],[-71.054996,42.352258],[-71.054961,42.352269],[-71.054951,42.352308],[-71.054913,42.352344],[-71.054927,42.35237],[-71.054962,42.35238],[-71.055786,42.352312],[-71.05582,42.352301],[-71.055831,42.352262],[-71.055869,42.352226]]],[[[-71.055859,42.351622],[-71.055841,42.351609],[-71.055249,42.351657],[-71.05523,42.351671],[-71.055249,42.351684],[-71.055841,42.351635],[-71.055859,42.351622]]],[[[-71.055788,42.353336],[-71.055756,42.353312],[-71.054983,42.353376],[-71.054953,42.353391],[-71.054953,42.353409],[-71.054983,42.353424],[-71.055756,42.35336],[-71.055788,42.353336]]],[[[-71.055788,42.351776],[-71.05577,42.351763],[-71.055178,42.351811],[-71.055159,42.351825],[-71.055178,42.351838],[-71.05577,42.351789],[-71.055788,42.351776]]],[[[-71.055724,42.353394],[-71.055695,42.353372],[-71.054958,42.353433],[-71.054929,42.353455],[-71.054947,42.353475],[-71.054981,42.353475],[-71.05499,42.353495],[-71.055626,42.353444],[-71.05564,42.35342],[-71.055706,42.353414],[-71.055724,42.353394]]],[[[-71.055558,42.353497],[-71.05554,42.353484],[-71.054948,42.353532],[-71.054929,42.353546],[-71.054948,42.353559],[-71.05554,42.35351],[-71.055558,42.353497]]],[[[-71.055498,42.35353],[-71.05548,42.353517],[-71.05496,42.353559],[-71.054941,42.353573],[-71.05496,42.353586],[-71.05548,42.353543],[-71.055498,42.35353]]],[[[-71.055262,42.353653],[-71.055244,42.35364],[-71.05476,42.35368],[-71.054462,42.353713],[-71.054444,42.353733],[-71.054497,42.35377],[-71.05517,42.353717],[-71.055231,42.353687],[-71.055262,42.353653]]]]},"properties":{"kind":"tree"}}]}