{"type":"FeatureCollection","features":[{"type":"Feature","geometry":{"type":"Polygon","coordinates":[[[-71.06703,42.351826],[-71.067007,42.351692],[-71.066747,42.351106],[-71.064116,42.35115],[-71.063259,42.351067],[-71.065776,42.351025],[-71.065991,42.350995],[-71.065959,42.350666],[-71.065571,42.350659],[-71.065674,42.350657],[-71.065953,42.350615],[-71.06593,42.350327],[-71.065517,42.350334],[-71.06531,42.3503],[-71.064986,42.350305],[-71.065001,42.350248],[-71.065916,42.350219],[-71.065881,42.34989],[-71.065776,42.349769],[-71.065666,42.349771],[-71.065679,42.349709],[-71.065904,42.349705],[-71.066095,42.349646],[-71.066014,42.349503],[-71.066107,42.349483],[-71.066051,42.349385],[-71.063708,42.349424],[-71.063653,42.349372],[-71.063696,42.349342],[-71.06371,42.349307],[-71.064653,42.349291],[-71.064812,42.34921],[-71.06492,42.349208],[-71.065182,42.349085],[-71.065279,42.349075],[-71.06533,42.348887],[-71.065323,42.348802],[-71.065279,42.348688],[-71.065206,42.34867],[-71.066458,42.348649],[-71.066483,42.348529],[-71.06591,42.348462],[-71.065995,42.348064],[-71.065837,42.348044],[-71.065431,42.348051],[-71.065402,42.348018],[-71.06552,42.347941],[-71.065529,42.347903],[-71.065483,42.347819],[-71.065392,42.347805],[-71.065371,42.347781],[-71.065292,42.347782],[-71.065318,42.347764],[-71.065319,42.347677],[-71.065257,42.347643],[-71.064894,42.347587],[-71.061858,42.347638],[-71.061712,42.347604],[-71.056625,42.347689],[-71.056683,42.347603],[-71.056673,42.347544],[-71.055908,42.347262],[-71.049825,42.347364],[-71.04845,42.349411],[-71.048439,42.349511],[-71.048364,42.349512],[-71.047394,42.350955],[-71.047975,42.35117],[-71.050035,42.351136],[-71.050314,42.351239],[-71.05037,42.351238],[-71.050318,42.351351],[-71.050508,42.351428],[-71.050211,42.351433],[-71.050109,42.351636],[-71.049415,42.351647],[-71.048396,42.351881],[-71.048224,42.352056],[-71.04875,42.352334],[-71.04891,42.352385],[-71.049078,42.35241],[-71.049777,42.352398],[-71.049763,42.352428],[-71.049826,42.352444],[-71.049793,42.352469],[-71.049951,42.352714],[-71.049978,42.352719],[-71.050094,42.352717],[-71.050193,42.352743],[-71.051976,42.352713],[-71.051954,42.352829],[-71.051585,42.352835],[-71.051477,42.35285],[-71.051227,42.35299],[-71.051086,42.353042],[-71.051022,42.353109],[-71.051028,42.353185],[-71.050154,42.353199],[-71.049915,42.353327],[-71.049932,42.353394],[-71.049814,42.353396],[-71.04949,42.353571],[-71.049517,42.353599],[-71.049326,42.353704],[-71.049259,42.353705],[-71.048832,42.35394],[-71.04889,42.353999],[-71.048693,42.35401],[-71.048295,42.354224],[-71.048272,42.354264],[-71.048281,42.354308],[-71.048536,42.354573],[-71.048586,42.354587],[-71.048916,42.354582],[-71.048868,42.354584],[-71.048692,42.354745],[-71.048897,42.354941],[-71.049488,42.354931],[-71.049605,42.355581],[-71.055803,42.355484],[-71.056006,42.355464],[-71.060491,42.355389],[-71.060632,42.355264],[-71.063118,42.355222],[-71.063177,42.355145],[-71.063005,42.355056],[-71.063255,42.355044],[-71.06334,42.354887],[-71.063912,42.354877],[-71.063935,42.354829],[-71.063869,42.354811],[-71.063377,42.354819],[-71.063592,42.354422],[-71.065514,42.35439],[-71.065563,42.354357],[-71.065554,42.354318],[-71.065508,42.354299],[-71.063642,42.35433],[-71.063852,42.353943],[-71.063862,42.353896],[-71.06367,42.353837],[-71.063892,42.353833],[-71.063998,42.353634],[-71.063768,42.353564],[-71.06364,42.353566],[-71.064052,42.353554],[-71.064097,42.353425],[-71.06392,42.353391],[-71.064576,42.35338],[-71.06461,42.353278],[-71.064542,42.353266],[-71.064155,42.353272],[-71.064251,42.353005],[-71.065378,42.352986],[-71.065421,42.352871],[-71.065303,42.352844],[-71.064303,42.352861],[-71.064309,42.35284],[-71.063836,42.35282],[-71.064309,42.352812],[-71.064344,42.352661],[-71.064692,42.352647],[-71.064727,42.352541],[-71.064363,42.352536],[-71.064373,42.352435],[-71.064354,42.352421],[-71.066063,42.352392],[-71.06608,42.352172],[-71.06627,42.352169],[-71.066295,42.351885],[-71.066239,42.351881],[-71.066847,42.351871],[-71.06703,42.351826]],[[-71.062698,42.35332],[-71.06269,42.353343],[-71.062393,42.353348],[-71.062401,42.353325],[-71.062698,42.35332]],[[-71.057044,42.348164],[-71.0563,42.348176],[-71.056308,42.348164],[-71.056993,42.348153],[-71.057044,42.348164]]]},"properties":{"kind":"building"}},{"type":"Feature","geometry":{"type":"MultiPolygon","coordinates":[[[[-71.066058,42.353451],[-71.066047,42.35341],[-71.065968,42.353351],[-71.065393,42.353352],[-71.065411,42.353303],[-71.065824,42.353289],[-71.06586,42.353283],[-71.065911,42.353246],[-71.065911,42.353192],[-71.06586,42.353155],[-71.065884,42.353128],[-71.065981,42.353102],[-71.066007,42.353073],[-71.066016,42.353039],[-71.065995,42.352992],[-71.066039,42.352955],[-71.066048,42.352923],[-71.066021,42.352832],[-71.065942,42.352773],[-71.06577,42.352767],[-71.065724,42.352729],[-71.065583,42.352726],[-71.065638,42.352708],[-71.065665,42.35266],[-71.065976,42.352648],[-71.066016,42.352618],[-71.066016,42.352576],[-71.065947,42.352542],[-71.065742,42.352535],[-71.065688,42.352518],[-71.065414,42.352522],[-71.065361,42.35251],[-71.058929,42.352611],[-71.05886,42.352632],[-71.058839,42.352656],[-71.058832,42.352683],[-71.058856,42.352729],[-71.055656,42.352794],[-71.055638,42.352808],[-71.055508,42.352817],[-71.055482,42.352837],[-71.055482,42.352864],[-71.055527,42.352886],[-71.059601,42.352828],[-71.059553,42.352844],[-71.059531,42.352878],[-71.05941,42.3529],[-71.059389,42.352924],[-71.059384,42.352961],[-71.057782,42.352988],[-71.057769,42.353011],[-71.057899,42.353013],[-71.057042,42.353036],[-71.057024,42.35305],[-71.057042,42.353063],[-71.058601,42.353042],[-71.058577,42.353054],[-71.058222,42.353066],[-71.058209,42.353089],[-71.057998,42.353096],[-71.05798,42.35311],[-71.057052,42.353126],[-71.057034,42.35314],[-71.057052,42.353153],[-71.058035,42.353137],[-71.058052,42.353153],[-71.058549,42.353145],[-71.058567,42.353169],[-71.058128,42.353176],[-71.05811,42.35319],[-71.058128,42.353203],[-71.058568,42.353196],[-71.058574,42.353246],[-71.058551,42.353249],[-71.051994,42.353375],[-71.051964,42.35339],[-71.051971,42.353416],[-71.051994,42.353423],[-71.056794,42.353341],[-71.057465,42.353336],[-71.057482,42.353353],[-71.058469,42.353337],[-71.058479,42.353354],[-71.058524,42.353354],[-71.058372,42.353359],[-71.058354,42.353373],[-71.058372,42.353386],[-71.058483,42.353384],[-71.058474,42.353394],[-71.058029,42.35341],[-71.055596,42.353451],[-71.055563,42.353461],[-71.05555,42.353485],[-71.052656,42.353532],[-71.052637,42.353545],[-71.052656,42.353559],[-71.057968,42.353479],[-71.057975,42.353499],[-71.059021,42.353499],[-71.058967,42.353557],[-71.058548,42.353564],[-71.058477,42.353586],[-71.058451,42.353626],[-71.057663,42.353649],[-71.057652,42.353688],[-71.057697,42.35371],[-71.058489,42.353697],[-71.058548,42.353713],[-71.058839,42.353717],[-71.058801,42.353803],[-71.058841,42.353847],[-71.059295,42.353843],[-71.05929,42.353854],[-71.058324,42.353881],[-71.058175,42.353959],[-71.058161,42.35407],[-71.058205,42.354103],[-71.058459,42.354103],[-71.058482,42.354121],[-71.058181,42.35413],[-71.058137,42.354162],[-71.058146,42.354218],[-71.058081,42.354235],[-71.058064,42.354252],[-71.058063,42.35429],[-71.05588,42.354327],[-71.055861,42.354341],[-71.05588,42.354356],[-71.058069,42.354319],[-71.058055,42.354334],[-71.056642,42.354358],[-71.056624,42.354372],[-71.056642,42.354385],[-71.058041,42.354362],[-71.058037,42.354378],[-71.055298,42.354424],[-71.055268,42.354439],[-71.055275,42.354465],[-71.055298,42.354472],[-71.058045,42.354426],[-71.058057,42.354439],[-71.057953,42.354441],[-71.057895,42.354459],[-71.057872,42.354501],[-71.057885,42.354532],[-71.05782,42.354584],[-71.057809,42.354625],[-71.05782,42.354667],[-71.057852,42.354702],[-71.057938,42.354731],[-71.056306,42.354758],[-71.056297,42.354737],[-71.05323,42.354787],[-71.053211,42.354801],[-71.05323,42.354816],[-71.055403,42.354779],[-71.055391,42.354799],[-71.055413,42.354824],[-71.055613,42.354822],[-71.055606,42.354834],[-71.053426,42.354871],[-71.053407,42.354884],[-71.053426,42.354898],[-71.055635,42.354861],[-71.055663,42.354861],[-71.055665,42.354893],[-71.055688,42.3549],[-71.05767,42.354867],[-71.05767,42.354898],[-71.053436,42.354965],[-71.053417,42.354978],[-71.053436,42.354992],[-71.055755,42.354953],[-71.055815,42.355005],[-71.056028,42.355004],[-71.056033,42.35503],[-71.056053,42.355036],[-71.059234,42.354982],[-71.059368,42.354986],[-71.059381,42.355],[-71.058684,42.355017],[-71.058628,42.355059],[-71.058628,42.355118],[-71.058684,42.355159],[-71.058724,42.355165],[-71.064807,42.355063],[-71.064879,42.355041],[-71.066004,42.355019],[-71.066046,42.354972],[-71.066004,42.354925],[-71.065602,42.354928],[-71.065674,42.354878],[-71.065683,42.354843],[-71.065647,42.354779],[-71.065607,42.354759],[-71.065485,42.354753],[-71.065444,42.354711],[-71.065348,42.354709],[-71.065327,42.354655],[-71.065232,42.354615],[-71.065095,42.354612],[-71.065098,42.354575],[-71.065785,42.354557],[-71.065827,42.354536],[-71.065865,42.354468],[-71.065855,42.354431],[-71.065785,42.354379],[-71.064765,42.354388],[-71.064616,42.354356],[-71.064367,42.35436],[-71.064696,42.354353],[-71.064903,42.354332],[-71.06494,42.354321],[-71.064955,42.354294],[-71.06494,42.354267],[-71.064903,42.354256],[-71.064403,42.354258],[-71.06439,42.354233],[-71.065041,42.354222],[-71.065082,42.35421],[-71.065099,42.354179],[-71.065947,42.354163],[-71.06597,42.354146],[-71.065947,42.354129],[-71.065073,42.354144],[-71.064867,42.354134],[-71.065889,42.354117],[-71.065996,42.354088],[-71.06602,42.354061],[-71.065981,42.354032],[-71.065241,42.354045],[-71.065231,42.354033],[-71.065698,42.354015],[-71.065709,42.353976],[-71.06576,42.353953],[-71.065749,42.353914],[-71.065438,42.353908],[-71.065568,42.353901],[-71.065596,42.353881],[-71.065596,42.353851],[-71.065548,42.353828],[-71.065391,42.353827],[-71.065411,42.353808],[-71.065608,42.353787],[-71.065625,42.353756],[-71.065589,42.353716],[-71.064441,42.353732],[-71.065488,42.353711],[-71.065545,42.353682],[-71.065545,42.353648],[-71.065512,42.353623],[-71.064482,42.353636],[-71.065448,42.353616],[-71.065504,42.353608],[-71.065569,42.353565],[-71.065968,42.353551],[-71.066015,42.353527],[-71.066047,42.353492],[-71.066058,42.353451]]],[[[-71.06583,42.348038],[-71.065811,42.348004],[-71.065765,42.34799],[-71.060248,42.348083],[-71.060202,42.348097],[-71.060184,42.348125],[-71.056068,42.348194],[-71.056025,42.348208],[-71.056006,42.34824],[-71.056025,42.348272],[-71.056068,42.348285],[-71.061579,42.348197],[-71.061592,42.348174],[-71.061462,42.348172],[-71.06147,42.348158],[-71.065765,42.348086],[-71.065811,42.348072],[-71.06583,42.348038]]],[[[-71.06579,42.34818],[-71.065774,42.348151],[-71.065735,42.348139],[-71.060744,42.348223],[-71.060705,42.348235],[-71.057658,42.348287],[-71.057628,42.348302],[-71.057628,42.34832],[-71.056599,42.34834],[-71.05656,42.348352],[-71.056544,42.348381],[-71.05656,42.34841],[-71.056599,42.348422],[-71.058936,42.348394],[-71.058242,42.348416],[-71.058221,42.348431],[-71.058221,42.348453],[-71.058257,42.348471],[-71.059381,42.348452],[-71.059388,42.348473],[-71.061328,42.348442],[-71.061336,42.348462],[-71.061416,42.348462],[-71.061418,42.348474],[-71.058663,42.348516],[-71.058644,42.34853],[-71.058663,42.348543],[-71.059216,42.348534],[-71.059226,42.348552],[-71.060455,42.348533],[-71.06049,42.348572],[-71.056165,42.348645],[-71.056128,42.348656],[-71.056113,42.348683],[-71.056128,42.34871],[-71.056165,42.348721],[-71.057328,42.348702],[-71.057056,42.348711],[-71.057024,42.348721],[-71.057011,42.348742],[-71.055959,42.34876],[-71.05592,42.348772],[-71.055904,42.348801],[-71.05592,42.34883],[-71.055959,42.348842],[-71.060949,42.348758],[-71.060928,42.348774],[-71.060635,42.348781],[-71.060612,42.348797],[-71.056611,42.348868],[-71.056582,42.348877],[-71.056569,42.348899],[-71.056582,42.348921],[-71.056611,42.34893],[-71.05713,42.348922],[-71.057142,42.348948],[-71.057171,42.348957],[-71.061253,42.348898],[-71.0608,42.348907],[-71.060781,42.348921],[-71.0608,42.348936],[-71.06386,42.348884],[-71.063874,42.34886],[-71.065384,42.348826],[-71.065418,42.348815],[-71.065433,42.34879],[-71.065418,42.348765],[-71.065384,42.348754],[-71.060941,42.348832],[-71.060939,42.348815],[-71.06387,42.34876],[-71.063893,42.348743],[-71.064186,42.348737],[-71.064209,42.34872],[-71.064186,42.348703],[-71.060951,42.348758],[-71.060996,42.348738],[-71.063896,42.348689],[-71.063915,42.348675],[-71.063896,42.348661],[-71.061539,42.3487],[-71.061562,42.348683],[-71.061666,42.348677],[-71.061689,42.34866],[-71.061689,42.348636],[-71.06165,42.348617],[-71.061018,42.348627],[-71.061032,42.348602],[-71.06244,42.348574],[-71.062456,42.348569],[-71.062456,42.348545],[-71.06568,42.348489],[-71.065721,42.348477],[-71.065738,42.348446],[-71.065721,42.348415],[-71.06568,42.348403],[-71.063808,42.348425],[-71.064418,42.348412],[-71.064436,42.348399],[-71.064418,42.348386],[-71.061766,42.348429],[-71.06549,42.348362],[-71.065534,42.348348],[-71.065552,42.348316],[-71.06571,42.348306],[-71.065728,42.348293],[-71.06571,42.34828],[-71.065531,42.348283],[-71.06549,42.34827],[-71.061842,42.348332],[-71.061851,42.348312],[-71.061838,42.348288],[-71.065735,42.348221],[-71.065774,42.348209],[-71.06579,42.34818]]],[[[-71.065598,42.348957],[-71.06558,42.348944],[-71.065394,42.348947],[-71.065385,42.348921],[-71.06536,42.348914],[-71.061423,42.34898],[-71.061387,42.349006],[-71.061423,42.349033],[-71.06558,42.34897],[-71.065598,42.348957]]],[[[-71.065588,42.351223],[-71.06557,42.35121],[-71.065367,42.351213],[-71.06535,42.351197],[-71.062892,42.351236],[-71.062817,42.351239],[-71.062799,42.351253],[-71.062861,42.351282],[-71.06557,42.351236],[-71.065588,42.351223]]],[[[-71.065562,42.349094],[-71.065544,42.349081],[-71.065375,42.349083],[-71.065364,42.349045],[-71.06533,42.349034],[-71.054907,42.34922],[-71.054857,42.349235],[-71.054836,42.349273],[-71.054857,42.34931],[-71.054907,42.349325],[-71.057708,42.349278],[-71.057713,42.349304],[-71.057734,42.34931],[-71.058235,42.349301],[-71.058246,42.349312],[-71.058704,42.349313],[-71.06142,42.349268],[-71.061433,42.349245],[-71.061341,42.349243],[-71.061341,42.349213],[-71.06132,42.349206],[-71.060819,42.349215],[-71.060845,42.349181],[-71.063348,42.349139],[-71.061446,42.349174],[-71.061427,42.349188],[-71.061446,42.349201],[-71.063803,42.349161],[-71.063816,42.349138],[-71.065544,42.349107],[-71.065562,42.349094]]],[[[-71.065559,42.349236],[-71.065544,42.349211],[-71.06551,42.3492],[-71.061497,42.349267],[-71.061463,42.349278],[-71.061449,42.349302],[-71.058061,42.349364],[-71.058032,42.349373],[-71.058019,42.349395],[-71.056671,42.349421],[-71.056637,42.349432],[-71.056623,42.349457],[-71.056637,42.349483],[-71.056671,42.349493],[-71.058149,42.349474],[-71.056022,42.34951],[-71.055986,42.349528],[-71.055958,42.349584],[-71.055972,42.349609],[-71.056006,42.34962],[-71.056476,42.349612],[-71.056504,42.349638],[-71.057351,42.349624],[-71.057438,42.349637],[-71.057452,42.349661],[-71.056112,42.349684],[-71.05608,42.3497],[-71.055902,42.349715],[-71.055872,42.349747],[-71.052677,42.3498],[-71.052638,42.349829],[-71.052677,42.349858],[-71.05679,42.349789],[-71.056826,42.349771],[-71.057666,42.349755],[-71.057704,42.349769],[-71.061717,42.349702],[-71.061751,42.349691],[-71.061766,42.349666],[-71.061751,42.349641],[-71.061717,42.34963],[-71.061279,42.349637],[-71.061271,42.349618],[-71.060082,42.349633],[-71.061499,42.349604],[-71.061892,42.349584],[-71.061926,42.349573],[-71.061941,42.349548],[-71.061926,42.349523],[-71.061892,42.349512],[-71.061445,42.34952],[-71.061401,42.349498],[-71.060694,42.34951],[-71.060665,42.349473],[-71.061933,42.349451],[-71.061951,42.349438],[-71.061933,42.349425],[-71.061367,42.349434],[-71.061365,42.349423],[-71.062454,42.349404],[-71.062484,42.349395],[-71.062496,42.349373],[-71.063737,42.349348],[-71.063755,42.349335],[-71.063737,42.349322],[-71.062382,42.349343],[-71.062389,42.349335],[-71.06551,42.349272],[-71.065544,42.349261],[-71.065559,42.349236]]],[[[-71.065548,42.34811],[-71.06553,42.348097],[-71.063173,42.348136],[-71.063154,42.34815],[-71.063173,42.348163],[-71.06553,42.348123],[-71.065548,42.34811]]],[[[-71.065176,42.35072],[-71.06515,42.350701],[-71.063175,42.350734],[-71.063177,42.350722],[-71.063364,42.350714],[-71.06335,42.35069],[-71.06029,42.350741],[-71.060276,42.350766],[-71.060434,42.350767],[-71.060444,42.350785],[-71.06172,42.350765],[-71.059768,42.350804],[-71.059738,42.350825],[-71.059768,42.350847],[-71.063354,42.350787],[-71.063382,42.350769],[-71.06515,42.350739],[-71.065176,42.35072]]],[[[-71.065151,42.350784],[-71.065125,42.350765],[-71.061714,42.350822],[-71.06169,42.350834],[-71.059949,42.350864],[-71.059925,42.350891],[-71.059949,42.350902],[-71.06336,42.350845],[-71.063384,42.350833],[-71.065125,42.350803],[-71.065151,42.350784]]],[[[-71.065129,42.350853],[-71.06511,42.350839],[-71.063691,42.350862],[-71.063545,42.35086],[-71.06352,42.350845],[-71.060109,42.350902],[-71.059901,42.350924],[-71.059785,42.350961],[-71.058235,42.350988],[-71.058212,42.351004],[-71.058235,42.351021],[-71.059798,42.350995],[-71.060288,42.351001],[-71.06422,42.350938],[-71.064238,42.350925],[-71.06422,42.350912],[-71.063969,42.350891],[-71.06511,42.350867],[-71.065129,42.350853]]],[[[-71.064944,42.35131],[-71.064926,42.351297],[-71.062393,42.351339],[-71.062375,42.351353],[-71.062393,42.351366],[-71.064926,42.351323],[-71.064944,42.35131]]],[[[-71.064624,42.351826],[-71.064606,42.351813],[-71.062248,42.351852],[-71.06223,42.351866],[-71.062248,42.351879],[-71.064606,42.351839],[-71.064624,42.351826]]],[[[-71.064568,42.352055],[-71.06455,42.352042],[-71.062017,42.352084],[-71.061999,42.352098],[-71.062017,42.352111],[-71.06455,42.352068],[-71.064568,42.352055]]],[[[-71.064564,42.352104],[-71.064545,42.35209],[-71.061485,42.352141],[-71.061466,42.352155],[-71.061485,42.35217],[-71.064545,42.352118],[-71.064564,42.352104]]],[[[-71.064548,42.35216],[-71.06453,42.352147],[-71.062172,42.352186],[-71.062154,42.3522],[-71.062169,42.352213],[-71.060297,42.352244],[-71.060195,42.352252],[-71.060177,42.352266],[-71.060195,42.352279],[-71.060579,42.352273],[-71.060419,42.352286],[-71.060432,42.352309],[-71.062965,42.352266],[-71.063065,42.352263],[-71.063144,42.352238],[-71.063126,42.352225],[-71.062918,42.352228],[-71.062911,42.352208],[-71.062833,42.352202],[-71.06453,42.352173],[-71.064548,42.35216]]],[[[-71.063689,42.34976],[-71.06367,42.349746],[-71.06061,42.349797],[-71.060576,42.349809],[-71.060578,42.349777],[-71.06053,42.349754],[-71.052998,42.349879],[-71.052968,42.349894],[-71.052968,42.349912],[-71.052998,42.349927],[-71.055665,42.349882],[-71.055675,42.349897],[-71.052712,42.349946],[-71.052678,42.349957],[-71.052664,42.349982],[-71.052678,42.350008],[-71.052712,42.350018],[-71.056725,42.349951],[-71.056768,42.349931],[-71.056871,42.349929],[-71.057824,42.349918],[-71.057837,42.34994],[-71.059538,42.349911],[-71.059546,42.349932],[-71.063614,42.349867],[-71.063632,42.349854],[-71.063614,42.349841],[-71.060384,42.349892],[-71.060387,42.349879],[-71.06118,42.349861],[-71.06121,42.349852],[-71.061219,42.349818],[-71.06367,42.349774],[-71.063689,42.34976]]],[[[-71.063579,42.34995],[-71.06356,42.349936],[-71.0605,42.349987],[-71.060481,42.350001],[-71.053044,42.350133],[-71.053014,42.350154],[-71.053044,42.350176],[-71.05624,42.350122],[-71.056289,42.350149],[-71.06185,42.350057],[-71.061868,42.350044],[-71.06353,42.350013],[-71.063548,42.35],[-71.06353,42.349987],[-71.061155,42.350026],[-71.06356,42.349964],[-71.063579,42.34995]]],[[[-71.063458,42.350418],[-71.06344,42.350405],[-71.060556,42.350453],[-71.060538,42.350466],[-71.060556,42.35048],[-71.060761,42.350477],[-71.06077,42.350495],[-71.06331,42.350453],[-71.063458,42.350418]]],[[[-71.063458,42.35018],[-71.06344,42.350167],[-71.061787,42.350188],[-71.059422,42.350226],[-71.059404,42.35024],[-71.059422,42.350253],[-71.060724,42.350238],[-71.06344,42.350193],[-71.063458,42.35018]]],[[[-71.063434,42.350487],[-71.063416,42.350474],[-71.06328,42.35047],[-71.060571,42.350515],[-71.060553,42.350529],[-71.060571,42.350542],[-71.060707,42.350546],[-71.063416,42.3505],[-71.063434,42.350487]]],[[[-71.063428,42.350246],[-71.06341,42.350233],[-71.057637,42.350332],[-71.057601,42.35035],[-71.057609,42.350381],[-71.055038,42.350429],[-71.05502,42.350443],[-71.055038,42.350456],[-71.057211,42.35042],[-71.057224,42.350445],[-71.057256,42.350455],[-71.06172,42.35038],[-71.061762,42.350359],[-71.061752,42.350322],[-71.063385,42.350293],[-71.063403,42.35028],[-71.063385,42.350267],[-71.061789,42.350293],[-71.06341,42.350259],[-71.063428,42.350246]]],[[[-71.063403,42.35055],[-71.063385,42.350537],[-71.063273,42.350538],[-71.063255,42.350523],[-71.060546,42.350568],[-71.060528,42.350582],[-71.060546,42.350595],[-71.060834,42.35059],[-71.060852,42.350606],[-71.063385,42.350563],[-71.063403,42.35055]]],[[[-71.063368,42.35061],[-71.06335,42.350597],[-71.060817,42.350639],[-71.060799,42.350653],[-71.060326,42.350665],[-71.060308,42.350678],[-71.060326,42.350692],[-71.06321,42.350643],[-71.063368,42.35061]]],[[[-71.063248,42.350582],[-71.06323,42.350569],[-71.060346,42.350617],[-71.060328,42.35063],[-71.060346,42.350644],[-71.06323,42.350595],[-71.063248,42.350582]]],[[[-71.063198,42.350677],[-71.06318,42.350664],[-71.060998,42.3507],[-71.06098,42.350714],[-71.060998,42.350727],[-71.06318,42.35069],[-71.063198,42.350677]]],[[[-71.061898,42.349926],[-71.06188,42.349913],[-71.059523,42.349952],[-71.059504,42.349966],[-71.059523,42.349979],[-71.06188,42.349939],[-71.061898,42.349926]]],[[[-71.061838,42.35008],[-71.06182,42.350067],[-71.057922,42.350131],[-71.057909,42.350154],[-71.05662,42.350175],[-71.05659,42.350161],[-71.052828,42.350224],[-71.052798,42.350239],[-71.052798,42.350257],[-71.052828,42.350272],[-71.056204,42.350215],[-71.056206,42.350227],[-71.054458,42.350256],[-71.05444,42.35027],[-71.054458,42.350283],[-71.061806,42.350168],[-71.061824,42.350155],[-71.061806,42.350142],[-71.060307,42.350167],[-71.06031,42.350136],[-71.060289,42.350119],[-71.06182,42.350093],[-71.061838,42.35008]]],[[[-71.061418,42.351122],[-71.0614,42.351109],[-71.059901,42.351134],[-71.059875,42.351116],[-71.056464,42.351173],[-71.05644,42.3512],[-71.056464,42.351211],[-71.057089,42.351201],[-71.057095,42.351222],[-71.05946,42.351183],[-71.059478,42.35117],[-71.0614,42.351135],[-71.061418,42.351122]]],[[[-71.061399,42.349052],[-71.06138,42.349038],[-71.05832,42.349089],[-71.058301,42.349103],[-71.05832,42.349118],[-71.06138,42.349066],[-71.061399,42.349052]]],[[[-71.061397,42.35118],[-71.061379,42.351167],[-71.059143,42.351204],[-71.05911,42.351194],[-71.05447,42.351272],[-71.054436,42.351283],[-71.054421,42.351308],[-71.054452,42.351341],[-71.054495,42.351344],[-71.054482,42.351366],[-71.053075,42.35139],[-71.053057,42.351403],[-71.053075,42.351417],[-71.053699,42.351406],[-71.0537,42.351431],[-71.054457,42.351419],[-71.053051,42.351447],[-71.053033,42.35146],[-71.053051,42.351474],[-71.05446,42.351454],[-71.054476,42.351465],[-71.053657,42.351479],[-71.053639,42.351493],[-71.053657,42.351506],[-71.05914,42.351393],[-71.059174,42.351382],[-71.059185,42.351343],[-71.061334,42.351302],[-71.061352,42.351289],[-71.061334,42.351276],[-71.059208,42.351311],[-71.059219,42.35129],[-71.061353,42.351253],[-71.061371,42.35124],[-71.061353,42.351227],[-71.059145,42.351254],[-71.059183,42.35125],[-71.059183,42.35123],[-71.061379,42.351193],[-71.061397,42.35118]]],[[[-71.060608,42.3493],[-71.06059,42.349287],[-71.058233,42.349326],[-71.058214,42.34934],[-71.058233,42.349353],[-71.06059,42.349313],[-71.060608,42.3493]]],[[[-71.059972,42.351044],[-71.05996,42.351022],[-71.05993,42.351013],[-71.054541,42.351095],[-71.054523,42.351109],[-71.053496,42.351132],[-71.053478,42.351145],[-71.053496,42.351159],[-71.055601,42.351124],[-71.055611,42.351138],[-71.053246,42.35118],[-71.053228,42.351193],[-71.053246,42.351207],[-71.05613,42.351158],[-71.056148,42.351145],[-71.05993,42.351075],[-71.05996,42.351066],[-71.059972,42.351044]]],[[[-71.059649,42.35171],[-71.059634,42.351685],[-71.0596,42.351674],[-71.058921,42.351685],[-71.05889,42.351666],[-71.056077,42.351713],[-71.056075,42.351703],[-71.05943,42.351646],[-71.059553,42.351617],[-71.05956,42.351591],[-71.05953,42.351576],[-71.055855,42.35163],[-71.055848,42.35161],[-71.052957,42.351657],[-71.052938,42.35167],[-71.052957,42.351684],[-71.055011,42.351649],[-71.054999,42.35168],[-71.055032,42.351697],[-71.055993,42.351683],[-71.056,42.351698],[-71.052906,42.351762],[-71.052887,42.351775],[-71.052906,42.351789],[-71.054782,42.351757],[-71.055097,42.351758],[-71.055105,42.35177],[-71.052886,42.351811],[-71.052867,42.351824],[-71.052886,42.351838],[-71.054877,42.351804],[-71.054827,42.351846],[-71.054862,42.351873],[-71.0588,42.351806],[-71.0593,42.351797],[-71.059323,42.35178],[-71.0593,42.351763],[-71.058833,42.351771],[-71.0596,42.351746],[-71.059634,42.351735],[-71.059649,42.35171]]],[[[-71.059518,42.351097],[-71.0595,42.351084],[-71.057142,42.351123],[-71.057124,42.351137],[-71.057142,42.35115],[-71.0595,42.35111],[-71.059518,42.351097]]],[[[-71.059098,42.35146],[-71.05908,42.351447],[-71.056722,42.351486],[-71.056704,42.3515],[-71.056722,42.351513],[-71.05908,42.351473],[-71.059098,42.35146]]],[[[-71.059066,42.351517],[-71.05904,42.351498],[-71.052986,42.351596],[-71.052967,42.351609],[-71.052986,42.351623],[-71.055604,42.351579],[-71.055629,42.351593],[-71.05904,42.351536],[-71.059066,42.351517]]],[[[-71.058778,42.351826],[-71.05876,42.351813],[-71.054603,42.351885],[-71.054564,42.351914],[-71.053566,42.351955],[-71.053547,42.351968],[-71.053566,42.351982],[-71.054868,42.35196],[-71.054885,42.351991],[-71.05508,42.35199],[-71.055098,42.352005],[-71.05862,42.351947],[-71.058683,42.351923],[-71.05869,42.351897],[-71.05866,42.351882],[-71.057306,42.351905],[-71.058716,42.351874],[-71.058744,42.351865],[-71.058778,42.351826]]],[[[-71.058598,42.351967],[-71.05858,42.351954],[-71.053539,42.35204],[-71.0535,42.352052],[-71.053484,42.352081],[-71.053518,42.352118],[-71.054161,42.352111],[-71.053976,42.352115],[-71.053934,42.352136],[-71.053742,42.35215],[-71.053724,42.35217],[-71.053753,42.352192],[-71.053997,42.352188],[-71.054001,42.352211],[-71.054074,42.352216],[-71.051807,42.352257],[-71.051773,42.352268],[-71.051762,42.352307],[-71.051724,42.352343],[-71.051739,42.352369],[-71.051773,42.352379],[-71.055786,42.352312],[-71.05582,42.352301],[-71.055834,42.352277],[-71.057724,42.352245],[-71.057748,42.352233],[-71.057734,42.352208],[-71.057607,42.352209],[-71.057621,42.352182],[-71.057605,42.35217],[-71.057532,42.352169],[-71.057528,42.352146],[-71.057455,42.352142],[-71.057448,42.352126],[-71.05844,42.352108],[-71.058472,42.352098],[-71.058482,42.352061],[-71.058569,42.352026],[-71.058598,42.351967]]],[[[-71.058568,42.35253],[-71.05855,42.352517],[-71.058257,42.3525],[-71.055892,42.352538],[-71.055859,42.352571],[-71.055877,42.352584],[-71.056192,42.352583],[-71.05855,42.352543],[-71.058568,42.35253]]],[[[-71.058499,42.35248],[-71.05848,42.352466],[-71.05826,42.352454],[-71.055902,42.352493],[-71.055884,42.352507],[-71.05542,42.352517],[-71.055401,42.352531],[-71.05542,42.352546],[-71.05848,42.352494],[-71.058499,42.35248]]],[[[-71.058288,42.35091],[-71.05827,42.350897],[-71.058211,42.350898],[-71.058218,42.350887],[-71.0582,42.350874],[-71.053324,42.350968],[-71.053306,42.350981],[-71.053324,42.350995],[-71.054564,42.350983],[-71.05827,42.350923],[-71.058288,42.35091]]],[[[-71.058038,42.352665],[-71.05802,42.352652],[-71.055662,42.352691],[-71.055644,42.352705],[-71.055662,42.352718],[-71.05802,42.352678],[-71.058038,42.352665]]],[[[-71.058008,42.352905],[-71.05799,42.352892],[-71.055632,42.352931],[-71.055614,42.352945],[-71.055632,42.352958],[-71.05799,42.352918],[-71.058008,42.352905]]],[[[-71.057803,42.350693],[-71.05774,42.350664],[-71.056608,42.350683],[-71.05659,42.350667],[-71.053706,42.350715],[-71.053688,42.350728],[-71.053706,42.350742],[-71.055365,42.350714],[-71.055427,42.350746],[-71.057785,42.350706],[-71.057803,42.350693]]],[[[-71.057398,42.350494],[-71.05738,42.350481],[-71.055022,42.35052],[-71.055004,42.350534],[-71.055022,42.350547],[-71.05738,42.350507],[-71.057398,42.350494]]],[[[-71.057198,42.35055],[-71.05718,42.350537],[-71.057093,42.350538],[-71.057083,42.350521],[-71.054718,42.350559],[-71.0547,42.350573],[-71.054718,42.350586],[-71.054806,42.350585],[-71.054815,42.350602],[-71.05718,42.350563],[-71.057198,42.35055]]],[[[-71.057147,42.350632],[-71.057129,42.350619],[-71.054771,42.350658],[-71.054753,42.350672],[-71.054771,42.350685],[-71.057129,42.350645],[-71.057147,42.350632]]],[[[-71.056798,42.350307],[-71.05678,42.350294],[-71.054422,42.350333],[-71.054404,42.350347],[-71.054422,42.35036],[-71.05678,42.35032],[-71.056798,42.350307]]],[[[-71.056729,42.350006],[-71.056714,42.349981],[-71.05668,42.34997],[-71.052667,42.350037],[-71.052633,42.350048],[-71.052619,42.350073],[-71.052633,42.350099],[-71.052667,42.350109],[-71.05668,42.350042],[-71.056714,42.350031],[-71.056729,42.350006]]],[[[-71.056643,42.350613],[-71.056625,42.3506],[-71.053741,42.350648],[-71.053723,42.350661],[-71.053741,42.350675],[-71.056625,42.350626],[-71.056643,42.350613]]],[[[-71.056626,42.353203],[-71.0566,42.353184],[-71.053189,42.353241],[-71.053165,42.353268],[-71.053189,42.353279],[-71.0566,42.353222],[-71.056626,42.353203]]],[[[-71.056559,42.353165],[-71.05654,42.353151],[-71.05348,42.353202],[-71.053461,42.353216],[-71.05348,42.353231],[-71.05654,42.353179],[-71.056559,42.353165]]],[[[-71.056559,42.350834],[-71.056544,42.350809],[-71.05651,42.350798],[-71.052497,42.350865],[-71.052463,42.350876],[-71.052449,42.350901],[-71.052463,42.350927],[-71.052497,42.350937],[-71.05651,42.35087],[-71.056544,42.350859],[-71.056559,42.350834]]],[[[-71.056484,42.353127],[-71.056465,42.353113],[-71.053405,42.353164],[-71.053386,42.353178],[-71.053405,42.353193],[-71.056465,42.353141],[-71.056484,42.353127]]],[[[-71.056428,42.35103],[-71.05641,42.351017],[-71.054052,42.351056],[-71.053284,42.351071],[-71.053266,42.351084],[-71.053284,42.351098],[-71.056168,42.351049],[-71.05641,42.351043],[-71.056428,42.35103]]],[[[-71.056393,42.35309],[-71.05637,42.353073],[-71.053135,42.353128],[-71.053112,42.353144],[-71.053135,42.353161],[-71.05637,42.353107],[-71.056393,42.35309]]],[[[-71.056364,42.351176],[-71.056346,42.351163],[-71.053988,42.351202],[-71.05397,42.351216],[-71.053988,42.351229],[-71.056346,42.351189],[-71.056364,42.351176]]],[[[-71.056306,42.35467],[-71.05628,42.354651],[-71.052869,42.354708],[-71.052845,42.354735],[-71.052869,42.354746],[-71.05628,42.354689],[-71.056306,42.35467]]],[[[-71.056248,42.35305],[-71.05623,42.353037],[-71.053872,42.353076],[-71.053854,42.35309],[-71.053872,42.353103],[-71.05623,42.353063],[-71.056248,42.35305]]],[[[-71.05592,42.351482],[-71.055902,42.351469],[-71.053018,42.351517],[-71.053,42.35153],[-71.053018,42.351544],[-71.055902,42.351495],[-71.05592,42.351482]]],[[[-71.055724,42.353394],[-71.055695,42.353372],[-71.052108,42.353433],[-71.052079,42.353454],[-71.052108,42.353476],[-71.052558,42.353468],[-71.052548,42.353487],[-71.052559,42.353495],[-71.055626,42.353444],[-71.05564,42.35342],[-71.055706,42.353414],[-71.055724,42.353394]]],[[[-71.055498,42.35353],[-71.05548,42.353517],[-71.052947,42.353559],[-71.052929,42.353573],[-71.052947,42.353586],[-71.05548,42.353543],[-71.055498,42.35353]]],[[[-71.055262,42.353653],[-71.055244,42.35364],[-71.052886,42.353679],[-71.051623,42.353711],[-71.051594,42.353732],[-71.051623,42.353754],[-71.051913,42.353749],[-71.051926,42.35377],[-71.05517,42.353717],[-71.055231,42.353687],[-71.055262,42.353653]]]]},"properties":{"kind":"tree"}}]}