{"type":"FeatureCollection","features":[{"type":"Feature","geometry":{"type":"MultiPolygon","coordinates":[[[[-71.070758,42.34936],[-71.070726,42.349031],[-71.070353,42.349024],[-71.070374,42.34895],[-71.069893,42.348901],[-71.068786,42.349281],[-71.0688,42.34923],[-71.069807,42.348884],[-71.069772,42.348555],[-71.069748,42.348527],[-71.070179,42.348379],[-71.070218,42.348326],[-71.070159,42.348259],[-71.068809,42.348717],[-71.068804,42.348664],[-71.068563,42.348641],[-71.068647,42.348359],[-71.068612,42.348237],[-71.068471,42.348216],[-71.068326,42.34824],[-71.067396,42.348555],[-71.067233,42.3484],[-71.067363,42.348339],[-71.068724,42.347872],[-71.068749,42.347752],[-71.06833,42.347703],[-71.069023,42.347462],[-71.069033,42.347391],[-71.068942,42.347382],[-71.068837,42.347418],[-71.068855,42.347336],[-71.069098,42.347253],[-71.069116,42.347161],[-71.069027,42.347151],[-71.068884,42.3472],[-71.068913,42.347063],[-71.068755,42.347043],[-71.068379,42.347172],[-71.068395,42.347111],[-71.068693,42.347009],[-71.06871,42.346946],[-71.068618,42.346932],[-71.068416,42.347001],[-71.068417,42.346982],[-71.068256,42.346957],[-71.067339,42.347272],[-71.067224,42.347255],[-71.066792,42.347403],[-71.066638,42.347379],[-71.066246,42.347513],[-71.066464,42.347371],[-71.066465,42.347295],[-71.066785,42.347185],[-71.066811,42.34709],[-71.066665,42.347067],[-71.066445,42.347142],[-71.066448,42.347128],[-71.066328,42.347109],[-71.065767,42.347288],[-71.065642,42.347238],[-71.064368,42.347675],[-71.06439,42.347597],[-71.064316,42.347585],[-71.066107,42.346971],[-71.066389,42.346293],[-71.066332,42.346272],[-71.065194,42.346662],[-71.065272,42.346472],[-71.065118,42.346436],[-71.061844,42.347559],[-71.06191,42.347394],[-71.061453,42.347288],[-71.057613,42.348605],[-71.057537,42.348793],[-71.057459,42.348816],[-71.057477,42.34878],[-71.057248,42.348697],[-71.057319,42.348613],[-71.057374,42.348234],[-71.058127,42.347108],[-71.058117,42.347049],[-71.057352,42.346767],[-71.055908,42.347262],[-71.054533,42.349309],[-71.054525,42.349383],[-71.054447,42.34941],[-71.053477,42.350853],[-71.054337,42.351171],[-71.054988,42.350948],[-71.055162,42.350689],[-71.055347,42.350626],[-71.055454,42.350678],[-71.055586,42.350703],[-71.056154,42.350689],[-71.056238,42.350673],[-71.056894,42.350448],[-71.057098,42.350498],[-71.056678,42.350643],[-71.05656,42.350888],[-71.056652,42.350911],[-71.056543,42.350948],[-71.056471,42.351096],[-71.054479,42.351779],[-71.054307,42.351954],[-71.054833,42.352232],[-71.054993,42.352283],[-71.055161,42.352308],[-71.055338,42.352268],[-71.056492,42.351872],[-71.05659,42.351898],[-71.05594,42.352127],[-71.055846,42.352326],[-71.055909,42.352342],[-71.055876,42.352367],[-71.056034,42.352612],[-71.056061,42.352617],[-71.056139,42.35259],[-71.056147,42.352607],[-71.056276,42.352641],[-71.056859,42.352484],[-71.057743,42.352181],[-71.057943,42.352241],[-71.05974,42.351625],[-71.059755,42.351721],[-71.059386,42.351848],[-71.059401,42.351952],[-71.059026,42.352083],[-71.058906,42.352152],[-71.058861,42.352197],[-71.056237,42.353097],[-71.055998,42.353225],[-71.056006,42.353257],[-71.055897,42.353294],[-71.055573,42.353469],[-71.055597,42.353494],[-71.055485,42.353554],[-71.055342,42.353603],[-71.054915,42.353838],[-71.054931,42.353855],[-71.054776,42.353908],[-71.054378,42.354122],[-71.054355,42.354162],[-71.054364,42.354206],[-71.054632,42.354477],[-71.054722,42.354475],[-71.055162,42.354324],[-71.055104,42.35437],[-71.055051,42.35444],[-71.054951,42.354482],[-71.054775,42.354643],[-71.05498,42.354839],[-71.05573,42.354582],[-71.056122,42.354521],[-71.055658,42.35468],[-71.055554,42.354733],[-71.055688,42.355479],[-71.055803,42.355484],[-71.056258,42.35544],[-71.056364,42.355412],[-71.057965,42.354863],[-71.05787,42.354957],[-71.057867,42.35498],[-71.057914,42.354998],[-71.05828,42.355017],[-71.058736,42.354861],[-71.058538,42.355044],[-71.058542,42.35507],[-71.059228,42.355368],[-71.060027,42.355094],[-71.060128,42.355172],[-71.060161,42.355161],[-71.060481,42.355389],[-71.061198,42.355147],[-71.061373,42.355233],[-71.06189,42.355056],[-71.062184,42.355207],[-71.062535,42.355087],[-71.062691,42.355175],[-71.062896,42.355105],[-71.063118,42.355222],[-71.065038,42.354564],[-71.0651,42.354497],[-71.065012,42.354442],[-71.066355,42.353981],[-71.066493,42.353725],[-71.068855,42.352915],[-71.068888,42.352828],[-71.068909,42.352821],[-71.069198,42.352285],[-71.069183,42.35228],[-71.069205,42.352271],[-71.069224,42.352236],[-71.068979,42.352163],[-71.067927,42.352524],[-71.067932,42.3525],[-71.067851,42.352475],[-71.068033,42.352413],[-71.068139,42.352214],[-71.067909,42.352144],[-71.066446,42.352646],[-71.066501,42.352541],[-71.066521,42.352462],[-71.068562,42.351762],[-71.068601,42.351509],[-71.068444,42.351504],[-71.069006,42.351312],[-71.069036,42.351138],[-71.070017,42.350802],[-71.069994,42.350668],[-71.069734,42.350082],[-71.069019,42.350166],[-71.068851,42.350157],[-71.069078,42.350079],[-71.069106,42.34993],[-71.070758,42.34936]],[[-71.061695,42.347643],[-71.061589,42.347899],[-71.061011,42.348097],[-71.060787,42.348405],[-71.058884,42.349057],[-71.058671,42.349011],[-71.058424,42.349095],[-71.058461,42.34902],[-71.058372,42.348995],[-71.058517,42.348945],[-71.058643,42.34869],[-71.061695,42.347643]],[[-71.061339,42.348694],[-71.061155,42.348757],[-71.06114,42.348782],[-71.060773,42.348908],[-71.060655,42.348879],[-71.060568,42.348904],[-71.060573,42.34888],[-71.061255,42.348646],[-71.061244,42.348672],[-71.061339,42.348694]]],[[[-71.066293,42.354097],[-71.066273,42.354061],[-71.066215,42.354051],[-71.065481,42.354302],[-71.06545,42.354322],[-71.065445,42.354357],[-71.06548,42.354386],[-71.065527,42.354387],[-71.066262,42.354135],[-71.066293,42.354097]]]]},"properties":{"kind":"building"}},{"type":"Feature","geometry":{"type":"MultiPolygon","coordinates":[[[[-71.06752,42.35295],[-71.067509,42.352908],[-71.067477,42.352873],[-71.067374,42.352842],[-71.06703,42.352949],[-71.066966,42.352907],[-71.06704,42.352874],[-71.067067,42.352825],[-71.06704,42.352776],[-71.066997,42.352759],[-71.067318,42.352649],[-71.067383,42.352601],[-71.067393,42.352567],[-71.067357,42.352504],[-71.067363,42.352485],[-71.067451,42.352448],[-71.067483,42.352413],[-71.067494,42.352372],[-71.067483,42.35233],[-71.067451,42.352295],[-71.067404,42.352272],[-71.067292,42.352272],[-71.066833,42.35243],[-71.066808,42.352394],[-71.066766,42.352377],[-71.066978,42.3523],[-71.066994,42.352283],[-71.066994,42.35224],[-71.066925,42.352206],[-71.066853,42.352225],[-71.06679,42.352198],[-71.066732,42.352213],[-71.066695,42.352186],[-71.066691,42.352134],[-71.066635,42.352093],[-71.066556,42.352093],[-71.066284,42.352186],[-71.066258,42.352126],[-71.066227,42.352111],[-71.066152,42.352111],[-71.064975,42.352515],[-71.064922,42.352553],[-71.064915,42.352581],[-71.064943,42.352632],[-71.064975,42.352647],[-71.065049,42.352647],[-71.06526,42.352575],[-71.065265,42.352616],[-71.065288,42.352641],[-71.065361,42.352664],[-71.065105,42.352754],[-71.065091,42.352798],[-71.06466,42.352952],[-71.064625,42.353015],[-71.064656,42.353073],[-71.064658,42.353148],[-71.064737,42.353207],[-71.064581,42.353265],[-71.064549,42.353323],[-71.064581,42.353381],[-71.064659,42.353405],[-71.064969,42.353315],[-71.065011,42.353324],[-71.064592,42.353467],[-71.064538,42.353508],[-71.064533,42.353548],[-71.063963,42.353755],[-71.063987,42.353772],[-71.064355,42.353646],[-71.064358,42.353658],[-71.064324,42.353692],[-71.064324,42.353728],[-71.064284,42.353761],[-71.064293,42.353802],[-71.063878,42.353945],[-71.06386,42.353976],[-71.063902,42.353989],[-71.064255,42.353868],[-71.064258,42.353905],[-71.064238,42.353945],[-71.06378,42.354102],[-71.063766,42.354127],[-71.06378,42.354138],[-71.064256,42.353981],[-71.064288,42.354],[-71.064338,42.354002],[-71.064238,42.354041],[-71.06422,42.35406],[-71.064218,42.354098],[-71.064109,42.354151],[-71.064109,42.354193],[-71.064136,42.354216],[-71.064088,42.354236],[-71.064069,42.35427],[-71.064101,42.35431],[-71.063979,42.354357],[-71.063955,42.354399],[-71.063968,42.35443],[-71.063903,42.354482],[-71.063892,42.354523],[-71.063501,42.354667],[-71.063471,42.3547],[-71.063501,42.354733],[-71.063539,42.354733],[-71.063933,42.354598],[-71.063441,42.354767],[-71.063415,42.354786],[-71.063415,42.354814],[-71.063441,42.354833],[-71.063479,42.354833],[-71.063798,42.354724],[-71.063749,42.35478],[-71.063772,42.354821],[-71.063827,42.354838],[-71.064161,42.354729],[-71.064191,42.354751],[-71.064252,42.354744],[-71.064232,42.354781],[-71.064237,42.354801],[-71.064303,42.354834],[-71.064815,42.354664],[-71.064841,42.354709],[-71.064886,42.354725],[-71.064704,42.354792],[-71.064728,42.354809],[-71.06511,42.354679],[-71.065127,42.354659],[-71.065128,42.354682],[-71.064907,42.354757],[-71.064873,42.354795],[-71.064889,42.354824],[-71.064928,42.354836],[-71.06507,42.354791],[-71.065094,42.354803],[-71.064767,42.354915],[-71.064711,42.354957],[-71.064711,42.355015],[-71.064734,42.35504],[-71.064807,42.355063],[-71.06544,42.354854],[-71.065473,42.354907],[-71.065513,42.354927],[-71.065607,42.354927],[-71.067012,42.354445],[-71.067052,42.354426],[-71.067088,42.354361],[-71.067052,42.354297],[-71.066965,42.35427],[-71.066405,42.354453],[-71.066388,42.354406],[-71.066346,42.354393],[-71.066384,42.354351],[-71.067289,42.354035],[-71.067327,42.353967],[-71.067317,42.35393],[-71.067246,42.353878],[-71.067147,42.353878],[-71.066098,42.354238],[-71.06606,42.354215],[-71.065991,42.354215],[-71.065322,42.354444],[-71.065289,42.354411],[-71.066479,42.353982],[-71.066492,42.35396],[-71.066462,42.353951],[-71.066012,42.354105],[-71.066003,42.354089],[-71.066662,42.353859],[-71.066683,42.353844],[-71.066685,42.35381],[-71.066659,42.35379],[-71.066622,42.35379],[-71.066058,42.353983],[-71.066003,42.353943],[-71.065962,42.353937],[-71.065728,42.354009],[-71.06645,42.353758],[-71.066461,42.353723],[-71.066511,42.353695],[-71.066511,42.353668],[-71.066485,42.353648],[-71.066448,42.353648],[-71.066084,42.353773],[-71.06608,42.353761],[-71.066254,42.353698],[-71.066273,42.353664],[-71.066376,42.353613],[-71.066364,42.353572],[-71.066285,42.353561],[-71.066445,42.3535],[-71.066457,42.353453],[-71.066403,42.353426],[-71.066327,42.353448],[-71.066318,42.353437],[-71.06743,42.353049],[-71.067477,42.353026],[-71.067509,42.352991],[-71.06752,42.35295]],[[-71.065793,42.35351],[-71.065772,42.353517],[-71.065771,42.353516],[-71.065792,42.353509],[-71.065793,42.35351]]],[[[-71.066968,42.354656],[-71.066948,42.35462],[-71.066874,42.354609],[-71.065952,42.354925],[-71.065915,42.354953],[-71.065915,42.354991],[-71.065952,42.355019],[-71.066004,42.355019],[-71.066926,42.354702],[-71.066968,42.354656]]],[[[-71.066723,42.347732],[-71.066704,42.347698],[-71.066633,42.347687],[-71.06574,42.347994],[-71.065701,42.348037],[-71.065523,42.348098],[-71.065513,42.348115],[-71.065537,42.348122],[-71.065711,42.348063],[-71.06574,42.348082],[-71.06579,42.348082],[-71.066683,42.347776],[-71.066723,42.347732]]],[[[-71.066598,42.347903],[-71.066582,42.347874],[-71.066522,42.347865],[-71.065714,42.348142],[-71.065684,42.348164],[-71.065684,42.348196],[-71.065446,42.348284],[-71.065433,42.348333],[-71.065466,42.348358],[-71.065514,42.348358],[-71.065693,42.348297],[-71.065717,42.348305],[-71.066099,42.348175],[-71.066108,42.348157],[-71.066398,42.348052],[-71.066412,42.348002],[-71.066582,42.347932],[-71.066598,42.347903]]],[[[-71.066575,42.348159],[-71.066558,42.348129],[-71.066494,42.348119],[-71.065658,42.348406],[-71.065626,42.348429],[-71.065626,42.348463],[-71.065658,42.348486],[-71.065702,42.348486],[-71.066539,42.348199],[-71.066575,42.348159]]],[[[-71.066208,42.349013],[-71.066194,42.348988],[-71.066141,42.34898],[-71.065491,42.349203],[-71.065465,42.349222],[-71.065465,42.34925],[-71.065491,42.349269],[-71.065529,42.349269],[-71.066178,42.349046],[-71.066208,42.349013]]],[[[-71.06613,42.348812],[-71.066115,42.348787],[-71.066062,42.348779],[-71.065311,42.349037],[-71.065285,42.349056],[-71.065285,42.349084],[-71.065311,42.349103],[-71.065349,42.349103],[-71.0661,42.348846],[-71.06613,42.348812]]],[[[-71.066082,42.348567],[-71.066068,42.348542],[-71.066015,42.348534],[-71.065365,42.348757],[-71.065339,42.348776],[-71.065339,42.348804],[-71.065365,42.348823],[-71.065403,42.348823],[-71.066052,42.3486],[-71.066082,42.348567]]],[[[-71.066033,42.348721],[-71.066023,42.348703],[-71.065984,42.348697],[-71.065346,42.348916],[-71.065327,42.34895],[-71.065374,42.348964],[-71.066011,42.348746],[-71.066033,42.348721]]],[[[-71.066027,42.351073],[-71.066008,42.351059],[-71.065563,42.351211],[-71.065553,42.351228],[-71.065577,42.351235],[-71.066027,42.351073]]],[[[-71.066006,42.348266],[-71.065984,42.34825],[-71.065451,42.34843],[-71.065439,42.348452],[-71.065469,42.348462],[-71.066006,42.348266]]],[[[-71.065915,42.348973],[-71.065897,42.348959],[-71.065537,42.349082],[-71.065527,42.349099],[-71.065551,42.349106],[-71.065915,42.348973]]],[[[-71.065778,42.351069],[-71.06576,42.351056],[-71.065343,42.351198],[-71.065333,42.351215],[-71.065357,42.351222],[-71.065778,42.351069]]],[[[-71.065728,42.350531],[-71.065692,42.350513],[-71.06514,42.350702],[-71.065126,42.350727],[-71.06516,42.350738],[-71.065712,42.350548],[-71.065728,42.350531]]],[[[-71.065703,42.350595],[-71.065667,42.350577],[-71.065115,42.350766],[-71.065101,42.350791],[-71.065135,42.350802],[-71.065687,42.350612],[-71.065703,42.350595]]],[[[-71.06565,42.351079],[-71.065632,42.351066],[-71.065336,42.351156],[-71.064919,42.351298],[-71.064909,42.351315],[-71.064933,42.351322],[-71.06525,42.351223],[-71.06565,42.351079]]],[[[-71.065625,42.350683],[-71.065605,42.350669],[-71.065103,42.35084],[-71.065092,42.350859],[-71.065117,42.350866],[-71.065625,42.350683]]],[[[-71.065239,42.348325],[-71.065221,42.348312],[-71.064832,42.348444],[-71.064822,42.348461],[-71.064846,42.348468],[-71.065239,42.348325]]],[[[-71.06506,42.351934],[-71.06504,42.35192],[-71.064538,42.352091],[-71.064527,42.35211],[-71.064552,42.352117],[-71.06506,42.351934]]],[[[-71.065006,42.351695],[-71.064988,42.351682],[-71.064599,42.351814],[-71.064589,42.351831],[-71.064613,42.351838],[-71.065006,42.351695]]],[[[-71.065003,42.348294],[-71.064985,42.348281],[-71.064596,42.348413],[-71.064586,42.34843],[-71.06461,42.348437],[-71.065003,42.348294]]],[[[-71.064978,42.351914],[-71.06496,42.351901],[-71.064543,42.352043],[-71.064533,42.35206],[-71.064557,42.352067],[-71.064978,42.351914]]],[[[-71.06493,42.352029],[-71.064912,42.352016],[-71.064523,42.352148],[-71.064513,42.352165],[-71.064537,42.352172],[-71.06493,42.352029]]],[[[-71.064818,42.348268],[-71.0648,42.348255],[-71.064411,42.348387],[-71.064401,42.348404],[-71.064425,42.348411],[-71.064818,42.348268]]],[[[-71.064732,42.34854],[-71.06471,42.348524],[-71.064177,42.348704],[-71.064165,42.348726],[-71.064195,42.348736],[-71.064732,42.34854]]],[[[-71.064691,42.350705],[-71.064671,42.350683],[-71.064635,42.350687],[-71.064627,42.350654],[-71.064585,42.350648],[-71.063919,42.350876],[-71.063895,42.350903],[-71.063934,42.350932],[-71.06402,42.350905],[-71.064038,42.350936],[-71.064137,42.350926],[-71.064519,42.350796],[-71.064529,42.350778],[-71.064671,42.350727],[-71.064691,42.350705]]],[[[-71.064635,42.34868],[-71.064617,42.348666],[-71.064143,42.348828],[-71.064133,42.348845],[-71.064157,42.348852],[-71.064635,42.34868]]],[[[-71.06462,42.350794],[-71.064602,42.350781],[-71.064213,42.350913],[-71.064203,42.35093],[-71.064227,42.350937],[-71.06462,42.350794]]],[[[-71.064555,42.35314],[-71.064537,42.353126],[-71.064063,42.353288],[-71.064053,42.353305],[-71.063903,42.353362],[-71.063893,42.353379],[-71.063917,42.353386],[-71.064384,42.353226],[-71.064394,42.353209],[-71.064555,42.35314]]],[[[-71.064545,42.35322],[-71.064525,42.353206],[-71.064479,42.35322],[-71.06446,42.353202],[-71.063958,42.353373],[-71.063947,42.353392],[-71.064012,42.353386],[-71.06403,42.353404],[-71.064545,42.35322]]],[[[-71.06448,42.353123],[-71.064462,42.353109],[-71.063988,42.353271],[-71.063978,42.353288],[-71.064002,42.353295],[-71.06448,42.353123]]],[[[-71.064467,42.353088],[-71.064444,42.353072],[-71.063911,42.353252],[-71.063899,42.353274],[-71.063929,42.353284],[-71.064467,42.353088]]],[[[-71.064416,42.348563],[-71.064394,42.348547],[-71.063861,42.348727],[-71.063849,42.348749],[-71.063879,42.348759],[-71.064416,42.348563]]],[[[-71.064411,42.348505],[-71.064391,42.348491],[-71.063889,42.348662],[-71.063878,42.348681],[-71.063903,42.348688],[-71.064411,42.348505]]],[[[-71.064375,42.3487],[-71.064355,42.348686],[-71.063853,42.348857],[-71.063842,42.348876],[-71.063867,42.348883],[-71.064375,42.3487]]],[[[-71.064316,42.350674],[-71.064284,42.35065],[-71.064136,42.350698],[-71.06413,42.350684],[-71.064094,42.350685],[-71.06409,42.350661],[-71.064062,42.350657],[-71.06351,42.350846],[-71.063496,42.350871],[-71.06352,42.350883],[-71.063571,42.350868],[-71.063581,42.350892],[-71.063644,42.350876],[-71.063652,42.3509],[-71.063687,42.350905],[-71.064296,42.350696],[-71.064316,42.350674]]],[[[-71.064255,42.348662],[-71.064237,42.348649],[-71.063848,42.348781],[-71.063838,42.348798],[-71.063862,42.348805],[-71.064255,42.348662]]],[[[-71.064203,42.349017],[-71.064185,42.349004],[-71.063796,42.349136],[-71.063786,42.349153],[-71.06381,42.34916],[-71.064203,42.349017]]],[[[-71.06419,42.348296],[-71.064172,42.348283],[-71.063783,42.348415],[-71.063773,42.348432],[-71.063797,42.348439],[-71.06419,42.348296]]],[[[-71.064185,42.34959],[-71.064165,42.349576],[-71.063663,42.349747],[-71.063652,42.349766],[-71.063677,42.349773],[-71.064185,42.34959]]],[[[-71.06415,42.349162],[-71.064132,42.349149],[-71.063743,42.349281],[-71.063733,42.349298],[-71.063757,42.349305],[-71.06415,42.349162]]],[[[-71.064137,42.349204],[-71.064119,42.349191],[-71.06373,42.349323],[-71.06372,42.34934],[-71.063744,42.349347],[-71.064137,42.349204]]],[[[-71.0641,42.348279],[-71.064082,42.348266],[-71.063693,42.348398],[-71.063683,42.348415],[-71.063707,42.348422],[-71.0641,42.348279]]],[[[-71.064099,42.349694],[-71.064081,42.34968],[-71.063607,42.349842],[-71.063597,42.349859],[-71.063621,42.349866],[-71.064099,42.349694]]],[[[-71.064075,42.34978],[-71.064055,42.349766],[-71.063553,42.349937],[-71.063542,42.349956],[-71.063567,42.349963],[-71.064075,42.34978]]],[[[-71.064015,42.34984],[-71.063997,42.349826],[-71.063523,42.349988],[-71.063513,42.350005],[-71.063537,42.350012],[-71.064015,42.34984]]],[[[-71.063964,42.350566],[-71.063923,42.350546],[-71.063343,42.350745],[-71.063325,42.350765],[-71.063365,42.350785],[-71.063946,42.350586],[-71.063964,42.350566]]],[[[-71.063938,42.350637],[-71.063902,42.350619],[-71.06335,42.350808],[-71.063336,42.350833],[-71.06337,42.350844],[-71.063922,42.350654],[-71.063938,42.350637]]],[[[-71.063925,42.350258],[-71.063907,42.350244],[-71.063738,42.350301],[-71.06372,42.350286],[-71.063303,42.350428],[-71.063293,42.350445],[-71.063317,42.350452],[-71.063422,42.350416],[-71.063273,42.350471],[-71.063263,42.350488],[-71.063287,42.350495],[-71.063725,42.350345],[-71.063925,42.350258]]],[[[-71.063897,42.35003],[-71.063878,42.350016],[-71.063433,42.350168],[-71.063423,42.350185],[-71.063447,42.350192],[-71.063897,42.35003]]],[[[-71.063873,42.350337],[-71.063854,42.350323],[-71.063686,42.350373],[-71.063248,42.350524],[-71.063238,42.350541],[-71.063262,42.350548],[-71.063423,42.350499],[-71.063873,42.350337]]],[[[-71.063867,42.350096],[-71.063848,42.350082],[-71.063403,42.350234],[-71.063403,42.350258],[-71.063368,42.350285],[-71.063392,42.350292],[-71.06383,42.350142],[-71.06383,42.350117],[-71.063867,42.350096]]],[[[-71.063865,42.350534],[-71.063845,42.35052],[-71.063642,42.350588],[-71.063591,42.350564],[-71.063153,42.350715],[-71.063153,42.350739],[-71.063112,42.350771],[-71.063137,42.350778],[-71.063333,42.350711],[-71.063357,42.350717],[-71.063865,42.350534]]],[[[-71.063813,42.350409],[-71.063795,42.350396],[-71.063715,42.350422],[-71.063697,42.350408],[-71.063223,42.35057],[-71.063213,42.350587],[-71.063237,42.350594],[-71.063367,42.35055],[-71.063372,42.35056],[-71.063203,42.350618],[-71.063193,42.350635],[-71.063217,42.350642],[-71.063336,42.350602],[-71.063173,42.350665],[-71.063163,42.350682],[-71.063187,42.350689],[-71.063767,42.350482],[-71.063767,42.350457],[-71.063691,42.350478],[-71.063694,42.350465],[-71.063813,42.350409]]],[[[-71.063554,42.352097],[-71.063536,42.352084],[-71.063475,42.352096],[-71.063058,42.352238],[-71.063048,42.352255],[-71.063126,42.352251],[-71.063554,42.352097]]],[[[-71.063393,42.352112],[-71.063375,42.352099],[-71.062958,42.352241],[-71.062948,42.352258],[-71.062972,42.352265],[-71.063393,42.352112]]],[[[-71.063361,42.35207],[-71.063342,42.352056],[-71.062897,42.352208],[-71.062887,42.352225],[-71.062911,42.352232],[-71.063361,42.35207]]],[[[-71.063325,42.353132],[-71.063264,42.35311],[-71.062731,42.35329],[-71.062719,42.353312],[-71.062817,42.353315],[-71.063325,42.353132]]],[[[-71.063325,42.353044],[-71.063305,42.35303],[-71.063255,42.353046],[-71.063257,42.353032],[-71.063232,42.353024],[-71.062737,42.353194],[-71.062726,42.353213],[-71.062751,42.35322],[-71.062795,42.353205],[-71.062792,42.35322],[-71.062817,42.353227],[-71.063325,42.353044]]],[[[-71.063258,42.352074],[-71.06324,42.352061],[-71.062823,42.352203],[-71.062813,42.35222],[-71.062837,42.352227],[-71.063258,42.352074]]],[[[-71.06319,42.349135],[-71.063178,42.349113],[-71.063132,42.349106],[-71.062572,42.349298],[-71.062547,42.34929],[-71.063074,42.349107],[-71.063083,42.349073],[-71.063028,42.349056],[-71.062334,42.349294],[-71.062194,42.349334],[-71.062149,42.349309],[-71.062096,42.349324],[-71.062086,42.349287],[-71.062386,42.34918],[-71.062363,42.349163],[-71.061359,42.349517],[-71.061329,42.349489],[-71.06129,42.349489],[-71.06051,42.349757],[-71.060478,42.349792],[-71.060502,42.349824],[-71.060363,42.349872],[-71.060353,42.349889],[-71.060377,42.349896],[-71.060787,42.349756],[-71.061355,42.349543],[-71.061397,42.349569],[-71.061257,42.349618],[-71.061247,42.349635],[-71.061271,42.349642],[-71.061454,42.34958],[-71.06146,42.349589],[-71.061236,42.349666],[-71.061226,42.349683],[-71.06125,42.34969],[-71.062308,42.349324],[-71.062344,42.349353],[-71.061873,42.349515],[-71.061847,42.349534],[-71.061847,42.349562],[-71.06115,42.349808],[-71.061138,42.34983],[-71.06115,42.349852],[-71.061196,42.349859],[-71.061683,42.349692],[-71.061736,42.349699],[-71.062385,42.349476],[-71.062412,42.349457],[-71.062401,42.349418],[-71.062436,42.349401],[-71.06247,42.349402],[-71.063164,42.349164],[-71.06319,42.349135]]],[[[-71.06314,42.348155],[-71.063122,42.348135],[-71.063074,42.348143],[-71.063051,42.348118],[-71.063021,42.348118],[-71.062355,42.348346],[-71.062275,42.348399],[-71.062225,42.348391],[-71.061635,42.348594],[-71.061624,42.348567],[-71.061578,42.34856],[-71.060884,42.348798],[-71.060861,42.348815],[-71.060861,42.348839],[-71.060916,42.348856],[-71.061476,42.348664],[-71.061488,42.348694],[-71.06152,42.348704],[-71.061623,42.348672],[-71.061666,42.348677],[-71.06236,42.348439],[-71.062383,42.348422],[-71.062384,42.3484],[-71.062502,42.348359],[-71.062541,42.348374],[-71.063122,42.348175],[-71.06314,42.348155]]],[[[-71.062986,42.348377],[-71.062964,42.348361],[-71.062431,42.348541],[-71.062419,42.348563],[-71.062449,42.348573],[-71.062986,42.348377]]],[[[-71.062574,42.348064],[-71.062561,42.34804],[-71.062511,42.348033],[-71.06096,42.348567],[-71.060932,42.348587],[-71.060932,42.348617],[-71.06096,42.348637],[-71.061,42.348637],[-71.062546,42.348095],[-71.062574,42.348064]]],[[[-71.062535,42.353582],[-71.062515,42.353568],[-71.062013,42.353739],[-71.062002,42.353758],[-71.062013,42.353765],[-71.061883,42.353812],[-71.061872,42.353831],[-71.061897,42.353838],[-71.062393,42.353668],[-71.062403,42.353661],[-71.062393,42.353642],[-71.062535,42.353582]]],[[[-71.062488,42.350098],[-71.062443,42.350043],[-71.062401,42.350037],[-71.061735,42.350265],[-71.061678,42.350333],[-71.061678,42.350359],[-71.061703,42.350377],[-71.061737,42.350377],[-71.06246,42.350129],[-71.062488,42.350098]]],[[[-71.062453,42.34802],[-71.062437,42.347991],[-71.062377,42.347982],[-71.061569,42.348259],[-71.061539,42.348281],[-71.061539,42.348313],[-71.061569,42.348335],[-71.061611,42.348335],[-71.062419,42.348058],[-71.062453,42.34802]]],[[[-71.06242,42.35353],[-71.0624,42.353516],[-71.062129,42.353607],[-71.062111,42.353594],[-71.061722,42.353726],[-71.061712,42.353743],[-71.061736,42.35375],[-71.061886,42.353699],[-71.061905,42.353714],[-71.06242,42.35353]]],[[[-71.062408,42.353384],[-71.062394,42.353359],[-71.062341,42.353351],[-71.061691,42.353574],[-71.061665,42.353593],[-71.061665,42.353621],[-71.061691,42.35364],[-71.061729,42.35364],[-71.062378,42.353417],[-71.062408,42.353384]]],[[[-71.06237,42.353729],[-71.062352,42.353716],[-71.061963,42.353848],[-71.061953,42.353865],[-71.061977,42.353872],[-71.06237,42.353729]]],[[[-71.062336,42.347853],[-71.062318,42.347821],[-71.062251,42.347811],[-71.061386,42.348108],[-71.061353,42.348133],[-71.061353,42.348167],[-71.061386,42.348192],[-71.061434,42.348192],[-71.062298,42.347896],[-71.062336,42.347853]]],[[[-71.062321,42.353483],[-71.062301,42.353469],[-71.061799,42.35364],[-71.061788,42.353659],[-71.061813,42.353666],[-71.062321,42.353483]]],[[[-71.06231,42.349749],[-71.062292,42.349736],[-71.061903,42.349868],[-71.061893,42.349885],[-71.061917,42.349892],[-71.06231,42.349749]]],[[[-71.06228,42.349795],[-71.062262,42.349782],[-71.061873,42.349914],[-71.061863,42.349931],[-71.061887,42.349938],[-71.06228,42.349795]]],[[[-71.062274,42.349869],[-71.062256,42.349856],[-71.061867,42.349988],[-71.061857,42.350005],[-71.061881,42.350012],[-71.062274,42.349869]]],[[[-71.06225,42.349913],[-71.062232,42.3499],[-71.061843,42.350032],[-71.061843,42.350056],[-71.061803,42.350085],[-71.061827,42.350092],[-71.062209,42.349962],[-71.062209,42.349937],[-71.06225,42.349913]]],[[[-71.06221,42.353652],[-71.062192,42.353639],[-71.061803,42.353771],[-71.061793,42.353788],[-71.061817,42.353795],[-71.06221,42.353652]]],[[[-71.062196,42.348616],[-71.062184,42.348594],[-71.062138,42.348587],[-71.061444,42.348825],[-71.061418,42.348854],[-71.061444,42.348883],[-71.060725,42.349137],[-71.060705,42.349174],[-71.060721,42.349207],[-71.060603,42.349248],[-71.060593,42.349265],[-71.060617,42.349272],[-71.060758,42.349224],[-71.06012,42.349443],[-71.060099,42.349459],[-71.060099,42.349481],[-71.06015,42.349497],[-71.060959,42.349224],[-71.060968,42.349206],[-71.060945,42.349199],[-71.060838,42.349235],[-71.060979,42.349182],[-71.060988,42.349164],[-71.061753,42.348897],[-71.061797,42.348848],[-71.061753,42.348799],[-71.06217,42.348645],[-71.062196,42.348616]]],[[[-71.06218,42.350069],[-71.062162,42.350056],[-71.061773,42.350188],[-71.061763,42.350205],[-71.061787,42.350212],[-71.06218,42.350069]]],[[[-71.062177,42.350034],[-71.062159,42.35002],[-71.061799,42.350143],[-71.061789,42.35016],[-71.061813,42.350167],[-71.062177,42.350034]]],[[[-71.062152,42.34829],[-71.062134,42.348277],[-71.061737,42.348402],[-71.060929,42.348679],[-71.060899,42.348701],[-71.060899,42.348733],[-71.060929,42.348755],[-71.060971,42.348755],[-71.061779,42.348478],[-71.061813,42.34844],[-71.061979,42.348382],[-71.06198,42.348358],[-71.062152,42.34829]]],[[[-71.062067,42.3534],[-71.062049,42.353386],[-71.061603,42.353538],[-71.061593,42.353555],[-71.061617,42.353562],[-71.062067,42.3534]]],[[[-71.062061,42.348039],[-71.062052,42.348022],[-71.062017,42.348017],[-71.061408,42.348226],[-71.06139,42.348257],[-71.061432,42.34827],[-71.062041,42.348061],[-71.062061,42.348039]]],[[[-71.062016,42.35077],[-71.061994,42.350754],[-71.061461,42.350934],[-71.061449,42.350956],[-71.061479,42.350966],[-71.062016,42.35077]]],[[[-71.061935,42.349763],[-71.06192,42.349736],[-71.061864,42.349727],[-71.061084,42.349995],[-71.061056,42.350015],[-71.061056,42.350045],[-71.061084,42.350065],[-71.061124,42.350065],[-71.061903,42.349798],[-71.061935,42.349763]]],[[[-71.06193,42.349029],[-71.061889,42.349009],[-71.061374,42.349186],[-71.061382,42.349167],[-71.061368,42.349142],[-71.061315,42.349134],[-71.06069,42.349341],[-71.060659,42.349337],[-71.060079,42.349536],[-71.060061,42.349556],[-71.060069,42.349571],[-71.060101,42.349576],[-71.060636,42.349393],[-71.060036,42.34962],[-71.060017,42.349654],[-71.060064,42.349668],[-71.060604,42.349489],[-71.060469,42.349551],[-71.060493,42.349568],[-71.060609,42.349529],[-71.060624,42.349538],[-71.060469,42.349595],[-71.060493,42.349612],[-71.061865,42.349117],[-71.061875,42.349099],[-71.061851,42.349092],[-71.061441,42.349233],[-71.06142,42.349217],[-71.061912,42.349049],[-71.06193,42.349029]],[[-71.061299,42.349243],[-71.060948,42.349363],[-71.06093,42.349349],[-71.060721,42.349419],[-71.061293,42.349221],[-71.061299,42.349243]]],[[[-71.061895,42.348882],[-71.061875,42.348868],[-71.061373,42.349039],[-71.061362,42.349058],[-71.061387,42.349065],[-71.061895,42.348882]]],[[[-71.0618,42.350991],[-71.061782,42.350978],[-71.061393,42.35111],[-71.061383,42.351127],[-71.061407,42.351134],[-71.0618,42.350991]]],[[[-71.061779,42.351049],[-71.061761,42.351036],[-71.061372,42.351168],[-71.061362,42.351185],[-71.061386,42.351192],[-71.061779,42.351049]]],[[[-71.061753,42.351109],[-71.061735,42.351096],[-71.061346,42.351228],[-71.061336,42.351245],[-71.06136,42.351252],[-71.061753,42.351109]]],[[[-71.06175,42.349299],[-71.061732,42.349286],[-71.06136,42.349412],[-71.06133,42.349379],[-71.061292,42.349379],[-71.060541,42.349637],[-71.060515,42.349656],[-71.060515,42.349684],[-71.060541,42.349703],[-71.060579,42.349703],[-71.06175,42.349299]]],[[[-71.061734,42.351158],[-71.061716,42.351145],[-71.061327,42.351277],[-71.061317,42.351294],[-71.061341,42.351301],[-71.061734,42.351158]]],[[[-71.061626,42.353239],[-71.061608,42.353226],[-71.061219,42.353358],[-71.061209,42.353375],[-71.061233,42.353382],[-71.061626,42.353239]]],[[[-71.06162,42.354643],[-71.061602,42.35463],[-71.061213,42.354762],[-71.061203,42.354779],[-71.061227,42.354786],[-71.06162,42.354643]]],[[[-71.06157,42.354785],[-71.061552,42.354772],[-71.061163,42.354904],[-71.061153,42.354921],[-71.061177,42.354928],[-71.06157,42.354785]]],[[[-71.06157,42.353213],[-71.061552,42.3532],[-71.061163,42.353332],[-71.061153,42.353349],[-71.061177,42.353356],[-71.06157,42.353213]]],[[[-71.06152,42.353189],[-71.061502,42.353176],[-71.061352,42.353219],[-71.060963,42.353351],[-71.060953,42.353368],[-71.060977,42.353375],[-71.06112,42.353333],[-71.06152,42.353189]]],[[[-71.061487,42.353125],[-71.061468,42.353111],[-71.061023,42.353263],[-71.060898,42.353318],[-71.060888,42.353335],[-71.060912,42.353342],[-71.061322,42.353202],[-71.061487,42.353125]]],[[[-71.06142,42.348359],[-71.061402,42.348346],[-71.061013,42.348478],[-71.061003,42.348495],[-71.061027,42.348502],[-71.06142,42.348359]]],[[[-71.06132,42.353089],[-71.061302,42.353076],[-71.061069,42.353154],[-71.061031,42.35315],[-71.060393,42.353368],[-71.060344,42.353394],[-71.060352,42.353425],[-71.060323,42.353452],[-71.060347,42.353459],[-71.060729,42.353329],[-71.06132,42.353089]]],[[[-71.061244,42.353171],[-71.061226,42.353158],[-71.060837,42.35329],[-71.060827,42.353307],[-71.060851,42.353314],[-71.061244,42.353171]]],[[[-71.06098,42.352909],[-71.060962,42.352896],[-71.060403,42.353088],[-71.060393,42.353105],[-71.060417,42.353112],[-71.06098,42.352909]]],[[[-71.060963,42.349927],[-71.060949,42.349902],[-71.060915,42.349891],[-71.060678,42.349969],[-71.060655,42.349962],[-71.060273,42.350093],[-71.06022,42.350136],[-71.06022,42.350164],[-71.060246,42.350183],[-71.060284,42.350183],[-71.060933,42.34996],[-71.060963,42.349927]]],[[[-71.060918,42.353142],[-71.0609,42.353129],[-71.060826,42.353153],[-71.0608,42.353131],[-71.060765,42.353131],[-71.060043,42.353379],[-71.060018,42.353397],[-71.060018,42.353423],[-71.060043,42.353441],[-71.060077,42.353441],[-71.060918,42.353142]]],[[[-71.0609,42.352866],[-71.060882,42.352853],[-71.059764,42.353231],[-71.059741,42.353248],[-71.059741,42.353272],[-71.059796,42.353289],[-71.06049,42.353051],[-71.060745,42.352952],[-71.060746,42.352927],[-71.0609,42.352866]]],[[[-71.060886,42.353019],[-71.060868,42.353006],[-71.060479,42.353138],[-71.060469,42.353155],[-71.060493,42.353162],[-71.060886,42.353019]]],[[[-71.060878,42.352833],[-71.06086,42.35282],[-71.060443,42.352962],[-71.060433,42.352979],[-71.060457,42.352986],[-71.060878,42.352833]]],[[[-71.06087,42.349509],[-71.060852,42.349496],[-71.060463,42.349628],[-71.060453,42.349645],[-71.060477,42.349652],[-71.06087,42.349509]]],[[[-71.0607,42.349906],[-71.060682,42.349893],[-71.060293,42.350025],[-71.060283,42.350042],[-71.060307,42.350049],[-71.0607,42.349906]]],[[[-71.060666,42.350806],[-71.060654,42.350784],[-71.060608,42.350777],[-71.059948,42.351003],[-71.059902,42.350999],[-71.059597,42.351104],[-71.059896,42.350998],[-71.059906,42.350959],[-71.05988,42.350939],[-71.059842,42.350939],[-71.059091,42.351197],[-71.059061,42.35123],[-71.059076,42.351255],[-71.05911,42.351266],[-71.059162,42.351252],[-71.059125,42.351276],[-71.059136,42.351315],[-71.059095,42.351343],[-71.059095,42.351371],[-71.059121,42.35139],[-71.059159,42.35139],[-71.060437,42.350963],[-71.060451,42.350938],[-71.060417,42.350928],[-71.059938,42.351092],[-71.059926,42.351075],[-71.06064,42.350835],[-71.060666,42.350806]]],[[[-71.06054,42.352831],[-71.060522,42.352818],[-71.060133,42.35295],[-71.060123,42.352967],[-71.060147,42.352974],[-71.06054,42.352831]]],[[[-71.060298,42.351487],[-71.060284,42.351462],[-71.060231,42.351454],[-71.05939,42.351731],[-71.059909,42.351531],[-71.059909,42.351518],[-71.059879,42.351509],[-71.059365,42.351685],[-71.059299,42.351688],[-71.059292,42.35168],[-71.059409,42.351637],[-71.05943,42.351646],[-71.059542,42.351622],[-71.060169,42.3514],[-71.060162,42.351374],[-71.060127,42.351369],[-71.05942,42.351609],[-71.059412,42.351599],[-71.059463,42.35158],[-71.05952,42.351529],[-71.059529,42.351472],[-71.059487,42.351459],[-71.059386,42.351493],[-71.059633,42.351404],[-71.05964,42.351375],[-71.059594,42.351361],[-71.058945,42.351585],[-71.058934,42.351604],[-71.058945,42.351623],[-71.058867,42.351673],[-71.05886,42.351699],[-71.058767,42.35177],[-71.058767,42.35179],[-71.058688,42.351825],[-71.058677,42.351845],[-71.058688,42.351865],[-71.058637,42.351889],[-71.058628,42.351909],[-71.058491,42.351968],[-71.058448,42.35203],[-71.058393,42.352055],[-71.058353,42.352102],[-71.058457,42.352105],[-71.05918,42.351857],[-71.059223,42.351804],[-71.059279,42.351785],[-71.059309,42.351796],[-71.059553,42.351716],[-71.059581,42.351743],[-71.059619,42.351743],[-71.060268,42.35152],[-71.060298,42.351487]]],[[[-71.06025,42.354755],[-71.060209,42.354735],[-71.059629,42.354934],[-71.059611,42.354954],[-71.059651,42.354974],[-71.060232,42.354775],[-71.06025,42.354755]]],[[[-71.06024,42.353169],[-71.060222,42.353156],[-71.059833,42.353288],[-71.059823,42.353305],[-71.059847,42.353312],[-71.06024,42.353169]]],[[[-71.060238,42.35256],[-71.060224,42.352535],[-71.060171,42.352527],[-71.059521,42.35275],[-71.059495,42.352769],[-71.059495,42.352797],[-71.05954,42.352819],[-71.059724,42.352759],[-71.059747,42.352765],[-71.060157,42.352625],[-71.060224,42.352586],[-71.060238,42.35256]]],[[[-71.060232,42.354711],[-71.060182,42.354664],[-71.060147,42.354659],[-71.059538,42.354868],[-71.05952,42.354899],[-71.059567,42.354937],[-71.059602,42.354942],[-71.060211,42.354733],[-71.060232,42.354711]]],[[[-71.060092,42.354604],[-71.060082,42.354587],[-71.060047,42.354582],[-71.059438,42.354791],[-71.05942,42.354822],[-71.059462,42.354835],[-71.060071,42.354626],[-71.060092,42.354604]]],[[[-71.060042,42.354565],[-71.060009,42.354541],[-71.060034,42.354524],[-71.060034,42.354504],[-71.059988,42.35449],[-71.05935,42.354709],[-71.059328,42.354733],[-71.059339,42.354752],[-71.059377,42.354757],[-71.059377,42.354791],[-71.059412,42.354796],[-71.060021,42.354587],[-71.060042,42.354565]]],[[[-71.05981,42.352969],[-71.059792,42.352956],[-71.059403,42.353088],[-71.059393,42.353105],[-71.059417,42.353112],[-71.05981,42.352969]]],[[[-71.0598,42.352879],[-71.059782,42.352866],[-71.059393,42.352998],[-71.059383,42.353015],[-71.059407,42.353022],[-71.0598,42.352879]]],[[[-71.059702,42.354176],[-71.059692,42.354159],[-71.059657,42.354154],[-71.059048,42.354363],[-71.05903,42.354394],[-71.059072,42.354407],[-71.059681,42.354198],[-71.059702,42.354176]]],[[[-71.059618,42.351328],[-71.059582,42.35131],[-71.05903,42.351499],[-71.059016,42.351524],[-71.05905,42.351535],[-71.059602,42.351345],[-71.059618,42.351328]]],[[[-71.059566,42.353163],[-71.059548,42.35315],[-71.059159,42.353282],[-71.059149,42.353299],[-71.059173,42.353306],[-71.059566,42.353163]]],[[[-71.05948,42.351329],[-71.059462,42.351316],[-71.059073,42.351448],[-71.059063,42.351465],[-71.059087,42.351472],[-71.05948,42.351329]]],[[[-71.05947,42.353156],[-71.059452,42.353143],[-71.059063,42.353275],[-71.059053,42.353292],[-71.059077,42.353299],[-71.05947,42.353156]]],[[[-71.059455,42.35412],[-71.059435,42.354106],[-71.058933,42.354277],[-71.058922,42.354296],[-71.058947,42.354303],[-71.059455,42.35412]]],[[[-71.0594,42.354201],[-71.059382,42.354188],[-71.058993,42.35432],[-71.058983,42.354337],[-71.059007,42.354344],[-71.0594,42.354201]]],[[[-71.05938,42.353152],[-71.059362,42.353139],[-71.058973,42.353271],[-71.058963,42.353288],[-71.058987,42.353295],[-71.05938,42.353152]]],[[[-71.059246,42.353137],[-71.059228,42.353124],[-71.058839,42.353256],[-71.058829,42.353273],[-71.058853,42.35328],[-71.059246,42.353137]]],[[[-71.05914,42.353137],[-71.059122,42.353124],[-71.058733,42.353256],[-71.058723,42.353273],[-71.058747,42.35328],[-71.05914,42.353137]]],[[[-71.058995,42.35231],[-71.058975,42.352296],[-71.058323,42.352508],[-71.058313,42.352525],[-71.058337,42.352532],[-71.058465,42.352489],[-71.058013,42.352653],[-71.058003,42.35267],[-71.058027,42.352677],[-71.058472,42.352521],[-71.05849,42.352537],[-71.058534,42.352524],[-71.058557,42.352542],[-71.058939,42.352412],[-71.058939,42.352387],[-71.058888,42.352399],[-71.058879,42.352381],[-71.058838,42.35239],[-71.058833,42.352378],[-71.058995,42.35231]]],[[[-71.05877,42.352339],[-71.058752,42.352326],[-71.058243,42.3525],[-71.058233,42.352517],[-71.058257,42.352524],[-71.05877,42.352339]]],[[[-71.05867,42.350779],[-71.058652,42.350766],[-71.058263,42.350898],[-71.058253,42.350915],[-71.058277,42.350922],[-71.05867,42.350779]]],[[[-71.05866,42.352336],[-71.058642,42.352323],[-71.058253,42.352455],[-71.058243,42.352472],[-71.058267,42.352479],[-71.05866,42.352336]]],[[[-71.0586,42.350756],[-71.058582,42.350743],[-71.058193,42.350875],[-71.058183,42.350892],[-71.058207,42.350899],[-71.0586,42.350756]]],[[[-71.058414,42.352637],[-71.058396,42.352624],[-71.058007,42.352756],[-71.057997,42.352773],[-71.058021,42.35278],[-71.058414,42.352637]]],[[[-71.05839,42.352774],[-71.058372,42.352761],[-71.057983,42.352893],[-71.057973,42.35291],[-71.057997,42.352917],[-71.05839,42.352774]]],[[[-71.058302,42.352037],[-71.058266,42.352019],[-71.057714,42.352208],[-71.0577,42.352233],[-71.057734,42.352244],[-71.058286,42.352054],[-71.058302,42.352037]]],[[[-71.058204,42.351991],[-71.058163,42.351971],[-71.057583,42.35217],[-71.057565,42.35219],[-71.057605,42.35221],[-71.058186,42.352011],[-71.058204,42.351991]]],[[[-71.058185,42.350562],[-71.058167,42.350549],[-71.057778,42.350681],[-71.057768,42.350698],[-71.057792,42.350705],[-71.058185,42.350562]]],[[[-71.05814,42.350546],[-71.058122,42.350533],[-71.057733,42.350665],[-71.057723,42.350682],[-71.057747,42.350689],[-71.05814,42.350546]]],[[[-71.058088,42.351971],[-71.058052,42.351953],[-71.0575,42.352142],[-71.057486,42.352167],[-71.05752,42.352178],[-71.058072,42.351988],[-71.058088,42.351971]]],[[[-71.058008,42.351951],[-71.057972,42.351933],[-71.05742,42.352122],[-71.057406,42.352147],[-71.05744,42.352158],[-71.057992,42.351968],[-71.058008,42.351951]]],[[[-71.05795,42.351911],[-71.057909,42.351891],[-71.057329,42.35209],[-71.057311,42.35211],[-71.057351,42.35213],[-71.057932,42.351931],[-71.05795,42.351911]]],[[[-71.057796,42.350272],[-71.057778,42.350259],[-71.057389,42.350391],[-71.057379,42.350408],[-71.057075,42.350519],[-71.05705,42.350507],[-71.056583,42.350668],[-71.056573,42.350685],[-71.056597,42.350692],[-71.057058,42.350534],[-71.057083,42.350545],[-71.057465,42.350415],[-71.057475,42.350397],[-71.057796,42.350272]]],[[[-71.05778,42.350363],[-71.057762,42.35035],[-71.057562,42.350406],[-71.057173,42.350538],[-71.057163,42.350555],[-71.057187,42.350562],[-71.05738,42.350507],[-71.05778,42.350363]]],[[[-71.057758,42.351566],[-71.05774,42.351553],[-71.057323,42.351695],[-71.057313,42.351712],[-71.057337,42.351719],[-71.057758,42.351566]]],[[[-71.057737,42.350775],[-71.057718,42.350761],[-71.057273,42.350913],[-71.057263,42.35093],[-71.057287,42.350937],[-71.057737,42.350775]]],[[[-71.05772,42.351619],[-71.057702,42.351606],[-71.057313,42.351738],[-71.057303,42.351755],[-71.057327,42.351762],[-71.05772,42.351619]]],[[[-71.057707,42.350913],[-71.057688,42.350899],[-71.057243,42.351051],[-71.057233,42.351068],[-71.057257,42.351075],[-71.057707,42.350913]]],[[[-71.057691,42.351766],[-71.057673,42.351753],[-71.057335,42.351867],[-71.057317,42.351854],[-71.056843,42.352016],[-71.056833,42.352033],[-71.056857,42.35204],[-71.057273,42.351898],[-71.057291,42.35191],[-71.057691,42.351766]]],[[[-71.057651,42.351834],[-71.057633,42.35182],[-71.057273,42.351943],[-71.057263,42.35196],[-71.057287,42.351967],[-71.057651,42.351834]]],[[[-71.057631,42.349694],[-71.057622,42.349677],[-71.057587,42.349672],[-71.057353,42.349752],[-71.057333,42.349748],[-71.057409,42.349722],[-71.057423,42.349692],[-71.057409,42.349667],[-71.057375,42.349656],[-71.057399,42.34964],[-71.057399,42.349622],[-71.057357,42.349609],[-71.056737,42.349823],[-71.05673,42.349849],[-71.056759,42.349864],[-71.056691,42.34989],[-71.056676,42.349915],[-71.056691,42.34994],[-71.056725,42.349951],[-71.056646,42.349981],[-71.056635,42.35002],[-71.056661,42.350039],[-71.056699,42.350039],[-71.057348,42.349816],[-71.057611,42.349716],[-71.057631,42.349694]]],[[[-71.05759,42.351279],[-71.057572,42.351266],[-71.057183,42.351398],[-71.057173,42.351415],[-71.057197,42.351422],[-71.05759,42.351279]]],[[[-71.057529,42.350501],[-71.057511,42.350488],[-71.0572,42.350593],[-71.057141,42.350578],[-71.056491,42.350801],[-71.056462,42.350831],[-71.056201,42.350921],[-71.056191,42.350938],[-71.056215,42.350945],[-71.056473,42.350857],[-71.056529,42.350867],[-71.057178,42.350644],[-71.057529,42.350501]]],[[[-71.057495,42.349532],[-71.057483,42.349511],[-71.057441,42.349505],[-71.056775,42.349733],[-71.056754,42.349749],[-71.056754,42.349771],[-71.056805,42.349787],[-71.057471,42.349558],[-71.057495,42.349532]]],[[[-71.05724,42.349895],[-71.057199,42.349875],[-71.056619,42.350074],[-71.056601,42.350094],[-71.056641,42.350114],[-71.057222,42.349915],[-71.05724,42.349895]]],[[[-71.057231,42.349976],[-71.057222,42.349959],[-71.057187,42.349954],[-71.056578,42.350163],[-71.05656,42.350194],[-71.056602,42.350207],[-71.057211,42.349998],[-71.057231,42.349976]]],[[[-71.057216,42.350099],[-71.057198,42.350086],[-71.056809,42.350218],[-71.056799,42.350235],[-71.056823,42.350242],[-71.057216,42.350099]]],[[[-71.057187,42.351844],[-71.057168,42.35183],[-71.056723,42.351982],[-71.056713,42.351999],[-71.056737,42.352006],[-71.057187,42.351844]]],[[[-71.05718,42.350176],[-71.057162,42.350163],[-71.056773,42.350295],[-71.056763,42.350312],[-71.056787,42.350319],[-71.05718,42.350176]]],[[[-71.057178,42.353014],[-71.057142,42.352996],[-71.05659,42.353185],[-71.056576,42.35321],[-71.05661,42.353221],[-71.057162,42.353031],[-71.057178,42.353014]]],[[[-71.05711,42.350453],[-71.057092,42.350439],[-71.056618,42.350601],[-71.056608,42.350618],[-71.056632,42.350625],[-71.05711,42.350453]]],[[[-71.057055,42.352995],[-71.057035,42.352981],[-71.056533,42.353152],[-71.056522,42.353171],[-71.056547,42.353178],[-71.057055,42.352995]]],[[[-71.05698,42.352957],[-71.05696,42.352943],[-71.056458,42.353114],[-71.056447,42.353133],[-71.056472,42.35314],[-71.05698,42.352957]]],[[[-71.056935,42.35176],[-71.056917,42.351746],[-71.056443,42.351908],[-71.056433,42.351925],[-71.056457,42.351932],[-71.056935,42.35176]]],[[[-71.056917,42.35291],[-71.056894,42.352894],[-71.056361,42.353074],[-71.056349,42.353084],[-71.056358,42.353104],[-71.055744,42.353314],[-71.055726,42.353327],[-71.055733,42.353353],[-71.055674,42.353379],[-71.055608,42.353436],[-71.055633,42.353443],[-71.056287,42.353215],[-71.056305,42.353195],[-71.056296,42.35318],[-71.056395,42.353136],[-71.056379,42.353106],[-71.056917,42.35291]]],[[[-71.056865,42.350937],[-71.056847,42.350923],[-71.056373,42.351085],[-71.056363,42.351102],[-71.056387,42.351109],[-71.056865,42.350937]]],[[[-71.056858,42.354481],[-71.056822,42.354463],[-71.05627,42.354652],[-71.056256,42.354677],[-71.05629,42.354688],[-71.056842,42.354498],[-71.056858,42.354481]]],[[[-71.05681,42.350899],[-71.056792,42.350886],[-71.056403,42.351018],[-71.056393,42.351035],[-71.056123,42.351133],[-71.056113,42.35115],[-71.056137,42.351157],[-71.056604,42.350997],[-71.056614,42.35098],[-71.05681,42.350899]]],[[[-71.056805,42.35477],[-71.056787,42.354756],[-71.056313,42.354918],[-71.056303,42.354935],[-71.056327,42.354942],[-71.056805,42.35477]]],[[[-71.056805,42.35458],[-71.056785,42.354566],[-71.056283,42.354737],[-71.056272,42.354756],[-71.056297,42.354763],[-71.056805,42.35458]]],[[[-71.056795,42.354676],[-71.056777,42.354662],[-71.056303,42.354824],[-71.056293,42.354841],[-71.056317,42.354848],[-71.056795,42.354676]]],[[[-71.056746,42.351045],[-71.056728,42.351032],[-71.056339,42.351164],[-71.056329,42.351181],[-71.056353,42.351188],[-71.056746,42.351045]]],[[[-71.056741,42.351779],[-71.056723,42.351765],[-71.056363,42.351888],[-71.056353,42.351905],[-71.056377,42.351912],[-71.056741,42.351779]]],[[[-71.056723,42.350682],[-71.056705,42.350668],[-71.056231,42.35083],[-71.056221,42.350847],[-71.056245,42.350854],[-71.056723,42.350682]]],[[[-71.056668,42.351235],[-71.05665,42.351222],[-71.055895,42.35147],[-71.055885,42.351487],[-71.055909,42.351494],[-71.05624,42.351389],[-71.056204,42.351406],[-71.056214,42.351423],[-71.055863,42.351549],[-71.055853,42.351566],[-71.055877,42.351573],[-71.056607,42.351322],[-71.056607,42.351297],[-71.056648,42.351276],[-71.056638,42.351258],[-71.056668,42.351235]]],[[[-71.056653,42.350876],[-71.056635,42.350862],[-71.056161,42.351024],[-71.056151,42.351041],[-71.056175,42.351048],[-71.056653,42.350876]]],[[[-71.05663,42.352919],[-71.056612,42.352906],[-71.056223,42.353038],[-71.056213,42.353055],[-71.056237,42.353062],[-71.05663,42.352919]]],[[[-71.056518,42.352003],[-71.056504,42.351978],[-71.056451,42.35197],[-71.055801,42.352193],[-71.055775,42.352212],[-71.055775,42.35224],[-71.055741,42.352262],[-71.055741,42.35229],[-71.055767,42.352309],[-71.055805,42.352309],[-71.056454,42.352086],[-71.056518,42.352003]]],[[[-71.056488,42.351569],[-71.05647,42.351556],[-71.056053,42.351698],[-71.056043,42.351715],[-71.056067,42.351722],[-71.056488,42.351569]]],[[[-71.056444,42.351195],[-71.056426,42.351181],[-71.055952,42.351343],[-71.055942,42.35136],[-71.055966,42.351367],[-71.056444,42.351195]]],[[[-71.05642,42.351252],[-71.056402,42.351238],[-71.055928,42.3514],[-71.055918,42.351417],[-71.055942,42.351424],[-71.05642,42.351252]]],[[[-71.056326,42.351462],[-71.056308,42.351448],[-71.055834,42.35161],[-71.055824,42.351627],[-71.055848,42.351634],[-71.056326,42.351462]]],[[[-71.056275,42.351567],[-71.056257,42.351553],[-71.055783,42.351715],[-71.055773,42.351732],[-71.055797,42.351739],[-71.056275,42.351567]]],[[[-71.056255,42.351616],[-71.056237,42.351602],[-71.055763,42.351764],[-71.055753,42.351781],[-71.055777,42.351788],[-71.056255,42.351616]]],[[[-71.056025,42.353337],[-71.056007,42.353323],[-71.055533,42.353485],[-71.055463,42.353535],[-71.055487,42.353542],[-71.055897,42.353402],[-71.056025,42.353337]]],[[[-71.05582,42.353473],[-71.055779,42.353453],[-71.055199,42.353652],[-71.055149,42.353706],[-71.055179,42.353716],[-71.055702,42.353536],[-71.05582,42.353473]]]]},"properties":{"kind":"tree"}}]}