{"type":"FeatureCollection","features":[{"type":"Feature","geometry":{"type":"MultiPolygon","coordinates":[[[[-71.068043,42.35168],[-71.06802,42.351546],[-71.06776,42.35096],[-71.066919,42.351059],[-71.066933,42.351009],[-71.066769,42.350988],[-71.0668,42.350878],[-71.067608,42.350761],[-71.067576,42.350432],[-71.066827,42.350418],[-71.066628,42.350447],[-71.066613,42.350263],[-71.066254,42.350299],[-71.066289,42.350165],[-71.067236,42.350028],[-71.067201,42.3497],[-71.067253,42.349645],[-71.067194,42.349578],[-71.067107,42.349591],[-71.067096,42.349578],[-71.066241,42.349702],[-71.066251,42.349655],[-71.066432,42.349616],[-71.066443,42.349579],[-71.066402,42.349443],[-71.066422,42.349426],[-71.066431,42.349384],[-71.066326,42.349372],[-71.066304,42.349348],[-71.065545,42.349457],[-71.065147,42.349395],[-71.065018,42.349414],[-71.064858,42.349261],[-71.065397,42.349184],[-71.065518,42.349122],[-71.065664,42.349101],[-71.065926,42.348978],[-71.065698,42.348713],[-71.065554,42.348733],[-71.065539,42.348714],[-71.065486,42.348722],[-71.065462,42.348662],[-71.065175,42.348591],[-71.064972,42.348562],[-71.06501,42.348412],[-71.065036,42.348409],[-71.065094,42.348475],[-71.065256,42.348457],[-71.065529,42.348402],[-71.065554,42.348372],[-71.065525,42.348338],[-71.065782,42.348301],[-71.065752,42.348444],[-71.065819,42.348453],[-71.065804,42.348522],[-71.0659,42.348533],[-71.065917,42.348586],[-71.066455,42.348649],[-71.067227,42.348538],[-71.067252,42.348418],[-71.066945,42.348382],[-71.066959,42.34838],[-71.066969,42.348309],[-71.066903,42.348302],[-71.066925,42.348202],[-71.066984,42.348193],[-71.067002,42.348101],[-71.066948,42.348095],[-71.066985,42.347921],[-71.066827,42.347901],[-71.066038,42.348015],[-71.06592,42.347997],[-71.065547,42.348051],[-71.065518,42.348018],[-71.065668,42.34792],[-71.065677,42.347882],[-71.065639,42.347806],[-71.065589,42.347791],[-71.065707,42.347708],[-71.065708,42.347621],[-71.065646,42.347587],[-71.065283,42.347531],[-71.064894,42.347587],[-71.064503,42.347783],[-71.064476,42.347846],[-71.063968,42.347919],[-71.063893,42.34798],[-71.063856,42.347985],[-71.063836,42.348056],[-71.063808,42.348054],[-71.063872,42.347828],[-71.063726,42.347805],[-71.06346,42.347843],[-71.063434,42.34794],[-71.063345,42.347919],[-71.063329,42.347909],[-71.063344,42.347907],[-71.063379,42.347818],[-71.062926,42.347707],[-71.063021,42.347473],[-71.062867,42.347437],[-71.061712,42.347604],[-71.061566,42.347954],[-71.061558,42.348018],[-71.061011,42.348097],[-71.060549,42.348739],[-71.060786,42.348796],[-71.061398,42.348707],[-71.061435,42.348716],[-71.061155,42.348757],[-71.061102,42.34887],[-71.060878,42.348902],[-71.060845,42.348987],[-71.060321,42.349063],[-71.060266,42.349186],[-71.060067,42.349215],[-71.060063,42.349188],[-71.060021,42.349174],[-71.059403,42.349263],[-71.059083,42.349193],[-71.058438,42.349287],[-71.058179,42.34923],[-71.057926,42.349266],[-71.057859,42.349433],[-71.058004,42.349465],[-71.057976,42.349533],[-71.057872,42.349548],[-71.057867,42.349561],[-71.05716,42.349663],[-71.057195,42.349522],[-71.057232,42.349517],[-71.05742,42.349135],[-71.057282,42.349155],[-71.057289,42.349125],[-71.05711,42.349075],[-71.056596,42.349149],[-71.055969,42.349328],[-71.057173,42.347532],[-71.057163,42.347473],[-71.056398,42.347191],[-71.055908,42.347262],[-71.054533,42.349309],[-71.054523,42.349399],[-71.054447,42.34941],[-71.053477,42.350853],[-71.054337,42.351171],[-71.054558,42.351139],[-71.054665,42.35098],[-71.054889,42.350948],[-71.055214,42.350524],[-71.055367,42.350639],[-71.055519,42.350695],[-71.056154,42.350689],[-71.056752,42.350599],[-71.056797,42.350508],[-71.056888,42.350495],[-71.056948,42.350461],[-71.057271,42.350541],[-71.056815,42.350607],[-71.056678,42.350643],[-71.05656,42.350888],[-71.056707,42.350924],[-71.056543,42.350948],[-71.056401,42.351249],[-71.056522,42.351298],[-71.056294,42.351331],[-71.05624,42.351438],[-71.055498,42.351545],[-71.054479,42.351779],[-71.054307,42.351954],[-71.054833,42.352232],[-71.054993,42.352283],[-71.055161,42.352308],[-71.055905,42.352201],[-71.055846,42.352326],[-71.055909,42.352342],[-71.055876,42.352367],[-71.056034,42.352612],[-71.056146,42.352605],[-71.056276,42.352641],[-71.057716,42.352433],[-71.058299,42.352276],[-71.058355,42.352198],[-71.05898,42.352108],[-71.058906,42.352152],[-71.058834,42.352228],[-71.058775,42.35235],[-71.059103,42.352408],[-71.058142,42.35255],[-71.058071,42.352594],[-71.058045,42.352676],[-71.05756,42.352748],[-71.05731,42.352888],[-71.057131,42.352968],[-71.056237,42.353097],[-71.055998,42.353225],[-71.056012,42.353277],[-71.055897,42.353294],[-71.055573,42.353469],[-71.055599,42.353496],[-71.055421,42.353589],[-71.055342,42.353603],[-71.054915,42.353838],[-71.054955,42.353879],[-71.054776,42.353908],[-71.054378,42.354122],[-71.054355,42.354162],[-71.054364,42.354206],[-71.054632,42.354477],[-71.054686,42.354485],[-71.055056,42.354432],[-71.055,42.354475],[-71.054951,42.354482],[-71.054775,42.354643],[-71.05498,42.354839],[-71.055558,42.354756],[-71.055688,42.355479],[-71.055803,42.355484],[-71.056258,42.35544],[-71.058213,42.355157],[-71.058319,42.355129],[-71.058303,42.355038],[-71.058589,42.354996],[-71.058538,42.355044],[-71.058542,42.35507],[-71.059228,42.355368],[-71.059848,42.355278],[-71.059884,42.355245],[-71.060213,42.355198],[-71.060491,42.355389],[-71.060838,42.355339],[-71.061032,42.355164],[-71.061188,42.355141],[-71.061373,42.355233],[-71.062045,42.355136],[-71.062184,42.355207],[-71.062633,42.355142],[-71.062691,42.355175],[-71.062957,42.355137],[-71.063118,42.355222],[-71.063769,42.355128],[-71.063828,42.355051],[-71.063697,42.354983],[-71.064306,42.354892],[-71.064438,42.354649],[-71.065333,42.354519],[-71.065367,42.354428],[-71.065626,42.354391],[-71.065636,42.354372],[-71.065774,42.354351],[-71.065805,42.354331],[-71.06581,42.354296],[-71.065781,42.354269],[-71.06569,42.354272],[-71.065915,42.353855],[-71.065674,42.353783],[-71.065574,42.353797],[-71.065457,42.353767],[-71.065199,42.353805],[-71.065242,42.353697],[-71.065113,42.353657],[-71.065296,42.35363],[-71.065402,42.353431],[-71.065172,42.353361],[-71.064592,42.353445],[-71.0646,42.35343],[-71.066449,42.353163],[-71.066488,42.35291],[-71.066126,42.352899],[-71.065355,42.35301],[-71.065375,42.352985],[-71.065515,42.352966],[-71.065558,42.352851],[-71.06544,42.352824],[-71.065303,42.352844],[-71.065297,42.35286],[-71.065225,42.352846],[-71.065336,42.35283],[-71.065372,42.352707],[-71.066878,42.35249],[-71.066932,42.352393],[-71.066898,42.352236],[-71.066943,42.352229],[-71.06699,42.351941],[-71.066817,42.351929],[-71.06666,42.351952],[-71.066666,42.351853],[-71.066847,42.351871],[-71.06786,42.351725],[-71.068043,42.35168]],[[-71.065434,42.35062],[-71.065342,42.350633],[-71.065349,42.350607],[-71.065434,42.35062]],[[-71.065386,42.350041],[-71.065378,42.350066],[-71.065253,42.350084],[-71.065203,42.350067],[-71.065386,42.350041]],[[-71.065203,42.35095],[-71.064318,42.351078],[-71.064329,42.351017],[-71.063942,42.350976],[-71.063494,42.351041],[-71.063444,42.351031],[-71.063465,42.350951],[-71.062904,42.350854],[-71.062613,42.350896],[-71.062581,42.350888],[-71.062665,42.350876],[-71.062693,42.350808],[-71.062524,42.350767],[-71.062623,42.350752],[-71.062951,42.350799],[-71.063421,42.350731],[-71.063427,42.350808],[-71.063649,42.350841],[-71.063819,42.350816],[-71.063937,42.350869],[-71.064822,42.350958],[-71.065144,42.350911],[-71.065158,42.350936],[-71.065203,42.35095]],[[-71.0647,42.348179],[-71.064467,42.348291],[-71.064012,42.348357],[-71.064026,42.348301],[-71.063491,42.348221],[-71.06402,42.348291],[-71.064353,42.348243],[-71.064359,42.348223],[-71.0647,42.348179]],[[-71.064177,42.352253],[-71.064174,42.352265],[-71.064062,42.352281],[-71.063268,42.352375],[-71.063247,42.352362],[-71.062638,42.352414],[-71.062629,42.352335],[-71.063084,42.352263],[-71.063102,42.352254],[-71.063117,42.352208],[-71.063461,42.352245],[-71.063544,42.352233],[-71.063567,42.352256],[-71.063953,42.352267],[-71.064177,42.352253]],[[-71.063765,42.353795],[-71.063609,42.353818],[-71.063552,42.353909],[-71.063517,42.353902],[-71.063222,42.353944],[-71.063559,42.353895],[-71.063588,42.35377],[-71.063648,42.353761],[-71.063765,42.353795]],[[-71.063524,42.34876],[-71.063511,42.348808],[-71.063402,42.348778],[-71.063524,42.34876]],[[-71.063401,42.348058],[-71.063391,42.348097],[-71.063205,42.348079],[-71.063401,42.348058]],[[-71.062881,42.34821],[-71.062716,42.348234],[-71.062735,42.348188],[-71.062863,42.348177],[-71.062855,42.348206],[-71.062881,42.34821]],[[-71.062823,42.348084],[-71.062775,42.348091],[-71.062782,42.348076],[-71.062823,42.348084]],[[-71.062714,42.348685],[-71.062425,42.348727],[-71.062332,42.34895],[-71.062295,42.348906],[-71.062412,42.348655],[-71.06217,42.34861],[-71.062176,42.348595],[-71.062485,42.348551],[-71.062448,42.348644],[-71.062714,42.348685]],[[-71.062313,42.35067],[-71.062285,42.350706],[-71.062203,42.350686],[-71.062313,42.35067]],[[-71.062214,42.351414],[-71.06202,42.351437],[-71.062014,42.351404],[-71.061946,42.351388],[-71.062201,42.35137],[-71.062214,42.351414]],[[-71.062162,42.350683],[-71.061706,42.350749],[-71.061717,42.35068],[-71.061656,42.350636],[-71.061343,42.350556],[-71.061388,42.35055],[-71.061418,42.350485],[-71.061484,42.350494],[-71.061711,42.350461],[-71.061673,42.350559],[-71.062162,42.350683]],[[-71.06169,42.350872],[-71.06154,42.350894],[-71.061532,42.350914],[-71.061393,42.350889],[-71.061016,42.350943],[-71.061024,42.350922],[-71.060987,42.350914],[-71.061008,42.350862],[-71.060936,42.350845],[-71.060954,42.3508],[-71.061055,42.350822],[-71.061198,42.350806],[-71.061192,42.350822],[-71.061312,42.35085],[-71.061577,42.350815],[-71.061565,42.350845],[-71.06169,42.350872]],[[-71.061559,42.3514],[-71.06146,42.351415],[-71.061421,42.351405],[-71.061559,42.3514]],[[-71.061364,42.35139],[-71.06131,42.351377],[-71.061355,42.35137],[-71.061364,42.35139]],[[-71.061031,42.350304],[-71.061002,42.350376],[-71.060526,42.350445],[-71.060582,42.3503],[-71.060333,42.350229],[-71.060023,42.350274],[-71.060078,42.350135],[-71.060045,42.350097],[-71.059624,42.350004],[-71.059648,42.349908],[-71.059399,42.349853],[-71.059463,42.349706],[-71.059324,42.349672],[-71.059179,42.349693],[-71.059117,42.349837],[-71.058574,42.349916],[-71.058629,42.349771],[-71.058528,42.349747],[-71.058546,42.34966],[-71.058996,42.349595],[-71.059012,42.349554],[-71.059342,42.349506],[-71.059394,42.349375],[-71.060236,42.349254],[-71.059925,42.350048],[-71.060226,42.350142],[-71.060418,42.350114],[-71.06038,42.350207],[-71.060828,42.350333],[-71.061031,42.350304]],[[-71.060914,42.351378],[-71.060744,42.351351],[-71.060688,42.351359],[-71.060694,42.351327],[-71.060914,42.351378]],[[-71.060189,42.350659],[-71.059972,42.351168],[-71.060145,42.351206],[-71.059758,42.351262],[-71.059709,42.351391],[-71.059727,42.351549],[-71.059052,42.351647],[-71.059221,42.351485],[-71.059335,42.351348],[-71.059465,42.351144],[-71.059513,42.351032],[-71.059255,42.350975],[-71.059772,42.350892],[-71.05987,42.350652],[-71.060019,42.350684],[-71.060189,42.350659]],[[-71.058454,42.353267],[-71.058032,42.353328],[-71.058017,42.353263],[-71.058454,42.353267]],[[-71.057925,42.350704],[-71.0579,42.350708],[-71.057902,42.350698],[-71.057925,42.350704]],[[-71.057715,42.354322],[-71.057679,42.354376],[-71.056306,42.354574],[-71.056279,42.354543],[-71.057715,42.354322]],[[-71.057566,42.350514],[-71.057566,42.350516],[-71.05756,42.350515],[-71.057566,42.350514]],[[-71.056781,42.351947],[-71.056285,42.352019],[-71.056338,42.351955],[-71.056393,42.351847],[-71.056781,42.351947]]],[[[-71.059373,42.348518],[-71.058915,42.348417],[-71.057613,42.348605],[-71.057529,42.348814],[-71.057988,42.348915],[-71.05929,42.348727],[-71.059373,42.348518]]]]},"properties":{"kind":"building"}},{"type":"Feature","geometry":{"type":"MultiPolygon","coordinates":[[[[-71.066554,42.353379],[-71.066543,42.353338],[-71.066511,42.353303],[-71.066408,42.353271],[-71.065978,42.353334],[-71.065747,42.353357],[-71.065735,42.353343],[-71.065817,42.353331],[-71.06589,42.353279],[-71.06628,42.353212],[-71.066301,42.353189],[-71.066301,42.353136],[-71.06628,42.353114],[-71.066225,42.353095],[-71.066243,42.353078],[-71.066409,42.353054],[-71.066474,42.353006],[-71.066483,42.352972],[-71.066458,42.35292],[-71.066517,42.352843],[-71.066528,42.352801],[-71.066517,42.35276],[-71.066438,42.352702],[-71.066382,42.352693],[-71.066125,42.352731],[-71.066102,42.352691],[-71.066044,42.352673],[-71.065693,42.352724],[-71.065493,42.352798],[-71.065467,42.352842],[-71.065429,42.35283],[-71.065419,42.35279],[-71.065471,42.352775],[-71.065488,42.352744],[-71.065471,42.352713],[-71.06543,42.352701],[-71.065105,42.352754],[-71.065088,42.352785],[-71.065105,42.352816],[-71.065081,42.352852],[-71.065094,42.352876],[-71.064699,42.352933],[-71.06466,42.352952],[-71.064625,42.353015],[-71.064656,42.353073],[-71.064658,42.353148],[-71.064753,42.353228],[-71.064581,42.353265],[-71.064549,42.353323],[-71.064581,42.353381],[-71.064659,42.353405],[-71.065128,42.353337],[-71.065162,42.353379],[-71.065089,42.353405],[-71.064592,42.353467],[-71.064538,42.353508],[-71.06453,42.353536],[-71.064546,42.353574],[-71.064372,42.353606],[-71.064358,42.353658],[-71.064324,42.353692],[-71.064332,42.353737],[-71.064296,42.353748],[-71.06428,42.353777],[-71.064314,42.353815],[-71.064364,42.353814],[-71.064304,42.353823],[-71.064258,42.353857],[-71.064244,42.353968],[-71.064319,42.354005],[-71.064529,42.353975],[-71.064532,42.353989],[-71.064264,42.354028],[-71.06422,42.35406],[-71.06422,42.354106],[-71.064125,42.354133],[-71.064103,42.354172],[-71.064145,42.354221],[-71.064088,42.354236],[-71.064069,42.35427],[-71.064088,42.354304],[-71.064127,42.354317],[-71.063979,42.354357],[-71.063955,42.354399],[-71.063968,42.35443],[-71.063903,42.354482],[-71.063892,42.354523],[-71.063903,42.354564],[-71.063935,42.354599],[-71.064006,42.354626],[-71.063818,42.354663],[-71.0638,42.354683],[-71.063799,42.354727],[-71.063755,42.354758],[-71.063755,42.354802],[-71.063827,42.354838],[-71.064198,42.354784],[-71.06424,42.354753],[-71.064237,42.354801],[-71.064303,42.354834],[-71.064653,42.354783],[-71.064691,42.354755],[-71.064697,42.354734],[-71.064676,42.354697],[-71.064725,42.354671],[-71.064714,42.354628],[-71.064778,42.354618],[-71.064806,42.354597],[-71.064795,42.354556],[-71.065281,42.354479],[-71.065355,42.354433],[-71.065342,42.354383],[-71.065229,42.354366],[-71.065168,42.354314],[-71.064913,42.354339],[-71.065187,42.354291],[-71.065215,42.35427],[-71.065204,42.354229],[-71.065057,42.354222],[-71.065347,42.354178],[-71.065379,42.354155],[-71.065379,42.354121],[-71.065325,42.354095],[-71.065164,42.354118],[-71.065121,42.354097],[-71.065033,42.35411],[-71.065061,42.354057],[-71.065053,42.354027],[-71.065096,42.354039],[-71.065155,42.35403],[-71.065136,42.354047],[-71.065136,42.354081],[-71.06519,42.354107],[-71.065496,42.354063],[-71.065528,42.35404],[-71.065515,42.353992],[-71.065618,42.353974],[-71.065619,42.354004],[-71.065664,42.354026],[-71.065937,42.353986],[-71.065964,42.353967],[-71.065964,42.353939],[-71.066004,42.353928],[-71.066018,42.353902],[-71.066004,42.353877],[-71.06597,42.353866],[-71.065681,42.353914],[-71.065664,42.353892],[-71.065832,42.353863],[-71.06586,42.353842],[-71.06586,42.353813],[-71.065832,42.353792],[-71.065687,42.35379],[-71.065892,42.353746],[-71.065905,42.353698],[-71.065851,42.353672],[-71.065322,42.353742],[-71.06528,42.353789],[-71.065317,42.353833],[-71.065124,42.353861],[-71.065104,42.35381],[-71.065049,42.353793],[-71.064989,42.353802],[-71.064966,42.353762],[-71.064939,42.353749],[-71.064844,42.353754],[-71.064779,42.353725],[-71.064663,42.353742],[-71.06466,42.353722],[-71.064712,42.353711],[-71.064747,42.353685],[-71.064747,42.353648],[-71.064786,42.353596],[-71.065088,42.353541],[-71.065168,42.353564],[-71.065311,42.353543],[-71.065345,42.353584],[-71.065448,42.353616],[-71.066464,42.353479],[-71.066511,42.353456],[-71.066543,42.353421],[-71.066554,42.353379]],[[-71.06567,42.353953],[-71.06567,42.353953],[-71.06567,42.353953],[-71.06567,42.353953]],[[-71.065524,42.352915],[-71.065496,42.352923],[-71.065479,42.35291],[-71.065524,42.352915]],[[-71.065459,42.352964],[-71.065458,42.352969],[-71.065404,42.352972],[-71.065459,42.352964]],[[-71.064999,42.354209],[-71.064903,42.354223],[-71.064903,42.354201],[-71.064985,42.354189],[-71.064999,42.354209]],[[-71.064668,42.354349],[-71.064566,42.354348],[-71.064646,42.354337],[-71.064668,42.354349]],[[-71.064361,42.35459],[-71.064286,42.354605],[-71.064271,42.354597],[-71.064361,42.35459]]],[[[-71.066361,42.354396],[-71.066323,42.354329],[-71.066231,42.3543],[-71.065685,42.354379],[-71.065615,42.354431],[-71.065605,42.354468],[-71.065643,42.354536],[-71.065735,42.354564],[-71.06628,42.354485],[-71.066323,42.354464],[-71.066361,42.354396]]],[[[-71.066359,42.354927],[-71.066339,42.354891],[-71.066291,42.354876],[-71.065952,42.354925],[-71.06591,42.354972],[-71.06593,42.355008],[-71.065978,42.355022],[-71.066317,42.354973],[-71.066359,42.354927]]],[[[-71.066353,42.352549],[-71.066332,42.35251],[-71.066279,42.352494],[-71.0662,42.352505],[-71.066144,42.352486],[-71.066081,42.352495],[-71.06602,42.35247],[-71.06587,42.352492],[-71.065819,42.352456],[-71.06578,42.35245],[-71.065497,42.352491],[-71.065449,42.352457],[-71.065411,42.352451],[-71.064975,42.352515],[-71.064922,42.352553],[-71.064915,42.352581],[-71.064943,42.352632],[-71.065012,42.352653],[-71.065265,42.352616],[-71.065321,42.352658],[-71.065361,42.352664],[-71.065487,42.352646],[-71.06549,42.352686],[-71.06551,42.352708],[-71.065574,42.352727],[-71.065989,42.352667],[-71.06603,42.35264],[-71.066307,42.3526],[-71.066353,42.352549]]],[[[-71.066246,42.354028],[-71.066207,42.354],[-71.06587,42.354048],[-71.06584,42.354081],[-71.065855,42.354106],[-71.065889,42.354117],[-71.066162,42.354077],[-71.066234,42.354049],[-71.066246,42.354028]]],[[[-71.06616,42.354774],[-71.06615,42.354739],[-71.066084,42.35469],[-71.066036,42.354683],[-71.065797,42.354718],[-71.065779,42.354677],[-71.065697,42.354667],[-71.065696,42.354623],[-71.065679,42.354604],[-71.065573,42.354565],[-71.065371,42.354586],[-71.065396,42.35455],[-71.065358,42.354507],[-71.065041,42.354546],[-71.064984,42.354575],[-71.06487,42.354599],[-71.064821,42.354635],[-71.064821,42.354687],[-71.06487,42.354723],[-71.065088,42.354702],[-71.065054,42.354729],[-71.064889,42.354766],[-71.064877,42.354811],[-71.064928,42.354836],[-71.065118,42.354808],[-71.065159,42.354843],[-71.065237,42.354839],[-71.06524,42.354851],[-71.064767,42.354915],[-71.064711,42.354957],[-71.064703,42.354986],[-71.064734,42.35504],[-71.064807,42.355063],[-71.065226,42.355002],[-71.065265,42.354996],[-71.065322,42.354955],[-71.065329,42.354926],[-71.065312,42.354886],[-71.065443,42.354867],[-71.065473,42.354907],[-71.06556,42.354934],[-71.066084,42.354858],[-71.066124,42.354839],[-71.06616,42.354774]]],[[[-71.066147,42.35412],[-71.066125,42.354104],[-71.065947,42.354129],[-71.065924,42.354146],[-71.065947,42.354163],[-71.066125,42.354137],[-71.066147,42.35412]]],[[[-71.066133,42.347994],[-71.066114,42.34796],[-71.066068,42.347946],[-71.06574,42.347994],[-71.0657,42.348038],[-71.065719,42.348072],[-71.065765,42.348086],[-71.066093,42.348039],[-71.066133,42.347994]]],[[[-71.066064,42.34814],[-71.066048,42.348112],[-71.066009,42.3481],[-71.065714,42.348142],[-71.06568,42.34818],[-71.065696,42.348209],[-71.065735,42.348221],[-71.06603,42.348178],[-71.066064,42.34814]]],[[[-71.066022,42.348405],[-71.066005,42.348374],[-71.065964,42.348362],[-71.06546,42.348429],[-71.065437,42.348446],[-71.06546,42.348463],[-71.065623,42.348439],[-71.065639,42.348477],[-71.06568,42.348489],[-71.065986,42.348445],[-71.066022,42.348405]]],[[[-71.065858,42.348274],[-71.065827,42.348241],[-71.065783,42.348228],[-71.065466,42.348274],[-71.065428,42.348316],[-71.065446,42.348348],[-71.06549,42.348362],[-71.065807,42.348316],[-71.065858,42.348274]]],[[[-71.065843,42.353623],[-71.065825,42.35359],[-71.065781,42.353577],[-71.065464,42.353623],[-71.065426,42.353665],[-71.065444,42.353697],[-71.065488,42.353711],[-71.065805,42.353665],[-71.065843,42.353623]]],[[[-71.065779,42.349204],[-71.065765,42.349179],[-71.06573,42.349168],[-71.065491,42.349203],[-71.065461,42.349236],[-71.065476,42.349261],[-71.06551,42.349272],[-71.065749,42.349237],[-71.065779,42.349204]]],[[[-71.065737,42.351202],[-71.065719,42.351188],[-71.065552,42.351223],[-71.06557,42.351236],[-71.065737,42.351202]]],[[[-71.065718,42.34894],[-71.0657,42.348926],[-71.065562,42.348957],[-71.06558,42.34897],[-71.065718,42.34894]]],[[[-71.065682,42.349077],[-71.065664,42.349063],[-71.065526,42.349094],[-71.065544,42.349107],[-71.065682,42.349077]]],[[[-71.065678,42.348091],[-71.065659,42.348078],[-71.065512,42.34811],[-71.06553,42.348123],[-71.065678,42.348091]]],[[[-71.065653,42.348758],[-71.065639,42.348733],[-71.065604,42.348722],[-71.065365,42.348757],[-71.065335,42.34879],[-71.06535,42.348815],[-71.065384,42.348826],[-71.065623,42.348791],[-71.065653,42.348758]]],[[[-71.065633,42.349033],[-71.065619,42.349008],[-71.065585,42.348997],[-71.065311,42.349037],[-71.065281,42.34907],[-71.065296,42.349095],[-71.06533,42.349106],[-71.065603,42.349066],[-71.065633,42.349033]]],[[[-71.065612,42.348909],[-71.065576,42.348882],[-71.065346,42.348916],[-71.065324,42.34894],[-71.06536,42.348966],[-71.06559,42.348933],[-71.065612,42.348909]]],[[[-71.065507,42.35119],[-71.065489,42.351176],[-71.065397,42.35119],[-71.065386,42.351179],[-71.065232,42.35121],[-71.06525,42.351223],[-71.065332,42.351212],[-71.065343,42.351222],[-71.065507,42.35119]]],[[[-71.065363,42.350693],[-71.065337,42.350674],[-71.06515,42.350701],[-71.065126,42.350727],[-71.06515,42.350739],[-71.065337,42.350712],[-71.065363,42.350693]]],[[[-71.065338,42.350757],[-71.065312,42.350738],[-71.065125,42.350765],[-71.065101,42.350791],[-71.065125,42.350803],[-71.065312,42.350776],[-71.065338,42.350757]]],[[[-71.065297,42.350829],[-71.065278,42.350814],[-71.06511,42.350839],[-71.065091,42.350853],[-71.06511,42.350867],[-71.065278,42.350843],[-71.065297,42.350829]]],[[[-71.065083,42.35129],[-71.065065,42.351276],[-71.064908,42.35131],[-71.064926,42.351323],[-71.065083,42.35129]]],[[[-71.064987,42.348437],[-71.064968,42.348424],[-71.064821,42.348456],[-71.064839,42.348469],[-71.064987,42.348437]]],[[[-71.064869,42.354778],[-71.06485,42.354765],[-71.064703,42.354797],[-71.064721,42.35481],[-71.064869,42.354778]]],[[[-71.064754,42.351807],[-71.064735,42.351794],[-71.064588,42.351826],[-71.064606,42.351839],[-71.064754,42.351807]]],[[[-71.064751,42.348406],[-71.064732,42.348393],[-71.064585,42.348425],[-71.064603,42.348438],[-71.064751,42.348406]]],[[[-71.064732,42.35208],[-71.064713,42.352065],[-71.064545,42.35209],[-71.064526,42.352104],[-71.064545,42.352118],[-71.064713,42.352094],[-71.064732,42.35208]]],[[[-71.064707,42.352035],[-71.064689,42.352021],[-71.064532,42.352055],[-71.06455,42.352068],[-71.064707,42.352035]]],[[[-71.064678,42.352141],[-71.064659,42.352128],[-71.064512,42.35216],[-71.06453,42.352173],[-71.064678,42.352141]]],[[[-71.064566,42.34838],[-71.064547,42.348367],[-71.0644,42.348399],[-71.064418,42.348412],[-71.064566,42.34838]]],[[[-71.064386,42.348694],[-71.064364,42.348678],[-71.064186,42.348703],[-71.064163,42.34872],[-71.064186,42.348737],[-71.064364,42.348711],[-71.064386,42.348694]]],[[[-71.064368,42.350906],[-71.064349,42.350893],[-71.064274,42.350904],[-71.064287,42.350893],[-71.06428,42.350867],[-71.064198,42.350869],[-71.06416,42.350842],[-71.063919,42.350876],[-71.063895,42.350903],[-71.063919,42.35093],[-71.064019,42.350919],[-71.06405,42.350938],[-71.064206,42.350916],[-71.064213,42.350937],[-71.064368,42.350906]]],[[[-71.064327,42.348817],[-71.064308,42.348804],[-71.064132,42.34884],[-71.06415,42.348853],[-71.064327,42.348817]]],[[[-71.064247,42.353277],[-71.064228,42.353264],[-71.064052,42.3533],[-71.06407,42.353313],[-71.064247,42.353277]]],[[[-71.064217,42.353366],[-71.064198,42.353351],[-71.064086,42.353354],[-71.064068,42.353338],[-71.063892,42.353374],[-71.064023,42.353403],[-71.064198,42.35338],[-71.064217,42.353366]]],[[[-71.064172,42.35326],[-71.064153,42.353247],[-71.064116,42.353252],[-71.064114,42.35323],[-71.064098,42.353226],[-71.06392,42.353251],[-71.063897,42.353268],[-71.06392,42.353285],[-71.06398,42.353276],[-71.063988,42.353295],[-71.064172,42.35326]]],[[[-71.064157,42.353737],[-71.064138,42.353724],[-71.063962,42.35376],[-71.06398,42.353773],[-71.064157,42.353737]]],[[[-71.064129,42.353937],[-71.064097,42.353913],[-71.06389,42.353943],[-71.06386,42.353958],[-71.06386,42.353976],[-71.06389,42.353991],[-71.064097,42.353961],[-71.064129,42.353937]]],[[[-71.064083,42.348651],[-71.064064,42.348636],[-71.063896,42.348661],[-71.063877,42.348675],[-71.063896,42.348689],[-71.064064,42.348665],[-71.064083,42.348651]]],[[[-71.06407,42.348717],[-71.064048,42.348701],[-71.06387,42.348726],[-71.063847,42.348743],[-71.06387,42.34876],[-71.064048,42.348734],[-71.06407,42.348717]]],[[[-71.064047,42.348846],[-71.064028,42.348831],[-71.06386,42.348856],[-71.063841,42.34887],[-71.06386,42.348884],[-71.064028,42.34886],[-71.064047,42.348846]]],[[[-71.064003,42.354093],[-71.063977,42.354074],[-71.06379,42.354101],[-71.063766,42.354127],[-71.06379,42.354139],[-71.063977,42.354112],[-71.064003,42.354093]]],[[[-71.064003,42.348774],[-71.063984,42.348761],[-71.063837,42.348793],[-71.063855,42.348806],[-71.064003,42.348774]]],[[[-71.063951,42.349129],[-71.063932,42.349116],[-71.063785,42.349148],[-71.063803,42.349161],[-71.063951,42.349129]]],[[[-71.063938,42.348408],[-71.063919,42.348395],[-71.063772,42.348427],[-71.06379,42.34844],[-71.063938,42.348408]]],[[[-71.063914,42.350853],[-71.063894,42.350831],[-71.063788,42.350843],[-71.063733,42.350839],[-71.063707,42.350818],[-71.06351,42.350846],[-71.063496,42.350871],[-71.06352,42.350883],[-71.063567,42.350876],[-71.06359,42.350893],[-71.063643,42.350885],[-71.063675,42.350907],[-71.063894,42.350875],[-71.063914,42.350853]]],[[[-71.063898,42.349274],[-71.063879,42.349261],[-71.063732,42.349293],[-71.06375,42.349306],[-71.063898,42.349274]]],[[[-71.063885,42.349316],[-71.063866,42.349303],[-71.063719,42.349335],[-71.063737,42.349348],[-71.063885,42.349316]]],[[[-71.063857,42.349736],[-71.063838,42.349721],[-71.06367,42.349746],[-71.063651,42.34976],[-71.06367,42.349774],[-71.063838,42.34975],[-71.063857,42.349736]]],[[[-71.063848,42.348391],[-71.063829,42.348378],[-71.063682,42.34841],[-71.0637,42.348423],[-71.063848,42.348391]]],[[[-71.063791,42.349831],[-71.063772,42.349818],[-71.063596,42.349854],[-71.063614,42.349867],[-71.063791,42.349831]]],[[[-71.063789,42.354668],[-71.063775,42.354643],[-71.06374,42.354632],[-71.063501,42.354667],[-71.063471,42.3547],[-71.063486,42.354725],[-71.06352,42.354736],[-71.063759,42.354701],[-71.063789,42.354668]]],[[[-71.063747,42.349926],[-71.063728,42.349911],[-71.06356,42.349936],[-71.063541,42.34995],[-71.06356,42.349964],[-71.063728,42.34994],[-71.063747,42.349926]]],[[[-71.063729,42.354768],[-71.063715,42.354743],[-71.06368,42.354732],[-71.063441,42.354767],[-71.063411,42.3548],[-71.063426,42.354825],[-71.06346,42.354836],[-71.063699,42.354801],[-71.063729,42.354768]]],[[[-71.063707,42.349977],[-71.063688,42.349964],[-71.063512,42.35],[-71.06353,42.350013],[-71.063707,42.349977]]],[[[-71.063617,42.350395],[-71.063598,42.350382],[-71.063292,42.35044],[-71.06331,42.350453],[-71.063617,42.350395]]],[[[-71.063607,42.350159],[-71.063589,42.350145],[-71.063422,42.35018],[-71.06344,42.350193],[-71.063607,42.350159]]],[[[-71.063583,42.350466],[-71.063565,42.350452],[-71.063443,42.35047],[-71.063436,42.350449],[-71.063262,42.350483],[-71.06328,42.350496],[-71.063402,42.350479],[-71.063409,42.350499],[-71.063583,42.350466]]],[[[-71.06358,42.350737],[-71.063551,42.350715],[-71.063343,42.350745],[-71.063325,42.350765],[-71.063354,42.350787],[-71.063562,42.350756],[-71.06358,42.350737]]],[[[-71.063577,42.350225],[-71.063559,42.350211],[-71.063392,42.350246],[-71.06341,42.350259],[-71.063577,42.350225]]],[[[-71.063573,42.350799],[-71.063547,42.35078],[-71.06336,42.350807],[-71.063336,42.350833],[-71.06336,42.350845],[-71.063547,42.350818],[-71.063573,42.350799]]],[[[-71.063552,42.350259],[-71.063534,42.350245],[-71.063367,42.35028],[-71.063385,42.350293],[-71.063552,42.350259]]],[[[-71.063542,42.35053],[-71.063524,42.350516],[-71.063385,42.350537],[-71.063212,42.350582],[-71.06323,42.350595],[-71.063388,42.350573],[-71.063542,42.35053]]],[[[-71.063537,42.35068],[-71.063518,42.350665],[-71.06335,42.35069],[-71.063331,42.350704],[-71.06335,42.350718],[-71.063518,42.350694],[-71.063537,42.35068]]],[[[-71.063507,42.35059],[-71.063489,42.350576],[-71.06321,42.350617],[-71.063192,42.35063],[-71.06321,42.350643],[-71.063489,42.350603],[-71.063507,42.35059]]],[[[-71.063422,42.350515],[-71.063404,42.350501],[-71.063237,42.350536],[-71.063255,42.350549],[-71.063422,42.350515]]],[[[-71.063327,42.350706],[-71.063309,42.350692],[-71.063142,42.350727],[-71.06316,42.35074],[-71.063327,42.350706]]],[[[-71.063318,42.35066],[-71.0633,42.350646],[-71.063162,42.350677],[-71.06318,42.35069],[-71.063318,42.35066]]],[[[-71.063317,42.350741],[-71.063298,42.350726],[-71.06313,42.350751],[-71.063111,42.350765],[-71.06313,42.350779],[-71.063298,42.350755],[-71.063317,42.350741]]],[[[-71.063283,42.352218],[-71.063265,42.352204],[-71.063111,42.35222],[-71.062947,42.352253],[-71.062965,42.352266],[-71.063058,42.352262],[-71.063283,42.352218]]],[[[-71.063071,42.352199],[-71.063053,42.352185],[-71.062987,42.352194],[-71.062969,42.352181],[-71.062812,42.352215],[-71.062904,42.352233],[-71.063071,42.352199]]],[[[-71.062997,42.353278],[-71.062978,42.353263],[-71.062918,42.353264],[-71.06274,42.353289],[-71.062717,42.353306],[-71.06274,42.353323],[-71.06281,42.353316],[-71.062978,42.353292],[-71.062997,42.353278]]],[[[-71.062997,42.35319],[-71.062912,42.353168],[-71.062744,42.353193],[-71.062725,42.353207],[-71.06281,42.353228],[-71.062978,42.353204],[-71.062997,42.35319]]],[[[-71.062756,42.348326],[-71.062727,42.348304],[-71.062596,42.348312],[-71.062355,42.348346],[-71.062331,42.348373],[-71.06237,42.348402],[-71.062738,42.348345],[-71.062756,42.348326]]],[[[-71.062732,42.349339],[-71.062719,42.349317],[-71.062689,42.349308],[-71.062438,42.349344],[-71.062412,42.349373],[-71.062424,42.349395],[-71.062454,42.349404],[-71.062706,42.349368],[-71.062732,42.349339]]],[[[-71.06264,42.348531],[-71.062618,42.348515],[-71.06244,42.34854],[-71.062417,42.348557],[-71.06244,42.348574],[-71.062618,42.348548],[-71.06264,42.348531]]],[[[-71.062628,42.349289],[-71.062615,42.349267],[-71.062585,42.349258],[-71.062334,42.349294],[-71.062308,42.349323],[-71.06232,42.349345],[-71.06235,42.349354],[-71.062602,42.349318],[-71.062628,42.349289]]],[[[-71.062207,42.353728],[-71.062188,42.353713],[-71.06202,42.353738],[-71.062001,42.353752],[-71.06202,42.353766],[-71.062188,42.353742],[-71.062207,42.353728]]],[[[-71.062161,42.349516],[-71.062147,42.349491],[-71.062112,42.34948],[-71.061873,42.349515],[-71.061843,42.349548],[-71.061858,42.349573],[-71.061892,42.349584],[-71.062131,42.349549],[-71.062161,42.349516]]],[[[-71.062136,42.349287],[-71.062117,42.349274],[-71.06197,42.349306],[-71.061988,42.349319],[-71.062136,42.349287]]],[[[-71.062118,42.353841],[-71.062099,42.353828],[-71.061952,42.35386],[-71.06197,42.353873],[-71.062118,42.353841]]],[[[-71.062096,42.348277],[-71.062083,42.348253],[-71.062051,42.348243],[-71.061918,42.348262],[-71.061903,42.348229],[-71.061864,42.348217],[-71.061569,42.348259],[-71.061535,42.348297],[-71.061569,42.348335],[-71.061761,42.348313],[-71.061774,42.348336],[-71.061806,42.348346],[-71.062068,42.348308],[-71.062096,42.348277]]],[[[-71.062092,42.353676],[-71.062073,42.353661],[-71.061905,42.353686],[-71.061886,42.3537],[-71.061905,42.353714],[-71.062073,42.35369],[-71.062092,42.353676]]],[[[-71.062081,42.349419],[-71.062062,42.349406],[-71.061915,42.349438],[-71.061933,42.349451],[-71.062081,42.349419]]],[[[-71.062077,42.353801],[-71.062058,42.353786],[-71.06189,42.353811],[-71.061871,42.353825],[-71.06189,42.353839],[-71.062058,42.353815],[-71.062077,42.353801]]],[[[-71.062058,42.349861],[-71.062039,42.349848],[-71.061892,42.34988],[-71.06191,42.349893],[-71.062058,42.349861]]],[[[-71.062028,42.349907],[-71.062009,42.349894],[-71.061862,42.349926],[-71.06188,42.349939],[-71.062028,42.349907]]],[[[-71.062022,42.349981],[-71.062003,42.349968],[-71.061856,42.35],[-71.061874,42.350013],[-71.062022,42.349981]]],[[[-71.062015,42.350259],[-71.061976,42.350231],[-71.061735,42.350265],[-71.061714,42.350281],[-71.061722,42.350312],[-71.061688,42.350322],[-71.061678,42.350359],[-71.06172,42.35038],[-71.061982,42.350342],[-71.062007,42.350323],[-71.061997,42.350287],[-71.062015,42.350259]]],[[[-71.061998,42.350025],[-71.061979,42.350012],[-71.061832,42.350044],[-71.06185,42.350057],[-71.061998,42.350025]]],[[[-71.061993,42.353629],[-71.061974,42.353614],[-71.061806,42.353639],[-71.061787,42.353653],[-71.061806,42.353667],[-71.061974,42.353643],[-71.061993,42.353629]]],[[[-71.061986,42.349634],[-71.061972,42.349609],[-71.061937,42.349598],[-71.061698,42.349633],[-71.061668,42.349666],[-71.061683,42.349691],[-71.061717,42.349702],[-71.061956,42.349667],[-71.061986,42.349634]]],[[[-71.061979,42.353575],[-71.061965,42.35355],[-71.06193,42.353539],[-71.061691,42.353574],[-71.061661,42.353607],[-71.061676,42.353632],[-71.06171,42.353643],[-71.061949,42.353608],[-71.061979,42.353575]]],[[[-71.061968,42.350061],[-71.061949,42.350048],[-71.061802,42.35008],[-71.06182,42.350093],[-71.061968,42.350061]]],[[[-71.061958,42.353764],[-71.061939,42.353751],[-71.061792,42.353783],[-71.06181,42.353796],[-71.061958,42.353764]]],[[[-71.061944,42.350138],[-71.061926,42.350124],[-71.061788,42.350155],[-71.061806,42.350168],[-71.061944,42.350138]]],[[[-71.061928,42.350181],[-71.061909,42.350168],[-71.061762,42.3502],[-71.06178,42.350213],[-71.061928,42.350181]]],[[[-71.061928,42.348614],[-71.061915,42.348592],[-71.061885,42.348583],[-71.061503,42.348639],[-71.061475,42.34867],[-71.061488,42.348694],[-71.06152,42.348704],[-71.061902,42.348643],[-71.061928,42.348614]]],[[[-71.0619,42.348402],[-71.061881,42.348389],[-71.061734,42.348421],[-71.061752,42.348434],[-71.0619,42.348402]]],[[[-71.061877,42.353719],[-71.061858,42.353706],[-71.061711,42.353738],[-71.061729,42.353751],[-71.061877,42.353719]]],[[[-71.061777,42.353529],[-71.061759,42.353515],[-71.061592,42.35355],[-71.06161,42.353563],[-71.061777,42.353529]]],[[[-71.061768,42.349536],[-71.061738,42.349503],[-71.061669,42.349508],[-71.061656,42.349477],[-71.061621,42.349466],[-71.061382,42.349501],[-71.061352,42.349534],[-71.061382,42.349567],[-71.061452,42.349563],[-71.061465,42.349593],[-71.061499,42.349604],[-71.061738,42.349569],[-71.061768,42.349536]]],[[[-71.061765,42.348108],[-71.061747,42.348075],[-71.061703,42.348062],[-71.061386,42.348108],[-71.061348,42.34815],[-71.061386,42.348192],[-71.06157,42.348172],[-71.061572,42.348196],[-71.061741,42.348172],[-71.061728,42.348149],[-71.061765,42.348108]]],[[[-71.06174,42.348818],[-71.061695,42.348789],[-71.061444,42.348825],[-71.061418,42.348854],[-71.06143,42.348876],[-71.06146,42.348885],[-71.061712,42.348849],[-71.06174,42.348818]]],[[[-71.061738,42.348481],[-71.061719,42.348468],[-71.061572,42.3485],[-71.06159,42.348513],[-71.061738,42.348481]]],[[[-71.06167,42.350924],[-71.061648,42.350908],[-71.06147,42.350933],[-71.061447,42.35095],[-71.06147,42.350967],[-71.061648,42.350941],[-71.06167,42.350924]]],[[[-71.061659,42.348218],[-71.061627,42.348194],[-71.06142,42.348224],[-71.06139,42.348239],[-71.06139,42.348257],[-71.06142,42.348272],[-71.061627,42.348242],[-71.061659,42.348218]]],[[[-71.061587,42.349234],[-71.061569,42.34922],[-71.061402,42.349255],[-71.06142,42.349268],[-71.061587,42.349234]]],[[[-71.061567,42.349028],[-71.061548,42.349013],[-71.06138,42.349038],[-71.061361,42.349052],[-71.06138,42.349066],[-71.061548,42.349042],[-71.061567,42.349028]]],[[[-71.061548,42.351103],[-71.061529,42.35109],[-71.061382,42.351122],[-71.0614,42.351135],[-71.061548,42.351103]]],[[[-71.061546,42.3492],[-71.061517,42.349178],[-71.061309,42.349208],[-71.061291,42.349228],[-71.06132,42.34925],[-71.061528,42.349219],[-71.061546,42.3492]]],[[[-71.061527,42.351161],[-71.061508,42.351148],[-71.061361,42.35118],[-71.061379,42.351193],[-71.061527,42.351161]]],[[[-71.061501,42.351221],[-71.061482,42.351208],[-71.061335,42.35124],[-71.061353,42.351253],[-71.061501,42.351221]]],[[[-71.061498,42.349411],[-71.061479,42.349398],[-71.061332,42.34943],[-71.06135,42.349443],[-71.061498,42.349411]]],[[[-71.061482,42.35127],[-71.061463,42.351257],[-71.061316,42.351289],[-71.061334,42.351302],[-71.061482,42.35127]]],[[[-71.061458,42.349796],[-71.061445,42.349774],[-71.061415,42.349765],[-71.061164,42.349801],[-71.061138,42.34983],[-71.06115,42.349852],[-71.06118,42.349861],[-71.061432,42.349825],[-71.061458,42.349796]]],[[[-71.061421,42.34961],[-71.061403,42.349596],[-71.061246,42.34963],[-71.061264,42.349643],[-71.061421,42.34961]]],[[[-71.06142,42.349992],[-71.061405,42.349965],[-71.061368,42.349953],[-71.061084,42.349995],[-71.061052,42.35003],[-71.061067,42.350057],[-71.061104,42.350068],[-71.061388,42.350027],[-71.06142,42.349992]]],[[[-71.0614,42.349658],[-71.061382,42.349644],[-71.061225,42.349678],[-71.061243,42.349691],[-71.0614,42.349658]]],[[[-71.061374,42.353351],[-71.061355,42.353338],[-71.061208,42.35337],[-71.061226,42.353383],[-71.061374,42.353351]]],[[[-71.061368,42.354755],[-71.061349,42.354742],[-71.061202,42.354774],[-71.06122,42.354787],[-71.061368,42.354755]]],[[[-71.061318,42.354897],[-71.061299,42.354884],[-71.061152,42.354916],[-71.06117,42.354929],[-71.061318,42.354897]]],[[[-71.061318,42.353325],[-71.061299,42.353312],[-71.061152,42.353344],[-71.06117,42.353357],[-71.061318,42.353325]]],[[[-71.061296,42.348564],[-71.061281,42.348537],[-71.061244,42.348525],[-71.06096,42.348567],[-71.060928,42.348602],[-71.060943,42.348629],[-71.06098,42.34864],[-71.061264,42.348599],[-71.061296,42.348564]]],[[[-71.061279,42.348677],[-71.061263,42.348649],[-71.061224,42.348637],[-71.060929,42.348679],[-71.060895,42.348717],[-71.060911,42.348746],[-71.06095,42.348758],[-71.061245,42.348715],[-71.061279,42.348677]]],[[[-71.061268,42.353301],[-71.061249,42.353288],[-71.061102,42.35332],[-71.06112,42.353333],[-71.061268,42.353301]]],[[[-71.061197,42.353254],[-71.061179,42.35324],[-71.061012,42.353275],[-71.06103,42.353288],[-71.061197,42.353254]]],[[[-71.061178,42.348793],[-71.061165,42.348771],[-71.061135,42.348762],[-71.060884,42.348798],[-71.060858,42.348827],[-71.06087,42.348849],[-71.0609,42.348858],[-71.061152,42.348822],[-71.061178,42.348793]]],[[[-71.06117,42.349127],[-71.061149,42.34909],[-71.061098,42.349075],[-71.060749,42.349125],[-71.060705,42.349174],[-71.060725,42.349211],[-71.060776,42.349227],[-71.061126,42.349176],[-71.06117,42.349127]]],[[[-71.061168,42.348471],[-71.061149,42.348458],[-71.061002,42.34849],[-71.06102,42.348503],[-71.061168,42.348471]]],[[[-71.061118,42.353344],[-71.061099,42.353331],[-71.060952,42.353363],[-71.06097,42.353376],[-71.061118,42.353344]]],[[[-71.061068,42.353201],[-71.061049,42.353188],[-71.060902,42.35322],[-71.06092,42.353233],[-71.061068,42.353201]]],[[[-71.061062,42.35331],[-71.061044,42.353296],[-71.060887,42.35333],[-71.060905,42.353343],[-71.061062,42.35331]]],[[[-71.060992,42.353283],[-71.060973,42.35327],[-71.060826,42.353302],[-71.060844,42.353315],[-71.060992,42.353283]]],[[[-71.060953,42.349358],[-71.060939,42.349333],[-71.060904,42.349322],[-71.060665,42.349357],[-71.060522,42.349407],[-71.06054,42.34942],[-71.060641,42.349406],[-71.06066,42.349421],[-71.060512,42.349453],[-71.06053,42.349466],[-71.060669,42.349446],[-71.060923,42.349391],[-71.060953,42.349358]]],[[[-71.060949,42.349469],[-71.060935,42.349444],[-71.060901,42.349433],[-71.06052,42.34949],[-71.060507,42.349513],[-71.060598,42.349505],[-71.060601,42.34952],[-71.060468,42.349556],[-71.060486,42.349569],[-71.060919,42.349502],[-71.060949,42.349469]]],[[[-71.060863,42.349633],[-71.060849,42.349608],[-71.060815,42.349597],[-71.060616,42.349626],[-71.060599,42.349608],[-71.060452,42.34964],[-71.06047,42.349653],[-71.060525,42.349646],[-71.060515,42.349684],[-71.06056,42.349706],[-71.060833,42.349666],[-71.060863,42.349633]]],[[[-71.060846,42.349754],[-71.060831,42.349727],[-71.060794,42.349715],[-71.06051,42.349757],[-71.060478,42.349792],[-71.060493,42.349819],[-71.06053,42.34983],[-71.060814,42.349789],[-71.060846,42.349754]]],[[[-71.060758,42.349241],[-71.060739,42.349228],[-71.060592,42.34926],[-71.06061,42.349273],[-71.060758,42.349241]]],[[[-71.060738,42.349281],[-71.060719,42.349268],[-71.060572,42.3493],[-71.06059,42.349313],[-71.060738,42.349281]]],[[[-71.060728,42.353021],[-71.060709,42.353008],[-71.060562,42.35304],[-71.06058,42.353053],[-71.060728,42.353021]]],[[[-71.060718,42.349323],[-71.060699,42.34931],[-71.060552,42.349342],[-71.06057,42.349355],[-71.060718,42.349323]]],[[[-71.060648,42.352978],[-71.060629,42.352965],[-71.060482,42.352997],[-71.0605,42.35301],[-71.060648,42.352978]]],[[[-71.060647,42.353263],[-71.060629,42.353249],[-71.060472,42.353283],[-71.06049,42.353296],[-71.060647,42.353263]]],[[[-71.060645,42.353372],[-71.060606,42.353344],[-71.0604,42.353367],[-71.060352,42.353385],[-71.060341,42.353405],[-71.060362,42.35343],[-71.060322,42.353447],[-71.06034,42.35346],[-71.060469,42.353442],[-71.060483,42.353419],[-71.060621,42.353399],[-71.060645,42.353372]]],[[[-71.060634,42.353131],[-71.060615,42.353118],[-71.060468,42.35315],[-71.060486,42.353163],[-71.060634,42.353131]]],[[[-71.060634,42.349581],[-71.060615,42.349568],[-71.060468,42.3496],[-71.060486,42.349613],[-71.060634,42.349581]]],[[[-71.060607,42.352954],[-71.060589,42.35294],[-71.060432,42.352974],[-71.06045,42.352987],[-71.060607,42.352954]]],[[[-71.060558,42.353081],[-71.060539,42.353068],[-71.060392,42.3531],[-71.06041,42.353113],[-71.060558,42.353081]]],[[[-71.060534,42.350118],[-71.060504,42.350085],[-71.060427,42.350091],[-71.060409,42.350073],[-71.060267,42.350095],[-71.060216,42.35015],[-71.060231,42.350175],[-71.060265,42.350186],[-71.060504,42.350151],[-71.060534,42.350118]]],[[[-71.060527,42.349864],[-71.060509,42.34985],[-71.060352,42.349884],[-71.06037,42.349897],[-71.060527,42.349864]]],[[[-71.060504,42.353051],[-71.060485,42.353038],[-71.060338,42.35307],[-71.060356,42.353083],[-71.060504,42.353051]]],[[[-71.060448,42.350018],[-71.060429,42.350005],[-71.060282,42.350037],[-71.0603,42.35005],[-71.060448,42.350018]]],[[[-71.0604,42.349437],[-71.060361,42.349409],[-71.06012,42.349443],[-71.060096,42.34947],[-71.060135,42.349499],[-71.060376,42.349464],[-71.0604,42.349437]]],[[[-71.060351,42.353375],[-71.060337,42.353351],[-71.060305,42.353341],[-71.060043,42.353379],[-71.060015,42.35341],[-71.060028,42.353434],[-71.06006,42.353444],[-71.060322,42.353406],[-71.060351,42.353375]]],[[[-71.060316,42.349528],[-71.060287,42.349506],[-71.060079,42.349536],[-71.060061,42.349556],[-71.06009,42.349578],[-71.060298,42.349547],[-71.060316,42.349528]]],[[[-71.060302,42.349613],[-71.060266,42.349586],[-71.060036,42.34962],[-71.060014,42.349644],[-71.06005,42.34967],[-71.06028,42.349637],[-71.060302,42.349613]]],[[[-71.060288,42.352943],[-71.060269,42.35293],[-71.060122,42.352962],[-71.06014,42.352975],[-71.060288,42.352943]]],[[[-71.060208,42.35101],[-71.060195,42.350988],[-71.060165,42.350979],[-71.059914,42.351015],[-71.059888,42.351044],[-71.0599,42.351066],[-71.05993,42.351075],[-71.060182,42.351039],[-71.060208,42.35101]]],[[[-71.060088,42.351108],[-71.060062,42.351089],[-71.059875,42.351116],[-71.059851,42.351142],[-71.059875,42.351154],[-71.060062,42.351127],[-71.060088,42.351108]]],[[[-71.060058,42.353226],[-71.060045,42.353204],[-71.060015,42.353195],[-71.059764,42.353231],[-71.059738,42.35326],[-71.05975,42.353282],[-71.05978,42.353291],[-71.060032,42.353255],[-71.060058,42.353226]]],[[[-71.059988,42.353281],[-71.059969,42.353268],[-71.059822,42.3533],[-71.05984,42.353313],[-71.059988,42.353281]]],[[[-71.059897,42.352733],[-71.059879,42.352719],[-71.059818,42.352728],[-71.059822,42.352707],[-71.059762,42.352697],[-71.059603,42.35272],[-71.059506,42.352758],[-71.059491,42.352783],[-71.059506,42.352808],[-71.05954,42.352819],[-71.059779,42.352784],[-71.059897,42.352733]]],[[[-71.059869,42.351678],[-71.059855,42.351653],[-71.05982,42.351642],[-71.059556,42.351691],[-71.059564,42.351678],[-71.059542,42.351662],[-71.059364,42.351687],[-71.059341,42.351704],[-71.059364,42.351721],[-71.059512,42.351699],[-71.059511,42.35172],[-71.059554,42.35172],[-71.0596,42.351746],[-71.059839,42.351711],[-71.059869,42.351678]]],[[[-71.059866,42.354926],[-71.059848,42.354906],[-71.05982,42.354906],[-71.05982,42.354873],[-71.059757,42.354836],[-71.05952,42.354881],[-71.059527,42.354907],[-71.059578,42.354942],[-71.059618,42.35494],[-71.059619,42.354969],[-71.05964,42.354976],[-71.059848,42.354945],[-71.059866,42.354926]]],[[[-71.059769,42.35157],[-71.059737,42.351546],[-71.059518,42.351578],[-71.05942,42.351609],[-71.059406,42.351634],[-71.05943,42.351646],[-71.059627,42.351618],[-71.059749,42.351592],[-71.059769,42.35157]]],[[[-71.059689,42.354783],[-71.059669,42.354761],[-71.059624,42.354764],[-71.059637,42.354735],[-71.059607,42.35472],[-71.059605,42.354683],[-71.05958,42.354675],[-71.05935,42.354709],[-71.059328,42.354733],[-71.059339,42.354752],[-71.059377,42.354758],[-71.059377,42.354791],[-71.059433,42.354793],[-71.05942,42.354822],[-71.05945,42.354837],[-71.059669,42.354805],[-71.059689,42.354783]]],[[[-71.059648,42.351078],[-71.059629,42.351065],[-71.059482,42.351097],[-71.0595,42.35111],[-71.059648,42.351078]]],[[[-71.059608,42.351151],[-71.059589,42.351138],[-71.059442,42.35117],[-71.05946,42.351183],[-71.059608,42.351151]]],[[[-71.059558,42.353081],[-71.059539,42.353068],[-71.059392,42.3531],[-71.05941,42.353113],[-71.059558,42.353081]]],[[[-71.059548,42.352991],[-71.059529,42.352978],[-71.059382,42.35301],[-71.0594,42.353023],[-71.059548,42.352991]]],[[[-71.0595,42.351754],[-71.059478,42.351738],[-71.0593,42.351763],[-71.059277,42.35178],[-71.0593,42.351797],[-71.059478,42.351771],[-71.0595,42.351754]]],[[[-71.059473,42.351253],[-71.059443,42.35122],[-71.059393,42.351222],[-71.05941,42.351207],[-71.05941,42.351179],[-71.059365,42.351157],[-71.059091,42.351197],[-71.059061,42.35123],[-71.059091,42.351263],[-71.059142,42.351261],[-71.059121,42.35129],[-71.059145,42.35132],[-71.059106,42.351332],[-71.059091,42.351357],[-71.059106,42.351382],[-71.05914,42.351393],[-71.059413,42.351353],[-71.059443,42.35132],[-71.059419,42.35129],[-71.059459,42.351279],[-71.059473,42.351253]]],[[[-71.059314,42.353275],[-71.059295,42.353262],[-71.059216,42.353273],[-71.059206,42.353256],[-71.059127,42.353265],[-71.059109,42.353251],[-71.058962,42.353283],[-71.05898,42.353296],[-71.059052,42.353286],[-71.05907,42.3533],[-71.059149,42.353289],[-71.059159,42.353306],[-71.059314,42.353275]]],[[[-71.059299,42.354355],[-71.059267,42.354331],[-71.05906,42.354361],[-71.05903,42.354376],[-71.05903,42.354394],[-71.05906,42.354409],[-71.059267,42.354379],[-71.059299,42.354355]]],[[[-71.059253,42.35149],[-71.059227,42.351471],[-71.05904,42.351498],[-71.059016,42.351524],[-71.05904,42.351536],[-71.059227,42.351509],[-71.059253,42.35149]]],[[[-71.059228,42.351441],[-71.059209,42.351428],[-71.059062,42.35146],[-71.05908,42.351473],[-71.059228,42.351441]]],[[[-71.059222,42.351573],[-71.059186,42.351546],[-71.058956,42.35158],[-71.058934,42.351604],[-71.058956,42.351628],[-71.058912,42.351646],[-71.05893,42.351659],[-71.059079,42.351638],[-71.059092,42.351615],[-71.0592,42.351597],[-71.059222,42.351573]]],[[[-71.059148,42.354313],[-71.059129,42.3543],[-71.058982,42.354332],[-71.059,42.354345],[-71.059148,42.354313]]],[[[-71.059129,42.35166],[-71.059097,42.351636],[-71.058878,42.351668],[-71.05886,42.351681],[-71.058867,42.351707],[-71.058825,42.351719],[-71.058817,42.351748],[-71.058767,42.35177],[-71.058786,42.351804],[-71.058701,42.351818],[-71.05868,42.351834],[-71.05868,42.351856],[-71.058716,42.351874],[-71.058957,42.351839],[-71.058981,42.351812],[-71.058957,42.351786],[-71.059041,42.351767],[-71.059049,42.351739],[-71.059099,42.351717],[-71.059091,42.351688],[-71.059129,42.35166]]],[[[-71.059127,42.354266],[-71.059108,42.354251],[-71.05894,42.354276],[-71.058921,42.35429],[-71.05894,42.354304],[-71.059108,42.35428],[-71.059127,42.354266]]],[[[-71.058994,42.353249],[-71.058975,42.353236],[-71.058887,42.353249],[-71.058869,42.353236],[-71.058722,42.353268],[-71.05874,42.353281],[-71.058828,42.353269],[-71.058846,42.353281],[-71.058994,42.353249]]],[[[-71.058899,42.351876],[-71.058867,42.351852],[-71.058648,42.351884],[-71.058629,42.351912],[-71.058599,42.351924],[-71.05861,42.351945],[-71.058491,42.351968],[-71.05844,42.35204],[-71.058397,42.35205],[-71.058395,42.352074],[-71.058352,42.352097],[-71.05837,42.35211],[-71.05844,42.352108],[-71.058702,42.35207],[-71.058727,42.352051],[-71.058727,42.352027],[-71.058843,42.351986],[-71.058855,42.351942],[-71.058811,42.351918],[-71.058879,42.351898],[-71.058899,42.351876]]],[[[-71.058698,42.352511],[-71.058626,42.352493],[-71.058477,42.352505],[-71.058474,42.352493],[-71.058662,42.352466],[-71.058648,42.352441],[-71.058512,42.352461],[-71.058499,42.352438],[-71.058407,42.352451],[-71.058389,42.352435],[-71.058247,42.352457],[-71.05826,42.35248],[-71.058353,42.352467],[-71.058357,42.35248],[-71.058232,42.352512],[-71.05825,42.352525],[-71.058313,42.352516],[-71.05833,42.352533],[-71.058393,42.352524],[-71.05841,42.352541],[-71.058532,42.352531],[-71.058543,42.352542],[-71.058698,42.352511]],[[-71.058467,42.352469],[-71.058397,42.352497],[-71.058392,42.352484],[-71.058467,42.352469]]],[[[-71.058418,42.350891],[-71.058399,42.350878],[-71.058252,42.35091],[-71.05827,42.350923],[-71.058418,42.350891]]],[[[-71.058348,42.350868],[-71.058329,42.350855],[-71.058182,42.350887],[-71.0582,42.3509],[-71.058348,42.350868]]],[[[-71.058168,42.352646],[-71.058149,42.352633],[-71.058002,42.352665],[-71.05802,42.352678],[-71.058168,42.352646]]],[[[-71.058162,42.352749],[-71.058143,42.352736],[-71.057996,42.352768],[-71.058014,42.352781],[-71.058162,42.352749]]],[[[-71.058138,42.352886],[-71.058119,42.352873],[-71.057972,42.352905],[-71.05799,42.352918],[-71.058138,42.352886]]],[[[-71.057937,42.352199],[-71.057911,42.35218],[-71.057724,42.352207],[-71.0577,42.352233],[-71.057724,42.352245],[-71.057911,42.352218],[-71.057937,42.352199]]],[[[-71.057933,42.350674],[-71.057885,42.350665],[-71.057876,42.350646],[-71.057722,42.350677],[-71.05777,42.350686],[-71.057778,42.350705],[-71.057933,42.350674]]],[[[-71.05782,42.352162],[-71.057791,42.35214],[-71.057583,42.35217],[-71.057565,42.35219],[-71.057594,42.352212],[-71.057802,42.352181],[-71.05782,42.352162]]],[[[-71.057723,42.352133],[-71.057697,42.352114],[-71.05764,42.352122],[-71.057641,42.352106],[-71.057617,42.352094],[-71.05742,42.352122],[-71.057406,42.352147],[-71.05743,42.352159],[-71.057488,42.352151],[-71.057486,42.352167],[-71.05751,42.352179],[-71.057707,42.352151],[-71.057723,42.352133]]],[[[-71.057566,42.352082],[-71.057537,42.35206],[-71.057329,42.35209],[-71.057311,42.35211],[-71.05734,42.352132],[-71.057548,42.352101],[-71.057566,42.352082]]],[[[-71.057544,42.350384],[-71.057525,42.350371],[-71.057378,42.350403],[-71.057396,42.350416],[-71.057544,42.350384]]],[[[-71.057528,42.350475],[-71.057509,42.350462],[-71.057362,42.350494],[-71.05738,42.350507],[-71.057528,42.350475]]],[[[-71.057487,42.351687],[-71.057469,42.351673],[-71.057312,42.351707],[-71.05733,42.35172],[-71.057487,42.351687]]],[[[-71.057468,42.351731],[-71.057449,42.351718],[-71.057302,42.35175],[-71.05732,42.351763],[-71.057468,42.351731]]],[[[-71.057447,42.350904],[-71.057429,42.35089],[-71.057262,42.350925],[-71.05728,42.350938],[-71.057447,42.350904]]],[[[-71.057439,42.351878],[-71.05742,42.351865],[-71.057273,42.351897],[-71.057291,42.35191],[-71.057439,42.351878]]],[[[-71.057418,42.351938],[-71.0574,42.351924],[-71.057262,42.351955],[-71.05728,42.351968],[-71.057418,42.351938]]],[[[-71.057417,42.351042],[-71.057399,42.351028],[-71.057232,42.351063],[-71.05725,42.351076],[-71.057417,42.351042]]],[[[-71.057338,42.351391],[-71.057319,42.351378],[-71.057172,42.35141],[-71.05719,42.351423],[-71.057338,42.351391]]],[[[-71.057328,42.350531],[-71.057309,42.350518],[-71.057162,42.35055],[-71.05718,42.350563],[-71.057328,42.350531]]],[[[-71.057277,42.350613],[-71.057258,42.3506],[-71.057111,42.350632],[-71.057129,42.350645],[-71.057277,42.350613]]],[[[-71.057229,42.349873],[-71.057197,42.349849],[-71.056993,42.349879],[-71.05698,42.349858],[-71.056945,42.349847],[-71.056706,42.349882],[-71.056676,42.349915],[-71.056691,42.34994],[-71.056725,42.349951],[-71.057209,42.349895],[-71.057229,42.349873]]],[[[-71.057224,42.350514],[-71.057205,42.350501],[-71.057058,42.350533],[-71.057076,42.350546],[-71.057224,42.350514]]],[[[-71.057168,42.349821],[-71.057149,42.349808],[-71.057002,42.34984],[-71.05702,42.349853],[-71.057168,42.349821]]],[[[-71.057055,42.349727],[-71.057016,42.349699],[-71.056775,42.349733],[-71.056751,42.34976],[-71.05679,42.349789],[-71.057031,42.349754],[-71.057055,42.349727]]],[[[-71.057027,42.352005],[-71.057008,42.351992],[-71.056832,42.352028],[-71.05685,42.352041],[-71.057027,42.352005]]],[[[-71.056999,42.34981],[-71.056967,42.349786],[-71.05676,42.349816],[-71.05673,42.349831],[-71.05673,42.349849],[-71.05676,42.349864],[-71.056967,42.349834],[-71.056999,42.34981]]],[[[-71.056964,42.350211],[-71.056945,42.350198],[-71.056798,42.35023],[-71.056816,42.350243],[-71.056964,42.350211]]],[[[-71.056949,42.349974],[-71.056935,42.349949],[-71.0569,42.349938],[-71.056661,42.349973],[-71.056631,42.350006],[-71.056646,42.350031],[-71.05668,42.350042],[-71.056919,42.350007],[-71.056949,42.349974]]],[[[-71.056928,42.350288],[-71.056909,42.350275],[-71.056762,42.350307],[-71.05678,42.35032],[-71.056928,42.350288]]],[[[-71.056897,42.351973],[-71.056879,42.351959],[-71.056712,42.351994],[-71.05673,42.352007],[-71.056897,42.351973]]],[[[-71.056856,42.350066],[-71.056827,42.350044],[-71.056619,42.350074],[-71.056601,42.350094],[-71.05663,42.350116],[-71.056838,42.350085],[-71.056856,42.350066]]],[[[-71.056829,42.350155],[-71.056797,42.350131],[-71.05659,42.350161],[-71.05656,42.350176],[-71.05656,42.350194],[-71.05659,42.350209],[-71.056797,42.350179],[-71.056829,42.350155]]],[[[-71.056813,42.353176],[-71.056787,42.353157],[-71.0566,42.353184],[-71.056576,42.35321],[-71.0566,42.353222],[-71.056787,42.353195],[-71.056813,42.353176]]],[[[-71.056802,42.35059],[-71.056783,42.350577],[-71.056607,42.350613],[-71.056625,42.350626],[-71.056802,42.35059]]],[[[-71.056779,42.350802],[-71.056765,42.350777],[-71.05673,42.350766],[-71.056491,42.350801],[-71.056461,42.350834],[-71.056476,42.350859],[-71.05651,42.35087],[-71.056749,42.350835],[-71.056779,42.350802]]],[[[-71.056767,42.350657],[-71.056748,42.350644],[-71.056572,42.35068],[-71.05659,42.350693],[-71.056767,42.350657]]],[[[-71.056727,42.353141],[-71.056708,42.353126],[-71.05654,42.353151],[-71.056521,42.353165],[-71.05654,42.353179],[-71.056708,42.353155],[-71.056727,42.353141]]],[[[-71.056652,42.353103],[-71.056633,42.353088],[-71.056465,42.353113],[-71.056446,42.353127],[-71.056465,42.353141],[-71.056633,42.353117],[-71.056652,42.353103]]],[[[-71.056627,42.351897],[-71.056608,42.351884],[-71.056432,42.35192],[-71.05645,42.351933],[-71.056627,42.351897]]],[[[-71.05657,42.353064],[-71.056548,42.353048],[-71.05637,42.353073],[-71.056347,42.35309],[-71.05637,42.353107],[-71.056548,42.353081],[-71.05657,42.353064]]],[[[-71.056558,42.351011],[-71.056539,42.350998],[-71.056392,42.35103],[-71.05641,42.351043],[-71.056558,42.351011]]],[[[-71.056557,42.351074],[-71.056538,42.351061],[-71.056362,42.351097],[-71.05638,42.35111],[-71.056557,42.351074]]],[[[-71.056508,42.351883],[-71.05649,42.351869],[-71.056352,42.3519],[-71.05637,42.351913],[-71.056508,42.351883]]],[[[-71.056497,42.354907],[-71.056478,42.354894],[-71.056302,42.35493],[-71.05632,42.354943],[-71.056497,42.354907]]],[[[-71.056494,42.351157],[-71.056475,42.351144],[-71.056328,42.351176],[-71.056346,42.351189],[-71.056494,42.351157]]],[[[-71.056493,42.354643],[-71.056467,42.354624],[-71.05628,42.354651],[-71.056256,42.354677],[-71.05628,42.354689],[-71.056467,42.354662],[-71.056493,42.354643]]],[[[-71.056487,42.354813],[-71.056468,42.3548],[-71.056292,42.354836],[-71.05631,42.354849],[-71.056487,42.354813]]],[[[-71.056477,42.354726],[-71.056458,42.354711],[-71.05629,42.354736],[-71.056271,42.35475],[-71.05629,42.354764],[-71.056458,42.35474],[-71.056477,42.354726]]],[[[-71.056415,42.350819],[-71.056396,42.350806],[-71.05622,42.350842],[-71.056238,42.350855],[-71.056415,42.350819]]],[[[-71.056397,42.351356],[-71.056379,42.351342],[-71.056222,42.351376],[-71.05624,42.351389],[-71.056397,42.351356]]],[[[-71.056385,42.35091],[-71.056366,42.350897],[-71.05619,42.350933],[-71.056208,42.350946],[-71.056385,42.35091]]],[[[-71.056378,42.351391],[-71.05636,42.351377],[-71.056203,42.351411],[-71.056221,42.351424],[-71.056378,42.351391]]],[[[-71.056378,42.353031],[-71.056359,42.353018],[-71.056212,42.35305],[-71.05623,42.353063],[-71.056378,42.353031]]],[[[-71.056347,42.35143],[-71.056329,42.351416],[-71.056172,42.35145],[-71.05619,42.351463],[-71.056347,42.35143]]],[[[-71.056345,42.351013],[-71.056326,42.351],[-71.05615,42.351036],[-71.056168,42.351049],[-71.056345,42.351013]]],[[[-71.056307,42.351122],[-71.056288,42.351109],[-71.056112,42.351145],[-71.05613,42.351158],[-71.056307,42.351122]]],[[[-71.056217,42.35169],[-71.056199,42.351676],[-71.056042,42.35171],[-71.05606,42.351723],[-71.056217,42.35169]]],[[[-71.056136,42.351332],[-71.056117,42.351319],[-71.055941,42.351355],[-71.055959,42.351368],[-71.056136,42.351332]]],[[[-71.056112,42.351389],[-71.056093,42.351376],[-71.055917,42.351412],[-71.055935,42.351425],[-71.056112,42.351389]]],[[[-71.056089,42.352194],[-71.056075,42.352169],[-71.05604,42.352158],[-71.055801,42.352193],[-71.055737,42.352276],[-71.055752,42.352301],[-71.055786,42.352312],[-71.056025,42.352277],[-71.056089,42.352194]]],[[[-71.056079,42.351459],[-71.05606,42.351446],[-71.055884,42.351482],[-71.055902,42.351495],[-71.056079,42.351459]]],[[[-71.056047,42.351538],[-71.056028,42.351525],[-71.055852,42.351561],[-71.05587,42.351574],[-71.056047,42.351538]]],[[[-71.056018,42.351599],[-71.055999,42.351586],[-71.055823,42.351622],[-71.055841,42.351635],[-71.056018,42.351599]]],[[[-71.055995,42.353306],[-71.055963,42.353282],[-71.055756,42.353312],[-71.055726,42.353327],[-71.055726,42.353345],[-71.055756,42.35336],[-71.055963,42.35333],[-71.055995,42.353306]]],[[[-71.055967,42.351704],[-71.055948,42.351691],[-71.055772,42.351727],[-71.05579,42.35174],[-71.055967,42.351704]]],[[[-71.055947,42.351753],[-71.055928,42.35174],[-71.055752,42.351776],[-71.05577,42.351789],[-71.055947,42.351753]]],[[[-71.055921,42.353366],[-71.055892,42.353344],[-71.055684,42.353374],[-71.055666,42.353394],[-71.055674,42.353409],[-71.055607,42.35343],[-71.055626,42.353444],[-71.055794,42.35342],[-71.055903,42.353385],[-71.055921,42.353366]]],[[[-71.055717,42.353474],[-71.055698,42.353461],[-71.05554,42.353484],[-71.055527,42.353507],[-71.055462,42.35353],[-71.05548,42.353543],[-71.055619,42.353523],[-71.055632,42.3535],[-71.055717,42.353474]]],[[[-71.055436,42.353644],[-71.055418,42.353624],[-71.055373,42.353621],[-71.055244,42.35364],[-71.055189,42.353657],[-71.055147,42.3537],[-71.05517,42.353717],[-71.055348,42.353691],[-71.055436,42.353644]]]]},"properties":{"kind":"tree"}}]}