{"type":"FeatureCollection","features":[{"type":"Feature","geometry":{"type":"MultiPolygon","coordinates":[[[[-71.067835,42.351759],[-71.067812,42.351625],[-71.067552,42.351039],[-71.066747,42.351106],[-71.066228,42.351167],[-71.066279,42.350983],[-71.067276,42.350888],[-71.067244,42.350559],[-71.066495,42.350545],[-71.066085,42.350579],[-71.066491,42.350536],[-71.066473,42.350316],[-71.066092,42.350342],[-71.06609,42.350314],[-71.066006,42.350319],[-71.066035,42.350209],[-71.066965,42.350132],[-71.066921,42.349791],[-71.066941,42.349764],[-71.066882,42.349697],[-71.066842,42.349701],[-71.066825,42.349682],[-71.066124,42.34974],[-71.066135,42.349686],[-71.066263,42.349675],[-71.06634,42.349651],[-71.066351,42.349614],[-71.066303,42.349457],[-71.066309,42.349431],[-71.066286,42.349428],[-71.066252,42.349368],[-71.066051,42.349385],[-71.065989,42.349405],[-71.065994,42.349414],[-71.065521,42.349461],[-71.065506,42.349531],[-71.064997,42.349453],[-71.064751,42.349473],[-71.064567,42.349298],[-71.065244,42.349242],[-71.065386,42.349169],[-71.065511,42.349159],[-71.065773,42.349036],[-71.065545,42.348771],[-71.065464,42.348778],[-71.065425,42.348676],[-71.065138,42.348605],[-71.064754,42.348559],[-71.064785,42.348439],[-71.065048,42.348422],[-71.065094,42.348475],[-71.06523,42.348467],[-71.065503,42.348412],[-71.065528,42.348382],[-71.065759,42.348363],[-71.065774,42.34834],[-71.065752,42.348444],[-71.065819,42.348453],[-71.065804,42.348522],[-71.0659,42.348533],[-71.065917,42.348586],[-71.066455,42.348649],[-71.067069,42.348598],[-71.067094,42.348478],[-71.066746,42.348437],[-71.066752,42.348392],[-71.066699,42.348387],[-71.066721,42.348282],[-71.066762,42.348278],[-71.06678,42.348186],[-71.066743,42.348182],[-71.066782,42.347999],[-71.066624,42.347979],[-71.065837,42.348044],[-71.065822,42.348114],[-71.065674,42.348091],[-71.065559,42.3481],[-71.065495,42.348024],[-71.065638,42.347931],[-71.065647,42.347893],[-71.065609,42.347817],[-71.06554,42.3478],[-71.065627,42.347738],[-71.065628,42.347651],[-71.065566,42.347617],[-71.065203,42.347561],[-71.064894,42.347587],[-71.064503,42.347783],[-71.064462,42.347878],[-71.063968,42.347919],[-71.063891,42.347982],[-71.063856,42.347985],[-71.063829,42.348081],[-71.063855,42.348085],[-71.063752,42.348081],[-71.063817,42.347848],[-71.063671,42.347825],[-71.06346,42.347843],[-71.063426,42.347968],[-71.063181,42.347909],[-71.063188,42.347891],[-71.063076,42.347855],[-71.062699,42.347772],[-71.062784,42.347564],[-71.06263,42.347528],[-71.061712,42.347604],[-71.061566,42.347954],[-71.061555,42.348046],[-71.061573,42.34805],[-71.061011,42.348097],[-71.060549,42.348739],[-71.060786,42.348796],[-71.06115,42.348766],[-71.061099,42.348884],[-71.060878,42.348902],[-71.060832,42.349021],[-71.060321,42.349063],[-71.060204,42.349326],[-71.059925,42.350048],[-71.060226,42.350142],[-71.060413,42.350126],[-71.06038,42.350207],[-71.060828,42.350333],[-71.061026,42.350317],[-71.061001,42.350379],[-71.061232,42.350437],[-71.061484,42.350494],[-71.061706,42.350476],[-71.061673,42.350559],[-71.062184,42.350689],[-71.062307,42.350679],[-71.062285,42.350707],[-71.062508,42.350769],[-71.062652,42.350757],[-71.062951,42.350799],[-71.063423,42.35076],[-71.063427,42.350808],[-71.063649,42.350841],[-71.063839,42.350825],[-71.063937,42.350869],[-71.064822,42.350958],[-71.065155,42.35093],[-71.065374,42.351002],[-71.065454,42.351007],[-71.064187,42.351112],[-71.064196,42.351068],[-71.063809,42.351027],[-71.063448,42.351057],[-71.06333,42.35104],[-71.063341,42.350999],[-71.06278,42.350902],[-71.062546,42.350921],[-71.062574,42.350853],[-71.06206,42.350726],[-71.061626,42.350763],[-71.061643,42.350708],[-71.061582,42.350664],[-71.061258,42.350582],[-71.061294,42.350494],[-71.061019,42.350417],[-71.060438,42.35046],[-71.060487,42.350336],[-71.060238,42.350265],[-71.059916,42.350292],[-71.059961,42.35018],[-71.059928,42.350142],[-71.059504,42.350048],[-71.059456,42.350052],[-71.05947,42.349976],[-71.059066,42.349887],[-71.058457,42.349938],[-71.058501,42.34982],[-71.058369,42.349789],[-71.05832,42.349793],[-71.05834,42.349692],[-71.058853,42.34965],[-71.058869,42.349609],[-71.059131,42.349587],[-71.05918,42.349464],[-71.059907,42.349403],[-71.059947,42.349374],[-71.059912,42.349341],[-71.059674,42.34936],[-71.05966,42.349332],[-71.059627,42.349325],[-71.059222,42.349359],[-71.058872,42.349274],[-71.058412,42.349312],[-71.058127,42.349249],[-71.057926,42.349266],[-71.057859,42.349433],[-71.058004,42.349465],[-71.057973,42.349541],[-71.057872,42.349548],[-71.057853,42.349597],[-71.057886,42.349604],[-71.057133,42.349667],[-71.056951,42.350086],[-71.056922,42.350095],[-71.056797,42.350339],[-71.056828,42.350343],[-71.056828,42.350358],[-71.056791,42.35035],[-71.057044,42.349748],[-71.057088,42.349569],[-71.057285,42.349186],[-71.057176,42.349195],[-71.057184,42.349165],[-71.057005,42.349115],[-71.056596,42.349149],[-71.055876,42.349355],[-71.057072,42.347571],[-71.057062,42.347512],[-71.056297,42.34723],[-71.055908,42.347262],[-71.054533,42.349309],[-71.054523,42.349404],[-71.054447,42.34941],[-71.053477,42.350853],[-71.054337,42.351171],[-71.054513,42.351156],[-71.054603,42.351023],[-71.054719,42.351013],[-71.055002,42.350651],[-71.055131,42.350459],[-71.055387,42.35065],[-71.05547,42.350683],[-71.055586,42.350703],[-71.056154,42.350689],[-71.056647,42.350639],[-71.056689,42.350554],[-71.056799,42.35053],[-71.056837,42.350382],[-71.056878,42.350421],[-71.056873,42.350442],[-71.057303,42.350549],[-71.057563,42.35053],[-71.057551,42.35059],[-71.057417,42.350557],[-71.057353,42.35056],[-71.056835,42.350604],[-71.056678,42.350643],[-71.05656,42.350888],[-71.056738,42.350932],[-71.056543,42.350948],[-71.056401,42.351249],[-71.056551,42.35131],[-71.056294,42.351331],[-71.056202,42.351514],[-71.056125,42.351493],[-71.055498,42.351545],[-71.054479,42.351779],[-71.054307,42.351954],[-71.054833,42.352232],[-71.054993,42.352283],[-71.055161,42.352308],[-71.055788,42.352256],[-71.05589,42.352233],[-71.055846,42.352326],[-71.055909,42.352342],[-71.055876,42.352367],[-71.056034,42.352612],[-71.056155,42.352609],[-71.056276,42.352641],[-71.05742,42.352546],[-71.058003,42.352389],[-71.058033,42.35235],[-71.058802,42.352279],[-71.058775,42.35235],[-71.059279,42.352439],[-71.059472,42.352423],[-71.059474,42.352434],[-71.058176,42.352542],[-71.058071,42.352594],[-71.058041,42.352701],[-71.05756,42.352748],[-71.05731,42.352888],[-71.057163,42.352943],[-71.05712,42.352979],[-71.0571,42.353025],[-71.056237,42.353097],[-71.055998,42.353225],[-71.056013,42.353284],[-71.055897,42.353294],[-71.055573,42.353469],[-71.055599,42.353496],[-71.055413,42.353597],[-71.055342,42.353603],[-71.054915,42.353838],[-71.054965,42.353888],[-71.054776,42.353908],[-71.054378,42.354122],[-71.054355,42.354162],[-71.054364,42.354206],[-71.054619,42.354471],[-71.054686,42.354485],[-71.055008,42.354458],[-71.055,42.354478],[-71.054951,42.354482],[-71.054775,42.354643],[-71.05498,42.354839],[-71.055564,42.35479],[-71.055688,42.355479],[-71.055803,42.355484],[-71.057813,42.355311],[-71.057919,42.355283],[-71.057904,42.355204],[-71.058698,42.355138],[-71.059228,42.355368],[-71.059721,42.355327],[-71.059754,42.355296],[-71.060289,42.355252],[-71.060481,42.355389],[-71.060767,42.355366],[-71.060955,42.355196],[-71.061169,42.355174],[-71.061198,42.355147],[-71.061373,42.355233],[-71.061925,42.355187],[-71.061995,42.35511],[-71.062184,42.355207],[-71.062611,42.355172],[-71.062636,42.355144],[-71.062691,42.355175],[-71.062983,42.355151],[-71.063118,42.355222],[-71.063636,42.355179],[-71.063695,42.355102],[-71.063546,42.355025],[-71.064091,42.354974],[-71.064221,42.354734],[-71.064924,42.354676],[-71.064958,42.354584],[-71.065168,42.354566],[-71.065457,42.35403],[-71.065077,42.353928],[-71.064903,42.353936],[-71.064959,42.353805],[-71.064805,42.353757],[-71.065008,42.35374],[-71.065031,42.353709],[-71.065114,42.353541],[-71.064965,42.353495],[-71.065751,42.35343],[-71.06579,42.353177],[-71.065428,42.353166],[-71.064738,42.353223],[-71.064759,42.353168],[-71.06508,42.353142],[-71.065147,42.353062],[-71.065178,42.352976],[-71.064932,42.35293],[-71.065116,42.352914],[-71.065132,42.352862],[-71.065302,42.352848],[-71.065286,42.352891],[-71.065312,42.352972],[-71.065378,42.352986],[-71.065487,42.352977],[-71.06553,42.352862],[-71.065425,42.352838],[-71.066119,42.35278],[-71.066173,42.352683],[-71.066109,42.352388],[-71.066614,42.352346],[-71.066616,42.352321],[-71.066726,42.352312],[-71.066773,42.352024],[-71.066581,42.352014],[-71.066591,42.35186],[-71.066494,42.351854],[-71.066497,42.35183],[-71.066847,42.351871],[-71.067652,42.351804],[-71.067835,42.351759]],[[-71.065491,42.350629],[-71.065254,42.350648],[-71.065264,42.350612],[-71.065234,42.3506],[-71.065491,42.350629]],[[-71.065379,42.350062],[-71.065367,42.350106],[-71.065143,42.350125],[-71.06509,42.350106],[-71.065122,42.350083],[-71.065379,42.350062]],[[-71.065082,42.352335],[-71.064785,42.352325],[-71.064554,42.352344],[-71.064544,42.352314],[-71.064202,42.352312],[-71.061949,42.352522],[-71.061932,42.352396],[-71.062961,42.35231],[-71.062979,42.352301],[-71.063011,42.352196],[-71.063461,42.352245],[-71.063544,42.352238],[-71.063567,42.352256],[-71.063953,42.352267],[-71.064176,42.352257],[-71.064172,42.352275],[-71.064449,42.352283],[-71.064697,42.352262],[-71.064683,42.352315],[-71.065082,42.352335]],[[-71.064643,42.348204],[-71.064497,42.348267],[-71.064466,42.348292],[-71.064451,42.348348],[-71.063902,42.34839],[-71.063913,42.348345],[-71.063323,42.348255],[-71.063437,42.348246],[-71.063448,42.348206],[-71.06402,42.348291],[-71.064285,42.348269],[-71.064312,42.348169],[-71.064355,42.348166],[-71.06434,42.34822],[-71.064376,42.348226],[-71.064643,42.348204]],[[-71.063897,42.353276],[-71.063407,42.353317],[-71.063435,42.35324],[-71.063897,42.353276]],[[-71.06379,42.353803],[-71.063609,42.353818],[-71.063496,42.353999],[-71.063345,42.353967],[-71.06321,42.353979],[-71.063066,42.353969],[-71.06345,42.353937],[-71.063486,42.353777],[-71.063668,42.353767],[-71.06379,42.353803]],[[-71.063631,42.351352],[-71.063628,42.351369],[-71.063568,42.351361],[-71.063571,42.351346],[-71.063631,42.351352]],[[-71.063531,42.348928],[-71.063443,42.348935],[-71.063456,42.348911],[-71.063424,42.348902],[-71.063445,42.348858],[-71.062989,42.348731],[-71.063365,42.348783],[-71.063521,42.34877],[-71.063505,42.348828],[-71.063531,42.348928]],[[-71.063422,42.351331],[-71.063396,42.351333],[-71.063397,42.351329],[-71.063422,42.351331]],[[-71.063399,42.348066],[-71.063384,42.348125],[-71.063318,42.34813],[-71.062964,42.348087],[-71.063053,42.34808],[-71.063098,42.348094],[-71.063399,42.348066]],[[-71.062956,42.348221],[-71.062615,42.348249],[-71.062631,42.348208],[-71.062519,42.348184],[-71.062422,42.348192],[-71.062487,42.348036],[-71.062703,42.348018],[-71.062689,42.348052],[-71.062855,42.348091],[-71.062667,42.348107],[-71.06264,42.348175],[-71.062761,42.348192],[-71.062861,42.348184],[-71.062855,42.348206],[-71.062956,42.348221]],[[-71.062789,42.348697],[-71.062425,42.348727],[-71.062234,42.34916],[-71.062177,42.349173],[-71.062037,42.349142],[-71.062054,42.349101],[-71.062041,42.349098],[-71.062096,42.34897],[-71.062046,42.348959],[-71.062189,42.348947],[-71.062306,42.348696],[-71.062221,42.348676],[-71.062262,42.348578],[-71.062371,42.348569],[-71.062404,42.348493],[-71.062511,42.348484],[-71.062448,42.348644],[-71.062789,42.348697]],[[-71.062651,42.353036],[-71.062647,42.353112],[-71.062193,42.353147],[-71.062208,42.353075],[-71.062651,42.353036]],[[-71.062502,42.351476],[-71.061818,42.351499],[-71.061815,42.351481],[-71.061629,42.351438],[-71.061139,42.351478],[-71.060671,42.351378],[-71.060571,42.351387],[-71.060587,42.351303],[-71.060481,42.351278],[-71.060628,42.351266],[-71.060611,42.351308],[-71.061072,42.351411],[-71.06136,42.351387],[-71.06138,42.351406],[-71.062202,42.351375],[-71.062219,42.351417],[-71.062502,42.351476]],[[-71.062398,42.353731],[-71.062396,42.353733],[-71.062392,42.353731],[-71.062398,42.353731]],[[-71.062218,42.352137],[-71.062197,42.352174],[-71.061977,42.352193],[-71.061927,42.352152],[-71.062218,42.352137]],[[-71.06172,42.350879],[-71.06154,42.350894],[-71.061507,42.350983],[-71.061265,42.350938],[-71.060932,42.350965],[-71.060936,42.350956],[-71.060909,42.35095],[-71.060923,42.350894],[-71.060864,42.350881],[-71.060901,42.350788],[-71.061055,42.350822],[-71.061196,42.35081],[-71.061192,42.350822],[-71.061312,42.35085],[-71.06157,42.350831],[-71.061565,42.350845],[-71.06172,42.350879]],[[-71.061661,42.348723],[-71.061658,42.34873],[-71.061637,42.348725],[-71.061661,42.348723]],[[-71.061591,42.351871],[-71.061532,42.351876],[-71.061529,42.351852],[-71.061585,42.35185],[-71.061591,42.351871]],[[-71.061531,42.35487],[-71.061492,42.354873],[-71.061508,42.354858],[-71.061531,42.35487]],[[-71.061039,42.353243],[-71.060695,42.353272],[-71.060622,42.353237],[-71.060733,42.353228],[-71.060819,42.353135],[-71.061039,42.353243]],[[-71.060871,42.353062],[-71.060838,42.353099],[-71.060829,42.353094],[-71.060871,42.353062]],[[-71.060724,42.351653],[-71.060699,42.351658],[-71.060709,42.351692],[-71.060656,42.351696],[-71.060641,42.351656],[-71.060724,42.351653]],[[-71.060433,42.351271],[-71.060432,42.351271],[-71.060432,42.351271],[-71.060433,42.351271]],[[-71.060268,42.35123],[-71.060267,42.351231],[-71.060263,42.35123],[-71.060268,42.35123]],[[-71.060223,42.351223],[-71.059758,42.351262],[-71.059709,42.351391],[-71.059761,42.351756],[-71.058724,42.351848],[-71.058768,42.351715],[-71.058936,42.351701],[-71.059148,42.351496],[-71.059298,42.3513],[-71.059416,42.35107],[-71.059011,42.35098],[-71.058912,42.350988],[-71.058929,42.350943],[-71.059143,42.350991],[-71.0596,42.350953],[-71.059655,42.350937],[-71.059829,42.350507],[-71.059789,42.350634],[-71.060019,42.350684],[-71.060185,42.35067],[-71.059972,42.351168],[-71.060223,42.351223]],[[-71.060209,42.35061],[-71.060208,42.350612],[-71.060203,42.350611],[-71.060209,42.35061]],[[-71.059808,42.353246],[-71.059671,42.353257],[-71.059622,42.35324],[-71.057809,42.353391],[-71.057804,42.35337],[-71.057843,42.353366],[-71.058062,42.353264],[-71.059165,42.353272],[-71.059771,42.353227],[-71.059808,42.353246]],[[-71.059639,42.354292],[-71.059412,42.354485],[-71.059324,42.354492],[-71.059403,42.354418],[-71.059254,42.354307],[-71.059213,42.354293],[-71.059395,42.354312],[-71.059639,42.354292]],[[-71.058961,42.350189],[-71.058942,42.350234],[-71.058925,42.350236],[-71.058943,42.35019],[-71.058961,42.350189]],[[-71.058737,42.350741],[-71.058694,42.350848],[-71.058545,42.350823],[-71.058689,42.350811],[-71.058716,42.350743],[-71.058737,42.350741]],[[-71.057994,42.350721],[-71.05778,42.350739],[-71.057793,42.350672],[-71.057994,42.350721]],[[-71.057621,42.354463],[-71.057611,42.354479],[-71.056223,42.354594],[-71.057459,42.354491],[-71.057486,42.354475],[-71.057621,42.354463]],[[-71.056884,42.351974],[-71.056202,42.352031],[-71.056148,42.352051],[-71.056276,42.351816],[-71.056884,42.351974]],[[-71.056737,42.353458],[-71.056651,42.353498],[-71.056622,42.353468],[-71.056737,42.353458]],[[-71.056041,42.353787],[-71.056027,42.353793],[-71.056023,42.353788],[-71.056041,42.353787]]],[[[-71.065761,42.354331],[-71.06575,42.354302],[-71.065704,42.354283],[-71.065487,42.354301],[-71.065458,42.354314],[-71.065443,42.354342],[-71.065468,42.354381],[-71.065514,42.35439],[-71.065723,42.354371],[-71.065761,42.354331]]],[[[-71.059433,42.349717],[-71.05934,42.349687],[-71.059179,42.349693],[-71.059105,42.349866],[-71.059244,42.349899],[-71.059359,42.349889],[-71.059433,42.349717]]],[[[-71.059106,42.34862],[-71.058648,42.348519],[-71.057613,42.348605],[-71.057529,42.348814],[-71.057988,42.348915],[-71.059023,42.348829],[-71.059106,42.34862]]]]},"properties":{"kind":"building"}},{"type":"Feature","geometry":{"type":"MultiPolygon","coordinates":[[[[-71.066452,42.353418],[-71.066441,42.353377],[-71.066409,42.353342],[-71.066306,42.35331],[-71.065912,42.353343],[-71.06582,42.353369],[-71.065657,42.353383],[-71.065762,42.353347],[-71.065801,42.353285],[-71.066134,42.353263],[-71.0662,42.353242],[-71.066221,42.35322],[-71.066221,42.353167],[-71.066146,42.353125],[-71.06617,42.353105],[-71.066313,42.35309],[-71.066378,42.353042],[-71.066387,42.353008],[-71.066362,42.352957],[-71.066395,42.352926],[-71.066426,42.35284],[-71.066415,42.352799],[-71.066336,42.352741],[-71.06628,42.352732],[-71.066051,42.352751],[-71.06603,42.352718],[-71.065972,42.352701],[-71.065662,42.352729],[-71.065615,42.352773],[-71.065525,42.352783],[-71.065472,42.352821],[-71.065472,42.352877],[-71.065524,42.352915],[-71.065481,42.352931],[-71.065457,42.352973],[-71.065288,42.352997],[-71.065429,42.35298],[-71.065451,42.352964],[-71.06542,42.352886],[-71.065371,42.352856],[-71.065381,42.352835],[-71.065367,42.35281],[-71.065413,42.352797],[-71.065425,42.35275],[-71.065372,42.352723],[-71.065146,42.352742],[-71.065092,42.352768],[-71.065105,42.352816],[-71.065081,42.352852],[-71.065094,42.352876],[-71.065037,42.352902],[-71.064745,42.352926],[-71.06466,42.352952],[-71.064625,42.353015],[-71.064656,42.353073],[-71.064658,42.353148],[-71.064758,42.353233],[-71.064617,42.353248],[-71.064581,42.353265],[-71.064549,42.353323],[-71.064581,42.353381],[-71.064659,42.353405],[-71.065007,42.353376],[-71.065049,42.353369],[-71.065123,42.353319],[-71.065162,42.353379],[-71.065081,42.353409],[-71.064898,42.353439],[-71.064592,42.353467],[-71.064538,42.353508],[-71.06453,42.353536],[-71.064553,42.353581],[-71.064372,42.353606],[-71.064358,42.353658],[-71.064324,42.353692],[-71.064332,42.353737],[-71.064296,42.353748],[-71.06428,42.353777],[-71.064314,42.353815],[-71.064364,42.353815],[-71.064304,42.353823],[-71.064258,42.353857],[-71.064244,42.353968],[-71.064319,42.354005],[-71.064532,42.353987],[-71.064544,42.354002],[-71.064295,42.354023],[-71.064238,42.354041],[-71.064214,42.354083],[-71.06422,42.354106],[-71.064149,42.354121],[-71.064109,42.354151],[-71.064109,42.354193],[-71.064146,42.354221],[-71.064088,42.354236],[-71.064069,42.35427],[-71.064088,42.354304],[-71.064134,42.354331],[-71.063979,42.354357],[-71.063955,42.354399],[-71.063968,42.35443],[-71.063903,42.354482],[-71.063892,42.354523],[-71.063903,42.354564],[-71.063935,42.354599],[-71.063982,42.354623],[-71.064038,42.354631],[-71.064276,42.354611],[-71.064264,42.354635],[-71.064279,42.354662],[-71.064245,42.354669],[-71.064224,42.354639],[-71.064165,42.354621],[-71.063846,42.354649],[-71.0638,42.354683],[-71.063799,42.354727],[-71.063755,42.354758],[-71.063755,42.354802],[-71.063827,42.354838],[-71.064099,42.354815],[-71.064154,42.354798],[-71.064173,42.354744],[-71.064246,42.354751],[-71.064237,42.354801],[-71.064276,42.35483],[-71.064587,42.354808],[-71.064625,42.35478],[-71.064631,42.35476],[-71.06461,42.354722],[-71.064669,42.354692],[-71.064657,42.354648],[-71.064724,42.354639],[-71.064752,42.354618],[-71.064752,42.354589],[-71.064726,42.354569],[-71.064843,42.354558],[-71.064874,42.354535],[-71.065209,42.354506],[-71.065282,42.354471],[-71.0653,42.354439],[-71.065262,42.354396],[-71.065139,42.354394],[-71.065115,42.354365],[-71.065039,42.354342],[-71.064859,42.354357],[-71.064837,42.354342],[-71.065133,42.354312],[-71.065161,42.354291],[-71.06515,42.354249],[-71.065113,42.354238],[-71.064994,42.354248],[-71.064945,42.354232],[-71.064802,42.354244],[-71.064764,42.354178],[-71.064818,42.354174],[-71.064832,42.354195],[-71.064866,42.354206],[-71.064987,42.354196],[-71.065041,42.354222],[-71.065289,42.3542],[-71.065325,42.35416],[-71.065289,42.35412],[-71.064961,42.354126],[-71.064974,42.354091],[-71.064944,42.354037],[-71.065031,42.354018],[-71.065096,42.354039],[-71.065148,42.354035],[-71.065136,42.354081],[-71.06519,42.354107],[-71.065438,42.354085],[-71.065474,42.354045],[-71.065442,42.354007],[-71.065581,42.353994],[-71.065616,42.353968],[-71.065616,42.353932],[-71.065563,42.353903],[-71.065778,42.353884],[-71.06581,42.353849],[-71.065778,42.353813],[-71.065632,42.35381],[-71.065656,42.353792],[-71.065815,42.353777],[-71.065851,42.353737],[-71.065834,42.353707],[-71.065793,42.353694],[-71.065322,42.353742],[-71.06528,42.353789],[-71.0653,42.353825],[-71.065334,42.353837],[-71.065055,42.353883],[-71.065034,42.353837],[-71.064979,42.35382],[-71.064916,42.353825],[-71.064867,42.353776],[-71.064771,42.353777],[-71.064709,42.353752],[-71.064608,42.35376],[-71.064604,42.353743],[-71.064685,42.353708],[-71.064685,42.353672],[-71.064719,42.353638],[-71.064719,42.353603],[-71.064995,42.353578],[-71.065066,42.353521],[-71.065121,42.353557],[-71.065168,42.353564],[-71.065315,42.353552],[-71.065392,42.353608],[-71.065448,42.353616],[-71.065842,42.353583],[-71.065934,42.353557],[-71.066362,42.353518],[-71.066409,42.353495],[-71.066441,42.35346],[-71.066452,42.353418]],[[-71.065541,42.353903],[-71.065498,42.353907],[-71.065526,42.3539],[-71.065541,42.353903]],[[-71.065446,42.353128],[-71.065412,42.353141],[-71.065377,42.353109],[-71.065324,42.353109],[-71.065328,42.353094],[-71.065406,42.353088],[-71.065446,42.353128]],[[-71.064664,42.354028],[-71.064643,42.35403],[-71.064642,42.354028],[-71.064662,42.354027],[-71.064664,42.354028]],[[-71.064596,42.354424],[-71.064548,42.354428],[-71.064488,42.354391],[-71.064394,42.354385],[-71.064584,42.354365],[-71.064567,42.354392],[-71.064596,42.354424]]],[[[-71.066295,42.354951],[-71.066275,42.354916],[-71.066227,42.354901],[-71.065952,42.354925],[-71.06591,42.354972],[-71.06593,42.355008],[-71.065978,42.355022],[-71.066253,42.354998],[-71.066295,42.354951]]],[[[-71.066285,42.352575],[-71.066264,42.352536],[-71.066211,42.35252],[-71.066009,42.352517],[-71.065952,42.352496],[-71.065772,42.352511],[-71.065694,42.352483],[-71.065401,42.352507],[-71.065329,42.352483],[-71.064975,42.352515],[-71.064922,42.352553],[-71.064915,42.352581],[-71.064943,42.352632],[-71.065012,42.352653],[-71.065278,42.352631],[-71.065361,42.352664],[-71.065485,42.352653],[-71.06551,42.352708],[-71.065574,42.352727],[-71.065911,42.352697],[-71.065963,42.352651],[-71.066239,42.352626],[-71.066285,42.352575]]],[[[-71.066259,42.354435],[-71.066221,42.354367],[-71.066129,42.354339],[-71.065685,42.354379],[-71.065615,42.354431],[-71.065605,42.354468],[-71.065643,42.354536],[-71.065735,42.354564],[-71.066179,42.354524],[-71.066221,42.354503],[-71.066259,42.354435]]],[[[-71.066199,42.354046],[-71.066161,42.354017],[-71.065981,42.354032],[-71.06587,42.354048],[-71.06584,42.354081],[-71.065855,42.354106],[-71.065889,42.354117],[-71.066092,42.3541],[-71.066188,42.354066],[-71.066199,42.354046]]],[[[-71.066111,42.354134],[-71.066088,42.354117],[-71.065947,42.354129],[-71.065924,42.354146],[-71.065947,42.354163],[-71.066088,42.354151],[-71.066111,42.354134]]],[[[-71.066071,42.348018],[-71.066052,42.347984],[-71.066006,42.34797],[-71.06574,42.347994],[-71.0657,42.348038],[-71.065719,42.348072],[-71.065765,42.348086],[-71.066031,42.348062],[-71.066071,42.348018]]],[[[-71.066062,42.354811],[-71.066053,42.354777],[-71.065986,42.354727],[-71.065735,42.354737],[-71.065693,42.354691],[-71.065626,42.35469],[-71.065624,42.354651],[-71.065607,42.354631],[-71.065503,42.354592],[-71.065322,42.3546],[-71.065331,42.354555],[-71.065274,42.354527],[-71.065017,42.35455],[-71.064981,42.354588],[-71.064841,42.354613],[-71.064814,42.354661],[-71.064841,42.354709],[-71.06487,42.354723],[-71.065067,42.354715],[-71.06505,42.354744],[-71.064889,42.354766],[-71.064877,42.354811],[-71.064907,42.354833],[-71.065125,42.354819],[-71.065159,42.354843],[-71.065237,42.354843],[-71.06528,42.354882],[-71.065445,42.354875],[-71.065473,42.354907],[-71.06556,42.354934],[-71.065986,42.354896],[-71.066026,42.354876],[-71.066062,42.354811]]],[[[-71.066008,42.348162],[-71.065992,42.348133],[-71.065953,42.348121],[-71.065714,42.348142],[-71.06568,42.34818],[-71.065696,42.348209],[-71.065735,42.348221],[-71.065974,42.3482],[-71.066008,42.348162]]],[[[-71.065966,42.353922],[-71.065952,42.353897],[-71.065918,42.353886],[-71.065696,42.353906],[-71.06567,42.353925],[-71.06567,42.353953],[-71.06563,42.353965],[-71.065615,42.35399],[-71.06563,42.354015],[-71.065664,42.354026],[-71.065885,42.354006],[-71.065912,42.353987],[-71.065912,42.353959],[-71.065952,42.353948],[-71.065966,42.353922]]],[[[-71.065964,42.348427],[-71.065947,42.348397],[-71.065906,42.348384],[-71.065658,42.348406],[-71.065622,42.348446],[-71.065639,42.348477],[-71.06568,42.348489],[-71.065928,42.348467],[-71.065964,42.348427]]],[[[-71.065831,42.348284],[-71.065723,42.348251],[-71.065466,42.348274],[-71.065428,42.348316],[-71.065446,42.348348],[-71.06549,42.348362],[-71.065747,42.348339],[-71.065784,42.3483],[-71.065831,42.348284]]],[[[-71.065783,42.353646],[-71.065765,42.353613],[-71.065721,42.3536],[-71.065464,42.353623],[-71.065426,42.353665],[-71.065444,42.353697],[-71.065488,42.353711],[-71.065745,42.353688],[-71.065783,42.353646]]],[[[-71.065734,42.349221],[-71.06572,42.349196],[-71.065685,42.349185],[-71.065491,42.349203],[-71.065461,42.349236],[-71.065476,42.349261],[-71.06551,42.349272],[-71.065704,42.349255],[-71.065734,42.349221]]],[[[-71.065706,42.351213],[-71.065688,42.3512],[-71.06557,42.35121],[-71.065552,42.351223],[-71.06557,42.351236],[-71.065688,42.351227],[-71.065706,42.351213]]],[[[-71.065693,42.348949],[-71.065675,42.348936],[-71.065562,42.348957],[-71.06558,42.34897],[-71.065693,42.348949]]],[[[-71.065657,42.349086],[-71.065639,42.349073],[-71.065567,42.349079],[-71.065577,42.349039],[-71.065533,42.349017],[-71.065311,42.349037],[-71.065281,42.34907],[-71.065296,42.349095],[-71.06533,42.349106],[-71.065527,42.34909],[-71.065544,42.349107],[-71.065657,42.349086]]],[[[-71.065651,42.348101],[-71.065633,42.348088],[-71.06553,42.348097],[-71.065512,42.34811],[-71.06553,42.348123],[-71.065633,42.348115],[-71.065651,42.348101]]],[[[-71.065624,42.348434],[-71.065601,42.348417],[-71.06546,42.348429],[-71.065437,42.348446],[-71.06546,42.348463],[-71.065601,42.348451],[-71.065624,42.348434]]],[[[-71.065608,42.348775],[-71.065594,42.34875],[-71.065559,42.348739],[-71.065365,42.348757],[-71.065335,42.34879],[-71.06535,42.348815],[-71.065384,42.348826],[-71.065578,42.348809],[-71.065608,42.348775]]],[[[-71.065568,42.348926],[-71.065532,42.348899],[-71.065346,42.348916],[-71.065324,42.34894],[-71.06536,42.348966],[-71.065546,42.34895],[-71.065568,42.348926]]],[[[-71.065479,42.351201],[-71.065461,42.351187],[-71.06536,42.351189],[-71.06525,42.351197],[-71.065232,42.35121],[-71.06525,42.351223],[-71.065343,42.351222],[-71.065461,42.351214],[-71.065479,42.351201]]],[[[-71.065325,42.350708],[-71.065299,42.350688],[-71.06515,42.350701],[-71.065126,42.350727],[-71.06515,42.350739],[-71.065299,42.350727],[-71.065325,42.350708]]],[[[-71.0653,42.350772],[-71.065274,42.350752],[-71.065125,42.350765],[-71.065101,42.350791],[-71.065125,42.350803],[-71.065274,42.350791],[-71.0653,42.350772]]],[[[-71.065263,42.350842],[-71.065244,42.350828],[-71.06511,42.350839],[-71.065091,42.350853],[-71.06511,42.350867],[-71.065244,42.350856],[-71.065263,42.350842]]],[[[-71.065244,42.354958],[-71.065213,42.354904],[-71.06514,42.354882],[-71.064767,42.354915],[-71.064711,42.354957],[-71.064703,42.354986],[-71.064734,42.35504],[-71.064807,42.355063],[-71.06518,42.355029],[-71.065213,42.355013],[-71.065244,42.354958]]],[[[-71.065055,42.351301],[-71.065037,42.351287],[-71.064926,42.351297],[-71.064908,42.35131],[-71.064926,42.351323],[-71.065037,42.351314],[-71.065055,42.351301]]],[[[-71.06496,42.348447],[-71.064942,42.348434],[-71.064839,42.348443],[-71.064821,42.348456],[-71.064839,42.348469],[-71.064942,42.348461],[-71.06496,42.348447]]],[[[-71.064842,42.354788],[-71.064824,42.354775],[-71.064721,42.354784],[-71.064703,42.354797],[-71.064721,42.35481],[-71.064824,42.354802],[-71.064842,42.354788]]],[[[-71.064727,42.351817],[-71.064709,42.351804],[-71.064606,42.351813],[-71.064588,42.351826],[-71.064606,42.351839],[-71.064709,42.351831],[-71.064727,42.351817]]],[[[-71.064724,42.348416],[-71.064706,42.348403],[-71.064603,42.348412],[-71.064585,42.348425],[-71.064603,42.348438],[-71.064706,42.34843],[-71.064724,42.348416]]],[[[-71.064698,42.352093],[-71.064679,42.352079],[-71.064545,42.35209],[-71.064526,42.352104],[-71.064545,42.352118],[-71.064679,42.352107],[-71.064698,42.352093]]],[[[-71.064679,42.352046],[-71.064661,42.352032],[-71.06455,42.352042],[-71.064532,42.352055],[-71.06455,42.352068],[-71.064661,42.352059],[-71.064679,42.352046]]],[[[-71.064651,42.352151],[-71.064633,42.352138],[-71.06453,42.352147],[-71.064512,42.35216],[-71.06453,42.352173],[-71.064633,42.352165],[-71.064651,42.352151]]],[[[-71.064539,42.34839],[-71.064521,42.348377],[-71.064418,42.348386],[-71.0644,42.348399],[-71.064418,42.348412],[-71.064521,42.348404],[-71.064539,42.34839]]],[[[-71.06435,42.348708],[-71.064327,42.348691],[-71.064186,42.348703],[-71.064163,42.34872],[-71.064186,42.348737],[-71.064327,42.348725],[-71.06435,42.348708]]],[[[-71.064341,42.350916],[-71.064323,42.350903],[-71.06425,42.350909],[-71.064227,42.350878],[-71.064151,42.350882],[-71.064114,42.350859],[-71.063919,42.350876],[-71.063895,42.350903],[-71.063919,42.35093],[-71.064021,42.350925],[-71.06405,42.350938],[-71.064202,42.350925],[-71.06422,42.350938],[-71.064323,42.35093],[-71.064341,42.350916]]],[[[-71.064294,42.34883],[-71.064276,42.348816],[-71.06415,42.348827],[-71.064132,42.34884],[-71.06415,42.348853],[-71.064276,42.348843],[-71.064294,42.34883]]],[[[-71.064214,42.35329],[-71.064196,42.353276],[-71.064135,42.353281],[-71.064128,42.35326],[-71.064082,42.353262],[-71.06407,42.353241],[-71.06392,42.353251],[-71.063897,42.353268],[-71.06392,42.353285],[-71.063978,42.35328],[-71.063995,42.353296],[-71.064056,42.353291],[-71.064063,42.353312],[-71.064196,42.353303],[-71.064214,42.35329]]],[[[-71.064183,42.353379],[-71.064164,42.353365],[-71.064054,42.353364],[-71.064036,42.35335],[-71.06391,42.353361],[-71.063892,42.353374],[-71.064023,42.353403],[-71.064164,42.353393],[-71.064183,42.353379]]],[[[-71.064124,42.35375],[-71.064106,42.353736],[-71.06398,42.353747],[-71.063962,42.35376],[-71.06398,42.353773],[-71.064106,42.353763],[-71.064124,42.35375]]],[[[-71.064087,42.353953],[-71.064054,42.353929],[-71.06389,42.353943],[-71.06386,42.353958],[-71.06386,42.353976],[-71.06389,42.353991],[-71.064054,42.353977],[-71.064087,42.353953]]],[[[-71.064049,42.348664],[-71.06403,42.34865],[-71.063896,42.348661],[-71.063877,42.348675],[-71.063896,42.348689],[-71.06403,42.348678],[-71.064049,42.348664]]],[[[-71.064034,42.348731],[-71.064011,42.348714],[-71.06387,42.348726],[-71.063847,42.348743],[-71.06387,42.34876],[-71.064011,42.348748],[-71.064034,42.348731]]],[[[-71.064013,42.348859],[-71.063994,42.348845],[-71.06386,42.348856],[-71.063841,42.34887],[-71.06386,42.348884],[-71.063994,42.348873],[-71.064013,42.348859]]],[[[-71.063976,42.348784],[-71.063958,42.348771],[-71.063855,42.34878],[-71.063837,42.348793],[-71.063855,42.348806],[-71.063958,42.348798],[-71.063976,42.348784]]],[[[-71.063965,42.354108],[-71.063939,42.354088],[-71.06379,42.354101],[-71.063766,42.354127],[-71.06379,42.354139],[-71.063939,42.354127],[-71.063965,42.354108]]],[[[-71.063924,42.349139],[-71.063906,42.349126],[-71.063803,42.349135],[-71.063785,42.349148],[-71.063803,42.349161],[-71.063906,42.349153],[-71.063924,42.349139]]],[[[-71.063911,42.348418],[-71.063893,42.348405],[-71.063815,42.348411],[-71.063821,42.348401],[-71.063803,42.348388],[-71.0637,42.348397],[-71.063682,42.34841],[-71.0637,42.348423],[-71.063778,42.348417],[-71.063772,42.348427],[-71.06379,42.34844],[-71.063893,42.348432],[-71.063911,42.348418]]],[[[-71.063872,42.350869],[-71.063852,42.350847],[-71.063695,42.35085],[-71.063669,42.350832],[-71.063496,42.350857],[-71.06351,42.350882],[-71.063644,42.350888],[-71.063675,42.350907],[-71.063852,42.350892],[-71.063872,42.350869]]],[[[-71.063871,42.349284],[-71.063853,42.349271],[-71.06375,42.34928],[-71.063732,42.349293],[-71.06375,42.349306],[-71.063853,42.349298],[-71.063871,42.349284]]],[[[-71.063858,42.349326],[-71.06384,42.349313],[-71.063737,42.349322],[-71.063719,42.349335],[-71.063737,42.349348],[-71.06384,42.34934],[-71.063858,42.349326]]],[[[-71.063823,42.349749],[-71.063804,42.349735],[-71.06367,42.349746],[-71.063651,42.34976],[-71.06367,42.349774],[-71.063804,42.349763],[-71.063823,42.349749]]],[[[-71.063758,42.349844],[-71.06374,42.34983],[-71.063614,42.349841],[-71.063596,42.349854],[-71.063614,42.349867],[-71.06374,42.349857],[-71.063758,42.349844]]],[[[-71.063744,42.354685],[-71.06373,42.35466],[-71.063695,42.354649],[-71.063501,42.354667],[-71.063471,42.3547],[-71.063486,42.354725],[-71.06352,42.354736],[-71.063714,42.354719],[-71.063744,42.354685]]],[[[-71.063713,42.349939],[-71.063694,42.349925],[-71.06356,42.349936],[-71.063541,42.34995],[-71.06356,42.349964],[-71.063694,42.349953],[-71.063713,42.349939]]],[[[-71.063684,42.354785],[-71.06367,42.35476],[-71.063635,42.354749],[-71.063441,42.354767],[-71.063411,42.3548],[-71.063426,42.354825],[-71.06346,42.354836],[-71.063654,42.354819],[-71.063684,42.354785]]],[[[-71.063674,42.34999],[-71.063656,42.349976],[-71.06353,42.349987],[-71.063512,42.35],[-71.06353,42.350013],[-71.063656,42.350003],[-71.063674,42.34999]]],[[[-71.063584,42.350408],[-71.063566,42.350394],[-71.06344,42.350405],[-71.063292,42.35044],[-71.06331,42.350453],[-71.063421,42.350444],[-71.063584,42.350408]]],[[[-71.063576,42.35017],[-71.063558,42.350157],[-71.06344,42.350167],[-71.063422,42.35018],[-71.06344,42.350193],[-71.063558,42.350184],[-71.063576,42.35017]]],[[[-71.063552,42.350477],[-71.063534,42.350464],[-71.063416,42.350473],[-71.063398,42.35046],[-71.06328,42.35047],[-71.063262,42.350483],[-71.06328,42.350496],[-71.063398,42.350487],[-71.063416,42.3505],[-71.063534,42.350491],[-71.063552,42.350477]]],[[[-71.063546,42.350236],[-71.063528,42.350223],[-71.06341,42.350233],[-71.063392,42.350246],[-71.06341,42.350259],[-71.063528,42.35025],[-71.063546,42.350236]]],[[[-71.06354,42.350752],[-71.063511,42.35073],[-71.063343,42.350745],[-71.063325,42.350765],[-71.063354,42.350787],[-71.063522,42.350772],[-71.06354,42.350752]]],[[[-71.063535,42.350814],[-71.063509,42.350794],[-71.06336,42.350807],[-71.063336,42.350833],[-71.06336,42.350845],[-71.063509,42.350833],[-71.063535,42.350814]]],[[[-71.063521,42.35027],[-71.063503,42.350257],[-71.063385,42.350267],[-71.063367,42.35028],[-71.063385,42.350293],[-71.063503,42.350284],[-71.063521,42.35027]]],[[[-71.063514,42.350541],[-71.063496,42.350527],[-71.063385,42.350537],[-71.063391,42.350526],[-71.063373,42.350513],[-71.063255,42.350523],[-71.063237,42.350536],[-71.063255,42.350549],[-71.063373,42.35054],[-71.063367,42.35055],[-71.063385,42.350563],[-71.063496,42.350554],[-71.063514,42.350541]]],[[[-71.063503,42.350693],[-71.063484,42.350679],[-71.06335,42.35069],[-71.063331,42.350704],[-71.06335,42.350718],[-71.063484,42.350707],[-71.063503,42.350693]]],[[[-71.063479,42.350601],[-71.063461,42.350587],[-71.06335,42.350597],[-71.063192,42.35063],[-71.06321,42.350643],[-71.063336,42.350633],[-71.063479,42.350601]]],[[[-71.063374,42.350572],[-71.063356,42.350558],[-71.06323,42.350569],[-71.063212,42.350582],[-71.06323,42.350595],[-71.063356,42.350585],[-71.063374,42.350572]]],[[[-71.063296,42.350717],[-71.063278,42.350704],[-71.06316,42.350714],[-71.063142,42.350727],[-71.06316,42.35074],[-71.063278,42.350731],[-71.063296,42.350717]]],[[[-71.063293,42.350669],[-71.063275,42.350656],[-71.063162,42.350677],[-71.06318,42.35069],[-71.063293,42.350669]]],[[[-71.063283,42.350754],[-71.063264,42.35074],[-71.06313,42.350751],[-71.063111,42.350765],[-71.06313,42.350779],[-71.063264,42.350768],[-71.063283,42.350754]]],[[[-71.063255,42.352229],[-71.063237,42.352215],[-71.062965,42.35224],[-71.062947,42.352253],[-71.062965,42.352266],[-71.063065,42.352263],[-71.063176,42.352254],[-71.063255,42.352229]]],[[[-71.06304,42.35221],[-71.063022,42.352197],[-71.062948,42.352193],[-71.06283,42.352202],[-71.062812,42.352215],[-71.062897,42.352232],[-71.063022,42.352224],[-71.06304,42.35221]]],[[[-71.062963,42.353291],[-71.062944,42.353277],[-71.062881,42.353277],[-71.06274,42.353289],[-71.062717,42.353306],[-71.06274,42.353323],[-71.062944,42.353305],[-71.062963,42.353291]]],[[[-71.062963,42.353203],[-71.062885,42.353183],[-71.062744,42.353193],[-71.062725,42.353207],[-71.062803,42.353227],[-71.062944,42.353217],[-71.062963,42.353203]]],[[[-71.062716,42.348341],[-71.062687,42.348319],[-71.06237,42.348344],[-71.062331,42.348373],[-71.06237,42.348402],[-71.06255,42.348387],[-71.062698,42.348361],[-71.062716,42.348341]]],[[[-71.062683,42.349357],[-71.062657,42.349329],[-71.06256,42.349333],[-71.062576,42.349295],[-71.062537,42.349276],[-71.062334,42.349294],[-71.062308,42.349323],[-71.062334,42.349352],[-71.062431,42.349347],[-71.062415,42.349385],[-71.062454,42.349404],[-71.062657,42.349386],[-71.062683,42.349357]]],[[[-71.062604,42.348545],[-71.062581,42.348528],[-71.06244,42.34854],[-71.062417,42.348557],[-71.06244,42.348574],[-71.062581,42.348562],[-71.062604,42.348545]]],[[[-71.062173,42.353741],[-71.062154,42.353727],[-71.06202,42.353738],[-71.062001,42.353752],[-71.06202,42.353766],[-71.062154,42.353755],[-71.062173,42.353741]]],[[[-71.062116,42.349533],[-71.062102,42.349508],[-71.062067,42.349497],[-71.061873,42.349515],[-71.061843,42.349548],[-71.061858,42.349573],[-71.061892,42.349584],[-71.062086,42.349567],[-71.062116,42.349533]]],[[[-71.062109,42.349297],[-71.062091,42.349284],[-71.061988,42.349293],[-71.06197,42.349306],[-71.061988,42.349319],[-71.062091,42.349311],[-71.062109,42.349297]]],[[[-71.062091,42.353851],[-71.062073,42.353838],[-71.06197,42.353847],[-71.061952,42.35386],[-71.06197,42.353873],[-71.062073,42.353865],[-71.062091,42.353851]]],[[[-71.062058,42.353689],[-71.062039,42.353675],[-71.061905,42.353686],[-71.061886,42.3537],[-71.061905,42.353714],[-71.062039,42.353703],[-71.062058,42.353689]]],[[[-71.062054,42.349429],[-71.062036,42.349416],[-71.061933,42.349425],[-71.061915,42.349438],[-71.061933,42.349451],[-71.062036,42.349443],[-71.062054,42.349429]]],[[[-71.062046,42.348296],[-71.062018,42.348265],[-71.061862,42.348274],[-71.061847,42.34825],[-71.061808,42.348238],[-71.061599,42.348256],[-71.061614,42.348225],[-71.061584,42.34821],[-71.06142,42.348224],[-71.06139,42.348239],[-71.061397,42.348265],[-71.06142,42.348272],[-71.061568,42.34826],[-71.061539,42.348281],[-71.061539,42.348313],[-71.06159,42.348338],[-71.061764,42.348323],[-71.061806,42.348346],[-71.062001,42.348329],[-71.062033,42.34832],[-71.062046,42.348296]]],[[[-71.062043,42.353814],[-71.062024,42.3538],[-71.06189,42.353811],[-71.061871,42.353825],[-71.06189,42.353839],[-71.062024,42.353828],[-71.062043,42.353814]]],[[[-71.062031,42.349871],[-71.062013,42.349858],[-71.06191,42.349867],[-71.061892,42.34988],[-71.06191,42.349893],[-71.062013,42.349885],[-71.062031,42.349871]]],[[[-71.062001,42.349917],[-71.061983,42.349904],[-71.06188,42.349913],[-71.061862,42.349926],[-71.06188,42.349939],[-71.061983,42.349931],[-71.062001,42.349917]]],[[[-71.061995,42.349991],[-71.061977,42.349978],[-71.061874,42.349987],[-71.061856,42.35],[-71.061874,42.350013],[-71.061977,42.350005],[-71.061995,42.349991]]],[[[-71.061971,42.350035],[-71.061953,42.350022],[-71.06185,42.350031],[-71.061832,42.350044],[-71.06185,42.350057],[-71.061953,42.350049],[-71.061971,42.350035]]],[[[-71.061968,42.350277],[-71.06193,42.350248],[-71.061735,42.350265],[-71.061714,42.350281],[-71.061722,42.350312],[-71.061688,42.350322],[-71.061675,42.350346],[-71.061688,42.35037],[-71.06172,42.35038],[-71.061932,42.350361],[-71.061957,42.350343],[-71.061947,42.350306],[-71.061968,42.350277]]],[[[-71.061959,42.353642],[-71.06194,42.353628],[-71.061806,42.353639],[-71.061787,42.353653],[-71.061806,42.353667],[-71.06194,42.353656],[-71.061959,42.353642]]],[[[-71.061941,42.350071],[-71.061923,42.350058],[-71.06182,42.350067],[-71.061802,42.35008],[-71.06182,42.350093],[-71.061923,42.350085],[-71.061941,42.350071]]],[[[-71.061941,42.349651],[-71.061927,42.349626],[-71.061892,42.349615],[-71.061698,42.349633],[-71.061668,42.349666],[-71.061683,42.349691],[-71.061717,42.349702],[-71.061911,42.349685],[-71.061941,42.349651]]],[[[-71.061934,42.353592],[-71.06192,42.353567],[-71.061885,42.353556],[-71.061691,42.353574],[-71.061661,42.353607],[-71.061676,42.353632],[-71.06171,42.353643],[-71.061904,42.353626],[-71.061934,42.353592]]],[[[-71.061931,42.353774],[-71.061913,42.353761],[-71.06181,42.35377],[-71.061792,42.353783],[-71.06181,42.353796],[-71.061913,42.353788],[-71.061931,42.353774]]],[[[-71.061919,42.350147],[-71.061901,42.350134],[-71.061788,42.350155],[-71.061806,42.350168],[-71.061919,42.350147]]],[[[-71.061901,42.350191],[-71.061883,42.350178],[-71.06178,42.350187],[-71.061762,42.3502],[-71.06178,42.350213],[-71.061883,42.350205],[-71.061901,42.350191]]],[[[-71.061879,42.348632],[-71.061867,42.34861],[-71.061837,42.348601],[-71.06165,42.348617],[-71.061503,42.348639],[-71.061475,42.34867],[-71.061488,42.348694],[-71.06152,42.348704],[-71.061715,42.348687],[-71.061853,42.348661],[-71.061879,42.348632]]],[[[-71.061873,42.348412],[-71.061855,42.348399],[-71.061752,42.348408],[-71.061734,42.348421],[-71.061752,42.348434],[-71.061855,42.348426],[-71.061873,42.348412]]],[[[-71.06185,42.353729],[-71.061832,42.353716],[-71.061729,42.353725],[-71.061711,42.353738],[-71.061729,42.353751],[-71.061832,42.353743],[-71.06185,42.353729]]],[[[-71.061746,42.35354],[-71.061728,42.353527],[-71.06161,42.353537],[-71.061592,42.35355],[-71.06161,42.353563],[-71.061728,42.353554],[-71.061746,42.35354]]],[[[-71.061723,42.349553],[-71.061693,42.34952],[-71.061624,42.349522],[-71.061611,42.349494],[-71.061576,42.349483],[-71.061382,42.349501],[-71.061352,42.349534],[-71.061382,42.349567],[-71.061451,42.349566],[-71.061465,42.349593],[-71.061499,42.349604],[-71.061693,42.349587],[-71.061723,42.349553]]],[[[-71.061715,42.348174],[-71.061697,42.348161],[-71.0617,42.348113],[-71.061643,42.348085],[-71.061386,42.348108],[-71.061348,42.34815],[-71.061366,42.348182],[-71.06141,42.348196],[-71.061561,42.348183],[-71.061579,42.348197],[-71.061697,42.348188],[-71.061715,42.348174]]],[[[-71.061713,42.348828],[-71.061647,42.348807],[-71.06146,42.348823],[-71.06143,42.348832],[-71.061418,42.348854],[-71.06143,42.348876],[-71.06146,42.348885],[-71.061647,42.34887],[-71.061713,42.348828]]],[[[-71.061711,42.348491],[-71.061693,42.348478],[-71.06159,42.348487],[-71.061572,42.3485],[-71.06159,42.348513],[-71.061693,42.348505],[-71.061711,42.348491]]],[[[-71.061634,42.350938],[-71.061611,42.350921],[-71.06147,42.350933],[-71.061447,42.35095],[-71.06147,42.350967],[-71.061611,42.350955],[-71.061634,42.350938]]],[[[-71.061556,42.349245],[-71.061538,42.349232],[-71.06142,42.349242],[-71.061402,42.349255],[-71.06142,42.349268],[-71.061538,42.349259],[-71.061556,42.349245]]],[[[-71.061533,42.349041],[-71.061514,42.349027],[-71.06138,42.349038],[-71.061361,42.349052],[-71.06138,42.349066],[-71.061514,42.349055],[-71.061533,42.349041]]],[[[-71.061521,42.351113],[-71.061503,42.3511],[-71.0614,42.351109],[-71.061382,42.351122],[-71.0614,42.351135],[-71.061503,42.351127],[-71.061521,42.351113]]],[[[-71.061506,42.349215],[-71.061477,42.349193],[-71.061309,42.349208],[-71.061291,42.349228],[-71.06132,42.34925],[-71.061488,42.349235],[-71.061506,42.349215]]],[[[-71.0615,42.351171],[-71.061482,42.351158],[-71.061379,42.351167],[-71.061361,42.35118],[-71.061379,42.351193],[-71.061482,42.351185],[-71.0615,42.351171]]],[[[-71.061474,42.351231],[-71.061456,42.351218],[-71.061353,42.351227],[-71.061335,42.35124],[-71.061353,42.351253],[-71.061456,42.351245],[-71.061474,42.351231]]],[[[-71.061471,42.349421],[-71.061453,42.349408],[-71.06135,42.349417],[-71.061332,42.34943],[-71.06135,42.349443],[-71.061453,42.349435],[-71.061471,42.349421]]],[[[-71.061455,42.35128],[-71.061437,42.351267],[-71.061334,42.351276],[-71.061316,42.351289],[-71.061334,42.351302],[-71.061437,42.351294],[-71.061455,42.35128]]],[[[-71.061409,42.349814],[-71.061397,42.349792],[-71.061367,42.349783],[-71.061164,42.349801],[-71.061138,42.34983],[-71.06115,42.349852],[-71.06118,42.349861],[-71.061383,42.349843],[-71.061409,42.349814]]],[[[-71.061393,42.349621],[-71.061375,42.349607],[-71.061264,42.349617],[-71.061246,42.34963],[-71.061264,42.349643],[-71.061375,42.349634],[-71.061393,42.349621]]],[[[-71.061372,42.349669],[-71.061354,42.349655],[-71.061243,42.349665],[-71.061225,42.349678],[-71.061243,42.349691],[-71.061354,42.349682],[-71.061372,42.349669]]],[[[-71.061366,42.350013],[-71.061351,42.349985],[-71.061314,42.349974],[-71.061084,42.349995],[-71.061052,42.35003],[-71.061067,42.350057],[-71.061104,42.350068],[-71.061334,42.350048],[-71.061366,42.350013]]],[[[-71.061347,42.353361],[-71.061329,42.353348],[-71.061226,42.353357],[-71.061208,42.35337],[-71.061226,42.353383],[-71.061329,42.353375],[-71.061347,42.353361]]],[[[-71.061341,42.354765],[-71.061323,42.354752],[-71.06122,42.354761],[-71.061202,42.354774],[-71.06122,42.354787],[-71.061323,42.354779],[-71.061341,42.354765]]],[[[-71.061291,42.354907],[-71.061273,42.354894],[-71.06117,42.354903],[-71.061152,42.354916],[-71.06117,42.354929],[-71.061273,42.354921],[-71.061291,42.354907]]],[[[-71.061291,42.353335],[-71.061273,42.353322],[-71.06117,42.353331],[-71.061152,42.353344],[-71.06117,42.353357],[-71.061273,42.353349],[-71.061291,42.353335]]],[[[-71.061242,42.348585],[-71.061227,42.348557],[-71.06119,42.348546],[-71.06096,42.348567],[-71.060928,42.348602],[-71.060943,42.348629],[-71.06098,42.34864],[-71.06121,42.34862],[-71.061242,42.348585]]],[[[-71.061241,42.353311],[-71.061223,42.353298],[-71.06112,42.353307],[-71.061102,42.35332],[-71.06112,42.353333],[-71.061223,42.353325],[-71.061241,42.353311]]],[[[-71.061223,42.348699],[-71.061207,42.34867],[-71.061168,42.348658],[-71.060929,42.348679],[-71.060895,42.348717],[-71.060911,42.348746],[-71.06095,42.348758],[-71.061189,42.348737],[-71.061223,42.348699]]],[[[-71.061166,42.353265],[-71.061148,42.353252],[-71.06103,42.353262],[-71.061012,42.353275],[-71.06103,42.353288],[-71.061148,42.353279],[-71.061166,42.353265]]],[[[-71.061141,42.348481],[-71.061123,42.348468],[-71.06102,42.348477],[-71.061002,42.34849],[-71.06102,42.348503],[-71.061123,42.348495],[-71.061141,42.348481]]],[[[-71.061129,42.348811],[-71.061117,42.348789],[-71.061087,42.34878],[-71.060884,42.348798],[-71.060858,42.348827],[-71.06087,42.348849],[-71.0609,42.348858],[-71.061103,42.34884],[-71.061129,42.348811]]],[[[-71.061104,42.349153],[-71.061083,42.349115],[-71.061032,42.3491],[-71.060749,42.349125],[-71.060705,42.349174],[-71.060725,42.349211],[-71.060776,42.349227],[-71.061059,42.349201],[-71.061104,42.349153]]],[[[-71.061091,42.353354],[-71.061073,42.353341],[-71.06097,42.35335],[-71.060952,42.353363],[-71.06097,42.353376],[-71.061073,42.353368],[-71.061091,42.353354]]],[[[-71.061041,42.353211],[-71.061023,42.353198],[-71.06092,42.353207],[-71.060902,42.35322],[-71.06092,42.353233],[-71.061023,42.353225],[-71.061041,42.353211]]],[[[-71.061034,42.353321],[-71.061016,42.353307],[-71.060905,42.353317],[-71.060887,42.35333],[-71.060905,42.353343],[-71.061016,42.353334],[-71.061034,42.353321]]],[[[-71.060965,42.353293],[-71.060947,42.35328],[-71.060844,42.353289],[-71.060826,42.353302],[-71.060844,42.353315],[-71.060947,42.353307],[-71.060965,42.353293]]],[[[-71.060908,42.349375],[-71.060894,42.34935],[-71.060859,42.349339],[-71.060665,42.349357],[-71.060522,42.349407],[-71.06054,42.34942],[-71.060643,42.349412],[-71.060684,42.349426],[-71.060878,42.349409],[-71.060908,42.349375]]],[[[-71.060897,42.349489],[-71.060883,42.349464],[-71.060849,42.349453],[-71.060646,42.34947],[-71.060502,42.349503],[-71.06052,42.349516],[-71.060598,42.34951],[-71.060612,42.349531],[-71.060646,42.349542],[-71.060867,42.349522],[-71.060897,42.349489]]],[[[-71.060811,42.349653],[-71.060797,42.349628],[-71.060763,42.349617],[-71.060591,42.349631],[-71.060573,42.349618],[-71.06047,42.349627],[-71.060452,42.34964],[-71.06047,42.349653],[-71.060521,42.349649],[-71.060515,42.349684],[-71.06056,42.349706],[-71.060781,42.349686],[-71.060811,42.349653]]],[[[-71.060792,42.349775],[-71.060777,42.349747],[-71.06074,42.349736],[-71.06051,42.349757],[-71.060478,42.349792],[-71.060493,42.349819],[-71.06053,42.34983],[-71.06076,42.34981],[-71.060792,42.349775]]],[[[-71.060731,42.349251],[-71.060713,42.349238],[-71.06061,42.349247],[-71.060592,42.34926],[-71.06061,42.349273],[-71.060713,42.349265],[-71.060731,42.349251]]],[[[-71.060711,42.349291],[-71.060693,42.349278],[-71.06059,42.349287],[-71.060572,42.3493],[-71.06059,42.349313],[-71.060693,42.349305],[-71.060711,42.349291]]],[[[-71.060701,42.353031],[-71.060683,42.353018],[-71.06058,42.353027],[-71.060562,42.35304],[-71.06058,42.353053],[-71.060683,42.353045],[-71.060701,42.353031]]],[[[-71.060691,42.349333],[-71.060673,42.34932],[-71.06057,42.349329],[-71.060552,42.349342],[-71.06057,42.349355],[-71.060673,42.349347],[-71.060691,42.349333]]],[[[-71.060659,42.349444],[-71.060641,42.34943],[-71.06053,42.34944],[-71.060512,42.349453],[-71.06053,42.349466],[-71.060641,42.349457],[-71.060659,42.349444]]],[[[-71.060621,42.352988],[-71.060603,42.352975],[-71.0605,42.352984],[-71.060482,42.352997],[-71.0605,42.35301],[-71.060603,42.353002],[-71.060621,42.352988]]],[[[-71.060619,42.353274],[-71.060601,42.35326],[-71.06049,42.35327],[-71.060472,42.353283],[-71.06049,42.353296],[-71.060601,42.353287],[-71.060619,42.353274]]],[[[-71.060607,42.353141],[-71.060589,42.353128],[-71.060486,42.353137],[-71.060468,42.35315],[-71.060486,42.353163],[-71.060589,42.353155],[-71.060607,42.353141]]],[[[-71.060607,42.349591],[-71.060589,42.349578],[-71.060486,42.349587],[-71.060468,42.3496],[-71.060486,42.349613],[-71.060589,42.349605],[-71.060607,42.349591]]],[[[-71.060607,42.349547],[-71.060589,42.349534],[-71.060486,42.349543],[-71.060468,42.349556],[-71.060486,42.349569],[-71.060589,42.349561],[-71.060607,42.349547]]],[[[-71.060598,42.35339],[-71.06056,42.353361],[-71.0604,42.353367],[-71.060352,42.353385],[-71.060341,42.353405],[-71.060365,42.353431],[-71.060322,42.353447],[-71.06034,42.35346],[-71.060443,42.353452],[-71.060456,42.353429],[-71.060574,42.353417],[-71.060598,42.35339]]],[[[-71.060579,42.352965],[-71.060561,42.352951],[-71.06045,42.352961],[-71.060432,42.352974],[-71.06045,42.352987],[-71.060561,42.352978],[-71.060579,42.352965]]],[[[-71.060531,42.353091],[-71.060513,42.353078],[-71.06041,42.353087],[-71.060392,42.3531],[-71.06041,42.353113],[-71.060513,42.353105],[-71.060531,42.353091]]],[[[-71.060499,42.349875],[-71.060481,42.349861],[-71.06037,42.349871],[-71.060352,42.349884],[-71.06037,42.349897],[-71.060481,42.349888],[-71.060499,42.349875]]],[[[-71.060489,42.350135],[-71.060475,42.35011],[-71.060399,42.350103],[-71.06039,42.350084],[-71.060267,42.350095],[-71.060267,42.350114],[-71.060231,42.350125],[-71.060216,42.35015],[-71.060231,42.350175],[-71.060265,42.350186],[-71.060459,42.350169],[-71.060489,42.350135]]],[[[-71.060477,42.353061],[-71.060459,42.353048],[-71.060356,42.353057],[-71.060338,42.35307],[-71.060356,42.353083],[-71.060459,42.353075],[-71.060477,42.353061]]],[[[-71.060421,42.350028],[-71.060403,42.350015],[-71.0603,42.350024],[-71.060282,42.350037],[-71.0603,42.35005],[-71.060403,42.350042],[-71.060421,42.350028]]],[[[-71.060353,42.349455],[-71.060315,42.349426],[-71.06012,42.349443],[-71.060096,42.34947],[-71.060135,42.349499],[-71.060329,42.349482],[-71.060353,42.349455]]],[[[-71.0603,42.353394],[-71.060287,42.35337],[-71.060255,42.35336],[-71.060043,42.353379],[-71.060015,42.35341],[-71.060028,42.353434],[-71.06006,42.353444],[-71.060272,42.353425],[-71.0603,42.353394]]],[[[-71.060276,42.349543],[-71.060247,42.349521],[-71.060079,42.349536],[-71.060061,42.349556],[-71.06009,42.349578],[-71.060258,42.349563],[-71.060276,42.349543]]],[[[-71.060261,42.352953],[-71.060243,42.35294],[-71.06014,42.352949],[-71.060122,42.352962],[-71.06014,42.352975],[-71.060243,42.352967],[-71.060261,42.352953]]],[[[-71.060258,42.34963],[-71.060222,42.349603],[-71.060036,42.34962],[-71.060014,42.349644],[-71.06005,42.34967],[-71.060236,42.349654],[-71.060258,42.34963]]],[[[-71.060159,42.351028],[-71.060147,42.351006],[-71.060117,42.350997],[-71.059914,42.351015],[-71.059888,42.351044],[-71.0599,42.351066],[-71.05993,42.351075],[-71.060133,42.351057],[-71.060159,42.351028]]],[[[-71.06005,42.351123],[-71.060024,42.351103],[-71.059875,42.351116],[-71.059851,42.351142],[-71.059875,42.351154],[-71.060024,42.351142],[-71.06005,42.351123]]],[[[-71.060009,42.353244],[-71.059997,42.353222],[-71.059967,42.353213],[-71.059764,42.353231],[-71.059738,42.35326],[-71.05975,42.353282],[-71.05978,42.353291],[-71.059983,42.353273],[-71.060009,42.353244]]],[[[-71.059961,42.353291],[-71.059943,42.353278],[-71.05984,42.353287],[-71.059822,42.3533],[-71.05984,42.353313],[-71.059943,42.353305],[-71.059961,42.353291]]],[[[-71.059869,42.352744],[-71.059734,42.352708],[-71.059616,42.352717],[-71.059603,42.35274],[-71.059506,42.352758],[-71.059491,42.352783],[-71.059506,42.352808],[-71.05954,42.352819],[-71.059715,42.352804],[-71.05975,42.352794],[-71.059764,42.352768],[-71.059869,42.352744]]],[[[-71.059826,42.354941],[-71.059808,42.354921],[-71.059779,42.354921],[-71.059777,42.354889],[-71.059727,42.354854],[-71.05955,42.354866],[-71.05952,42.354881],[-71.05952,42.354899],[-71.059567,42.354937],[-71.059617,42.354942],[-71.059629,42.354974],[-71.059808,42.354961],[-71.059826,42.354941]]],[[[-71.059824,42.351695],[-71.05981,42.35167],[-71.059775,42.351659],[-71.0596,42.351674],[-71.059527,42.351695],[-71.059505,42.351675],[-71.059364,42.351687],[-71.059341,42.351704],[-71.059364,42.351721],[-71.059505,42.351709],[-71.0596,42.351746],[-71.059794,42.351729],[-71.059824,42.351695]]],[[[-71.059727,42.351586],[-71.059694,42.351562],[-71.059518,42.351578],[-71.059498,42.351602],[-71.05942,42.351609],[-71.059406,42.351634],[-71.05943,42.351646],[-71.059589,42.351632],[-71.059707,42.351609],[-71.059727,42.351586]]],[[[-71.059647,42.354799],[-71.059627,42.354777],[-71.059587,42.354778],[-71.059594,42.354751],[-71.059564,42.354736],[-71.059569,42.354709],[-71.05955,42.354694],[-71.05935,42.354709],[-71.059328,42.354733],[-71.059339,42.354752],[-71.059376,42.354758],[-71.059377,42.354791],[-71.059428,42.354796],[-71.05942,42.354822],[-71.059438,42.354835],[-71.059627,42.354822],[-71.059647,42.354799]]],[[[-71.059621,42.351088],[-71.059603,42.351075],[-71.0595,42.351084],[-71.059482,42.351097],[-71.0595,42.35111],[-71.059603,42.351102],[-71.059621,42.351088]]],[[[-71.059581,42.351161],[-71.059563,42.351148],[-71.05946,42.351157],[-71.059442,42.35117],[-71.05946,42.351183],[-71.059563,42.351175],[-71.059581,42.351161]]],[[[-71.059531,42.353091],[-71.059513,42.353078],[-71.05941,42.353087],[-71.059392,42.3531],[-71.05941,42.353113],[-71.059513,42.353105],[-71.059531,42.353091]]],[[[-71.059521,42.353001],[-71.059503,42.352988],[-71.0594,42.352997],[-71.059382,42.35301],[-71.0594,42.353023],[-71.059503,42.353015],[-71.059521,42.353001]]],[[[-71.059464,42.351768],[-71.059441,42.351751],[-71.0593,42.351763],[-71.059277,42.35178],[-71.0593,42.351797],[-71.059441,42.351785],[-71.059464,42.351768]]],[[[-71.059421,42.351273],[-71.059391,42.35124],[-71.059345,42.351239],[-71.059357,42.351199],[-71.059313,42.351177],[-71.059091,42.351197],[-71.059061,42.35123],[-71.059091,42.351263],[-71.059137,42.351264],[-71.059121,42.35129],[-71.059146,42.351321],[-71.059106,42.351332],[-71.059091,42.351357],[-71.059106,42.351382],[-71.05914,42.351393],[-71.059361,42.351373],[-71.059391,42.35134],[-71.059367,42.35131],[-71.059407,42.351299],[-71.059421,42.351273]]],[[[-71.059287,42.353285],[-71.059269,42.353272],[-71.059191,42.353278],[-71.059173,42.353265],[-71.05909,42.353262],[-71.05898,42.35327],[-71.058962,42.353283],[-71.05898,42.353296],[-71.059148,42.353294],[-71.059166,42.353307],[-71.059269,42.353299],[-71.059287,42.353285]]],[[[-71.059257,42.354371],[-71.059224,42.354347],[-71.05906,42.354361],[-71.05903,42.354376],[-71.05903,42.354394],[-71.05906,42.354409],[-71.059224,42.354395],[-71.059257,42.354371]]],[[[-71.059215,42.351505],[-71.059189,42.351485],[-71.05904,42.351498],[-71.059016,42.351524],[-71.05904,42.351536],[-71.059189,42.351524],[-71.059215,42.351505]]],[[[-71.059201,42.351451],[-71.059183,42.351438],[-71.05908,42.351447],[-71.059062,42.35146],[-71.05908,42.351473],[-71.059183,42.351465],[-71.059201,42.351451]]],[[[-71.059178,42.35159],[-71.059142,42.351563],[-71.058956,42.35158],[-71.058934,42.351604],[-71.058956,42.351628],[-71.058912,42.351646],[-71.05893,42.351659],[-71.059048,42.35165],[-71.059061,42.351627],[-71.059156,42.351614],[-71.059178,42.35159]]],[[[-71.059121,42.354323],[-71.059103,42.35431],[-71.059,42.354319],[-71.058982,42.354332],[-71.059,42.354345],[-71.059103,42.354337],[-71.059121,42.354323]]],[[[-71.059093,42.354279],[-71.059074,42.354265],[-71.05894,42.354276],[-71.058921,42.35429],[-71.05894,42.354304],[-71.059074,42.354293],[-71.059093,42.354279]]],[[[-71.059087,42.351676],[-71.059054,42.351652],[-71.058878,42.351668],[-71.05886,42.351681],[-71.058867,42.351707],[-71.058825,42.351719],[-71.058817,42.351748],[-71.058767,42.35177],[-71.058767,42.35179],[-71.0588,42.351806],[-71.058986,42.35179],[-71.059005,42.351756],[-71.059055,42.351734],[-71.059047,42.351705],[-71.059087,42.351676]]],[[[-71.058967,42.353259],[-71.058949,42.353246],[-71.05885,42.353247],[-71.05874,42.353255],[-71.058722,42.353268],[-71.05874,42.353281],[-71.058839,42.35328],[-71.058949,42.353273],[-71.058967,42.353259]]],[[[-71.058934,42.35183],[-71.058896,42.351801],[-71.058701,42.351818],[-71.058677,42.351845],[-71.058716,42.351874],[-71.05891,42.351857],[-71.058934,42.35183]]],[[[-71.058857,42.351892],[-71.058824,42.351868],[-71.058648,42.351884],[-71.058599,42.351936],[-71.058761,42.351935],[-71.058837,42.351915],[-71.058857,42.351892]]],[[[-71.058803,42.351979],[-71.058787,42.35195],[-71.058748,42.351938],[-71.058509,42.351959],[-71.05844,42.35204],[-71.058397,42.35205],[-71.058395,42.352074],[-71.058352,42.352097],[-71.05837,42.35211],[-71.058652,42.352089],[-71.058677,42.352071],[-71.058677,42.352046],[-71.058787,42.352008],[-71.058803,42.351979]]],[[[-71.058671,42.352521],[-71.058653,42.352508],[-71.058451,42.352511],[-71.058353,42.35249],[-71.05825,42.352499],[-71.058232,42.352512],[-71.05825,42.352525],[-71.058312,42.35252],[-71.05841,42.352541],[-71.058653,42.352535],[-71.058671,42.352521]]],[[[-71.058633,42.352469],[-71.058614,42.352455],[-71.05849,42.352465],[-71.058473,42.352448],[-71.05837,42.352446],[-71.05826,42.352454],[-71.058242,42.352467],[-71.05826,42.35248],[-71.058462,42.352476],[-71.05848,42.352494],[-71.058614,42.352483],[-71.058633,42.352469]]],[[[-71.058391,42.350901],[-71.058373,42.350888],[-71.05827,42.350897],[-71.058252,42.35091],[-71.05827,42.350923],[-71.058373,42.350915],[-71.058391,42.350901]]],[[[-71.058321,42.350878],[-71.058303,42.350865],[-71.0582,42.350874],[-71.058182,42.350887],[-71.0582,42.3509],[-71.058303,42.350892],[-71.058321,42.350878]]],[[[-71.058141,42.352656],[-71.058123,42.352643],[-71.05802,42.352652],[-71.058002,42.352665],[-71.05802,42.352678],[-71.058123,42.35267],[-71.058141,42.352656]]],[[[-71.058135,42.352759],[-71.058117,42.352746],[-71.058014,42.352755],[-71.057996,42.352768],[-71.058014,42.352781],[-71.058117,42.352773],[-71.058135,42.352759]]],[[[-71.058111,42.352896],[-71.058093,42.352883],[-71.05799,42.352892],[-71.057972,42.352905],[-71.05799,42.352918],[-71.058093,42.35291],[-71.058111,42.352896]]],[[[-71.057906,42.350684],[-71.05786,42.350673],[-71.05785,42.350656],[-71.05774,42.350664],[-71.057722,42.350677],[-71.057768,42.350688],[-71.057778,42.350705],[-71.057888,42.350698],[-71.057906,42.350684]]],[[[-71.057899,42.352214],[-71.057873,42.352194],[-71.057724,42.352207],[-71.0577,42.352233],[-71.057724,42.352245],[-71.057873,42.352233],[-71.057899,42.352214]]],[[[-71.05778,42.352177],[-71.057762,42.352157],[-71.057676,42.352162],[-71.057677,42.352134],[-71.057603,42.352133],[-71.057589,42.35211],[-71.057514,42.352114],[-71.057524,42.352089],[-71.057497,42.352075],[-71.057329,42.35209],[-71.057311,42.35211],[-71.057329,42.35213],[-71.057414,42.352125],[-71.057406,42.352147],[-71.05742,42.352158],[-71.057486,42.352155],[-71.0575,42.352178],[-71.057575,42.352174],[-71.057567,42.352198],[-71.057594,42.352212],[-71.057762,42.352197],[-71.05778,42.352177]]],[[[-71.057517,42.350394],[-71.057499,42.350381],[-71.057396,42.35039],[-71.057378,42.350403],[-71.057396,42.350416],[-71.057499,42.350408],[-71.057517,42.350394]]],[[[-71.057501,42.350485],[-71.057483,42.350472],[-71.05738,42.350481],[-71.057362,42.350494],[-71.05738,42.350507],[-71.057483,42.350499],[-71.057501,42.350485]]],[[[-71.057459,42.351698],[-71.057441,42.351684],[-71.05733,42.351694],[-71.057312,42.351707],[-71.05733,42.35172],[-71.057441,42.351711],[-71.057459,42.351698]]],[[[-71.057441,42.351741],[-71.057423,42.351728],[-71.05732,42.351737],[-71.057302,42.35175],[-71.05732,42.351763],[-71.057423,42.351755],[-71.057441,42.351741]]],[[[-71.057416,42.350915],[-71.057398,42.350902],[-71.05728,42.350912],[-71.057262,42.350925],[-71.05728,42.350938],[-71.057398,42.350929],[-71.057416,42.350915]]],[[[-71.057412,42.351888],[-71.057394,42.351875],[-71.057291,42.351884],[-71.057273,42.351897],[-71.057291,42.35191],[-71.057394,42.351902],[-71.057412,42.351888]]],[[[-71.057393,42.351947],[-71.057375,42.351934],[-71.057262,42.351955],[-71.05728,42.351968],[-71.057393,42.351947]]],[[[-71.057386,42.351053],[-71.057368,42.35104],[-71.05725,42.35105],[-71.057232,42.351063],[-71.05725,42.351076],[-71.057368,42.351067],[-71.057386,42.351053]]],[[[-71.057311,42.351401],[-71.057293,42.351388],[-71.05719,42.351397],[-71.057172,42.35141],[-71.05719,42.351423],[-71.057293,42.351415],[-71.057311,42.351401]]],[[[-71.057301,42.350541],[-71.057283,42.350528],[-71.057188,42.350536],[-71.057197,42.350524],[-71.057179,42.350511],[-71.057076,42.35052],[-71.057058,42.350533],[-71.057076,42.350546],[-71.057171,42.350539],[-71.057162,42.35055],[-71.05718,42.350563],[-71.057283,42.350555],[-71.057301,42.350541]]],[[[-71.05725,42.350623],[-71.057232,42.35061],[-71.057129,42.350619],[-71.057111,42.350632],[-71.057129,42.350645],[-71.057232,42.350637],[-71.05725,42.350623]]],[[[-71.057187,42.349889],[-71.057154,42.349865],[-71.05699,42.349879],[-71.05696,42.349894],[-71.05696,42.349912],[-71.05699,42.349927],[-71.057154,42.349913],[-71.057187,42.349889]]],[[[-71.057141,42.349831],[-71.057123,42.349818],[-71.05702,42.349827],[-71.057002,42.34984],[-71.05702,42.349853],[-71.057123,42.349845],[-71.057141,42.349831]]],[[[-71.057008,42.349745],[-71.05697,42.349716],[-71.056775,42.349733],[-71.056751,42.34976],[-71.05679,42.349789],[-71.056984,42.349772],[-71.057008,42.349745]]],[[[-71.056994,42.352018],[-71.056976,42.352004],[-71.05685,42.352015],[-71.056832,42.352028],[-71.05685,42.352041],[-71.056976,42.352031],[-71.056994,42.352018]]],[[[-71.056957,42.349826],[-71.056924,42.349802],[-71.05676,42.349816],[-71.05673,42.349831],[-71.05673,42.349849],[-71.05676,42.349864],[-71.056924,42.34985],[-71.056957,42.349826]]],[[[-71.056949,42.3499],[-71.056935,42.349875],[-71.0569,42.349864],[-71.056706,42.349882],[-71.056676,42.349915],[-71.056691,42.34994],[-71.056725,42.349951],[-71.056919,42.349934],[-71.056949,42.3499]]],[[[-71.056937,42.350221],[-71.056919,42.350208],[-71.056816,42.350217],[-71.056798,42.35023],[-71.056816,42.350243],[-71.056919,42.350235],[-71.056937,42.350221]]],[[[-71.056904,42.349991],[-71.05689,42.349966],[-71.056855,42.349955],[-71.056661,42.349973],[-71.056631,42.350006],[-71.056646,42.350031],[-71.05668,42.350042],[-71.056874,42.350025],[-71.056904,42.349991]]],[[[-71.056901,42.350298],[-71.056883,42.350285],[-71.05678,42.350294],[-71.056762,42.350307],[-71.05678,42.35032],[-71.056883,42.350312],[-71.056901,42.350298]]],[[[-71.056866,42.351984],[-71.056848,42.351971],[-71.05673,42.351981],[-71.056712,42.351994],[-71.05673,42.352007],[-71.056848,42.351998],[-71.056866,42.351984]]],[[[-71.056816,42.350081],[-71.056787,42.350059],[-71.056619,42.350074],[-71.056601,42.350094],[-71.05663,42.350116],[-71.056798,42.350101],[-71.056816,42.350081]]],[[[-71.056787,42.350171],[-71.056754,42.350147],[-71.05659,42.350161],[-71.05656,42.350176],[-71.05656,42.350194],[-71.05659,42.350209],[-71.056754,42.350195],[-71.056787,42.350171]]],[[[-71.056775,42.353191],[-71.056749,42.353171],[-71.0566,42.353184],[-71.056576,42.35321],[-71.0566,42.353222],[-71.056749,42.35321],[-71.056775,42.353191]]],[[[-71.056769,42.350603],[-71.056751,42.350589],[-71.056625,42.3506],[-71.056607,42.350613],[-71.056625,42.350626],[-71.056751,42.350616],[-71.056769,42.350603]]],[[[-71.056734,42.35067],[-71.056716,42.350656],[-71.05659,42.350667],[-71.056572,42.35068],[-71.05659,42.350693],[-71.056716,42.350683],[-71.056734,42.35067]]],[[[-71.056734,42.350819],[-71.05672,42.350794],[-71.056685,42.350783],[-71.056491,42.350801],[-71.056461,42.350834],[-71.056476,42.350859],[-71.05651,42.35087],[-71.056704,42.350853],[-71.056734,42.350819]]],[[[-71.056693,42.353154],[-71.056674,42.35314],[-71.05654,42.353151],[-71.056521,42.353165],[-71.05654,42.353179],[-71.056674,42.353168],[-71.056693,42.353154]]],[[[-71.056618,42.353116],[-71.056599,42.353102],[-71.056465,42.353113],[-71.056446,42.353127],[-71.056465,42.353141],[-71.056599,42.35313],[-71.056618,42.353116]]],[[[-71.056594,42.35191],[-71.056576,42.351896],[-71.05647,42.351905],[-71.056482,42.351897],[-71.056472,42.35188],[-71.05637,42.351887],[-71.056352,42.3519],[-71.05637,42.351913],[-71.056445,42.351907],[-71.056433,42.351915],[-71.056443,42.351932],[-71.056576,42.351923],[-71.056594,42.35191]]],[[[-71.056534,42.353078],[-71.056511,42.353061],[-71.05637,42.353073],[-71.056347,42.35309],[-71.05637,42.353107],[-71.056511,42.353095],[-71.056534,42.353078]]],[[[-71.056531,42.351021],[-71.056513,42.351008],[-71.05641,42.351017],[-71.056392,42.35103],[-71.05641,42.351043],[-71.056513,42.351035],[-71.056531,42.351021]]],[[[-71.056524,42.351087],[-71.056506,42.351073],[-71.05638,42.351084],[-71.056362,42.351097],[-71.05638,42.35111],[-71.056506,42.3511],[-71.056524,42.351087]]],[[[-71.056467,42.351167],[-71.056449,42.351154],[-71.056346,42.351163],[-71.056328,42.351176],[-71.056346,42.351189],[-71.056449,42.351181],[-71.056467,42.351167]]],[[[-71.056464,42.35492],[-71.056446,42.354906],[-71.05632,42.354917],[-71.056302,42.35493],[-71.05632,42.354943],[-71.056446,42.354933],[-71.056464,42.35492]]],[[[-71.056455,42.354658],[-71.056429,42.354638],[-71.05628,42.354651],[-71.056256,42.354677],[-71.05628,42.354689],[-71.056429,42.354677],[-71.056455,42.354658]]],[[[-71.056454,42.354826],[-71.056436,42.354812],[-71.05631,42.354823],[-71.056292,42.354836],[-71.05631,42.354849],[-71.056436,42.354839],[-71.056454,42.354826]]],[[[-71.056443,42.354739],[-71.056424,42.354725],[-71.05629,42.354736],[-71.056271,42.35475],[-71.05629,42.354764],[-71.056424,42.354753],[-71.056443,42.354739]]],[[[-71.056382,42.350832],[-71.056364,42.350818],[-71.056238,42.350829],[-71.05622,42.350842],[-71.056238,42.350855],[-71.056364,42.350845],[-71.056382,42.350832]]],[[[-71.056369,42.351367],[-71.056351,42.351353],[-71.05624,42.351363],[-71.056222,42.351376],[-71.05624,42.351389],[-71.056351,42.35138],[-71.056369,42.351367]]],[[[-71.056352,42.350923],[-71.056334,42.350909],[-71.056208,42.35092],[-71.05619,42.350933],[-71.056208,42.350946],[-71.056334,42.350936],[-71.056352,42.350923]]],[[[-71.056351,42.353041],[-71.056333,42.353028],[-71.05623,42.353037],[-71.056212,42.35305],[-71.05623,42.353063],[-71.056333,42.353055],[-71.056351,42.353041]]],[[[-71.05635,42.351402],[-71.056332,42.351388],[-71.056221,42.351398],[-71.056203,42.351411],[-71.056221,42.351424],[-71.056332,42.351415],[-71.05635,42.351402]]],[[[-71.056319,42.351441],[-71.056301,42.351427],[-71.05619,42.351437],[-71.056172,42.35145],[-71.05619,42.351463],[-71.056301,42.351454],[-71.056319,42.351441]]],[[[-71.056312,42.351026],[-71.056294,42.351012],[-71.056168,42.351023],[-71.05615,42.351036],[-71.056168,42.351049],[-71.056294,42.351039],[-71.056312,42.351026]]],[[[-71.056274,42.351135],[-71.056256,42.351121],[-71.05613,42.351132],[-71.056112,42.351145],[-71.05613,42.351158],[-71.056256,42.351148],[-71.056274,42.351135]]],[[[-71.056189,42.351701],[-71.056171,42.351687],[-71.05606,42.351697],[-71.056042,42.35171],[-71.05606,42.351723],[-71.056171,42.351714],[-71.056189,42.351701]]],[[[-71.056103,42.351345],[-71.056085,42.351331],[-71.055959,42.351342],[-71.055941,42.351355],[-71.055959,42.351368],[-71.056085,42.351358],[-71.056103,42.351345]]],[[[-71.056079,42.351402],[-71.056061,42.351388],[-71.055935,42.351399],[-71.055917,42.351412],[-71.055935,42.351425],[-71.056061,42.351415],[-71.056079,42.351402]]],[[[-71.056046,42.351472],[-71.056028,42.351458],[-71.055902,42.351469],[-71.055884,42.351482],[-71.055902,42.351495],[-71.056028,42.351485],[-71.056046,42.351472]]],[[[-71.056044,42.352211],[-71.05603,42.352186],[-71.055995,42.352175],[-71.055801,42.352193],[-71.055737,42.352276],[-71.055752,42.352301],[-71.055786,42.352312],[-71.05598,42.352295],[-71.056044,42.352211]]],[[[-71.056014,42.351551],[-71.055996,42.351537],[-71.05587,42.351548],[-71.055852,42.351561],[-71.05587,42.351574],[-71.055996,42.351564],[-71.056014,42.351551]]],[[[-71.055985,42.351612],[-71.055967,42.351598],[-71.055841,42.351609],[-71.055823,42.351622],[-71.055841,42.351635],[-71.055967,42.351625],[-71.055985,42.351612]]],[[[-71.055953,42.353322],[-71.05592,42.353298],[-71.055756,42.353312],[-71.055726,42.353327],[-71.055726,42.353345],[-71.055756,42.35336],[-71.05592,42.353346],[-71.055953,42.353322]]],[[[-71.055934,42.351717],[-71.055916,42.351703],[-71.05579,42.351714],[-71.055772,42.351727],[-71.05579,42.35174],[-71.055916,42.35173],[-71.055934,42.351717]]],[[[-71.055914,42.351766],[-71.055896,42.351752],[-71.05577,42.351763],[-71.055752,42.351776],[-71.05577,42.351789],[-71.055896,42.351779],[-71.055914,42.351766]]],[[[-71.055881,42.353381],[-71.055852,42.353359],[-71.055684,42.353374],[-71.055666,42.353394],[-71.055674,42.353409],[-71.055607,42.35343],[-71.055626,42.353444],[-71.05576,42.353433],[-71.055774,42.353409],[-71.055863,42.353401],[-71.055881,42.353381]]],[[[-71.055684,42.353487],[-71.055666,42.353473],[-71.05554,42.353484],[-71.055522,42.353497],[-71.05554,42.35351],[-71.055666,42.3535],[-71.055684,42.353487]]],[[[-71.055609,42.353521],[-71.055591,42.353507],[-71.05548,42.353517],[-71.055462,42.35353],[-71.05548,42.353543],[-71.055591,42.353534],[-71.055609,42.353521]]],[[[-71.055396,42.353659],[-71.055354,42.353632],[-71.055244,42.35364],[-71.055189,42.353657],[-71.055185,42.353682],[-71.055147,42.3537],[-71.05517,42.353717],[-71.055311,42.353705],[-71.055396,42.353659]]]]},"properties":{"kind":"tree"}}]}