{"type":"FeatureCollection","features":[{"type":"Feature","geometry":{"type":"MultiPolygon","coordinates":[[[[-71.067683,42.351812],[-71.06766,42.351678],[-71.0674,42.351092],[-71.066747,42.351106],[-71.06585,42.351212],[-71.065877,42.351117],[-71.065665,42.351097],[-71.064092,42.35113],[-71.064097,42.351102],[-71.06371,42.351061],[-71.063415,42.351067],[-71.063245,42.351047],[-71.06325,42.351031],[-71.062689,42.350934],[-71.062464,42.350939],[-71.062486,42.350884],[-71.061972,42.350757],[-71.061597,42.350765],[-71.061565,42.350845],[-71.061767,42.350889],[-71.06154,42.350894],[-71.061492,42.351027],[-71.061171,42.350971],[-71.060866,42.350977],[-71.060844,42.350972],[-71.06086,42.350916],[-71.060811,42.350905],[-71.06085,42.350806],[-71.060804,42.350795],[-71.060843,42.350698],[-71.060867,42.350697],[-71.060839,42.350774],[-71.061055,42.350822],[-71.061193,42.350819],[-71.061312,42.35085],[-71.061556,42.350847],[-71.061588,42.350727],[-71.061527,42.350683],[-71.061166,42.350591],[-71.06119,42.350531],[-71.060915,42.350454],[-71.060395,42.350464],[-71.060388,42.350482],[-71.060369,42.350483],[-71.060416,42.350361],[-71.060167,42.35029],[-71.059867,42.350296],[-71.059794,42.350499],[-71.059836,42.350508],[-71.059789,42.350634],[-71.060019,42.350684],[-71.060166,42.350681],[-71.060187,42.350627],[-71.060169,42.350623],[-71.060204,42.350622],[-71.059972,42.351168],[-71.060469,42.351279],[-71.060624,42.351276],[-71.060611,42.351308],[-71.061072,42.351411],[-71.062203,42.351387],[-71.062219,42.351417],[-71.062728,42.351525],[-71.063119,42.351517],[-71.063127,42.351491],[-71.063417,42.351528],[-71.062725,42.351542],[-71.062539,42.351514],[-71.061667,42.351532],[-71.061482,42.351489],[-71.061085,42.351497],[-71.060617,42.351397],[-71.060485,42.3514],[-71.060498,42.351334],[-71.060139,42.351254],[-71.059758,42.351262],[-71.059709,42.351391],[-71.059769,42.351801],[-71.059577,42.351808],[-71.059386,42.351848],[-71.059407,42.351992],[-71.05856,42.352008],[-71.058651,42.35173],[-71.058864,42.351726],[-71.058921,42.351676],[-71.059166,42.351411],[-71.059296,42.351207],[-71.059344,42.351095],[-71.058939,42.351005],[-71.058818,42.351007],[-71.058841,42.350944],[-71.057981,42.350748],[-71.057693,42.350754],[-71.057707,42.350683],[-71.057327,42.350589],[-71.056815,42.350607],[-71.056678,42.350643],[-71.05656,42.350888],[-71.056783,42.350943],[-71.056543,42.350948],[-71.056401,42.351249],[-71.056588,42.351325],[-71.056294,42.351331],[-71.056169,42.35158],[-71.056006,42.351534],[-71.055498,42.351545],[-71.054479,42.351779],[-71.054307,42.351954],[-71.054833,42.352232],[-71.054993,42.352283],[-71.055161,42.352308],[-71.055669,42.352297],[-71.055846,42.352257],[-71.055895,42.352221],[-71.055846,42.352326],[-71.055909,42.352342],[-71.055876,42.352367],[-71.056034,42.352612],[-71.056176,42.352615],[-71.056276,42.352641],[-71.057203,42.352622],[-71.057786,42.352465],[-71.057801,42.352447],[-71.059164,42.352419],[-71.059279,42.352439],[-71.059474,42.352435],[-71.059478,42.352461],[-71.059748,42.352478],[-71.060156,42.35247],[-71.06016,42.352498],[-71.058176,42.352542],[-71.058071,42.352594],[-71.058037,42.352725],[-71.05756,42.352748],[-71.05731,42.352888],[-71.057145,42.352955],[-71.057105,42.353007],[-71.057106,42.353073],[-71.056237,42.353097],[-71.055998,42.353225],[-71.056015,42.353292],[-71.055897,42.353294],[-71.055582,42.353464],[-71.055573,42.353469],[-71.0556,42.353497],[-71.055409,42.353602],[-71.055342,42.353603],[-71.054915,42.353838],[-71.054973,42.353896],[-71.054776,42.353908],[-71.054391,42.354111],[-71.054359,42.354149],[-71.054358,42.354189],[-71.054632,42.354477],[-71.055,42.354479],[-71.054951,42.354482],[-71.054775,42.354643],[-71.05498,42.354839],[-71.05557,42.354827],[-71.055688,42.355479],[-71.057063,42.355458],[-71.057518,42.355414],[-71.057624,42.355386],[-71.057616,42.355342],[-71.059086,42.355306],[-71.059228,42.355368],[-71.059627,42.35536],[-71.059658,42.355331],[-71.060379,42.355316],[-71.060481,42.355389],[-71.060715,42.355384],[-71.060909,42.355209],[-71.061078,42.355206],[-71.061161,42.355128],[-71.061373,42.355233],[-71.06182,42.355224],[-71.061947,42.355085],[-71.062184,42.355207],[-71.06253,42.3552],[-71.062601,42.355124],[-71.062691,42.355175],[-71.063011,42.355168],[-71.063118,42.355222],[-71.063537,42.355213],[-71.063596,42.355136],[-71.063426,42.355049],[-71.063932,42.35503],[-71.064061,42.354793],[-71.064623,42.354781],[-71.064657,42.354688],[-71.064831,42.354684],[-71.06512,42.354148],[-71.064776,42.354033],[-71.064683,42.354031],[-71.064751,42.353878],[-71.064562,42.353819],[-71.064797,42.353814],[-71.064902,42.353617],[-71.065237,42.35361],[-71.065276,42.353357],[-71.06465,42.353351],[-71.064675,42.353277],[-71.064625,42.353268],[-71.064648,42.353209],[-71.064902,42.353204],[-71.064969,42.353124],[-71.065,42.353038],[-71.064755,42.352992],[-71.06556,42.352976],[-71.065614,42.352879],[-71.065528,42.35248],[-71.065051,42.352476],[-71.065056,42.352421],[-71.065022,42.352395],[-71.064043,42.352368],[-71.063363,42.352382],[-71.062724,42.352454],[-71.062724,42.352477],[-71.062412,42.352483],[-71.061487,42.352561],[-71.061488,42.352577],[-71.061438,42.352578],[-71.061432,42.35253],[-71.06111,42.352492],[-71.061793,42.352449],[-71.0618,42.352409],[-71.062101,42.352403],[-71.062326,42.352372],[-71.06287,42.352342],[-71.062888,42.352333],[-71.062933,42.352187],[-71.063544,42.352243],[-71.063567,42.352256],[-71.064693,42.352278],[-71.064683,42.352315],[-71.065116,42.352343],[-71.066063,42.352392],[-71.06651,42.352383],[-71.066511,42.352369],[-71.066567,42.352368],[-71.066614,42.35208],[-71.06652,42.352073],[-71.066535,42.35188],[-71.066388,42.35187],[-71.066394,42.351815],[-71.066847,42.351871],[-71.0675,42.351857],[-71.067683,42.351812]],[[-71.06536,42.351696],[-71.065201,42.3517],[-71.065199,42.351681],[-71.06536,42.351696]],[[-71.064535,42.353288],[-71.064512,42.353354],[-71.064296,42.353358],[-71.06427,42.353339],[-71.063823,42.353321],[-71.06323,42.353333],[-71.063252,42.353226],[-71.064146,42.353296],[-71.064535,42.353288]],[[-71.063826,42.353814],[-71.063609,42.353818],[-71.063484,42.354018],[-71.062903,42.353981],[-71.062865,42.353967],[-71.063369,42.353965],[-71.063411,42.353774],[-71.063697,42.353775],[-71.063826,42.353814]],[[-71.063631,42.351352],[-71.063624,42.35139],[-71.063535,42.351373],[-71.063539,42.351355],[-71.063364,42.351341],[-71.063368,42.351326],[-71.063631,42.351352]],[[-71.062792,42.354773],[-71.06279,42.354775],[-71.062786,42.354773],[-71.062792,42.354773]],[[-71.06268,42.353155],[-71.062038,42.353174],[-71.062043,42.353084],[-71.06265,42.353059],[-71.062647,42.353118],[-71.06268,42.353155]],[[-71.062569,42.354732],[-71.062491,42.354734],[-71.062513,42.354704],[-71.062569,42.354732]],[[-71.062384,42.353747],[-71.062336,42.353805],[-71.062223,42.35375],[-71.062384,42.353747]],[[-71.062293,42.350956],[-71.062293,42.350958],[-71.062283,42.350956],[-71.062293,42.350956]],[[-71.062211,42.35215],[-71.062186,42.352194],[-71.06177,42.352217],[-71.061577,42.352058],[-71.0617,42.352056],[-71.061723,42.35216],[-71.062211,42.35215]],[[-71.061594,42.351881],[-71.061447,42.351886],[-71.061442,42.351857],[-71.061586,42.351854],[-71.061594,42.351881]],[[-71.061563,42.354887],[-71.061417,42.35489],[-71.061471,42.354839],[-71.061563,42.354887]],[[-71.061372,42.351956],[-71.061372,42.351956],[-71.061371,42.351947],[-71.061372,42.351956]],[[-71.061081,42.353264],[-71.060695,42.353272],[-71.060524,42.353454],[-71.060443,42.353445],[-71.060276,42.353344],[-71.060016,42.353317],[-71.058263,42.353356],[-71.058016,42.353373],[-71.05798,42.35339],[-71.057968,42.35342],[-71.057645,42.353427],[-71.057826,42.353342],[-71.057804,42.353239],[-71.057763,42.353222],[-71.057949,42.353218],[-71.057947,42.353231],[-71.05799,42.353263],[-71.059165,42.353272],[-71.059815,42.353252],[-71.059895,42.35329],[-71.060458,42.353278],[-71.060488,42.353265],[-71.060634,42.353262],[-71.060749,42.353139],[-71.060715,42.353121],[-71.060758,42.353075],[-71.060862,42.353073],[-71.060815,42.353125],[-71.061081,42.353264]],[[-71.06071,42.351695],[-71.060597,42.351706],[-71.060574,42.351642],[-71.060699,42.351658],[-71.06071,42.351695]],[[-71.060394,42.351494],[-71.060366,42.351494],[-71.060361,42.351476],[-71.060388,42.351475],[-71.060394,42.351494]],[[-71.059619,42.354307],[-71.059385,42.354511],[-71.059372,42.35457],[-71.059409,42.354617],[-71.059305,42.354619],[-71.059251,42.354586],[-71.05916,42.354588],[-71.059321,42.354447],[-71.059071,42.354278],[-71.059395,42.354312],[-71.059619,42.354307]],[[-71.058379,42.351646],[-71.058369,42.351672],[-71.058224,42.351649],[-71.058379,42.351646]],[[-71.058136,42.354696],[-71.058115,42.354716],[-71.057505,42.354729],[-71.057489,42.35464],[-71.057354,42.354579],[-71.057257,42.354581],[-71.057508,42.354431],[-71.057503,42.354384],[-71.057634,42.354371],[-71.057649,42.354356],[-71.057637,42.354288],[-71.057689,42.354277],[-71.057711,42.354243],[-71.057762,42.354242],[-71.057546,42.354581],[-71.057938,42.3547],[-71.058136,42.354696]],[[-71.057279,42.352021],[-71.057276,42.352035],[-71.057174,42.352023],[-71.057279,42.352021]],[[-71.057035,42.352014],[-71.056202,42.352031],[-71.056027,42.352095],[-71.056188,42.351793],[-71.057035,42.352014]],[[-71.05669,42.35348],[-71.056521,42.353559],[-71.056528,42.35357],[-71.056483,42.353484],[-71.05669,42.35348]],[[-71.055968,42.353819],[-71.055891,42.353852],[-71.055894,42.353877],[-71.055833,42.353878],[-71.055942,42.353827],[-71.055935,42.353819],[-71.055968,42.353819]]],[[[-71.067033,42.350973],[-71.067001,42.350644],[-71.065895,42.350638],[-71.066062,42.350613],[-71.066059,42.350584],[-71.066389,42.350572],[-71.066371,42.350352],[-71.066062,42.350358],[-71.06606,42.350324],[-71.065824,42.350326],[-71.065849,42.35023],[-71.066766,42.350201],[-71.066731,42.349872],[-71.066626,42.349751],[-71.066038,42.349764],[-71.066051,42.349702],[-71.066195,42.349699],[-71.066272,42.349675],[-71.06628,42.349647],[-71.066296,42.349642],[-71.066238,42.34949],[-71.06627,42.34948],[-71.066214,42.349382],[-71.066051,42.349385],[-71.065989,42.349405],[-71.066003,42.349432],[-71.065992,42.349437],[-71.06562,42.349445],[-71.065521,42.349461],[-71.065494,42.349585],[-71.064887,42.349491],[-71.064541,42.349498],[-71.064394,42.349359],[-71.064457,42.349357],[-71.064502,42.349325],[-71.064513,42.349297],[-71.064531,42.349297],[-71.06454,42.349265],[-71.064526,42.349263],[-71.064544,42.349217],[-71.064653,42.349291],[-71.065132,42.349281],[-71.06529,42.3492],[-71.065399,42.349198],[-71.065661,42.349075],[-71.065443,42.348821],[-71.065397,42.348686],[-71.06511,42.348615],[-71.064592,42.348555],[-71.064617,42.348457],[-71.064282,42.348399],[-71.063821,42.348409],[-71.063831,42.348374],[-71.062959,42.348243],[-71.062604,42.34825],[-71.062448,42.348644],[-71.063332,42.348779],[-71.063519,42.34878],[-71.063505,42.348828],[-71.063539,42.348956],[-71.063353,42.34896],[-71.063362,42.348944],[-71.063343,42.348938],[-71.063369,42.348885],[-71.062775,42.34872],[-71.062425,42.348727],[-71.062234,42.34916],[-71.062236,42.349176],[-71.062284,42.349201],[-71.062086,42.349205],[-71.061958,42.349177],[-71.061975,42.349165],[-71.062037,42.348991],[-71.061975,42.348977],[-71.062111,42.348974],[-71.062228,42.348723],[-71.06204,42.34868],[-71.062091,42.348553],[-71.062216,42.348582],[-71.062342,42.348579],[-71.062374,42.348503],[-71.062474,42.348501],[-71.062581,42.348226],[-71.062469,42.348202],[-71.062255,42.348206],[-71.062176,42.348404],[-71.062154,42.348399],[-71.062249,42.348161],[-71.06221,42.348143],[-71.062231,42.348094],[-71.062174,42.348073],[-71.061011,42.348097],[-71.060549,42.348739],[-71.060786,42.348796],[-71.061136,42.348789],[-71.061095,42.348901],[-71.060878,42.348902],[-71.060819,42.349053],[-71.060321,42.349063],[-71.060204,42.349326],[-71.059925,42.350048],[-71.060226,42.350142],[-71.060408,42.350138],[-71.06038,42.350207],[-71.060828,42.350333],[-71.061021,42.350329],[-71.061001,42.350379],[-71.061232,42.350437],[-71.061484,42.350494],[-71.0617,42.35049],[-71.061673,42.350559],[-71.062184,42.350689],[-71.062301,42.350687],[-71.062285,42.350707],[-71.062508,42.350769],[-71.062703,42.350765],[-71.062951,42.350799],[-71.063425,42.350789],[-71.063427,42.350808],[-71.063649,42.350841],[-71.063864,42.350837],[-71.063937,42.350869],[-71.064822,42.350958],[-71.065204,42.35095],[-71.065374,42.351002],[-71.065776,42.351025],[-71.066818,42.351003],[-71.067033,42.350973]],[[-71.06559,42.350644],[-71.06521,42.350652],[-71.065175,42.350777],[-71.065157,42.350778],[-71.065195,42.350636],[-71.065161,42.350623],[-71.065419,42.350617],[-71.06559,42.350644]],[[-71.065373,42.350083],[-71.065356,42.350145],[-71.065034,42.350142],[-71.065048,42.35009],[-71.065373,42.350083]],[[-71.064005,42.350087],[-71.063923,42.350089],[-71.063948,42.350023],[-71.064005,42.350087]],[[-71.062705,42.349683],[-71.06269,42.349683],[-71.062694,42.349678],[-71.062705,42.349683]],[[-71.06254,42.349819],[-71.062529,42.349833],[-71.062466,42.349835],[-71.06254,42.349819]],[[-71.061545,42.348978],[-71.061541,42.348995],[-71.061468,42.348979],[-71.061545,42.348978]]],[[[-71.066978,42.348519],[-71.066589,42.348473],[-71.066592,42.348448],[-71.066549,42.348444],[-71.066572,42.348336],[-71.066598,42.348336],[-71.066616,42.348244],[-71.066592,42.348241],[-71.066633,42.348051],[-71.066475,42.348031],[-71.065837,42.348044],[-71.065752,42.348444],[-71.065819,42.348453],[-71.065804,42.348522],[-71.0659,42.348533],[-71.065917,42.348586],[-71.066455,42.348649],[-71.066953,42.348639],[-71.066978,42.348519]]],[[[-71.065724,42.354344],[-71.065713,42.354315],[-71.065667,42.354296],[-71.065487,42.354301],[-71.065458,42.354314],[-71.065443,42.354342],[-71.065468,42.354381],[-71.065514,42.35439],[-71.065673,42.354387],[-71.065709,42.354372],[-71.065724,42.354344]]],[[[-71.065655,42.348179],[-71.065544,42.348162],[-71.065542,42.3481],[-71.065479,42.348028],[-71.065615,42.347939],[-71.065624,42.347901],[-71.065586,42.347825],[-71.065503,42.347805],[-71.065568,42.347759],[-71.065569,42.347672],[-71.065507,42.347638],[-71.065144,42.347582],[-71.064894,42.347587],[-71.064503,42.347783],[-71.064448,42.347909],[-71.063968,42.347919],[-71.063888,42.347984],[-71.063856,42.347985],[-71.063829,42.348081],[-71.063855,42.348085],[-71.063863,42.348106],[-71.063711,42.348099],[-71.063777,42.347862],[-71.063631,42.347839],[-71.06346,42.347843],[-71.063421,42.347988],[-71.063123,42.347918],[-71.062985,42.347921],[-71.062532,42.347816],[-71.06261,42.347625],[-71.062456,42.347589],[-71.061712,42.347604],[-71.061566,42.347954],[-71.061555,42.348046],[-71.061674,42.348074],[-71.062418,42.348059],[-71.062428,42.348042],[-71.062695,42.348036],[-71.062689,42.348052],[-71.062871,42.348095],[-71.063251,42.348091],[-71.063266,42.348073],[-71.063397,42.348074],[-71.063379,42.348141],[-71.063214,42.34814],[-71.062895,42.348102],[-71.062667,42.348107],[-71.06264,42.348175],[-71.062859,42.34819],[-71.062855,42.348206],[-71.063229,42.348263],[-71.063397,42.34826],[-71.063414,42.3482],[-71.06402,42.348291],[-71.064235,42.348287],[-71.064261,42.348189],[-71.064349,42.348187],[-71.06434,42.34822],[-71.064376,42.348226],[-71.064603,42.348221],[-71.064466,42.348292],[-71.06444,42.348386],[-71.064805,42.348442],[-71.065061,42.348437],[-71.065094,42.348475],[-71.065211,42.348473],[-71.06543,42.348429],[-71.065579,42.348426],[-71.065617,42.348368],[-71.065655,42.348179]],[[-71.063067,42.348032],[-71.063066,42.348037],[-71.063059,42.348033],[-71.063067,42.348032]]],[[[-71.059875,42.350207],[-71.059841,42.350172],[-71.059417,42.350078],[-71.05933,42.35008],[-71.059338,42.350022],[-71.058934,42.349933],[-71.058387,42.349945],[-71.058393,42.349922],[-71.058382,42.349919],[-71.058407,42.349853],[-71.058275,42.349822],[-71.058166,42.349824],[-71.058184,42.349734],[-71.057812,42.349653],[-71.057133,42.349667],[-71.05695,42.350086],[-71.056922,42.350095],[-71.056797,42.350339],[-71.056828,42.350343],[-71.056838,42.350385],[-71.056878,42.350421],[-71.056873,42.350442],[-71.057303,42.350549],[-71.05756,42.350545],[-71.057546,42.350612],[-71.058064,42.350738],[-71.058146,42.350736],[-71.058142,42.350751],[-71.058459,42.35083],[-71.058645,42.350826],[-71.058672,42.350758],[-71.058731,42.350757],[-71.058689,42.350861],[-71.058721,42.350897],[-71.059143,42.350991],[-71.059513,42.350983],[-71.059568,42.350967],[-71.059875,42.350207]],[[-71.058954,42.350205],[-71.058917,42.350298],[-71.058865,42.350287],[-71.058898,42.350206],[-71.058954,42.350205]]],[[[-71.059631,42.349485],[-71.059603,42.349453],[-71.059385,42.349456],[-71.059348,42.349426],[-71.059059,42.349432],[-71.05907,42.349405],[-71.058717,42.349328],[-71.058415,42.349335],[-71.058089,42.349263],[-71.057926,42.349266],[-71.057859,42.349433],[-71.058004,42.349465],[-71.057969,42.349551],[-71.057872,42.349548],[-71.057853,42.349597],[-71.058297,42.349696],[-71.058748,42.349687],[-71.058764,42.349646],[-71.058976,42.349641],[-71.059022,42.349526],[-71.059591,42.349514],[-71.059631,42.349485]]],[[[-71.059411,42.349725],[-71.059318,42.349695],[-71.059179,42.349693],[-71.059105,42.349866],[-71.059244,42.349899],[-71.059337,42.349897],[-71.059411,42.349725]]],[[[-71.05891,42.348689],[-71.058452,42.348588],[-71.057613,42.348605],[-71.057529,42.348814],[-71.057988,42.348915],[-71.058827,42.348898],[-71.05891,42.348689]]],[[[-71.057186,42.349221],[-71.057099,42.349223],[-71.057106,42.349192],[-71.056927,42.349142],[-71.056596,42.349149],[-71.055807,42.349375],[-71.056999,42.347596],[-71.056989,42.347537],[-71.056224,42.347255],[-71.055908,42.347262],[-71.054533,42.349309],[-71.054522,42.349408],[-71.054447,42.34941],[-71.053477,42.350853],[-71.054337,42.351171],[-71.054479,42.351168],[-71.054554,42.351058],[-71.054594,42.351057],[-71.054877,42.350695],[-71.055068,42.350411],[-71.055367,42.350639],[-71.055519,42.350695],[-71.056485,42.350682],[-71.056569,42.350666],[-71.056609,42.350586],[-71.056695,42.350567],[-71.056713,42.35053],[-71.056736,42.3504],[-71.056706,42.350391],[-71.056966,42.349775],[-71.057018,42.349566],[-71.057186,42.349221]]]]},"properties":{"kind":"building"}},{"type":"Feature","geometry":{"type":"MultiPolygon","coordinates":[[[[-71.066377,42.353444],[-71.066366,42.353403],[-71.066335,42.353368],[-71.066231,42.353336],[-71.065912,42.353343],[-71.065856,42.353351],[-71.065789,42.353397],[-71.06564,42.353396],[-71.065719,42.353338],[-71.065726,42.353281],[-71.066111,42.353278],[-71.066142,42.353263],[-71.066169,42.353214],[-71.066142,42.353165],[-71.066088,42.353146],[-71.066117,42.353123],[-71.066243,42.353115],[-71.066308,42.353067],[-71.066317,42.353033],[-71.066292,42.352982],[-71.066327,42.352949],[-71.066351,42.352866],[-71.06634,42.352825],[-71.066309,42.35279],[-71.066205,42.352758],[-71.065996,42.352763],[-71.06595,42.352724],[-71.065824,42.352721],[-71.065883,42.352702],[-71.065903,42.352681],[-71.065906,42.352642],[-71.066189,42.352644],[-71.06623,42.352614],[-71.066235,42.352593],[-71.066214,42.352554],[-71.066161,42.352537],[-71.065956,42.352531],[-71.065902,42.352513],[-71.065688,42.352518],[-71.065631,42.352505],[-71.065012,42.352509],[-71.064943,42.35253],[-71.064915,42.352581],[-71.064922,42.352609],[-71.064975,42.352647],[-71.065293,42.352644],[-71.065361,42.352664],[-71.065483,42.352661],[-71.06551,42.352708],[-71.065539,42.352722],[-71.065687,42.352725],[-71.065636,42.352742],[-71.065614,42.352776],[-71.065525,42.352783],[-71.065472,42.352821],[-71.065472,42.352877],[-71.065524,42.352915],[-71.065463,42.35295],[-71.065463,42.352996],[-71.06524,42.353001],[-71.065195,42.353014],[-71.065168,42.353001],[-71.065158,42.35298],[-71.065235,42.352997],[-71.065381,42.352994],[-71.065416,42.352976],[-71.065416,42.352954],[-71.065381,42.352936],[-71.065372,42.352904],[-71.065333,42.352875],[-71.065343,42.352849],[-71.06533,42.352824],[-71.06537,42.352812],[-71.065387,42.352781],[-71.06537,42.352751],[-71.065329,42.352738],[-71.065105,42.352754],[-71.065088,42.352785],[-71.065105,42.352816],[-71.065081,42.352852],[-71.065094,42.352876],[-71.065047,42.352891],[-71.065029,42.35292],[-71.064745,42.352926],[-71.06466,42.352952],[-71.064625,42.353015],[-71.064656,42.353073],[-71.064658,42.353148],[-71.06477,42.353239],[-71.064659,42.353241],[-71.064581,42.353265],[-71.064549,42.353323],[-71.064581,42.353381],[-71.064659,42.353405],[-71.064941,42.353399],[-71.065019,42.353375],[-71.065082,42.353328],[-71.065124,42.353322],[-71.065162,42.353379],[-71.065068,42.353423],[-71.064919,42.353429],[-71.064881,42.353456],[-71.064592,42.353467],[-71.064538,42.353508],[-71.06453,42.353536],[-71.06456,42.353589],[-71.064372,42.353606],[-71.064358,42.353658],[-71.064324,42.353692],[-71.064332,42.353737],[-71.064296,42.353748],[-71.06428,42.353777],[-71.064314,42.353815],[-71.064363,42.353817],[-71.064304,42.353823],[-71.064258,42.353857],[-71.064244,42.353968],[-71.064319,42.354005],[-71.064542,42.354],[-71.06458,42.354026],[-71.064665,42.35403],[-71.064581,42.354039],[-71.064521,42.354018],[-71.064264,42.354028],[-71.06422,42.35406],[-71.064229,42.354116],[-71.064125,42.354133],[-71.064103,42.354172],[-71.064147,42.354222],[-71.064088,42.354236],[-71.064069,42.35427],[-71.064088,42.354304],[-71.06414,42.354337],[-71.064036,42.354339],[-71.063979,42.354357],[-71.063955,42.354399],[-71.063968,42.35443],[-71.063903,42.354482],[-71.063892,42.354523],[-71.063903,42.354564],[-71.063982,42.354623],[-71.064266,42.354626],[-71.064268,42.35465],[-71.064296,42.35467],[-71.064191,42.354675],[-71.06411,42.35464],[-71.063846,42.354649],[-71.0638,42.354683],[-71.063799,42.354727],[-71.063755,42.354758],[-71.063755,42.354802],[-71.063827,42.354838],[-71.064047,42.354833],[-71.064102,42.354816],[-71.064122,42.354763],[-71.06417,42.354746],[-71.064244,42.354753],[-71.064237,42.354801],[-71.064276,42.35483],[-71.064538,42.354825],[-71.064582,42.354777],[-71.064548,42.354733],[-71.064598,42.354729],[-71.064627,42.354707],[-71.064627,42.354676],[-71.064605,42.354657],[-71.064684,42.354653],[-71.064712,42.354632],[-71.064701,42.35459],[-71.064636,42.35458],[-71.0648,42.354573],[-71.064859,42.354525],[-71.065156,42.354525],[-71.065238,42.354486],[-71.065256,42.354454],[-71.065218,42.354412],[-71.065072,42.35441],[-71.065016,42.35437],[-71.064975,42.354364],[-71.064685,42.354355],[-71.065093,42.354326],[-71.065121,42.354305],[-71.06511,42.354263],[-71.065073,42.354252],[-71.064723,42.354252],[-71.064674,42.354195],[-71.064826,42.354189],[-71.064866,42.354206],[-71.064994,42.354203],[-71.065041,42.354222],[-71.065246,42.354215],[-71.065282,42.354175],[-71.065246,42.354135],[-71.064904,42.354133],[-71.064901,42.354083],[-71.064867,42.354052],[-71.064959,42.354046],[-71.064998,42.354018],[-71.065042,42.354016],[-71.065071,42.354035],[-71.065145,42.354038],[-71.065136,42.354081],[-71.065168,42.354104],[-71.065395,42.3541],[-71.065427,42.354077],[-71.065427,42.354044],[-71.065395,42.35402],[-71.06534,42.354018],[-71.06551,42.354014],[-71.06557,42.353984],[-71.065556,42.353932],[-71.065459,42.353919],[-71.06547,42.353907],[-71.065738,42.353898],[-71.065766,42.353877],[-71.065755,42.353835],[-71.065592,42.353823],[-71.065612,42.353804],[-71.065772,42.353792],[-71.065808,42.353752],[-71.065791,42.353722],[-71.06575,42.353709],[-71.065567,42.353713],[-71.065517,42.353735],[-71.065322,42.353742],[-71.065285,42.35377],[-71.065285,42.353808],[-71.065322,42.353836],[-71.065399,42.353838],[-71.065201,42.35385],[-71.065168,42.353875],[-71.065168,42.353909],[-71.065201,42.353934],[-71.065269,42.353937],[-71.065158,42.353942],[-71.065111,42.3539],[-71.065005,42.353897],[-71.064999,42.353873],[-71.064957,42.353842],[-71.064861,42.353839],[-71.064814,42.353795],[-71.064717,42.353792],[-71.064657,42.35377],[-71.064566,42.353772],[-71.064562,42.353758],[-71.064639,42.353724],[-71.064639,42.353688],[-71.064678,42.353636],[-71.064666,42.35361],[-71.064933,42.353599],[-71.064966,42.353583],[-71.064995,42.353531],[-71.065072,42.353528],[-71.065121,42.353557],[-71.065168,42.353564],[-71.065324,42.353561],[-71.065392,42.353608],[-71.065448,42.353616],[-71.065767,42.353609],[-71.065823,42.353601],[-71.06589,42.353556],[-71.066287,42.353544],[-71.066335,42.353521],[-71.066366,42.353486],[-71.066377,42.353444]],[[-71.065446,42.353128],[-71.065375,42.353174],[-71.06536,42.353171],[-71.065365,42.35314],[-71.06534,42.353122],[-71.065253,42.353121],[-71.065258,42.353101],[-71.06541,42.353098],[-71.065446,42.353128]],[[-71.064598,42.354425],[-71.064466,42.354444],[-71.064413,42.354417],[-71.06434,42.354409],[-71.064343,42.354394],[-71.064569,42.354386],[-71.064571,42.354406],[-71.064598,42.354425]]],[[[-71.066248,42.354968],[-71.066228,42.354932],[-71.066179,42.354917],[-71.065952,42.354925],[-71.06591,42.354972],[-71.06593,42.355008],[-71.065978,42.355022],[-71.066205,42.355014],[-71.066248,42.354968]]],[[[-71.066184,42.354461],[-71.066146,42.354394],[-71.066054,42.354365],[-71.065685,42.354379],[-71.065615,42.354431],[-71.065605,42.354468],[-71.065643,42.354536],[-71.065735,42.354564],[-71.066104,42.35455],[-71.066146,42.354529],[-71.066184,42.354461]]],[[[-71.066165,42.354058],[-71.066127,42.354029],[-71.065981,42.354032],[-71.06587,42.354048],[-71.06584,42.354081],[-71.06587,42.354114],[-71.066053,42.354114],[-71.066154,42.354078],[-71.066165,42.354058]]],[[[-71.066084,42.354144],[-71.066061,42.354127],[-71.065947,42.354129],[-71.065924,42.354146],[-71.065947,42.354163],[-71.066061,42.35416],[-71.066084,42.354144]]],[[[-71.066025,42.348034],[-71.066006,42.348],[-71.06596,42.347986],[-71.06574,42.347994],[-71.0657,42.348038],[-71.065719,42.348072],[-71.065765,42.348086],[-71.065985,42.348078],[-71.066025,42.348034]]],[[[-71.06599,42.354837],[-71.065981,42.354802],[-71.065914,42.354752],[-71.065686,42.354749],[-71.065645,42.354707],[-71.065574,42.354704],[-71.065554,42.35465],[-71.065452,42.35461],[-71.065284,42.354609],[-71.065287,42.354571],[-71.065254,42.354546],[-71.065017,42.35455],[-71.064979,42.354592],[-71.064841,42.354613],[-71.064814,42.354661],[-71.064841,42.354709],[-71.06487,42.354723],[-71.065058,42.354725],[-71.065048,42.354751],[-71.064889,42.354766],[-71.064877,42.354811],[-71.064907,42.354833],[-71.065126,42.354829],[-71.065238,42.354846],[-71.06528,42.354882],[-71.065451,42.354883],[-71.065513,42.354927],[-71.065914,42.354921],[-71.065954,42.354901],[-71.06599,42.354837]]],[[[-71.065967,42.348176],[-71.065951,42.348148],[-71.065912,42.348136],[-71.065714,42.348142],[-71.06568,42.34818],[-71.065696,42.348209],[-71.065735,42.348221],[-71.065933,42.348214],[-71.065967,42.348176]]],[[[-71.065928,42.353936],[-71.065914,42.35391],[-71.065879,42.3539],[-71.065696,42.353906],[-71.06567,42.353925],[-71.06567,42.353953],[-71.06563,42.353965],[-71.065615,42.35399],[-71.06563,42.354015],[-71.065664,42.354026],[-71.065847,42.35402],[-71.065873,42.354],[-71.065873,42.353973],[-71.065914,42.353961],[-71.065928,42.353936]]],[[[-71.065921,42.348442],[-71.065904,42.348412],[-71.065863,42.348399],[-71.065658,42.348406],[-71.065622,42.348446],[-71.065639,42.348477],[-71.06568,42.348489],[-71.065885,42.348482],[-71.065921,42.348442]]],[[[-71.065812,42.348291],[-71.065679,42.348266],[-71.06549,42.34827],[-71.065446,42.348284],[-71.065428,42.348316],[-71.065466,42.348358],[-71.065679,42.348358],[-71.065723,42.348344],[-71.065741,42.348312],[-71.065812,42.348291]]],[[[-71.065739,42.353661],[-71.065721,42.353629],[-71.065677,42.353615],[-71.065464,42.353623],[-71.065426,42.353665],[-71.065444,42.353697],[-71.065488,42.353711],[-71.065701,42.353703],[-71.065739,42.353661]]],[[[-71.065701,42.349233],[-71.065686,42.349208],[-71.065652,42.349197],[-71.065491,42.349203],[-71.065461,42.349236],[-71.065476,42.349261],[-71.06551,42.349272],[-71.065671,42.349266],[-71.065701,42.349233]]],[[[-71.065684,42.351221],[-71.065666,42.351208],[-71.06557,42.35121],[-71.065552,42.351223],[-71.06557,42.351236],[-71.065666,42.351235],[-71.065684,42.351221]]],[[[-71.065675,42.348955],[-71.065657,42.348942],[-71.06558,42.348944],[-71.065562,42.348957],[-71.06558,42.34897],[-71.065657,42.348969],[-71.065675,42.348955]]],[[[-71.065639,42.349092],[-71.065621,42.349079],[-71.065544,42.349081],[-71.065529,42.349041],[-71.065494,42.349031],[-71.065311,42.349037],[-71.065281,42.34907],[-71.065296,42.349095],[-71.06533,42.349106],[-71.065526,42.349093],[-71.065544,42.349107],[-71.065621,42.349106],[-71.065639,42.349092]]],[[[-71.065632,42.348108],[-71.065613,42.348095],[-71.06553,42.348097],[-71.065512,42.34811],[-71.06553,42.348123],[-71.065613,42.348122],[-71.065632,42.348108]]],[[[-71.065597,42.348444],[-71.065574,42.348427],[-71.06546,42.348429],[-71.065437,42.348446],[-71.06546,42.348463],[-71.065574,42.34846],[-71.065597,42.348444]]],[[[-71.065575,42.348787],[-71.06556,42.348762],[-71.065526,42.348751],[-71.065365,42.348757],[-71.065335,42.34879],[-71.06535,42.348815],[-71.065384,42.348826],[-71.065545,42.34882],[-71.065575,42.348787]]],[[[-71.065535,42.348937],[-71.065499,42.348911],[-71.065346,42.348916],[-71.065324,42.34894],[-71.06536,42.348966],[-71.065513,42.348961],[-71.065535,42.348937]]],[[[-71.065458,42.351208],[-71.06544,42.351195],[-71.065333,42.351195],[-71.06525,42.351197],[-71.065232,42.35121],[-71.06525,42.351223],[-71.06535,42.351223],[-71.06544,42.351222],[-71.065458,42.351208]]],[[[-71.065297,42.350718],[-71.065271,42.350698],[-71.06515,42.350701],[-71.065126,42.350727],[-71.06515,42.350739],[-71.065271,42.350737],[-71.065297,42.350718]]],[[[-71.065272,42.350782],[-71.065246,42.350762],[-71.065125,42.350765],[-71.065101,42.350791],[-71.065125,42.350803],[-71.065246,42.350801],[-71.065272,42.350782]]],[[[-71.065238,42.350851],[-71.065218,42.350836],[-71.06511,42.350839],[-71.065091,42.350853],[-71.06511,42.350867],[-71.065218,42.350865],[-71.065238,42.350851]]],[[[-71.065181,42.35498],[-71.06515,42.354926],[-71.065077,42.354904],[-71.064767,42.354915],[-71.064711,42.354957],[-71.064703,42.354986],[-71.064734,42.35504],[-71.064807,42.355063],[-71.065116,42.355051],[-71.06515,42.355035],[-71.065181,42.35498]]],[[[-71.065034,42.351308],[-71.065016,42.351295],[-71.064926,42.351297],[-71.064908,42.35131],[-71.064926,42.351323],[-71.065016,42.351322],[-71.065034,42.351308]]],[[[-71.064941,42.348454],[-71.064922,42.348441],[-71.064839,42.348443],[-71.064821,42.348456],[-71.064839,42.348469],[-71.064922,42.348468],[-71.064941,42.348454]]],[[[-71.064823,42.354795],[-71.064804,42.354782],[-71.064721,42.354784],[-71.064703,42.354797],[-71.064721,42.35481],[-71.064804,42.354809],[-71.064823,42.354795]]],[[[-71.064708,42.351824],[-71.064689,42.351811],[-71.064606,42.351813],[-71.064588,42.351826],[-71.064606,42.351839],[-71.064689,42.351838],[-71.064708,42.351824]]],[[[-71.064705,42.348423],[-71.064686,42.34841],[-71.064603,42.348412],[-71.064585,42.348425],[-71.064603,42.348438],[-71.064686,42.348437],[-71.064705,42.348423]]],[[[-71.064673,42.352102],[-71.064653,42.352087],[-71.064545,42.35209],[-71.064526,42.352104],[-71.064545,42.352118],[-71.064653,42.352116],[-71.064673,42.352102]]],[[[-71.064658,42.352053],[-71.06464,42.35204],[-71.06455,42.352042],[-71.064532,42.352055],[-71.06455,42.352068],[-71.06464,42.352067],[-71.064658,42.352053]]],[[[-71.064632,42.352158],[-71.064613,42.352145],[-71.06453,42.352147],[-71.064512,42.35216],[-71.06453,42.352173],[-71.064613,42.352172],[-71.064632,42.352158]]],[[[-71.06452,42.348397],[-71.064501,42.348384],[-71.064418,42.348386],[-71.0644,42.348399],[-71.064418,42.348412],[-71.064501,42.348411],[-71.06452,42.348397]]],[[[-71.064323,42.348718],[-71.0643,42.348701],[-71.064186,42.348703],[-71.064163,42.34872],[-71.064186,42.348737],[-71.0643,42.348734],[-71.064323,42.348718]]],[[[-71.064322,42.350923],[-71.064079,42.350871],[-71.063919,42.350876],[-71.063895,42.350903],[-71.063919,42.35093],[-71.06405,42.350938],[-71.064303,42.350937],[-71.064322,42.350923]]],[[[-71.06427,42.348838],[-71.064252,42.348824],[-71.06415,42.348827],[-71.064132,42.34884],[-71.06415,42.348853],[-71.064252,42.348851],[-71.06427,42.348838]]],[[[-71.06419,42.353298],[-71.064057,42.353268],[-71.064034,42.353249],[-71.06392,42.353251],[-71.063897,42.353268],[-71.06392,42.353285],[-71.064053,42.353295],[-71.06407,42.353313],[-71.064172,42.353311],[-71.06419,42.353298]]],[[[-71.064158,42.353388],[-71.064138,42.353373],[-71.064019,42.353359],[-71.06391,42.353361],[-71.063892,42.353374],[-71.063965,42.3534],[-71.06403,42.353404],[-71.064138,42.353402],[-71.064158,42.353388]]],[[[-71.0641,42.353758],[-71.064082,42.353744],[-71.06398,42.353747],[-71.063962,42.35376],[-71.06398,42.353773],[-71.064082,42.353771],[-71.0641,42.353758]]],[[[-71.064056,42.353964],[-71.064023,42.35394],[-71.06389,42.353943],[-71.06386,42.353958],[-71.06386,42.353976],[-71.06389,42.353991],[-71.064023,42.353988],[-71.064056,42.353964]]],[[[-71.064024,42.348673],[-71.064004,42.348658],[-71.063896,42.348661],[-71.063877,42.348675],[-71.063896,42.348689],[-71.064004,42.348687],[-71.064024,42.348673]]],[[[-71.064007,42.348741],[-71.063984,42.348724],[-71.06387,42.348726],[-71.063847,42.348743],[-71.06387,42.34876],[-71.063984,42.348757],[-71.064007,42.348741]]],[[[-71.063988,42.348868],[-71.063968,42.348853],[-71.06386,42.348856],[-71.063841,42.34887],[-71.06386,42.348884],[-71.063968,42.348882],[-71.063988,42.348868]]],[[[-71.063957,42.348791],[-71.063938,42.348778],[-71.063855,42.34878],[-71.063837,42.348793],[-71.063855,42.348806],[-71.063938,42.348805],[-71.063957,42.348791]]],[[[-71.063937,42.354118],[-71.063911,42.354098],[-71.06379,42.354101],[-71.063766,42.354127],[-71.06379,42.354139],[-71.063911,42.354137],[-71.063937,42.354118]]],[[[-71.063905,42.349146],[-71.063886,42.349133],[-71.063803,42.349135],[-71.063785,42.349148],[-71.063803,42.349161],[-71.063886,42.34916],[-71.063905,42.349146]]],[[[-71.063892,42.348425],[-71.063873,42.348412],[-71.0638,42.348413],[-71.06379,42.348396],[-71.0637,42.348397],[-71.063682,42.34841],[-71.0637,42.348423],[-71.063773,42.348422],[-71.063783,42.348439],[-71.063873,42.348439],[-71.063892,42.348425]]],[[[-71.063852,42.349291],[-71.063833,42.349278],[-71.06375,42.34928],[-71.063732,42.349293],[-71.06375,42.349306],[-71.063833,42.349305],[-71.063852,42.349291]]],[[[-71.063841,42.35088],[-71.063821,42.350858],[-71.063666,42.350858],[-71.063641,42.350842],[-71.063496,42.350857],[-71.06351,42.350882],[-71.063645,42.350892],[-71.063675,42.350907],[-71.063821,42.350902],[-71.063841,42.35088]]],[[[-71.063839,42.349333],[-71.06382,42.34932],[-71.063737,42.349322],[-71.063719,42.349335],[-71.063737,42.349348],[-71.06382,42.349347],[-71.063839,42.349333]]],[[[-71.063798,42.349758],[-71.063778,42.349743],[-71.06367,42.349746],[-71.063651,42.34976],[-71.06367,42.349774],[-71.063778,42.349772],[-71.063798,42.349758]]],[[[-71.063734,42.349852],[-71.063716,42.349838],[-71.063614,42.349841],[-71.063596,42.349854],[-71.063614,42.349867],[-71.063716,42.349865],[-71.063734,42.349852]]],[[[-71.063711,42.354697],[-71.063696,42.354672],[-71.063662,42.354661],[-71.063501,42.354667],[-71.063471,42.3547],[-71.063486,42.354725],[-71.06352,42.354736],[-71.063681,42.35473],[-71.063711,42.354697]]],[[[-71.063688,42.349948],[-71.063668,42.349933],[-71.06356,42.349936],[-71.063541,42.34995],[-71.06356,42.349964],[-71.063668,42.349962],[-71.063688,42.349948]]],[[[-71.063651,42.354797],[-71.063636,42.354772],[-71.063602,42.354761],[-71.063441,42.354767],[-71.063411,42.3548],[-71.063426,42.354825],[-71.06346,42.354836],[-71.063621,42.35483],[-71.063651,42.354797]]],[[[-71.06365,42.349998],[-71.063632,42.349984],[-71.06353,42.349987],[-71.063512,42.35],[-71.06353,42.350013],[-71.063632,42.350011],[-71.06365,42.349998]]],[[[-71.06356,42.350416],[-71.063542,42.350402],[-71.06344,42.350405],[-71.063422,42.350418],[-71.06344,42.350431],[-71.063542,42.350429],[-71.06356,42.350416]]],[[[-71.063554,42.350178],[-71.063536,42.350165],[-71.06344,42.350167],[-71.063422,42.35018],[-71.06344,42.350193],[-71.063536,42.350192],[-71.063554,42.350178]]],[[[-71.06353,42.350485],[-71.063512,42.350472],[-71.063416,42.350474],[-71.063398,42.350487],[-71.063416,42.3505],[-71.063512,42.350499],[-71.06353,42.350485]]],[[[-71.063524,42.350244],[-71.063506,42.350231],[-71.06341,42.350233],[-71.063392,42.350246],[-71.06341,42.350259],[-71.063506,42.350258],[-71.063524,42.350244]]],[[[-71.06351,42.350762],[-71.063481,42.350741],[-71.063343,42.350745],[-71.063325,42.350765],[-71.063354,42.350787],[-71.063492,42.350782],[-71.06351,42.350762]]],[[[-71.063507,42.350824],[-71.063481,42.350804],[-71.06336,42.350807],[-71.063336,42.350833],[-71.06336,42.350845],[-71.063481,42.350843],[-71.063507,42.350824]]],[[[-71.063499,42.350278],[-71.063481,42.350265],[-71.063385,42.350267],[-71.063367,42.35028],[-71.063385,42.350293],[-71.063481,42.350292],[-71.063499,42.350278]]],[[[-71.063493,42.350548],[-71.063475,42.350535],[-71.063385,42.350537],[-71.063367,42.35055],[-71.063385,42.350563],[-71.063475,42.350562],[-71.063493,42.350548]]],[[[-71.063478,42.350702],[-71.063458,42.350687],[-71.06335,42.35069],[-71.063331,42.350704],[-71.06335,42.350718],[-71.063458,42.350716],[-71.063478,42.350702]]],[[[-71.063458,42.350608],[-71.06344,42.350595],[-71.06335,42.350597],[-71.063332,42.35061],[-71.06335,42.350623],[-71.06344,42.350622],[-71.063458,42.350608]]],[[[-71.063418,42.350438],[-71.0634,42.350425],[-71.06331,42.350427],[-71.063292,42.35044],[-71.06331,42.350453],[-71.0634,42.350452],[-71.063418,42.350438]]],[[[-71.063394,42.350481],[-71.063376,42.350468],[-71.06328,42.35047],[-71.063262,42.350483],[-71.06328,42.350496],[-71.063376,42.350495],[-71.063394,42.350481]]],[[[-71.063369,42.350534],[-71.063351,42.350521],[-71.063255,42.350523],[-71.063237,42.350536],[-71.063255,42.350549],[-71.063351,42.350548],[-71.063369,42.350534]]],[[[-71.06335,42.35058],[-71.063332,42.350566],[-71.06323,42.350569],[-71.063212,42.350582],[-71.06323,42.350595],[-71.063332,42.350593],[-71.06335,42.35058]]],[[[-71.06333,42.350628],[-71.063312,42.350614],[-71.06321,42.350617],[-71.063192,42.35063],[-71.06321,42.350643],[-71.063312,42.350641],[-71.06333,42.350628]]],[[[-71.063275,42.350675],[-71.063257,42.350662],[-71.06318,42.350664],[-71.063162,42.350677],[-71.06318,42.35069],[-71.063257,42.350689],[-71.063275,42.350675]]],[[[-71.063274,42.350725],[-71.063256,42.350712],[-71.06316,42.350714],[-71.063142,42.350727],[-71.06316,42.35074],[-71.063256,42.350739],[-71.063274,42.350725]]],[[[-71.063258,42.350763],[-71.063238,42.350748],[-71.06313,42.350751],[-71.063111,42.350765],[-71.06313,42.350779],[-71.063238,42.350777],[-71.063258,42.350763]]],[[[-71.063234,42.352236],[-71.063216,42.352223],[-71.063126,42.352225],[-71.062965,42.35224],[-71.062947,42.352253],[-71.062965,42.352266],[-71.063155,42.352262],[-71.063234,42.352236]]],[[[-71.063018,42.352218],[-71.06292,42.3522],[-71.06283,42.352202],[-71.062812,42.352215],[-71.062904,42.352233],[-71.063,42.352232],[-71.063018,42.352218]]],[[[-71.062938,42.3533],[-71.062918,42.353285],[-71.06274,42.353289],[-71.062717,42.353306],[-71.06274,42.353323],[-71.062854,42.35332],[-71.062938,42.3533]]],[[[-71.062938,42.353212],[-71.06286,42.353191],[-71.062744,42.353193],[-71.062725,42.353207],[-71.062803,42.353227],[-71.062918,42.353226],[-71.062938,42.353212]]],[[[-71.062686,42.348351],[-71.062657,42.34833],[-71.06253,42.348332],[-71.062355,42.348346],[-71.062331,42.348373],[-71.06237,42.348402],[-71.062515,42.348399],[-71.062551,42.348381],[-71.062668,42.348371],[-71.062686,42.348351]]],[[[-71.062648,42.34937],[-71.062622,42.349341],[-71.062533,42.34934],[-71.062541,42.349308],[-71.062502,42.349289],[-71.062334,42.349294],[-71.062308,42.349323],[-71.062334,42.349352],[-71.062423,42.349353],[-71.062415,42.349385],[-71.062454,42.349404],[-71.062622,42.349399],[-71.062648,42.34937]]],[[[-71.062577,42.348555],[-71.062554,42.348538],[-71.06244,42.34854],[-71.062417,42.348557],[-71.06244,42.348574],[-71.062554,42.348571],[-71.062577,42.348555]]],[[[-71.062148,42.35375],[-71.062128,42.353735],[-71.06202,42.353738],[-71.062001,42.353752],[-71.06202,42.353766],[-71.062128,42.353764],[-71.062148,42.35375]]],[[[-71.06209,42.349304],[-71.062071,42.349291],[-71.061988,42.349293],[-71.06197,42.349306],[-71.061988,42.349319],[-71.062071,42.349318],[-71.06209,42.349304]]],[[[-71.062083,42.349545],[-71.062068,42.34952],[-71.062034,42.349509],[-71.061873,42.349515],[-71.061843,42.349548],[-71.061858,42.349573],[-71.061892,42.349584],[-71.062053,42.349578],[-71.062083,42.349545]]],[[[-71.062072,42.353858],[-71.062053,42.353845],[-71.06197,42.353847],[-71.061952,42.35386],[-71.06197,42.353873],[-71.062053,42.353872],[-71.062072,42.353858]]],[[[-71.062035,42.349436],[-71.062016,42.349423],[-71.061933,42.349425],[-71.061915,42.349438],[-71.061933,42.349451],[-71.062016,42.34945],[-71.062035,42.349436]]],[[[-71.062033,42.353698],[-71.062013,42.353683],[-71.061905,42.353686],[-71.061886,42.3537],[-71.061905,42.353714],[-71.062013,42.353712],[-71.062033,42.353698]]],[[[-71.062018,42.353823],[-71.061998,42.353808],[-71.06189,42.353811],[-71.061871,42.353825],[-71.06189,42.353839],[-71.061998,42.353837],[-71.062018,42.353823]]],[[[-71.062012,42.349878],[-71.061993,42.349865],[-71.06191,42.349867],[-71.061892,42.34988],[-71.06191,42.349893],[-71.061993,42.349892],[-71.062012,42.349878]]],[[[-71.062009,42.348309],[-71.061996,42.348285],[-71.061964,42.348275],[-71.061818,42.348278],[-71.061767,42.348253],[-71.06159,42.348256],[-71.061576,42.348228],[-71.061553,42.348221],[-71.06142,42.348224],[-71.06139,42.348239],[-71.061408,42.34827],[-71.06155,42.348269],[-71.061539,42.348313],[-71.06159,42.348338],[-71.061964,42.348342],[-71.061996,42.348332],[-71.062009,42.348309]]],[[[-71.061982,42.349924],[-71.061963,42.349911],[-71.06188,42.349913],[-71.061862,42.349926],[-71.06188,42.349939],[-71.061963,42.349938],[-71.061982,42.349924]]],[[[-71.061976,42.349998],[-71.061957,42.349985],[-71.061874,42.349987],[-71.061856,42.35],[-71.061874,42.350013],[-71.061957,42.350012],[-71.061976,42.349998]]],[[[-71.061952,42.350042],[-71.061933,42.350029],[-71.06185,42.350031],[-71.061832,42.350044],[-71.06185,42.350057],[-71.061933,42.350056],[-71.061952,42.350042]]],[[[-71.061934,42.350289],[-71.061895,42.35026],[-71.061735,42.350265],[-71.061711,42.350292],[-71.061722,42.350312],[-71.061688,42.350322],[-71.061675,42.350346],[-71.061688,42.35037],[-71.06172,42.35038],[-71.061895,42.350374],[-71.06192,42.350356],[-71.06191,42.350319],[-71.061934,42.350289]]],[[[-71.061934,42.353651],[-71.061914,42.353636],[-71.061871,42.353637],[-71.061901,42.353604],[-71.061871,42.353571],[-71.061691,42.353574],[-71.061661,42.353607],[-71.061691,42.35364],[-71.061796,42.353641],[-71.061787,42.353653],[-71.061806,42.353667],[-71.061914,42.353665],[-71.061934,42.353651]]],[[[-71.061922,42.350078],[-71.061903,42.350065],[-71.06182,42.350067],[-71.061802,42.35008],[-71.06182,42.350093],[-71.061903,42.350092],[-71.061922,42.350078]]],[[[-71.061912,42.353781],[-71.061893,42.353768],[-71.06181,42.35377],[-71.061792,42.353783],[-71.06181,42.353796],[-71.061893,42.353795],[-71.061912,42.353781]]],[[[-71.061908,42.349663],[-71.061893,42.349638],[-71.061859,42.349627],[-71.061698,42.349633],[-71.061668,42.349666],[-71.061683,42.349691],[-71.061717,42.349702],[-71.061878,42.349696],[-71.061908,42.349663]]],[[[-71.061901,42.350153],[-71.061883,42.35014],[-71.061806,42.350142],[-71.061788,42.350155],[-71.061806,42.350168],[-71.061883,42.350167],[-71.061901,42.350153]]],[[[-71.061882,42.350198],[-71.061863,42.350185],[-71.06178,42.350187],[-71.061762,42.3502],[-71.06178,42.350213],[-71.061863,42.350212],[-71.061882,42.350198]]],[[[-71.061854,42.348419],[-71.061835,42.348406],[-71.061752,42.348408],[-71.061734,42.348421],[-71.061752,42.348434],[-71.061835,42.348433],[-71.061854,42.348419]]],[[[-71.061844,42.348645],[-71.061832,42.348623],[-71.061802,42.348614],[-71.06165,42.348617],[-71.061612,42.348635],[-71.061503,42.348639],[-71.061475,42.34867],[-71.061503,42.348701],[-71.061678,42.3487],[-71.06172,42.34868],[-71.061818,42.348674],[-71.061844,42.348645]]],[[[-71.061831,42.353736],[-71.061812,42.353723],[-71.061729,42.353725],[-71.061711,42.353738],[-71.061729,42.353751],[-71.061812,42.35375],[-71.061831,42.353736]]],[[[-71.061724,42.353548],[-71.061706,42.353535],[-71.06161,42.353537],[-71.061592,42.35355],[-71.06161,42.353563],[-71.061706,42.353562],[-71.061724,42.353548]]],[[[-71.061694,42.348835],[-71.061675,42.348822],[-71.06146,42.348823],[-71.06143,42.348832],[-71.061418,42.348854],[-71.06143,42.348876],[-71.06146,42.348885],[-71.061612,42.348882],[-71.061694,42.348835]]],[[[-71.061693,42.348182],[-71.061651,42.348169],[-71.061661,42.348146],[-71.061643,42.348114],[-71.061599,42.3481],[-71.061386,42.348108],[-71.061348,42.34815],[-71.061366,42.348182],[-71.06141,42.348196],[-71.061675,42.348196],[-71.061693,42.348182]]],[[[-71.061692,42.348498],[-71.061673,42.348485],[-71.06159,42.348487],[-71.061572,42.3485],[-71.06159,42.348513],[-71.061673,42.348512],[-71.061692,42.348498]]],[[[-71.06169,42.349565],[-71.06166,42.349532],[-71.061591,42.34953],[-71.061577,42.349506],[-71.061543,42.349495],[-71.061382,42.349501],[-71.061352,42.349534],[-71.061382,42.349567],[-71.061451,42.349569],[-71.061465,42.349593],[-71.061499,42.349604],[-71.06166,42.349598],[-71.06169,42.349565]]],[[[-71.061607,42.350948],[-71.061584,42.350931],[-71.06147,42.350933],[-71.061447,42.35095],[-71.06147,42.350967],[-71.061584,42.350964],[-71.061607,42.350948]]],[[[-71.061534,42.349253],[-71.061468,42.349241],[-71.061468,42.34921],[-71.061447,42.349204],[-71.061309,42.349208],[-71.061291,42.349228],[-71.061309,42.349248],[-71.061405,42.349248],[-71.061413,42.349267],[-71.061516,42.349267],[-71.061534,42.349253]]],[[[-71.061508,42.34905],[-71.061488,42.349035],[-71.06138,42.349038],[-71.061361,42.349052],[-71.06138,42.349066],[-71.061488,42.349064],[-71.061508,42.34905]]],[[[-71.061502,42.35112],[-71.061483,42.351107],[-71.0614,42.351109],[-71.061382,42.351122],[-71.0614,42.351135],[-71.061483,42.351134],[-71.061502,42.35112]]],[[[-71.061481,42.351178],[-71.061462,42.351165],[-71.061379,42.351167],[-71.061361,42.35118],[-71.061379,42.351193],[-71.061462,42.351192],[-71.061481,42.351178]]],[[[-71.061455,42.351238],[-71.061436,42.351225],[-71.061353,42.351227],[-71.061335,42.35124],[-71.061353,42.351253],[-71.061436,42.351252],[-71.061455,42.351238]]],[[[-71.061452,42.349428],[-71.061433,42.349415],[-71.06135,42.349417],[-71.061332,42.34943],[-71.06135,42.349443],[-71.061433,42.349442],[-71.061452,42.349428]]],[[[-71.061436,42.351287],[-71.061417,42.351274],[-71.061334,42.351276],[-71.061316,42.351289],[-71.061334,42.351302],[-71.061417,42.351301],[-71.061436,42.351287]]],[[[-71.061374,42.349827],[-71.061362,42.349805],[-71.061332,42.349796],[-71.061164,42.349801],[-71.061138,42.34983],[-71.06115,42.349852],[-71.06118,42.349861],[-71.061348,42.349856],[-71.061374,42.349827]]],[[[-71.061372,42.349628],[-71.061354,42.349615],[-71.061264,42.349617],[-71.061246,42.34963],[-71.061264,42.349643],[-71.061354,42.349642],[-71.061372,42.349628]]],[[[-71.061351,42.349676],[-71.061333,42.349663],[-71.061243,42.349665],[-71.061225,42.349678],[-71.061243,42.349691],[-71.061333,42.34969],[-71.061351,42.349676]]],[[[-71.061328,42.353368],[-71.061309,42.353355],[-71.061226,42.353357],[-71.061208,42.35337],[-71.061226,42.353383],[-71.061309,42.353382],[-71.061328,42.353368]]],[[[-71.061326,42.350026],[-71.061311,42.349999],[-71.061274,42.349988],[-71.061084,42.349995],[-71.061052,42.35003],[-71.061067,42.350057],[-71.061104,42.350068],[-71.061294,42.350062],[-71.061326,42.350026]]],[[[-71.061322,42.354772],[-71.061303,42.354759],[-71.06122,42.354761],[-71.061202,42.354774],[-71.06122,42.354787],[-71.061303,42.354786],[-71.061322,42.354772]]],[[[-71.061272,42.354914],[-71.061253,42.354901],[-71.06117,42.354903],[-71.061152,42.354916],[-71.06117,42.354929],[-71.061253,42.354928],[-71.061272,42.354914]]],[[[-71.061272,42.353342],[-71.061213,42.35333],[-71.061222,42.353318],[-71.061203,42.353305],[-71.06112,42.353307],[-71.061102,42.35332],[-71.061161,42.353333],[-71.061152,42.353344],[-71.06117,42.353357],[-71.061253,42.353356],[-71.061272,42.353342]]],[[[-71.061202,42.348598],[-71.061187,42.348571],[-71.06115,42.34856],[-71.06096,42.348567],[-71.060928,42.348602],[-71.060943,42.348629],[-71.06098,42.34864],[-71.06117,42.348634],[-71.061202,42.348598]]],[[[-71.061182,42.348713],[-71.061166,42.348685],[-71.061127,42.348673],[-71.060929,42.348679],[-71.060895,42.348717],[-71.060911,42.348746],[-71.06095,42.348758],[-71.061148,42.348751],[-71.061182,42.348713]]],[[[-71.061144,42.353273],[-71.061126,42.35326],[-71.06103,42.353262],[-71.061012,42.353275],[-71.06103,42.353288],[-71.061126,42.353287],[-71.061144,42.353273]]],[[[-71.061122,42.348488],[-71.061103,42.348475],[-71.06102,42.348477],[-71.061002,42.34849],[-71.06102,42.348503],[-71.061103,42.348502],[-71.061122,42.348488]]],[[[-71.061094,42.348824],[-71.061082,42.348802],[-71.061052,42.348793],[-71.060884,42.348798],[-71.060858,42.348827],[-71.06087,42.348849],[-71.0609,42.348858],[-71.061068,42.348853],[-71.061094,42.348824]]],[[[-71.061072,42.353361],[-71.061053,42.353348],[-71.06097,42.35335],[-71.060952,42.353363],[-71.06097,42.353376],[-71.061053,42.353375],[-71.061072,42.353361]]],[[[-71.061055,42.34917],[-71.061034,42.349132],[-71.060984,42.349117],[-71.060749,42.349125],[-71.060705,42.349174],[-71.060725,42.349211],[-71.060776,42.349227],[-71.061011,42.349218],[-71.061055,42.34917]]],[[[-71.061022,42.353218],[-71.061003,42.353205],[-71.06092,42.353207],[-71.060902,42.35322],[-71.06092,42.353233],[-71.061003,42.353232],[-71.061022,42.353218]]],[[[-71.061013,42.353328],[-71.060995,42.353315],[-71.060905,42.353317],[-71.060887,42.35333],[-71.060905,42.353343],[-71.060995,42.353342],[-71.061013,42.353328]]],[[[-71.060946,42.3533],[-71.060927,42.353287],[-71.060844,42.353289],[-71.060826,42.353302],[-71.060844,42.353315],[-71.060927,42.353314],[-71.060946,42.3533]]],[[[-71.060875,42.349387],[-71.060845,42.349354],[-71.060684,42.349354],[-71.06065,42.349365],[-71.060635,42.34939],[-71.06054,42.349394],[-71.060522,42.349407],[-71.06054,42.34942],[-71.060826,42.349423],[-71.06086,42.349412],[-71.060875,42.349387]]],[[[-71.060859,42.349503],[-71.060845,42.349477],[-71.06081,42.349467],[-71.060646,42.34947],[-71.060502,42.349503],[-71.06052,42.349516],[-71.0606,42.349515],[-71.060646,42.349542],[-71.060829,42.349536],[-71.060859,42.349503]]],[[[-71.060773,42.349667],[-71.060759,42.349641],[-71.060724,42.349631],[-71.06047,42.349627],[-71.060452,42.34964],[-71.060518,42.349652],[-71.060515,42.349684],[-71.06056,42.349706],[-71.060743,42.3497],[-71.060773,42.349667]]],[[[-71.060752,42.349788],[-71.060737,42.349761],[-71.0607,42.34975],[-71.06051,42.349757],[-71.060478,42.349792],[-71.060493,42.349819],[-71.06053,42.34983],[-71.06072,42.349824],[-71.060752,42.349788]]],[[[-71.060712,42.349258],[-71.060693,42.349245],[-71.06061,42.349247],[-71.060592,42.34926],[-71.06061,42.349273],[-71.060693,42.349272],[-71.060712,42.349258]]],[[[-71.060692,42.349298],[-71.060673,42.349285],[-71.06059,42.349287],[-71.060572,42.3493],[-71.06059,42.349313],[-71.060673,42.349312],[-71.060692,42.349298]]],[[[-71.060682,42.353038],[-71.060663,42.353025],[-71.06058,42.353027],[-71.060562,42.35304],[-71.06058,42.353053],[-71.060663,42.353052],[-71.060682,42.353038]]],[[[-71.060672,42.34934],[-71.060653,42.349327],[-71.06057,42.349329],[-71.060552,42.349342],[-71.06057,42.349355],[-71.060653,42.349354],[-71.060672,42.34934]]],[[[-71.060638,42.349451],[-71.06062,42.349438],[-71.06053,42.34944],[-71.060512,42.349453],[-71.06053,42.349466],[-71.06062,42.349465],[-71.060638,42.349451]]],[[[-71.060602,42.352995],[-71.060551,42.352982],[-71.060558,42.352972],[-71.06054,42.352959],[-71.06045,42.352961],[-71.060432,42.352974],[-71.060489,42.352987],[-71.060482,42.352997],[-71.0605,42.35301],[-71.060583,42.353009],[-71.060602,42.352995]]],[[[-71.060598,42.353281],[-71.06058,42.353268],[-71.06049,42.35327],[-71.060472,42.353283],[-71.06049,42.353296],[-71.06058,42.353295],[-71.060598,42.353281]]],[[[-71.060588,42.353148],[-71.060569,42.353135],[-71.060486,42.353137],[-71.060468,42.35315],[-71.060486,42.353163],[-71.060569,42.353162],[-71.060588,42.353148]]],[[[-71.060588,42.349598],[-71.060569,42.349585],[-71.060486,42.349587],[-71.060468,42.3496],[-71.060486,42.349613],[-71.060569,42.349612],[-71.060588,42.349598]]],[[[-71.060588,42.349554],[-71.060569,42.349541],[-71.060486,42.349543],[-71.060468,42.349556],[-71.060486,42.349569],[-71.060569,42.349568],[-71.060588,42.349554]]],[[[-71.060564,42.353402],[-71.06054,42.353375],[-71.0604,42.353367],[-71.060352,42.353385],[-71.060344,42.353416],[-71.060365,42.353432],[-71.060322,42.353447],[-71.06034,42.35346],[-71.060423,42.353459],[-71.060436,42.353436],[-71.06054,42.353429],[-71.060564,42.353402]]],[[[-71.060512,42.353098],[-71.060493,42.353085],[-71.06041,42.353087],[-71.060392,42.3531],[-71.06041,42.353113],[-71.060493,42.353112],[-71.060512,42.353098]]],[[[-71.060478,42.349882],[-71.06046,42.349869],[-71.06037,42.349871],[-71.060352,42.349884],[-71.06037,42.349897],[-71.06046,42.349896],[-71.060478,42.349882]]],[[[-71.060458,42.353068],[-71.060439,42.353055],[-71.060356,42.353057],[-71.060338,42.35307],[-71.060356,42.353083],[-71.060439,42.353082],[-71.060458,42.353068]]],[[[-71.060456,42.350147],[-71.060426,42.350114],[-71.060377,42.350112],[-71.06037,42.350091],[-71.06028,42.350092],[-71.060216,42.35015],[-71.060231,42.350175],[-71.060265,42.350186],[-71.060426,42.35018],[-71.060456,42.350147]]],[[[-71.060402,42.350035],[-71.060383,42.350022],[-71.0603,42.350024],[-71.060282,42.350037],[-71.0603,42.35005],[-71.060383,42.350049],[-71.060402,42.350035]]],[[[-71.060319,42.349467],[-71.06028,42.349438],[-71.06012,42.349443],[-71.060096,42.34947],[-71.060135,42.349499],[-71.060295,42.349494],[-71.060319,42.349467]]],[[[-71.060263,42.353407],[-71.06025,42.353383],[-71.060218,42.353373],[-71.060043,42.353379],[-71.060015,42.35341],[-71.060028,42.353434],[-71.06006,42.353444],[-71.060235,42.353438],[-71.060263,42.353407]]],[[[-71.060246,42.349553],[-71.060217,42.349532],[-71.060079,42.349536],[-71.060061,42.349556],[-71.06009,42.349578],[-71.060228,42.349573],[-71.060246,42.349553]]],[[[-71.060242,42.35296],[-71.060223,42.352947],[-71.06014,42.352949],[-71.060122,42.352962],[-71.06014,42.352975],[-71.060223,42.352974],[-71.060242,42.35296]]],[[[-71.060225,42.349641],[-71.060189,42.349615],[-71.060036,42.34962],[-71.060014,42.349644],[-71.06005,42.34967],[-71.060203,42.349665],[-71.060225,42.349641]]],[[[-71.060124,42.351041],[-71.060112,42.351019],[-71.060082,42.35101],[-71.059914,42.351015],[-71.059888,42.351044],[-71.0599,42.351066],[-71.05993,42.351075],[-71.060098,42.35107],[-71.060124,42.351041]]],[[[-71.060022,42.351133],[-71.059996,42.351113],[-71.059875,42.351116],[-71.059851,42.351142],[-71.059875,42.351154],[-71.059996,42.351152],[-71.060022,42.351133]]],[[[-71.059974,42.353257],[-71.059962,42.353235],[-71.059932,42.353226],[-71.059764,42.353231],[-71.059738,42.35326],[-71.059764,42.353289],[-71.059828,42.35329],[-71.05984,42.353313],[-71.059936,42.353308],[-71.059936,42.353289],[-71.059974,42.353257]]],[[[-71.059848,42.352751],[-71.05983,42.352738],[-71.059777,42.352739],[-71.05976,42.352722],[-71.059616,42.352717],[-71.059603,42.35274],[-71.059654,42.352743],[-71.059521,42.35275],[-71.059491,42.352783],[-71.059521,42.352816],[-71.059682,42.352816],[-71.059727,42.352794],[-71.059727,42.352766],[-71.059706,42.35275],[-71.05974,42.352766],[-71.05983,42.352765],[-71.059848,42.352751]]],[[[-71.059796,42.354951],[-71.059778,42.354931],[-71.05975,42.35493],[-71.059746,42.3549],[-71.059696,42.354865],[-71.05955,42.354866],[-71.05952,42.354881],[-71.059527,42.354907],[-71.059578,42.354942],[-71.059615,42.354943],[-71.059629,42.354974],[-71.059767,42.354973],[-71.059796,42.354951]]],[[[-71.059791,42.351707],[-71.059776,42.351682],[-71.059742,42.351671],[-71.059581,42.351677],[-71.059506,42.35171],[-71.0596,42.351746],[-71.059761,42.35174],[-71.059791,42.351707]]],[[[-71.059696,42.351597],[-71.059663,42.351573],[-71.05953,42.351576],[-71.059507,42.351583],[-71.059499,42.351606],[-71.05942,42.351609],[-71.059406,42.351634],[-71.05943,42.351646],[-71.059551,42.351644],[-71.059676,42.351619],[-71.059696,42.351597]]],[[[-71.059616,42.35481],[-71.059596,42.354788],[-71.059557,42.354787],[-71.059566,42.354771],[-71.059533,42.354747],[-71.059536,42.35472],[-71.059517,42.354706],[-71.059364,42.354707],[-71.059331,42.354723],[-71.059339,42.354752],[-71.059375,42.354759],[-71.059377,42.354791],[-71.059426,42.354797],[-71.059418,42.354813],[-71.059438,42.354835],[-71.059583,42.354834],[-71.059616,42.35481]]],[[[-71.059602,42.351095],[-71.059583,42.351082],[-71.0595,42.351084],[-71.059482,42.351097],[-71.0595,42.35111],[-71.059583,42.351109],[-71.059602,42.351095]]],[[[-71.059562,42.351168],[-71.059543,42.351155],[-71.05946,42.351157],[-71.059442,42.35117],[-71.05946,42.351183],[-71.059543,42.351182],[-71.059562,42.351168]]],[[[-71.059512,42.353098],[-71.059493,42.353085],[-71.05941,42.353087],[-71.059392,42.3531],[-71.05941,42.353113],[-71.059493,42.353112],[-71.059512,42.353098]]],[[[-71.059502,42.353008],[-71.059483,42.352995],[-71.0594,42.352997],[-71.059382,42.35301],[-71.0594,42.353023],[-71.059483,42.353022],[-71.059502,42.353008]]],[[[-71.059501,42.351702],[-71.059478,42.351685],[-71.059364,42.351687],[-71.059341,42.351704],[-71.059364,42.351721],[-71.059478,42.351718],[-71.059501,42.351702]]],[[[-71.059437,42.351778],[-71.059414,42.351761],[-71.0593,42.351763],[-71.059277,42.35178],[-71.0593,42.351797],[-71.059414,42.351794],[-71.059437,42.351778]]],[[[-71.059383,42.351287],[-71.059353,42.351253],[-71.059309,42.351251],[-71.059319,42.351213],[-71.059293,42.351193],[-71.059091,42.351197],[-71.059061,42.35123],[-71.059091,42.351263],[-71.059135,42.351265],[-71.059121,42.35129],[-71.059147,42.351321],[-71.059106,42.351332],[-71.059091,42.351357],[-71.059121,42.35139],[-71.059323,42.351387],[-71.059353,42.351354],[-71.059328,42.351323],[-71.059369,42.351312],[-71.059383,42.351287]]],[[[-71.059268,42.353292],[-71.059249,42.353279],[-71.059063,42.353268],[-71.05898,42.35327],[-71.058962,42.353283],[-71.05898,42.353296],[-71.059159,42.353306],[-71.059249,42.353306],[-71.059268,42.353292]]],[[[-71.059226,42.354382],[-71.059193,42.354358],[-71.05906,42.354361],[-71.05903,42.354376],[-71.05903,42.354394],[-71.05906,42.354409],[-71.059193,42.354406],[-71.059226,42.354382]]],[[[-71.059187,42.351515],[-71.059161,42.351495],[-71.05904,42.351498],[-71.059016,42.351524],[-71.05904,42.351536],[-71.059161,42.351534],[-71.059187,42.351515]]],[[[-71.059182,42.351458],[-71.059163,42.351445],[-71.05908,42.351447],[-71.059062,42.35146],[-71.05908,42.351473],[-71.059163,42.351472],[-71.059182,42.351458]]],[[[-71.059145,42.351601],[-71.059109,42.351575],[-71.058956,42.35158],[-71.058934,42.351604],[-71.05897,42.35163],[-71.059123,42.351625],[-71.059145,42.351601]]],[[[-71.059102,42.35433],[-71.059083,42.354317],[-71.059,42.354319],[-71.058982,42.354332],[-71.059,42.354345],[-71.059083,42.354344],[-71.059102,42.35433]]],[[[-71.059068,42.354288],[-71.059048,42.354273],[-71.05894,42.354276],[-71.058921,42.35429],[-71.05894,42.354304],[-71.059048,42.354302],[-71.059068,42.354288]]],[[[-71.059056,42.351687],[-71.059023,42.351663],[-71.058878,42.351668],[-71.05886,42.351681],[-71.058867,42.351707],[-71.058825,42.351719],[-71.058817,42.351748],[-71.058767,42.35177],[-71.058767,42.35179],[-71.0588,42.351806],[-71.058953,42.351801],[-71.058972,42.351767],[-71.059022,42.351745],[-71.059005,42.351712],[-71.059036,42.351709],[-71.059056,42.351687]]],[[[-71.059044,42.351644],[-71.059026,42.351631],[-71.05893,42.351633],[-71.058912,42.351646],[-71.05893,42.351659],[-71.059026,42.351658],[-71.059044,42.351644]]],[[[-71.058948,42.353266],[-71.058929,42.353253],[-71.05874,42.353255],[-71.058722,42.353268],[-71.05874,42.353281],[-71.058929,42.35328],[-71.058948,42.353266]]],[[[-71.0589,42.351842],[-71.058889,42.351822],[-71.05885,42.351811],[-71.058701,42.351818],[-71.058677,42.351845],[-71.058716,42.351874],[-71.058876,42.351869],[-71.0589,42.351842]]],[[[-71.058826,42.351903],[-71.058793,42.351879],[-71.05866,42.351882],[-71.058637,42.351889],[-71.058599,42.351936],[-71.058734,42.351944],[-71.058757,42.351928],[-71.058806,42.351925],[-71.058826,42.351903]]],[[[-71.058762,42.351993],[-71.058746,42.351965],[-71.058707,42.351953],[-71.058509,42.351959],[-71.058451,42.352018],[-71.058451,42.35204],[-71.058397,42.35205],[-71.058395,42.352074],[-71.058352,42.352097],[-71.05837,42.35211],[-71.058615,42.352102],[-71.05864,42.352084],[-71.05864,42.352058],[-71.058746,42.352022],[-71.058762,42.351993]]],[[[-71.058652,42.352528],[-71.058633,42.352515],[-71.058431,42.352514],[-71.05834,42.352498],[-71.05825,42.352499],[-71.058232,42.352512],[-71.05825,42.352525],[-71.058403,42.35254],[-71.058633,42.352542],[-71.058652,42.352528]]],[[[-71.058608,42.352478],[-71.058588,42.352463],[-71.05846,42.352456],[-71.05826,42.352454],[-71.058242,42.352467],[-71.05826,42.35248],[-71.058453,42.352482],[-71.05848,42.352494],[-71.058588,42.352492],[-71.058608,42.352478]]],[[[-71.058372,42.350908],[-71.058353,42.350895],[-71.058294,42.350896],[-71.058302,42.350885],[-71.058283,42.350872],[-71.0582,42.350874],[-71.058182,42.350887],[-71.0582,42.3509],[-71.05826,42.350899],[-71.058252,42.35091],[-71.05827,42.350923],[-71.058353,42.350922],[-71.058372,42.350908]]],[[[-71.058122,42.352663],[-71.058103,42.35265],[-71.05802,42.352652],[-71.058002,42.352665],[-71.05802,42.352678],[-71.058103,42.352677],[-71.058122,42.352663]]],[[[-71.058116,42.352766],[-71.058097,42.352753],[-71.058014,42.352755],[-71.057996,42.352768],[-71.058014,42.352781],[-71.058097,42.35278],[-71.058116,42.352766]]],[[[-71.058092,42.352903],[-71.058073,42.35289],[-71.05799,42.352892],[-71.057972,42.352905],[-71.05799,42.352918],[-71.058073,42.352917],[-71.058092,42.352903]]],[[[-71.057887,42.350691],[-71.057823,42.350662],[-71.05774,42.350664],[-71.057722,42.350677],[-71.057785,42.350706],[-71.057868,42.350705],[-71.057887,42.350691]]],[[[-71.057871,42.352224],[-71.057845,42.352204],[-71.057733,42.352207],[-71.057748,42.352179],[-71.057732,42.352167],[-71.057652,42.352167],[-71.057649,42.352144],[-71.057631,42.352138],[-71.05749,42.35212],[-71.057478,42.352087],[-71.05734,42.352088],[-71.057311,42.35211],[-71.057329,42.35213],[-71.057408,42.35213],[-71.057412,42.352154],[-71.05743,42.352159],[-71.05757,42.352178],[-71.057583,42.35221],[-71.057712,42.352209],[-71.0577,42.352233],[-71.057714,42.352244],[-71.057845,42.352243],[-71.057871,42.352224]]],[[[-71.057498,42.350401],[-71.057479,42.350388],[-71.057396,42.35039],[-71.057378,42.350403],[-71.057396,42.350416],[-71.057479,42.350415],[-71.057498,42.350401]]],[[[-71.057482,42.350492],[-71.057463,42.350479],[-71.05738,42.350481],[-71.057362,42.350494],[-71.05738,42.350507],[-71.057463,42.350506],[-71.057482,42.350492]]],[[[-71.057438,42.351705],[-71.05742,42.351692],[-71.05733,42.351694],[-71.057312,42.351707],[-71.05733,42.35172],[-71.05742,42.351719],[-71.057438,42.351705]]],[[[-71.057422,42.351748],[-71.057403,42.351735],[-71.05732,42.351737],[-71.057302,42.35175],[-71.05732,42.351763],[-71.057403,42.351762],[-71.057422,42.351748]]],[[[-71.057394,42.350923],[-71.057376,42.35091],[-71.05728,42.350912],[-71.057262,42.350925],[-71.05728,42.350938],[-71.057376,42.350937],[-71.057394,42.350923]]],[[[-71.057393,42.351895],[-71.057374,42.351882],[-71.057291,42.351884],[-71.057273,42.351897],[-71.057291,42.35191],[-71.057374,42.351909],[-71.057393,42.351895]]],[[[-71.057375,42.351953],[-71.057357,42.35194],[-71.05728,42.351942],[-71.057262,42.351955],[-71.05728,42.351968],[-71.057357,42.351967],[-71.057375,42.351953]]],[[[-71.057364,42.351061],[-71.057346,42.351048],[-71.05725,42.35105],[-71.057232,42.351063],[-71.05725,42.351076],[-71.057346,42.351075],[-71.057364,42.351061]]],[[[-71.057292,42.351408],[-71.057273,42.351395],[-71.05719,42.351397],[-71.057172,42.35141],[-71.05719,42.351423],[-71.057273,42.351422],[-71.057292,42.351408]]],[[[-71.057282,42.350548],[-71.057263,42.350535],[-71.05718,42.350537],[-71.057166,42.350519],[-71.057076,42.35052],[-71.057058,42.350533],[-71.057076,42.350546],[-71.057159,42.350545],[-71.057173,42.350562],[-71.057263,42.350562],[-71.057282,42.350548]]],[[[-71.057231,42.35063],[-71.057212,42.350617],[-71.057129,42.350619],[-71.057111,42.350632],[-71.057129,42.350645],[-71.057212,42.350644],[-71.057231,42.35063]]],[[[-71.057156,42.3499],[-71.057123,42.349876],[-71.05699,42.349879],[-71.05696,42.349894],[-71.05696,42.349912],[-71.05699,42.349927],[-71.057123,42.349924],[-71.057156,42.3499]]],[[[-71.057122,42.349838],[-71.057103,42.349825],[-71.05702,42.349827],[-71.057002,42.34984],[-71.05702,42.349853],[-71.057103,42.349852],[-71.057122,42.349838]]],[[[-71.056974,42.349757],[-71.056935,42.349728],[-71.056775,42.349733],[-71.056751,42.34976],[-71.05679,42.349789],[-71.05695,42.349784],[-71.056974,42.349757]]],[[[-71.05697,42.352026],[-71.056952,42.352012],[-71.05685,42.352015],[-71.056832,42.352028],[-71.05685,42.352041],[-71.056952,42.352039],[-71.05697,42.352026]]],[[[-71.056926,42.349837],[-71.056893,42.349813],[-71.05676,42.349816],[-71.05673,42.349831],[-71.05673,42.349849],[-71.05676,42.349864],[-71.056893,42.349861],[-71.056926,42.349837]]],[[[-71.056918,42.350228],[-71.056899,42.350215],[-71.056816,42.350217],[-71.056798,42.35023],[-71.056816,42.350243],[-71.056899,42.350242],[-71.056918,42.350228]]],[[[-71.056916,42.349912],[-71.056901,42.349887],[-71.056867,42.349876],[-71.056706,42.349882],[-71.056676,42.349915],[-71.056691,42.34994],[-71.056725,42.349951],[-71.056886,42.349945],[-71.056916,42.349912]]],[[[-71.056882,42.350305],[-71.056863,42.350292],[-71.05678,42.350294],[-71.056762,42.350307],[-71.05678,42.35032],[-71.056863,42.350319],[-71.056882,42.350305]]],[[[-71.056871,42.350003],[-71.056856,42.349978],[-71.056822,42.349967],[-71.056661,42.349973],[-71.056631,42.350006],[-71.056646,42.350031],[-71.05668,42.350042],[-71.056841,42.350036],[-71.056871,42.350003]]],[[[-71.056844,42.351992],[-71.056826,42.351979],[-71.05673,42.351981],[-71.056712,42.351994],[-71.05673,42.352007],[-71.056826,42.352006],[-71.056844,42.351992]]],[[[-71.056786,42.350091],[-71.056757,42.35007],[-71.056619,42.350074],[-71.056601,42.350094],[-71.05663,42.350116],[-71.056768,42.350111],[-71.056786,42.350091]]],[[[-71.056756,42.350182],[-71.056723,42.350158],[-71.05659,42.350161],[-71.05656,42.350176],[-71.05656,42.350194],[-71.05659,42.350209],[-71.056723,42.350206],[-71.056756,42.350182]]],[[[-71.056747,42.353201],[-71.056721,42.353181],[-71.0566,42.353184],[-71.056576,42.35321],[-71.0566,42.353222],[-71.056721,42.35322],[-71.056747,42.353201]]],[[[-71.056745,42.350611],[-71.056727,42.350597],[-71.056625,42.3506],[-71.056607,42.350613],[-71.056625,42.350626],[-71.056727,42.350624],[-71.056745,42.350611]]],[[[-71.05671,42.350678],[-71.056692,42.350664],[-71.05659,42.350667],[-71.056572,42.35068],[-71.05659,42.350693],[-71.056692,42.350691],[-71.05671,42.350678]]],[[[-71.056701,42.350831],[-71.056686,42.350806],[-71.056652,42.350795],[-71.056491,42.350801],[-71.056461,42.350834],[-71.056476,42.350859],[-71.05651,42.35087],[-71.056671,42.350864],[-71.056701,42.350831]]],[[[-71.056668,42.353163],[-71.056648,42.353148],[-71.05654,42.353151],[-71.056521,42.353165],[-71.05654,42.353179],[-71.056648,42.353177],[-71.056668,42.353163]]],[[[-71.056593,42.353125],[-71.056573,42.35311],[-71.056465,42.353113],[-71.056446,42.353127],[-71.056465,42.353141],[-71.056573,42.353139],[-71.056593,42.353125]]],[[[-71.05657,42.351918],[-71.056552,42.351904],[-71.056462,42.351906],[-71.056454,42.351886],[-71.05637,42.351887],[-71.056352,42.3519],[-71.05637,42.351913],[-71.056436,42.351912],[-71.056443,42.351932],[-71.056552,42.351931],[-71.05657,42.351918]]],[[[-71.056512,42.351028],[-71.056493,42.351015],[-71.05641,42.351017],[-71.056392,42.35103],[-71.05641,42.351043],[-71.056493,42.351042],[-71.056512,42.351028]]],[[[-71.056507,42.353088],[-71.056484,42.353071],[-71.05637,42.353073],[-71.056347,42.35309],[-71.05637,42.353107],[-71.056484,42.353104],[-71.056507,42.353088]]],[[[-71.0565,42.351095],[-71.056482,42.351081],[-71.05638,42.351084],[-71.056362,42.351097],[-71.05638,42.35111],[-71.056482,42.351108],[-71.0565,42.351095]]],[[[-71.056448,42.351174],[-71.056429,42.351161],[-71.056346,42.351163],[-71.056328,42.351176],[-71.056346,42.351189],[-71.056429,42.351188],[-71.056448,42.351174]]],[[[-71.05644,42.354928],[-71.056422,42.354914],[-71.05632,42.354917],[-71.056302,42.35493],[-71.05632,42.354943],[-71.056422,42.354941],[-71.05644,42.354928]]],[[[-71.05643,42.354834],[-71.056412,42.35482],[-71.05631,42.354823],[-71.056292,42.354836],[-71.05631,42.354849],[-71.056412,42.354847],[-71.05643,42.354834]]],[[[-71.056427,42.354668],[-71.056401,42.354648],[-71.05628,42.354651],[-71.056256,42.354677],[-71.05628,42.354689],[-71.056401,42.354687],[-71.056427,42.354668]]],[[[-71.056418,42.354748],[-71.056398,42.354733],[-71.05629,42.354736],[-71.056271,42.35475],[-71.05629,42.354764],[-71.056398,42.354762],[-71.056418,42.354748]]],[[[-71.056358,42.35084],[-71.05634,42.350826],[-71.056238,42.350829],[-71.05622,42.350842],[-71.056238,42.350855],[-71.05634,42.350853],[-71.056358,42.35084]]],[[[-71.056348,42.351374],[-71.05633,42.351361],[-71.05624,42.351363],[-71.056222,42.351376],[-71.05624,42.351389],[-71.05633,42.351388],[-71.056348,42.351374]]],[[[-71.056332,42.353048],[-71.056313,42.353035],[-71.05623,42.353037],[-71.056212,42.35305],[-71.05623,42.353063],[-71.056313,42.353062],[-71.056332,42.353048]]],[[[-71.056329,42.351409],[-71.056311,42.351396],[-71.056221,42.351398],[-71.056203,42.351411],[-71.056221,42.351424],[-71.056311,42.351423],[-71.056329,42.351409]]],[[[-71.056328,42.350931],[-71.05631,42.350917],[-71.056208,42.35092],[-71.05619,42.350933],[-71.056208,42.350946],[-71.05631,42.350944],[-71.056328,42.350931]]],[[[-71.056298,42.351448],[-71.05628,42.351435],[-71.05619,42.351437],[-71.056172,42.35145],[-71.05619,42.351463],[-71.05628,42.351462],[-71.056298,42.351448]]],[[[-71.056288,42.351034],[-71.05627,42.35102],[-71.056168,42.351023],[-71.05615,42.351036],[-71.056168,42.351049],[-71.05627,42.351047],[-71.056288,42.351034]]],[[[-71.05625,42.351143],[-71.056232,42.351129],[-71.05613,42.351132],[-71.056112,42.351145],[-71.05613,42.351158],[-71.056232,42.351156],[-71.05625,42.351143]]],[[[-71.056168,42.351708],[-71.05615,42.351695],[-71.05606,42.351697],[-71.056042,42.35171],[-71.05606,42.351723],[-71.05615,42.351722],[-71.056168,42.351708]]],[[[-71.056079,42.351353],[-71.056061,42.351339],[-71.055959,42.351342],[-71.055941,42.351355],[-71.055959,42.351368],[-71.056061,42.351366],[-71.056079,42.351353]]],[[[-71.056055,42.35141],[-71.056037,42.351396],[-71.055935,42.351399],[-71.055917,42.351412],[-71.055935,42.351425],[-71.056037,42.351423],[-71.056055,42.35141]]],[[[-71.056022,42.35148],[-71.056004,42.351466],[-71.055902,42.351469],[-71.055884,42.351482],[-71.055902,42.351495],[-71.056004,42.351493],[-71.056022,42.35148]]],[[[-71.056011,42.352223],[-71.055996,42.352198],[-71.055962,42.352187],[-71.055801,42.352193],[-71.055737,42.352276],[-71.055752,42.352301],[-71.055786,42.352312],[-71.055947,42.352306],[-71.056011,42.352223]]],[[[-71.05599,42.351559],[-71.055972,42.351545],[-71.05587,42.351548],[-71.055852,42.351561],[-71.05587,42.351574],[-71.055972,42.351572],[-71.05599,42.351559]]],[[[-71.055961,42.35162],[-71.055943,42.351606],[-71.055841,42.351609],[-71.055823,42.351622],[-71.055841,42.351635],[-71.055943,42.351633],[-71.055961,42.35162]]],[[[-71.055922,42.353333],[-71.055889,42.353309],[-71.055756,42.353312],[-71.055726,42.353327],[-71.055726,42.353345],[-71.055756,42.35336],[-71.055889,42.353357],[-71.055922,42.353333]]],[[[-71.05591,42.351725],[-71.055892,42.351711],[-71.05579,42.351714],[-71.055772,42.351727],[-71.05579,42.35174],[-71.055892,42.351738],[-71.05591,42.351725]]],[[[-71.05589,42.351774],[-71.055872,42.35176],[-71.05577,42.351763],[-71.055752,42.351776],[-71.05577,42.351789],[-71.055872,42.351787],[-71.05589,42.351774]]],[[[-71.055851,42.353391],[-71.055822,42.35337],[-71.055684,42.353374],[-71.055666,42.353394],[-71.055684,42.353414],[-71.055626,42.353416],[-71.055607,42.35343],[-71.055626,42.353444],[-71.055734,42.353442],[-71.055748,42.353418],[-71.055833,42.353411],[-71.055851,42.353391]]],[[[-71.05566,42.353495],[-71.055642,42.353481],[-71.05554,42.353484],[-71.055522,42.353497],[-71.05554,42.35351],[-71.055642,42.353508],[-71.05566,42.353495]]],[[[-71.055588,42.353528],[-71.05557,42.353515],[-71.05548,42.353517],[-71.055462,42.35353],[-71.05548,42.353543],[-71.05557,42.353542],[-71.055588,42.353528]]],[[[-71.055366,42.353669],[-71.055327,42.353638],[-71.055244,42.35364],[-71.055189,42.353657],[-71.055185,42.353683],[-71.055147,42.3537],[-71.05517,42.353717],[-71.055284,42.353714],[-71.055366,42.353669]]]]},"properties":{"kind":"tree"}}]}