{"type":"FeatureCollection","features":[{"type":"Feature","geometry":{"type":"MultiPolygon","coordinates":[[[[-71.067563,42.35185],[-71.06754,42.351716],[-71.06728,42.35113],[-71.066747,42.351106],[-71.065551,42.351247],[-71.06556,42.351217],[-71.065348,42.351197],[-71.064018,42.351137],[-71.06402,42.351127],[-71.063633,42.351086],[-71.063144,42.351048],[-71.062617,42.350957],[-71.062401,42.350947],[-71.062417,42.350906],[-71.061903,42.350779],[-71.061597,42.350765],[-71.061565,42.350845],[-71.062083,42.35096],[-71.062289,42.350969],[-71.062279,42.350999],[-71.062142,42.350964],[-71.061979,42.350956],[-71.061738,42.350904],[-71.06154,42.350894],[-71.061481,42.35107],[-71.061098,42.350994],[-71.060791,42.35098],[-71.060811,42.350932],[-71.06077,42.350923],[-71.060811,42.350818],[-71.060772,42.350809],[-71.060813,42.350707],[-71.060845,42.350709],[-71.060866,42.350657],[-71.060883,42.350657],[-71.060839,42.350774],[-71.061055,42.350822],[-71.061513,42.350861],[-71.061546,42.350741],[-71.061485,42.350697],[-71.061094,42.350597],[-71.061109,42.350556],[-71.060834,42.350479],[-71.060395,42.350464],[-71.060384,42.350491],[-71.060319,42.350488],[-71.060361,42.350378],[-71.060112,42.350307],[-71.059867,42.350296],[-71.059794,42.350499],[-71.059836,42.350508],[-71.059789,42.350634],[-71.060019,42.350684],[-71.060139,42.350689],[-71.06016,42.350635],[-71.060143,42.350632],[-71.060199,42.350634],[-71.059972,42.351168],[-71.060469,42.351279],[-71.06062,42.351286],[-71.060611,42.351308],[-71.061072,42.351411],[-71.061936,42.351431],[-71.062235,42.351422],[-71.062728,42.351525],[-71.063047,42.35154],[-71.063064,42.351484],[-71.064044,42.351598],[-71.062895,42.351546],[-71.062888,42.351584],[-71.062023,42.351525],[-71.061423,42.351538],[-71.061043,42.351511],[-71.060575,42.351411],[-71.060419,42.351403],[-71.060428,42.351356],[-71.06007,42.351276],[-71.059758,42.351262],[-71.059709,42.351391],[-71.05977,42.351811],[-71.059577,42.351808],[-71.059386,42.351848],[-71.059412,42.35202],[-71.059226,42.352012],[-71.059026,42.352083],[-71.058873,42.352183],[-71.058423,42.352158],[-71.058554,42.351757],[-71.058542,42.35174],[-71.057794,42.351628],[-71.05765,42.351621],[-71.057489,42.35155],[-71.057906,42.351605],[-71.057903,42.351616],[-71.058131,42.351651],[-71.058373,42.351662],[-71.058362,42.351689],[-71.058558,42.351732],[-71.058808,42.351743],[-71.058996,42.351565],[-71.05911,42.351428],[-71.05924,42.351224],[-71.059288,42.351112],[-71.058883,42.351022],[-71.058745,42.351016],[-71.058763,42.350969],[-71.057904,42.350773],[-71.057625,42.35076],[-71.057636,42.350705],[-71.057256,42.350611],[-71.05694,42.350597],[-71.056815,42.350607],[-71.056678,42.350643],[-71.05656,42.350888],[-71.056863,42.350963],[-71.056543,42.350948],[-71.056401,42.351249],[-71.056642,42.351347],[-71.056294,42.351331],[-71.056145,42.351628],[-71.055913,42.351564],[-71.055498,42.351545],[-71.054479,42.351779],[-71.054307,42.351954],[-71.054833,42.352232],[-71.054993,42.352283],[-71.055161,42.352308],[-71.055576,42.352327],[-71.055753,42.352287],[-71.055873,42.352197],[-71.055964,42.352088],[-71.056118,42.351775],[-71.057078,42.352025],[-71.057276,42.352034],[-71.05754,42.352117],[-71.057084,42.352097],[-71.056959,42.352065],[-71.056202,42.352031],[-71.05594,42.352127],[-71.055846,42.352326],[-71.055909,42.352342],[-71.055876,42.352367],[-71.056034,42.352612],[-71.056276,42.352641],[-71.057034,42.352675],[-71.057585,42.352527],[-71.058138,42.352552],[-71.058055,42.352616],[-71.058033,42.35275],[-71.057668,42.352733],[-71.05756,42.352748],[-71.05731,42.352888],[-71.057163,42.352943],[-71.05712,42.352979],[-71.0571,42.353025],[-71.057106,42.353073],[-71.057175,42.35314],[-71.056237,42.353097],[-71.055998,42.353225],[-71.056017,42.353299],[-71.055897,42.353294],[-71.055573,42.353469],[-71.0556,42.353498],[-71.055405,42.353606],[-71.055342,42.353603],[-71.054915,42.353838],[-71.054982,42.353906],[-71.054776,42.353908],[-71.054391,42.354111],[-71.054359,42.354149],[-71.054358,42.354189],[-71.054619,42.354471],[-71.054935,42.354497],[-71.054775,42.354643],[-71.05498,42.354839],[-71.055551,42.354865],[-71.055575,42.354854],[-71.055688,42.355479],[-71.056832,42.355531],[-71.057287,42.355487],[-71.057393,42.355459],[-71.058423,42.3555],[-71.058875,42.355456],[-71.05883,42.355195],[-71.059228,42.355368],[-71.059554,42.355383],[-71.059583,42.355356],[-71.060416,42.355394],[-71.060451,42.355367],[-71.060481,42.355389],[-71.060674,42.355397],[-71.060868,42.355222],[-71.061006,42.355229],[-71.061131,42.355112],[-71.061373,42.355233],[-71.061738,42.35525],[-71.061908,42.355065],[-71.062184,42.355207],[-71.062466,42.35522],[-71.062571,42.355107],[-71.062691,42.355175],[-71.062952,42.355187],[-71.062986,42.355152],[-71.063118,42.355222],[-71.063461,42.355238],[-71.06352,42.355161],[-71.063319,42.355058],[-71.063764,42.355078],[-71.063808,42.355069],[-71.063912,42.354877],[-71.063963,42.354879],[-71.063983,42.354837],[-71.064387,42.354856],[-71.064422,42.354761],[-71.064567,42.354768],[-71.064856,42.354232],[-71.064744,42.354198],[-71.064756,42.354177],[-71.064731,42.354165],[-71.064511,42.354104],[-71.064588,42.353929],[-71.064343,42.353854],[-71.064631,42.353867],[-71.064709,42.353737],[-71.064835,42.353737],[-71.064874,42.353484],[-71.064307,42.353458],[-71.064315,42.353435],[-71.064204,42.353414],[-71.064156,42.353375],[-71.063651,42.353352],[-71.063204,42.353334],[-71.063201,42.353407],[-71.063069,42.353402],[-71.063098,42.353324],[-71.063099,42.353214],[-71.064526,42.353313],[-71.064508,42.353366],[-71.064629,42.353382],[-71.064663,42.35328],[-71.06455,42.353266],[-71.064561,42.353239],[-71.064762,42.353248],[-71.064829,42.353168],[-71.064853,42.353101],[-71.065123,42.353114],[-71.065177,42.353017],[-71.065091,42.352618],[-71.064917,42.352606],[-71.064931,42.35246],[-71.064897,42.352434],[-71.063363,42.352382],[-71.063363,42.352392],[-71.062724,42.352454],[-71.062724,42.352488],[-71.062412,42.352483],[-71.061487,42.352561],[-71.061489,42.352587],[-71.061336,42.35258],[-71.061194,42.352592],[-71.061188,42.35261],[-71.060985,42.352601],[-71.060761,42.352619],[-71.059198,42.352537],[-71.059329,42.352489],[-71.059351,42.352442],[-71.059748,42.352478],[-71.060093,42.352494],[-71.06009,42.352476],[-71.060157,42.352479],[-71.060161,42.352505],[-71.060607,42.352525],[-71.061288,42.352523],[-71.061663,42.35249],[-71.061674,42.352428],[-71.062038,42.352423],[-71.062203,42.352403],[-71.062202,42.352386],[-71.062523,42.352386],[-71.062798,42.352364],[-71.062816,42.352355],[-71.062861,42.352212],[-71.0632,42.352217],[-71.063567,42.352256],[-71.064687,42.352299],[-71.064683,42.352315],[-71.065116,42.352343],[-71.066428,42.352409],[-71.066442,42.352407],[-71.066456,42.352343],[-71.066489,42.352119],[-71.066473,42.352118],[-71.066491,42.351894],[-71.066305,42.351881],[-71.066308,42.351849],[-71.066435,42.351845],[-71.066434,42.351821],[-71.066847,42.351871],[-71.06738,42.351895],[-71.067563,42.35185]],[[-71.065457,42.351739],[-71.064897,42.351709],[-71.064894,42.351687],[-71.065125,42.351697],[-71.065131,42.351675],[-71.065351,42.351695],[-71.065457,42.351739]],[[-71.063883,42.35383],[-71.063609,42.353818],[-71.063466,42.354038],[-71.062843,42.353995],[-71.062639,42.353966],[-71.063306,42.353985],[-71.06335,42.353771],[-71.063744,42.353789],[-71.063883,42.35383]],[[-71.063647,42.3514],[-71.063509,42.351381],[-71.063513,42.351363],[-71.063339,42.351346],[-71.063344,42.351323],[-71.063631,42.351352],[-71.063623,42.351394],[-71.063647,42.3514]],[[-71.062784,42.354782],[-71.062756,42.354812],[-71.062688,42.354778],[-71.062784,42.354782]],[[-71.062712,42.353174],[-71.062415,42.35316],[-71.061919,42.353181],[-71.061917,42.353113],[-71.062649,42.353086],[-71.062657,42.353133],[-71.062712,42.353174]],[[-71.062601,42.354749],[-71.062392,42.354739],[-71.062351,42.354709],[-71.062376,42.354682],[-71.062248,42.354619],[-71.062279,42.354586],[-71.062278,42.3546],[-71.062601,42.354749]],[[-71.062443,42.351047],[-71.062404,42.351045],[-71.062403,42.351036],[-71.062443,42.351047]],[[-71.062372,42.353762],[-71.062291,42.353859],[-71.061953,42.353694],[-71.061987,42.353675],[-71.062143,42.353752],[-71.062372,42.353762]],[[-71.062193,42.352181],[-71.062188,42.352209],[-71.061804,42.352207],[-71.061723,42.352231],[-71.061738,42.352305],[-71.061696,42.352303],[-71.061402,42.352062],[-71.061703,42.35207],[-71.061723,42.35216],[-71.062193,42.352181]],[[-71.061955,42.354435],[-71.061947,42.354434],[-71.06195,42.354432],[-71.061955,42.354435]],[[-71.061606,42.354909],[-71.061361,42.354898],[-71.061441,42.354823],[-71.061606,42.354909]],[[-71.061595,42.351885],[-71.061379,42.351889],[-71.061375,42.35186],[-71.06159,42.35187],[-71.061595,42.351885]],[[-71.061392,42.352054],[-71.061322,42.351997],[-71.061319,42.351945],[-71.061369,42.351937],[-71.061392,42.352054]],[[-71.061137,42.353292],[-71.060695,42.353272],[-71.060457,42.353527],[-71.060377,42.353484],[-71.060201,42.353476],[-71.060224,42.353451],[-71.060163,42.353424],[-71.058601,42.353346],[-71.058016,42.353373],[-71.05798,42.35339],[-71.057951,42.353464],[-71.057536,42.353445],[-71.057612,42.353409],[-71.05759,42.353306],[-71.057316,42.353193],[-71.057956,42.353237],[-71.05799,42.353263],[-71.05843,42.353283],[-71.05969,42.35329],[-71.059787,42.353245],[-71.059895,42.35329],[-71.060355,42.353311],[-71.060423,42.353281],[-71.060556,42.353287],[-71.060671,42.353164],[-71.060625,42.35314],[-71.060658,42.353104],[-71.060637,42.353072],[-71.060852,42.353083],[-71.060815,42.353125],[-71.061137,42.353292]],[[-71.060712,42.351699],[-71.060551,42.351713],[-71.060521,42.351631],[-71.0607,42.351661],[-71.060712,42.351699]],[[-71.060596,42.352139],[-71.060453,42.352143],[-71.060441,42.352067],[-71.060292,42.35206],[-71.060286,42.352011],[-71.060462,42.352019],[-71.060554,42.352003],[-71.060596,42.352139]],[[-71.060396,42.351501],[-71.060351,42.351499],[-71.060393,42.35149],[-71.060396,42.351501]],[[-71.060257,42.351834],[-71.060254,42.351834],[-71.060251,42.351813],[-71.060257,42.351834]],[[-71.059601,42.354321],[-71.059374,42.35453],[-71.059377,42.354583],[-71.059431,42.354634],[-71.059271,42.354627],[-71.05922,42.354596],[-71.059118,42.354592],[-71.059256,42.354467],[-71.05903,42.354315],[-71.059075,42.354317],[-71.059098,42.354281],[-71.059601,42.354321]],[[-71.058123,42.354708],[-71.05803,42.354799],[-71.057267,42.354764],[-71.057258,42.354713],[-71.057123,42.354652],[-71.056982,42.354645],[-71.057153,42.354543],[-71.057156,42.354503],[-71.057098,42.35445],[-71.057481,42.354419],[-71.057472,42.354274],[-71.057654,42.354288],[-71.057676,42.354253],[-71.057754,42.354257],[-71.057546,42.354581],[-71.057938,42.3547],[-71.058123,42.354708]],[[-71.057024,42.35099],[-71.057021,42.350996],[-71.05699,42.350988],[-71.057024,42.35099]],[[-71.056987,42.353957],[-71.056954,42.353991],[-71.056812,42.353984],[-71.056806,42.353949],[-71.056987,42.353957]],[[-71.056653,42.353497],[-71.05644,42.353603],[-71.056375,42.353474],[-71.056653,42.353497]],[[-71.055912,42.353843],[-71.055891,42.353852],[-71.055907,42.353948],[-71.055706,42.353939],[-71.055874,42.353849],[-71.055867,42.353841],[-71.055912,42.353843]]],[[[-71.066887,42.348547],[-71.066431,42.348484],[-71.066454,42.348375],[-71.06647,42.348376],[-71.066488,42.348284],[-71.066474,42.348282],[-71.066516,42.348088],[-71.065837,42.348044],[-71.065752,42.348444],[-71.065819,42.348453],[-71.065804,42.348522],[-71.0659,42.348533],[-71.065917,42.348586],[-71.066455,42.348649],[-71.066859,42.348667],[-71.066887,42.348547]]],[[[-71.066842,42.351034],[-71.06681,42.350705],[-71.065593,42.350659],[-71.065597,42.350645],[-71.065763,42.350661],[-71.066042,42.350619],[-71.06604,42.350603],[-71.066308,42.350597],[-71.06629,42.350377],[-71.066038,42.350366],[-71.066036,42.350332],[-71.065679,42.350336],[-71.065694,42.35028],[-71.065545,42.350228],[-71.066408,42.350265],[-71.06661,42.350251],[-71.066575,42.349922],[-71.06647,42.349801],[-71.065972,42.349778],[-71.065986,42.349709],[-71.066142,42.349716],[-71.066219,42.349692],[-71.066227,42.349664],[-71.066259,42.349653],[-71.066185,42.349506],[-71.06624,42.349489],[-71.066184,42.349391],[-71.066051,42.349385],[-71.065989,42.349405],[-71.066024,42.34947],[-71.06562,42.349445],[-71.065521,42.349461],[-71.065486,42.349623],[-71.0648,42.349518],[-71.064416,42.349501],[-71.064408,42.349527],[-71.064387,42.349522],[-71.064259,42.349402],[-71.064309,42.349404],[-71.064354,42.349372],[-71.064404,42.349243],[-71.064424,42.349135],[-71.064653,42.349291],[-71.065044,42.349309],[-71.06521,42.349224],[-71.065311,42.349226],[-71.065573,42.349103],[-71.065418,42.348922],[-71.065419,42.348806],[-71.065375,42.348692],[-71.06494,42.348598],[-71.064465,42.348552],[-71.064483,42.348487],[-71.064161,42.348437],[-71.063759,42.348419],[-71.063766,42.348394],[-71.062894,42.348263],[-71.062604,42.34825],[-71.062448,42.348644],[-71.063332,42.348779],[-71.063516,42.34879],[-71.063505,42.348828],[-71.063547,42.348988],[-71.063284,42.348976],[-71.063309,42.348904],[-71.062711,42.34874],[-71.062425,42.348727],[-71.062234,42.34916],[-71.062236,42.349176],[-71.062365,42.349243],[-71.062014,42.349228],[-71.061907,42.349204],[-71.06199,42.349005],[-71.061907,42.348987],[-71.06205,42.348993],[-71.062167,42.348742],[-71.061997,42.348704],[-71.06206,42.348546],[-71.062216,42.348582],[-71.062319,42.348587],[-71.062352,42.348509],[-71.062435,42.348513],[-71.062542,42.348238],[-71.06243,42.348214],[-71.062255,42.348206],[-71.062172,42.348415],[-71.062118,42.348403],[-71.06221,42.348173],[-71.062083,42.348137],[-71.061011,42.348097],[-71.060549,42.348739],[-71.060786,42.348796],[-71.061122,42.348811],[-71.061094,42.348905],[-71.061124,42.348928],[-71.060878,42.348902],[-71.060806,42.349085],[-71.060321,42.349063],[-71.060204,42.349326],[-71.059925,42.350048],[-71.060226,42.350142],[-71.060403,42.35015],[-71.06038,42.350207],[-71.060828,42.350333],[-71.061016,42.350342],[-71.061001,42.350379],[-71.061484,42.350494],[-71.061695,42.350504],[-71.061673,42.350559],[-71.062184,42.350689],[-71.062295,42.350694],[-71.062285,42.350707],[-71.062508,42.350769],[-71.0639,42.350852],[-71.063937,42.350869],[-71.064822,42.350958],[-71.065301,42.35098],[-71.065374,42.351002],[-71.066627,42.351064],[-71.066842,42.351034]],[[-71.065579,42.350659],[-71.06521,42.350652],[-71.06516,42.35083],[-71.065095,42.350827],[-71.065141,42.350653],[-71.065101,42.350637],[-71.065579,42.350659]],[[-71.065367,42.350105],[-71.065345,42.350185],[-71.064994,42.350169],[-71.065016,42.350086],[-71.065367,42.350105]],[[-71.064498,42.349077],[-71.064437,42.349106],[-71.06428,42.34908],[-71.064307,42.349024],[-71.064474,42.349049],[-71.064498,42.349077]],[[-71.064195,42.350211],[-71.06409,42.350381],[-71.064113,42.350297],[-71.064078,42.350175],[-71.063796,42.350147],[-71.063855,42.350024],[-71.063902,42.350026],[-71.063911,42.349996],[-71.06387,42.34999],[-71.063882,42.349949],[-71.064091,42.350184],[-71.064127,42.350208],[-71.064195,42.350211]],[[-71.062735,42.349386],[-71.062734,42.349387],[-71.06273,42.349386],[-71.062735,42.349386]],[[-71.062716,42.349687],[-71.062675,42.349686],[-71.062685,42.349673],[-71.062716,42.349687]],[[-71.062704,42.350307],[-71.062701,42.35032],[-71.062669,42.350306],[-71.062704,42.350307]],[[-71.06256,42.349792],[-71.062503,42.349869],[-71.06238,42.349864],[-71.062448,42.349841],[-71.062501,42.349843],[-71.062515,42.349811],[-71.06256,42.349792]],[[-71.062035,42.349676],[-71.062032,42.349685],[-71.062008,42.349675],[-71.062035,42.349676]],[[-71.06165,42.348953],[-71.061612,42.348952],[-71.061615,42.348946],[-71.06165,42.348953]],[[-71.061547,42.349579],[-71.061406,42.349572],[-71.061426,42.349524],[-71.061547,42.349579]],[[-71.061544,42.348988],[-71.061531,42.349019],[-71.061543,42.349037],[-71.06152,42.349047],[-71.06151,42.349073],[-71.061533,42.349012],[-71.061435,42.34899],[-71.061544,42.348988]],[[-71.061438,42.349944],[-71.061399,42.349968],[-71.061274,42.34994],[-71.061218,42.349854],[-71.061438,42.349944]],[[-71.061162,42.349101],[-71.061132,42.3491],[-71.06112,42.349092],[-71.061162,42.349101]]],[[[-71.065695,42.354353],[-71.065684,42.354324],[-71.065651,42.354307],[-71.065508,42.354299],[-71.065458,42.354314],[-71.065443,42.354342],[-71.06545,42.354366],[-71.06548,42.354386],[-71.06563,42.354396],[-71.06567,42.354388],[-71.065695,42.354353]]],[[[-71.065607,42.347907],[-71.065561,42.347823],[-71.065472,42.347809],[-71.065522,42.347773],[-71.065523,42.347686],[-71.065461,42.347652],[-71.065098,42.347596],[-71.064894,42.347587],[-71.064503,42.347783],[-71.064433,42.347945],[-71.063968,42.347919],[-71.063886,42.347986],[-71.063856,42.347985],[-71.063829,42.348081],[-71.063855,42.348085],[-71.063876,42.348133],[-71.063679,42.348112],[-71.063746,42.347872],[-71.06346,42.347843],[-71.063417,42.348002],[-71.063093,42.347927],[-71.062961,42.347921],[-71.062947,42.347955],[-71.062838,42.347944],[-71.0624,42.347849],[-71.062474,42.347668],[-71.06232,42.347632],[-71.061712,42.347604],[-71.061566,42.347954],[-71.061555,42.348046],[-71.061674,42.348074],[-71.062282,42.348102],[-71.062319,42.348037],[-71.062688,42.348055],[-71.062871,42.348095],[-71.063036,42.348102],[-71.063051,42.348064],[-71.063019,42.348042],[-71.06306,42.348044],[-71.063067,42.348029],[-71.063051,42.348085],[-71.063098,42.348094],[-71.063223,42.3481],[-71.063249,42.348069],[-71.063395,42.348081],[-71.063373,42.348162],[-71.063324,42.348147],[-71.063187,42.348141],[-71.063182,42.348153],[-71.063051,42.348131],[-71.062667,42.348107],[-71.06264,42.348175],[-71.062858,42.348196],[-71.063229,42.348263],[-71.063366,42.348269],[-71.063387,42.348196],[-71.06402,42.348291],[-71.064195,42.348299],[-71.064221,42.348203],[-71.064343,42.348209],[-71.06434,42.34822],[-71.064376,42.348226],[-71.064571,42.348235],[-71.064466,42.348292],[-71.06444,42.348386],[-71.064805,42.348442],[-71.065076,42.348454],[-71.065094,42.348475],[-71.065436,42.348471],[-71.06549,42.348413],[-71.065483,42.348381],[-71.065513,42.348224],[-71.065484,42.348219],[-71.065529,42.348177],[-71.065538,42.348133],[-71.065529,42.348103],[-71.065466,42.348031],[-71.065598,42.347945],[-71.065607,42.347907]]],[[[-71.065493,42.352874],[-71.065303,42.352844],[-71.065286,42.352891],[-71.065312,42.352972],[-71.06545,42.352989],[-71.065493,42.352874]]],[[[-71.059807,42.350229],[-71.059773,42.350194],[-71.059349,42.3501],[-71.05923,42.350094],[-71.059235,42.350055],[-71.058831,42.349966],[-71.058372,42.349945],[-71.058338,42.350064],[-71.058374,42.349928],[-71.058319,42.349916],[-71.058334,42.349876],[-71.058202,42.349845],[-71.058047,42.349838],[-71.05806,42.349773],[-71.057688,42.349692],[-71.057133,42.349667],[-71.05695,42.350086],[-71.056922,42.350095],[-71.056797,42.350339],[-71.056828,42.350343],[-71.056838,42.350385],[-71.056878,42.350421],[-71.056873,42.350442],[-71.057303,42.350549],[-71.057556,42.350561],[-71.057546,42.350612],[-71.058064,42.350738],[-71.058145,42.350742],[-71.058459,42.35083],[-71.058611,42.350837],[-71.058638,42.350769],[-71.058725,42.350773],[-71.058689,42.350861],[-71.058721,42.350897],[-71.059143,42.350991],[-71.059445,42.351005],[-71.0595,42.350989],[-71.059807,42.350229]],[[-71.058948,42.350221],[-71.058896,42.350348],[-71.058817,42.350331],[-71.058863,42.350217],[-71.058948,42.350221]],[[-71.058289,42.350236],[-71.058279,42.350273],[-71.058268,42.350272],[-71.058278,42.350236],[-71.058289,42.350236]]],[[[-71.059394,42.34973],[-71.059301,42.3497],[-71.059179,42.349693],[-71.059105,42.349866],[-71.05932,42.349902],[-71.059394,42.34973]]],[[[-71.059384,42.349563],[-71.059349,42.34953],[-71.05893,42.349489],[-71.058948,42.349444],[-71.058595,42.349367],[-71.058459,42.34936],[-71.058059,42.349272],[-71.057926,42.349266],[-71.057859,42.349433],[-71.058004,42.349465],[-71.057966,42.349558],[-71.057872,42.349548],[-71.057853,42.349597],[-71.058297,42.349696],[-71.058665,42.349713],[-71.058681,42.349672],[-71.058854,42.34968],[-71.058897,42.349572],[-71.059337,42.349592],[-71.059384,42.349563]]],[[[-71.058756,42.348737],[-71.058298,42.348636],[-71.057613,42.348605],[-71.057529,42.348814],[-71.057988,42.348915],[-71.058673,42.348946],[-71.058756,42.348737]]],[[[-71.057108,42.349246],[-71.057038,42.349243],[-71.057045,42.349211],[-71.056866,42.349161],[-71.056596,42.349149],[-71.05575,42.349391],[-71.056941,42.347615],[-71.056931,42.347556],[-71.056166,42.347274],[-71.055908,42.347262],[-71.054533,42.349309],[-71.054522,42.349413],[-71.054447,42.34941],[-71.053477,42.350853],[-71.054337,42.351171],[-71.054453,42.351176],[-71.055061,42.350306],[-71.055025,42.350377],[-71.055342,42.350622],[-71.05547,42.350683],[-71.055586,42.350703],[-71.055856,42.350715],[-71.056424,42.350701],[-71.056508,42.350685],[-71.056546,42.350611],[-71.056613,42.350593],[-71.056631,42.350556],[-71.056654,42.350426],[-71.05664,42.350422],[-71.056905,42.349794],[-71.05697,42.349529],[-71.057108,42.349246]]]]},"properties":{"kind":"building"}},{"type":"Feature","geometry":{"type":"MultiPolygon","coordinates":[[[[-71.066319,42.353463],[-71.066308,42.353422],[-71.066276,42.353387],[-71.066173,42.353355],[-71.065912,42.353343],[-71.065809,42.353375],[-71.065773,42.353424],[-71.065597,42.353407],[-71.065661,42.353356],[-71.065667,42.353295],[-71.065777,42.353278],[-71.066065,42.353293],[-71.066096,42.353277],[-71.066123,42.353228],[-71.066096,42.353179],[-71.066043,42.353161],[-71.066075,42.353136],[-71.066188,42.353132],[-71.066253,42.353084],[-71.066262,42.35305],[-71.066237,42.352999],[-71.066274,42.352966],[-71.066293,42.352885],[-71.066282,42.352844],[-71.06625,42.352809],[-71.066203,42.352785],[-71.065952,42.352768],[-71.065909,42.352737],[-71.065812,42.352729],[-71.065858,42.352695],[-71.065859,42.352646],[-71.06615,42.352656],[-71.066191,42.352626],[-71.066196,42.352605],[-71.066174,42.352566],[-71.066122,42.35255],[-71.065688,42.352518],[-71.065636,42.352534],[-71.065361,42.35251],[-71.065288,42.352533],[-71.065222,42.352519],[-71.064975,42.352515],[-71.064922,42.352553],[-71.064915,42.352581],[-71.064943,42.352632],[-71.064975,42.352647],[-71.065222,42.352663],[-71.065289,42.352642],[-71.065361,42.352664],[-71.065486,42.352669],[-71.06551,42.352708],[-71.065539,42.352722],[-71.065657,42.352731],[-71.065613,42.352779],[-71.065525,42.352783],[-71.065472,42.352821],[-71.065472,42.352877],[-71.065524,42.352915],[-71.065481,42.352931],[-71.065463,42.35295],[-71.065463,42.352996],[-71.065431,42.353012],[-71.065214,42.353004],[-71.065177,42.353032],[-71.065175,42.353062],[-71.06511,42.353019],[-71.06509,42.35298],[-71.065354,42.353002],[-71.06539,42.352984],[-71.065381,42.352953],[-71.065337,42.352944],[-71.065334,42.352916],[-71.065295,42.352887],[-71.065313,42.352858],[-71.0653,42.352834],[-71.065337,42.352822],[-71.065354,42.352792],[-71.065337,42.352761],[-71.065295,42.352749],[-71.065146,42.352742],[-71.065105,42.352754],[-71.065088,42.352785],[-71.065105,42.352816],[-71.065081,42.352852],[-71.065094,42.352876],[-71.065047,42.352891],[-71.065031,42.352943],[-71.064745,42.352926],[-71.06466,42.352952],[-71.064625,42.353015],[-71.064656,42.353073],[-71.064658,42.353148],[-71.064778,42.353243],[-71.06491,42.353252],[-71.064617,42.353248],[-71.064557,42.353292],[-71.064549,42.353323],[-71.064581,42.353381],[-71.064659,42.353405],[-71.064889,42.353415],[-71.064932,42.353409],[-71.065028,42.353357],[-71.065047,42.353326],[-71.065126,42.353329],[-71.065162,42.353379],[-71.065081,42.353409],[-71.065061,42.35343],[-71.064919,42.353429],[-71.064875,42.353476],[-71.064592,42.353467],[-71.064538,42.353508],[-71.06453,42.353536],[-71.064538,42.353564],[-71.064583,42.3536],[-71.064418,42.353592],[-71.064372,42.353606],[-71.064358,42.353658],[-71.064324,42.353692],[-71.064332,42.353737],[-71.064296,42.353748],[-71.06428,42.353777],[-71.064296,42.353806],[-71.064363,42.353819],[-71.064304,42.353823],[-71.064258,42.353857],[-71.064244,42.353968],[-71.064288,42.354],[-71.064504,42.354013],[-71.064545,42.354004],[-71.06458,42.354026],[-71.06469,42.354047],[-71.064295,42.354023],[-71.064238,42.354041],[-71.064214,42.354083],[-71.064232,42.354119],[-71.064125,42.354133],[-71.064103,42.354172],[-71.064148,42.354222],[-71.064109,42.354226],[-71.064074,42.354252],[-71.064074,42.354288],[-71.064146,42.354344],[-71.064036,42.354339],[-71.063979,42.354357],[-71.063955,42.354399],[-71.063968,42.35443],[-71.063903,42.354482],[-71.063892,42.354523],[-71.063903,42.354564],[-71.063982,42.354623],[-71.064266,42.354641],[-71.064296,42.35467],[-71.064353,42.354675],[-71.064191,42.354675],[-71.064157,42.354713],[-71.064173,42.354742],[-71.064242,42.354755],[-71.064237,42.354801],[-71.064276,42.35483],[-71.0645,42.354837],[-71.064544,42.354789],[-71.064501,42.35474],[-71.064565,42.354739],[-71.064595,42.354717],[-71.064595,42.354686],[-71.064553,42.354662],[-71.064653,42.354663],[-71.064681,42.354642],[-71.06467,42.3546],[-71.064605,42.354588],[-71.064767,42.354584],[-71.064798,42.35456],[-71.0648,42.354533],[-71.065115,42.354538],[-71.065216,42.354482],[-71.065216,42.354448],[-71.065183,42.354423],[-71.065008,42.354413],[-71.064924,42.35438],[-71.064642,42.354357],[-71.064655,42.354342],[-71.06486,42.354361],[-71.06492,42.354333],[-71.065042,42.354339],[-71.065079,42.354327],[-71.065094,42.3543],[-71.065079,42.354273],[-71.065042,42.354262],[-71.06466,42.354255],[-71.064591,42.354201],[-71.064751,42.354208],[-71.064824,42.354187],[-71.064866,42.354206],[-71.06519,42.354229],[-71.065244,42.354202],[-71.065244,42.354169],[-71.065213,42.354146],[-71.064866,42.354134],[-71.064827,42.354073],[-71.064796,42.354058],[-71.064894,42.354063],[-71.06496,42.35403],[-71.065053,42.354026],[-71.065142,42.354041],[-71.065136,42.354081],[-71.065168,42.354104],[-71.065339,42.354114],[-71.065381,42.354101],[-71.065398,42.354071],[-71.065381,42.35404],[-71.065307,42.354026],[-71.065314,42.354018],[-71.065474,42.354025],[-71.065534,42.353996],[-71.06552,42.353943],[-71.065427,42.353927],[-71.065436,42.353916],[-71.065686,42.353911],[-71.06567,42.353953],[-71.06563,42.353965],[-71.065615,42.35399],[-71.06563,42.354015],[-71.065664,42.354026],[-71.065817,42.354029],[-71.065843,42.35401],[-71.065843,42.353982],[-71.065883,42.353971],[-71.065898,42.353945],[-71.065868,42.353912],[-71.065717,42.353903],[-71.065739,42.353872],[-71.065707,42.353837],[-71.065564,42.353828],[-71.06558,42.3538],[-71.065716,42.353806],[-71.06577,42.353779],[-71.065758,42.353732],[-71.065649,42.353717],[-71.065686,42.353704],[-71.065704,42.353672],[-71.065666,42.35363],[-71.065488,42.353619],[-71.065444,42.353633],[-71.065426,42.353665],[-71.065444,42.353697],[-71.06556,42.353714],[-71.065513,42.353739],[-71.065348,42.353739],[-71.0653,42.353753],[-71.06528,42.353789],[-71.0653,42.353825],[-71.065396,42.353842],[-71.065181,42.35386],[-71.065168,42.353909],[-71.065201,42.353934],[-71.065266,42.353939],[-71.065256,42.35395],[-71.065112,42.353944],[-71.06507,42.353913],[-71.064964,42.353905],[-71.064942,42.353867],[-71.064819,42.353848],[-71.064773,42.353808],[-71.064533,42.353779],[-71.06453,42.353768],[-71.064589,42.353751],[-71.064603,42.353699],[-71.064637,42.353666],[-71.064637,42.353629],[-71.064611,42.353607],[-71.064885,42.353615],[-71.064939,42.353574],[-71.064943,42.35353],[-71.065333,42.353572],[-71.065392,42.353608],[-71.065448,42.353616],[-71.065709,42.353628],[-71.065812,42.353596],[-71.065848,42.353547],[-71.066173,42.353571],[-71.066229,42.353563],[-71.066276,42.353539],[-71.066308,42.353504],[-71.066319,42.353463]],[[-71.065768,42.352933],[-71.065762,42.35293],[-71.065765,42.35293],[-71.065768,42.352933]],[[-71.065446,42.353128],[-71.065399,42.353147],[-71.065368,42.3532],[-71.065328,42.353198],[-71.065316,42.353191],[-71.065339,42.353162],[-71.065326,42.353138],[-71.065199,42.353124],[-71.065191,42.353086],[-71.06524,42.353101],[-71.065418,42.353107],[-71.065446,42.353128]],[[-71.064598,42.354425],[-71.064466,42.354444],[-71.064449,42.354475],[-71.064466,42.354506],[-71.064542,42.35452],[-71.064441,42.354521],[-71.064402,42.354459],[-71.064299,42.354427],[-71.064298,42.354393],[-71.064569,42.354397],[-71.064598,42.354425]],[[-71.064472,42.354186],[-71.064426,42.354183],[-71.064412,42.354148],[-71.064472,42.354186]]],[[[-71.066211,42.354979],[-71.066169,42.354933],[-71.065978,42.354922],[-71.06593,42.354936],[-71.06591,42.354972],[-71.065952,42.355019],[-71.066142,42.35503],[-71.066191,42.355015],[-71.066211,42.354979]]],[[[-71.066139,42.354066],[-71.066115,42.35404],[-71.065981,42.354032],[-71.06587,42.354048],[-71.06584,42.354081],[-71.06587,42.354114],[-71.066023,42.354123],[-71.066115,42.354093],[-71.066139,42.354066]]],[[[-71.066126,42.35448],[-71.066116,42.354443],[-71.066046,42.354391],[-71.065735,42.354372],[-71.065643,42.3544],[-71.065605,42.354468],[-71.065643,42.354536],[-71.065685,42.354557],[-71.065996,42.354576],[-71.066088,42.354548],[-71.066126,42.35448]]],[[[-71.066063,42.35415],[-71.06604,42.354133],[-71.065947,42.354129],[-71.065924,42.354146],[-71.065947,42.354163],[-71.06604,42.354167],[-71.066063,42.35415]]],[[[-71.065989,42.348045],[-71.065949,42.348001],[-71.065765,42.34799],[-71.065719,42.348004],[-71.0657,42.348038],[-71.06574,42.348082],[-71.065924,42.348093],[-71.06597,42.348079],[-71.065989,42.348045]]],[[[-71.065934,42.348187],[-71.0659,42.348149],[-71.065735,42.348139],[-71.065696,42.348151],[-71.06568,42.34818],[-71.065714,42.348218],[-71.065879,42.348227],[-71.065918,42.348215],[-71.065934,42.348187]]],[[[-71.065934,42.354854],[-71.065925,42.35482],[-71.065858,42.35477],[-71.065648,42.354756],[-71.065609,42.354719],[-71.065534,42.354713],[-71.065512,42.354663],[-71.065412,42.354623],[-71.065253,42.354613],[-71.065252,42.354582],[-71.065219,42.354557],[-71.065017,42.35455],[-71.064979,42.354592],[-71.064841,42.354613],[-71.064814,42.354661],[-71.064841,42.354709],[-71.06487,42.354723],[-71.065052,42.354735],[-71.065048,42.354751],[-71.064889,42.354766],[-71.064877,42.354811],[-71.064907,42.354833],[-71.065072,42.354842],[-71.065123,42.354817],[-71.065159,42.354843],[-71.065239,42.354849],[-71.06528,42.354882],[-71.06546,42.354893],[-71.065513,42.354927],[-71.065811,42.354946],[-71.065898,42.354919],[-71.065934,42.354854]]],[[[-71.065888,42.348453],[-71.065852,42.348413],[-71.06568,42.348403],[-71.065639,42.348415],[-71.065622,42.348446],[-71.065658,42.348486],[-71.065829,42.348496],[-71.065871,42.348483],[-71.065888,42.348453]]],[[[-71.065796,42.348296],[-71.065778,42.348283],[-71.06571,42.34828],[-71.065692,42.348293],[-71.065644,42.348277],[-71.06549,42.34827],[-71.065446,42.348284],[-71.065428,42.348316],[-71.065466,42.348358],[-71.065644,42.348369],[-71.065688,42.348355],[-71.065701,42.348306],[-71.065778,42.34831],[-71.065796,42.348296]]],[[[-71.065675,42.349241],[-71.065645,42.349208],[-71.06551,42.3492],[-71.065476,42.349211],[-71.065461,42.349236],[-71.065491,42.349269],[-71.065626,42.349277],[-71.06566,42.349267],[-71.065675,42.349241]]],[[[-71.065667,42.351227],[-71.065648,42.351213],[-71.06557,42.35121],[-71.065552,42.351223],[-71.06557,42.351236],[-71.065648,42.35124],[-71.065667,42.351227]]],[[[-71.065661,42.34896],[-71.06558,42.348944],[-71.065562,42.348957],[-71.065643,42.348973],[-71.065661,42.34896]]],[[[-71.065625,42.349097],[-71.065544,42.349081],[-71.065526,42.349094],[-71.065607,42.34911],[-71.065625,42.349097]]],[[[-71.065616,42.348113],[-71.06553,42.348097],[-71.065512,42.34811],[-71.065598,42.348127],[-71.065616,42.348113]]],[[[-71.065576,42.34845],[-71.065553,42.348433],[-71.06546,42.348429],[-71.065437,42.348446],[-71.06546,42.348463],[-71.065553,42.348467],[-71.065576,42.34845]]],[[[-71.065549,42.348795],[-71.065519,42.348762],[-71.065384,42.348754],[-71.06535,42.348765],[-71.065335,42.34879],[-71.065365,42.348823],[-71.0655,42.348831],[-71.065534,42.348821],[-71.065549,42.348795]]],[[[-71.065513,42.349076],[-71.065483,42.349043],[-71.06533,42.349034],[-71.065296,42.349045],[-71.065281,42.34907],[-71.065311,42.349103],[-71.065464,42.349112],[-71.065498,42.349102],[-71.065513,42.349076]]],[[[-71.065509,42.348945],[-71.065487,42.348921],[-71.06536,42.348914],[-71.065324,42.34894],[-71.065346,42.348964],[-71.065474,42.348972],[-71.065509,42.348945]]],[[[-71.065441,42.351213],[-71.06535,42.351197],[-71.06525,42.351197],[-71.065232,42.35121],[-71.065318,42.351227],[-71.065423,42.351227],[-71.065441,42.351213]]],[[[-71.065274,42.350724],[-71.065249,42.350705],[-71.06515,42.350701],[-71.065126,42.350713],[-71.06515,42.350739],[-71.065249,42.350744],[-71.065274,42.350724]]],[[[-71.065249,42.350788],[-71.065224,42.350769],[-71.065125,42.350765],[-71.065101,42.350777],[-71.065125,42.350803],[-71.065224,42.350808],[-71.065249,42.350788]]],[[[-71.065218,42.350857],[-71.065198,42.350843],[-71.06511,42.350839],[-71.065091,42.350853],[-71.06511,42.350867],[-71.065198,42.350871],[-71.065218,42.350857]]],[[[-71.065131,42.354996],[-71.065123,42.354967],[-71.065067,42.354925],[-71.064807,42.354909],[-71.064734,42.354932],[-71.064703,42.354986],[-71.064734,42.35504],[-71.064767,42.355057],[-71.065027,42.355073],[-71.065101,42.35505],[-71.065131,42.354996]]],[[[-71.065017,42.351313],[-71.064926,42.351297],[-71.064908,42.35131],[-71.064999,42.351327],[-71.065017,42.351313]]],[[[-71.064925,42.348459],[-71.064839,42.348443],[-71.064821,42.348456],[-71.064907,42.348473],[-71.064925,42.348459]]],[[[-71.064807,42.3548],[-71.064721,42.354784],[-71.064703,42.354797],[-71.064789,42.354814],[-71.064807,42.3548]]],[[[-71.064692,42.351829],[-71.064606,42.351813],[-71.064588,42.351826],[-71.064674,42.351843],[-71.064692,42.351829]]],[[[-71.064689,42.348428],[-71.064603,42.348412],[-71.064585,42.348425],[-71.064671,42.348442],[-71.064689,42.348428]]],[[[-71.064653,42.352108],[-71.064633,42.352094],[-71.064545,42.35209],[-71.064526,42.352104],[-71.064545,42.352118],[-71.064633,42.352122],[-71.064653,42.352108]]],[[[-71.064641,42.352058],[-71.06455,42.352042],[-71.064532,42.352055],[-71.064623,42.352072],[-71.064641,42.352058]]],[[[-71.064616,42.352163],[-71.06453,42.352147],[-71.064512,42.35216],[-71.064598,42.352177],[-71.064616,42.352163]]],[[[-71.064504,42.348402],[-71.064418,42.348386],[-71.0644,42.348399],[-71.064486,42.348416],[-71.064504,42.348402]]],[[[-71.064306,42.350928],[-71.064053,42.35088],[-71.063919,42.350876],[-71.063895,42.350903],[-71.063934,42.350932],[-71.064159,42.350943],[-71.064198,42.350931],[-71.064288,42.350942],[-71.064306,42.350928]]],[[[-71.064302,42.348724],[-71.064279,42.348707],[-71.064186,42.348703],[-71.064163,42.34872],[-71.064186,42.348737],[-71.064279,42.348741],[-71.064302,42.348724]]],[[[-71.064252,42.348844],[-71.064233,42.34883],[-71.06415,42.348827],[-71.064132,42.34884],[-71.06415,42.348853],[-71.064233,42.348857],[-71.064252,42.348844]]],[[[-71.064172,42.353304],[-71.064013,42.353255],[-71.06392,42.353251],[-71.063897,42.353268],[-71.06392,42.353285],[-71.064052,42.353299],[-71.06407,42.353313],[-71.064153,42.353317],[-71.064172,42.353304]]],[[[-71.064152,42.354716],[-71.064146,42.354692],[-71.0641,42.354658],[-71.063846,42.354649],[-71.0638,42.354683],[-71.063799,42.354727],[-71.063772,42.354739],[-71.063749,42.35478],[-71.063772,42.354821],[-71.063797,42.354833],[-71.064037,42.354841],[-71.064079,42.35481],[-71.064081,42.354776],[-71.064127,42.35476],[-71.064152,42.354716]]],[[[-71.064138,42.353394],[-71.064118,42.35338],[-71.064,42.353365],[-71.06391,42.353361],[-71.063892,42.353374],[-71.063958,42.353399],[-71.064118,42.353408],[-71.064138,42.353394]]],[[[-71.064082,42.353764],[-71.064063,42.35375],[-71.06398,42.353747],[-71.063962,42.35376],[-71.06398,42.353773],[-71.064063,42.353777],[-71.064082,42.353764]]],[[[-71.064031,42.353972],[-71.063999,42.353948],[-71.06389,42.353943],[-71.06386,42.353958],[-71.063867,42.353984],[-71.06389,42.353991],[-71.063999,42.353996],[-71.064031,42.353972]]],[[[-71.064004,42.348679],[-71.063984,42.348665],[-71.063896,42.348661],[-71.063877,42.348675],[-71.063896,42.348689],[-71.063984,42.348693],[-71.064004,42.348679]]],[[[-71.063986,42.348747],[-71.063963,42.34873],[-71.06387,42.348726],[-71.063847,42.348743],[-71.06387,42.34876],[-71.063963,42.348764],[-71.063986,42.348747]]],[[[-71.063968,42.348874],[-71.063948,42.34886],[-71.06386,42.348856],[-71.063841,42.34887],[-71.06386,42.348884],[-71.063948,42.348888],[-71.063968,42.348874]]],[[[-71.063941,42.348796],[-71.063855,42.34878],[-71.063837,42.348793],[-71.063923,42.34881],[-71.063941,42.348796]]],[[[-71.063914,42.354124],[-71.063889,42.354105],[-71.06379,42.354101],[-71.063766,42.354113],[-71.06379,42.354139],[-71.063889,42.354144],[-71.063914,42.354124]]],[[[-71.063889,42.349151],[-71.063803,42.349135],[-71.063785,42.349148],[-71.063871,42.349165],[-71.063889,42.349151]]],[[[-71.063876,42.34843],[-71.063768,42.3484],[-71.0637,42.348397],[-71.063682,42.34841],[-71.06379,42.34844],[-71.063858,42.348444],[-71.063876,42.34843]]],[[[-71.063836,42.349296],[-71.06375,42.34928],[-71.063732,42.349293],[-71.063818,42.34931],[-71.063836,42.349296]]],[[[-71.063823,42.349338],[-71.063737,42.349322],[-71.063719,42.349335],[-71.063805,42.349352],[-71.063823,42.349338]]],[[[-71.063816,42.350888],[-71.063784,42.350864],[-71.06352,42.350845],[-71.063496,42.350857],[-71.06351,42.350882],[-71.063675,42.350907],[-71.063784,42.350912],[-71.063816,42.350888]]],[[[-71.063778,42.349764],[-71.063758,42.34975],[-71.06367,42.349746],[-71.063651,42.34976],[-71.06367,42.349774],[-71.063758,42.349778],[-71.063778,42.349764]]],[[[-71.063716,42.349858],[-71.063697,42.349844],[-71.063614,42.349841],[-71.063596,42.349854],[-71.063614,42.349867],[-71.063697,42.349871],[-71.063716,42.349858]]],[[[-71.063685,42.354705],[-71.063655,42.354672],[-71.06352,42.354664],[-71.063486,42.354675],[-71.063471,42.3547],[-71.063501,42.354733],[-71.063636,42.354741],[-71.06367,42.354731],[-71.063685,42.354705]]],[[[-71.063668,42.349954],[-71.063648,42.34994],[-71.06356,42.349936],[-71.063541,42.34995],[-71.06356,42.349964],[-71.063648,42.349968],[-71.063668,42.349954]]],[[[-71.063632,42.350004],[-71.063613,42.34999],[-71.06353,42.349987],[-71.063512,42.35],[-71.06353,42.350013],[-71.063613,42.350017],[-71.063632,42.350004]]],[[[-71.063625,42.354805],[-71.063595,42.354772],[-71.06346,42.354764],[-71.063426,42.354775],[-71.063411,42.3548],[-71.063441,42.354833],[-71.063576,42.354841],[-71.06361,42.354831],[-71.063625,42.354805]]],[[[-71.063542,42.350422],[-71.063523,42.350408],[-71.06344,42.350405],[-71.063422,42.350418],[-71.06344,42.350431],[-71.063523,42.350435],[-71.063542,42.350422]]],[[[-71.063537,42.350184],[-71.063518,42.35017],[-71.06344,42.350167],[-71.063422,42.35018],[-71.06344,42.350193],[-71.063518,42.350197],[-71.063537,42.350184]]],[[[-71.063513,42.350491],[-71.063494,42.350477],[-71.063416,42.350474],[-71.063398,42.350487],[-71.063416,42.3505],[-71.063494,42.350504],[-71.063513,42.350491]]],[[[-71.063507,42.35025],[-71.063488,42.350236],[-71.06341,42.350233],[-71.063392,42.350246],[-71.06341,42.350259],[-71.063488,42.350263],[-71.063507,42.35025]]],[[[-71.063487,42.35077],[-71.063469,42.35075],[-71.063354,42.350743],[-71.063325,42.350765],[-71.063343,42.350785],[-71.063458,42.350791],[-71.063487,42.35077]]],[[[-71.063484,42.35083],[-71.063459,42.350811],[-71.06336,42.350807],[-71.063336,42.350819],[-71.06336,42.350845],[-71.063459,42.35085],[-71.063484,42.35083]]],[[[-71.063482,42.350284],[-71.063463,42.35027],[-71.063385,42.350267],[-71.063367,42.35028],[-71.063385,42.350293],[-71.063463,42.350297],[-71.063482,42.350284]]],[[[-71.063476,42.350553],[-71.063385,42.350537],[-71.063367,42.35055],[-71.063458,42.350567],[-71.063476,42.350553]]],[[[-71.063458,42.350708],[-71.063438,42.350694],[-71.06335,42.35069],[-71.063331,42.350704],[-71.06335,42.350718],[-71.063438,42.350722],[-71.063458,42.350708]]],[[[-71.063441,42.350613],[-71.06335,42.350597],[-71.063332,42.35061],[-71.063423,42.350627],[-71.063441,42.350613]]],[[[-71.063401,42.350443],[-71.06331,42.350427],[-71.063292,42.35044],[-71.063383,42.350457],[-71.063401,42.350443]]],[[[-71.063377,42.350487],[-71.063358,42.350473],[-71.06328,42.35047],[-71.063262,42.350483],[-71.06328,42.350496],[-71.063358,42.3505],[-71.063377,42.350487]]],[[[-71.063352,42.35054],[-71.063333,42.350526],[-71.063255,42.350523],[-71.063237,42.350536],[-71.063255,42.350549],[-71.063333,42.350553],[-71.063352,42.35054]]],[[[-71.063332,42.350586],[-71.063313,42.350572],[-71.06323,42.350569],[-71.063212,42.350582],[-71.06323,42.350595],[-71.063313,42.350599],[-71.063332,42.350586]]],[[[-71.063312,42.350634],[-71.063293,42.35062],[-71.06321,42.350617],[-71.063192,42.35063],[-71.06321,42.350643],[-71.063293,42.350647],[-71.063312,42.350634]]],[[[-71.063261,42.35068],[-71.06318,42.350664],[-71.063162,42.350677],[-71.063243,42.350693],[-71.063261,42.35068]]],[[[-71.063257,42.350731],[-71.063238,42.350717],[-71.06316,42.350714],[-71.063142,42.350727],[-71.06316,42.35074],[-71.063238,42.350744],[-71.063257,42.350731]]],[[[-71.063238,42.350769],[-71.063218,42.350755],[-71.06313,42.350751],[-71.063111,42.350765],[-71.06313,42.350779],[-71.063218,42.350783],[-71.063238,42.350769]]],[[[-71.063217,42.352241],[-71.063126,42.352225],[-71.063108,42.352238],[-71.062965,42.35224],[-71.062947,42.352253],[-71.062965,42.352266],[-71.063138,42.352267],[-71.063217,42.352241]]],[[[-71.063001,42.352224],[-71.062982,42.35221],[-71.06283,42.352202],[-71.062812,42.352215],[-71.06283,42.352228],[-71.062982,42.352237],[-71.063001,42.352224]]],[[[-71.062918,42.353306],[-71.062898,42.353292],[-71.06281,42.353288],[-71.06274,42.353289],[-71.062717,42.353306],[-71.06274,42.353323],[-71.062833,42.353327],[-71.062918,42.353306]]],[[[-71.062918,42.353218],[-71.062832,42.353197],[-71.062744,42.353193],[-71.062725,42.353207],[-71.06281,42.353228],[-71.062898,42.353232],[-71.062918,42.353218]]],[[[-71.062663,42.348359],[-71.062645,42.348339],[-71.06253,42.348332],[-71.062501,42.348351],[-71.062355,42.348346],[-71.062331,42.348373],[-71.062355,42.3484],[-71.062489,42.348407],[-71.062528,42.348378],[-71.062634,42.34838],[-71.062663,42.348359]]],[[[-71.06262,42.349379],[-71.062594,42.34935],[-71.06251,42.349344],[-71.062513,42.349317],[-71.06249,42.3493],[-71.06235,42.349292],[-71.06232,42.349301],[-71.062308,42.349323],[-71.062334,42.349352],[-71.062418,42.349357],[-71.062415,42.349385],[-71.062438,42.349402],[-71.062578,42.34941],[-71.062608,42.349401],[-71.06262,42.349379]]],[[[-71.062556,42.348561],[-71.062533,42.348544],[-71.06244,42.34854],[-71.062417,42.348557],[-71.06244,42.348574],[-71.062533,42.348578],[-71.062556,42.348561]]],[[[-71.062128,42.353756],[-71.062108,42.353742],[-71.06202,42.353738],[-71.062001,42.353752],[-71.06202,42.353766],[-71.062108,42.35377],[-71.062128,42.353756]]],[[[-71.062074,42.349309],[-71.061988,42.349293],[-71.06197,42.349306],[-71.062056,42.349323],[-71.062074,42.349309]]],[[[-71.062057,42.349553],[-71.062027,42.34952],[-71.061892,42.349512],[-71.061858,42.349523],[-71.061843,42.349548],[-71.061873,42.349581],[-71.062008,42.349589],[-71.062042,42.349579],[-71.062057,42.349553]]],[[[-71.062056,42.353863],[-71.06197,42.353847],[-71.061952,42.35386],[-71.062038,42.353877],[-71.062056,42.353863]]],[[[-71.062019,42.349441],[-71.061933,42.349425],[-71.061915,42.349438],[-71.062001,42.349455],[-71.062019,42.349441]]],[[[-71.062013,42.353704],[-71.061993,42.35369],[-71.061905,42.353686],[-71.061886,42.3537],[-71.061905,42.353714],[-71.061993,42.353718],[-71.062013,42.353704]]],[[[-71.061998,42.353829],[-71.061978,42.353815],[-71.06189,42.353811],[-71.061871,42.353825],[-71.06189,42.353839],[-71.061978,42.353843],[-71.061998,42.353829]]],[[[-71.061996,42.349883],[-71.06191,42.349867],[-71.061892,42.34988],[-71.061978,42.349897],[-71.061996,42.349883]]],[[[-71.06198,42.348318],[-71.061967,42.348294],[-71.061935,42.348284],[-71.061789,42.348281],[-71.061734,42.348263],[-71.061555,42.348266],[-71.061552,42.348236],[-71.061529,42.348229],[-71.06142,42.348224],[-71.06139,42.348239],[-71.061408,42.34827],[-71.061541,42.348275],[-71.061539,42.348313],[-71.06159,42.348338],[-71.061734,42.348344],[-71.061772,42.348333],[-71.061935,42.348351],[-71.061967,42.348342],[-71.06198,42.348318]]],[[[-71.061966,42.349929],[-71.06188,42.349913],[-71.061862,42.349926],[-71.061948,42.349943],[-71.061966,42.349929]]],[[[-71.06196,42.350003],[-71.061874,42.349987],[-71.061856,42.35],[-71.061942,42.350017],[-71.06196,42.350003]]],[[[-71.061936,42.350047],[-71.06185,42.350031],[-71.061832,42.350044],[-71.061918,42.350061],[-71.061936,42.350047]]],[[[-71.061914,42.353657],[-71.061854,42.353641],[-71.061875,42.353612],[-71.061845,42.353579],[-71.061691,42.353574],[-71.061661,42.353607],[-71.061691,42.35364],[-71.061789,42.353647],[-71.061799,42.353666],[-71.061894,42.353671],[-71.061914,42.353657]]],[[[-71.061908,42.350297],[-71.061884,42.350271],[-71.061735,42.350265],[-71.061711,42.350292],[-71.061722,42.350312],[-71.061688,42.350322],[-71.061675,42.350346],[-71.061703,42.350377],[-71.061866,42.350383],[-71.061891,42.350365],[-71.061881,42.350328],[-71.061908,42.350297]]],[[[-71.061906,42.350083],[-71.06182,42.350067],[-71.061802,42.35008],[-71.061888,42.350097],[-71.061906,42.350083]]],[[[-71.061896,42.353786],[-71.06181,42.35377],[-71.061792,42.353783],[-71.061878,42.3538],[-71.061896,42.353786]]],[[[-71.061887,42.350158],[-71.061806,42.350142],[-71.061788,42.350155],[-71.061869,42.350171],[-71.061887,42.350158]]],[[[-71.061882,42.349671],[-71.061852,42.349638],[-71.061717,42.34963],[-71.061683,42.349641],[-71.061668,42.349666],[-71.061698,42.349699],[-71.061833,42.349707],[-71.061867,42.349697],[-71.061882,42.349671]]],[[[-71.061866,42.350203],[-71.06178,42.350187],[-71.061762,42.3502],[-71.061848,42.350217],[-71.061866,42.350203]]],[[[-71.061838,42.348424],[-71.061752,42.348408],[-71.061734,42.348421],[-71.06182,42.348438],[-71.061838,42.348424]]],[[[-71.061816,42.348654],[-71.06179,42.348625],[-71.06165,42.348617],[-71.061611,42.348636],[-71.061503,42.348639],[-71.061475,42.34867],[-71.061503,42.348701],[-71.061649,42.348709],[-71.061691,42.348689],[-71.06179,42.348682],[-71.061816,42.348654]]],[[[-71.061815,42.353741],[-71.061729,42.353725],[-71.061711,42.353738],[-71.061797,42.353755],[-71.061815,42.353741]]],[[[-71.061707,42.353554],[-71.061688,42.35354],[-71.06161,42.353537],[-71.061592,42.35355],[-71.06161,42.353563],[-71.061688,42.353567],[-71.061707,42.353554]]],[[[-71.061678,42.34884],[-71.06166,42.348827],[-71.06146,42.348823],[-71.06143,42.348832],[-71.061418,42.348854],[-71.061444,42.348883],[-71.061584,42.348891],[-71.061678,42.34884]]],[[[-71.061676,42.348503],[-71.06159,42.348487],[-71.061572,42.3485],[-71.061658,42.348517],[-71.061676,42.348503]]],[[[-71.061676,42.348188],[-71.061622,42.348172],[-71.061608,42.348125],[-71.061564,42.348111],[-71.061386,42.348108],[-71.061348,42.34815],[-71.061366,42.348182],[-71.06141,42.348196],[-71.061657,42.348201],[-71.061676,42.348188]]],[[[-71.061664,42.349573],[-71.061634,42.34954],[-71.061564,42.349535],[-71.061551,42.349514],[-71.061517,42.349503],[-71.061382,42.349501],[-71.061352,42.349534],[-71.061382,42.349567],[-71.061451,42.349572],[-71.061465,42.349593],[-71.061499,42.349604],[-71.061634,42.349607],[-71.061664,42.349573]]],[[[-71.061586,42.350954],[-71.061563,42.350937],[-71.06147,42.350933],[-71.061447,42.35095],[-71.06147,42.350967],[-71.061563,42.350971],[-71.061586,42.350954]]],[[[-71.061517,42.349259],[-71.061449,42.349243],[-71.061444,42.349217],[-71.061424,42.349211],[-71.06132,42.349206],[-71.061291,42.349228],[-71.061309,42.349248],[-71.061402,42.349253],[-71.06142,42.349268],[-71.061498,42.349272],[-71.061517,42.349259]]],[[[-71.061488,42.349056],[-71.061468,42.349042],[-71.06138,42.349038],[-71.061361,42.349052],[-71.06138,42.349066],[-71.061468,42.34907],[-71.061488,42.349056]]],[[[-71.061486,42.351125],[-71.0614,42.351109],[-71.061382,42.351122],[-71.061468,42.351139],[-71.061486,42.351125]]],[[[-71.061465,42.351183],[-71.061379,42.351167],[-71.061361,42.35118],[-71.061447,42.351197],[-71.061465,42.351183]]],[[[-71.061439,42.351243],[-71.061353,42.351227],[-71.061335,42.35124],[-71.061421,42.351257],[-71.061439,42.351243]]],[[[-71.061436,42.349433],[-71.06135,42.349417],[-71.061332,42.34943],[-71.061418,42.349447],[-71.061436,42.349433]]],[[[-71.06142,42.351292],[-71.061334,42.351276],[-71.061316,42.351289],[-71.061402,42.351306],[-71.06142,42.351292]]],[[[-71.061355,42.349633],[-71.061264,42.349617],[-71.061246,42.34963],[-71.061337,42.349647],[-71.061355,42.349633]]],[[[-71.061346,42.349836],[-71.06132,42.349807],[-71.06118,42.349799],[-71.06115,42.349808],[-71.061138,42.34983],[-71.061164,42.349859],[-71.061304,42.349867],[-71.061334,42.349858],[-71.061346,42.349836]]],[[[-71.061334,42.349681],[-71.061243,42.349665],[-71.061225,42.349678],[-71.061316,42.349695],[-71.061334,42.349681]]],[[[-71.061312,42.353373],[-71.061249,42.353358],[-71.061251,42.353338],[-71.061202,42.353332],[-71.061188,42.35331],[-71.06112,42.353307],[-71.061102,42.35332],[-71.061156,42.353335],[-71.061157,42.353354],[-71.061215,42.35336],[-71.061208,42.35337],[-71.061226,42.353383],[-71.061294,42.353387],[-71.061312,42.353373]]],[[[-71.061306,42.354777],[-71.06122,42.354761],[-71.061202,42.354774],[-71.061288,42.354791],[-71.061306,42.354777]]],[[[-71.061295,42.350036],[-71.061263,42.350001],[-71.061104,42.349992],[-71.061067,42.350003],[-71.061052,42.35003],[-71.061084,42.350065],[-71.061243,42.350075],[-71.06128,42.350063],[-71.061295,42.350036]]],[[[-71.061256,42.354919],[-71.06117,42.354903],[-71.061152,42.354916],[-71.061238,42.354933],[-71.061256,42.354919]]],[[[-71.061171,42.348608],[-71.061139,42.348573],[-71.06098,42.348564],[-71.060943,42.348575],[-71.060928,42.348602],[-71.06096,42.348637],[-71.061119,42.348647],[-71.061156,42.348635],[-71.061171,42.348608]]],[[[-71.061149,42.348724],[-71.061115,42.348686],[-71.06095,42.348676],[-71.060911,42.348688],[-71.060895,42.348717],[-71.060929,42.348755],[-71.061094,42.348764],[-71.061133,42.348752],[-71.061149,42.348724]]],[[[-71.061127,42.353279],[-71.061108,42.353265],[-71.06103,42.353262],[-71.061012,42.353275],[-71.06103,42.353288],[-71.061108,42.353292],[-71.061127,42.353279]]],[[[-71.061106,42.348493],[-71.06102,42.348477],[-71.061002,42.34849],[-71.061088,42.348507],[-71.061106,42.348493]]],[[[-71.061066,42.348833],[-71.06104,42.348804],[-71.0609,42.348796],[-71.06087,42.348805],[-71.060858,42.348827],[-71.060884,42.348856],[-71.061024,42.348864],[-71.061054,42.348855],[-71.061066,42.348833]]],[[[-71.061056,42.353366],[-71.06097,42.35335],[-71.060952,42.353363],[-71.061038,42.35338],[-71.061056,42.353366]]],[[[-71.061017,42.349182],[-71.060973,42.349133],[-71.060776,42.349121],[-71.060725,42.349137],[-71.060705,42.349174],[-71.060749,42.349223],[-71.060946,42.349235],[-71.060996,42.349219],[-71.061017,42.349182]]],[[[-71.061006,42.353223],[-71.06092,42.353207],[-71.060902,42.35322],[-71.060988,42.353237],[-71.061006,42.353223]]],[[[-71.060996,42.353333],[-71.06092,42.353317],[-71.060919,42.353293],[-71.060844,42.353289],[-71.060826,42.353302],[-71.060897,42.353318],[-71.060898,42.353342],[-71.060978,42.353347],[-71.060996,42.353333]]],[[[-71.060849,42.349395],[-71.060819,42.349362],[-71.060684,42.349354],[-71.06065,42.349365],[-71.060635,42.34939],[-71.060665,42.349423],[-71.0608,42.349431],[-71.060834,42.349421],[-71.060849,42.349395]]],[[[-71.060829,42.349512],[-71.060799,42.349479],[-71.060646,42.34947],[-71.060601,42.349492],[-71.06052,42.34949],[-71.060502,42.349503],[-71.060627,42.349539],[-71.06078,42.349548],[-71.060814,42.349538],[-71.060829,42.349512]]],[[[-71.060743,42.349676],[-71.060728,42.349651],[-71.060694,42.34964],[-71.06047,42.349627],[-71.060452,42.34964],[-71.060516,42.349656],[-71.060515,42.349684],[-71.06056,42.349706],[-71.060713,42.349709],[-71.060743,42.349676]]],[[[-71.060721,42.349798],[-71.060689,42.349763],[-71.06053,42.349754],[-71.060493,42.349765],[-71.060478,42.349792],[-71.06051,42.349827],[-71.060669,42.349837],[-71.060706,42.349825],[-71.060721,42.349798]]],[[[-71.060696,42.349263],[-71.06061,42.349247],[-71.060592,42.34926],[-71.060678,42.349277],[-71.060696,42.349263]]],[[[-71.060676,42.349303],[-71.06059,42.349287],[-71.060572,42.3493],[-71.060658,42.349317],[-71.060676,42.349303]]],[[[-71.060666,42.353043],[-71.06058,42.353027],[-71.060562,42.35304],[-71.060648,42.353057],[-71.060666,42.353043]]],[[[-71.060656,42.349345],[-71.06057,42.349329],[-71.060552,42.349342],[-71.060638,42.349359],[-71.060656,42.349345]]],[[[-71.060626,42.34941],[-71.06054,42.349394],[-71.060522,42.349407],[-71.060608,42.349424],[-71.060626,42.34941]]],[[[-71.060621,42.349456],[-71.06053,42.34944],[-71.060512,42.349453],[-71.060603,42.34947],[-71.060621,42.349456]]],[[[-71.060586,42.353],[-71.060538,42.352985],[-71.06053,42.352965],[-71.06045,42.352961],[-71.060432,42.352974],[-71.060486,42.352989],[-71.060493,42.353009],[-71.060568,42.353014],[-71.060586,42.353]]],[[[-71.060581,42.353286],[-71.06049,42.35327],[-71.060472,42.353283],[-71.060563,42.3533],[-71.060581,42.353286]]],[[[-71.060572,42.353153],[-71.060486,42.353137],[-71.060468,42.35315],[-71.060554,42.353167],[-71.060572,42.353153]]],[[[-71.060572,42.349603],[-71.060486,42.349587],[-71.060468,42.3496],[-71.060554,42.349617],[-71.060572,42.349603]]],[[[-71.060572,42.349559],[-71.060486,42.349543],[-71.060468,42.349556],[-71.060554,42.349573],[-71.060572,42.349559]]],[[[-71.060538,42.35341],[-71.060526,42.35339],[-71.060475,42.353371],[-71.0604,42.353367],[-71.060352,42.353385],[-71.060341,42.353405],[-71.060365,42.353432],[-71.060499,42.353439],[-71.060538,42.35341]]],[[[-71.060496,42.353103],[-71.06041,42.353087],[-71.060392,42.3531],[-71.060478,42.353117],[-71.060496,42.353103]]],[[[-71.060461,42.349887],[-71.06037,42.349871],[-71.060352,42.349884],[-71.060443,42.349901],[-71.060461,42.349887]]],[[[-71.060442,42.353073],[-71.060356,42.353057],[-71.060338,42.35307],[-71.060424,42.353087],[-71.060442,42.353073]]],[[[-71.06043,42.350155],[-71.060415,42.35013],[-71.06036,42.350118],[-71.060361,42.350099],[-71.06028,42.350092],[-71.060216,42.35015],[-71.060246,42.350183],[-71.060381,42.350191],[-71.060415,42.350181],[-71.06043,42.350155]]],[[[-71.060426,42.35345],[-71.06034,42.353434],[-71.060322,42.353447],[-71.060408,42.353464],[-71.060426,42.35345]]],[[[-71.060386,42.35004],[-71.0603,42.350024],[-71.060282,42.350037],[-71.060368,42.350054],[-71.060386,42.35004]]],[[[-71.060293,42.349475],[-71.060269,42.349449],[-71.060135,42.349441],[-71.060096,42.34947],[-71.06012,42.349497],[-71.060254,42.349504],[-71.060293,42.349475]]],[[[-71.060234,42.353416],[-71.060206,42.353385],[-71.06006,42.353376],[-71.060028,42.353386],[-71.060015,42.35341],[-71.060043,42.353441],[-71.060189,42.353449],[-71.060221,42.35344],[-71.060234,42.353416]]],[[[-71.060226,42.352965],[-71.06014,42.352949],[-71.060122,42.352962],[-71.060208,42.352979],[-71.060226,42.352965]]],[[[-71.060223,42.349561],[-71.060205,42.349541],[-71.06009,42.349534],[-71.060061,42.349556],[-71.060079,42.349576],[-71.060194,42.349582],[-71.060223,42.349561]]],[[[-71.060199,42.349649],[-71.060177,42.349625],[-71.06005,42.349618],[-71.060014,42.349644],[-71.060036,42.349668],[-71.060164,42.349676],[-71.060199,42.349649]]],[[[-71.060096,42.35105],[-71.06007,42.351021],[-71.05993,42.351013],[-71.0599,42.351022],[-71.059888,42.351044],[-71.059914,42.351073],[-71.060054,42.351081],[-71.060084,42.351072],[-71.060096,42.35105]]],[[[-71.059999,42.351139],[-71.059974,42.35112],[-71.059875,42.351116],[-71.059851,42.351128],[-71.059875,42.351154],[-71.059974,42.351159],[-71.059999,42.351139]]],[[[-71.059946,42.353266],[-71.05992,42.353237],[-71.05978,42.353229],[-71.05975,42.353238],[-71.059738,42.35326],[-71.05975,42.353282],[-71.059825,42.353293],[-71.059833,42.353312],[-71.059908,42.353317],[-71.059946,42.353266]]],[[[-71.059831,42.352756],[-71.059689,42.35272],[-71.059616,42.352717],[-71.059598,42.35273],[-71.05974,42.352766],[-71.059813,42.35277],[-71.059831,42.352756]]],[[[-71.059773,42.354959],[-71.059755,42.354939],[-71.059727,42.354936],[-71.059722,42.354908],[-71.059671,42.354873],[-71.05955,42.354866],[-71.05952,42.354881],[-71.059527,42.354907],[-71.059578,42.354942],[-71.059614,42.354945],[-71.059629,42.354974],[-71.059744,42.35498],[-71.059773,42.354959]]],[[[-71.059765,42.351715],[-71.059735,42.351682],[-71.0596,42.351674],[-71.059506,42.35171],[-71.059581,42.351743],[-71.059716,42.351751],[-71.05975,42.351741],[-71.059765,42.351715]]],[[[-71.059705,42.352788],[-71.059675,42.352755],[-71.05954,42.352747],[-71.059506,42.352758],[-71.059491,42.352783],[-71.059521,42.352816],[-71.059656,42.352824],[-71.05969,42.352814],[-71.059705,42.352788]]],[[[-71.059671,42.351605],[-71.059651,42.351583],[-71.05953,42.351576],[-71.0595,42.351591],[-71.0595,42.351609],[-71.05942,42.351609],[-71.059406,42.351634],[-71.059529,42.351651],[-71.059553,42.351625],[-71.059651,42.351627],[-71.059671,42.351605]]],[[[-71.059591,42.354818],[-71.059571,42.354796],[-71.059534,42.354793],[-71.059541,42.354779],[-71.059509,42.354755],[-71.059511,42.354728],[-71.059491,42.354714],[-71.059364,42.354707],[-71.059331,42.354723],[-71.059339,42.354752],[-71.059374,42.35476],[-71.059377,42.354791],[-71.059424,42.354799],[-71.059418,42.354813],[-71.059438,42.354835],[-71.059559,42.354842],[-71.059591,42.354818]]],[[[-71.059586,42.3511],[-71.0595,42.351084],[-71.059482,42.351097],[-71.059568,42.351114],[-71.059586,42.3511]]],[[[-71.059546,42.351173],[-71.05946,42.351157],[-71.059442,42.35117],[-71.059528,42.351187],[-71.059546,42.351173]]],[[[-71.059496,42.353103],[-71.05941,42.353087],[-71.059392,42.3531],[-71.059478,42.353117],[-71.059496,42.353103]]],[[[-71.059486,42.353013],[-71.0594,42.352997],[-71.059382,42.35301],[-71.059468,42.353027],[-71.059486,42.353013]]],[[[-71.05948,42.351708],[-71.059457,42.351691],[-71.059364,42.351687],[-71.059341,42.351704],[-71.059364,42.351721],[-71.059457,42.351725],[-71.05948,42.351708]]],[[[-71.059416,42.351784],[-71.059393,42.351767],[-71.0593,42.351763],[-71.059277,42.35178],[-71.0593,42.351797],[-71.059393,42.351801],[-71.059416,42.351784]]],[[[-71.059353,42.351296],[-71.059338,42.351271],[-71.059281,42.351259],[-71.059289,42.351222],[-71.059263,42.351203],[-71.05911,42.351194],[-71.059076,42.351205],[-71.059061,42.35123],[-71.059076,42.351255],[-71.059133,42.351267],[-71.059121,42.35129],[-71.059148,42.351321],[-71.059106,42.351332],[-71.059091,42.351357],[-71.059121,42.35139],[-71.059293,42.351396],[-71.059323,42.351363],[-71.059296,42.351332],[-71.059338,42.351322],[-71.059353,42.351296]]],[[[-71.059252,42.353297],[-71.059234,42.353284],[-71.05907,42.353274],[-71.05898,42.35327],[-71.058962,42.353283],[-71.05898,42.353296],[-71.059234,42.353311],[-71.059252,42.353297]]],[[[-71.059201,42.35439],[-71.059169,42.354366],[-71.05906,42.354361],[-71.05903,42.354376],[-71.059037,42.354402],[-71.05906,42.354409],[-71.059169,42.354414],[-71.059201,42.35439]]],[[[-71.059166,42.351463],[-71.05908,42.351447],[-71.059062,42.35146],[-71.059148,42.351477],[-71.059166,42.351463]]],[[[-71.059164,42.351521],[-71.059139,42.351502],[-71.05904,42.351498],[-71.059016,42.35151],[-71.05904,42.351536],[-71.059139,42.351541],[-71.059164,42.351521]]],[[[-71.059119,42.351609],[-71.059097,42.351585],[-71.05897,42.351578],[-71.058934,42.351604],[-71.058956,42.351628],[-71.059084,42.351636],[-71.059119,42.351609]]],[[[-71.059086,42.354335],[-71.059,42.354319],[-71.058982,42.354332],[-71.059068,42.354349],[-71.059086,42.354335]]],[[[-71.059048,42.354294],[-71.059028,42.35428],[-71.05894,42.354276],[-71.058921,42.35429],[-71.05894,42.354304],[-71.059028,42.354308],[-71.059048,42.354294]]],[[[-71.059031,42.351695],[-71.059011,42.351673],[-71.058878,42.351668],[-71.05886,42.351699],[-71.058878,42.351712],[-71.058825,42.351719],[-71.058817,42.351748],[-71.058767,42.35177],[-71.058767,42.35179],[-71.0588,42.351806],[-71.058927,42.35181],[-71.058947,42.351775],[-71.058997,42.351753],[-71.058977,42.351719],[-71.059011,42.351717],[-71.059031,42.351695]]],[[[-71.059027,42.35165],[-71.059008,42.351636],[-71.05893,42.351633],[-71.058912,42.351646],[-71.05893,42.351659],[-71.059008,42.351663],[-71.059027,42.35165]]],[[[-71.058932,42.353271],[-71.058846,42.353255],[-71.058828,42.353268],[-71.058914,42.353285],[-71.058932,42.353271]]],[[[-71.058874,42.35185],[-71.05884,42.351817],[-71.05876,42.351813],[-71.058701,42.351818],[-71.058677,42.351845],[-71.058701,42.351872],[-71.058835,42.351879],[-71.058874,42.35185]]],[[[-71.058826,42.353271],[-71.05874,42.353255],[-71.058722,42.353268],[-71.058808,42.353285],[-71.058826,42.353271]]],[[[-71.058801,42.351911],[-71.058781,42.351889],[-71.05866,42.351882],[-71.058637,42.351889],[-71.058599,42.351936],[-71.058713,42.351951],[-71.058736,42.351934],[-71.058781,42.351933],[-71.058801,42.351911]]],[[[-71.058729,42.352004],[-71.058695,42.351966],[-71.058509,42.351959],[-71.058451,42.352018],[-71.058451,42.352041],[-71.058397,42.35205],[-71.058398,42.352085],[-71.058352,42.352097],[-71.05837,42.35211],[-71.058586,42.352111],[-71.058611,42.352093],[-71.058611,42.352067],[-71.058713,42.352032],[-71.058729,42.352004]]],[[[-71.058636,42.352533],[-71.058558,42.352514],[-71.05825,42.352499],[-71.058232,42.352512],[-71.05825,42.352525],[-71.05841,42.352541],[-71.058618,42.352547],[-71.058636,42.352533]]],[[[-71.058588,42.352484],[-71.058568,42.35247],[-71.05848,42.352466],[-71.058461,42.35248],[-71.05848,42.352494],[-71.058568,42.352498],[-71.058588,42.352484]]],[[[-71.058456,42.352473],[-71.05837,42.352457],[-71.058352,42.35247],[-71.058438,42.352487],[-71.058456,42.352473]]],[[[-71.058356,42.350913],[-71.058283,42.350897],[-71.058275,42.350878],[-71.0582,42.350874],[-71.058182,42.350887],[-71.058255,42.350903],[-71.058263,42.350922],[-71.058338,42.350927],[-71.058356,42.350913]]],[[[-71.058346,42.35247],[-71.05826,42.352454],[-71.058242,42.352467],[-71.058328,42.352484],[-71.058346,42.35247]]],[[[-71.058106,42.352668],[-71.05802,42.352652],[-71.058002,42.352665],[-71.058088,42.352682],[-71.058106,42.352668]]],[[[-71.0581,42.352771],[-71.058014,42.352755],[-71.057996,42.352768],[-71.058082,42.352785],[-71.0581,42.352771]]],[[[-71.058076,42.352908],[-71.05799,42.352892],[-71.057972,42.352905],[-71.058058,42.352922],[-71.058076,42.352908]]],[[[-71.057871,42.350696],[-71.057808,42.350667],[-71.05774,42.350664],[-71.057722,42.350677],[-71.057785,42.350706],[-71.057853,42.35071],[-71.057871,42.350696]]],[[[-71.057848,42.35223],[-71.057823,42.352211],[-71.057724,42.352207],[-71.057718,42.352179],[-71.057633,42.35217],[-71.057618,42.352147],[-71.057471,42.352123],[-71.057455,42.352095],[-71.05734,42.352088],[-71.057311,42.35211],[-71.057329,42.35213],[-71.057406,42.352135],[-71.05742,42.352158],[-71.057567,42.352182],[-71.057583,42.35221],[-71.057698,42.352216],[-71.057714,42.352244],[-71.057823,42.35225],[-71.057848,42.35223]]],[[[-71.057482,42.350406],[-71.057396,42.35039],[-71.057378,42.350403],[-71.057464,42.35042],[-71.057482,42.350406]]],[[[-71.057466,42.350497],[-71.05738,42.350481],[-71.057362,42.350494],[-71.057448,42.350511],[-71.057466,42.350497]]],[[[-71.057421,42.35171],[-71.05733,42.351694],[-71.057312,42.351707],[-71.057403,42.351724],[-71.057421,42.35171]]],[[[-71.057406,42.351753],[-71.05732,42.351737],[-71.057302,42.35175],[-71.057388,42.351767],[-71.057406,42.351753]]],[[[-71.057377,42.3519],[-71.057291,42.351884],[-71.057273,42.351897],[-71.057359,42.351914],[-71.057377,42.3519]]],[[[-71.057377,42.350929],[-71.057358,42.350915],[-71.05728,42.350912],[-71.057262,42.350925],[-71.05728,42.350938],[-71.057358,42.350942],[-71.057377,42.350929]]],[[[-71.057361,42.351958],[-71.05728,42.351942],[-71.057262,42.351955],[-71.057343,42.351971],[-71.057361,42.351958]]],[[[-71.057347,42.351067],[-71.057328,42.351053],[-71.05725,42.35105],[-71.057232,42.351063],[-71.05725,42.351076],[-71.057328,42.35108],[-71.057347,42.351067]]],[[[-71.057276,42.351413],[-71.05719,42.351397],[-71.057172,42.35141],[-71.057258,42.351427],[-71.057276,42.351413]]],[[[-71.057266,42.350553],[-71.05718,42.350537],[-71.057162,42.35055],[-71.057248,42.350567],[-71.057266,42.350553]]],[[[-71.057215,42.350635],[-71.057129,42.350619],[-71.057111,42.350632],[-71.057197,42.350649],[-71.057215,42.350635]]],[[[-71.057162,42.350536],[-71.057076,42.35052],[-71.057058,42.350533],[-71.057144,42.35055],[-71.057162,42.350536]]],[[[-71.057131,42.349908],[-71.057099,42.349884],[-71.05699,42.349879],[-71.05696,42.349894],[-71.056967,42.34992],[-71.05699,42.349927],[-71.057099,42.349932],[-71.057131,42.349908]]],[[[-71.057106,42.349843],[-71.05702,42.349827],[-71.057002,42.34984],[-71.057088,42.349857],[-71.057106,42.349843]]],[[[-71.056952,42.352032],[-71.056933,42.352018],[-71.05685,42.352015],[-71.056832,42.352028],[-71.05685,42.352041],[-71.056933,42.352045],[-71.056952,42.352032]]],[[[-71.056948,42.349765],[-71.056924,42.349739],[-71.05679,42.349731],[-71.056751,42.34976],[-71.056775,42.349787],[-71.056909,42.349794],[-71.056948,42.349765]]],[[[-71.056902,42.350233],[-71.056816,42.350217],[-71.056798,42.35023],[-71.056884,42.350247],[-71.056902,42.350233]]],[[[-71.056901,42.349845],[-71.056869,42.349821],[-71.05676,42.349816],[-71.05673,42.349831],[-71.056737,42.349857],[-71.05676,42.349864],[-71.056869,42.349869],[-71.056901,42.349845]]],[[[-71.05689,42.34992],[-71.05686,42.349887],[-71.056725,42.349879],[-71.056691,42.34989],[-71.056676,42.349915],[-71.056706,42.349948],[-71.056841,42.349956],[-71.056875,42.349946],[-71.05689,42.34992]]],[[[-71.056866,42.35031],[-71.05678,42.350294],[-71.056762,42.350307],[-71.056848,42.350324],[-71.056866,42.35031]]],[[[-71.056845,42.350011],[-71.056815,42.349978],[-71.05668,42.34997],[-71.056646,42.349981],[-71.056631,42.350006],[-71.056661,42.350039],[-71.056796,42.350047],[-71.05683,42.350037],[-71.056845,42.350011]]],[[[-71.056827,42.351998],[-71.056808,42.351984],[-71.05673,42.351981],[-71.056712,42.351994],[-71.05673,42.352007],[-71.056808,42.352011],[-71.056827,42.351998]]],[[[-71.056763,42.350099],[-71.056745,42.350079],[-71.05663,42.350072],[-71.056601,42.350094],[-71.056619,42.350114],[-71.056734,42.35012],[-71.056763,42.350099]]],[[[-71.056731,42.35019],[-71.056699,42.350166],[-71.05659,42.350161],[-71.05656,42.350176],[-71.056567,42.350202],[-71.05659,42.350209],[-71.056699,42.350214],[-71.056731,42.35019]]],[[[-71.056727,42.350617],[-71.056708,42.350603],[-71.056625,42.3506],[-71.056607,42.350613],[-71.056625,42.350626],[-71.056708,42.35063],[-71.056727,42.350617]]],[[[-71.056724,42.353207],[-71.056699,42.353188],[-71.0566,42.353184],[-71.056576,42.353196],[-71.0566,42.353222],[-71.056699,42.353227],[-71.056724,42.353207]]],[[[-71.056692,42.350684],[-71.056673,42.35067],[-71.05659,42.350667],[-71.056572,42.35068],[-71.05659,42.350693],[-71.056673,42.350697],[-71.056692,42.350684]]],[[[-71.056675,42.350839],[-71.056645,42.350806],[-71.05651,42.350798],[-71.056476,42.350809],[-71.056461,42.350834],[-71.056491,42.350867],[-71.056626,42.350875],[-71.05666,42.350865],[-71.056675,42.350839]]],[[[-71.056648,42.353169],[-71.056628,42.353155],[-71.05654,42.353151],[-71.056521,42.353165],[-71.05654,42.353179],[-71.056628,42.353183],[-71.056648,42.353169]]],[[[-71.056573,42.353131],[-71.056553,42.353117],[-71.056465,42.353113],[-71.056446,42.353127],[-71.056465,42.353141],[-71.056553,42.353145],[-71.056573,42.353131]]],[[[-71.056552,42.351924],[-71.056533,42.35191],[-71.05645,42.351907],[-71.056433,42.351889],[-71.05637,42.351887],[-71.056352,42.3519],[-71.056433,42.351916],[-71.05645,42.351933],[-71.056533,42.351937],[-71.056552,42.351924]]],[[[-71.056496,42.351033],[-71.05641,42.351017],[-71.056392,42.35103],[-71.056478,42.351047],[-71.056496,42.351033]]],[[[-71.056486,42.353094],[-71.056463,42.353077],[-71.05637,42.353073],[-71.056347,42.35309],[-71.05637,42.353107],[-71.056463,42.353111],[-71.056486,42.353094]]],[[[-71.056482,42.351101],[-71.056463,42.351087],[-71.05638,42.351084],[-71.056362,42.351097],[-71.05638,42.35111],[-71.056463,42.351114],[-71.056482,42.351101]]],[[[-71.056432,42.351179],[-71.056346,42.351163],[-71.056328,42.351176],[-71.056414,42.351193],[-71.056432,42.351179]]],[[[-71.056422,42.354934],[-71.056403,42.35492],[-71.05632,42.354917],[-71.056302,42.35493],[-71.05632,42.354943],[-71.056403,42.354947],[-71.056422,42.354934]]],[[[-71.056412,42.35484],[-71.056393,42.354826],[-71.05631,42.354823],[-71.056292,42.354836],[-71.05631,42.354849],[-71.056393,42.354853],[-71.056412,42.35484]]],[[[-71.056404,42.354674],[-71.056379,42.354655],[-71.05628,42.354651],[-71.056256,42.354663],[-71.05628,42.354689],[-71.056379,42.354694],[-71.056404,42.354674]]],[[[-71.056398,42.354754],[-71.056378,42.35474],[-71.05629,42.354736],[-71.056271,42.35475],[-71.05629,42.354764],[-71.056378,42.354768],[-71.056398,42.354754]]],[[[-71.05634,42.350846],[-71.056321,42.350832],[-71.056238,42.350829],[-71.05622,42.350842],[-71.056238,42.350855],[-71.056321,42.350859],[-71.05634,42.350846]]],[[[-71.056331,42.351379],[-71.05624,42.351363],[-71.056222,42.351376],[-71.056313,42.351393],[-71.056331,42.351379]]],[[[-71.056316,42.353053],[-71.05623,42.353037],[-71.056212,42.35305],[-71.056298,42.353067],[-71.056316,42.353053]]],[[[-71.056312,42.351414],[-71.056221,42.351398],[-71.056203,42.351411],[-71.056294,42.351428],[-71.056312,42.351414]]],[[[-71.05631,42.350937],[-71.056291,42.350923],[-71.056208,42.35092],[-71.05619,42.350933],[-71.056208,42.350946],[-71.056291,42.35095],[-71.05631,42.350937]]],[[[-71.056281,42.351453],[-71.05619,42.351437],[-71.056172,42.35145],[-71.056263,42.351467],[-71.056281,42.351453]]],[[[-71.05627,42.35104],[-71.056251,42.351026],[-71.056168,42.351023],[-71.05615,42.351036],[-71.056168,42.351049],[-71.056251,42.351053],[-71.05627,42.35104]]],[[[-71.056232,42.351149],[-71.056213,42.351135],[-71.05613,42.351132],[-71.056112,42.351145],[-71.05613,42.351158],[-71.056213,42.351162],[-71.056232,42.351149]]],[[[-71.056151,42.351713],[-71.05606,42.351697],[-71.056042,42.35171],[-71.056133,42.351727],[-71.056151,42.351713]]],[[[-71.056061,42.351359],[-71.056042,42.351345],[-71.055959,42.351342],[-71.055941,42.351355],[-71.055959,42.351368],[-71.056042,42.351372],[-71.056061,42.351359]]],[[[-71.056037,42.351416],[-71.056018,42.351402],[-71.055935,42.351399],[-71.055917,42.351412],[-71.055935,42.351425],[-71.056018,42.351429],[-71.056037,42.351416]]],[[[-71.056004,42.351486],[-71.055985,42.351472],[-71.055902,42.351469],[-71.055884,42.351482],[-71.055902,42.351495],[-71.055985,42.351499],[-71.056004,42.351486]]],[[[-71.055985,42.352231],[-71.055955,42.352198],[-71.055801,42.352193],[-71.055737,42.352276],[-71.055767,42.352309],[-71.055921,42.352315],[-71.055985,42.352231]]],[[[-71.055972,42.351565],[-71.055953,42.351551],[-71.05587,42.351548],[-71.055852,42.351561],[-71.05587,42.351574],[-71.055953,42.351578],[-71.055972,42.351565]]],[[[-71.055943,42.351626],[-71.055924,42.351612],[-71.055841,42.351609],[-71.055823,42.351622],[-71.055841,42.351635],[-71.055924,42.351639],[-71.055943,42.351626]]],[[[-71.055897,42.353341],[-71.055865,42.353317],[-71.055756,42.353312],[-71.055726,42.353327],[-71.055733,42.353353],[-71.055756,42.35336],[-71.055865,42.353365],[-71.055897,42.353341]]],[[[-71.055892,42.351731],[-71.055873,42.351717],[-71.05579,42.351714],[-71.055772,42.351727],[-71.05579,42.35174],[-71.055873,42.351744],[-71.055892,42.351731]]],[[[-71.055872,42.35178],[-71.055853,42.351766],[-71.05577,42.351763],[-71.055752,42.351776],[-71.05577,42.351789],[-71.055853,42.351793],[-71.055872,42.35178]]],[[[-71.055828,42.353399],[-71.05581,42.353379],[-71.055695,42.353372],[-71.055666,42.353394],[-71.055684,42.353414],[-71.055799,42.35342],[-71.055828,42.353399]]],[[[-71.055734,42.353434],[-71.055714,42.35342],[-71.055626,42.353416],[-71.055607,42.35343],[-71.055626,42.353444],[-71.055714,42.353448],[-71.055734,42.353434]]],[[[-71.055642,42.353501],[-71.055623,42.353487],[-71.05554,42.353484],[-71.055522,42.353497],[-71.05554,42.35351],[-71.055623,42.353514],[-71.055642,42.353501]]],[[[-71.055571,42.353533],[-71.05548,42.353517],[-71.055462,42.35353],[-71.055553,42.353547],[-71.055571,42.353533]]],[[[-71.055343,42.353677],[-71.055319,42.353644],[-71.055244,42.35364],[-71.055189,42.353657],[-71.055186,42.353684],[-71.055147,42.3537],[-71.05517,42.353717],[-71.055263,42.353721],[-71.055343,42.353677]]]]},"properties":{"kind":"tree"}}]}