{"type":"FeatureCollection","features":[{"type":"Feature","geometry":{"type":"MultiPolygon","coordinates":[[[[-71.067465,42.351878],[-71.067442,42.351744],[-71.067182,42.351158],[-71.066747,42.351106],[-71.065467,42.351257],[-71.064967,42.35123],[-71.064962,42.35125],[-71.064502,42.351183],[-71.063925,42.351141],[-71.062849,42.351031],[-71.06235,42.350948],[-71.062361,42.350922],[-71.062342,42.350916],[-71.061847,42.350795],[-71.061597,42.350765],[-71.061565,42.350845],[-71.062083,42.35096],[-71.062284,42.350984],[-71.062278,42.351002],[-71.062553,42.351077],[-71.062563,42.351098],[-71.06234,42.351056],[-71.062079,42.350981],[-71.06154,42.350894],[-71.061473,42.351098],[-71.061037,42.351011],[-71.060769,42.350979],[-71.060756,42.351001],[-71.06077,42.350943],[-71.060736,42.350936],[-71.060778,42.350827],[-71.060746,42.35082],[-71.060788,42.350714],[-71.060815,42.350717],[-71.060836,42.350665],[-71.060878,42.35067],[-71.060839,42.350774],[-71.061055,42.350822],[-71.061477,42.350871],[-71.061511,42.35075],[-71.06145,42.350706],[-71.061032,42.350603],[-71.061042,42.350575],[-71.060767,42.350498],[-71.060472,42.350463],[-71.060395,42.350464],[-71.060381,42.350499],[-71.060279,42.350487],[-71.060316,42.350391],[-71.060067,42.35032],[-71.059867,42.350296],[-71.059794,42.350499],[-71.059836,42.350508],[-71.059789,42.350634],[-71.060117,42.350696],[-71.060138,42.350642],[-71.060122,42.350638],[-71.060194,42.350647],[-71.059972,42.351168],[-71.060469,42.351279],[-71.060616,42.351296],[-71.060611,42.351308],[-71.061072,42.351411],[-71.06134,42.351443],[-71.061366,42.351433],[-71.061377,42.351403],[-71.061834,42.35146],[-71.062146,42.35145],[-71.062146,42.351424],[-71.062233,42.351421],[-71.062728,42.351525],[-71.062988,42.351556],[-71.063012,42.351476],[-71.065267,42.351746],[-71.065325,42.3517],[-71.065382,42.351706],[-71.065554,42.351782],[-71.064842,42.351707],[-71.064826,42.351767],[-71.062895,42.351546],[-71.062878,42.351633],[-71.062023,42.351525],[-71.061289,42.351543],[-71.061292,42.351556],[-71.061009,42.35152],[-71.060541,42.35142],[-71.060388,42.351402],[-71.060369,42.351415],[-71.060399,42.35151],[-71.060345,42.351503],[-71.060371,42.351372],[-71.060012,42.351292],[-71.059758,42.351262],[-71.059709,42.351391],[-71.059772,42.351821],[-71.059626,42.351804],[-71.059386,42.351848],[-71.059414,42.352034],[-71.059226,42.352012],[-71.059026,42.352083],[-71.058873,42.352183],[-71.058814,42.352257],[-71.058775,42.35235],[-71.059279,42.352439],[-71.06027,42.352557],[-71.060282,42.352552],[-71.060278,42.352519],[-71.060525,42.352548],[-71.060908,42.352549],[-71.060966,42.35254],[-71.060963,42.352527],[-71.061181,42.352553],[-71.061556,42.35252],[-71.06157,42.352442],[-71.061746,42.352425],[-71.061726,42.352312],[-71.061557,42.352307],[-71.061253,42.352044],[-71.06118,42.352021],[-71.061286,42.352007],[-71.061279,42.351958],[-71.061333,42.351949],[-71.061308,42.351782],[-71.061335,42.351776],[-71.061352,42.351859],[-71.061596,42.351888],[-71.061359,42.35189],[-71.061394,42.352062],[-71.061598,42.352086],[-71.061705,42.352081],[-71.061723,42.35216],[-71.062188,42.352215],[-71.061887,42.352201],[-71.061723,42.352231],[-71.061761,42.35241],[-71.061987,42.352437],[-71.062152,42.352417],[-71.06215,42.352392],[-71.062228,42.352401],[-71.062308,42.352395],[-71.062307,42.352384],[-71.062465,42.352403],[-71.06274,42.352381],[-71.062758,42.352372],[-71.062784,42.352286],[-71.063276,42.352272],[-71.063294,42.35223],[-71.063815,42.352285],[-71.06433,42.352294],[-71.06514,42.352369],[-71.066339,42.352436],[-71.06636,42.352427],[-71.06638,42.352188],[-71.06643,42.352188],[-71.066455,42.351904],[-71.066262,42.351883],[-71.066308,42.351881],[-71.066303,42.351802],[-71.067282,42.351923],[-71.067465,42.351878]],[[-71.063845,42.351433],[-71.063571,42.351402],[-71.063487,42.351387],[-71.063491,42.351369],[-71.063318,42.351348],[-71.063323,42.351323],[-71.06363,42.351357],[-71.063623,42.351394],[-71.063845,42.351433]],[[-71.060713,42.351703],[-71.060656,42.351696],[-71.060514,42.35172],[-71.060479,42.351622],[-71.060701,42.351664],[-71.060713,42.351703]],[[-71.060599,42.352147],[-71.0605,42.352135],[-71.060316,42.352167],[-71.060314,42.352213],[-71.06023,42.352212],[-71.060217,42.352131],[-71.060251,42.352128],[-71.060232,42.352004],[-71.060425,42.352029],[-71.060555,42.352007],[-71.060599,42.352147]],[[-71.060257,42.351834],[-71.060204,42.351842],[-71.060179,42.351649],[-71.0602,42.351648],[-71.060257,42.351834]]],[[[-71.066813,42.348568],[-71.066335,42.348512],[-71.06642,42.348115],[-71.065837,42.348044],[-71.065752,42.348444],[-71.065819,42.348453],[-71.065804,42.348522],[-71.065902,42.348534],[-71.065917,42.348586],[-71.066785,42.348688],[-71.066813,42.348568]]],[[[-71.066685,42.351078],[-71.066653,42.350749],[-71.065959,42.350666],[-71.065768,42.350662],[-71.066025,42.350624],[-71.066242,42.350616],[-71.066224,42.350396],[-71.066018,42.350371],[-71.066016,42.350337],[-71.06593,42.350327],[-71.065758,42.350337],[-71.065759,42.350361],[-71.065746,42.350362],[-71.065561,42.350336],[-71.065566,42.350315],[-71.065306,42.350225],[-71.064962,42.350184],[-71.06499,42.350082],[-71.065357,42.350127],[-71.065465,42.349721],[-71.065343,42.350191],[-71.065528,42.350227],[-71.066094,42.350294],[-71.066482,42.350286],[-71.066447,42.349957],[-71.066342,42.349836],[-71.065917,42.349786],[-71.065933,42.349708],[-71.066098,42.349728],[-71.066175,42.349704],[-71.066183,42.349676],[-71.066229,42.349662],[-71.066146,42.349515],[-71.066216,42.349496],[-71.06616,42.349398],[-71.066051,42.349385],[-71.065989,42.349405],[-71.066037,42.349493],[-71.06562,42.349445],[-71.065521,42.349461],[-71.06548,42.349652],[-71.064416,42.349501],[-71.064398,42.349561],[-71.064259,42.34954],[-71.064148,42.349433],[-71.064188,42.349438],[-71.064233,42.349406],[-71.064283,42.349277],[-71.064309,42.349137],[-71.064177,42.349116],[-71.064227,42.349012],[-71.064474,42.349049],[-71.064498,42.349077],[-71.064404,42.349122],[-71.064653,42.349291],[-71.064972,42.349329],[-71.065153,42.349236],[-71.065239,42.349246],[-71.065501,42.349123],[-71.065384,42.348987],[-71.065409,42.348896],[-71.065402,42.348811],[-71.065358,42.348697],[-71.065071,42.348626],[-71.064374,42.348548],[-71.064384,42.348515],[-71.062604,42.34825],[-71.062448,42.348644],[-71.063513,42.348801],[-71.063505,42.348828],[-71.063557,42.349023],[-71.063228,42.348984],[-71.06326,42.348918],[-71.062658,42.348755],[-71.062425,42.348727],[-71.062236,42.349176],[-71.062386,42.349253],[-71.062578,42.349288],[-71.062552,42.34932],[-71.061955,42.349244],[-71.061866,42.349224],[-71.061952,42.349016],[-71.061814,42.348985],[-71.062,42.349007],[-71.062089,42.34883],[-71.062117,42.348756],[-71.061961,42.348721],[-71.062034,42.34854],[-71.0623,42.348592],[-71.062333,42.348514],[-71.062403,42.348522],[-71.06251,42.348247],[-71.062255,42.348206],[-71.062168,42.348424],[-71.062088,42.348406],[-71.062177,42.348182],[-71.06205,42.348146],[-71.061907,42.348129],[-71.061619,42.348839],[-71.06159,42.348818],[-71.061621,42.348743],[-71.061649,42.348746],[-71.061656,42.34873],[-71.061728,42.348515],[-71.061802,42.348378],[-71.061775,42.348372],[-71.061842,42.34821],[-71.061785,42.348189],[-71.061011,42.348097],[-71.060549,42.348739],[-71.060786,42.348796],[-71.06111,42.348835],[-71.061094,42.348905],[-71.061154,42.348951],[-71.060878,42.348902],[-71.060793,42.349119],[-71.060321,42.349063],[-71.060204,42.349326],[-71.059925,42.350048],[-71.060226,42.350142],[-71.060398,42.350162],[-71.06038,42.350207],[-71.060828,42.350333],[-71.061011,42.350355],[-71.061001,42.350379],[-71.061484,42.350494],[-71.061689,42.350518],[-71.061673,42.350559],[-71.062184,42.350689],[-71.062289,42.350702],[-71.062508,42.350769],[-71.063092,42.350838],[-71.063113,42.350819],[-71.063755,42.350895],[-71.063768,42.350855],[-71.065733,42.351066],[-71.065739,42.351045],[-71.066068,42.351085],[-71.06647,42.351108],[-71.066685,42.351078]],[[-71.065711,42.350661],[-71.065475,42.350657],[-71.065483,42.350627],[-71.065711,42.350661]],[[-71.065206,42.350664],[-71.065146,42.350878],[-71.064754,42.350833],[-71.065041,42.350859],[-71.065097,42.350665],[-71.065046,42.350645],[-71.065206,42.350664]],[[-71.064193,42.350216],[-71.064062,42.350426],[-71.063915,42.350409],[-71.063932,42.350348],[-71.063897,42.350226],[-71.063694,42.350197],[-71.063765,42.350049],[-71.063804,42.350053],[-71.063813,42.350023],[-71.06378,42.350018],[-71.063819,42.349878],[-71.064091,42.350184],[-71.064127,42.350208],[-71.064193,42.350216]],[[-71.062906,42.34948],[-71.062812,42.349469],[-71.062628,42.349386],[-71.062594,42.349339],[-71.062733,42.349389],[-71.062725,42.349398],[-71.062906,42.34948]],[[-71.062733,42.349695],[-71.062663,42.349687],[-71.062677,42.349669],[-71.062733,42.349695]],[[-71.0627,42.350322],[-71.062691,42.350354],[-71.062573,42.350306],[-71.0627,42.350322]],[[-71.062677,42.350406],[-71.062675,42.350412],[-71.062672,42.350411],[-71.062677,42.350406]],[[-71.062563,42.349788],[-71.062473,42.34991],[-71.062158,42.349867],[-71.062171,42.349836],[-71.06226,42.349873],[-71.062323,42.34988],[-71.062436,42.349861],[-71.062446,42.349839],[-71.062563,42.349788]],[[-71.062371,42.350244],[-71.062341,42.350235],[-71.062352,42.350236],[-71.062371,42.350244]],[[-71.062028,42.349693],[-71.062009,42.349739],[-71.061847,42.349672],[-71.062028,42.349693]],[[-71.061705,42.348965],[-71.061577,42.34895],[-71.061611,42.348861],[-71.061584,42.348939],[-71.061705,42.348965]],[[-71.061616,42.349605],[-71.061307,42.349568],[-71.061196,42.349845],[-71.061438,42.349944],[-71.061327,42.350013],[-71.061086,42.349962],[-71.061035,42.349893],[-71.061141,42.349839],[-71.061305,42.349441],[-71.061322,42.349443],[-71.06137,42.349372],[-71.061338,42.349359],[-71.061301,42.349302],[-71.061411,42.349315],[-71.061347,42.349489],[-71.061616,42.349605]],[[-71.061543,42.349037],[-71.06152,42.349047],[-71.061502,42.349087],[-71.06148,42.349083],[-71.061505,42.349019],[-71.061407,42.348997],[-71.061542,42.348992],[-71.061531,42.349019],[-71.061543,42.349037]],[[-71.061503,42.349124],[-71.061488,42.349133],[-71.061498,42.349108],[-71.061503,42.349124]],[[-71.06148,42.349153],[-71.06148,42.349155],[-71.061479,42.349155],[-71.06148,42.349153]],[[-71.061204,42.34911],[-71.061167,42.349121],[-71.061146,42.349174],[-71.061037,42.349148],[-71.061041,42.349137],[-71.061118,42.349147],[-71.061127,42.349123],[-71.061064,42.349082],[-71.061099,42.348998],[-71.061115,42.348999],[-71.061083,42.349084],[-71.061204,42.34911]]],[[[-71.065671,42.35436],[-71.06564,42.354318],[-71.065508,42.354299],[-71.065458,42.354314],[-71.065443,42.354342],[-71.06545,42.354366],[-71.06548,42.354386],[-71.065606,42.354403],[-71.065646,42.354395],[-71.065671,42.35436]]],[[[-71.065593,42.347911],[-71.065547,42.347827],[-71.065456,42.347813],[-71.065485,42.347784],[-71.065486,42.347697],[-71.065424,42.347663],[-71.064894,42.347587],[-71.064503,42.347783],[-71.064419,42.347977],[-71.063968,42.347919],[-71.063884,42.347988],[-71.063856,42.347985],[-71.063829,42.348081],[-71.063855,42.348085],[-71.063884,42.348148],[-71.063654,42.348116],[-71.06372,42.34788],[-71.06346,42.347843],[-71.063365,42.348193],[-71.064163,42.348308],[-71.064188,42.348214],[-71.064543,42.348246],[-71.064582,42.34823],[-71.064466,42.348292],[-71.06444,42.348386],[-71.06532,42.348503],[-71.065358,42.348446],[-71.065478,42.348416],[-71.065482,42.348396],[-71.065393,42.348297],[-71.065519,42.34818],[-71.065519,42.348106],[-71.065455,42.348033],[-71.065584,42.347949],[-71.065593,42.347911]]],[[[-71.06548,42.352878],[-71.065303,42.352844],[-71.065286,42.352891],[-71.065312,42.352972],[-71.065437,42.352993],[-71.06548,42.352878]]],[[[-71.06491,42.352728],[-71.064799,42.352715],[-71.064828,42.352489],[-71.064794,42.352463],[-71.064339,42.352409],[-71.063705,42.352384],[-71.063363,42.352382],[-71.063362,42.352396],[-71.063313,42.35239],[-71.062724,42.352454],[-71.062724,42.352488],[-71.062679,42.352486],[-71.062677,42.352514],[-71.062412,42.352483],[-71.061487,42.352561],[-71.061489,42.352598],[-71.061336,42.35258],[-71.061194,42.352592],[-71.061183,42.352625],[-71.060985,42.352601],[-71.060475,42.352641],[-71.060188,42.352643],[-71.060191,42.352677],[-71.058902,42.352524],[-71.058924,42.352457],[-71.058338,42.35231],[-71.057007,42.352152],[-71.05682,42.352104],[-71.056202,42.352031],[-71.05594,42.352127],[-71.055846,42.352326],[-71.055909,42.352342],[-71.055876,42.352367],[-71.056034,42.352612],[-71.056894,42.352714],[-71.057372,42.352586],[-71.058047,42.352666],[-71.058029,42.352776],[-71.057668,42.352733],[-71.05756,42.352748],[-71.05731,42.352888],[-71.057163,42.352943],[-71.057105,42.353007],[-71.057106,42.353073],[-71.057149,42.353124],[-71.057259,42.353188],[-71.05871,42.353349],[-71.058716,42.353308],[-71.059609,42.353313],[-71.059697,42.353275],[-71.059746,42.353214],[-71.059895,42.35329],[-71.06027,42.353335],[-71.06037,42.35329],[-71.060492,42.353305],[-71.060607,42.353182],[-71.060586,42.35317],[-71.060778,42.353177],[-71.060768,42.353084],[-71.060843,42.353093],[-71.060815,42.353125],[-71.061223,42.353333],[-71.060695,42.353272],[-71.060404,42.353585],[-71.060273,42.353513],[-71.060107,42.353493],[-71.06012,42.35348],[-71.060059,42.353453],[-71.059432,42.35339],[-71.059387,42.35343],[-71.059354,42.353426],[-71.059344,42.353401],[-71.059322,42.353393],[-71.059185,42.353377],[-71.058914,42.353374],[-71.058707,42.353349],[-71.058016,42.353373],[-71.05798,42.35339],[-71.057933,42.353509],[-71.057435,42.353451],[-71.057415,42.353355],[-71.057019,42.353191],[-71.056237,42.353097],[-71.055998,42.353225],[-71.05602,42.353309],[-71.055897,42.353294],[-71.055573,42.353469],[-71.055601,42.353498],[-71.055402,42.35361],[-71.055342,42.353603],[-71.054915,42.353838],[-71.054995,42.353918],[-71.054834,42.353899],[-71.054776,42.353908],[-71.054391,42.354111],[-71.054359,42.354149],[-71.054358,42.354189],[-71.054619,42.354471],[-71.054916,42.354514],[-71.054775,42.354643],[-71.05498,42.354839],[-71.055446,42.354894],[-71.055573,42.35484],[-71.055688,42.355479],[-71.056527,42.355579],[-71.056642,42.355584],[-71.057107,42.355537],[-71.057937,42.355636],[-71.058389,42.355592],[-71.05833,42.355254],[-71.058655,42.355229],[-71.05864,42.355112],[-71.059228,42.355368],[-71.059494,42.3554],[-71.059521,42.355375],[-71.060197,42.355455],[-71.060369,42.355309],[-71.060481,42.355389],[-71.060643,42.355406],[-71.060834,42.355232],[-71.060946,42.355245],[-71.061104,42.355099],[-71.061373,42.355233],[-71.061671,42.355268],[-71.061843,42.355081],[-71.061552,42.354928],[-71.061317,42.3549],[-71.061382,42.354839],[-71.061464,42.354835],[-71.062184,42.355207],[-71.062414,42.355234],[-71.062538,42.355102],[-71.062691,42.355175],[-71.062904,42.3552],[-71.062963,42.35514],[-71.063118,42.355222],[-71.063397,42.355255],[-71.063456,42.355178],[-71.063209,42.355052],[-71.063662,42.355107],[-71.063706,42.355098],[-71.06383,42.354868],[-71.064193,42.35491],[-71.064228,42.354814],[-71.06435,42.354828],[-71.064639,42.354292],[-71.064544,42.354264],[-71.064562,42.354231],[-71.064537,42.354219],[-71.064346,42.354162],[-71.06438,42.35413],[-71.064444,42.354013],[-71.064454,42.353966],[-71.064201,42.353888],[-71.063609,42.353818],[-71.063457,42.354048],[-71.062587,42.35398],[-71.063255,42.353999],[-71.063299,42.353777],[-71.063599,42.353813],[-71.063865,42.353825],[-71.064495,42.353905],[-71.064601,42.353706],[-71.064527,42.353683],[-71.064544,42.353576],[-71.064242,42.35354],[-71.064275,42.353446],[-71.063651,42.353352],[-71.063204,42.353334],[-71.063201,42.353416],[-71.062957,42.353398],[-71.062971,42.353359],[-71.062973,42.353226],[-71.062415,42.35316],[-71.061817,42.353186],[-71.061812,42.35313],[-71.06188,42.353138],[-71.062648,42.353105],[-71.062677,42.353152],[-71.06274,42.353183],[-71.063086,42.353225],[-71.06446,42.353333],[-71.064486,42.353268],[-71.06454,42.353272],[-71.064508,42.353366],[-71.064619,42.353385],[-71.064653,42.353283],[-71.06463,42.353279],[-71.064647,42.35328],[-71.064708,42.353208],[-71.064763,42.353214],[-71.064817,42.353117],[-71.064765,42.352874],[-71.064875,42.352879],[-71.06491,42.352728]],[[-71.063195,42.355045],[-71.063065,42.355017],[-71.063088,42.354993],[-71.063195,42.355045]],[[-71.06307,42.35447],[-71.063065,42.354475],[-71.062845,42.354443],[-71.06307,42.35447]],[[-71.062988,42.354943],[-71.062887,42.354931],[-71.06258,42.354765],[-71.062343,42.354737],[-71.062227,42.354864],[-71.062213,42.35486],[-71.062345,42.35469],[-71.062204,42.354621],[-71.062238,42.354584],[-71.061997,42.354455],[-71.061885,42.354442],[-71.061913,42.354415],[-71.062655,42.354776],[-71.062776,42.35479],[-71.062746,42.354823],[-71.062988,42.354943]],[[-71.062413,42.354149],[-71.062211,42.354125],[-71.062225,42.354112],[-71.062413,42.354149]],[[-71.062359,42.353778],[-71.062256,42.353901],[-71.06185,42.353704],[-71.061937,42.35365],[-71.062143,42.353752],[-71.062359,42.353778]],[[-71.059751,42.354881],[-71.059728,42.354878],[-71.059427,42.354654],[-71.059241,42.354631],[-71.059194,42.354603],[-71.059085,42.35459],[-71.059203,42.354482],[-71.058877,42.354257],[-71.059579,42.354339],[-71.059385,42.354511],[-71.059372,42.35457],[-71.059396,42.354607],[-71.059751,42.354881]],[[-71.059413,42.353947],[-71.059257,42.353928],[-71.05905,42.353854],[-71.059089,42.353818],[-71.059269,42.35392],[-71.059413,42.353947]],[[-71.058111,42.354721],[-71.057954,42.354874],[-71.057069,42.354768],[-71.056933,42.354705],[-71.056761,42.354684],[-71.056862,42.354624],[-71.056865,42.354584],[-71.05672,42.354452],[-71.05702,42.354487],[-71.057355,42.354454],[-71.057358,42.354371],[-71.057332,42.354226],[-71.057485,42.354278],[-71.057624,42.354296],[-71.057647,42.35426],[-71.057744,42.354272],[-71.057546,42.354581],[-71.057938,42.3547],[-71.058111,42.354721]],[[-71.057125,42.354157],[-71.056806,42.354104],[-71.056795,42.354044],[-71.056674,42.354029],[-71.056661,42.353963],[-71.056949,42.353997],[-71.056898,42.35408],[-71.057125,42.354157]],[[-71.056622,42.353512],[-71.056521,42.353559],[-71.056528,42.35357],[-71.056373,42.353635],[-71.05627,42.353431],[-71.056404,42.353486],[-71.056622,42.353512]],[[-71.056322,42.353764],[-71.056272,42.353712],[-71.05631,42.353694],[-71.056322,42.353764]],[[-71.055913,42.353973],[-71.055826,42.354011],[-71.055605,42.353985],[-71.055731,42.3539],[-71.055817,42.353865],[-71.05581,42.353857],[-71.055893,42.353867],[-71.055913,42.353973]]],[[[-71.063404,42.348011],[-71.062961,42.347921],[-71.062942,42.347969],[-71.062735,42.347939],[-71.062725,42.347962],[-71.062292,42.34787],[-71.062362,42.347699],[-71.062208,42.347663],[-71.061712,42.347604],[-71.061566,42.347954],[-71.061555,42.348046],[-71.061674,42.348074],[-71.06217,42.348133],[-71.062229,42.348022],[-71.063005,42.348111],[-71.06302,42.348073],[-71.062984,42.348047],[-71.063029,42.348052],[-71.063042,42.348024],[-71.063068,42.348029],[-71.063051,42.348085],[-71.0632,42.348106],[-71.063234,42.348066],[-71.063383,42.348088],[-71.063404,42.348011]]],[[[-71.063365,42.348193],[-71.063342,42.348161],[-71.063299,42.348154],[-71.063187,42.348141],[-71.063178,42.348165],[-71.062667,42.348107],[-71.06264,42.348175],[-71.063341,42.348276],[-71.063365,42.348193]]],[[[-71.059752,42.350244],[-71.059718,42.350209],[-71.059294,42.350115],[-71.059148,42.350098],[-71.05915,42.350079],[-71.058746,42.34999],[-71.058372,42.349945],[-71.058331,42.350089],[-71.058317,42.350086],[-71.058358,42.349932],[-71.058266,42.349913],[-71.058273,42.349893],[-71.05795,42.349839],[-71.057957,42.349802],[-71.057585,42.349721],[-71.057133,42.349667],[-71.05695,42.350087],[-71.056922,42.350095],[-71.056797,42.350339],[-71.056828,42.350343],[-71.056838,42.350385],[-71.056878,42.350421],[-71.056873,42.350442],[-71.057303,42.350549],[-71.057553,42.350579],[-71.057546,42.350612],[-71.058459,42.35083],[-71.058583,42.350845],[-71.05861,42.350777],[-71.058691,42.350786],[-71.058743,42.350676],[-71.058763,42.350678],[-71.058689,42.350861],[-71.058721,42.350897],[-71.059143,42.350991],[-71.05939,42.35102],[-71.059445,42.351004],[-71.059752,42.350244]],[[-71.058941,42.350238],[-71.058881,42.350386],[-71.058778,42.350364],[-71.058834,42.350225],[-71.058941,42.350238]],[[-71.058287,42.350242],[-71.058268,42.35031],[-71.058189,42.350294],[-71.058205,42.350233],[-71.058287,42.350242]]],[[[-71.05938,42.349734],[-71.059287,42.349704],[-71.059179,42.349693],[-71.059105,42.349866],[-71.059306,42.349906],[-71.05938,42.349734]]],[[[-71.059242,42.351125],[-71.058837,42.351035],[-71.058687,42.351017],[-71.058699,42.350987],[-71.058389,42.35091],[-71.05784,42.350791],[-71.05757,42.350758],[-71.057578,42.350722],[-71.057198,42.350628],[-71.05694,42.350597],[-71.056755,42.350619],[-71.056678,42.350643],[-71.05656,42.350888],[-71.057022,42.350994],[-71.05701,42.351021],[-71.056825,42.350982],[-71.056543,42.350948],[-71.056401,42.351249],[-71.056731,42.351383],[-71.056294,42.351331],[-71.056079,42.351765],[-71.057078,42.352025],[-71.057346,42.352057],[-71.057928,42.35224],[-71.058301,42.352284],[-71.058473,42.35178],[-71.058461,42.351763],[-71.05742,42.351616],[-71.057313,42.351568],[-71.057143,42.351538],[-71.057366,42.351565],[-71.057416,42.351539],[-71.058366,42.351679],[-71.058362,42.351689],[-71.058558,42.351732],[-71.058762,42.351756],[-71.05895,42.351578],[-71.059064,42.351441],[-71.059194,42.351237],[-71.059242,42.351125]],[[-71.058045,42.35111],[-71.05803,42.351164],[-71.058012,42.351169],[-71.058026,42.351107],[-71.058045,42.35111]],[[-71.05798,42.351342],[-71.057979,42.351348],[-71.057959,42.351344],[-71.05798,42.351342]],[[-71.056853,42.351405],[-71.056848,42.351418],[-71.056784,42.351396],[-71.056853,42.351405]]],[[[-71.05918,42.34962],[-71.059158,42.34959],[-71.058822,42.349537],[-71.058848,42.349472],[-71.058034,42.349279],[-71.057926,42.349266],[-71.057859,42.349433],[-71.058004,42.349465],[-71.057964,42.349563],[-71.057872,42.349548],[-71.057853,42.349597],[-71.058297,42.349696],[-71.058597,42.349732],[-71.058613,42.349691],[-71.058754,42.349708],[-71.058794,42.349609],[-71.059133,42.349649],[-71.05918,42.34962]]],[[[-71.05863,42.348772],[-71.058172,42.348671],[-71.057613,42.348605],[-71.057529,42.348814],[-71.057988,42.348915],[-71.058547,42.348981],[-71.05863,42.348772]]],[[[-71.057044,42.349264],[-71.056988,42.349257],[-71.056996,42.349225],[-71.056817,42.349175],[-71.056596,42.349149],[-71.055702,42.349404],[-71.056893,42.347628],[-71.056883,42.347569],[-71.056118,42.347287],[-71.055908,42.347262],[-71.054533,42.349309],[-71.054521,42.349419],[-71.054447,42.34941],[-71.053477,42.350853],[-71.054337,42.351171],[-71.054432,42.351182],[-71.05519,42.350052],[-71.055025,42.350377],[-71.055387,42.35065],[-71.055519,42.350695],[-71.055807,42.350729],[-71.056375,42.350715],[-71.056459,42.350699],[-71.056493,42.35063],[-71.056546,42.350611],[-71.056564,42.350574],[-71.056587,42.350444],[-71.056856,42.349808],[-71.056932,42.349494],[-71.057044,42.349264]],[[-71.055362,42.349712],[-71.055358,42.349719],[-71.055354,42.349718],[-71.055362,42.349712]]],[[[-71.056107,42.35166],[-71.055837,42.351585],[-71.055498,42.351545],[-71.054479,42.351779],[-71.054307,42.351954],[-71.054833,42.352232],[-71.054993,42.352283],[-71.0555,42.352348],[-71.055677,42.352308],[-71.055797,42.352218],[-71.055888,42.352109],[-71.056107,42.35166]]]]},"properties":{"kind":"building"}},{"type":"Feature","geometry":{"type":"MultiPolygon","coordinates":[[[[-71.066271,42.353476],[-71.06626,42.353435],[-71.066181,42.353377],[-71.065912,42.353343],[-71.065809,42.353375],[-71.065777,42.35341],[-71.065769,42.353463],[-71.065717,42.353434],[-71.065563,42.353414],[-71.065613,42.35337],[-71.065617,42.353303],[-71.065707,42.353303],[-71.065758,42.353268],[-71.065824,42.353289],[-71.066027,42.353303],[-71.066058,42.353288],[-71.066085,42.353239],[-71.066058,42.35319],[-71.066006,42.353172],[-71.06604,42.353145],[-71.066142,42.353145],[-71.066207,42.353097],[-71.066216,42.353063],[-71.066192,42.353012],[-71.066231,42.352978],[-71.066245,42.352898],[-71.066234,42.352857],[-71.066202,42.352822],[-71.066155,42.352799],[-71.065909,42.352768],[-71.065875,42.352747],[-71.065785,42.352735],[-71.065821,42.352705],[-71.065828,42.352679],[-71.065812,42.352644],[-71.066118,42.352665],[-71.066158,42.352635],[-71.066164,42.352614],[-71.066142,42.352575],[-71.065688,42.352518],[-71.065619,42.352552],[-71.065361,42.35251],[-71.065288,42.352533],[-71.065265,42.352558],[-71.065221,42.352535],[-71.064975,42.352515],[-71.064922,42.352553],[-71.064915,42.352581],[-71.064943,42.352632],[-71.064975,42.352647],[-71.065183,42.352673],[-71.065221,42.352668],[-71.065273,42.352629],[-71.065321,42.352658],[-71.065488,42.352679],[-71.065539,42.352722],[-71.065647,42.352736],[-71.065612,42.352783],[-71.065525,42.352783],[-71.065472,42.352821],[-71.065472,42.352877],[-71.065524,42.352915],[-71.065481,42.352931],[-71.065463,42.35295],[-71.065463,42.352996],[-71.065416,42.353028],[-71.06524,42.353001],[-71.065177,42.353032],[-71.065177,42.35307],[-71.065214,42.353098],[-71.065374,42.353117],[-71.065417,42.353105],[-71.065446,42.353128],[-71.065399,42.353147],[-71.065367,42.353205],[-71.06529,42.353198],[-71.065316,42.353169],[-71.065288,42.353138],[-71.06515,42.353125],[-71.065109,42.353056],[-71.065064,42.353034],[-71.06503,42.352976],[-71.064991,42.352957],[-71.064745,42.352926],[-71.06466,42.352952],[-71.064625,42.353015],[-71.064656,42.353073],[-71.064658,42.353148],[-71.064778,42.353243],[-71.064912,42.35326],[-71.064915,42.353272],[-71.064617,42.353248],[-71.064557,42.353292],[-71.064557,42.353354],[-71.064617,42.353398],[-71.064847,42.353427],[-71.064889,42.353421],[-71.064945,42.353381],[-71.064997,42.353366],[-71.065018,42.353328],[-71.065128,42.353338],[-71.065162,42.353379],[-71.065081,42.353409],[-71.065054,42.353438],[-71.064919,42.353429],[-71.06488,42.353458],[-71.06488,42.353498],[-71.064919,42.353527],[-71.065347,42.353585],[-71.065392,42.353608],[-71.065483,42.35362],[-71.065431,42.353648],[-71.065431,42.353682],[-71.065464,42.353707],[-71.065543,42.353717],[-71.065509,42.353756],[-71.065348,42.353739],[-71.0653,42.353753],[-71.06528,42.353789],[-71.0653,42.353825],[-71.065393,42.353845],[-71.065383,42.353867],[-71.065225,42.353846],[-71.065181,42.35386],[-71.065168,42.353909],[-71.065201,42.353934],[-71.065264,42.353942],[-71.065252,42.353963],[-71.065072,42.353947],[-71.065036,42.353923],[-71.064929,42.353909],[-71.064883,42.353864],[-71.064783,42.353851],[-71.064739,42.353818],[-71.064505,42.353783],[-71.0645,42.353772],[-71.064539,42.35377],[-71.064574,42.353744],[-71.064574,42.353707],[-71.064608,42.353674],[-71.064608,42.353637],[-71.064573,42.353611],[-71.064393,42.353596],[-71.064358,42.353622],[-71.064358,42.353658],[-71.064324,42.353692],[-71.064332,42.353737],[-71.064296,42.353748],[-71.06428,42.353777],[-71.064296,42.353806],[-71.064362,42.353821],[-71.064276,42.353837],[-71.064258,42.353857],[-71.064258,42.353905],[-71.064238,42.353945],[-71.064262,42.353987],[-71.064288,42.354],[-71.06447,42.354023],[-71.064537,42.353995],[-71.06458,42.354026],[-71.064862,42.354071],[-71.064928,42.354039],[-71.065051,42.354026],[-71.065139,42.354044],[-71.065136,42.354081],[-71.065168,42.354104],[-71.065312,42.354122],[-71.065353,42.354109],[-71.06537,42.354078],[-71.065353,42.354048],[-71.06528,42.354032],[-71.065289,42.354014],[-71.065445,42.354033],[-71.065505,42.354004],[-71.065491,42.353952],[-71.065401,42.353932],[-71.065413,42.353907],[-71.065556,42.353922],[-71.065594,42.35391],[-71.065679,42.353915],[-71.06567,42.353953],[-71.065619,42.353976],[-71.06563,42.354015],[-71.065792,42.354036],[-71.065818,42.354017],[-71.065818,42.353989],[-71.065869,42.353966],[-71.065859,42.353927],[-71.065699,42.353905],[-71.065713,42.353879],[-71.065698,42.353852],[-71.065548,42.353828],[-71.06555,42.353805],[-71.065567,42.353799],[-71.065689,42.353814],[-71.065743,42.353787],[-71.06573,42.35374],[-71.065639,42.353721],[-71.065676,42.35368],[-71.065639,42.353639],[-71.065717,42.353633],[-71.065764,42.35361],[-71.065796,42.353575],[-71.065804,42.353522],[-71.065856,42.353551],[-71.065912,42.353559],[-71.066125,42.353584],[-71.066181,42.353576],[-71.066228,42.353553],[-71.06626,42.353518],[-71.066271,42.353476]],[[-71.065772,42.352938],[-71.065758,42.352945],[-71.065732,42.352942],[-71.065772,42.352938]]],[[[-71.06618,42.354988],[-71.066138,42.354941],[-71.065978,42.354922],[-71.06593,42.354936],[-71.06591,42.354972],[-71.065952,42.355019],[-71.066112,42.355038],[-71.06616,42.355024],[-71.06618,42.354988]]],[[[-71.066117,42.354073],[-71.066093,42.354046],[-71.065981,42.354032],[-71.065945,42.35405],[-71.06587,42.354048],[-71.06584,42.354081],[-71.06587,42.354114],[-71.065998,42.35413],[-71.066033,42.354119],[-71.066046,42.354098],[-71.066093,42.354099],[-71.066117,42.354073]]],[[[-71.066078,42.354493],[-71.066068,42.354457],[-71.065997,42.354405],[-71.065735,42.354372],[-71.065643,42.3544],[-71.065605,42.354468],[-71.065643,42.354536],[-71.065685,42.354557],[-71.065948,42.354589],[-71.06604,42.354561],[-71.066078,42.354493]]],[[[-71.066046,42.354155],[-71.066023,42.354138],[-71.065947,42.354129],[-71.065924,42.354146],[-71.065947,42.354163],[-71.066023,42.354172],[-71.066046,42.354155]]],[[[-71.06596,42.348053],[-71.06592,42.348009],[-71.065765,42.34799],[-71.065719,42.348004],[-71.0657,42.348038],[-71.06574,42.348082],[-71.065895,42.348101],[-71.065941,42.348087],[-71.06596,42.348053]]],[[[-71.065908,42.348194],[-71.065874,42.348156],[-71.065735,42.348139],[-71.065696,42.348151],[-71.06568,42.34818],[-71.065714,42.348218],[-71.065853,42.348235],[-71.065892,42.348223],[-71.065908,42.348194]]],[[[-71.065888,42.354867],[-71.065878,42.354832],[-71.065812,42.354783],[-71.065616,42.354759],[-71.065578,42.354727],[-71.065501,42.354718],[-71.065496,42.354692],[-71.065452,42.35466],[-71.065378,42.354632],[-71.065227,42.354613],[-71.065224,42.35459],[-71.06519,42.354565],[-71.065066,42.354549],[-71.065188,42.35449],[-71.065188,42.354456],[-71.065154,42.354431],[-71.065005,42.354412],[-71.064968,42.354422],[-71.064924,42.354398],[-71.064605,42.354358],[-71.064623,42.354309],[-71.064612,42.354268],[-71.06458,42.354233],[-71.064533,42.35421],[-71.064394,42.354192],[-71.064376,42.354153],[-71.064437,42.35416],[-71.064485,42.354192],[-71.064751,42.354214],[-71.064786,42.354197],[-71.064817,42.354141],[-71.064809,42.354111],[-71.064751,42.354068],[-71.064295,42.354023],[-71.064238,42.354041],[-71.064214,42.354083],[-71.064236,42.354124],[-71.064178,42.354117],[-71.064125,42.354133],[-71.064103,42.354172],[-71.064148,42.354222],[-71.064088,42.354236],[-71.064069,42.35427],[-71.064088,42.354304],[-71.064127,42.354317],[-71.064154,42.354353],[-71.064036,42.354339],[-71.063979,42.354357],[-71.063955,42.354399],[-71.063968,42.35443],[-71.063903,42.354482],[-71.063892,42.354523],[-71.063903,42.354564],[-71.063935,42.354599],[-71.063982,42.354623],[-71.064271,42.354653],[-71.064351,42.354678],[-71.064347,42.354689],[-71.064212,42.354672],[-71.064161,42.354697],[-71.064173,42.354742],[-71.06424,42.354757],[-71.064237,42.354801],[-71.064276,42.35483],[-71.064441,42.35485],[-71.064492,42.354835],[-71.064513,42.354797],[-71.064492,42.35476],[-71.064382,42.354738],[-71.064518,42.35475],[-71.064557,42.354738],[-71.064573,42.354709],[-71.064557,42.35468],[-71.064477,42.354663],[-71.064607,42.354673],[-71.064644,42.354662],[-71.064655,42.35462],[-71.064627,42.354599],[-71.06458,42.354593],[-71.064584,42.354578],[-71.064717,42.354595],[-71.064758,42.354582],[-71.064771,42.354537],[-71.064883,42.35455],[-71.064935,42.354538],[-71.065024,42.354549],[-71.064984,42.354575],[-71.064982,42.354603],[-71.064905,42.354594],[-71.064841,42.354613],[-71.064814,42.354661],[-71.064821,42.354687],[-71.06487,42.354723],[-71.06505,42.354745],[-71.065053,42.354769],[-71.064907,42.354757],[-71.064873,42.354795],[-71.064907,42.354833],[-71.065046,42.35485],[-71.065118,42.354807],[-71.065159,42.354843],[-71.065241,42.354853],[-71.06528,42.354882],[-71.065467,42.354901],[-71.065513,42.354927],[-71.065764,42.354958],[-71.065852,42.354932],[-71.065888,42.354867]],[[-71.064598,42.354425],[-71.064594,42.354442],[-71.064485,42.354435],[-71.064453,42.354458],[-71.064466,42.354506],[-71.064541,42.354522],[-71.064537,42.354535],[-71.064389,42.354521],[-71.064354,42.354472],[-71.06426,42.354442],[-71.064262,42.354394],[-71.064477,42.354417],[-71.064567,42.354392],[-71.064598,42.354425]],[[-71.064445,42.35461],[-71.064373,42.354603],[-71.064377,42.354599],[-71.064445,42.35461]]],[[[-71.06586,42.34846],[-71.065824,42.348421],[-71.06568,42.348403],[-71.065639,42.348415],[-71.065622,42.348446],[-71.065658,42.348486],[-71.065802,42.348504],[-71.065843,42.348491],[-71.06586,42.34846]]],[[[-71.065784,42.3483],[-71.06571,42.34828],[-71.065692,42.348293],[-71.065766,42.348313],[-71.065784,42.3483]]],[[[-71.065678,42.348331],[-71.065639,42.348289],[-71.06549,42.34827],[-71.065446,42.348284],[-71.065428,42.348316],[-71.065466,42.348358],[-71.065616,42.348377],[-71.065659,42.348363],[-71.065678,42.348331]]],[[[-71.065653,42.349247],[-71.065623,42.349214],[-71.06551,42.3492],[-71.065476,42.349211],[-71.065461,42.349236],[-71.065491,42.349269],[-71.065605,42.349283],[-71.065639,42.349273],[-71.065653,42.349247]]],[[[-71.065652,42.351231],[-71.06557,42.35121],[-71.065552,42.351223],[-71.065634,42.351244],[-71.065652,42.351231]]],[[[-71.06565,42.348963],[-71.06558,42.348944],[-71.065562,42.348957],[-71.065631,42.348977],[-71.06565,42.348963]]],[[[-71.065614,42.3491],[-71.065544,42.349081],[-71.065526,42.349094],[-71.065595,42.349114],[-71.065614,42.3491]]],[[[-71.065604,42.348117],[-71.06553,42.348097],[-71.065512,42.34811],[-71.065586,42.34813],[-71.065604,42.348117]]],[[[-71.065559,42.348455],[-71.065536,42.348438],[-71.06546,42.348429],[-71.065437,42.348446],[-71.06546,42.348463],[-71.065536,42.348472],[-71.065559,42.348455]]],[[[-71.065527,42.348801],[-71.065497,42.348768],[-71.065384,42.348754],[-71.06535,42.348765],[-71.065335,42.34879],[-71.065365,42.348823],[-71.065479,42.348837],[-71.065513,42.348827],[-71.065527,42.348801]]],[[[-71.065488,42.348951],[-71.065466,42.348927],[-71.06536,42.348914],[-71.065324,42.34894],[-71.065346,42.348964],[-71.065453,42.348977],[-71.065488,42.348951]]],[[[-71.065488,42.349083],[-71.065458,42.34905],[-71.06533,42.349034],[-71.065296,42.349045],[-71.065281,42.34907],[-71.065311,42.349103],[-71.065439,42.349119],[-71.065474,42.349108],[-71.065488,42.349083]]],[[[-71.065428,42.351217],[-71.06535,42.351197],[-71.065332,42.35121],[-71.06541,42.351231],[-71.065428,42.351217]]],[[[-71.065371,42.35298],[-71.065359,42.352959],[-71.065307,42.352948],[-71.065302,42.352924],[-71.065264,42.352896],[-71.065288,42.352865],[-71.065275,42.352842],[-71.065322,42.352816],[-71.065309,42.352769],[-71.065146,42.352742],[-71.065092,42.352768],[-71.065105,42.352816],[-71.065081,42.352852],[-71.065094,42.352876],[-71.065047,42.352891],[-71.065027,42.352928],[-71.065047,42.352965],[-71.065332,42.353008],[-71.065371,42.35298]]],[[[-71.065324,42.351217],[-71.06525,42.351197],[-71.065232,42.35121],[-71.065306,42.35123],[-71.065324,42.351217]]],[[[-71.065256,42.35073],[-71.06523,42.35071],[-71.06515,42.350701],[-71.065126,42.350713],[-71.06515,42.350739],[-71.06523,42.350749],[-71.065256,42.35073]]],[[[-71.065231,42.350794],[-71.065205,42.350774],[-71.065125,42.350765],[-71.065101,42.350777],[-71.065125,42.350803],[-71.065205,42.350813],[-71.065231,42.350794]]],[[[-71.065221,42.354193],[-71.065185,42.354154],[-71.065041,42.354136],[-71.065,42.354148],[-71.064847,42.354137],[-71.064817,42.35417],[-71.064847,42.354203],[-71.065163,42.354237],[-71.065204,42.354224],[-71.065221,42.354193]]],[[[-71.065202,42.350862],[-71.06511,42.350839],[-71.065091,42.350853],[-71.065182,42.350876],[-71.065202,42.350862]]],[[[-71.06509,42.355007],[-71.065083,42.354978],[-71.065026,42.354936],[-71.064807,42.354909],[-71.064734,42.354932],[-71.064703,42.354986],[-71.064734,42.35504],[-71.064767,42.355057],[-71.064987,42.355084],[-71.06506,42.355062],[-71.06509,42.355007]]],[[[-71.065068,42.354307],[-71.065036,42.354272],[-71.064903,42.354256],[-71.064856,42.354272],[-71.064696,42.354253],[-71.064648,42.354267],[-71.064628,42.354303],[-71.06467,42.35435],[-71.06483,42.354369],[-71.064903,42.354332],[-71.065036,42.354343],[-71.065068,42.354307]]],[[[-71.065004,42.351317],[-71.064926,42.351297],[-71.064908,42.35131],[-71.064986,42.351331],[-71.065004,42.351317]]],[[[-71.064913,42.348463],[-71.064839,42.348443],[-71.064821,42.348456],[-71.064895,42.348476],[-71.064913,42.348463]]],[[[-71.064907,42.353557],[-71.064899,42.353528],[-71.064845,42.353488],[-71.064631,42.353462],[-71.06456,42.353483],[-71.06453,42.353536],[-71.06456,42.353589],[-71.064592,42.353605],[-71.064807,42.353631],[-71.064878,42.353609],[-71.064907,42.353557]]],[[[-71.064795,42.354804],[-71.064721,42.354784],[-71.064703,42.354797],[-71.064777,42.354817],[-71.064795,42.354804]]],[[[-71.06468,42.351833],[-71.064606,42.351813],[-71.064588,42.351826],[-71.064662,42.351846],[-71.06468,42.351833]]],[[[-71.064677,42.348432],[-71.064603,42.348412],[-71.064585,42.348425],[-71.064659,42.348445],[-71.064677,42.348432]]],[[[-71.064637,42.352113],[-71.064545,42.35209],[-71.064526,42.352104],[-71.064617,42.352127],[-71.064637,42.352113]]],[[[-71.064628,42.352062],[-71.06455,42.352042],[-71.064532,42.352055],[-71.06461,42.352076],[-71.064628,42.352062]]],[[[-71.064604,42.352167],[-71.06453,42.352147],[-71.064512,42.35216],[-71.064586,42.35218],[-71.064604,42.352167]]],[[[-71.064492,42.348406],[-71.064418,42.348386],[-71.0644,42.348399],[-71.064474,42.348419],[-71.064492,42.348406]]],[[[-71.064294,42.350932],[-71.064276,42.350918],[-71.063934,42.350874],[-71.063895,42.350903],[-71.063919,42.35093],[-71.064031,42.350943],[-71.064139,42.350949],[-71.064198,42.35093],[-71.064276,42.350945],[-71.064294,42.350932]]],[[[-71.064285,42.348729],[-71.064262,42.348712],[-71.064186,42.348703],[-71.064163,42.34872],[-71.064186,42.348737],[-71.064262,42.348746],[-71.064285,42.348729]]],[[[-71.064236,42.348848],[-71.06415,42.348827],[-71.064132,42.34884],[-71.064218,42.348862],[-71.064236,42.348848]]],[[[-71.064156,42.353308],[-71.064005,42.353262],[-71.06392,42.353251],[-71.063897,42.353268],[-71.06392,42.353285],[-71.064063,42.353312],[-71.064138,42.353322],[-71.064156,42.353308]]],[[[-71.064122,42.353399],[-71.064102,42.353384],[-71.06391,42.353361],[-71.063892,42.353374],[-71.064037,42.353409],[-71.064102,42.353413],[-71.064122,42.353399]]],[[[-71.064117,42.354725],[-71.064111,42.354702],[-71.064065,42.354668],[-71.063846,42.354649],[-71.0638,42.354683],[-71.063799,42.354727],[-71.063772,42.354739],[-71.063749,42.35478],[-71.063772,42.354821],[-71.063797,42.354833],[-71.064003,42.354851],[-71.064046,42.354819],[-71.064048,42.354785],[-71.064092,42.354769],[-71.064117,42.354725]]],[[[-71.064066,42.353768],[-71.06398,42.353747],[-71.063962,42.35376],[-71.064048,42.353782],[-71.064066,42.353768]]],[[[-71.064011,42.353978],[-71.063979,42.353954],[-71.06389,42.353943],[-71.06386,42.353958],[-71.063867,42.353984],[-71.06389,42.353991],[-71.063979,42.354002],[-71.064011,42.353978]]],[[[-71.063988,42.348684],[-71.063896,42.348661],[-71.063877,42.348675],[-71.063968,42.348698],[-71.063988,42.348684]]],[[[-71.063969,42.348752],[-71.063946,42.348735],[-71.06387,42.348726],[-71.063847,42.348743],[-71.06387,42.34876],[-71.063946,42.348769],[-71.063969,42.348752]]],[[[-71.063952,42.348879],[-71.06386,42.348856],[-71.063841,42.34887],[-71.063932,42.348893],[-71.063952,42.348879]]],[[[-71.063929,42.3488],[-71.063855,42.34878],[-71.063837,42.348793],[-71.063911,42.348813],[-71.063929,42.3488]]],[[[-71.063896,42.35413],[-71.06387,42.35411],[-71.06379,42.354101],[-71.063766,42.354113],[-71.06379,42.354139],[-71.06387,42.354149],[-71.063896,42.35413]]],[[[-71.063877,42.349155],[-71.063803,42.349135],[-71.063785,42.349148],[-71.063859,42.349168],[-71.063877,42.349155]]],[[[-71.063864,42.348434],[-71.06379,42.348414],[-71.063772,42.348427],[-71.063846,42.348447],[-71.063864,42.348434]]],[[[-71.063824,42.3493],[-71.06375,42.34928],[-71.063732,42.349293],[-71.063806,42.349313],[-71.063824,42.3493]]],[[[-71.063811,42.349342],[-71.063737,42.349322],[-71.063719,42.349335],[-71.063793,42.349355],[-71.063811,42.349342]]],[[[-71.063796,42.350894],[-71.063764,42.35087],[-71.06352,42.350845],[-71.063496,42.350857],[-71.06351,42.350882],[-71.063675,42.350907],[-71.063764,42.350918],[-71.063796,42.350894]]],[[[-71.063774,42.348417],[-71.0637,42.348397],[-71.063682,42.34841],[-71.063756,42.34843],[-71.063774,42.348417]]],[[[-71.063762,42.349769],[-71.06367,42.349746],[-71.063651,42.34976],[-71.063742,42.349783],[-71.063762,42.349769]]],[[[-71.0637,42.349862],[-71.063614,42.349841],[-71.063596,42.349854],[-71.063682,42.349876],[-71.0637,42.349862]]],[[[-71.063663,42.354711],[-71.063633,42.354678],[-71.06352,42.354664],[-71.063486,42.354675],[-71.063471,42.3547],[-71.063501,42.354733],[-71.063615,42.354747],[-71.063649,42.354737],[-71.063663,42.354711]]],[[[-71.063652,42.349959],[-71.06356,42.349936],[-71.063541,42.34995],[-71.063632,42.349973],[-71.063652,42.349959]]],[[[-71.063616,42.350008],[-71.06353,42.349987],[-71.063512,42.35],[-71.063598,42.350022],[-71.063616,42.350008]]],[[[-71.063603,42.354811],[-71.063573,42.354778],[-71.06346,42.354764],[-71.063426,42.354775],[-71.063411,42.3548],[-71.063441,42.354833],[-71.063555,42.354847],[-71.063589,42.354837],[-71.063603,42.354811]]],[[[-71.063526,42.350426],[-71.06344,42.350405],[-71.063422,42.350418],[-71.063508,42.35044],[-71.063526,42.350426]]],[[[-71.063522,42.350188],[-71.06344,42.350167],[-71.063422,42.35018],[-71.063504,42.350201],[-71.063522,42.350188]]],[[[-71.063498,42.350495],[-71.063416,42.350474],[-71.063398,42.350487],[-71.06348,42.350508],[-71.063498,42.350495]]],[[[-71.063492,42.350254],[-71.06341,42.350233],[-71.063392,42.350246],[-71.063474,42.350267],[-71.063492,42.350254]]],[[[-71.063468,42.350775],[-71.06345,42.350755],[-71.063354,42.350743],[-71.063325,42.350765],[-71.063343,42.350785],[-71.063439,42.350797],[-71.063468,42.350775]]],[[[-71.063467,42.350288],[-71.063385,42.350267],[-71.063367,42.35028],[-71.063449,42.350301],[-71.063467,42.350288]]],[[[-71.063466,42.350836],[-71.06344,42.350816],[-71.06336,42.350807],[-71.063336,42.350819],[-71.06336,42.350845],[-71.06344,42.350855],[-71.063466,42.350836]]],[[[-71.063463,42.350557],[-71.063385,42.350537],[-71.063367,42.35055],[-71.063445,42.350571],[-71.063463,42.350557]]],[[[-71.063442,42.350713],[-71.06335,42.35069],[-71.063331,42.350704],[-71.063422,42.350727],[-71.063442,42.350713]]],[[[-71.063428,42.350617],[-71.06335,42.350597],[-71.063332,42.35061],[-71.06341,42.350631],[-71.063428,42.350617]]],[[[-71.063388,42.350447],[-71.06331,42.350427],[-71.063292,42.35044],[-71.06337,42.350461],[-71.063388,42.350447]]],[[[-71.063362,42.350491],[-71.06328,42.35047],[-71.063262,42.350483],[-71.063344,42.350504],[-71.063362,42.350491]]],[[[-71.063337,42.350544],[-71.063255,42.350523],[-71.063237,42.350536],[-71.063319,42.350557],[-71.063337,42.350544]]],[[[-71.063316,42.35059],[-71.06323,42.350569],[-71.063212,42.350582],[-71.063298,42.350604],[-71.063316,42.35059]]],[[[-71.063296,42.350638],[-71.06321,42.350617],[-71.063192,42.35063],[-71.063278,42.350652],[-71.063296,42.350638]]],[[[-71.06325,42.350683],[-71.06318,42.350664],[-71.063162,42.350677],[-71.063231,42.350697],[-71.06325,42.350683]]],[[[-71.063242,42.350735],[-71.06316,42.350714],[-71.063142,42.350727],[-71.063224,42.350748],[-71.063242,42.350735]]],[[[-71.063222,42.350774],[-71.06313,42.350751],[-71.063111,42.350765],[-71.063202,42.350788],[-71.063222,42.350774]]],[[[-71.063204,42.352245],[-71.063126,42.352225],[-71.063047,42.35225],[-71.063125,42.352271],[-71.063204,42.352245]]],[[[-71.063043,42.35226],[-71.062972,42.35224],[-71.062985,42.352233],[-71.062975,42.352215],[-71.06283,42.352202],[-71.062812,42.352215],[-71.06283,42.352228],[-71.06296,42.35224],[-71.062948,42.352248],[-71.062958,42.352265],[-71.063025,42.352274],[-71.063043,42.35226]]],[[[-71.062902,42.353311],[-71.06281,42.353288],[-71.06274,42.353289],[-71.062717,42.353306],[-71.06274,42.353323],[-71.062816,42.353332],[-71.062902,42.353311]]],[[[-71.062902,42.353223],[-71.062882,42.353208],[-71.062744,42.353193],[-71.062725,42.353207],[-71.062744,42.353221],[-71.062882,42.353237],[-71.062902,42.353223]]],[[[-71.062644,42.348364],[-71.062626,42.348344],[-71.06253,42.348332],[-71.062501,42.348354],[-71.062519,42.348374],[-71.062615,42.348386],[-71.062644,42.348364]]],[[[-71.062597,42.349385],[-71.062571,42.349356],[-71.06249,42.349346],[-71.06249,42.349323],[-71.062467,42.349306],[-71.06235,42.349292],[-71.06232,42.349301],[-71.062308,42.349323],[-71.062334,42.349352],[-71.062415,42.349362],[-71.062415,42.349385],[-71.062438,42.349402],[-71.062555,42.349416],[-71.062585,42.349407],[-71.062597,42.349385]]],[[[-71.062539,42.348566],[-71.062516,42.348549],[-71.06244,42.34854],[-71.062417,42.348557],[-71.06244,42.348574],[-71.062516,42.348583],[-71.062539,42.348566]]],[[[-71.062506,42.348385],[-71.062482,42.348358],[-71.06237,42.348344],[-71.062331,42.348373],[-71.062355,42.3484],[-71.062467,42.348413],[-71.062506,42.348385]]],[[[-71.062112,42.353761],[-71.06202,42.353738],[-71.062001,42.353752],[-71.062092,42.353775],[-71.062112,42.353761]]],[[[-71.062062,42.349313],[-71.061988,42.349293],[-71.06197,42.349306],[-71.062044,42.349326],[-71.062062,42.349313]]],[[[-71.062044,42.353867],[-71.06197,42.353847],[-71.06198,42.353828],[-71.06197,42.35382],[-71.06189,42.353811],[-71.061871,42.353825],[-71.061962,42.353848],[-71.061963,42.353872],[-71.062026,42.35388],[-71.062044,42.353867]]],[[[-71.062035,42.349559],[-71.062005,42.349526],[-71.061892,42.349512],[-71.061858,42.349523],[-71.061843,42.349548],[-71.061873,42.349581],[-71.061987,42.349595],[-71.062021,42.349585],[-71.062035,42.349559]]],[[[-71.062007,42.349445],[-71.061933,42.349425],[-71.061915,42.349438],[-71.061989,42.349458],[-71.062007,42.349445]]],[[[-71.061997,42.353709],[-71.061905,42.353686],[-71.061886,42.3537],[-71.061977,42.353723],[-71.061997,42.353709]]],[[[-71.061984,42.349887],[-71.06191,42.349867],[-71.061892,42.34988],[-71.061966,42.3499],[-71.061984,42.349887]]],[[[-71.061957,42.348325],[-71.061929,42.348294],[-71.061806,42.348278],[-71.061764,42.348299],[-71.061729,42.348273],[-71.06159,42.348256],[-71.061551,42.348268],[-71.061535,42.348297],[-71.061569,42.348335],[-71.061708,42.348352],[-71.061747,42.34834],[-71.061762,42.348315],[-71.061789,42.348343],[-71.061911,42.348358],[-71.061943,42.348348],[-71.061957,42.348325]]],[[[-71.061954,42.349933],[-71.06188,42.349913],[-71.061862,42.349926],[-71.061936,42.349946],[-71.061954,42.349933]]],[[[-71.061948,42.350007],[-71.061874,42.349987],[-71.061856,42.35],[-71.06193,42.35002],[-71.061948,42.350007]]],[[[-71.061924,42.350051],[-71.06185,42.350031],[-71.061832,42.350044],[-71.061906,42.350064],[-71.061924,42.350051]]],[[[-71.061898,42.353662],[-71.06184,42.353643],[-71.06185,42.353604],[-71.061823,42.353585],[-71.06171,42.353571],[-71.061676,42.353582],[-71.061661,42.353607],[-71.061691,42.35364],[-71.061787,42.353652],[-71.061806,42.353667],[-71.061878,42.353676],[-71.061898,42.353662]]],[[[-71.061894,42.350087],[-71.06182,42.350067],[-71.061802,42.35008],[-71.061876,42.3501],[-71.061894,42.350087]]],[[[-71.061886,42.350304],[-71.061862,42.350277],[-71.061735,42.350265],[-71.061711,42.350292],[-71.061722,42.350312],[-71.061688,42.350322],[-71.061675,42.350346],[-71.061703,42.350377],[-71.061843,42.35039],[-71.061867,42.350371],[-71.061857,42.350335],[-71.061886,42.350304]]],[[[-71.061884,42.35379],[-71.06181,42.35377],[-71.061792,42.353783],[-71.061866,42.353803],[-71.061884,42.35379]]],[[[-71.061876,42.350161],[-71.061806,42.350142],[-71.061788,42.350155],[-71.061857,42.350175],[-71.061876,42.350161]]],[[[-71.06186,42.349677],[-71.06183,42.349644],[-71.061717,42.34963],[-71.061683,42.349641],[-71.061668,42.349666],[-71.061698,42.349699],[-71.061812,42.349713],[-71.061846,42.349703],[-71.06186,42.349677]]],[[[-71.061854,42.350207],[-71.06178,42.350187],[-71.061762,42.3502],[-71.061836,42.35022],[-71.061854,42.350207]]],[[[-71.061826,42.348428],[-71.061752,42.348408],[-71.061734,42.348421],[-71.061808,42.348441],[-71.061826,42.348428]]],[[[-71.061803,42.353745],[-71.061729,42.353725],[-71.061711,42.353738],[-71.061785,42.353758],[-71.061803,42.353745]]],[[[-71.061793,42.34866],[-71.061767,42.348631],[-71.06165,42.348617],[-71.06162,42.348626],[-71.061608,42.348647],[-71.061503,42.348639],[-71.061475,42.34867],[-71.061503,42.348701],[-71.061625,42.348716],[-71.061657,42.348706],[-71.061671,42.348683],[-71.061767,42.348689],[-71.061793,42.34866]]],[[[-71.061692,42.353558],[-71.06161,42.353537],[-71.061592,42.35355],[-71.061674,42.353571],[-71.061692,42.353558]]],[[[-71.061666,42.348844],[-71.061592,42.348824],[-71.061574,42.348837],[-71.06146,42.348823],[-71.06143,42.348832],[-71.061418,42.348854],[-71.061444,42.348883],[-71.061561,42.348897],[-71.061591,42.348888],[-71.0616,42.348854],[-71.061648,42.348857],[-71.061666,42.348844]]],[[[-71.061664,42.348507],[-71.06159,42.348487],[-71.061572,42.3485],[-71.061646,42.34852],[-71.061664,42.348507]]],[[[-71.061661,42.348192],[-71.061596,42.348172],[-71.061579,42.348133],[-71.061536,42.348119],[-71.061386,42.348108],[-71.061348,42.34815],[-71.061366,42.348182],[-71.06141,42.348196],[-71.061536,42.348211],[-71.061579,42.348197],[-71.061643,42.348205],[-71.061661,42.348192]]],[[[-71.061642,42.349579],[-71.061628,42.349554],[-71.061542,42.349537],[-71.061514,42.349512],[-71.061401,42.349498],[-71.061367,42.349509],[-71.061352,42.349534],[-71.061367,42.349559],[-71.061453,42.349576],[-71.06148,42.349601],[-71.061594,42.349615],[-71.061628,42.349605],[-71.061642,42.349579]]],[[[-71.061569,42.350959],[-71.061546,42.350942],[-71.06147,42.350933],[-71.061447,42.35095],[-71.06147,42.350967],[-71.061546,42.350976],[-71.061569,42.350959]]],[[[-71.061541,42.348259],[-71.061509,42.348235],[-71.06142,42.348224],[-71.06139,42.348239],[-71.061397,42.348265],[-71.06142,42.348272],[-71.061509,42.348283],[-71.061541,42.348259]]],[[[-71.061502,42.349263],[-71.061432,42.349243],[-71.061416,42.349218],[-71.06132,42.349206],[-71.061291,42.349228],[-71.061309,42.349248],[-71.061413,42.349267],[-71.061484,42.349276],[-71.061502,42.349263]]],[[[-71.061474,42.351129],[-71.0614,42.351109],[-71.061382,42.351122],[-71.061456,42.351142],[-71.061474,42.351129]]],[[[-71.061472,42.349061],[-71.06138,42.349038],[-71.061361,42.349052],[-71.061452,42.349075],[-71.061472,42.349061]]],[[[-71.061453,42.351187],[-71.061379,42.351167],[-71.061361,42.35118],[-71.061435,42.3512],[-71.061453,42.351187]]],[[[-71.061427,42.351247],[-71.061353,42.351227],[-71.061335,42.35124],[-71.061409,42.35126],[-71.061427,42.351247]]],[[[-71.061424,42.349437],[-71.06135,42.349417],[-71.061332,42.34943],[-71.061406,42.34945],[-71.061424,42.349437]]],[[[-71.061408,42.351296],[-71.061334,42.351276],[-71.061316,42.351289],[-71.06139,42.351309],[-71.061408,42.351296]]],[[[-71.061342,42.349637],[-71.061264,42.349617],[-71.061246,42.34963],[-71.061324,42.349651],[-71.061342,42.349637]]],[[[-71.061323,42.349842],[-71.061297,42.349813],[-71.06118,42.349799],[-71.06115,42.349808],[-71.061138,42.34983],[-71.061164,42.349859],[-71.061281,42.349873],[-71.061311,42.349864],[-71.061323,42.349842]]],[[[-71.061321,42.349685],[-71.061243,42.349665],[-71.061225,42.349678],[-71.061303,42.349699],[-71.061321,42.349685]]],[[[-71.0613,42.353377],[-71.06124,42.353358],[-71.061233,42.353338],[-71.061191,42.353333],[-71.061183,42.353314],[-71.06112,42.353307],[-71.061102,42.35332],[-71.061154,42.353338],[-71.061163,42.353356],[-71.061211,42.353362],[-71.061219,42.353382],[-71.061282,42.35339],[-71.0613,42.353377]]],[[[-71.061294,42.354781],[-71.06122,42.354761],[-71.061202,42.354774],[-71.061276,42.354794],[-71.061294,42.354781]]],[[[-71.061269,42.350043],[-71.061237,42.350008],[-71.061104,42.349992],[-71.061067,42.350003],[-71.061052,42.35003],[-71.061084,42.350065],[-71.061217,42.350082],[-71.061254,42.350071],[-71.061269,42.350043]]],[[[-71.061244,42.354923],[-71.06117,42.354903],[-71.061152,42.354916],[-71.061226,42.354936],[-71.061244,42.354923]]],[[[-71.061145,42.348615],[-71.061113,42.34858],[-71.06098,42.348564],[-71.060943,42.348575],[-71.060928,42.348602],[-71.06096,42.348637],[-71.061093,42.348654],[-71.06113,42.348643],[-71.061145,42.348615]]],[[[-71.061123,42.348731],[-71.061089,42.348693],[-71.06095,42.348676],[-71.060911,42.348688],[-71.060895,42.348717],[-71.060929,42.348755],[-71.061068,42.348772],[-71.061107,42.34876],[-71.061123,42.348731]]],[[[-71.061112,42.353283],[-71.06103,42.353262],[-71.061012,42.353275],[-71.061094,42.353296],[-71.061112,42.353283]]],[[[-71.061094,42.348497],[-71.06102,42.348477],[-71.061002,42.34849],[-71.061076,42.34851],[-71.061094,42.348497]]],[[[-71.061044,42.35337],[-71.060971,42.35335],[-71.060982,42.353332],[-71.060913,42.353317],[-71.060912,42.353299],[-71.060844,42.353289],[-71.060826,42.353302],[-71.060891,42.353321],[-71.060892,42.35334],[-71.060964,42.35335],[-71.060953,42.353358],[-71.060963,42.353375],[-71.061026,42.353383],[-71.061044,42.35337]]],[[[-71.061043,42.348839],[-71.061017,42.34881],[-71.0609,42.348796],[-71.06087,42.348805],[-71.060858,42.348827],[-71.060884,42.348856],[-71.061001,42.34887],[-71.061031,42.348861],[-71.061043,42.348839]]],[[[-71.060994,42.353227],[-71.06092,42.353207],[-71.060902,42.35322],[-71.060976,42.35324],[-71.060994,42.353227]]],[[[-71.060986,42.34919],[-71.060942,42.349142],[-71.060776,42.349121],[-71.060725,42.349137],[-71.060705,42.349174],[-71.060749,42.349223],[-71.060914,42.349243],[-71.060965,42.349228],[-71.060986,42.34919]]],[[[-71.060827,42.349401],[-71.060797,42.349368],[-71.060684,42.349354],[-71.06065,42.349365],[-71.060635,42.34939],[-71.060665,42.349423],[-71.060779,42.349437],[-71.060813,42.349427],[-71.060827,42.349401]]],[[[-71.060804,42.349519],[-71.060774,42.349486],[-71.060646,42.34947],[-71.060612,42.349481],[-71.060597,42.349506],[-71.060627,42.349539],[-71.060755,42.349555],[-71.06079,42.349544],[-71.060804,42.349519]]],[[[-71.060718,42.349683],[-71.060688,42.34965],[-71.06047,42.349627],[-71.060452,42.34964],[-71.060514,42.349659],[-71.060515,42.349684],[-71.060541,42.349703],[-71.060669,42.349719],[-71.060704,42.349708],[-71.060718,42.349683]]],[[[-71.060695,42.349805],[-71.060663,42.34977],[-71.06053,42.349754],[-71.060493,42.349765],[-71.060478,42.349792],[-71.06051,42.349827],[-71.060643,42.349844],[-71.06068,42.349833],[-71.060695,42.349805]]],[[[-71.060684,42.349267],[-71.06061,42.349247],[-71.060592,42.34926],[-71.060666,42.34928],[-71.060684,42.349267]]],[[[-71.060664,42.349307],[-71.06059,42.349287],[-71.060572,42.3493],[-71.060646,42.34932],[-71.060664,42.349307]]],[[[-71.060654,42.353047],[-71.06058,42.353027],[-71.060562,42.35304],[-71.060636,42.35306],[-71.060654,42.353047]]],[[[-71.060644,42.349349],[-71.06057,42.349329],[-71.060552,42.349342],[-71.060626,42.349362],[-71.060644,42.349349]]],[[[-71.060614,42.349414],[-71.06054,42.349394],[-71.060522,42.349407],[-71.060596,42.349427],[-71.060614,42.349414]]],[[[-71.060608,42.34946],[-71.06053,42.34944],[-71.060512,42.349453],[-71.06059,42.349474],[-71.060608,42.34946]]],[[[-71.060598,42.34951],[-71.06052,42.34949],[-71.060502,42.349503],[-71.06058,42.349524],[-71.060598,42.34951]]],[[[-71.060574,42.353004],[-71.060526,42.352987],[-71.060517,42.352969],[-71.06045,42.352961],[-71.060432,42.352974],[-71.060483,42.352991],[-71.060493,42.353009],[-71.060556,42.353017],[-71.060574,42.353004]]],[[[-71.060568,42.35329],[-71.06049,42.35327],[-71.060472,42.353283],[-71.06055,42.353304],[-71.060568,42.35329]]],[[[-71.06056,42.353157],[-71.060486,42.353137],[-71.060468,42.35315],[-71.060542,42.35317],[-71.06056,42.353157]]],[[[-71.06056,42.349607],[-71.060486,42.349587],[-71.060468,42.3496],[-71.060542,42.34962],[-71.06056,42.349607]]],[[[-71.06056,42.349563],[-71.060486,42.349543],[-71.060468,42.349556],[-71.060542,42.349576],[-71.06056,42.349563]]],[[[-71.060516,42.353417],[-71.060468,42.353377],[-71.0604,42.353367],[-71.060352,42.353385],[-71.060341,42.353405],[-71.060365,42.353432],[-71.060477,42.353445],[-71.060516,42.353417]]],[[[-71.060484,42.353107],[-71.060421,42.353088],[-71.06043,42.353077],[-71.060412,42.353063],[-71.060356,42.353057],[-71.060338,42.35307],[-71.0604,42.353089],[-71.060392,42.3531],[-71.06041,42.353113],[-71.060466,42.35312],[-71.060484,42.353107]]],[[[-71.060448,42.349891],[-71.06037,42.349871],[-71.060352,42.349884],[-71.06043,42.349905],[-71.060448,42.349891]]],[[[-71.060414,42.353454],[-71.06034,42.353434],[-71.060322,42.353447],[-71.060396,42.353467],[-71.060414,42.353454]]],[[[-71.060408,42.350161],[-71.060394,42.350136],[-71.060344,42.350123],[-71.060343,42.350099],[-71.06028,42.350092],[-71.060216,42.35015],[-71.060246,42.350183],[-71.06036,42.350197],[-71.060394,42.350187],[-71.060408,42.350161]]],[[[-71.060374,42.350044],[-71.0603,42.350024],[-71.060282,42.350037],[-71.060356,42.350057],[-71.060374,42.350044]]],[[[-71.060271,42.349482],[-71.060247,42.349455],[-71.060135,42.349441],[-71.060096,42.34947],[-71.06012,42.349497],[-71.060232,42.34951],[-71.060271,42.349482]]],[[[-71.060214,42.352969],[-71.06014,42.352949],[-71.060122,42.352962],[-71.060196,42.352982],[-71.060214,42.352969]]],[[[-71.060211,42.353423],[-71.060183,42.353392],[-71.06006,42.353376],[-71.060028,42.353386],[-71.060015,42.35341],[-71.060043,42.353441],[-71.060165,42.353456],[-71.060197,42.353446],[-71.060211,42.353423]]],[[[-71.060204,42.349566],[-71.060186,42.349546],[-71.06009,42.349534],[-71.060061,42.349556],[-71.060079,42.349576],[-71.060175,42.349588],[-71.060204,42.349566]]],[[[-71.060178,42.349655],[-71.060156,42.349631],[-71.06005,42.349618],[-71.060014,42.349644],[-71.060036,42.349668],[-71.060143,42.349681],[-71.060178,42.349655]]],[[[-71.060073,42.351056],[-71.060047,42.351027],[-71.05993,42.351013],[-71.0599,42.351022],[-71.059888,42.351044],[-71.059914,42.351073],[-71.060031,42.351087],[-71.060061,42.351078],[-71.060073,42.351056]]],[[[-71.059981,42.351145],[-71.059955,42.351125],[-71.059875,42.351116],[-71.059851,42.351128],[-71.059875,42.351154],[-71.059955,42.351164],[-71.059981,42.351145]]],[[[-71.059923,42.353272],[-71.059897,42.353243],[-71.05978,42.353229],[-71.05975,42.353238],[-71.059738,42.35326],[-71.059764,42.353289],[-71.059896,42.35332],[-71.059923,42.353272]]],[[[-71.059818,42.35276],[-71.059737,42.352732],[-71.059616,42.352717],[-71.059598,42.35273],[-71.059733,42.352765],[-71.0598,42.352774],[-71.059818,42.35276]]],[[[-71.059754,42.354964],[-71.059708,42.35494],[-71.059702,42.354914],[-71.059651,42.354878],[-71.05955,42.354866],[-71.05952,42.354881],[-71.059527,42.354907],[-71.059578,42.354942],[-71.059613,42.354947],[-71.059629,42.354974],[-71.059725,42.354986],[-71.059754,42.354964]]],[[[-71.059743,42.351721],[-71.059713,42.351688],[-71.0596,42.351674],[-71.059506,42.35171],[-71.059581,42.351743],[-71.059695,42.351757],[-71.059729,42.351747],[-71.059743,42.351721]]],[[[-71.059683,42.352794],[-71.059653,42.352761],[-71.05954,42.352747],[-71.059506,42.352758],[-71.059491,42.352783],[-71.059521,42.352816],[-71.059635,42.35283],[-71.059669,42.35282],[-71.059683,42.352794]]],[[[-71.059651,42.351611],[-71.059631,42.351588],[-71.05953,42.351576],[-71.0595,42.351591],[-71.059507,42.351617],[-71.05942,42.351609],[-71.059406,42.351634],[-71.05951,42.351656],[-71.059534,42.351629],[-71.059631,42.351633],[-71.059651,42.351611]]],[[[-71.059574,42.351104],[-71.0595,42.351084],[-71.059482,42.351097],[-71.059556,42.351117],[-71.059574,42.351104]]],[[[-71.059571,42.354824],[-71.059551,42.354801],[-71.059516,42.354797],[-71.059512,42.354768],[-71.059489,42.354761],[-71.05949,42.354734],[-71.05947,42.35472],[-71.059364,42.354707],[-71.059331,42.354723],[-71.059339,42.354752],[-71.059364,42.354759],[-71.059377,42.354791],[-71.059423,42.354801],[-71.059438,42.354835],[-71.059539,42.354848],[-71.059571,42.354824]]],[[[-71.059534,42.351177],[-71.05946,42.351157],[-71.059442,42.35117],[-71.059516,42.35119],[-71.059534,42.351177]]],[[[-71.059484,42.353107],[-71.05941,42.353087],[-71.059392,42.3531],[-71.059466,42.35312],[-71.059484,42.353107]]],[[[-71.059474,42.353017],[-71.0594,42.352997],[-71.059382,42.35301],[-71.059456,42.35303],[-71.059474,42.353017]]],[[[-71.059463,42.351713],[-71.05944,42.351696],[-71.059364,42.351687],[-71.059341,42.351704],[-71.059364,42.351721],[-71.05944,42.35173],[-71.059463,42.351713]]],[[[-71.059399,42.351789],[-71.059376,42.351772],[-71.0593,42.351763],[-71.059277,42.35178],[-71.0593,42.351797],[-71.059376,42.351806],[-71.059399,42.351789]]],[[[-71.059328,42.351303],[-71.059314,42.351278],[-71.059257,42.351264],[-71.059264,42.351229],[-71.059238,42.35121],[-71.05911,42.351194],[-71.059065,42.351216],[-71.059076,42.351255],[-71.059132,42.351269],[-71.059125,42.351304],[-71.059149,42.351322],[-71.059106,42.351332],[-71.059091,42.351357],[-71.059121,42.35139],[-71.059268,42.351403],[-71.059298,42.35137],[-71.05927,42.351338],[-71.059314,42.351328],[-71.059328,42.351303]]],[[[-71.05924,42.353301],[-71.059166,42.353281],[-71.059148,42.353294],[-71.059222,42.353314],[-71.05924,42.353301]]],[[[-71.059181,42.354396],[-71.059149,42.354372],[-71.05906,42.354361],[-71.05903,42.354376],[-71.059037,42.354402],[-71.05906,42.354409],[-71.059149,42.35442],[-71.059181,42.354396]]],[[[-71.059154,42.351467],[-71.05908,42.351447],[-71.059062,42.35146],[-71.059136,42.35148],[-71.059154,42.351467]]],[[[-71.059146,42.351527],[-71.05912,42.351507],[-71.05904,42.351498],[-71.059016,42.35151],[-71.05904,42.351536],[-71.05912,42.351546],[-71.059146,42.351527]]],[[[-71.059144,42.353294],[-71.05907,42.353274],[-71.05898,42.35327],[-71.058962,42.353283],[-71.059036,42.353303],[-71.059126,42.353307],[-71.059144,42.353294]]],[[[-71.059098,42.351615],[-71.059076,42.351591],[-71.05897,42.351578],[-71.058934,42.351604],[-71.058956,42.351628],[-71.059063,42.351641],[-71.059098,42.351615]]],[[[-71.059074,42.354339],[-71.059,42.354319],[-71.058982,42.354332],[-71.059056,42.354352],[-71.059074,42.354339]]],[[[-71.059032,42.354299],[-71.05894,42.354276],[-71.058921,42.35429],[-71.059012,42.354313],[-71.059032,42.354299]]],[[[-71.059012,42.351654],[-71.05893,42.351633],[-71.058912,42.351646],[-71.058994,42.351667],[-71.059012,42.351654]]],[[[-71.059011,42.351701],[-71.058979,42.351677],[-71.05889,42.351666],[-71.05886,42.351681],[-71.058867,42.351707],[-71.05889,42.351714],[-71.058979,42.351725],[-71.059011,42.351701]]],[[[-71.058978,42.351749],[-71.058956,42.351725],[-71.05885,42.351712],[-71.058817,42.351728],[-71.058825,42.351757],[-71.058786,42.351756],[-71.058764,42.35178],[-71.058786,42.351804],[-71.058893,42.351817],[-71.058926,42.351801],[-71.058918,42.351772],[-71.058956,42.351773],[-71.058978,42.351749]]],[[[-71.05892,42.353275],[-71.058846,42.353255],[-71.058828,42.353268],[-71.058902,42.353288],[-71.05892,42.353275]]],[[[-71.058852,42.351857],[-71.058833,42.351824],[-71.05876,42.351813],[-71.058701,42.351818],[-71.058677,42.351845],[-71.058701,42.351872],[-71.058813,42.351885],[-71.058852,42.351857]]],[[[-71.058814,42.353275],[-71.05874,42.353255],[-71.058722,42.353268],[-71.058796,42.353288],[-71.058814,42.353275]]],[[[-71.058781,42.351917],[-71.058761,42.351894],[-71.05866,42.351882],[-71.058637,42.351889],[-71.05863,42.351914],[-71.058611,42.351914],[-71.058599,42.351936],[-71.058696,42.351956],[-71.058719,42.351939],[-71.058761,42.351939],[-71.058781,42.351917]]],[[[-71.058703,42.352011],[-71.058687,42.351982],[-71.058643,42.351961],[-71.058509,42.351959],[-71.058451,42.352018],[-71.058451,42.352042],[-71.058397,42.35205],[-71.058398,42.352087],[-71.058352,42.352097],[-71.05843,42.352118],[-71.058563,42.352118],[-71.058587,42.352099],[-71.058587,42.352074],[-71.058687,42.35204],[-71.058703,42.352011]]],[[[-71.058624,42.352537],[-71.05849,42.352511],[-71.05847,42.352522],[-71.05825,42.352499],[-71.058232,42.352512],[-71.05825,42.352525],[-71.05847,42.352549],[-71.05849,42.352537],[-71.058606,42.35255],[-71.058624,42.352537]]],[[[-71.058572,42.352489],[-71.05848,42.352466],[-71.058461,42.35248],[-71.058552,42.352503],[-71.058572,42.352489]]],[[[-71.058444,42.352477],[-71.05837,42.352457],[-71.058352,42.35247],[-71.058426,42.35249],[-71.058444,42.352477]]],[[[-71.058344,42.350917],[-71.058256,42.35088],[-71.0582,42.350874],[-71.058182,42.350887],[-71.05827,42.350923],[-71.058326,42.35093],[-71.058344,42.350917]]],[[[-71.058334,42.352474],[-71.05826,42.352454],[-71.058242,42.352467],[-71.058316,42.352487],[-71.058334,42.352474]]],[[[-71.058094,42.352672],[-71.05802,42.352652],[-71.058002,42.352665],[-71.058076,42.352685],[-71.058094,42.352672]]],[[[-71.058088,42.352775],[-71.058014,42.352755],[-71.057996,42.352768],[-71.05807,42.352788],[-71.058088,42.352775]]],[[[-71.058064,42.352912],[-71.05799,42.352892],[-71.057972,42.352905],[-71.058046,42.352925],[-71.058064,42.352912]]],[[[-71.057859,42.3507],[-71.057796,42.35067],[-71.05774,42.350664],[-71.057722,42.350677],[-71.057785,42.350706],[-71.057841,42.350713],[-71.057859,42.3507]]],[[[-71.05783,42.352236],[-71.057804,42.352216],[-71.057724,42.352207],[-71.0577,42.352219],[-71.057724,42.352245],[-71.057804,42.352255],[-71.05783,42.352236]]],[[[-71.057708,42.3522],[-71.05769,42.35218],[-71.057453,42.352124],[-71.057436,42.3521],[-71.05734,42.352088],[-71.057311,42.35211],[-71.057329,42.35213],[-71.057566,42.352186],[-71.057583,42.35221],[-71.057679,42.352222],[-71.057708,42.3522]]],[[[-71.05747,42.35041],[-71.057396,42.35039],[-71.057378,42.350403],[-71.057452,42.350423],[-71.05747,42.35041]]],[[[-71.057454,42.350501],[-71.05738,42.350481],[-71.057362,42.350494],[-71.057436,42.350514],[-71.057454,42.350501]]],[[[-71.057408,42.351714],[-71.05733,42.351694],[-71.057312,42.351707],[-71.05739,42.351728],[-71.057408,42.351714]]],[[[-71.057394,42.351757],[-71.05732,42.351737],[-71.057302,42.35175],[-71.057376,42.35177],[-71.057394,42.351757]]],[[[-71.057365,42.351904],[-71.057291,42.351884],[-71.057273,42.351897],[-71.057347,42.351917],[-71.057365,42.351904]]],[[[-71.057362,42.350933],[-71.05728,42.350912],[-71.057262,42.350925],[-71.057344,42.350946],[-71.057362,42.350933]]],[[[-71.05735,42.351961],[-71.05728,42.351942],[-71.057262,42.351955],[-71.057331,42.351975],[-71.05735,42.351961]]],[[[-71.057332,42.351071],[-71.05725,42.35105],[-71.057232,42.351063],[-71.057314,42.351084],[-71.057332,42.351071]]],[[[-71.057264,42.351417],[-71.05719,42.351397],[-71.057172,42.35141],[-71.057246,42.35143],[-71.057264,42.351417]]],[[[-71.057254,42.350557],[-71.05718,42.350537],[-71.057162,42.35055],[-71.057236,42.35057],[-71.057254,42.350557]]],[[[-71.057203,42.350639],[-71.057129,42.350619],[-71.057111,42.350632],[-71.057185,42.350652],[-71.057203,42.350639]]],[[[-71.05715,42.35054],[-71.057076,42.35052],[-71.057058,42.350533],[-71.057132,42.350553],[-71.05715,42.35054]]],[[[-71.057111,42.349914],[-71.057079,42.34989],[-71.05699,42.349879],[-71.05696,42.349894],[-71.056967,42.34992],[-71.05699,42.349927],[-71.057079,42.349938],[-71.057111,42.349914]]],[[[-71.057094,42.349847],[-71.05702,42.349827],[-71.057002,42.34984],[-71.057076,42.34986],[-71.057094,42.349847]]],[[[-71.056936,42.352036],[-71.05685,42.352015],[-71.056832,42.352028],[-71.056918,42.35205],[-71.056936,42.352036]]],[[[-71.056926,42.349772],[-71.056902,42.349745],[-71.05679,42.349731],[-71.056751,42.34976],[-71.056775,42.349787],[-71.056887,42.3498],[-71.056926,42.349772]]],[[[-71.05689,42.350237],[-71.056816,42.350217],[-71.056798,42.35023],[-71.056872,42.35025],[-71.05689,42.350237]]],[[[-71.056881,42.349851],[-71.056849,42.349827],[-71.05676,42.349816],[-71.05673,42.349831],[-71.056737,42.349857],[-71.05676,42.349864],[-71.056849,42.349875],[-71.056881,42.349851]]],[[[-71.056868,42.349926],[-71.056838,42.349893],[-71.056725,42.349879],[-71.056691,42.34989],[-71.056676,42.349915],[-71.056706,42.349948],[-71.05682,42.349962],[-71.056854,42.349952],[-71.056868,42.349926]]],[[[-71.056854,42.350314],[-71.05678,42.350294],[-71.056762,42.350307],[-71.056836,42.350327],[-71.056854,42.350314]]],[[[-71.056823,42.350017],[-71.056793,42.349984],[-71.05668,42.34997],[-71.056646,42.349981],[-71.056631,42.350006],[-71.056661,42.350039],[-71.056775,42.350053],[-71.056809,42.350043],[-71.056823,42.350017]]],[[[-71.056812,42.352002],[-71.05673,42.351981],[-71.056712,42.351994],[-71.056794,42.352015],[-71.056812,42.352002]]],[[[-71.056744,42.350104],[-71.056726,42.350084],[-71.05663,42.350072],[-71.056601,42.350094],[-71.056619,42.350114],[-71.056715,42.350126],[-71.056744,42.350104]]],[[[-71.056711,42.350621],[-71.056625,42.3506],[-71.056607,42.350613],[-71.056693,42.350635],[-71.056711,42.350621]]],[[[-71.056711,42.350196],[-71.056679,42.350172],[-71.05659,42.350161],[-71.05656,42.350176],[-71.056567,42.350202],[-71.05659,42.350209],[-71.056679,42.35022],[-71.056711,42.350196]]],[[[-71.056706,42.353213],[-71.056699,42.353199],[-71.056621,42.353186],[-71.05663,42.353168],[-71.05662,42.35316],[-71.05654,42.353151],[-71.056521,42.353165],[-71.05659,42.353185],[-71.056576,42.35321],[-71.05659,42.353221],[-71.05668,42.353232],[-71.056706,42.353213]]],[[[-71.056676,42.350688],[-71.05659,42.350667],[-71.056572,42.35068],[-71.056658,42.350702],[-71.056676,42.350688]]],[[[-71.056653,42.350845],[-71.056623,42.350812],[-71.05651,42.350798],[-71.056476,42.350809],[-71.056461,42.350834],[-71.056491,42.350867],[-71.056605,42.350881],[-71.056639,42.350871],[-71.056653,42.350845]]],[[[-71.056557,42.353136],[-71.056465,42.353113],[-71.056446,42.353127],[-71.056537,42.35315],[-71.056557,42.353136]]],[[[-71.056536,42.351928],[-71.056439,42.35191],[-71.056421,42.351893],[-71.05637,42.351887],[-71.056352,42.3519],[-71.056433,42.351916],[-71.05645,42.351933],[-71.056518,42.351942],[-71.056536,42.351928]]],[[[-71.056484,42.351037],[-71.05641,42.351017],[-71.056392,42.35103],[-71.056466,42.35105],[-71.056484,42.351037]]],[[[-71.056469,42.353099],[-71.056446,42.353082],[-71.05637,42.353073],[-71.056347,42.35309],[-71.05637,42.353107],[-71.056446,42.353116],[-71.056469,42.353099]]],[[[-71.056466,42.351105],[-71.05638,42.351084],[-71.056362,42.351097],[-71.056448,42.351119],[-71.056466,42.351105]]],[[[-71.05642,42.351183],[-71.056346,42.351163],[-71.056328,42.351176],[-71.056402,42.351196],[-71.05642,42.351183]]],[[[-71.056406,42.354938],[-71.05632,42.354917],[-71.056302,42.35493],[-71.056388,42.354952],[-71.056406,42.354938]]],[[[-71.056396,42.354844],[-71.05631,42.354823],[-71.056292,42.354836],[-71.056378,42.354858],[-71.056396,42.354844]]],[[[-71.056386,42.35468],[-71.05636,42.35466],[-71.05628,42.354651],[-71.056256,42.354663],[-71.05628,42.354689],[-71.05636,42.354699],[-71.056386,42.35468]]],[[[-71.056382,42.354759],[-71.05629,42.354736],[-71.056271,42.35475],[-71.056362,42.354773],[-71.056382,42.354759]]],[[[-71.056324,42.35085],[-71.056238,42.350829],[-71.05622,42.350842],[-71.056306,42.350864],[-71.056324,42.35085]]],[[[-71.056318,42.351383],[-71.05624,42.351363],[-71.056222,42.351376],[-71.0563,42.351397],[-71.056318,42.351383]]],[[[-71.056304,42.353057],[-71.05623,42.353037],[-71.056212,42.35305],[-71.056286,42.35307],[-71.056304,42.353057]]],[[[-71.056299,42.351418],[-71.056221,42.351398],[-71.056203,42.351411],[-71.056281,42.351432],[-71.056299,42.351418]]],[[[-71.056294,42.350941],[-71.056208,42.35092],[-71.05619,42.350933],[-71.056276,42.350955],[-71.056294,42.350941]]],[[[-71.056268,42.351457],[-71.05619,42.351437],[-71.056172,42.35145],[-71.05625,42.351471],[-71.056268,42.351457]]],[[[-71.056254,42.351044],[-71.056168,42.351023],[-71.05615,42.351036],[-71.056236,42.351058],[-71.056254,42.351044]]],[[[-71.056216,42.351153],[-71.05613,42.351132],[-71.056112,42.351145],[-71.056198,42.351167],[-71.056216,42.351153]]],[[[-71.056138,42.351717],[-71.05606,42.351697],[-71.056042,42.35171],[-71.05612,42.351731],[-71.056138,42.351717]]],[[[-71.056045,42.351363],[-71.055959,42.351342],[-71.055941,42.351355],[-71.056027,42.351377],[-71.056045,42.351363]]],[[[-71.056021,42.35142],[-71.055935,42.351399],[-71.055917,42.351412],[-71.056003,42.351434],[-71.056021,42.35142]]],[[[-71.055988,42.35149],[-71.055902,42.351469],[-71.055884,42.351482],[-71.05597,42.351504],[-71.055988,42.35149]]],[[[-71.055963,42.352237],[-71.055933,42.352204],[-71.055801,42.352193],[-71.055737,42.352276],[-71.055767,42.352309],[-71.055899,42.35232],[-71.055963,42.352237]]],[[[-71.055956,42.351569],[-71.05587,42.351548],[-71.055852,42.351561],[-71.055938,42.351583],[-71.055956,42.351569]]],[[[-71.055927,42.35163],[-71.055841,42.351609],[-71.055823,42.351622],[-71.055909,42.351644],[-71.055927,42.35163]]],[[[-71.055877,42.353347],[-71.055845,42.353323],[-71.055756,42.353312],[-71.055726,42.353327],[-71.055733,42.353353],[-71.055756,42.35336],[-71.055845,42.353371],[-71.055877,42.353347]]],[[[-71.055876,42.351735],[-71.05579,42.351714],[-71.055772,42.351727],[-71.055858,42.351749],[-71.055876,42.351735]]],[[[-71.055856,42.351784],[-71.05577,42.351763],[-71.055752,42.351776],[-71.055838,42.351798],[-71.055856,42.351784]]],[[[-71.055809,42.353404],[-71.055791,42.353384],[-71.055695,42.353372],[-71.055666,42.353394],[-71.055684,42.353414],[-71.05578,42.353426],[-71.055809,42.353404]]],[[[-71.055718,42.353439],[-71.055626,42.353416],[-71.055607,42.35343],[-71.055698,42.353453],[-71.055718,42.353439]]],[[[-71.055626,42.353505],[-71.05554,42.353484],[-71.055522,42.353497],[-71.055608,42.353519],[-71.055626,42.353505]]],[[[-71.055558,42.353537],[-71.05548,42.353517],[-71.055462,42.35353],[-71.05554,42.353551],[-71.055558,42.353537]]],[[[-71.055324,42.353682],[-71.055307,42.353647],[-71.055244,42.35364],[-71.055189,42.353657],[-71.055188,42.353685],[-71.055147,42.3537],[-71.05517,42.353717],[-71.055246,42.353726],[-71.055324,42.353682]]]]},"properties":{"kind":"tree"}}]}