{"type":"FeatureCollection","features":[{"type":"Feature","geometry":{"type":"MultiPolygon","coordinates":[[[[-71.067381,42.351898],[-71.067358,42.351764],[-71.067098,42.351178],[-71.066747,42.351106],[-71.065467,42.351257],[-71.064967,42.35123],[-71.064945,42.351317],[-71.064869,42.351301],[-71.064882,42.351246],[-71.064502,42.351183],[-71.06446,42.35119],[-71.063934,42.351133],[-71.063929,42.351149],[-71.063049,42.351044],[-71.063035,42.351075],[-71.062308,42.350944],[-71.062313,42.350933],[-71.06224,42.350913],[-71.061597,42.350765],[-71.061565,42.350845],[-71.062279,42.351],[-71.062553,42.351077],[-71.062565,42.351123],[-71.061545,42.350895],[-71.061462,42.35114],[-71.061448,42.351138],[-71.061352,42.351379],[-71.06138,42.351406],[-71.061746,42.351481],[-71.062058,42.351471],[-71.062059,42.351438],[-71.062274,42.351431],[-71.062892,42.351559],[-71.062867,42.351688],[-71.062023,42.351525],[-71.061289,42.351543],[-71.061299,42.351596],[-71.060388,42.351402],[-71.060369,42.351415],[-71.0604,42.351513],[-71.060328,42.351505],[-71.060312,42.351454],[-71.060322,42.351384],[-71.059758,42.351262],[-71.059709,42.351391],[-71.059774,42.351834],[-71.059626,42.351804],[-71.059386,42.351848],[-71.059416,42.352051],[-71.059226,42.352012],[-71.059026,42.352083],[-71.058873,42.352183],[-71.058814,42.352257],[-71.058775,42.35235],[-71.060078,42.352603],[-71.06009,42.352598],[-71.060025,42.352176],[-71.059865,42.352143],[-71.059863,42.352129],[-71.059993,42.352156],[-71.060209,42.352138],[-71.06019,42.352012],[-71.060394,42.352037],[-71.060555,42.352009],[-71.060602,42.352156],[-71.0605,42.352135],[-71.060316,42.352167],[-71.060314,42.352216],[-71.060118,42.352221],[-71.060161,42.352505],[-71.060455,42.352565],[-71.060839,42.352566],[-71.060897,42.352557],[-71.06089,42.352534],[-71.06109,42.352575],[-71.061465,42.352542],[-71.061484,42.352433],[-71.061549,42.352447],[-71.061727,42.35243],[-71.061707,42.352317],[-71.061625,42.3523],[-71.061514,42.352311],[-71.061475,42.352337],[-71.061232,42.352137],[-71.061225,42.352051],[-71.061128,42.352032],[-71.061252,42.352016],[-71.061244,42.351967],[-71.061288,42.35196],[-71.061263,42.351794],[-71.061336,42.351779],[-71.061352,42.351859],[-71.061476,42.351885],[-71.061359,42.35189],[-71.061394,42.352062],[-71.061559,42.352096],[-71.061707,42.352088],[-71.061723,42.35216],[-71.062005,42.352218],[-71.061887,42.352201],[-71.061723,42.352231],[-71.061761,42.35241],[-71.061944,42.352447],[-71.062109,42.352427],[-71.062106,42.352398],[-71.062271,42.352404],[-71.062268,42.352385],[-71.062415,42.352415],[-71.06269,42.352393],[-71.062708,42.352384],[-71.062722,42.352338],[-71.063063,42.352324],[-71.06309,42.352259],[-71.063452,42.352294],[-71.063459,42.352268],[-71.063704,42.352295],[-71.063707,42.352285],[-71.063767,42.352297],[-71.064324,42.352307],[-71.06455,42.352353],[-71.064827,42.352361],[-71.064848,42.352349],[-71.065052,42.352391],[-71.065878,42.352441],[-71.065881,42.35242],[-71.066251,42.352457],[-71.066255,42.352439],[-71.066303,42.352441],[-71.06632,42.352219],[-71.066292,42.352213],[-71.066295,42.352196],[-71.066399,42.352195],[-71.066424,42.351911],[-71.066197,42.351878],[-71.066193,42.351805],[-71.067198,42.351943],[-71.067381,42.351898]],[[-71.065554,42.351782],[-71.065128,42.351741],[-71.065173,42.351706],[-71.065438,42.351731],[-71.065554,42.351782]],[[-71.064825,42.351773],[-71.064822,42.351784],[-71.064638,42.351746],[-71.064825,42.351773]],[[-71.064411,42.351718],[-71.064293,42.351704],[-71.064279,42.35177],[-71.063953,42.351703],[-71.063958,42.351679],[-71.063902,42.351665],[-71.062943,42.351552],[-71.062965,42.351474],[-71.063521,42.351543],[-71.064411,42.351718]],[[-71.063828,42.351435],[-71.063524,42.351397],[-71.063476,42.351387],[-71.063473,42.351374],[-71.063301,42.351346],[-71.063305,42.351326],[-71.063627,42.351375],[-71.063623,42.351394],[-71.063828,42.351435]],[[-71.061085,42.35203],[-71.06106,42.352034],[-71.06104,42.352021],[-71.061085,42.35203]],[[-71.060714,42.351708],[-71.060656,42.351696],[-71.060483,42.351725],[-71.060443,42.351614],[-71.060702,42.351669],[-71.060714,42.351708]],[[-71.060257,42.351834],[-71.060161,42.351848],[-71.060136,42.351661],[-71.060169,42.351658],[-71.060161,42.35161],[-71.060178,42.3516],[-71.060257,42.351834]]],[[[-71.066749,42.348584],[-71.066483,42.348529],[-71.066259,42.348503],[-71.066338,42.348134],[-71.065995,42.348062],[-71.065837,42.348044],[-71.065752,42.348444],[-71.065818,42.348459],[-71.065804,42.348522],[-71.065905,42.348543],[-71.065917,42.348586],[-71.066183,42.348641],[-71.066721,42.348704],[-71.066749,42.348584]]],[[[-71.066551,42.35111],[-71.066519,42.350781],[-71.065959,42.350666],[-71.065775,42.350663],[-71.065973,42.350633],[-71.066186,42.350629],[-71.066168,42.350409],[-71.066002,42.350375],[-71.066,42.350341],[-71.06593,42.350327],[-71.065758,42.350337],[-71.065759,42.350361],[-71.065679,42.350366],[-71.065363,42.350309],[-71.065197,42.350252],[-71.064935,42.350198],[-71.064964,42.35009],[-71.065296,42.350142],[-71.065409,42.349719],[-71.065464,42.349728],[-71.065343,42.350191],[-71.065798,42.350294],[-71.065985,42.350321],[-71.066373,42.350313],[-71.066338,42.349984],[-71.066233,42.349863],[-71.065871,42.349789],[-71.065892,42.349689],[-71.065904,42.349705],[-71.06606,42.349737],[-71.066137,42.349713],[-71.066145,42.349686],[-71.066203,42.349668],[-71.066118,42.349518],[-71.066195,42.349501],[-71.066139,42.349403],[-71.066051,42.349385],[-71.065989,42.349405],[-71.066039,42.349496],[-71.06562,42.349445],[-71.065521,42.349461],[-71.065474,42.34968],[-71.065169,42.349617],[-71.064416,42.349501],[-71.064395,42.349572],[-71.064132,42.349532],[-71.064053,42.349457],[-71.064084,42.349463],[-71.064129,42.349431],[-71.064179,42.349302],[-71.064205,42.349162],[-71.064091,42.349138],[-71.064156,42.349003],[-71.064478,42.349054],[-71.064498,42.349077],[-71.064404,42.349122],[-71.064653,42.349291],[-71.064911,42.349344],[-71.065092,42.349251],[-71.065084,42.349242],[-71.065178,42.349261],[-71.06544,42.349138],[-71.065356,42.34904],[-71.065393,42.3489],[-71.065386,42.348815],[-71.065342,42.348701],[-71.064992,42.348617],[-71.064341,42.348545],[-71.064334,42.348568],[-71.064289,42.348573],[-71.064299,42.348536],[-71.063945,42.348463],[-71.062604,42.34825],[-71.062448,42.348644],[-71.063508,42.348816],[-71.063561,42.34904],[-71.063191,42.348982],[-71.063218,42.348928],[-71.062738,42.348794],[-71.062425,42.348727],[-71.062236,42.349176],[-71.062386,42.349253],[-71.062571,42.349298],[-71.062552,42.34932],[-71.062938,42.349495],[-71.063002,42.349508],[-71.063003,42.349546],[-71.062903,42.349507],[-71.062736,42.349473],[-71.06256,42.349393],[-71.062542,42.349361],[-71.0625,42.349339],[-71.062233,42.349284],[-71.062169,42.349306],[-71.061849,42.349243],[-71.061919,42.349024],[-71.061577,42.34895],[-71.061552,42.34896],[-71.061531,42.349019],[-71.061543,42.349037],[-71.06152,42.349047],[-71.061503,42.349124],[-71.061484,42.349135],[-71.061347,42.349489],[-71.061711,42.349642],[-71.06202,42.349712],[-71.061999,42.349764],[-71.06226,42.349873],[-71.062381,42.349874],[-71.062565,42.349785],[-71.062446,42.349946],[-71.062087,42.349869],[-71.062103,42.349829],[-71.061632,42.349635],[-71.061307,42.349568],[-71.061196,42.349845],[-71.061438,42.349944],[-71.061318,42.350019],[-71.061162,42.349985],[-71.061146,42.350025],[-71.06092,42.349975],[-71.060886,42.349929],[-71.060992,42.349875],[-71.061178,42.349421],[-71.061297,42.349449],[-71.061345,42.349378],[-71.061112,42.349284],[-71.061098,42.349273],[-71.061112,42.349232],[-71.060971,42.349201],[-71.060986,42.34918],[-71.061001,42.349183],[-71.06102,42.349137],[-71.061094,42.349152],[-71.061103,42.349128],[-71.06104,42.349087],[-71.061077,42.348999],[-71.061112,42.349006],[-71.061083,42.349084],[-71.061204,42.34911],[-71.061167,42.349121],[-71.061145,42.349177],[-71.061161,42.349219],[-71.061142,42.349267],[-71.061391,42.349323],[-71.061462,42.349165],[-71.061451,42.349163],[-71.061478,42.349095],[-71.061456,42.34909],[-71.061482,42.349025],[-71.061384,42.349003],[-71.061434,42.349013],[-71.061525,42.348997],[-71.061584,42.348848],[-71.061519,42.3488],[-71.061467,42.348789],[-71.061492,42.348729],[-71.061616,42.348754],[-71.061734,42.348434],[-71.06175,42.348437],[-71.061771,42.348386],[-71.061646,42.348358],[-71.061693,42.348246],[-71.061011,42.348097],[-71.060549,42.348739],[-71.061104,42.348861],[-71.061094,42.348905],[-71.06116,42.348955],[-71.060878,42.348902],[-71.060779,42.349157],[-71.060321,42.349063],[-71.060204,42.349326],[-71.059925,42.350048],[-71.060226,42.350142],[-71.060392,42.350176],[-71.06038,42.350207],[-71.060828,42.350333],[-71.061682,42.350535],[-71.061673,42.350559],[-71.062184,42.350689],[-71.062979,42.350866],[-71.063014,42.350834],[-71.063599,42.350932],[-71.063628,42.350849],[-71.064241,42.350963],[-71.06427,42.350918],[-71.064467,42.350938],[-71.065135,42.351067],[-71.065557,42.351109],[-71.065572,42.351057],[-71.065493,42.351038],[-71.065934,42.351117],[-71.066336,42.35114],[-71.066551,42.35111]],[[-71.065639,42.35066],[-71.065374,42.350655],[-71.065384,42.350616],[-71.065639,42.35066]],[[-71.065197,42.350698],[-71.065139,42.350901],[-71.064951,42.350863],[-71.065004,42.350868],[-71.065059,42.350677],[-71.065197,42.350698]],[[-71.064189,42.350221],[-71.064051,42.350444],[-71.063773,42.350396],[-71.063741,42.350263],[-71.063608,42.350236],[-71.063688,42.350068],[-71.063721,42.350073],[-71.06373,42.350043],[-71.063703,42.350038],[-71.063765,42.349817],[-71.064091,42.350184],[-71.064189,42.350221]],[[-71.062766,42.34971],[-71.062653,42.349687],[-71.062669,42.349666],[-71.062766,42.34971]],[[-71.062696,42.350338],[-71.062672,42.350424],[-71.062632,42.350416],[-71.062665,42.350374],[-71.062559,42.350327],[-71.062237,42.350228],[-71.062696,42.350338]],[[-71.062009,42.350164],[-71.06194,42.35015],[-71.061946,42.350135],[-71.062009,42.350164]],[[-71.061914,42.350407],[-71.061843,42.350392],[-71.061846,42.350384],[-71.061914,42.350407]]],[[[-71.065651,42.354365],[-71.06562,42.354323],[-71.065508,42.354299],[-71.065458,42.354314],[-71.065443,42.354342],[-71.065468,42.354381],[-71.065586,42.354408],[-71.065626,42.3544],[-71.065651,42.354365]]],[[[-71.06558,42.347914],[-71.065534,42.34783],[-71.065439,42.347812],[-71.065453,42.347792],[-71.065454,42.347705],[-71.065392,42.347671],[-71.064894,42.347587],[-71.064503,42.347783],[-71.064379,42.348081],[-71.064344,42.348073],[-71.064364,42.348],[-71.063968,42.347919],[-71.063883,42.347989],[-71.063856,42.347985],[-71.063829,42.348081],[-71.063856,42.348086],[-71.063888,42.348156],[-71.063633,42.348115],[-71.063698,42.347885],[-71.06346,42.347843],[-71.063365,42.348193],[-71.064135,42.348315],[-71.064158,42.34823],[-71.064294,42.348251],[-71.064316,42.348172],[-71.064352,42.348177],[-71.06434,42.34822],[-71.064511,42.348254],[-71.064627,42.348207],[-71.064466,42.348292],[-71.06444,42.348386],[-71.06522,42.348527],[-71.065259,42.348469],[-71.065467,42.348419],[-71.065471,42.348399],[-71.065382,42.348299],[-71.065511,42.348182],[-71.065511,42.348108],[-71.065445,42.348034],[-71.065571,42.347952],[-71.06558,42.347914]]],[[[-71.065468,42.352881],[-71.065303,42.352844],[-71.065286,42.352891],[-71.065312,42.352972],[-71.065425,42.352996],[-71.065468,42.352881]]],[[[-71.064801,42.352755],[-71.064711,42.352736],[-71.064762,42.352548],[-71.064737,42.352543],[-71.06474,42.35251],[-71.064706,42.352484],[-71.064339,42.352409],[-71.063942,42.352395],[-71.063941,42.352408],[-71.063705,42.352384],[-71.063363,42.352382],[-71.063362,42.3524],[-71.063313,42.35239],[-71.062724,42.352454],[-71.062724,42.352488],[-71.062679,42.352486],[-71.062675,42.352537],[-71.062412,42.352483],[-71.061487,42.352561],[-71.06149,42.352612],[-71.061336,42.35258],[-71.061194,42.352592],[-71.061177,42.35264],[-71.060985,42.352601],[-71.060475,42.352641],[-71.060188,42.352643],[-71.060197,42.35274],[-71.060301,42.35276],[-71.060296,42.352775],[-71.059318,42.352574],[-71.058902,42.352524],[-71.058432,42.352536],[-71.057928,42.352409],[-71.056202,42.352031],[-71.05594,42.352127],[-71.055846,42.352326],[-71.055909,42.352342],[-71.055876,42.352367],[-71.056034,42.352612],[-71.056322,42.352671],[-71.056357,42.352658],[-71.056774,42.352743],[-71.057195,42.35263],[-71.058025,42.3528],[-71.057688,42.352735],[-71.05756,42.352748],[-71.05731,42.352888],[-71.057163,42.352943],[-71.057114,42.352988],[-71.057099,42.353043],[-71.057135,42.353113],[-71.057259,42.353188],[-71.058155,42.353366],[-71.058016,42.353373],[-71.05798,42.35339],[-71.057933,42.353509],[-71.057947,42.353542],[-71.058,42.353579],[-71.057295,42.353434],[-71.057279,42.353459],[-71.057265,42.353392],[-71.056869,42.353228],[-71.056237,42.353097],[-71.055998,42.353225],[-71.056023,42.35332],[-71.055897,42.353294],[-71.055573,42.353469],[-71.055603,42.3535],[-71.055421,42.353589],[-71.055398,42.353614],[-71.055342,42.353603],[-71.054915,42.353838],[-71.05501,42.353934],[-71.054834,42.353899],[-71.054776,42.353908],[-71.054391,42.354111],[-71.054359,42.354149],[-71.054358,42.354189],[-71.054619,42.354471],[-71.054897,42.354532],[-71.054775,42.354643],[-71.05498,42.354839],[-71.055356,42.354916],[-71.05557,42.354825],[-71.055688,42.355479],[-71.056365,42.355618],[-71.05648,42.355623],[-71.056812,42.355591],[-71.057521,42.355736],[-71.057973,42.355692],[-71.05791,42.355328],[-71.058403,42.35529],[-71.058383,42.355139],[-71.058153,42.355047],[-71.058395,42.355052],[-71.05858,42.355087],[-71.059228,42.355368],[-71.059443,42.355412],[-71.059468,42.355389],[-71.06001,42.3555],[-71.060286,42.35525],[-71.060481,42.355389],[-71.060614,42.355413],[-71.060805,42.355239],[-71.060896,42.355257],[-71.06108,42.355086],[-71.061373,42.355233],[-71.061613,42.355282],[-71.061785,42.355095],[-71.061494,42.354942],[-71.061281,42.354899],[-71.061332,42.354851],[-71.061388,42.35486],[-71.061433,42.354819],[-71.062184,42.355207],[-71.06237,42.355245],[-71.062504,42.355101],[-71.062592,42.355119],[-71.062691,42.355175],[-71.062863,42.35521],[-71.062942,42.355129],[-71.063118,42.355222],[-71.063343,42.355268],[-71.063402,42.355191],[-71.063141,42.355058],[-71.063034,42.355033],[-71.063011,42.355021],[-71.063025,42.355005],[-71.062942,42.354961],[-71.062837,42.35494],[-71.062534,42.354776],[-71.062343,42.354737],[-71.062222,42.35487],[-71.062157,42.354848],[-71.062197,42.354796],[-71.062233,42.354792],[-71.062319,42.354697],[-71.062168,42.354623],[-71.062189,42.354596],[-71.061948,42.354467],[-71.061834,42.354443],[-71.06188,42.354399],[-71.062288,42.35459],[-71.062278,42.3546],[-71.062479,42.354698],[-71.062655,42.354776],[-71.062768,42.354799],[-71.062746,42.354823],[-71.063211,42.355053],[-71.063575,42.355128],[-71.063619,42.355119],[-71.06374,42.354895],[-71.064028,42.35495],[-71.064063,42.354852],[-71.064164,42.354873],[-71.064453,42.354337],[-71.064366,42.354311],[-71.064397,42.354271],[-71.064372,42.354259],[-71.064122,42.35419],[-71.06413,42.354174],[-71.064226,42.354194],[-71.064266,42.354158],[-71.06433,42.354041],[-71.06434,42.353994],[-71.063998,42.353898],[-71.064204,42.353897],[-71.064378,42.353933],[-71.064484,42.353734],[-71.064258,42.353665],[-71.064261,42.353644],[-71.063997,42.35359],[-71.064012,42.353544],[-71.064195,42.353583],[-71.06424,42.353454],[-71.063837,42.353375],[-71.063832,42.353389],[-71.063651,42.353352],[-71.063514,42.353346],[-71.063204,42.353334],[-71.0632,42.353426],[-71.063082,42.353402],[-71.06286,42.353395],[-71.062865,42.353252],[-71.062415,42.35316],[-71.061727,42.353191],[-71.061723,42.353136],[-71.061811,42.353154],[-71.062647,42.353119],[-71.06273,42.35318],[-71.063015,42.353239],[-71.0644,42.353348],[-71.064421,42.353294],[-71.06453,42.353303],[-71.064508,42.353366],[-71.064611,42.353387],[-71.064645,42.353285],[-71.064576,42.353272],[-71.064616,42.353224],[-71.064647,42.353138],[-71.064491,42.353106],[-71.06448,42.353053],[-71.064636,42.353061],[-71.064679,42.352916],[-71.064585,42.352897],[-71.064766,42.352906],[-71.064801,42.352755]],[[-71.063579,42.353867],[-71.06345,42.354055],[-71.063351,42.354035],[-71.062842,42.353999],[-71.063211,42.35401],[-71.063254,42.3538],[-71.063579,42.353867]],[[-71.063055,42.354486],[-71.063047,42.354495],[-71.062756,42.354434],[-71.06274,42.354449],[-71.06267,42.354415],[-71.063055,42.354486]],[[-71.062488,42.354165],[-71.062479,42.354189],[-71.06216,42.354126],[-71.062182,42.354104],[-71.062488,42.354165]],[[-71.062346,42.353794],[-71.062227,42.353936],[-71.061747,42.353703],[-71.061857,42.353638],[-71.061522,42.353457],[-71.061401,42.353415],[-71.060707,42.353272],[-71.06036,42.353632],[-71.060184,42.353534],[-71.059597,42.353398],[-71.059432,42.35339],[-71.059341,42.35347],[-71.059302,42.353462],[-71.059331,42.353426],[-71.059318,42.353408],[-71.059185,42.353377],[-71.058867,42.353373],[-71.058707,42.353349],[-71.058514,42.353355],[-71.058518,42.353324],[-71.05954,42.353329],[-71.059645,42.353277],[-71.059679,42.353227],[-71.059681,42.353195],[-71.059714,42.353197],[-71.059895,42.35329],[-71.060198,42.353352],[-71.060326,42.353295],[-71.060438,42.353318],[-71.060553,42.353195],[-71.060498,42.353166],[-71.060477,42.352971],[-71.060699,42.353076],[-71.060834,42.353104],[-71.060815,42.353125],[-71.061277,42.35336],[-71.061487,42.353405],[-71.061483,42.353426],[-71.062143,42.353752],[-71.062346,42.353794]],[[-71.059828,42.354941],[-71.059711,42.354917],[-71.059376,42.354666],[-71.059212,42.354632],[-71.059172,42.354609],[-71.05905,42.354593],[-71.059158,42.354493],[-71.058816,42.354256],[-71.05886,42.354171],[-71.059005,42.354271],[-71.05954,42.354369],[-71.059385,42.354511],[-71.05937,42.354543],[-71.059377,42.354583],[-71.059828,42.354941]],[[-71.059428,42.353999],[-71.059365,42.354005],[-71.059313,42.353971],[-71.058965,42.353899],[-71.05906,42.353809],[-71.059047,42.353793],[-71.059269,42.35392],[-71.059413,42.35395],[-71.059428,42.353999]],[[-71.059036,42.353763],[-71.059026,42.353773],[-71.059012,42.353759],[-71.059036,42.353763]],[[-71.058949,42.354671],[-71.058916,42.354702],[-71.058911,42.354699],[-71.058949,42.354671]],[[-71.058262,42.353359],[-71.058217,42.353363],[-71.058219,42.35335],[-71.058262,42.353359]],[[-71.058098,42.354733],[-71.057877,42.35495],[-71.05689,42.354747],[-71.056794,42.354754],[-71.056579,42.354705],[-71.056613,42.354684],[-71.056616,42.354644],[-71.056541,42.354576],[-71.056565,42.354572],[-71.056526,42.354434],[-71.056912,42.354513],[-71.057256,42.354471],[-71.057217,42.354215],[-71.056749,42.354112],[-71.056644,42.354122],[-71.056637,42.354082],[-71.056556,42.354065],[-71.056536,42.353962],[-71.056922,42.354041],[-71.056898,42.35408],[-71.057485,42.354278],[-71.057599,42.354303],[-71.057623,42.354265],[-71.057735,42.354288],[-71.057546,42.354581],[-71.057938,42.3547],[-71.058098,42.354733]],[[-71.057343,42.354048],[-71.057341,42.354051],[-71.05731,42.354041],[-71.057343,42.354048]],[[-71.056594,42.353525],[-71.056521,42.353559],[-71.056528,42.35357],[-71.056319,42.353664],[-71.056181,42.353394],[-71.056404,42.353486],[-71.056594,42.353525]],[[-71.05633,42.353814],[-71.056224,42.353792],[-71.056176,42.353742],[-71.056311,42.353681],[-71.05633,42.353814]],[[-71.055913,42.353973],[-71.055795,42.354025],[-71.055589,42.353983],[-71.055549,42.354002],[-71.055683,42.353911],[-71.055769,42.353876],[-71.055762,42.353868],[-71.055896,42.353896],[-71.055913,42.353973]]],[[[-71.063384,42.348016],[-71.062961,42.347921],[-71.062938,42.347979],[-71.062735,42.347939],[-71.062712,42.347995],[-71.0622,42.347883],[-71.062266,42.347722],[-71.061712,42.347604],[-71.061566,42.347954],[-71.061555,42.348046],[-71.062074,42.348156],[-71.06215,42.348004],[-71.062609,42.348101],[-71.062734,42.348108],[-71.06275,42.348068],[-71.062979,42.348117],[-71.062994,42.348079],[-71.06295,42.348048],[-71.063003,42.348059],[-71.063019,42.348022],[-71.063068,42.348029],[-71.063051,42.348085],[-71.06318,42.348111],[-71.063221,42.348063],[-71.063363,42.348093],[-71.063384,42.348016]]],[[[-71.063343,42.348199],[-71.06332,42.348167],[-71.063187,42.348141],[-71.063177,42.348169],[-71.062886,42.348123],[-71.06287,42.34815],[-71.062667,42.348107],[-71.06264,42.348175],[-71.063319,42.348282],[-71.063343,42.348199]]],[[[-71.062482,42.348254],[-71.062255,42.348206],[-71.062165,42.348431],[-71.062062,42.348407],[-71.06215,42.348189],[-71.061907,42.348129],[-71.061584,42.348939],[-71.061957,42.349018],[-71.062074,42.348767],[-71.06193,42.348734],[-71.062011,42.348535],[-71.062284,42.348596],[-71.062317,42.348517],[-71.062375,42.348529],[-71.062482,42.348254]]],[[[-71.061485,42.350761],[-71.06142,42.350714],[-71.06098,42.350604],[-71.060985,42.350589],[-71.06071,42.350512],[-71.060472,42.350463],[-71.060395,42.350464],[-71.060381,42.350499],[-71.060393,42.350512],[-71.06026,42.350485],[-71.059972,42.351168],[-71.060602,42.351306],[-71.060629,42.351242],[-71.060611,42.351308],[-71.061288,42.351455],[-71.061314,42.351445],[-71.061443,42.351115],[-71.060769,42.350979],[-71.060698,42.351127],[-71.060744,42.351014],[-71.060717,42.351008],[-71.060735,42.350952],[-71.060707,42.350945],[-71.060751,42.350834],[-71.060723,42.350828],[-71.060767,42.350719],[-71.060788,42.350723],[-71.060809,42.350671],[-71.060872,42.350684],[-71.060839,42.350774],[-71.06118,42.350848],[-71.061262,42.350838],[-71.061447,42.350878],[-71.061485,42.350761]]],[[[-71.060277,42.3504],[-71.059867,42.350296],[-71.059794,42.350499],[-71.059836,42.350508],[-71.059789,42.350634],[-71.060098,42.3507],[-71.060119,42.350646],[-71.060182,42.350659],[-71.060277,42.3504]]],[[[-71.059704,42.350256],[-71.05967,42.350221],[-71.058372,42.349945],[-71.058327,42.350103],[-71.058301,42.350098],[-71.058345,42.349936],[-71.057133,42.349667],[-71.05695,42.350087],[-71.056922,42.350095],[-71.056797,42.350339],[-71.056828,42.350345],[-71.056838,42.350385],[-71.056878,42.350421],[-71.056873,42.350442],[-71.058559,42.350851],[-71.058586,42.350783],[-71.058652,42.350796],[-71.058704,42.350685],[-71.058732,42.350691],[-71.058777,42.35058],[-71.058764,42.350577],[-71.058801,42.350585],[-71.058689,42.350861],[-71.058721,42.350897],[-71.059342,42.351032],[-71.059397,42.351016],[-71.059704,42.350256]],[[-71.058933,42.350257],[-71.058869,42.350417],[-71.058745,42.350389],[-71.058809,42.350231],[-71.058933,42.350257]],[[-71.058284,42.350255],[-71.058265,42.350323],[-71.058124,42.350297],[-71.05814,42.350236],[-71.058284,42.350255]]],[[[-71.059368,42.349737],[-71.059179,42.349693],[-71.059105,42.349866],[-71.059294,42.349909],[-71.059368,42.349737]]],[[[-71.059202,42.351135],[-71.058639,42.351012],[-71.058644,42.351],[-71.058334,42.350923],[-71.057558,42.350757],[-71.057527,42.350772],[-71.057378,42.351533],[-71.058722,42.351766],[-71.05891,42.351588],[-71.059024,42.351451],[-71.059154,42.351247],[-71.059202,42.351135]],[[-71.058041,42.351125],[-71.058021,42.351196],[-71.057958,42.351182],[-71.057974,42.351113],[-71.058041,42.351125]],[[-71.057979,42.351348],[-71.057975,42.351362],[-71.057935,42.351354],[-71.057979,42.351348]]],[[[-71.059006,42.349662],[-71.058984,42.349632],[-71.058729,42.349579],[-71.058763,42.349492],[-71.058496,42.349434],[-71.058511,42.349394],[-71.057926,42.349266],[-71.057859,42.349433],[-71.058004,42.349465],[-71.057962,42.349567],[-71.057872,42.349548],[-71.057853,42.349597],[-71.058539,42.349746],[-71.058555,42.349705],[-71.058669,42.349728],[-71.058705,42.349639],[-71.058952,42.34969],[-71.058992,42.349683],[-71.059006,42.349662]]],[[[-71.058522,42.348799],[-71.057613,42.348605],[-71.057529,42.348814],[-71.058439,42.349008],[-71.058522,42.348799]]],[[[-71.058404,42.351796],[-71.058392,42.351779],[-71.058099,42.351719],[-71.057355,42.351608],[-71.057345,42.351661],[-71.056722,42.351425],[-71.056294,42.351331],[-71.056079,42.351765],[-71.057078,42.352025],[-71.057555,42.352123],[-71.057928,42.35224],[-71.058221,42.3523],[-71.058241,42.352294],[-71.058404,42.351796]]],[[[-71.057528,42.350734],[-71.05694,42.350597],[-71.056815,42.350607],[-71.056678,42.350643],[-71.05656,42.350888],[-71.05702,42.350999],[-71.056997,42.351049],[-71.056543,42.350948],[-71.056401,42.351249],[-71.056756,42.351393],[-71.05685,42.351412],[-71.056841,42.351433],[-71.057108,42.351534],[-71.057316,42.351577],[-71.057364,42.351562],[-71.057528,42.350734]]],[[[-71.056989,42.349277],[-71.056945,42.349268],[-71.056953,42.349236],[-71.056596,42.349149],[-71.05566,42.349416],[-71.056853,42.347638],[-71.056843,42.347579],[-71.056078,42.347297],[-71.055908,42.347262],[-71.054533,42.349309],[-71.05452,42.349425],[-71.054447,42.34941],[-71.053477,42.350853],[-71.054337,42.351171],[-71.054413,42.351187],[-71.055238,42.349958],[-71.055025,42.350377],[-71.055367,42.350639],[-71.055505,42.350692],[-71.055764,42.35074],[-71.056332,42.350726],[-71.056416,42.35071],[-71.056451,42.350639],[-71.056489,42.350625],[-71.056507,42.350588],[-71.056524,42.350494],[-71.056612,42.350318],[-71.056813,42.349819],[-71.0569,42.349462],[-71.056989,42.349277]],[[-71.055357,42.349722],[-71.055354,42.349729],[-71.05531,42.349713],[-71.055357,42.349722]]],[[[-71.056041,42.351676],[-71.055498,42.351545],[-71.054479,42.351779],[-71.054307,42.351954],[-71.054833,42.352232],[-71.054993,42.352283],[-71.055434,42.352364],[-71.055611,42.352324],[-71.055731,42.352234],[-71.055822,42.352125],[-71.056041,42.351676]]]]},"properties":{"kind":"building"}},{"type":"Feature","geometry":{"type":"MultiPolygon","coordinates":[[[[-71.06623,42.353486],[-71.066219,42.353445],[-71.06614,42.353387],[-71.065912,42.353343],[-71.065809,42.353375],[-71.065777,42.35341],[-71.065766,42.353451],[-71.065777,42.353492],[-71.065809,42.353527],[-71.065856,42.353551],[-71.066084,42.353594],[-71.066187,42.353563],[-71.066219,42.353528],[-71.06623,42.353486]]],[[[-71.066204,42.352908],[-71.066193,42.352867],[-71.066114,42.352809],[-71.065765,42.352737],[-71.065796,42.352687],[-71.065778,42.352648],[-71.066062,42.352676],[-71.066115,42.35266],[-71.066137,42.352621],[-71.06609,42.35257],[-71.065688,42.352518],[-71.065635,42.352534],[-71.065609,42.352598],[-71.065546,42.352546],[-71.065361,42.35251],[-71.065321,42.352516],[-71.065265,42.352558],[-71.065257,42.352587],[-71.065288,42.352641],[-71.065635,42.352742],[-71.065612,42.352784],[-71.065525,42.352783],[-71.065472,42.352821],[-71.065472,42.352877],[-71.065524,42.352915],[-71.065463,42.35295],[-71.065463,42.352996],[-71.065405,42.353047],[-71.065374,42.353027],[-71.06524,42.353001],[-71.065177,42.353032],[-71.065177,42.35307],[-71.065214,42.353098],[-71.065348,42.353124],[-71.065408,42.353096],[-71.065446,42.353128],[-71.065399,42.353147],[-71.065367,42.353205],[-71.065281,42.353197],[-71.065295,42.353173],[-71.065282,42.35315],[-71.065165,42.353122],[-71.065123,42.353143],[-71.065123,42.353169],[-71.065143,42.353185],[-71.065102,42.353176],[-71.065111,42.353142],[-71.0651,42.353101],[-71.065026,42.353045],[-71.064992,42.352985],[-71.064791,42.352933],[-71.064699,42.352933],[-71.064634,42.352981],[-71.064625,42.353015],[-71.064656,42.353073],[-71.064658,42.353148],[-71.064758,42.353233],[-71.064914,42.353266],[-71.064922,42.353281],[-71.064659,42.353241],[-71.064581,42.353265],[-71.064549,42.353323],[-71.064581,42.353381],[-71.064617,42.353398],[-71.064811,42.353436],[-71.06497,42.353372],[-71.064987,42.353321],[-71.065127,42.353349],[-71.065162,42.353379],[-71.065081,42.353409],[-71.065054,42.353438],[-71.064919,42.353429],[-71.06488,42.353458],[-71.06488,42.353498],[-71.064919,42.353527],[-71.065058,42.353554],[-71.065095,42.353545],[-71.065465,42.353623],[-71.065431,42.353648],[-71.065431,42.353682],[-71.065464,42.353707],[-71.065534,42.353721],[-71.065509,42.353756],[-71.065526,42.353787],[-71.065688,42.353816],[-71.065719,42.353793],[-71.065719,42.35376],[-71.065688,42.353736],[-71.065623,42.353723],[-71.065651,42.353686],[-71.065633,42.353654],[-71.065723,42.35362],[-71.065755,42.353585],[-71.065766,42.353543],[-71.065755,42.353502],[-71.065723,42.353467],[-71.065538,42.353415],[-71.065572,42.35338],[-71.065575,42.353309],[-71.065671,42.353311],[-71.065751,42.353261],[-71.065788,42.353283],[-71.065959,42.353316],[-71.066025,42.353296],[-71.066046,42.353273],[-71.066046,42.35322],[-71.065976,42.353179],[-71.066009,42.353154],[-71.066104,42.353154],[-71.066169,42.353106],[-71.066178,42.353072],[-71.066154,42.353022],[-71.066194,42.352987],[-71.066204,42.352908]],[[-71.065772,42.352938],[-71.065731,42.352945],[-71.065765,42.35293],[-71.065772,42.352938]],[[-71.06522,42.353202],[-71.065218,42.353202],[-71.065217,42.353201],[-71.06522,42.353202]]],[[[-71.066154,42.354994],[-71.066112,42.354948],[-71.065978,42.354922],[-71.06593,42.354936],[-71.06591,42.354972],[-71.065952,42.355019],[-71.066086,42.355045],[-71.066134,42.35503],[-71.066154,42.354994]]],[[[-71.066098,42.354077],[-71.066074,42.35405],[-71.065981,42.354032],[-71.065945,42.35405],[-71.06587,42.354048],[-71.06584,42.354081],[-71.06587,42.354114],[-71.065945,42.35413],[-71.065924,42.354146],[-71.065931,42.354158],[-71.066017,42.354174],[-71.06603,42.354152],[-71.065978,42.354135],[-71.066012,42.354125],[-71.066026,42.3541],[-71.066074,42.354104],[-71.066098,42.354077]]],[[[-71.066036,42.354503],[-71.066027,42.354467],[-71.065956,42.354415],[-71.065735,42.354372],[-71.065643,42.3544],[-71.065605,42.354468],[-71.065643,42.354536],[-71.065685,42.354557],[-71.065907,42.354599],[-71.065998,42.354571],[-71.066036,42.354503]]],[[[-71.065935,42.34806],[-71.065895,42.348015],[-71.065765,42.34799],[-71.065719,42.348004],[-71.0657,42.348038],[-71.06574,42.348082],[-71.06587,42.348107],[-71.065916,42.348093],[-71.065935,42.34806]]],[[[-71.065885,42.348199],[-71.065851,42.348162],[-71.065735,42.348139],[-71.065696,42.348151],[-71.06568,42.34818],[-71.065714,42.348218],[-71.06583,42.34824],[-71.065869,42.348228],[-71.065885,42.348199]]],[[[-71.065852,42.353957],[-71.065822,42.353924],[-71.065715,42.353903],[-71.065681,42.353914],[-71.06567,42.353953],[-71.06563,42.353965],[-71.065615,42.35399],[-71.065645,42.354023],[-71.065752,42.354044],[-71.065787,42.354034],[-71.065797,42.353994],[-71.065838,42.353983],[-71.065852,42.353957]]],[[[-71.065848,42.354877],[-71.065839,42.354842],[-71.065772,42.354793],[-71.065471,42.354717],[-71.065423,42.354667],[-71.065204,42.354611],[-71.065166,42.354571],[-71.065065,42.35455],[-71.065164,42.354496],[-71.065164,42.354461],[-71.06513,42.354437],[-71.065005,42.354412],[-71.064962,42.354425],[-71.064616,42.354356],[-71.064582,42.354367],[-71.064567,42.354392],[-71.064597,42.354425],[-71.064592,42.354448],[-71.064507,42.354432],[-71.064453,42.354458],[-71.064466,42.354506],[-71.06454,42.354526],[-71.06454,42.35455],[-71.064404,42.354519],[-71.064352,42.354544],[-71.064313,42.354482],[-71.064229,42.354451],[-71.064239,42.354424],[-71.064219,42.354386],[-71.064436,42.354427],[-71.064492,42.354419],[-71.064539,42.354396],[-71.064571,42.354361],[-71.064582,42.354319],[-71.064571,42.354278],[-71.064539,42.354243],[-71.064367,42.354194],[-71.064346,42.354157],[-71.064441,42.354164],[-71.064485,42.354192],[-71.064674,42.354229],[-71.064715,42.354223],[-71.064773,42.35418],[-71.064781,42.354149],[-71.06475,42.354093],[-71.064567,42.354046],[-71.064526,42.35404],[-71.06446,42.354058],[-71.064295,42.354023],[-71.064238,42.354041],[-71.064214,42.354083],[-71.064238,42.354125],[-71.064178,42.354117],[-71.064125,42.354133],[-71.064103,42.354172],[-71.064148,42.354222],[-71.064088,42.354236],[-71.064069,42.35427],[-71.064088,42.354304],[-71.064127,42.354318],[-71.064161,42.35436],[-71.064036,42.354339],[-71.063979,42.354357],[-71.063955,42.354399],[-71.063968,42.35443],[-71.063903,42.354482],[-71.063892,42.354523],[-71.063903,42.354564],[-71.063935,42.354599],[-71.063982,42.354623],[-71.064349,42.354681],[-71.064348,42.354706],[-71.064191,42.354675],[-71.064157,42.354713],[-71.064173,42.354742],[-71.064238,42.35476],[-71.064232,42.354781],[-71.064252,42.354818],[-71.064387,42.354853],[-71.064442,42.354853],[-71.064486,42.354804],[-71.064465,42.354767],[-71.06436,42.354738],[-71.064359,42.354722],[-71.064516,42.354752],[-71.064546,42.35473],[-71.064546,42.354699],[-71.064457,42.354665],[-71.06446,42.354654],[-71.064586,42.354678],[-71.064634,42.354654],[-71.064634,42.354625],[-71.064557,42.354594],[-71.064557,42.354569],[-71.064693,42.3546],[-71.064735,42.354588],[-71.064747,42.354541],[-71.064847,42.354559],[-71.064915,42.354539],[-71.065004,42.354556],[-71.064984,42.354575],[-71.064984,42.354608],[-71.06487,42.354599],[-71.064821,42.354635],[-71.064821,42.354687],[-71.06487,42.354723],[-71.065049,42.354753],[-71.065071,42.354792],[-71.065159,42.354843],[-71.06528,42.354882],[-71.065424,42.35491],[-71.065465,42.354899],[-71.065513,42.354927],[-71.065725,42.354968],[-71.065812,42.354941],[-71.065848,42.354877]],[[-71.065134,42.354695],[-71.065113,42.354654],[-71.065127,42.354656],[-71.065134,42.354695]],[[-71.064444,42.354615],[-71.064443,42.354626],[-71.064343,42.354601],[-71.06435,42.354579],[-71.064382,42.354602],[-71.064444,42.354615]]],[[[-71.065837,42.348466],[-71.065801,42.348426],[-71.06568,42.348403],[-71.065639,42.348415],[-71.065622,42.348446],[-71.065658,42.348486],[-71.065778,42.348509],[-71.06582,42.348497],[-71.065837,42.348466]]],[[[-71.065773,42.348302],[-71.065717,42.348281],[-71.065693,42.348288],[-71.065703,42.348305],[-71.065748,42.348315],[-71.065773,42.348302]]],[[[-71.065692,42.353885],[-71.065659,42.353849],[-71.065548,42.353828],[-71.065512,42.353839],[-71.065519,42.353792],[-71.065482,42.353765],[-71.065348,42.353739],[-71.0653,42.353753],[-71.06528,42.353789],[-71.0653,42.353825],[-71.065389,42.353849],[-71.065387,42.353883],[-71.065417,42.353905],[-71.065533,42.353927],[-71.065572,42.353915],[-71.06564,42.353923],[-71.065676,42.353912],[-71.065692,42.353885]]],[[[-71.065653,42.348337],[-71.065615,42.348295],[-71.06549,42.34827],[-71.065446,42.348284],[-71.065428,42.348316],[-71.065466,42.348358],[-71.065592,42.348382],[-71.065635,42.348369],[-71.065653,42.348337]]],[[[-71.06564,42.351234],[-71.065577,42.351211],[-71.065553,42.351218],[-71.065563,42.351235],[-71.065615,42.351246],[-71.06564,42.351234]]],[[[-71.06564,42.348966],[-71.065587,42.348945],[-71.065563,42.348952],[-71.065573,42.348969],[-71.065614,42.348978],[-71.06564,42.348966]]],[[[-71.065635,42.349252],[-71.065605,42.349218],[-71.06551,42.3492],[-71.065476,42.349211],[-71.065461,42.349236],[-71.065491,42.349269],[-71.065586,42.349288],[-71.065621,42.349277],[-71.065635,42.349252]]],[[[-71.065604,42.349103],[-71.065551,42.349082],[-71.065527,42.349089],[-71.065537,42.349106],[-71.065578,42.349115],[-71.065604,42.349103]]],[[[-71.065593,42.348119],[-71.065537,42.348098],[-71.065513,42.348105],[-71.065523,42.348122],[-71.065568,42.348132],[-71.065593,42.348119]]],[[[-71.065544,42.348459],[-71.065469,42.34843],[-71.065439,42.34844],[-71.065451,42.348462],[-71.065513,42.348474],[-71.065544,42.348459]]],[[[-71.065509,42.348806],[-71.065479,42.348772],[-71.065384,42.348754],[-71.06535,42.348765],[-71.065335,42.34879],[-71.065365,42.348823],[-71.06546,42.348842],[-71.065495,42.348831],[-71.065509,42.348806]]],[[[-71.065485,42.353992],[-71.065466,42.353958],[-71.06538,42.353934],[-71.065384,42.353895],[-71.06535,42.353871],[-71.065225,42.353846],[-71.065168,42.353875],[-71.065181,42.353924],[-71.06526,42.353946],[-71.065255,42.353988],[-71.065226,42.353968],[-71.065121,42.353947],[-71.06505,42.353957],[-71.06471,42.353825],[-71.064481,42.353782],[-71.064549,42.35375],[-71.064549,42.353713],[-71.064583,42.35368],[-71.064583,42.353643],[-71.064548,42.353617],[-71.064418,42.353592],[-71.064358,42.353622],[-71.064358,42.353658],[-71.064319,42.35371],[-71.064332,42.353737],[-71.064284,42.353761],[-71.064284,42.353793],[-71.064335,42.353819],[-71.064258,42.353857],[-71.064258,42.353905],[-71.064238,42.353945],[-71.064262,42.353987],[-71.064288,42.354],[-71.064441,42.35403],[-71.064516,42.353993],[-71.064517,42.353952],[-71.064543,42.353914],[-71.064558,42.353917],[-71.064533,42.353941],[-71.064533,42.353991],[-71.06458,42.354026],[-71.064836,42.354078],[-71.064886,42.354062],[-71.064905,42.354032],[-71.064976,42.354045],[-71.065043,42.354017],[-71.065136,42.354049],[-71.065136,42.354081],[-71.065168,42.354104],[-71.065288,42.354127],[-71.06533,42.354115],[-71.065347,42.354084],[-71.06533,42.354054],[-71.065258,42.354034],[-71.065261,42.353995],[-71.06529,42.354014],[-71.06542,42.354039],[-71.065466,42.354025],[-71.065485,42.353992]]],[[[-71.065471,42.348955],[-71.065448,42.348931],[-71.06536,42.348914],[-71.065324,42.34894],[-71.065346,42.348964],[-71.065435,42.348982],[-71.065471,42.348955]]],[[[-71.065467,42.349088],[-71.065437,42.349055],[-71.06533,42.349034],[-71.065296,42.349045],[-71.065281,42.34907],[-71.065311,42.349103],[-71.065418,42.349124],[-71.065453,42.349114],[-71.065467,42.349088]]],[[[-71.065416,42.35122],[-71.065357,42.351198],[-71.065333,42.351205],[-71.065343,42.351222],[-71.065391,42.351232],[-71.065416,42.35122]]],[[[-71.065352,42.352984],[-71.065341,42.352964],[-71.06528,42.352948],[-71.065238,42.352903],[-71.065263,42.352884],[-71.065255,42.352847],[-71.065298,42.352822],[-71.065286,42.352775],[-71.065146,42.352742],[-71.065092,42.352768],[-71.065105,42.352816],[-71.065081,42.352852],[-71.065094,42.352876],[-71.065047,42.352891],[-71.065027,42.352928],[-71.065047,42.352965],[-71.065182,42.353],[-71.065313,42.353013],[-71.065352,42.352984]]],[[[-71.065313,42.351219],[-71.065257,42.351198],[-71.065233,42.351205],[-71.065243,42.351222],[-71.065288,42.351232],[-71.065313,42.351219]]],[[[-71.065248,42.352609],[-71.06524,42.352582],[-71.065188,42.352543],[-71.065012,42.352509],[-71.064943,42.35253],[-71.064915,42.352581],[-71.064943,42.352632],[-71.064975,42.352647],[-71.06515,42.352681],[-71.065219,42.35266],[-71.065248,42.352609]]],[[[-71.065241,42.350733],[-71.06516,42.350702],[-71.065126,42.350713],[-71.06514,42.350738],[-71.065205,42.350751],[-71.065241,42.350733]]],[[[-71.065216,42.350797],[-71.065135,42.350766],[-71.065101,42.350777],[-71.065115,42.350802],[-71.06518,42.350815],[-71.065216,42.350797]]],[[[-71.065198,42.354199],[-71.065162,42.354159],[-71.065041,42.354136],[-71.064987,42.354162],[-71.064847,42.354137],[-71.064817,42.35417],[-71.064847,42.354203],[-71.064954,42.354224],[-71.064996,42.354205],[-71.065139,42.354242],[-71.065181,42.35423],[-71.065198,42.354199]]],[[[-71.065188,42.350865],[-71.065117,42.35084],[-71.065092,42.350847],[-71.065103,42.350866],[-71.065161,42.350878],[-71.065188,42.350865]]],[[[-71.065078,42.354814],[-71.065044,42.354777],[-71.064928,42.354754],[-71.064889,42.354766],[-71.064873,42.354795],[-71.064907,42.354833],[-71.065023,42.354855],[-71.065062,42.354843],[-71.065078,42.354814]]],[[[-71.065056,42.355016],[-71.065048,42.354986],[-71.064992,42.354945],[-71.064807,42.354909],[-71.064734,42.354932],[-71.064703,42.354986],[-71.064734,42.35504],[-71.064767,42.355057],[-71.064952,42.355092],[-71.065025,42.35507],[-71.065056,42.355016]]],[[[-71.065047,42.354313],[-71.065014,42.354277],[-71.064903,42.354256],[-71.064866,42.354267],[-71.064852,42.35429],[-71.06467,42.354256],[-71.064628,42.354303],[-71.06467,42.35435],[-71.064804,42.354376],[-71.064852,42.354361],[-71.064872,42.354325],[-71.064995,42.354351],[-71.065031,42.35434],[-71.065047,42.354313]]],[[[-71.064992,42.35132],[-71.064933,42.351298],[-71.064909,42.351305],[-71.064919,42.351322],[-71.064967,42.351332],[-71.064992,42.35132]]],[[[-71.064902,42.348465],[-71.064846,42.348444],[-71.064822,42.348451],[-71.064832,42.348468],[-71.064877,42.348478],[-71.064902,42.348465]]],[[[-71.064873,42.353565],[-71.064866,42.353537],[-71.064811,42.353496],[-71.064631,42.353462],[-71.06456,42.353483],[-71.06453,42.353536],[-71.06456,42.353589],[-71.064592,42.353605],[-71.064773,42.353639],[-71.064844,42.353618],[-71.064873,42.353565]]],[[[-71.064784,42.354806],[-71.064728,42.354785],[-71.064704,42.354792],[-71.064714,42.354809],[-71.064759,42.354819],[-71.064784,42.354806]]],[[[-71.064669,42.351835],[-71.064613,42.351814],[-71.064589,42.351821],[-71.064599,42.351838],[-71.064644,42.351848],[-71.064669,42.351835]]],[[[-71.064666,42.348434],[-71.06461,42.348413],[-71.064586,42.34842],[-71.064596,42.348437],[-71.064641,42.348447],[-71.064666,42.348434]]],[[[-71.064623,42.352116],[-71.064552,42.352091],[-71.064527,42.352098],[-71.064538,42.352117],[-71.064596,42.352129],[-71.064623,42.352116]]],[[[-71.064616,42.352065],[-71.064557,42.352043],[-71.064533,42.35205],[-71.064543,42.352067],[-71.064591,42.352077],[-71.064616,42.352065]]],[[[-71.064593,42.352169],[-71.064537,42.352148],[-71.064513,42.352155],[-71.064523,42.352172],[-71.064568,42.352182],[-71.064593,42.352169]]],[[[-71.064481,42.348408],[-71.064425,42.348387],[-71.064401,42.348394],[-71.064411,42.348411],[-71.064456,42.348421],[-71.064481,42.348408]]],[[[-71.064283,42.350934],[-71.064227,42.350913],[-71.064203,42.35092],[-71.064213,42.350937],[-71.064258,42.350947],[-71.064283,42.350934]]],[[[-71.06427,42.348733],[-71.064195,42.348704],[-71.064165,42.348714],[-71.064177,42.348736],[-71.064239,42.348748],[-71.06427,42.348733]]],[[[-71.064223,42.348851],[-71.064157,42.348828],[-71.064133,42.348835],[-71.064143,42.348852],[-71.064198,42.348864],[-71.064223,42.348851]]],[[[-71.064193,42.350923],[-71.064137,42.350902],[-71.063934,42.350874],[-71.063895,42.350903],[-71.063919,42.35093],[-71.064012,42.350948],[-71.064122,42.350953],[-71.064193,42.350923]]],[[[-71.064143,42.353311],[-71.063929,42.353252],[-71.063899,42.353262],[-71.063911,42.353284],[-71.063973,42.353296],[-71.064118,42.353324],[-71.064143,42.353311]]],[[[-71.064108,42.353402],[-71.064037,42.353377],[-71.063893,42.353369],[-71.063903,42.353386],[-71.064016,42.353411],[-71.064096,42.353415],[-71.064108,42.353402]]],[[[-71.064087,42.354733],[-71.064081,42.354709],[-71.064035,42.354675],[-71.063878,42.354645],[-71.063818,42.354663],[-71.0638,42.354683],[-71.063799,42.354727],[-71.063772,42.354739],[-71.063749,42.35478],[-71.063772,42.354821],[-71.063797,42.354833],[-71.063945,42.354862],[-71.064,42.354845],[-71.06402,42.354792],[-71.064063,42.354777],[-71.064087,42.354733]]],[[[-71.064053,42.353771],[-71.063987,42.353748],[-71.063963,42.353755],[-71.063973,42.353772],[-71.064028,42.353784],[-71.064053,42.353771]]],[[[-71.063994,42.353982],[-71.063974,42.353959],[-71.063902,42.353945],[-71.06386,42.353958],[-71.063867,42.353984],[-71.063949,42.354004],[-71.063974,42.354004],[-71.063994,42.353982]]],[[[-71.063974,42.348687],[-71.063903,42.348662],[-71.063878,42.348669],[-71.063889,42.348688],[-71.063947,42.3487],[-71.063974,42.348687]]],[[[-71.063954,42.348756],[-71.063879,42.348727],[-71.063849,42.348737],[-71.063861,42.348759],[-71.063923,42.348771],[-71.063954,42.348756]]],[[[-71.063938,42.348882],[-71.063867,42.348857],[-71.063842,42.348864],[-71.063853,42.348883],[-71.063911,42.348895],[-71.063938,42.348882]]],[[[-71.063918,42.348802],[-71.063862,42.348781],[-71.063838,42.348788],[-71.063848,42.348805],[-71.063893,42.348815],[-71.063918,42.348802]]],[[[-71.063881,42.354133],[-71.0638,42.354102],[-71.063766,42.354113],[-71.06378,42.354138],[-71.063845,42.354151],[-71.063881,42.354133]]],[[[-71.063866,42.349157],[-71.06381,42.349136],[-71.063786,42.349143],[-71.063796,42.34916],[-71.063841,42.34917],[-71.063866,42.349157]]],[[[-71.063853,42.348436],[-71.063797,42.348415],[-71.063773,42.348422],[-71.063783,42.348439],[-71.063828,42.348449],[-71.063853,42.348436]]],[[[-71.063813,42.349302],[-71.063757,42.349281],[-71.063733,42.349288],[-71.063743,42.349305],[-71.063788,42.349315],[-71.063813,42.349302]]],[[[-71.0638,42.349344],[-71.063744,42.349323],[-71.06372,42.34933],[-71.06373,42.349347],[-71.063775,42.349357],[-71.0638,42.349344]]],[[[-71.063779,42.350898],[-71.063759,42.350875],[-71.063675,42.350859],[-71.06352,42.350845],[-71.063496,42.350857],[-71.06351,42.350882],[-71.063747,42.350922],[-71.063779,42.350898]]],[[[-71.063763,42.348419],[-71.063707,42.348398],[-71.063683,42.348405],[-71.063693,42.348422],[-71.063738,42.348432],[-71.063763,42.348419]]],[[[-71.063748,42.349772],[-71.063677,42.349747],[-71.063652,42.349754],[-71.063663,42.349773],[-71.063721,42.349785],[-71.063748,42.349772]]],[[[-71.063687,42.349865],[-71.063621,42.349842],[-71.063597,42.349849],[-71.063607,42.349866],[-71.063662,42.349878],[-71.063687,42.349865]]],[[[-71.063645,42.354716],[-71.063615,42.354682],[-71.06352,42.354664],[-71.063486,42.354675],[-71.063471,42.3547],[-71.063501,42.354733],[-71.063596,42.354752],[-71.063631,42.354741],[-71.063645,42.354716]]],[[[-71.063638,42.349962],[-71.063567,42.349937],[-71.063542,42.349944],[-71.063553,42.349963],[-71.063611,42.349975],[-71.063638,42.349962]]],[[[-71.063603,42.350011],[-71.063537,42.349988],[-71.063513,42.349995],[-71.063523,42.350012],[-71.063578,42.350024],[-71.063603,42.350011]]],[[[-71.063585,42.354816],[-71.063555,42.354782],[-71.06346,42.354764],[-71.063426,42.354775],[-71.063411,42.3548],[-71.063441,42.354833],[-71.063536,42.354852],[-71.063571,42.354841],[-71.063585,42.354816]]],[[[-71.063513,42.350429],[-71.063447,42.350406],[-71.063423,42.350413],[-71.063433,42.35043],[-71.063488,42.350442],[-71.063513,42.350429]]],[[[-71.06351,42.350191],[-71.063447,42.350168],[-71.063423,42.350175],[-71.063433,42.350192],[-71.063485,42.350203],[-71.06351,42.350191]]],[[[-71.063486,42.350498],[-71.063423,42.350475],[-71.063399,42.350482],[-71.063409,42.350499],[-71.063461,42.35051],[-71.063486,42.350498]]],[[[-71.06348,42.350257],[-71.063417,42.350234],[-71.063393,42.350241],[-71.063403,42.350258],[-71.063455,42.350269],[-71.06348,42.350257]]],[[[-71.063455,42.350291],[-71.063392,42.350268],[-71.063368,42.350275],[-71.063378,42.350292],[-71.06343,42.350303],[-71.063455,42.350291]]],[[[-71.063451,42.35056],[-71.063392,42.350538],[-71.063368,42.350545],[-71.063378,42.350562],[-71.063426,42.350572],[-71.063451,42.35056]]],[[[-71.063451,42.350779],[-71.063433,42.350759],[-71.063354,42.350743],[-71.063325,42.350765],[-71.063343,42.350785],[-71.063422,42.350801],[-71.063451,42.350779]]],[[[-71.063451,42.350839],[-71.06337,42.350808],[-71.063336,42.350819],[-71.06335,42.350844],[-71.063415,42.350857],[-71.063451,42.350839]]],[[[-71.063428,42.350716],[-71.063357,42.350691],[-71.063332,42.350698],[-71.063343,42.350717],[-71.063401,42.350729],[-71.063428,42.350716]]],[[[-71.063416,42.35062],[-71.063357,42.350598],[-71.063333,42.350605],[-71.063343,42.350622],[-71.063391,42.350632],[-71.063416,42.35062]]],[[[-71.063376,42.35045],[-71.063317,42.350428],[-71.063293,42.350435],[-71.063303,42.350452],[-71.063351,42.350462],[-71.063376,42.35045]]],[[[-71.06335,42.350494],[-71.063287,42.350471],[-71.063263,42.350478],[-71.063273,42.350495],[-71.063325,42.350506],[-71.06335,42.350494]]],[[[-71.063325,42.350547],[-71.063262,42.350524],[-71.063238,42.350531],[-71.063248,42.350548],[-71.0633,42.350559],[-71.063325,42.350547]]],[[[-71.063303,42.350593],[-71.063237,42.35057],[-71.063213,42.350577],[-71.063223,42.350594],[-71.063278,42.350606],[-71.063303,42.350593]]],[[[-71.063283,42.350641],[-71.063217,42.350618],[-71.063193,42.350625],[-71.063203,42.350642],[-71.063258,42.350654],[-71.063283,42.350641]]],[[[-71.06324,42.350686],[-71.063187,42.350665],[-71.063163,42.350672],[-71.063173,42.350689],[-71.063214,42.350698],[-71.06324,42.350686]]],[[[-71.06323,42.350738],[-71.063167,42.350715],[-71.063143,42.350722],[-71.063153,42.350739],[-71.063205,42.35075],[-71.06323,42.350738]]],[[[-71.063208,42.350777],[-71.063137,42.350752],[-71.063112,42.350759],[-71.063123,42.350778],[-71.063181,42.35079],[-71.063208,42.350777]]],[[[-71.063192,42.352248],[-71.063119,42.352226],[-71.063109,42.352243],[-71.063058,42.352238],[-71.063048,42.352255],[-71.06312,42.352272],[-71.06313,42.352255],[-71.063181,42.35226],[-71.063192,42.352248]]],[[[-71.063031,42.352263],[-71.062972,42.352241],[-71.062968,42.352221],[-71.062813,42.35221],[-71.062823,42.352227],[-71.062949,42.352243],[-71.062952,42.352263],[-71.063006,42.352275],[-71.063031,42.352263]]],[[[-71.062888,42.353314],[-71.062817,42.353289],[-71.062719,42.3533],[-71.062731,42.353322],[-71.062793,42.353334],[-71.062876,42.353327],[-71.062888,42.353314]]],[[[-71.062888,42.353226],[-71.062817,42.353201],[-71.062726,42.353201],[-71.062737,42.35322],[-71.062795,42.353232],[-71.062876,42.353239],[-71.062888,42.353226]]],[[[-71.062627,42.348368],[-71.062609,42.348348],[-71.06253,42.348332],[-71.062501,42.348354],[-71.062519,42.348374],[-71.062598,42.34839],[-71.062627,42.348368]]],[[[-71.062578,42.34939],[-71.062552,42.349361],[-71.062472,42.349345],[-71.062448,42.349311],[-71.06235,42.349292],[-71.062311,42.349311],[-71.06232,42.349345],[-71.062413,42.349368],[-71.062438,42.349402],[-71.062536,42.349421],[-71.062565,42.349412],[-71.062578,42.34939]]],[[[-71.062524,42.34857],[-71.062449,42.348541],[-71.062419,42.348551],[-71.062431,42.348573],[-71.062493,42.348585],[-71.062524,42.34857]]],[[[-71.062487,42.348389],[-71.062463,42.348362],[-71.06237,42.348344],[-71.062331,42.348373],[-71.062355,42.3484],[-71.062448,42.348418],[-71.062487,42.348389]]],[[[-71.062098,42.353764],[-71.062027,42.353739],[-71.062002,42.353746],[-71.062013,42.353765],[-71.062071,42.353777],[-71.062098,42.353764]]],[[[-71.062051,42.349315],[-71.061995,42.349294],[-71.061971,42.349301],[-71.061981,42.349318],[-71.062026,42.349328],[-71.062051,42.349315]]],[[[-71.062033,42.353869],[-71.061977,42.353848],[-71.061953,42.353855],[-71.061963,42.353872],[-71.062008,42.353882],[-71.062033,42.353869]]],[[[-71.062017,42.349564],[-71.061987,42.34953],[-71.061892,42.349512],[-71.061858,42.349523],[-71.061843,42.349548],[-71.061873,42.349581],[-71.061968,42.3496],[-71.062003,42.349589],[-71.062017,42.349564]]],[[[-71.061996,42.349447],[-71.06194,42.349426],[-71.061916,42.349433],[-71.061926,42.34945],[-71.061971,42.34946],[-71.061996,42.349447]]],[[[-71.061983,42.353712],[-71.061912,42.353687],[-71.061887,42.353694],[-71.061898,42.353713],[-71.061956,42.353725],[-71.061983,42.353712]]],[[[-71.061973,42.349889],[-71.061917,42.349868],[-71.061893,42.349875],[-71.061903,42.349892],[-71.061948,42.349902],[-71.061973,42.349889]]],[[[-71.061968,42.353837],[-71.061897,42.353812],[-71.061872,42.353819],[-71.061883,42.353838],[-71.061941,42.35385],[-71.061968,42.353837]]],[[[-71.061943,42.349935],[-71.061887,42.349914],[-71.061863,42.349921],[-71.061873,42.349938],[-71.061918,42.349948],[-71.061943,42.349935]]],[[[-71.061937,42.350009],[-71.061881,42.349988],[-71.061857,42.349995],[-71.061867,42.350012],[-71.061912,42.350022],[-71.061937,42.350009]]],[[[-71.061936,42.348329],[-71.061908,42.348298],[-71.061806,42.348278],[-71.061774,42.348288],[-71.061761,42.348312],[-71.061789,42.348343],[-71.061891,42.348363],[-71.061923,42.348353],[-71.061936,42.348329]]],[[[-71.061913,42.350053],[-71.061857,42.350032],[-71.061833,42.350039],[-71.061843,42.350056],[-71.061888,42.350066],[-71.061913,42.350053]]],[[[-71.061884,42.353665],[-71.061826,42.353642],[-71.061831,42.353609],[-71.061805,42.353589],[-71.06171,42.353571],[-71.061665,42.353593],[-71.061665,42.353621],[-71.061691,42.35364],[-71.061857,42.353678],[-71.061884,42.353665]]],[[[-71.061883,42.350089],[-71.061827,42.350068],[-71.061803,42.350075],[-71.061813,42.350092],[-71.061858,42.350102],[-71.061883,42.350089]]],[[[-71.061873,42.353792],[-71.061817,42.353771],[-71.061793,42.353778],[-71.061803,42.353795],[-71.061848,42.353805],[-71.061873,42.353792]]],[[[-71.061867,42.350308],[-71.061843,42.350281],[-71.061735,42.350265],[-71.061711,42.350292],[-71.061722,42.350312],[-71.061688,42.350322],[-71.061675,42.350346],[-71.061703,42.350377],[-71.061822,42.350394],[-71.061847,42.350376],[-71.061837,42.35034],[-71.061867,42.350308]]],[[[-71.061866,42.350164],[-71.061813,42.350143],[-71.061789,42.35015],[-71.061799,42.350167],[-71.06184,42.350176],[-71.061866,42.350164]]],[[[-71.061843,42.350209],[-71.061787,42.350188],[-71.061763,42.350195],[-71.061773,42.350212],[-71.061818,42.350222],[-71.061843,42.350209]]],[[[-71.061842,42.349682],[-71.061812,42.349648],[-71.061717,42.34963],[-71.061683,42.349641],[-71.061668,42.349666],[-71.061698,42.349699],[-71.061793,42.349718],[-71.061828,42.349707],[-71.061842,42.349682]]],[[[-71.061815,42.34843],[-71.061759,42.348409],[-71.061735,42.348416],[-71.061745,42.348433],[-71.06179,42.348443],[-71.061815,42.34843]]],[[[-71.061792,42.353747],[-71.061736,42.353726],[-71.061712,42.353733],[-71.061722,42.35375],[-71.061767,42.35376],[-71.061792,42.353747]]],[[[-71.061774,42.348665],[-71.061748,42.348636],[-71.06165,42.348617],[-71.06162,42.348626],[-71.061608,42.348648],[-71.061503,42.348639],[-71.061475,42.34867],[-71.061503,42.348701],[-71.061605,42.348721],[-71.061637,42.348711],[-71.06165,42.348687],[-71.061748,42.348694],[-71.061774,42.348665]]],[[[-71.06174,42.348316],[-71.061706,42.348279],[-71.06159,42.348256],[-71.061551,42.348268],[-71.061535,42.348297],[-71.061569,42.348335],[-71.061685,42.348357],[-71.061724,42.348345],[-71.06174,42.348316]]],[[[-71.06168,42.353561],[-71.061617,42.353538],[-71.061593,42.353545],[-71.061603,42.353562],[-71.061655,42.353573],[-71.06168,42.353561]]],[[[-71.061655,42.348846],[-71.061599,42.348825],[-71.061575,42.348832],[-71.061585,42.348849],[-71.06163,42.348859],[-71.061655,42.348846]]],[[[-71.061653,42.348509],[-71.061597,42.348488],[-71.061573,42.348495],[-71.061583,42.348512],[-71.061628,42.348522],[-71.061653,42.348509]]],[[[-71.061649,42.348195],[-71.061573,42.348171],[-71.061535,42.348129],[-71.061434,42.348108],[-71.061366,42.348118],[-71.061348,42.34815],[-71.061386,42.348192],[-71.061488,42.348213],[-71.061535,42.348213],[-71.061565,42.348192],[-71.061624,42.348207],[-71.061649,42.348195]]],[[[-71.061624,42.349584],[-71.061594,42.34955],[-71.06142,42.349501],[-71.061367,42.349509],[-71.061352,42.349534],[-71.061382,42.349567],[-71.061557,42.349617],[-71.061594,42.349617],[-71.061624,42.349584]]],[[[-71.061584,42.348871],[-71.061558,42.348842],[-71.06146,42.348823],[-71.06143,42.348832],[-71.061418,42.348854],[-71.061444,42.348883],[-71.061542,42.348902],[-71.061571,42.348893],[-71.061584,42.348871]]],[[[-71.061554,42.350963],[-71.061479,42.350934],[-71.061449,42.350944],[-71.061461,42.350966],[-71.061523,42.350978],[-71.061554,42.350963]]],[[[-71.061524,42.348263],[-71.061504,42.34824],[-71.061432,42.348226],[-71.06139,42.348239],[-71.061397,42.348265],[-71.061479,42.348285],[-71.061504,42.348285],[-71.061524,42.348263]]],[[[-71.06149,42.349266],[-71.061399,42.349222],[-71.061331,42.349208],[-71.061291,42.349228],[-71.061309,42.349248],[-71.061377,42.349262],[-71.061465,42.349278],[-71.06149,42.349266]]],[[[-71.061463,42.351131],[-71.061407,42.35111],[-71.061383,42.351117],[-71.061393,42.351134],[-71.061438,42.351144],[-71.061463,42.351131]]],[[[-71.061458,42.349064],[-71.061387,42.349039],[-71.061362,42.349046],[-71.061373,42.349065],[-71.061431,42.349077],[-71.061458,42.349064]]],[[[-71.061442,42.351189],[-71.061386,42.351168],[-71.061362,42.351175],[-71.061372,42.351192],[-71.061417,42.351202],[-71.061442,42.351189]]],[[[-71.061416,42.351249],[-71.06136,42.351228],[-71.061336,42.351235],[-71.061346,42.351252],[-71.061391,42.351262],[-71.061416,42.351249]]],[[[-71.061413,42.349439],[-71.061357,42.349418],[-71.061333,42.349425],[-71.061343,42.349442],[-71.061388,42.349452],[-71.061413,42.349439]]],[[[-71.061397,42.351298],[-71.061341,42.351277],[-71.061317,42.351284],[-71.061327,42.351301],[-71.061372,42.351311],[-71.061397,42.351298]]],[[[-71.06133,42.34964],[-71.061271,42.349618],[-71.061247,42.349625],[-71.061257,42.349642],[-71.061305,42.349652],[-71.06133,42.34964]]],[[[-71.061309,42.349688],[-71.06125,42.349666],[-71.061226,42.349673],[-71.061236,42.34969],[-71.061284,42.3497],[-71.061309,42.349688]]],[[[-71.061304,42.349847],[-71.061278,42.349818],[-71.06118,42.349799],[-71.06115,42.349808],[-71.061138,42.34983],[-71.061164,42.349859],[-71.061262,42.349878],[-71.061291,42.349869],[-71.061304,42.349847]]],[[[-71.061289,42.353379],[-71.061178,42.35332],[-71.061103,42.353315],[-71.061113,42.353332],[-71.061208,42.353366],[-71.061213,42.35338],[-71.061278,42.353392],[-71.061289,42.353379]]],[[[-71.061283,42.354783],[-71.061227,42.354762],[-71.061203,42.354769],[-71.061213,42.354786],[-71.061258,42.354796],[-71.061283,42.354783]]],[[[-71.061248,42.350049],[-71.061215,42.350013],[-71.061104,42.349992],[-71.061067,42.350003],[-71.061052,42.35003],[-71.061084,42.350065],[-71.061196,42.350087],[-71.061232,42.350076],[-71.061248,42.350049]]],[[[-71.061233,42.354925],[-71.061177,42.354904],[-71.061153,42.354911],[-71.061163,42.354928],[-71.061208,42.354938],[-71.061233,42.354925]]],[[[-71.061123,42.348621],[-71.061091,42.348585],[-71.06098,42.348564],[-71.060943,42.348575],[-71.060928,42.348602],[-71.06096,42.348637],[-71.061072,42.348659],[-71.061108,42.348648],[-71.061123,42.348621]]],[[[-71.0611,42.348736],[-71.061066,42.348699],[-71.06095,42.348676],[-71.060911,42.348688],[-71.060895,42.348717],[-71.060929,42.348755],[-71.061045,42.348777],[-71.061084,42.348765],[-71.0611,42.348736]]],[[[-71.0611,42.353286],[-71.061037,42.353263],[-71.061013,42.35327],[-71.061023,42.353287],[-71.061075,42.353298],[-71.0611,42.353286]]],[[[-71.061083,42.348499],[-71.061027,42.348478],[-71.061003,42.348485],[-71.061013,42.348502],[-71.061058,42.348512],[-71.061083,42.348499]]],[[[-71.061033,42.353372],[-71.060964,42.35335],[-71.060966,42.35333],[-71.060912,42.353318],[-71.060896,42.353299],[-71.060827,42.353297],[-71.060898,42.353342],[-71.060959,42.353353],[-71.060957,42.353373],[-71.061022,42.353385],[-71.061033,42.353372]]],[[[-71.061024,42.348844],[-71.060998,42.348815],[-71.0609,42.348796],[-71.06087,42.348805],[-71.060858,42.348827],[-71.060884,42.348856],[-71.060982,42.348875],[-71.061011,42.348866],[-71.061024,42.348844]]],[[[-71.060983,42.353229],[-71.060927,42.353208],[-71.060903,42.353215],[-71.060913,42.353232],[-71.060958,42.353242],[-71.060983,42.353229]]],[[[-71.060959,42.349197],[-71.060915,42.349148],[-71.060776,42.349121],[-71.060725,42.349137],[-71.060705,42.349174],[-71.060749,42.349223],[-71.060888,42.34925],[-71.060938,42.349234],[-71.060959,42.349197]]],[[[-71.060809,42.349406],[-71.060779,42.349372],[-71.060684,42.349354],[-71.06065,42.349365],[-71.060635,42.34939],[-71.060665,42.349423],[-71.06076,42.349442],[-71.060795,42.349431],[-71.060809,42.349406]]],[[[-71.060783,42.349524],[-71.060753,42.349491],[-71.060646,42.34947],[-71.060612,42.349481],[-71.060597,42.349506],[-71.060627,42.349539],[-71.060734,42.34956],[-71.060769,42.34955],[-71.060783,42.349524]]],[[[-71.060697,42.349688],[-71.060667,42.349655],[-71.06056,42.349634],[-71.060453,42.349635],[-71.060463,42.349652],[-71.060508,42.349662],[-71.060541,42.349703],[-71.060648,42.349724],[-71.060683,42.349714],[-71.060697,42.349688]]],[[[-71.060673,42.349811],[-71.060641,42.349775],[-71.06053,42.349754],[-71.060493,42.349765],[-71.060478,42.349792],[-71.06051,42.349827],[-71.060622,42.349849],[-71.060658,42.349838],[-71.060673,42.349811]]],[[[-71.060673,42.349269],[-71.060617,42.349248],[-71.060593,42.349255],[-71.060603,42.349272],[-71.060648,42.349282],[-71.060673,42.349269]]],[[[-71.060653,42.349309],[-71.060597,42.349288],[-71.060573,42.349295],[-71.060583,42.349312],[-71.060628,42.349322],[-71.060653,42.349309]]],[[[-71.060643,42.353049],[-71.060587,42.353028],[-71.060563,42.353035],[-71.060573,42.353052],[-71.060618,42.353062],[-71.060643,42.353049]]],[[[-71.060633,42.349351],[-71.060577,42.34933],[-71.060553,42.349337],[-71.060563,42.349354],[-71.060608,42.349364],[-71.060633,42.349351]]],[[[-71.060603,42.349416],[-71.060547,42.349395],[-71.060523,42.349402],[-71.060533,42.349419],[-71.060578,42.349429],[-71.060603,42.349416]]],[[[-71.060596,42.349463],[-71.060537,42.349441],[-71.060513,42.349448],[-71.060523,42.349465],[-71.060571,42.349475],[-71.060596,42.349463]]],[[[-71.060586,42.349513],[-71.060527,42.349491],[-71.060503,42.349498],[-71.060513,42.349515],[-71.060561,42.349525],[-71.060586,42.349513]]],[[[-71.060563,42.353006],[-71.060511,42.352974],[-71.060433,42.352969],[-71.060487,42.353007],[-71.060552,42.353019],[-71.060563,42.353006]]],[[[-71.060556,42.353293],[-71.060497,42.353271],[-71.060473,42.353278],[-71.060483,42.353295],[-71.060531,42.353305],[-71.060556,42.353293]]],[[[-71.060549,42.353159],[-71.060493,42.353138],[-71.060469,42.353145],[-71.060479,42.353162],[-71.060524,42.353172],[-71.060549,42.353159]]],[[[-71.060549,42.349609],[-71.060493,42.349588],[-71.060469,42.349595],[-71.060479,42.349612],[-71.060524,42.349622],[-71.060549,42.349609]]],[[[-71.060549,42.349565],[-71.060493,42.349544],[-71.060469,42.349551],[-71.060479,42.349568],[-71.060524,42.349578],[-71.060549,42.349565]]],[[[-71.060497,42.353421],[-71.060458,42.35338],[-71.060407,42.353368],[-71.060352,42.353385],[-71.060341,42.353405],[-71.060365,42.353432],[-71.060458,42.35345],[-71.060497,42.353421]]],[[[-71.060473,42.353109],[-71.060417,42.353088],[-71.060408,42.353067],[-71.060339,42.353065],[-71.060349,42.353082],[-71.060394,42.353092],[-71.060403,42.353112],[-71.060462,42.353122],[-71.060473,42.353109]]],[[[-71.060436,42.349894],[-71.060377,42.349872],[-71.060353,42.349879],[-71.060363,42.349896],[-71.060411,42.349906],[-71.060436,42.349894]]],[[[-71.060403,42.353456],[-71.060347,42.353435],[-71.060323,42.353442],[-71.060333,42.353459],[-71.060378,42.353469],[-71.060403,42.353456]]],[[[-71.06039,42.350166],[-71.060376,42.35014],[-71.060332,42.350127],[-71.060332,42.350102],[-71.060287,42.350093],[-71.060231,42.350125],[-71.060216,42.35015],[-71.060246,42.350183],[-71.060341,42.350202],[-71.060376,42.350191],[-71.06039,42.350166]]],[[[-71.060363,42.350046],[-71.060307,42.350025],[-71.060283,42.350032],[-71.060293,42.350049],[-71.060338,42.350059],[-71.060363,42.350046]]],[[[-71.060252,42.349486],[-71.060228,42.349459],[-71.060135,42.349441],[-71.060096,42.34947],[-71.06012,42.349497],[-71.060213,42.349515],[-71.060252,42.349486]]],[[[-71.060203,42.352971],[-71.060147,42.35295],[-71.060123,42.352957],[-71.060133,42.352974],[-71.060178,42.352984],[-71.060203,42.352971]]],[[[-71.06019,42.353427],[-71.060162,42.353396],[-71.06006,42.353376],[-71.060028,42.353386],[-71.060015,42.35341],[-71.060043,42.353441],[-71.060145,42.353461],[-71.060177,42.353451],[-71.06019,42.353427]]],[[[-71.060187,42.34957],[-71.060169,42.34955],[-71.06009,42.349534],[-71.060061,42.349556],[-71.060079,42.349576],[-71.060158,42.349592],[-71.060187,42.34957]]],[[[-71.060161,42.349659],[-71.060138,42.349635],[-71.06005,42.349618],[-71.060014,42.349644],[-71.060036,42.349668],[-71.060125,42.349686],[-71.060161,42.349659]]],[[[-71.060054,42.351061],[-71.060028,42.351032],[-71.05993,42.351013],[-71.0599,42.351022],[-71.059888,42.351044],[-71.059914,42.351073],[-71.060012,42.351092],[-71.060041,42.351083],[-71.060054,42.351061]]],[[[-71.059966,42.351148],[-71.059885,42.351117],[-71.059851,42.351128],[-71.059865,42.351153],[-71.05993,42.351166],[-71.059966,42.351148]]],[[[-71.059904,42.353277],[-71.059878,42.353248],[-71.05978,42.353229],[-71.05975,42.353238],[-71.059738,42.35326],[-71.059764,42.353289],[-71.059878,42.353322],[-71.059902,42.353314],[-71.059904,42.353277]]],[[[-71.059806,42.352763],[-71.059677,42.352725],[-71.059599,42.352725],[-71.059609,42.352742],[-71.059781,42.352775],[-71.059806,42.352763]]],[[[-71.059737,42.354968],[-71.059634,42.354882],[-71.05955,42.354866],[-71.05952,42.354881],[-71.059527,42.354907],[-71.059612,42.354949],[-71.059629,42.354974],[-71.059708,42.35499],[-71.059737,42.354968]]],[[[-71.059725,42.351726],[-71.059695,42.351692],[-71.0596,42.351674],[-71.059507,42.351704],[-71.059518,42.351723],[-71.059676,42.351762],[-71.059711,42.351751],[-71.059725,42.351726]]],[[[-71.059665,42.352799],[-71.059635,42.352765],[-71.05954,42.352747],[-71.059506,42.352758],[-71.059491,42.352783],[-71.059521,42.352816],[-71.059616,42.352835],[-71.059651,42.352824],[-71.059665,42.352799]]],[[[-71.059634,42.351615],[-71.059614,42.351592],[-71.059542,42.351578],[-71.0595,42.351591],[-71.059507,42.351617],[-71.059589,42.351637],[-71.059614,42.351637],[-71.059634,42.351615]]],[[[-71.059563,42.351106],[-71.059507,42.351085],[-71.059483,42.351092],[-71.059493,42.351109],[-71.059538,42.351119],[-71.059563,42.351106]]],[[[-71.059554,42.354828],[-71.059544,42.354811],[-71.059501,42.354799],[-71.059453,42.354724],[-71.059364,42.354707],[-71.059331,42.354723],[-71.059339,42.354752],[-71.059373,42.354762],[-71.059377,42.354791],[-71.059421,42.354803],[-71.059438,42.354835],[-71.059522,42.354852],[-71.059554,42.354828]]],[[[-71.059523,42.351179],[-71.059467,42.351158],[-71.059443,42.351165],[-71.059453,42.351182],[-71.059498,42.351192],[-71.059523,42.351179]]],[[[-71.059521,42.35164],[-71.05944,42.351609],[-71.059406,42.35162],[-71.05942,42.351645],[-71.059485,42.351658],[-71.059521,42.35164]]],[[[-71.059473,42.353109],[-71.059417,42.353088],[-71.059393,42.353095],[-71.059403,42.353112],[-71.059448,42.353122],[-71.059473,42.353109]]],[[[-71.059463,42.353019],[-71.059407,42.352998],[-71.059383,42.353005],[-71.059393,42.353022],[-71.059438,42.353032],[-71.059463,42.353019]]],[[[-71.059448,42.351717],[-71.059373,42.351688],[-71.059343,42.351698],[-71.059355,42.35172],[-71.059417,42.351732],[-71.059448,42.351717]]],[[[-71.059384,42.351793],[-71.059309,42.351764],[-71.059279,42.351774],[-71.059291,42.351796],[-71.059353,42.351808],[-71.059384,42.351793]]],[[[-71.059307,42.351308],[-71.059293,42.351283],[-71.059239,42.351267],[-71.059243,42.351234],[-71.059217,42.351215],[-71.05911,42.351194],[-71.059065,42.351216],[-71.059065,42.351244],[-71.05913,42.351271],[-71.059125,42.351304],[-71.05915,42.351322],[-71.059095,42.351343],[-71.059095,42.351371],[-71.059121,42.35139],[-71.059247,42.351408],[-71.059277,42.351375],[-71.059248,42.351343],[-71.059293,42.351334],[-71.059307,42.351308]]],[[[-71.059229,42.353303],[-71.059173,42.353282],[-71.059149,42.353289],[-71.059159,42.353306],[-71.059204,42.353316],[-71.059229,42.353303]]],[[[-71.059164,42.3544],[-71.059144,42.354377],[-71.059072,42.354363],[-71.05903,42.354376],[-71.059037,42.354402],[-71.059119,42.354422],[-71.059144,42.354422],[-71.059164,42.3544]]],[[[-71.059143,42.351469],[-71.059087,42.351448],[-71.059063,42.351455],[-71.059073,42.351472],[-71.059118,42.351482],[-71.059143,42.351469]]],[[[-71.059133,42.353296],[-71.059077,42.353275],[-71.059053,42.353282],[-71.059063,42.353299],[-71.059108,42.353309],[-71.059133,42.353296]]],[[[-71.059131,42.35153],[-71.05905,42.351499],[-71.059016,42.35151],[-71.05903,42.351535],[-71.059095,42.351548],[-71.059131,42.35153]]],[[[-71.059081,42.351619],[-71.059058,42.351595],[-71.05897,42.351578],[-71.058934,42.351604],[-71.058956,42.351628],[-71.059045,42.351646],[-71.059081,42.351619]]],[[[-71.059063,42.354341],[-71.059007,42.35432],[-71.058983,42.354327],[-71.058993,42.354344],[-71.059038,42.354354],[-71.059063,42.354341]]],[[[-71.059043,42.353292],[-71.058987,42.353271],[-71.058963,42.353278],[-71.058973,42.353295],[-71.059018,42.353305],[-71.059043,42.353292]]],[[[-71.059018,42.354302],[-71.058947,42.354277],[-71.058922,42.354284],[-71.058933,42.354303],[-71.058991,42.354315],[-71.059018,42.354302]]],[[[-71.059,42.351657],[-71.058937,42.351634],[-71.058913,42.351641],[-71.058923,42.351658],[-71.058975,42.351669],[-71.059,42.351657]]],[[[-71.058994,42.351705],[-71.058974,42.351682],[-71.058902,42.351668],[-71.05886,42.351681],[-71.058867,42.351707],[-71.058949,42.351727],[-71.058974,42.351727],[-71.058994,42.351705]]],[[[-71.058961,42.351753],[-71.058938,42.351729],[-71.05885,42.351712],[-71.058817,42.351728],[-71.058825,42.351757],[-71.058786,42.351756],[-71.058764,42.35178],[-71.058786,42.351804],[-71.058875,42.351822],[-71.058908,42.351805],[-71.0589,42.351777],[-71.058938,42.351778],[-71.058961,42.351753]]],[[[-71.058909,42.353277],[-71.058853,42.353256],[-71.058829,42.353263],[-71.058839,42.35328],[-71.058884,42.35329],[-71.058909,42.353277]]],[[[-71.058833,42.351861],[-71.058815,42.351823],[-71.058767,42.351814],[-71.058701,42.351818],[-71.058677,42.351845],[-71.058701,42.351872],[-71.058794,42.35189],[-71.058833,42.351861]]],[[[-71.058803,42.353277],[-71.058747,42.353256],[-71.058723,42.353263],[-71.058733,42.35328],[-71.058778,42.35329],[-71.058803,42.353277]]],[[[-71.058764,42.351921],[-71.058744,42.351898],[-71.05866,42.351882],[-71.058637,42.351889],[-71.05863,42.351915],[-71.058611,42.351914],[-71.058599,42.351936],[-71.05869,42.351958],[-71.058754,42.351938],[-71.058764,42.351921]]],[[[-71.05868,42.352016],[-71.058638,42.351967],[-71.058509,42.351959],[-71.058451,42.352018],[-71.058451,42.352042],[-71.058397,42.35205],[-71.058398,42.352087],[-71.058363,42.352085],[-71.058353,42.352102],[-71.058411,42.352119],[-71.058542,42.352122],[-71.058567,42.352104],[-71.058567,42.352079],[-71.058664,42.352045],[-71.05868,42.352016]]],[[[-71.058613,42.352539],[-71.058557,42.352518],[-71.058473,42.352519],[-71.058483,42.352536],[-71.058528,42.352546],[-71.058602,42.352552],[-71.058613,42.352539]]],[[[-71.058558,42.352492],[-71.058487,42.352467],[-71.058462,42.352474],[-71.058473,42.352493],[-71.058531,42.352505],[-71.058558,42.352492]]],[[[-71.058476,42.352538],[-71.058417,42.352516],[-71.058233,42.352507],[-71.058243,42.352524],[-71.058288,42.352534],[-71.058451,42.35255],[-71.058476,42.352538]]],[[[-71.058433,42.352479],[-71.058377,42.352458],[-71.058353,42.352465],[-71.058363,42.352482],[-71.058408,42.352492],[-71.058433,42.352479]]],[[[-71.058333,42.350919],[-71.058258,42.350887],[-71.058183,42.350882],[-71.058193,42.350899],[-71.058257,42.35092],[-71.058322,42.350932],[-71.058333,42.350919]]],[[[-71.058323,42.352476],[-71.058267,42.352455],[-71.058243,42.352462],[-71.058253,42.352479],[-71.058298,42.352489],[-71.058323,42.352476]]],[[[-71.058083,42.352674],[-71.058027,42.352653],[-71.058003,42.35266],[-71.058013,42.352677],[-71.058058,42.352687],[-71.058083,42.352674]]],[[[-71.058077,42.352777],[-71.058021,42.352756],[-71.057997,42.352763],[-71.058007,42.35278],[-71.058052,42.35279],[-71.058077,42.352777]]],[[[-71.058053,42.352914],[-71.057997,42.352893],[-71.057973,42.3529],[-71.057983,42.352917],[-71.058028,42.352927],[-71.058053,42.352914]]],[[[-71.057848,42.350702],[-71.057792,42.350674],[-71.057723,42.350672],[-71.057778,42.350705],[-71.057837,42.350715],[-71.057848,42.350702]]],[[[-71.057815,42.352239],[-71.057734,42.352208],[-71.0577,42.352219],[-71.057714,42.352244],[-71.057779,42.352257],[-71.057815,42.352239]]],[[[-71.057691,42.352204],[-71.057673,42.352184],[-71.05744,42.352122],[-71.057419,42.352104],[-71.05734,42.352088],[-71.057311,42.35211],[-71.057329,42.35213],[-71.057565,42.352191],[-71.057583,42.35221],[-71.057662,42.352226],[-71.057691,42.352204]]],[[[-71.057459,42.350412],[-71.057403,42.350391],[-71.057379,42.350398],[-71.057389,42.350415],[-71.057434,42.350425],[-71.057459,42.350412]]],[[[-71.057443,42.350503],[-71.057387,42.350482],[-71.057363,42.350489],[-71.057373,42.350506],[-71.057418,42.350516],[-71.057443,42.350503]]],[[[-71.057396,42.351717],[-71.057337,42.351695],[-71.057313,42.351702],[-71.057323,42.351719],[-71.057371,42.351729],[-71.057396,42.351717]]],[[[-71.057383,42.351759],[-71.057327,42.351738],[-71.057303,42.351745],[-71.057313,42.351762],[-71.057358,42.351772],[-71.057383,42.351759]]],[[[-71.057354,42.351906],[-71.057298,42.351885],[-71.057274,42.351892],[-71.057284,42.351909],[-71.057329,42.351919],[-71.057354,42.351906]]],[[[-71.05735,42.350936],[-71.057287,42.350913],[-71.057263,42.35092],[-71.057273,42.350937],[-71.057325,42.350948],[-71.05735,42.350936]]],[[[-71.05734,42.351964],[-71.057287,42.351943],[-71.057263,42.35195],[-71.057273,42.351967],[-71.057314,42.351976],[-71.05734,42.351964]]],[[[-71.05732,42.351074],[-71.057257,42.351051],[-71.057233,42.351058],[-71.057243,42.351075],[-71.057295,42.351086],[-71.05732,42.351074]]],[[[-71.057253,42.351419],[-71.057197,42.351398],[-71.057173,42.351405],[-71.057183,42.351422],[-71.057228,42.351432],[-71.057253,42.351419]]],[[[-71.057243,42.350559],[-71.057187,42.350538],[-71.057163,42.350545],[-71.057173,42.350562],[-71.057218,42.350572],[-71.057243,42.350559]]],[[[-71.057192,42.350641],[-71.057136,42.35062],[-71.057112,42.350627],[-71.057122,42.350644],[-71.057167,42.350654],[-71.057192,42.350641]]],[[[-71.057139,42.350542],[-71.057083,42.350521],[-71.057059,42.350528],[-71.057069,42.350545],[-71.057114,42.350555],[-71.057139,42.350542]]],[[[-71.057094,42.349918],[-71.057074,42.349895],[-71.057002,42.349881],[-71.05696,42.349894],[-71.056967,42.34992],[-71.057049,42.34994],[-71.057074,42.34994],[-71.057094,42.349918]]],[[[-71.057083,42.349849],[-71.057027,42.349828],[-71.057003,42.349835],[-71.057013,42.349852],[-71.057058,42.349862],[-71.057083,42.349849]]],[[[-71.056923,42.352039],[-71.056857,42.352016],[-71.056833,42.352023],[-71.056843,42.35204],[-71.056898,42.352052],[-71.056923,42.352039]]],[[[-71.056907,42.349776],[-71.056883,42.349749],[-71.05679,42.349731],[-71.056751,42.34976],[-71.056775,42.349787],[-71.056868,42.349805],[-71.056907,42.349776]]],[[[-71.056879,42.350239],[-71.056823,42.350218],[-71.056799,42.350225],[-71.056809,42.350242],[-71.056854,42.350252],[-71.056879,42.350239]]],[[[-71.056864,42.349855],[-71.056844,42.349832],[-71.056772,42.349818],[-71.05673,42.349831],[-71.056737,42.349857],[-71.056819,42.349877],[-71.056844,42.349877],[-71.056864,42.349855]]],[[[-71.05685,42.349931],[-71.05682,42.349897],[-71.056725,42.349879],[-71.056691,42.34989],[-71.056676,42.349915],[-71.056706,42.349948],[-71.056801,42.349967],[-71.056836,42.349956],[-71.05685,42.349931]]],[[[-71.056843,42.350316],[-71.056787,42.350295],[-71.056763,42.350302],[-71.056773,42.350319],[-71.056818,42.350329],[-71.056843,42.350316]]],[[[-71.056805,42.350022],[-71.056775,42.349988],[-71.05668,42.34997],[-71.056646,42.349981],[-71.056631,42.350006],[-71.056661,42.350039],[-71.056756,42.350058],[-71.056791,42.350047],[-71.056805,42.350022]]],[[[-71.0568,42.352005],[-71.056737,42.351982],[-71.056713,42.351989],[-71.056723,42.352006],[-71.056775,42.352017],[-71.0568,42.352005]]],[[[-71.056727,42.350108],[-71.056709,42.350088],[-71.05663,42.350072],[-71.056601,42.350094],[-71.056619,42.350114],[-71.056698,42.35013],[-71.056727,42.350108]]],[[[-71.056698,42.350624],[-71.056632,42.350601],[-71.056608,42.350608],[-71.056618,42.350625],[-71.056673,42.350637],[-71.056698,42.350624]]],[[[-71.056694,42.3502],[-71.056674,42.350177],[-71.056602,42.350163],[-71.05656,42.350176],[-71.056567,42.350202],[-71.056649,42.350222],[-71.056674,42.350222],[-71.056694,42.3502]]],[[[-71.056691,42.353216],[-71.056613,42.353186],[-71.056612,42.353167],[-71.056522,42.353159],[-71.056533,42.353178],[-71.056583,42.353189],[-71.056582,42.353217],[-71.056665,42.353235],[-71.056691,42.353216]]],[[[-71.056663,42.350691],[-71.056597,42.350668],[-71.056573,42.350675],[-71.056583,42.350692],[-71.056638,42.350704],[-71.056663,42.350691]]],[[[-71.056635,42.35085],[-71.056605,42.350816],[-71.05651,42.350798],[-71.056476,42.350809],[-71.056461,42.350834],[-71.056491,42.350867],[-71.056586,42.350886],[-71.056621,42.350875],[-71.056635,42.35085]]],[[[-71.056543,42.353139],[-71.056472,42.353114],[-71.056447,42.353121],[-71.056458,42.35314],[-71.056516,42.353152],[-71.056543,42.353139]]],[[[-71.056523,42.351931],[-71.056457,42.351908],[-71.056433,42.351915],[-71.056443,42.351932],[-71.056498,42.351944],[-71.056523,42.351931]]],[[[-71.056473,42.351039],[-71.056417,42.351018],[-71.056393,42.351025],[-71.056403,42.351042],[-71.056448,42.351052],[-71.056473,42.351039]]],[[[-71.056454,42.353103],[-71.056379,42.353074],[-71.056349,42.353084],[-71.056361,42.353106],[-71.056423,42.353118],[-71.056454,42.353103]]],[[[-71.056453,42.351108],[-71.056387,42.351085],[-71.056363,42.351092],[-71.056373,42.351109],[-71.056428,42.351121],[-71.056453,42.351108]]],[[[-71.05643,42.351909],[-71.056377,42.351888],[-71.056353,42.351895],[-71.056363,42.351912],[-71.056404,42.351921],[-71.05643,42.351909]]],[[[-71.056409,42.351185],[-71.056353,42.351164],[-71.056329,42.351171],[-71.056339,42.351188],[-71.056384,42.351198],[-71.056409,42.351185]]],[[[-71.056393,42.354941],[-71.056327,42.354918],[-71.056303,42.354925],[-71.056313,42.354942],[-71.056368,42.354954],[-71.056393,42.354941]]],[[[-71.056383,42.354847],[-71.056317,42.354824],[-71.056293,42.354831],[-71.056303,42.354848],[-71.056358,42.35486],[-71.056383,42.354847]]],[[[-71.056371,42.354683],[-71.05629,42.354652],[-71.056256,42.354663],[-71.05627,42.354688],[-71.056335,42.354701],[-71.056371,42.354683]]],[[[-71.056368,42.354762],[-71.056297,42.354737],[-71.056272,42.354744],[-71.056283,42.354763],[-71.056341,42.354775],[-71.056368,42.354762]]],[[[-71.056311,42.350853],[-71.056245,42.35083],[-71.056221,42.350837],[-71.056231,42.350854],[-71.056286,42.350866],[-71.056311,42.350853]]],[[[-71.056306,42.351386],[-71.056247,42.351364],[-71.056223,42.351371],[-71.056233,42.351388],[-71.056281,42.351398],[-71.056306,42.351386]]],[[[-71.056293,42.353059],[-71.056237,42.353038],[-71.056213,42.353045],[-71.056223,42.353062],[-71.056268,42.353072],[-71.056293,42.353059]]],[[[-71.056287,42.351421],[-71.056228,42.351399],[-71.056204,42.351406],[-71.056214,42.351423],[-71.056262,42.351433],[-71.056287,42.351421]]],[[[-71.056281,42.350944],[-71.056215,42.350921],[-71.056191,42.350928],[-71.056201,42.350945],[-71.056256,42.350957],[-71.056281,42.350944]]],[[[-71.056256,42.35146],[-71.056197,42.351438],[-71.056173,42.351445],[-71.056183,42.351462],[-71.056231,42.351472],[-71.056256,42.35146]]],[[[-71.056241,42.351047],[-71.056175,42.351024],[-71.056151,42.351031],[-71.056161,42.351048],[-71.056216,42.35106],[-71.056241,42.351047]]],[[[-71.056203,42.351156],[-71.056137,42.351133],[-71.056113,42.35114],[-71.056123,42.351157],[-71.056178,42.351169],[-71.056203,42.351156]]],[[[-71.056126,42.35172],[-71.056067,42.351698],[-71.056043,42.351705],[-71.056053,42.351722],[-71.056101,42.351732],[-71.056126,42.35172]]],[[[-71.056032,42.351366],[-71.055966,42.351343],[-71.055942,42.35135],[-71.055952,42.351367],[-71.056007,42.351379],[-71.056032,42.351366]]],[[[-71.056008,42.351423],[-71.055942,42.3514],[-71.055918,42.351407],[-71.055928,42.351424],[-71.055983,42.351436],[-71.056008,42.351423]]],[[[-71.055975,42.351493],[-71.055909,42.35147],[-71.055885,42.351477],[-71.055895,42.351494],[-71.05595,42.351506],[-71.055975,42.351493]]],[[[-71.055945,42.352242],[-71.055915,42.352208],[-71.055801,42.352193],[-71.055737,42.352276],[-71.055767,42.352309],[-71.055881,42.352325],[-71.055945,42.352242]]],[[[-71.055943,42.351572],[-71.055877,42.351549],[-71.055853,42.351556],[-71.055863,42.351573],[-71.055918,42.351585],[-71.055943,42.351572]]],[[[-71.055914,42.351633],[-71.055848,42.35161],[-71.055824,42.351617],[-71.055834,42.351634],[-71.055889,42.351646],[-71.055914,42.351633]]],[[[-71.055863,42.351738],[-71.055797,42.351715],[-71.055773,42.351722],[-71.055783,42.351739],[-71.055838,42.351751],[-71.055863,42.351738]]],[[[-71.05586,42.353351],[-71.05584,42.353328],[-71.055768,42.353314],[-71.055726,42.353327],[-71.055733,42.353353],[-71.055815,42.353373],[-71.05584,42.353373],[-71.05586,42.353351]]],[[[-71.055843,42.351787],[-71.055777,42.351764],[-71.055753,42.351771],[-71.055763,42.351788],[-71.055818,42.3518],[-71.055843,42.351787]]],[[[-71.055792,42.353408],[-71.055774,42.353388],[-71.055695,42.353372],[-71.055666,42.353394],[-71.055684,42.353414],[-71.055763,42.35343],[-71.055792,42.353408]]],[[[-71.055704,42.353442],[-71.055633,42.353417],[-71.055608,42.353424],[-71.055619,42.353443],[-71.055677,42.353455],[-71.055704,42.353442]]],[[[-71.055613,42.353508],[-71.055547,42.353485],[-71.055523,42.353492],[-71.055533,42.353509],[-71.055588,42.353521],[-71.055613,42.353508]]],[[[-71.055546,42.35354],[-71.055487,42.353518],[-71.055463,42.353525],[-71.055473,42.353542],[-71.055521,42.353552],[-71.055546,42.35354]]],[[[-71.055307,42.353686],[-71.055302,42.353653],[-71.055237,42.353641],[-71.055189,42.353657],[-71.055189,42.353687],[-71.055161,42.353684],[-71.055149,42.353706],[-71.05524,42.353728],[-71.055253,42.353706],[-71.055289,42.353706],[-71.055307,42.353686]]]]},"properties":{"kind":"tree"}}]}