{"type":"FeatureCollection","features":[{"type":"Feature","geometry":{"type":"MultiPolygon","coordinates":[[[[-71.067307,42.351913],[-71.067284,42.351779],[-71.067024,42.351193],[-71.066747,42.351106],[-71.065467,42.351257],[-71.064967,42.35123],[-71.064882,42.35152],[-71.064845,42.351508],[-71.06488,42.351384],[-71.064826,42.351367],[-71.064853,42.351252],[-71.064745,42.351218],[-71.063934,42.351133],[-71.063929,42.35115],[-71.063049,42.351044],[-71.063027,42.351108],[-71.063025,42.351091],[-71.062859,42.351039],[-71.062298,42.350942],[-71.062278,42.351002],[-71.062563,42.351087],[-71.062566,42.351146],[-71.06227,42.351059],[-71.062158,42.351034],[-71.06216,42.351046],[-71.061545,42.350895],[-71.061462,42.35114],[-71.061448,42.351138],[-71.061352,42.351379],[-71.06138,42.351406],[-71.061669,42.351497],[-71.061981,42.351487],[-71.061982,42.351449],[-71.062287,42.351439],[-71.062549,42.351509],[-71.062889,42.351576],[-71.062861,42.351718],[-71.062591,42.351633],[-71.062023,42.351525],[-71.061289,42.351543],[-71.061306,42.351628],[-71.061041,42.351545],[-71.060388,42.351402],[-71.060369,42.351415],[-71.060432,42.351612],[-71.060706,42.35168],[-71.060717,42.351715],[-71.060656,42.351696],[-71.06047,42.351727],[-71.060506,42.351847],[-71.060384,42.351528],[-71.060318,42.351507],[-71.060273,42.351383],[-71.059758,42.351262],[-71.059709,42.351391],[-71.059777,42.351851],[-71.059626,42.351804],[-71.059386,42.351848],[-71.059419,42.352073],[-71.059226,42.352012],[-71.059026,42.352083],[-71.058873,42.352183],[-71.058814,42.352257],[-71.058775,42.35235],[-71.059406,42.352548],[-71.05991,42.352637],[-71.059922,42.352632],[-71.059908,42.352533],[-71.059927,42.352534],[-71.059894,42.352316],[-71.059872,42.352309],[-71.059856,42.35221],[-71.059832,42.352203],[-71.059821,42.352128],[-71.059956,42.352164],[-71.060172,42.352146],[-71.060153,42.35201],[-71.060216,42.352029],[-71.060318,42.352027],[-71.060367,42.352042],[-71.06055,42.352011],[-71.060539,42.351974],[-71.060606,42.352168],[-71.0605,42.352135],[-71.060316,42.352167],[-71.060314,42.35222],[-71.060276,42.352208],[-71.060118,42.352221],[-71.060161,42.352505],[-71.060393,42.352578],[-71.060777,42.352578],[-71.060835,42.352569],[-71.060825,42.352533],[-71.061009,42.352591],[-71.061384,42.352558],[-71.061417,42.352371],[-71.061212,42.352203],[-71.0612,42.352056],[-71.061128,42.352034],[-71.061222,42.352022],[-71.061214,42.351973],[-71.061248,42.351968],[-71.061223,42.351802],[-71.06133,42.35178],[-71.061311,42.351652],[-71.061352,42.351859],[-71.061439,42.351886],[-71.061359,42.35189],[-71.061394,42.352062],[-71.061524,42.352103],[-71.061679,42.352095],[-71.061674,42.352048],[-71.0617,42.352056],[-71.061723,42.35216],[-71.06186,42.352203],[-71.061723,42.352231],[-71.061761,42.35241],[-71.061905,42.352455],[-71.06207,42.352435],[-71.062063,42.352387],[-71.062157,42.352417],[-71.062237,42.352411],[-71.062233,42.35238],[-71.062371,42.352424],[-71.062646,42.352402],[-71.06267,42.352371],[-71.062875,42.352362],[-71.062902,42.352297],[-71.063264,42.352332],[-71.063282,42.352265],[-71.063653,42.352305],[-71.063657,42.352284],[-71.063725,42.352306],[-71.064279,42.352316],[-71.06447,42.352369],[-71.064747,42.352377],[-71.064785,42.352347],[-71.064974,42.352406],[-71.065798,42.352457],[-71.065803,42.352429],[-71.066174,42.352473],[-71.06618,42.352448],[-71.066252,42.352452],[-71.066269,42.35223],[-71.066217,42.352213],[-71.066219,42.352202],[-71.066372,42.352201],[-71.066397,42.351917],[-71.066295,42.351885],[-71.066129,42.351874],[-71.066134,42.351823],[-71.067124,42.351958],[-71.067307,42.351913]],[[-71.065554,42.351782],[-71.06501,42.351727],[-71.065039,42.351704],[-71.065482,42.35175],[-71.065554,42.351782]],[[-71.06428,42.351762],[-71.064262,42.351849],[-71.063934,42.351738],[-71.063946,42.351681],[-71.06415,42.351745],[-71.06428,42.351762]],[[-71.06389,42.351664],[-71.062903,42.351547],[-71.062925,42.351467],[-71.063504,42.351546],[-71.06389,42.351664]],[[-71.063692,42.351418],[-71.063496,42.351393],[-71.063436,42.351371],[-71.063624,42.351389],[-71.063692,42.351418]],[[-71.063378,42.351356],[-71.063286,42.351344],[-71.063289,42.351328],[-71.063378,42.351356]],[[-71.062971,42.351302],[-71.062964,42.351308],[-71.062967,42.351297],[-71.062971,42.351302]],[[-71.062941,42.351405],[-71.062938,42.351405],[-71.06294,42.351395],[-71.062941,42.351405]],[[-71.061057,42.352035],[-71.060986,42.352046],[-71.06102,42.352037],[-71.061015,42.352022],[-71.061057,42.352035]],[[-71.060257,42.351834],[-71.060124,42.351854],[-71.060098,42.35167],[-71.060124,42.351667],[-71.060115,42.351615],[-71.060184,42.351597],[-71.060257,42.351834]]],[[[-71.066693,42.348595],[-71.066483,42.348529],[-71.066191,42.348495],[-71.066265,42.348149],[-71.065995,42.348062],[-71.065837,42.348044],[-71.065752,42.348444],[-71.065816,42.348465],[-71.065804,42.348522],[-71.065908,42.348555],[-71.065917,42.348586],[-71.066127,42.348652],[-71.066665,42.348715],[-71.066693,42.348595]]],[[[-71.066433,42.351134],[-71.066401,42.350805],[-71.065959,42.350666],[-71.065779,42.350663],[-71.065925,42.350641],[-71.066136,42.350639],[-71.066118,42.350419],[-71.065987,42.350378],[-71.065985,42.350344],[-71.066276,42.350332],[-71.066241,42.350003],[-71.066136,42.349882],[-71.065831,42.349786],[-71.06586,42.349648],[-71.065904,42.349705],[-71.066027,42.349744],[-71.066104,42.34972],[-71.066112,42.349694],[-71.06618,42.349673],[-71.066093,42.349519],[-71.066176,42.349505],[-71.06612,42.349407],[-71.066051,42.349385],[-71.065989,42.349405],[-71.066041,42.3495],[-71.06562,42.349445],[-71.065521,42.349461],[-71.065431,42.349881],[-71.065343,42.350191],[-71.065701,42.350313],[-71.065834,42.350333],[-71.065758,42.350337],[-71.065759,42.350361],[-71.065638,42.350369],[-71.065537,42.350337],[-71.06531,42.3503],[-71.065299,42.350339],[-71.06491,42.350211],[-71.064939,42.350106],[-71.065243,42.350153],[-71.065354,42.349735],[-71.065415,42.349745],[-71.065427,42.349698],[-71.065169,42.349617],[-71.064416,42.349501],[-71.064395,42.349572],[-71.064011,42.349513],[-71.063973,42.349477],[-71.063992,42.349481],[-71.064037,42.349449],[-71.064087,42.34932],[-71.064113,42.34918],[-71.064018,42.34915],[-71.064106,42.348967],[-71.064224,42.348551],[-71.063945,42.348463],[-71.063623,42.348413],[-71.063619,42.348426],[-71.063476,42.348381],[-71.062604,42.34825],[-71.062448,42.348644],[-71.062598,42.348691],[-71.063505,42.348829],[-71.063561,42.34904],[-71.06316,42.348977],[-71.063181,42.348936],[-71.062425,42.348727],[-71.062236,42.349176],[-71.062386,42.349253],[-71.062562,42.349308],[-71.062552,42.34932],[-71.063,42.349515],[-71.063006,42.349556],[-71.063044,42.349601],[-71.062621,42.349452],[-71.0625,42.349398],[-71.062485,42.349372],[-71.062443,42.34935],[-71.062233,42.349284],[-71.062169,42.349306],[-71.062159,42.349328],[-71.061842,42.349241],[-71.061871,42.34917],[-71.061837,42.349159],[-71.06189,42.34903],[-71.061769,42.348993],[-71.061919,42.349025],[-71.062008,42.348848],[-71.062036,42.348774],[-71.061908,42.348734],[-71.061988,42.348534],[-71.062269,42.348599],[-71.062302,42.348523],[-71.062351,42.348534],[-71.062458,42.348259],[-71.062255,42.348206],[-71.062165,42.348433],[-71.062041,42.348404],[-71.062125,42.348194],[-71.062003,42.34815],[-71.062073,42.348004],[-71.062541,42.348115],[-71.062661,42.348122],[-71.06264,42.348175],[-71.062737,42.348205],[-71.062858,42.348222],[-71.062861,42.348208],[-71.062941,42.348233],[-71.0633,42.348285],[-71.063324,42.348202],[-71.063301,42.34817],[-71.06323,42.348148],[-71.063187,42.348141],[-71.063177,42.348169],[-71.062886,42.348123],[-71.062867,42.348159],[-71.062671,42.348108],[-71.062692,42.348056],[-71.062957,42.348122],[-71.062972,42.348084],[-71.062925,42.348051],[-71.06298,42.348063],[-71.062996,42.348026],[-71.062981,42.348016],[-71.063066,42.348035],[-71.063051,42.348085],[-71.063116,42.348105],[-71.063163,42.348114],[-71.063205,42.348065],[-71.063345,42.348097],[-71.063364,42.348028],[-71.063301,42.347999],[-71.062961,42.347921],[-71.062934,42.347987],[-71.062735,42.347939],[-71.062697,42.348032],[-71.062334,42.347917],[-71.062128,42.347871],[-71.062182,42.347739],[-71.061712,42.347604],[-71.061566,42.347954],[-71.061555,42.348046],[-71.061898,42.348152],[-71.061584,42.348939],[-71.061722,42.348982],[-71.061577,42.34895],[-71.061552,42.34896],[-71.061531,42.349019],[-71.061543,42.349037],[-71.06152,42.349047],[-71.061503,42.349124],[-71.061484,42.349135],[-71.061347,42.349489],[-71.061711,42.349642],[-71.062011,42.349736],[-71.061999,42.349764],[-71.0623,42.349886],[-71.062332,42.349884],[-71.062563,42.349784],[-71.062587,42.349755],[-71.062445,42.349947],[-71.062815,42.350107],[-71.062807,42.350132],[-71.06244,42.349978],[-71.062028,42.349859],[-71.062034,42.349843],[-71.061563,42.349649],[-71.061307,42.349568],[-71.061196,42.349845],[-71.061438,42.349944],[-71.061316,42.350019],[-71.061162,42.349985],[-71.061139,42.350043],[-71.061218,42.350062],[-71.060768,42.349949],[-71.06086,42.349902],[-71.06106,42.349414],[-71.061009,42.349352],[-71.061276,42.349453],[-71.061324,42.349382],[-71.061076,42.349283],[-71.061093,42.349236],[-71.060994,42.349204],[-71.060943,42.349219],[-71.060966,42.349184],[-71.060981,42.349187],[-71.061,42.34914],[-71.061073,42.349157],[-71.061082,42.349133],[-71.061019,42.349092],[-71.061056,42.349002],[-71.061109,42.349014],[-71.061083,42.349084],[-71.061187,42.349115],[-71.061167,42.349121],[-71.061145,42.349177],[-71.061161,42.349219],[-71.061142,42.349267],[-71.061365,42.349328],[-71.061453,42.3491],[-71.061435,42.349094],[-71.061461,42.349029],[-71.061421,42.349017],[-71.061494,42.349004],[-71.061553,42.348855],[-71.061488,42.348807],[-71.061356,42.348767],[-71.061378,42.348712],[-71.061587,42.34876],[-71.061707,42.348439],[-71.061722,42.348442],[-71.061743,42.348391],[-71.061535,42.348335],[-71.061561,42.348273],[-71.061011,42.348097],[-71.060549,42.348739],[-71.061097,42.348908],[-71.061161,42.348956],[-71.061134,42.34895],[-71.061127,42.348967],[-71.060878,42.348902],[-71.060761,42.349201],[-71.060321,42.349063],[-71.060204,42.349326],[-71.059925,42.350048],[-71.060735,42.350319],[-71.061183,42.350445],[-71.061674,42.350557],[-71.06196,42.350649],[-71.062471,42.350779],[-71.062479,42.350769],[-71.06288,42.350886],[-71.06292,42.350849],[-71.063112,42.35091],[-71.063462,42.35096],[-71.063507,42.350833],[-71.063894,42.350955],[-71.064116,42.350988],[-71.064162,42.350915],[-71.064437,42.350944],[-71.06498,42.351098],[-71.065402,42.35114],[-71.065417,42.351088],[-71.065351,42.351068],[-71.065379,42.35107],[-71.065394,42.351012],[-71.06495,42.350873],[-71.06497,42.350875],[-71.06502,42.350706],[-71.065188,42.35073],[-71.065139,42.350903],[-71.065158,42.350936],[-71.065816,42.351141],[-71.066218,42.351164],[-71.066433,42.351134]],[[-71.065548,42.350658],[-71.065283,42.350653],[-71.065295,42.350608],[-71.065548,42.350658]],[[-71.064186,42.350227],[-71.064029,42.350479],[-71.064011,42.350473],[-71.064025,42.350451],[-71.063915,42.350416],[-71.063629,42.350376],[-71.063604,42.350291],[-71.063525,42.350266],[-71.063619,42.350084],[-71.063648,42.350088],[-71.063657,42.350058],[-71.063635,42.350052],[-71.063705,42.349803],[-71.063719,42.349806],[-71.063727,42.349778],[-71.064091,42.350184],[-71.064186,42.350227]],[[-71.062921,42.34977],[-71.062645,42.349686],[-71.062659,42.349669],[-71.062689,42.349675],[-71.062921,42.34977]],[[-71.062825,42.34907],[-71.062816,42.34907],[-71.062774,42.349056],[-71.062825,42.34907]],[[-71.06269,42.350357],[-71.062668,42.350439],[-71.062597,42.350416],[-71.062624,42.350383],[-71.062518,42.350336],[-71.061894,42.350142],[-71.061899,42.350112],[-71.062031,42.350175],[-71.062325,42.350267],[-71.062468,42.350307],[-71.062482,42.35029],[-71.06269,42.350357]],[[-71.062396,42.350562],[-71.061791,42.350383],[-71.061797,42.350368],[-71.062396,42.350562]],[[-71.061896,42.35011],[-71.061896,42.350111],[-71.061894,42.35011],[-71.061896,42.35011]]],[[[-71.065632,42.354368],[-71.065612,42.354332],[-71.065508,42.354299],[-71.065458,42.354314],[-71.065443,42.354342],[-71.065468,42.354381],[-71.06556,42.35441],[-71.065607,42.354403],[-71.065632,42.354368]]],[[[-71.065569,42.347916],[-71.065523,42.347832],[-71.065418,42.347802],[-71.065425,42.34771],[-71.065363,42.347676],[-71.065257,42.347643],[-71.064894,42.347587],[-71.064503,42.347783],[-71.064389,42.348045],[-71.06434,42.34822],[-71.064482,42.348259],[-71.064619,42.348214],[-71.064466,42.348292],[-71.06444,42.348386],[-71.064767,42.348489],[-71.065132,42.348545],[-71.065171,42.348487],[-71.065458,42.348421],[-71.065462,42.348401],[-71.065374,42.348302],[-71.065503,42.348184],[-71.065503,42.34811],[-71.065437,42.348035],[-71.06556,42.347954],[-71.065569,42.347916]]],[[[-71.065458,42.352883],[-71.065303,42.352844],[-71.065286,42.352891],[-71.065312,42.352972],[-71.065415,42.352998],[-71.065458,42.352883]]],[[[-71.065385,42.349149],[-71.065331,42.349085],[-71.06538,42.348903],[-71.065373,42.348818],[-71.065329,42.348704],[-71.064992,42.348617],[-71.064844,42.348594],[-71.064341,42.348545],[-71.064334,42.348568],[-71.064286,42.348574],[-71.064127,42.348996],[-71.064484,42.34906],[-71.064498,42.349077],[-71.064404,42.349122],[-71.064653,42.349291],[-71.064856,42.349355],[-71.065037,42.349262],[-71.065017,42.349239],[-71.065123,42.349272],[-71.065385,42.349149]]],[[[-71.064755,42.35255],[-71.064662,42.352531],[-71.064629,42.3525],[-71.064339,42.352409],[-71.063942,42.352395],[-71.06394,42.352415],[-71.063872,42.352394],[-71.063705,42.352384],[-71.063363,42.352382],[-71.063362,42.352405],[-71.063313,42.35239],[-71.062724,42.352454],[-71.062724,42.352488],[-71.062679,42.352486],[-71.062674,42.352576],[-71.062412,42.352483],[-71.061487,42.352561],[-71.061491,42.352629],[-71.061336,42.35258],[-71.061194,42.352592],[-71.061171,42.352659],[-71.060985,42.352601],[-71.060475,42.352641],[-71.060188,42.352643],[-71.060197,42.35274],[-71.060299,42.352765],[-71.060268,42.352864],[-71.060699,42.353076],[-71.060824,42.353115],[-71.060815,42.353125],[-71.061277,42.35336],[-71.061483,42.353426],[-71.062143,42.353752],[-71.062331,42.353811],[-71.062202,42.353963],[-71.061657,42.353702],[-71.061711,42.353667],[-71.061363,42.353489],[-71.060707,42.353272],[-71.060324,42.353671],[-71.060105,42.35355],[-71.059597,42.353398],[-71.059432,42.35339],[-71.059304,42.353504],[-71.05925,42.353494],[-71.0593,42.353447],[-71.059294,42.353412],[-71.059185,42.353377],[-71.058863,42.353373],[-71.058707,42.353349],[-71.058447,42.353361],[-71.058314,42.353351],[-71.058317,42.353336],[-71.059478,42.353342],[-71.059557,42.35331],[-71.059609,42.353257],[-71.059857,42.35327],[-71.060134,42.353365],[-71.060289,42.353296],[-71.06039,42.353327],[-71.060505,42.353204],[-71.06043,42.353166],[-71.060395,42.353093],[-71.060236,42.353011],[-71.060214,42.352856],[-71.059318,42.352574],[-71.058902,42.352524],[-71.058176,42.352542],[-71.058065,42.352602],[-71.05738,42.352387],[-71.057393,42.352356],[-71.057,42.352232],[-71.056202,42.352031],[-71.05594,42.352127],[-71.055846,42.352326],[-71.055905,42.352345],[-71.055876,42.352367],[-71.056034,42.352612],[-71.056267,42.352682],[-71.056322,42.352662],[-71.056669,42.352765],[-71.056977,42.352682],[-71.057442,42.352813],[-71.05731,42.352888],[-71.057145,42.352955],[-71.0571,42.353025],[-71.057127,42.353105],[-71.057259,42.353188],[-71.057975,42.353402],[-71.057933,42.353509],[-71.057947,42.353542],[-71.058204,42.353722],[-71.057295,42.353434],[-71.057245,42.353514],[-71.057238,42.353486],[-71.05714,42.353455],[-71.057132,42.353418],[-71.05692,42.35333],[-71.056736,42.353254],[-71.056237,42.353097],[-71.055998,42.353225],[-71.056026,42.35333],[-71.056072,42.353349],[-71.055897,42.353294],[-71.055573,42.353469],[-71.055605,42.353502],[-71.055589,42.353497],[-71.055421,42.353589],[-71.055393,42.353619],[-71.055342,42.353603],[-71.054915,42.353838],[-71.055034,42.353958],[-71.054851,42.353901],[-71.054793,42.353902],[-71.054391,42.354111],[-71.054359,42.354149],[-71.054358,42.354189],[-71.054619,42.354471],[-71.054873,42.354553],[-71.054775,42.354643],[-71.05498,42.354839],[-71.055276,42.354932],[-71.05552,42.354828],[-71.055485,42.354787],[-71.055555,42.354783],[-71.055688,42.355479],[-71.056222,42.355647],[-71.056337,42.355652],[-71.056576,42.355629],[-71.057154,42.355811],[-71.057606,42.355767],[-71.05754,42.355384],[-71.05818,42.355335],[-71.05816,42.355184],[-71.057721,42.355008],[-71.05689,42.354747],[-71.056611,42.354768],[-71.056395,42.3547],[-71.056322,42.354621],[-71.056494,42.354587],[-71.056448,42.354423],[-71.056817,42.354532],[-71.057161,42.35449],[-71.057122,42.354234],[-71.056749,42.354112],[-71.056502,42.354136],[-71.056497,42.35411],[-71.056452,42.354096],[-71.056429,42.353973],[-71.056409,42.353966],[-71.056404,42.353937],[-71.056824,42.354069],[-71.056909,42.354062],[-71.056898,42.35408],[-71.057577,42.354307],[-71.057602,42.354268],[-71.057725,42.354307],[-71.057546,42.354581],[-71.058084,42.354746],[-71.05787,42.354957],[-71.057867,42.35498],[-71.058105,42.355058],[-71.058344,42.355062],[-71.058462,42.355099],[-71.058589,42.355114],[-71.058619,42.355104],[-71.059228,42.355368],[-71.059397,42.355421],[-71.05942,42.3554],[-71.059845,42.355534],[-71.060091,42.35532],[-71.060154,42.355242],[-71.059938,42.355058],[-71.059856,42.355014],[-71.059728,42.354973],[-71.05933,42.354675],[-71.059081,42.35459],[-71.059033,42.354595],[-71.05889,42.354725],[-71.058866,42.354711],[-71.059118,42.354501],[-71.058776,42.354264],[-71.058655,42.354226],[-71.058693,42.354189],[-71.058643,42.354157],[-71.058707,42.354051],[-71.058627,42.354022],[-71.058642,42.353998],[-71.05874,42.354029],[-71.058709,42.354058],[-71.059005,42.354271],[-71.059335,42.354375],[-71.059513,42.354394],[-71.059374,42.35453],[-71.059372,42.35457],[-71.059396,42.354607],[-71.060128,42.355172],[-71.060216,42.3552],[-71.060481,42.355389],[-71.060576,42.355419],[-71.06078,42.355244],[-71.060851,42.355266],[-71.061287,42.35486],[-71.061329,42.354872],[-71.061404,42.354804],[-71.062184,42.355207],[-71.062331,42.355253],[-71.062477,42.355096],[-71.062827,42.355218],[-71.062922,42.355118],[-71.063118,42.355222],[-71.063296,42.355278],[-71.063355,42.355201],[-71.063094,42.355068],[-71.062787,42.354942],[-71.062494,42.354784],[-71.062343,42.354737],[-71.062218,42.354874],[-71.062127,42.354843],[-71.062143,42.354831],[-71.062125,42.354822],[-71.062142,42.354805],[-71.06221,42.354796],[-71.062296,42.354701],[-71.06213,42.354623],[-71.062146,42.354604],[-71.061905,42.354475],[-71.061792,42.35444],[-71.061849,42.354385],[-71.062288,42.35459],[-71.062278,42.3546],[-71.062479,42.354698],[-71.062759,42.354809],[-71.062746,42.354823],[-71.063211,42.355053],[-71.063498,42.355143],[-71.063542,42.355134],[-71.063658,42.35492],[-71.063882,42.35498],[-71.063917,42.354881],[-71.064001,42.354906],[-71.06429,42.35437],[-71.064195,42.35434],[-71.064232,42.354336],[-71.064251,42.354301],[-71.064033,42.354228],[-71.064052,42.354193],[-71.064125,42.354215],[-71.064165,42.354179],[-71.064229,42.354062],[-71.064239,42.354015],[-71.063976,42.353932],[-71.063986,42.353867],[-71.064276,42.353954],[-71.064382,42.353755],[-71.063923,42.35361],[-71.063947,42.353534],[-71.064165,42.35359],[-71.06421,42.353461],[-71.063837,42.353375],[-71.063825,42.353407],[-71.063651,42.353352],[-71.063204,42.353334],[-71.0632,42.353439],[-71.063082,42.353402],[-71.062769,42.353392],[-71.06277,42.353272],[-71.062415,42.35316],[-71.061648,42.353196],[-71.061644,42.353133],[-71.06175,42.353167],[-71.062619,42.35313],[-71.062647,42.353108],[-71.062657,42.353133],[-71.062711,42.353173],[-71.062961,42.35325],[-71.064346,42.353359],[-71.064364,42.353314],[-71.064463,42.353322],[-71.06453,42.353242],[-71.064561,42.353156],[-71.064413,42.353109],[-71.064423,42.35307],[-71.064558,42.353077],[-71.064601,42.352932],[-71.064563,42.35292],[-71.064669,42.352925],[-71.064704,42.352774],[-71.064634,42.352752],[-71.064651,42.352645],[-71.06472,42.352656],[-71.064755,42.35255]],[[-71.063527,42.353949],[-71.063442,42.354064],[-71.063351,42.354035],[-71.063058,42.354015],[-71.063172,42.354018],[-71.063207,42.353861],[-71.063487,42.353949],[-71.063527,42.353949]],[[-71.06304,42.354502],[-71.063032,42.354512],[-71.062978,42.354495],[-71.06304,42.354502]],[[-71.062741,42.354448],[-71.062711,42.354477],[-71.062601,42.35443],[-71.062635,42.354421],[-71.062741,42.354448]],[[-71.062483,42.35418],[-71.062479,42.354189],[-71.062121,42.354119],[-71.062139,42.3541],[-71.062483,42.35418]],[[-71.059433,42.354002],[-71.059275,42.354021],[-71.059225,42.353989],[-71.058932,42.353897],[-71.059015,42.353818],[-71.058958,42.353759],[-71.059021,42.353778],[-71.059269,42.35392],[-71.059415,42.353966],[-71.059433,42.354002]],[[-71.058584,42.353971],[-71.058292,42.353875],[-71.058333,42.353808],[-71.058584,42.353971]],[[-71.058443,42.354467],[-71.05842,42.354459],[-71.058424,42.354456],[-71.058443,42.354467]],[[-71.058412,42.354419],[-71.058397,42.354432],[-71.058381,42.354423],[-71.058388,42.354411],[-71.058412,42.354419]],[[-71.058058,42.353371],[-71.058042,42.353372],[-71.058042,42.353369],[-71.058058,42.353371]],[[-71.058022,42.352815],[-71.058019,42.352838],[-71.057987,42.352828],[-71.058022,42.352815]],[[-71.057338,42.354057],[-71.057335,42.354061],[-71.057191,42.354013],[-71.057338,42.354057]],[[-71.056567,42.353537],[-71.056521,42.353559],[-71.056528,42.35357],[-71.056319,42.353664],[-71.056309,42.353689],[-71.056335,42.353841],[-71.056093,42.353765],[-71.056269,42.353686],[-71.056104,42.353362],[-71.056567,42.353537]],[[-71.055913,42.353973],[-71.055765,42.354038],[-71.055589,42.353983],[-71.055419,42.354079],[-71.055641,42.353919],[-71.055726,42.353885],[-71.055719,42.353877],[-71.055893,42.353932],[-71.055913,42.353973]]],[[[-71.064638,42.353287],[-71.064542,42.353266],[-71.064508,42.353366],[-71.064604,42.353389],[-71.064638,42.353287]]],[[[-71.064345,42.348101],[-71.064286,42.348083],[-71.064306,42.348012],[-71.064088,42.347938],[-71.063968,42.347919],[-71.063883,42.347989],[-71.063856,42.347985],[-71.063829,42.348081],[-71.063857,42.34809],[-71.063888,42.348157],[-71.063616,42.348112],[-71.063679,42.347889],[-71.06346,42.347843],[-71.063365,42.348193],[-71.063456,42.348222],[-71.064111,42.34832],[-71.064131,42.348248],[-71.064236,42.348263],[-71.064257,42.348186],[-71.064319,42.348196],[-71.064345,42.348101]]],[[[-71.06227,42.350942],[-71.061597,42.350765],[-71.061565,42.350845],[-71.061724,42.350895],[-71.062242,42.35101],[-71.06227,42.350942]]],[[[-71.061735,42.355106],[-71.061444,42.354953],[-71.061254,42.354893],[-71.06106,42.355076],[-71.061331,42.355215],[-71.061563,42.355293],[-71.061735,42.355106]]],[[[-71.061709,42.352433],[-71.061689,42.35232],[-71.061625,42.3523],[-71.061514,42.352311],[-71.061454,42.352351],[-71.061467,42.35243],[-71.061531,42.35245],[-71.061709,42.352433]]],[[[-71.061459,42.350766],[-71.061394,42.350719],[-71.061295,42.350688],[-71.060472,42.350463],[-71.060395,42.350464],[-71.060381,42.350499],[-71.060395,42.350515],[-71.06026,42.350485],[-71.059972,42.351168],[-71.060574,42.351312],[-71.060712,42.351021],[-71.060683,42.351012],[-71.060705,42.350958],[-71.060682,42.350951],[-71.060726,42.350839],[-71.060705,42.350832],[-71.060748,42.350724],[-71.060765,42.350728],[-71.060783,42.350685],[-71.060865,42.350703],[-71.060839,42.350774],[-71.061154,42.350853],[-71.061254,42.350842],[-71.061423,42.350879],[-71.061459,42.350766]]],[[[-71.061398,42.351125],[-71.061227,42.351071],[-71.060769,42.350979],[-71.060611,42.351308],[-71.060785,42.351363],[-71.061243,42.351465],[-71.061269,42.351455],[-71.061398,42.351125]]],[[[-71.060243,42.350407],[-71.059867,42.350296],[-71.059794,42.350499],[-71.059835,42.350512],[-71.059789,42.350634],[-71.060081,42.350704],[-71.0601,42.350656],[-71.060148,42.350666],[-71.060243,42.350407]]],[[[-71.059662,42.350264],[-71.059628,42.350229],[-71.059471,42.35018],[-71.059047,42.350086],[-71.058996,42.350102],[-71.058776,42.350034],[-71.058372,42.349945],[-71.058325,42.350111],[-71.058289,42.3501],[-71.058333,42.349938],[-71.057874,42.34983],[-71.057786,42.349875],[-71.057793,42.349839],[-71.057505,42.349748],[-71.057133,42.349667],[-71.05695,42.350087],[-71.056922,42.350095],[-71.056797,42.350339],[-71.056828,42.350349],[-71.056838,42.350385],[-71.056878,42.350421],[-71.056873,42.350442],[-71.057052,42.350499],[-71.057482,42.350605],[-71.057509,42.350603],[-71.057553,42.350567],[-71.057546,42.350612],[-71.05777,42.350682],[-71.058538,42.350855],[-71.058563,42.350791],[-71.058617,42.350803],[-71.058668,42.350694],[-71.058692,42.350699],[-71.058731,42.350604],[-71.058791,42.350608],[-71.058689,42.350861],[-71.058721,42.350897],[-71.058878,42.350946],[-71.0593,42.35104],[-71.059355,42.351024],[-71.059662,42.350264]],[[-71.058924,42.35028],[-71.058859,42.35044],[-71.058722,42.350397],[-71.058782,42.350249],[-71.058924,42.35028]],[[-71.05828,42.35027],[-71.058262,42.35033],[-71.05807,42.350288],[-71.058081,42.350248],[-71.05828,42.35027]],[[-71.057658,42.35007],[-71.057616,42.350273],[-71.057592,42.350265],[-71.057631,42.350066],[-71.057658,42.35007]]],[[[-71.059357,42.349739],[-71.059179,42.349693],[-71.059105,42.349866],[-71.059283,42.349911],[-71.059357,42.349739]]],[[[-71.059168,42.351142],[-71.058633,42.351011],[-71.058362,42.351689],[-71.058688,42.351773],[-71.058876,42.351595],[-71.05899,42.351458],[-71.05912,42.351254],[-71.059168,42.351142]]],[[[-71.058853,42.349693],[-71.058831,42.349663],[-71.058649,42.349605],[-71.058688,42.349507],[-71.058476,42.349441],[-71.058493,42.349398],[-71.058424,42.349376],[-71.057926,42.349266],[-71.057859,42.349433],[-71.058002,42.349471],[-71.057962,42.349568],[-71.057872,42.349548],[-71.057853,42.349597],[-71.058134,42.349677],[-71.058488,42.349756],[-71.058501,42.349723],[-71.058594,42.349743],[-71.05862,42.349679],[-71.058813,42.349722],[-71.058853,42.349693]]],[[[-71.058595,42.35101],[-71.058104,42.350876],[-71.0581,42.350888],[-71.057558,42.350757],[-71.057527,42.350772],[-71.057378,42.351533],[-71.057557,42.351589],[-71.058312,42.351708],[-71.058595,42.35101]],[[-71.058037,42.351141],[-71.058018,42.351209],[-71.05792,42.351178],[-71.057925,42.351122],[-71.058037,42.351141]],[[-71.057978,42.351351],[-71.057972,42.351371],[-71.057931,42.351357],[-71.057978,42.351351]]],[[[-71.058427,42.348818],[-71.058071,42.348706],[-71.057613,42.348605],[-71.057529,42.348814],[-71.057885,42.348926],[-71.058344,42.349027],[-71.058427,42.348818]]],[[[-71.058343,42.351809],[-71.058331,42.351792],[-71.058103,42.35172],[-71.057885,42.351686],[-71.057881,42.351698],[-71.057355,42.351608],[-71.057334,42.351721],[-71.056813,42.351501],[-71.056294,42.351331],[-71.056079,42.351765],[-71.056367,42.351855],[-71.057454,42.352143],[-71.057464,42.352094],[-71.058171,42.352313],[-71.058343,42.351809]]],[[[-71.057484,42.350743],[-71.05694,42.350597],[-71.056815,42.350607],[-71.056678,42.350643],[-71.05656,42.350888],[-71.057015,42.351011],[-71.056992,42.35106],[-71.056543,42.350948],[-71.056401,42.351249],[-71.057108,42.351534],[-71.057272,42.351586],[-71.05732,42.351571],[-71.057484,42.350743]]],[[[-71.056941,42.349287],[-71.056908,42.349276],[-71.056915,42.349243],[-71.056596,42.349149],[-71.055622,42.349427],[-71.056817,42.347645],[-71.056807,42.347586],[-71.055908,42.347262],[-71.054533,42.349309],[-71.054519,42.349433],[-71.054447,42.34941],[-71.053477,42.350853],[-71.054397,42.35119],[-71.055281,42.349872],[-71.055025,42.350377],[-71.055318,42.350604],[-71.055439,42.350673],[-71.055692,42.350744],[-71.056294,42.350733],[-71.056378,42.350717],[-71.056457,42.350598],[-71.056467,42.35054],[-71.056574,42.350325],[-71.056775,42.349826],[-71.056871,42.349431],[-71.056941,42.349287]],[[-71.055351,42.349734],[-71.05535,42.349736],[-71.055294,42.349716],[-71.055351,42.349734]]],[[[-71.055984,42.351688],[-71.055498,42.351545],[-71.054479,42.351779],[-71.054307,42.351954],[-71.054833,42.352232],[-71.055209,42.352351],[-71.055377,42.352376],[-71.055554,42.352336],[-71.055674,42.352246],[-71.055765,42.352137],[-71.055984,42.351688]]]]},"properties":{"kind":"building"}},{"type":"Feature","geometry":{"type":"MultiPolygon","coordinates":[[[[-71.066193,42.353494],[-71.066182,42.353452],[-71.066151,42.353417],[-71.065912,42.353343],[-71.065809,42.353375],[-71.065777,42.35341],[-71.065766,42.353451],[-71.065777,42.353492],[-71.065809,42.353527],[-71.066047,42.353601],[-71.066151,42.35357],[-71.066182,42.353535],[-71.066193,42.353494]]],[[[-71.06617,42.352961],[-71.066156,42.352874],[-71.066125,42.352839],[-71.065942,42.352773],[-71.065845,42.352771],[-71.065746,42.352736],[-71.065769,42.352693],[-71.065748,42.352652],[-71.066066,42.352676],[-71.066107,42.352647],[-71.066112,42.352626],[-71.06609,42.352587],[-71.065976,42.352546],[-71.065898,42.352556],[-71.065688,42.352518],[-71.065619,42.352552],[-71.065628,42.352604],[-71.065401,42.352516],[-71.065321,42.352516],[-71.065265,42.352558],[-71.065257,42.352587],[-71.065288,42.352641],[-71.065436,42.352694],[-71.065499,42.352696],[-71.065628,42.35275],[-71.065612,42.352784],[-71.065525,42.352783],[-71.065472,42.352821],[-71.065472,42.352877],[-71.065524,42.352915],[-71.065481,42.352931],[-71.065463,42.35295],[-71.065463,42.352996],[-71.065408,42.353037],[-71.065408,42.353095],[-71.065446,42.353128],[-71.065375,42.353174],[-71.06537,42.353219],[-71.065269,42.353196],[-71.065277,42.353177],[-71.065264,42.353153],[-71.065182,42.353125],[-71.065133,42.353132],[-71.06512,42.353156],[-71.065133,42.35318],[-71.065205,42.353205],[-71.065193,42.353212],[-71.065069,42.35317],[-71.065063,42.353108],[-71.064992,42.353054],[-71.064957,42.352992],[-71.064745,42.352926],[-71.06466,42.352952],[-71.064634,42.352981],[-71.064625,42.353015],[-71.064656,42.353073],[-71.064658,42.353148],[-71.064758,42.353233],[-71.064859,42.353268],[-71.064906,42.353268],[-71.064937,42.353298],[-71.064835,42.353263],[-71.064769,42.353269],[-71.064659,42.353241],[-71.064581,42.353265],[-71.064549,42.353323],[-71.064581,42.353381],[-71.064779,42.353442],[-71.064821,42.353436],[-71.064881,42.353392],[-71.064947,42.353377],[-71.064967,42.35334],[-71.064949,42.353305],[-71.065138,42.353362],[-71.065162,42.353379],[-71.065081,42.353409],[-71.06505,42.353453],[-71.064946,42.353425],[-71.064895,42.353441],[-71.064875,42.353478],[-71.06488,42.353498],[-71.064919,42.353527],[-71.065007,42.353554],[-71.065085,42.353543],[-71.065251,42.353598],[-71.065359,42.353591],[-71.065455,42.353627],[-71.065431,42.353648],[-71.065431,42.353682],[-71.065525,42.353726],[-71.065509,42.353756],[-71.065526,42.353787],[-71.065622,42.35382],[-71.065667,42.35382],[-71.065698,42.353797],[-71.065698,42.353764],[-71.065611,42.353723],[-71.06563,42.35369],[-71.065612,42.353658],[-71.065687,42.353627],[-71.065718,42.353592],[-71.065729,42.353551],[-71.065718,42.353509],[-71.065687,42.353474],[-71.065513,42.353411],[-71.065546,42.353346],[-71.065538,42.353313],[-71.065639,42.353318],[-71.065742,42.353251],[-71.065788,42.353283],[-71.065894,42.353317],[-71.06593,42.353322],[-71.065997,42.353302],[-71.066017,42.353279],[-71.066017,42.353226],[-71.065951,42.353183],[-71.06598,42.353162],[-71.066069,42.353161],[-71.066108,42.353142],[-71.066144,42.353079],[-71.06612,42.353029],[-71.066161,42.352994],[-71.06617,42.352961]],[[-71.065772,42.352938],[-71.06572,42.352944],[-71.065754,42.352918],[-71.065772,42.352938]]],[[[-71.066132,42.354999],[-71.066112,42.354963],[-71.065978,42.354922],[-71.06593,42.354936],[-71.06591,42.354972],[-71.06593,42.355008],[-71.066063,42.355049],[-71.066112,42.355034],[-71.066132,42.354999]]],[[[-71.066082,42.35408],[-71.066058,42.354054],[-71.065981,42.354032],[-71.065945,42.35405],[-71.06587,42.354048],[-71.06584,42.354081],[-71.065855,42.354106],[-71.065932,42.354134],[-71.065931,42.354158],[-71.066004,42.354177],[-71.066017,42.354155],[-71.065975,42.354136],[-71.066007,42.354103],[-71.066058,42.354107],[-71.066082,42.35408]]],[[[-71.066,42.354511],[-71.065962,42.354443],[-71.065735,42.354372],[-71.065643,42.3544],[-71.065605,42.354468],[-71.065643,42.354536],[-71.06587,42.354607],[-71.065962,42.354578],[-71.066,42.354511]]],[[[-71.065913,42.348064],[-71.065894,42.34803],[-71.065765,42.34799],[-71.065719,42.348004],[-71.0657,42.348038],[-71.065719,42.348072],[-71.065848,42.348112],[-71.065894,42.348098],[-71.065913,42.348064]]],[[[-71.065865,42.348204],[-71.065849,42.348175],[-71.065735,42.348139],[-71.065696,42.348151],[-71.06568,42.34818],[-71.065696,42.348209],[-71.06581,42.348244],[-71.065849,42.348232],[-71.065865,42.348204]]],[[[-71.065833,42.353961],[-71.065803,42.353928],[-71.065715,42.353903],[-71.065681,42.353914],[-71.06567,42.353953],[-71.06563,42.353965],[-71.065615,42.35399],[-71.065645,42.354023],[-71.065734,42.354048],[-71.065768,42.354037],[-71.065779,42.353998],[-71.065819,42.353986],[-71.065833,42.353961]]],[[[-71.065816,42.34847],[-71.065799,42.34844],[-71.06568,42.348403],[-71.065639,42.348415],[-71.065622,42.348446],[-71.065639,42.348477],[-71.065757,42.348514],[-71.065799,42.348501],[-71.065816,42.34847]]],[[[-71.065813,42.354884],[-71.065804,42.354849],[-71.065737,42.3548],[-71.065444,42.354711],[-71.065397,42.354672],[-71.065232,42.354615],[-71.065182,42.354613],[-71.065165,42.354585],[-71.06505,42.354548],[-71.06507,42.354527],[-71.065129,42.354515],[-71.065147,42.354483],[-71.065129,42.354451],[-71.065029,42.354416],[-71.064869,42.354418],[-71.06474,42.354376],[-71.064616,42.354356],[-71.064582,42.354367],[-71.064567,42.354392],[-71.064597,42.354425],[-71.064592,42.354449],[-71.064507,42.354432],[-71.064453,42.354458],[-71.064466,42.354506],[-71.064538,42.354532],[-71.064554,42.354568],[-71.06465,42.354601],[-71.064714,42.354592],[-71.064726,42.354545],[-71.064816,42.354565],[-71.064892,42.354542],[-71.064994,42.354564],[-71.064984,42.354609],[-71.064905,42.354594],[-71.064841,42.354613],[-71.064814,42.354661],[-71.064821,42.354687],[-71.06487,42.354723],[-71.064974,42.354756],[-71.065044,42.354756],[-71.065071,42.354792],[-71.065159,42.354843],[-71.065371,42.35491],[-71.065452,42.354898],[-71.06569,42.354975],[-71.065777,42.354948],[-71.065813,42.354884]],[[-71.065134,42.354695],[-71.065099,42.354697],[-71.06508,42.354654],[-71.065121,42.354663],[-71.065134,42.354695]]],[[[-71.065764,42.348304],[-71.065717,42.348281],[-71.065693,42.348288],[-71.065738,42.348317],[-71.065764,42.348304]]],[[[-71.065672,42.353889],[-71.065657,42.353862],[-71.065568,42.353831],[-71.065492,42.35384],[-71.065502,42.353816],[-71.065482,42.35378],[-71.065374,42.353742],[-71.065322,42.353742],[-71.065285,42.35377],[-71.065285,42.353808],[-71.0653,42.353825],[-71.065386,42.353856],[-71.065399,42.353896],[-71.065492,42.353928],[-71.065534,42.353928],[-71.065559,42.353911],[-71.06564,42.353924],[-71.065672,42.353889]]],[[[-71.065632,42.348341],[-71.065614,42.348309],[-71.06549,42.34827],[-71.065446,42.348284],[-71.065428,42.348316],[-71.065446,42.348348],[-71.06557,42.348387],[-71.065614,42.348373],[-71.065632,42.348341]]],[[[-71.065631,42.348967],[-71.065587,42.348945],[-71.065563,42.348952],[-71.065606,42.34898],[-71.065631,42.348967]]],[[[-71.065629,42.351236],[-71.065577,42.351211],[-71.065553,42.351218],[-71.065563,42.351235],[-71.065604,42.351248],[-71.065629,42.351236]]],[[[-71.065619,42.349255],[-71.065605,42.349229],[-71.06551,42.3492],[-71.065476,42.349211],[-71.065461,42.349236],[-71.065476,42.349261],[-71.06557,42.349291],[-71.065605,42.34928],[-71.065619,42.349255]]],[[[-71.065595,42.349104],[-71.065551,42.349082],[-71.065527,42.349089],[-71.06557,42.349117],[-71.065595,42.349104]]],[[[-71.065584,42.348121],[-71.065537,42.348098],[-71.065513,42.348105],[-71.065558,42.348134],[-71.065584,42.348121]]],[[[-71.065531,42.348461],[-71.065469,42.34843],[-71.065439,42.34844],[-71.065451,42.348462],[-71.0655,42.348477],[-71.065531,42.348461]]],[[[-71.065493,42.348809],[-71.065479,42.348783],[-71.065384,42.348754],[-71.06535,42.348765],[-71.065335,42.34879],[-71.06535,42.348815],[-71.065444,42.348845],[-71.065479,42.348834],[-71.065493,42.348809]]],[[[-71.065463,42.353996],[-71.065444,42.353962],[-71.065363,42.353933],[-71.065362,42.3539],[-71.065329,42.353875],[-71.065225,42.353846],[-71.065168,42.353875],[-71.065168,42.353909],[-71.065256,42.353951],[-71.065255,42.353988],[-71.06529,42.354014],[-71.065398,42.354044],[-71.065444,42.35403],[-71.065463,42.353996]]],[[[-71.065455,42.348959],[-71.065433,42.348934],[-71.06536,42.348914],[-71.065324,42.34894],[-71.065346,42.348964],[-71.065419,42.348985],[-71.065455,42.348959]]],[[[-71.065448,42.349092],[-71.065418,42.349059],[-71.06533,42.349034],[-71.065296,42.349045],[-71.065281,42.34907],[-71.065311,42.349103],[-71.0654,42.349128],[-71.065434,42.349117],[-71.065448,42.349092]]],[[[-71.065406,42.351222],[-71.065357,42.351198],[-71.065333,42.351205],[-71.065381,42.351234],[-71.065406,42.351222]]],[[[-71.065394,42.353078],[-71.065374,42.353042],[-71.065301,42.353016],[-71.065333,42.352998],[-71.065324,42.352967],[-71.065254,42.352943],[-71.065215,42.352908],[-71.065245,42.352888],[-71.065236,42.352851],[-71.065277,42.352826],[-71.065277,42.352793],[-71.065168,42.352745],[-71.065105,42.352754],[-71.065088,42.352785],[-71.065105,42.352816],[-71.065081,42.352852],[-71.065094,42.352876],[-71.065032,42.352908],[-71.065032,42.352948],[-71.065071,42.352977],[-71.065159,42.353004],[-71.06524,42.353001],[-71.065192,42.353015],[-71.065172,42.353051],[-71.065214,42.353098],[-71.065325,42.353128],[-71.065374,42.353113],[-71.065394,42.353078]]],[[[-71.065326,42.354088],[-71.065309,42.354058],[-71.065239,42.354033],[-71.065239,42.353999],[-71.065204,42.353973],[-71.065096,42.353943],[-71.065036,42.353973],[-71.06505,42.354025],[-71.065134,42.354055],[-71.065136,42.354081],[-71.065168,42.354104],[-71.065267,42.354132],[-71.065309,42.354119],[-71.065326,42.354088]]],[[[-71.065304,42.351221],[-71.065257,42.351198],[-71.065233,42.351205],[-71.065278,42.351234],[-71.065304,42.351221]]],[[[-71.065227,42.350736],[-71.06516,42.350702],[-71.065126,42.350713],[-71.06514,42.350738],[-71.065191,42.350754],[-71.065227,42.350736]]],[[[-71.065218,42.352615],[-71.06519,42.352564],[-71.065012,42.352509],[-71.064943,42.35253],[-71.064915,42.352581],[-71.064943,42.352632],[-71.065121,42.352687],[-71.06519,42.352666],[-71.065218,42.352615]]],[[[-71.065202,42.3508],[-71.065135,42.350766],[-71.065101,42.350777],[-71.065115,42.350802],[-71.065166,42.350818],[-71.065202,42.3508]]],[[[-71.065177,42.354203],[-71.06516,42.354173],[-71.065041,42.354136],[-71.065,42.354148],[-71.064983,42.354179],[-71.065,42.35421],[-71.065118,42.354247],[-71.06516,42.354234],[-71.065177,42.354203]]],[[[-71.065175,42.350867],[-71.065117,42.35084],[-71.065092,42.350847],[-71.065103,42.350866],[-71.065148,42.350881],[-71.065175,42.350867]]],[[[-71.065058,42.354819],[-71.065042,42.35479],[-71.064928,42.354754],[-71.064889,42.354766],[-71.064873,42.354795],[-71.064889,42.354824],[-71.065003,42.354859],[-71.065042,42.354847],[-71.065058,42.354819]]],[[[-71.065031,42.35399],[-71.065007,42.353948],[-71.06483,42.353876],[-71.064588,42.3538],[-71.064478,42.353782],[-71.064527,42.353754],[-71.064527,42.353718],[-71.064561,42.353684],[-71.064561,42.353648],[-71.064526,42.353622],[-71.064418,42.353592],[-71.064358,42.353622],[-71.064358,42.353658],[-71.064319,42.35371],[-71.064332,42.353737],[-71.064284,42.353761],[-71.064284,42.353793],[-71.06433,42.35382],[-71.064258,42.353857],[-71.064258,42.353905],[-71.064238,42.353945],[-71.064262,42.353987],[-71.064415,42.354035],[-71.064472,42.354018],[-71.064518,42.353917],[-71.064546,42.353917],[-71.064526,42.353966],[-71.064552,42.354012],[-71.064682,42.354058],[-71.064812,42.354082],[-71.064863,42.354067],[-71.064882,42.354034],[-71.064981,42.354046],[-71.065007,42.354033],[-71.065031,42.35399]]],[[[-71.065027,42.354317],[-71.064995,42.354281],[-71.064903,42.354256],[-71.064866,42.354267],[-71.064851,42.354294],[-71.064883,42.354329],[-71.064975,42.354355],[-71.065012,42.354344],[-71.065027,42.354317]]],[[[-71.065025,42.355022],[-71.064995,42.354968],[-71.064807,42.354909],[-71.064734,42.354932],[-71.064703,42.354986],[-71.064734,42.35504],[-71.064921,42.355099],[-71.064995,42.355076],[-71.065025,42.355022]]],[[[-71.064984,42.354192],[-71.064954,42.354159],[-71.064866,42.354134],[-71.064832,42.354145],[-71.064817,42.35417],[-71.064847,42.354203],[-71.064936,42.354228],[-71.06497,42.354217],[-71.064984,42.354192]]],[[[-71.064982,42.351322],[-71.064933,42.351298],[-71.064909,42.351305],[-71.064957,42.351334],[-71.064982,42.351322]]],[[[-71.064893,42.348467],[-71.064846,42.348444],[-71.064822,42.348451],[-71.064867,42.34848],[-71.064893,42.348467]]],[[[-71.06485,42.35433],[-71.06483,42.354294],[-71.064696,42.354253],[-71.064648,42.354267],[-71.064628,42.354303],[-71.064648,42.354339],[-71.064781,42.35438],[-71.06483,42.354365],[-71.06485,42.35433]]],[[[-71.064843,42.353571],[-71.064814,42.353519],[-71.064631,42.353462],[-71.06456,42.353483],[-71.06453,42.353536],[-71.06456,42.353589],[-71.064743,42.353645],[-71.064814,42.353624],[-71.064843,42.353571]]],[[[-71.064775,42.354808],[-71.064728,42.354785],[-71.064704,42.354792],[-71.064749,42.354821],[-71.064775,42.354808]]],[[[-71.06475,42.354156],[-71.064719,42.3541],[-71.064526,42.35404],[-71.06445,42.354063],[-71.064295,42.354023],[-71.064238,42.354041],[-71.064214,42.354083],[-71.064238,42.354125],[-71.064264,42.354138],[-71.064391,42.354173],[-71.064438,42.354161],[-71.064485,42.354192],[-71.064643,42.354235],[-71.064719,42.354212],[-71.06475,42.354156]]],[[[-71.06466,42.351837],[-71.064613,42.351814],[-71.064589,42.351821],[-71.064634,42.35185],[-71.06466,42.351837]]],[[[-71.064657,42.348436],[-71.06461,42.348413],[-71.064586,42.34842],[-71.064631,42.348449],[-71.064657,42.348436]]],[[[-71.064618,42.354644],[-71.064603,42.354617],[-71.064538,42.354593],[-71.064535,42.35457],[-71.064504,42.354546],[-71.064404,42.354519],[-71.06435,42.354545],[-71.064363,42.354593],[-71.064442,42.354621],[-71.064474,42.354656],[-71.064566,42.354682],[-71.064603,42.354671],[-71.064618,42.354644]]],[[[-71.06461,42.352118],[-71.064552,42.352091],[-71.064527,42.352098],[-71.064538,42.352117],[-71.064583,42.352132],[-71.06461,42.352118]]],[[[-71.064606,42.352067],[-71.064557,42.352043],[-71.064533,42.35205],[-71.064581,42.352079],[-71.064606,42.352067]]],[[[-71.064584,42.352171],[-71.064537,42.352148],[-71.064513,42.352155],[-71.064558,42.352184],[-71.064584,42.352171]]],[[[-71.064545,42.354327],[-71.064534,42.354285],[-71.064503,42.35425],[-71.064341,42.354191],[-71.064297,42.35415],[-71.064178,42.354117],[-71.064109,42.354151],[-71.064109,42.354193],[-71.064148,42.354222],[-71.064088,42.354236],[-71.064069,42.35427],[-71.064088,42.354304],[-71.064128,42.35432],[-71.064161,42.35436],[-71.064399,42.354434],[-71.064503,42.354403],[-71.064534,42.354368],[-71.064545,42.354327]]],[[[-71.06453,42.354719],[-71.064514,42.35469],[-71.064439,42.354663],[-71.064425,42.354631],[-71.064316,42.354597],[-71.064308,42.354524],[-71.064277,42.354489],[-71.064202,42.354457],[-71.064207,42.354406],[-71.064163,42.354374],[-71.064067,42.354344],[-71.064005,42.354344],[-71.063961,42.354376],[-71.063968,42.35443],[-71.063903,42.354482],[-71.063892,42.354523],[-71.063903,42.354564],[-71.063982,42.354623],[-71.064173,42.354673],[-71.064267,42.354647],[-71.064347,42.354687],[-71.064361,42.354724],[-71.064454,42.354756],[-71.064496,42.354756],[-71.06453,42.354719]]],[[[-71.064472,42.34841],[-71.064425,42.348387],[-71.064401,42.348394],[-71.064446,42.348423],[-71.064472,42.34841]]],[[[-71.064462,42.354809],[-71.064442,42.354771],[-71.064342,42.354736],[-71.064308,42.354699],[-71.064212,42.354672],[-71.064161,42.354697],[-71.064161,42.354729],[-71.064236,42.354765],[-71.064237,42.354801],[-71.064276,42.35483],[-71.064391,42.354861],[-71.064442,42.354846],[-71.064462,42.354809]]],[[[-71.064274,42.350936],[-71.064227,42.350913],[-71.064203,42.35092],[-71.064248,42.350949],[-71.064274,42.350936]]],[[[-71.064257,42.348735],[-71.064195,42.348704],[-71.064165,42.348714],[-71.064177,42.348736],[-71.064226,42.348751],[-71.064257,42.348735]]],[[[-71.064212,42.348854],[-71.064157,42.348828],[-71.064133,42.348835],[-71.064143,42.348852],[-71.064186,42.348866],[-71.064212,42.348854]]],[[[-71.064184,42.350925],[-71.064137,42.350902],[-71.064011,42.350896],[-71.063934,42.350874],[-71.063895,42.350903],[-71.063919,42.35093],[-71.063996,42.350951],[-71.064032,42.350933],[-71.064106,42.350956],[-71.064184,42.350925]]],[[[-71.064132,42.353314],[-71.063929,42.353252],[-71.063899,42.353262],[-71.063911,42.353284],[-71.06396,42.353299],[-71.064106,42.353326],[-71.064132,42.353314]]],[[[-71.064095,42.353404],[-71.064037,42.353377],[-71.063893,42.353369],[-71.063903,42.353386],[-71.064003,42.353414],[-71.064083,42.353418],[-71.064095,42.353404]]],[[[-71.064061,42.354738],[-71.064036,42.354694],[-71.063878,42.354645],[-71.063818,42.354663],[-71.0638,42.354683],[-71.063799,42.354727],[-71.063772,42.354739],[-71.063749,42.35478],[-71.063772,42.354821],[-71.06392,42.354867],[-71.063975,42.35485],[-71.063995,42.354798],[-71.064036,42.354782],[-71.064061,42.354738]]],[[[-71.064042,42.353774],[-71.063987,42.353748],[-71.063963,42.353755],[-71.063973,42.353772],[-71.064016,42.353786],[-71.064042,42.353774]]],[[[-71.063979,42.353985],[-71.063969,42.353968],[-71.063902,42.353945],[-71.06386,42.353958],[-71.063867,42.353984],[-71.063934,42.354007],[-71.063959,42.354007],[-71.063979,42.353985]]],[[[-71.063961,42.348689],[-71.063903,42.348662],[-71.063878,42.348669],[-71.063889,42.348688],[-71.063934,42.348703],[-71.063961,42.348689]]],[[[-71.063941,42.348758],[-71.063879,42.348727],[-71.063849,42.348737],[-71.063861,42.348759],[-71.06391,42.348774],[-71.063941,42.348758]]],[[[-71.063925,42.348884],[-71.063867,42.348857],[-71.063842,42.348864],[-71.063853,42.348883],[-71.063898,42.348898],[-71.063925,42.348884]]],[[[-71.063909,42.348804],[-71.063862,42.348781],[-71.063838,42.348788],[-71.063883,42.348817],[-71.063909,42.348804]]],[[[-71.063867,42.354136],[-71.0638,42.354102],[-71.063766,42.354113],[-71.06378,42.354138],[-71.063831,42.354154],[-71.063867,42.354136]]],[[[-71.063857,42.349159],[-71.06381,42.349136],[-71.063786,42.349143],[-71.063831,42.349172],[-71.063857,42.349159]]],[[[-71.063844,42.348438],[-71.063797,42.348415],[-71.063773,42.348422],[-71.063818,42.348451],[-71.063844,42.348438]]],[[[-71.063804,42.349304],[-71.063757,42.349281],[-71.063733,42.349288],[-71.063778,42.349317],[-71.063804,42.349304]]],[[[-71.063791,42.349346],[-71.063744,42.349323],[-71.06372,42.34933],[-71.063765,42.349359],[-71.063791,42.349346]]],[[[-71.063764,42.350901],[-71.063754,42.350884],[-71.063687,42.350861],[-71.063645,42.350874],[-71.06352,42.350845],[-71.063496,42.350857],[-71.06351,42.350882],[-71.063561,42.350898],[-71.063731,42.350925],[-71.063764,42.350901]]],[[[-71.063754,42.348421],[-71.063707,42.348398],[-71.063683,42.348405],[-71.063728,42.348434],[-71.063754,42.348421]]],[[[-71.063735,42.349774],[-71.063677,42.349747],[-71.063652,42.349754],[-71.063663,42.349773],[-71.063708,42.349788],[-71.063735,42.349774]]],[[[-71.063676,42.349868],[-71.063621,42.349842],[-71.063597,42.349849],[-71.063607,42.349866],[-71.06365,42.34988],[-71.063676,42.349868]]],[[[-71.063629,42.354719],[-71.063615,42.354693],[-71.06352,42.354664],[-71.063486,42.354675],[-71.063471,42.3547],[-71.063486,42.354725],[-71.06358,42.354755],[-71.063615,42.354744],[-71.063629,42.354719]]],[[[-71.063625,42.349964],[-71.063567,42.349937],[-71.063542,42.349944],[-71.063553,42.349963],[-71.063598,42.349978],[-71.063625,42.349964]]],[[[-71.063592,42.350014],[-71.063537,42.349988],[-71.063513,42.349995],[-71.063523,42.350012],[-71.063566,42.350026],[-71.063592,42.350014]]],[[[-71.063569,42.354819],[-71.063555,42.354793],[-71.06346,42.354764],[-71.063426,42.354775],[-71.063411,42.3548],[-71.063426,42.354825],[-71.06352,42.354855],[-71.063555,42.354844],[-71.063569,42.354819]]],[[[-71.063502,42.350432],[-71.063447,42.350406],[-71.063423,42.350413],[-71.063433,42.35043],[-71.063476,42.350444],[-71.063502,42.350432]]],[[[-71.063499,42.350193],[-71.063447,42.350168],[-71.063423,42.350175],[-71.063433,42.350192],[-71.063474,42.350205],[-71.063499,42.350193]]],[[[-71.063475,42.3505],[-71.063423,42.350475],[-71.063399,42.350482],[-71.063409,42.350499],[-71.06345,42.350512],[-71.063475,42.3505]]],[[[-71.063469,42.350259],[-71.063417,42.350234],[-71.063393,42.350241],[-71.063403,42.350258],[-71.063444,42.350271],[-71.063469,42.350259]]],[[[-71.063444,42.350293],[-71.063392,42.350268],[-71.063368,42.350275],[-71.063378,42.350292],[-71.063419,42.350305],[-71.063444,42.350293]]],[[[-71.063441,42.350562],[-71.063392,42.350538],[-71.063368,42.350545],[-71.063416,42.350574],[-71.063441,42.350562]]],[[[-71.063437,42.350842],[-71.06337,42.350808],[-71.063336,42.350819],[-71.06335,42.350844],[-71.063401,42.35086],[-71.063437,42.350842]]],[[[-71.063437,42.350782],[-71.063365,42.350745],[-71.063325,42.350765],[-71.063397,42.350802],[-71.063437,42.350782]]],[[[-71.063415,42.350718],[-71.063357,42.350691],[-71.063332,42.350698],[-71.063343,42.350717],[-71.063388,42.350732],[-71.063415,42.350718]]],[[[-71.063406,42.350622],[-71.063357,42.350598],[-71.063333,42.350605],[-71.063381,42.350634],[-71.063406,42.350622]]],[[[-71.063366,42.350452],[-71.063317,42.350428],[-71.063293,42.350435],[-71.063341,42.350464],[-71.063366,42.350452]]],[[[-71.063339,42.350496],[-71.063287,42.350471],[-71.063263,42.350478],[-71.063273,42.350495],[-71.063314,42.350508],[-71.063339,42.350496]]],[[[-71.063314,42.350549],[-71.063262,42.350524],[-71.063238,42.350531],[-71.063248,42.350548],[-71.063289,42.350561],[-71.063314,42.350549]]],[[[-71.063292,42.350596],[-71.063237,42.35057],[-71.063213,42.350577],[-71.063223,42.350594],[-71.063266,42.350608],[-71.063292,42.350596]]],[[[-71.063272,42.350644],[-71.063217,42.350618],[-71.063193,42.350625],[-71.063203,42.350642],[-71.063246,42.350656],[-71.063272,42.350644]]],[[[-71.063231,42.350687],[-71.063187,42.350665],[-71.063163,42.350672],[-71.063206,42.3507],[-71.063231,42.350687]]],[[[-71.063219,42.35074],[-71.063167,42.350715],[-71.063143,42.350722],[-71.063153,42.350739],[-71.063194,42.350752],[-71.063219,42.35074]]],[[[-71.063195,42.350779],[-71.063137,42.350752],[-71.063112,42.350759],[-71.063123,42.350778],[-71.063168,42.350793],[-71.063195,42.350779]]],[[[-71.063182,42.35225],[-71.063133,42.352226],[-71.063109,42.352233],[-71.063157,42.352262],[-71.063182,42.35225]]],[[[-71.063121,42.352262],[-71.063072,42.352238],[-71.063048,42.352245],[-71.063096,42.352274],[-71.063121,42.352262]]],[[[-71.063021,42.352265],[-71.062959,42.35224],[-71.062952,42.35222],[-71.062887,42.352215],[-71.062897,42.352232],[-71.06295,42.352245],[-71.062958,42.352265],[-71.06301,42.352277],[-71.063021,42.352265]]],[[[-71.062886,42.352227],[-71.062837,42.352203],[-71.062813,42.35221],[-71.062861,42.352239],[-71.062886,42.352227]]],[[[-71.062875,42.353316],[-71.062817,42.353289],[-71.062719,42.3533],[-71.062731,42.353322],[-71.06278,42.353337],[-71.062863,42.35333],[-71.062875,42.353316]]],[[[-71.062875,42.353228],[-71.062817,42.353201],[-71.062726,42.353201],[-71.062737,42.35322],[-71.062782,42.353235],[-71.062863,42.353242],[-71.062875,42.353228]]],[[[-71.062613,42.348371],[-71.062541,42.348334],[-71.062501,42.348354],[-71.062573,42.348391],[-71.062613,42.348371]]],[[[-71.062561,42.349393],[-71.062548,42.349371],[-71.062456,42.349342],[-71.06243,42.349314],[-71.06235,42.349292],[-71.062311,42.349311],[-71.06232,42.349345],[-71.062412,42.349374],[-71.062438,42.349402],[-71.062518,42.349424],[-71.062548,42.349415],[-71.062561,42.349393]]],[[[-71.062511,42.348572],[-71.062449,42.348541],[-71.062419,42.348551],[-71.062431,42.348573],[-71.06248,42.348588],[-71.062511,42.348572]]],[[[-71.062471,42.348392],[-71.062447,42.348366],[-71.06237,42.348344],[-71.062331,42.348373],[-71.062355,42.3484],[-71.062432,42.348421],[-71.062471,42.348392]]],[[[-71.062085,42.353766],[-71.062027,42.353739],[-71.062002,42.353746],[-71.062013,42.353765],[-71.062058,42.35378],[-71.062085,42.353766]]],[[[-71.062042,42.349317],[-71.061995,42.349294],[-71.061971,42.349301],[-71.062016,42.34933],[-71.062042,42.349317]]],[[[-71.062024,42.353871],[-71.061977,42.353848],[-71.061953,42.353855],[-71.061998,42.353884],[-71.062024,42.353871]]],[[[-71.062001,42.349567],[-71.061987,42.349541],[-71.061892,42.349512],[-71.061858,42.349523],[-71.061843,42.349548],[-71.061858,42.349573],[-71.061952,42.349603],[-71.061987,42.349592],[-71.062001,42.349567]]],[[[-71.061987,42.349449],[-71.06194,42.349426],[-71.061916,42.349433],[-71.061961,42.349462],[-71.061987,42.349449]]],[[[-71.06197,42.353714],[-71.061912,42.353687],[-71.061887,42.353694],[-71.061898,42.353713],[-71.061943,42.353728],[-71.06197,42.353714]]],[[[-71.061964,42.349891],[-71.061917,42.349868],[-71.061893,42.349875],[-71.061938,42.349904],[-71.061964,42.349891]]],[[[-71.061955,42.353839],[-71.061897,42.353812],[-71.061872,42.353819],[-71.061883,42.353838],[-71.061928,42.353853],[-71.061955,42.353839]]],[[[-71.061934,42.349937],[-71.061887,42.349914],[-71.061863,42.349921],[-71.061908,42.34995],[-71.061934,42.349937]]],[[[-71.061928,42.350011],[-71.061881,42.349988],[-71.061857,42.349995],[-71.061902,42.350024],[-71.061928,42.350011]]],[[[-71.061918,42.348333],[-71.06189,42.348302],[-71.061806,42.348278],[-71.061774,42.348288],[-71.061761,42.348312],[-71.061789,42.348343],[-71.061873,42.348367],[-71.061905,42.348357],[-71.061918,42.348333]]],[[[-71.061904,42.350055],[-71.061857,42.350032],[-71.061833,42.350039],[-71.061878,42.350068],[-71.061904,42.350055]]],[[[-71.061874,42.350091],[-71.061827,42.350068],[-71.061803,42.350075],[-71.061848,42.350104],[-71.061874,42.350091]]],[[[-71.061871,42.353667],[-71.061815,42.35364],[-71.061815,42.353612],[-71.061789,42.353593],[-71.06171,42.353571],[-71.061665,42.353593],[-71.061665,42.353621],[-71.061691,42.35364],[-71.061844,42.353681],[-71.061871,42.353667]]],[[[-71.061864,42.353794],[-71.061817,42.353771],[-71.061793,42.353778],[-71.061838,42.353807],[-71.061864,42.353794]]],[[[-71.061857,42.350165],[-71.061813,42.350143],[-71.061789,42.35015],[-71.061832,42.350178],[-71.061857,42.350165]]],[[[-71.061851,42.350311],[-71.061827,42.350285],[-71.061735,42.350265],[-71.061711,42.350292],[-71.061722,42.350312],[-71.061688,42.350322],[-71.061675,42.350346],[-71.061703,42.350377],[-71.061804,42.350398],[-71.061829,42.35038],[-71.061819,42.350343],[-71.061851,42.350311]]],[[[-71.061834,42.350211],[-71.061787,42.350188],[-71.061763,42.350195],[-71.061808,42.350224],[-71.061834,42.350211]]],[[[-71.061826,42.349685],[-71.061812,42.349659],[-71.061717,42.34963],[-71.061683,42.349641],[-71.061668,42.349666],[-71.061683,42.349691],[-71.061777,42.349721],[-71.061812,42.34971],[-71.061826,42.349685]]],[[[-71.061806,42.348432],[-71.061759,42.348409],[-71.061735,42.348416],[-71.06178,42.348445],[-71.061806,42.348432]]],[[[-71.061783,42.353749],[-71.061736,42.353726],[-71.061712,42.353733],[-71.061757,42.353762],[-71.061783,42.353749]]],[[[-71.061757,42.348668],[-71.06173,42.348639],[-71.06165,42.348617],[-71.061611,42.348636],[-71.061611,42.34866],[-71.06152,42.348636],[-71.061488,42.348646],[-71.061475,42.34867],[-71.061503,42.348701],[-71.061587,42.348725],[-71.061619,42.348715],[-71.061629,42.348678],[-71.061714,42.348699],[-71.061744,42.34869],[-71.061757,42.348668]]],[[[-71.06172,42.348321],[-71.061704,42.348292],[-71.06159,42.348256],[-71.061551,42.348268],[-71.061535,42.348297],[-71.061551,42.348326],[-71.061665,42.348361],[-71.061704,42.348349],[-71.06172,42.348321]]],[[[-71.061669,42.353563],[-71.061617,42.353538],[-71.061593,42.353545],[-71.061603,42.353562],[-71.061644,42.353575],[-71.061669,42.353563]]],[[[-71.061646,42.348848],[-71.061599,42.348825],[-71.061575,42.348832],[-71.06162,42.348861],[-71.061646,42.348848]]],[[[-71.061644,42.348511],[-71.061597,42.348488],[-71.061573,42.348495],[-71.061618,42.348524],[-71.061644,42.348511]]],[[[-71.061638,42.348197],[-71.061586,42.348172],[-71.061562,42.348179],[-71.061572,42.348196],[-71.061613,42.348209],[-71.061638,42.348197]]],[[[-71.061608,42.349587],[-71.061578,42.349554],[-71.06142,42.349501],[-71.061367,42.349509],[-71.061352,42.349534],[-71.061382,42.349567],[-71.061541,42.34962],[-71.061578,42.34962],[-71.061608,42.349587]]],[[[-71.061567,42.348874],[-71.06154,42.348845],[-71.06146,42.348823],[-71.06143,42.348832],[-71.061418,42.348854],[-71.061444,42.348883],[-71.061524,42.348905],[-71.061554,42.348896],[-71.061567,42.348874]]],[[[-71.061552,42.348175],[-71.061534,42.348143],[-71.06141,42.348104],[-71.061366,42.348118],[-71.061348,42.34815],[-71.061366,42.348182],[-71.06149,42.348221],[-71.061534,42.348207],[-71.061552,42.348175]]],[[[-71.061541,42.350965],[-71.061479,42.350934],[-71.061449,42.350944],[-71.061461,42.350966],[-71.06151,42.350981],[-71.061541,42.350965]]],[[[-71.061509,42.348266],[-71.061499,42.348249],[-71.061432,42.348226],[-71.06139,42.348239],[-71.061397,42.348265],[-71.061464,42.348288],[-71.061489,42.348288],[-71.061509,42.348266]]],[[[-71.061479,42.349268],[-71.061427,42.349243],[-71.061403,42.34925],[-71.061413,42.349267],[-71.061454,42.34928],[-71.061479,42.349268]]],[[[-71.061454,42.351133],[-71.061407,42.35111],[-71.061383,42.351117],[-71.061428,42.351146],[-71.061454,42.351133]]],[[[-71.061445,42.349066],[-71.061387,42.349039],[-71.061362,42.349046],[-71.061373,42.349065],[-71.061418,42.34908],[-71.061445,42.349066]]],[[[-71.061433,42.351191],[-71.061386,42.351168],[-71.061362,42.351175],[-71.061407,42.351204],[-71.061433,42.351191]]],[[[-71.061407,42.351251],[-71.06136,42.351228],[-71.061336,42.351235],[-71.061381,42.351264],[-71.061407,42.351251]]],[[[-71.061404,42.349441],[-71.061357,42.349418],[-71.061333,42.349425],[-71.061378,42.349454],[-71.061404,42.349441]]],[[[-71.061403,42.349245],[-71.061331,42.349208],[-71.061291,42.349228],[-71.061363,42.349265],[-71.061403,42.349245]]],[[[-71.061388,42.3513],[-71.061341,42.351277],[-71.061317,42.351284],[-71.061362,42.351313],[-71.061388,42.3513]]],[[[-71.06132,42.349642],[-71.061271,42.349618],[-71.061247,42.349625],[-71.061295,42.349654],[-71.06132,42.349642]]],[[[-71.061299,42.34969],[-71.06125,42.349666],[-71.061226,42.349673],[-71.061274,42.349702],[-71.061299,42.34969]]],[[[-71.061287,42.34985],[-71.06126,42.349821],[-71.06118,42.349799],[-71.06115,42.349808],[-71.061138,42.34983],[-71.061164,42.349859],[-71.061244,42.349881],[-71.061274,42.349872],[-71.061287,42.34985]]],[[[-71.06128,42.353381],[-71.061168,42.353322],[-71.061103,42.353315],[-71.061113,42.353332],[-71.061219,42.353382],[-71.061268,42.353394],[-71.06128,42.353381]]],[[[-71.061274,42.354785],[-71.061227,42.354762],[-71.061203,42.354769],[-71.061248,42.354798],[-71.061274,42.354785]]],[[[-71.061228,42.350053],[-71.061196,42.350017],[-71.061104,42.349992],[-71.061067,42.350003],[-71.061052,42.35003],[-71.061084,42.350065],[-71.061176,42.350091],[-71.061213,42.35008],[-71.061228,42.350053]]],[[[-71.061224,42.354927],[-71.061177,42.354904],[-71.061153,42.354911],[-71.061198,42.35494],[-71.061224,42.354927]]],[[[-71.061104,42.348625],[-71.061072,42.348589],[-71.06098,42.348564],[-71.060943,42.348575],[-71.060928,42.348602],[-71.06096,42.348637],[-71.061052,42.348663],[-71.061089,42.348652],[-71.061104,42.348625]]],[[[-71.061089,42.353288],[-71.061037,42.353263],[-71.061013,42.35327],[-71.061023,42.353287],[-71.061064,42.3533],[-71.061089,42.353288]]],[[[-71.06108,42.348741],[-71.061064,42.348712],[-71.06095,42.348676],[-71.060911,42.348688],[-71.060895,42.348717],[-71.060911,42.348746],[-71.061025,42.348781],[-71.061064,42.348769],[-71.06108,42.348741]]],[[[-71.061074,42.348501],[-71.061027,42.348478],[-71.061003,42.348485],[-71.061048,42.348514],[-71.061074,42.348501]]],[[[-71.061024,42.353374],[-71.060977,42.353351],[-71.060953,42.353358],[-71.060998,42.353387],[-71.061024,42.353374]]],[[[-71.061007,42.348847],[-71.06098,42.348818],[-71.0609,42.348796],[-71.06087,42.348805],[-71.060858,42.348827],[-71.060884,42.348856],[-71.060964,42.348878],[-71.060994,42.348869],[-71.061007,42.348847]]],[[[-71.060974,42.353231],[-71.060927,42.353208],[-71.060903,42.353215],[-71.060948,42.353244],[-71.060974,42.353231]]],[[[-71.060961,42.353342],[-71.060851,42.35329],[-71.060827,42.353297],[-71.060837,42.353314],[-71.060936,42.353354],[-71.060961,42.353342]]],[[[-71.060935,42.349202],[-71.060915,42.349164],[-71.060776,42.349121],[-71.060725,42.349137],[-71.060705,42.349174],[-71.060725,42.349211],[-71.060864,42.349254],[-71.060915,42.349239],[-71.060935,42.349202]]],[[[-71.060793,42.349409],[-71.060779,42.349383],[-71.060684,42.349354],[-71.06065,42.349365],[-71.060635,42.34939],[-71.06065,42.349415],[-71.060744,42.349445],[-71.060779,42.349434],[-71.060793,42.349409]]],[[[-71.060764,42.349528],[-71.060734,42.349495],[-71.060646,42.34947],[-71.060612,42.349481],[-71.060597,42.349506],[-71.060627,42.349539],[-71.060716,42.349564],[-71.06075,42.349553],[-71.060764,42.349528]]],[[[-71.060678,42.349692],[-71.060664,42.349666],[-71.060579,42.349637],[-71.060453,42.349635],[-71.060463,42.349652],[-71.060512,42.349664],[-71.060526,42.349695],[-71.060611,42.349725],[-71.060648,42.349725],[-71.060678,42.349692]]],[[[-71.060664,42.349271],[-71.060617,42.349248],[-71.060593,42.349255],[-71.060638,42.349284],[-71.060664,42.349271]]],[[[-71.060654,42.349815],[-71.060622,42.349779],[-71.06053,42.349754],[-71.060493,42.349765],[-71.060478,42.349792],[-71.06051,42.349827],[-71.060602,42.349853],[-71.060639,42.349842],[-71.060654,42.349815]]],[[[-71.060644,42.349311],[-71.060597,42.349288],[-71.060573,42.349295],[-71.060618,42.349324],[-71.060644,42.349311]]],[[[-71.060634,42.353051],[-71.060587,42.353028],[-71.060563,42.353035],[-71.060608,42.353064],[-71.060634,42.353051]]],[[[-71.060624,42.349353],[-71.060577,42.34933],[-71.060553,42.349337],[-71.060598,42.349366],[-71.060624,42.349353]]],[[[-71.060594,42.349418],[-71.060547,42.349395],[-71.060523,42.349402],[-71.060568,42.349431],[-71.060594,42.349418]]],[[[-71.060586,42.349465],[-71.060537,42.349441],[-71.060513,42.349448],[-71.060561,42.349477],[-71.060586,42.349465]]],[[[-71.060576,42.349515],[-71.060527,42.349491],[-71.060503,42.349498],[-71.060551,42.349527],[-71.060576,42.349515]]],[[[-71.060554,42.353008],[-71.060457,42.352962],[-71.060433,42.352969],[-71.060443,42.352986],[-71.060528,42.353021],[-71.060554,42.353008]]],[[[-71.060546,42.353295],[-71.060497,42.353271],[-71.060473,42.353278],[-71.060521,42.353307],[-71.060546,42.353295]]],[[[-71.06054,42.353161],[-71.060493,42.353138],[-71.060469,42.353145],[-71.060514,42.353174],[-71.06054,42.353161]]],[[[-71.06054,42.349611],[-71.060493,42.349588],[-71.060469,42.349595],[-71.060514,42.349624],[-71.06054,42.349611]]],[[[-71.06054,42.349567],[-71.060493,42.349544],[-71.060469,42.349551],[-71.060514,42.34958],[-71.06054,42.349567]]],[[[-71.060481,42.353424],[-71.060452,42.353386],[-71.060407,42.353368],[-71.060352,42.353385],[-71.060341,42.353405],[-71.060365,42.353432],[-71.060442,42.353453],[-71.060481,42.353424]]],[[[-71.060464,42.353111],[-71.060398,42.353069],[-71.060339,42.353065],[-71.060403,42.353112],[-71.060452,42.353124],[-71.060464,42.353111]]],[[[-71.060426,42.349896],[-71.060377,42.349872],[-71.060353,42.349879],[-71.060401,42.349908],[-71.060426,42.349896]]],[[[-71.060394,42.353458],[-71.060347,42.353435],[-71.060323,42.353442],[-71.060368,42.353471],[-71.060394,42.353458]]],[[[-71.060374,42.350169],[-71.06036,42.350143],[-71.060322,42.350129],[-71.060332,42.350111],[-71.060287,42.350093],[-71.060231,42.350125],[-71.060216,42.35015],[-71.060231,42.350175],[-71.060325,42.350205],[-71.06036,42.350194],[-71.060374,42.350169]]],[[[-71.060354,42.350048],[-71.060307,42.350025],[-71.060283,42.350032],[-71.060328,42.350061],[-71.060354,42.350048]]],[[[-71.060236,42.349489],[-71.060212,42.349463],[-71.060135,42.349441],[-71.060096,42.34947],[-71.06012,42.349497],[-71.060197,42.349518],[-71.060236,42.349489]]],[[[-71.060194,42.352973],[-71.060147,42.35295],[-71.060123,42.352957],[-71.060168,42.352986],[-71.060194,42.352973]]],[[[-71.060173,42.349573],[-71.060101,42.349536],[-71.060061,42.349556],[-71.060133,42.349593],[-71.060173,42.349573]]],[[[-71.060172,42.353431],[-71.060144,42.3534],[-71.06006,42.353376],[-71.060028,42.353386],[-71.060015,42.35341],[-71.060043,42.353441],[-71.060127,42.353465],[-71.060159,42.353455],[-71.060172,42.353431]]],[[[-71.060145,42.349663],[-71.060123,42.349638],[-71.06005,42.349618],[-71.060014,42.349644],[-71.060036,42.349668],[-71.060109,42.349689],[-71.060145,42.349663]]],[[[-71.060037,42.351064],[-71.06001,42.351035],[-71.05993,42.351013],[-71.0599,42.351022],[-71.059888,42.351044],[-71.059914,42.351073],[-71.059994,42.351095],[-71.060024,42.351086],[-71.060037,42.351064]]],[[[-71.059952,42.351151],[-71.059885,42.351117],[-71.059851,42.351128],[-71.059865,42.351153],[-71.059916,42.351169],[-71.059952,42.351151]]],[[[-71.059894,42.353311],[-71.059879,42.353297],[-71.059883,42.353268],[-71.05986,42.353251],[-71.05978,42.353229],[-71.059741,42.353248],[-71.059741,42.353272],[-71.059764,42.353289],[-71.059868,42.353324],[-71.059894,42.353311]]],[[[-71.059796,42.352765],[-71.059677,42.352725],[-71.059599,42.352725],[-71.059647,42.352754],[-71.059771,42.352777],[-71.059796,42.352765]]],[[[-71.059723,42.354971],[-71.059619,42.354886],[-71.05955,42.354866],[-71.05952,42.354881],[-71.059527,42.354907],[-71.059629,42.354974],[-71.059694,42.354992],[-71.059723,42.354971]]],[[[-71.059709,42.351729],[-71.059695,42.351703],[-71.0596,42.351674],[-71.059507,42.351704],[-71.059518,42.351723],[-71.05966,42.351765],[-71.059695,42.351754],[-71.059709,42.351729]]],[[[-71.059649,42.352802],[-71.059635,42.352776],[-71.05954,42.352747],[-71.059506,42.352758],[-71.059491,42.352783],[-71.059506,42.352808],[-71.0596,42.352838],[-71.059635,42.352827],[-71.059649,42.352802]]],[[[-71.059619,42.351618],[-71.059609,42.351601],[-71.059542,42.351578],[-71.0595,42.351591],[-71.059507,42.351617],[-71.059574,42.35164],[-71.059599,42.35164],[-71.059619,42.351618]]],[[[-71.059554,42.351108],[-71.059507,42.351085],[-71.059483,42.351092],[-71.059528,42.351121],[-71.059554,42.351108]]],[[[-71.059539,42.354831],[-71.059453,42.354765],[-71.059448,42.354733],[-71.059364,42.354707],[-71.059331,42.354723],[-71.059331,42.354743],[-71.059371,42.354764],[-71.059377,42.354791],[-71.059419,42.354806],[-71.059427,42.35483],[-71.059506,42.354855],[-71.059539,42.354831]]],[[[-71.059514,42.351181],[-71.059467,42.351158],[-71.059443,42.351165],[-71.059488,42.351194],[-71.059514,42.351181]]],[[[-71.059507,42.351643],[-71.05944,42.351609],[-71.059406,42.35162],[-71.05942,42.351645],[-71.059471,42.351661],[-71.059507,42.351643]]],[[[-71.059464,42.353111],[-71.059417,42.353088],[-71.059393,42.353095],[-71.059438,42.353124],[-71.059464,42.353111]]],[[[-71.059454,42.353021],[-71.059407,42.352998],[-71.059383,42.353005],[-71.059428,42.353034],[-71.059454,42.353021]]],[[[-71.059435,42.351719],[-71.059373,42.351688],[-71.059343,42.351698],[-71.059355,42.35172],[-71.059404,42.351735],[-71.059435,42.351719]]],[[[-71.059371,42.351795],[-71.059309,42.351764],[-71.059279,42.351774],[-71.059291,42.351796],[-71.05934,42.351811],[-71.059371,42.351795]]],[[[-71.059288,42.351312],[-71.059274,42.351286],[-71.059223,42.351268],[-71.059225,42.351238],[-71.059198,42.351219],[-71.05911,42.351194],[-71.059065,42.351216],[-71.059065,42.351244],[-71.059127,42.351274],[-71.059125,42.351304],[-71.05915,42.351322],[-71.059095,42.351343],[-71.059095,42.351371],[-71.059121,42.35139],[-71.059228,42.351412],[-71.059258,42.351379],[-71.05923,42.351346],[-71.059274,42.351337],[-71.059288,42.351312]]],[[[-71.05922,42.353305],[-71.059173,42.353282],[-71.059149,42.353289],[-71.059194,42.353318],[-71.05922,42.353305]]],[[[-71.059149,42.354403],[-71.059139,42.354386],[-71.059072,42.354363],[-71.05903,42.354376],[-71.059037,42.354402],[-71.059104,42.354425],[-71.059129,42.354425],[-71.059149,42.354403]]],[[[-71.059134,42.351471],[-71.059087,42.351448],[-71.059063,42.351455],[-71.059108,42.351484],[-71.059134,42.351471]]],[[[-71.059124,42.353298],[-71.059077,42.353275],[-71.059053,42.353282],[-71.059098,42.353311],[-71.059124,42.353298]]],[[[-71.059117,42.351533],[-71.05905,42.351499],[-71.059016,42.35151],[-71.05903,42.351535],[-71.059081,42.351551],[-71.059117,42.351533]]],[[[-71.059065,42.351623],[-71.059043,42.351598],[-71.05897,42.351578],[-71.058934,42.351604],[-71.058956,42.351628],[-71.059029,42.351649],[-71.059065,42.351623]]],[[[-71.059054,42.354343],[-71.059007,42.35432],[-71.058983,42.354327],[-71.059028,42.354356],[-71.059054,42.354343]]],[[[-71.059034,42.353294],[-71.058987,42.353271],[-71.058963,42.353278],[-71.059008,42.353307],[-71.059034,42.353294]]],[[[-71.059005,42.354304],[-71.058947,42.354277],[-71.058922,42.354284],[-71.058933,42.354303],[-71.058978,42.354318],[-71.059005,42.354304]]],[[[-71.058989,42.351659],[-71.058937,42.351634],[-71.058913,42.351641],[-71.058923,42.351658],[-71.058964,42.351671],[-71.058989,42.351659]]],[[[-71.058979,42.351708],[-71.058969,42.351691],[-71.058902,42.351668],[-71.05886,42.351681],[-71.058867,42.351707],[-71.058934,42.35173],[-71.058959,42.35173],[-71.058979,42.351708]]],[[[-71.058945,42.351757],[-71.058923,42.351732],[-71.05885,42.351712],[-71.058814,42.351738],[-71.058836,42.351762],[-71.058909,42.351783],[-71.058945,42.351757]]],[[[-71.0589,42.353279],[-71.058853,42.353256],[-71.058829,42.353263],[-71.058874,42.353292],[-71.0589,42.353279]]],[[[-71.058895,42.351799],[-71.058873,42.351774],[-71.0588,42.351754],[-71.058764,42.35178],[-71.058786,42.351804],[-71.058859,42.351825],[-71.058895,42.351799]]],[[[-71.058817,42.351864],[-71.058815,42.351833],[-71.058767,42.351814],[-71.058701,42.351818],[-71.058677,42.351845],[-71.058701,42.351872],[-71.058778,42.351893],[-71.058817,42.351864]]],[[[-71.058794,42.353279],[-71.058747,42.353256],[-71.058723,42.353263],[-71.058768,42.353292],[-71.058794,42.353279]]],[[[-71.058749,42.351924],[-71.058729,42.351902],[-71.05866,42.351882],[-71.058597,42.35193],[-71.058677,42.351961],[-71.05869,42.351942],[-71.058729,42.351946],[-71.058749,42.351924]]],[[[-71.05866,42.352021],[-71.058622,42.351966],[-71.058509,42.351959],[-71.058451,42.352018],[-71.058451,42.352042],[-71.058397,42.35205],[-71.058398,42.352087],[-71.058363,42.352085],[-71.058353,42.352102],[-71.058401,42.352121],[-71.058524,42.352126],[-71.058549,42.352108],[-71.058549,42.352082],[-71.058644,42.352049],[-71.05866,42.352021]]],[[[-71.058604,42.352541],[-71.058557,42.352518],[-71.058473,42.352519],[-71.058518,42.352548],[-71.058592,42.352554],[-71.058604,42.352541]]],[[[-71.058545,42.352494],[-71.058487,42.352467],[-71.058462,42.352474],[-71.058473,42.352493],[-71.058518,42.352508],[-71.058545,42.352494]]],[[[-71.058466,42.35254],[-71.058417,42.352516],[-71.058393,42.352523],[-71.058441,42.352552],[-71.058466,42.35254]]],[[[-71.058424,42.352481],[-71.058377,42.352458],[-71.058353,42.352465],[-71.058398,42.352494],[-71.058424,42.352481]]],[[[-71.058384,42.352531],[-71.058337,42.352508],[-71.058313,42.352515],[-71.058358,42.352544],[-71.058384,42.352531]]],[[[-71.058324,42.350921],[-71.058277,42.350898],[-71.058253,42.350905],[-71.058298,42.350934],[-71.058324,42.350921]]],[[[-71.058314,42.352478],[-71.058267,42.352455],[-71.058243,42.352462],[-71.058288,42.352491],[-71.058314,42.352478]]],[[[-71.058304,42.352523],[-71.058257,42.3525],[-71.058233,42.352507],[-71.058278,42.352536],[-71.058304,42.352523]]],[[[-71.058254,42.350898],[-71.058207,42.350875],[-71.058183,42.350882],[-71.058228,42.350911],[-71.058254,42.350898]]],[[[-71.058074,42.352676],[-71.058027,42.352653],[-71.058003,42.35266],[-71.058048,42.352689],[-71.058074,42.352676]]],[[[-71.058068,42.352779],[-71.058021,42.352756],[-71.057997,42.352763],[-71.058042,42.352792],[-71.058068,42.352779]]],[[[-71.058044,42.352916],[-71.057997,42.352893],[-71.057973,42.3529],[-71.058018,42.352929],[-71.058044,42.352916]]],[[[-71.057839,42.350704],[-71.057747,42.350665],[-71.057723,42.350672],[-71.057733,42.350689],[-71.057813,42.350717],[-71.057839,42.350704]]],[[[-71.057801,42.352242],[-71.057734,42.352208],[-71.0577,42.352219],[-71.057714,42.352244],[-71.057765,42.35226],[-71.057801,42.352242]]],[[[-71.057677,42.352207],[-71.057659,42.352187],[-71.057351,42.35209],[-71.057311,42.35211],[-71.057329,42.35213],[-71.057637,42.352227],[-71.057677,42.352207]]],[[[-71.05745,42.350414],[-71.057403,42.350391],[-71.057379,42.350398],[-71.057424,42.350427],[-71.05745,42.350414]]],[[[-71.057434,42.350505],[-71.057387,42.350482],[-71.057363,42.350489],[-71.057408,42.350518],[-71.057434,42.350505]]],[[[-71.057386,42.351719],[-71.057337,42.351695],[-71.057313,42.351702],[-71.057361,42.351731],[-71.057386,42.351719]]],[[[-71.057374,42.351761],[-71.057327,42.351738],[-71.057303,42.351745],[-71.057348,42.351774],[-71.057374,42.351761]]],[[[-71.057345,42.351908],[-71.057298,42.351885],[-71.057274,42.351892],[-71.057319,42.351921],[-71.057345,42.351908]]],[[[-71.057339,42.350938],[-71.057287,42.350913],[-71.057263,42.35092],[-71.057273,42.350937],[-71.057314,42.35095],[-71.057339,42.350938]]],[[[-71.057331,42.351965],[-71.057287,42.351943],[-71.057263,42.35195],[-71.057306,42.351978],[-71.057331,42.351965]]],[[[-71.057309,42.351076],[-71.057257,42.351051],[-71.057233,42.351058],[-71.057243,42.351075],[-71.057284,42.351088],[-71.057309,42.351076]]],[[[-71.057244,42.351421],[-71.057197,42.351398],[-71.057173,42.351405],[-71.057218,42.351434],[-71.057244,42.351421]]],[[[-71.057234,42.350561],[-71.057187,42.350538],[-71.057163,42.350545],[-71.057208,42.350574],[-71.057234,42.350561]]],[[[-71.057183,42.350643],[-71.057136,42.35062],[-71.057112,42.350627],[-71.057157,42.350656],[-71.057183,42.350643]]],[[[-71.05713,42.350544],[-71.057083,42.350521],[-71.057059,42.350528],[-71.057104,42.350557],[-71.05713,42.350544]]],[[[-71.057079,42.349921],[-71.057069,42.349904],[-71.057002,42.349881],[-71.05696,42.349894],[-71.056967,42.34992],[-71.057034,42.349943],[-71.057059,42.349943],[-71.057079,42.349921]]],[[[-71.057074,42.349851],[-71.057027,42.349828],[-71.057003,42.349835],[-71.057048,42.349864],[-71.057074,42.349851]]],[[[-71.056912,42.352042],[-71.056857,42.352016],[-71.056833,42.352023],[-71.056843,42.35204],[-71.056886,42.352054],[-71.056912,42.352042]]],[[[-71.056891,42.349779],[-71.056867,42.349753],[-71.05679,42.349731],[-71.056751,42.34976],[-71.056775,42.349787],[-71.056852,42.349808],[-71.056891,42.349779]]],[[[-71.05687,42.350241],[-71.056823,42.350218],[-71.056799,42.350225],[-71.056844,42.350254],[-71.05687,42.350241]]],[[[-71.056849,42.349858],[-71.056839,42.349841],[-71.056772,42.349818],[-71.05673,42.349831],[-71.056737,42.349857],[-71.056804,42.34988],[-71.056829,42.34988],[-71.056849,42.349858]]],[[[-71.056834,42.349934],[-71.05682,42.349908],[-71.056725,42.349879],[-71.056691,42.34989],[-71.056676,42.349915],[-71.056691,42.34994],[-71.056785,42.34997],[-71.05682,42.349959],[-71.056834,42.349934]]],[[[-71.056834,42.350318],[-71.056787,42.350295],[-71.056763,42.350302],[-71.056808,42.350331],[-71.056834,42.350318]]],[[[-71.056789,42.352007],[-71.056737,42.351982],[-71.056713,42.351989],[-71.056723,42.352006],[-71.056764,42.352019],[-71.056789,42.352007]]],[[[-71.056789,42.350025],[-71.056775,42.349999],[-71.05668,42.34997],[-71.056646,42.349981],[-71.056631,42.350006],[-71.056646,42.350031],[-71.05674,42.350061],[-71.056775,42.35005],[-71.056789,42.350025]]],[[[-71.056713,42.350111],[-71.056641,42.350074],[-71.056601,42.350094],[-71.056673,42.350131],[-71.056713,42.350111]]],[[[-71.056687,42.350627],[-71.056632,42.350601],[-71.056608,42.350608],[-71.056618,42.350625],[-71.056661,42.350639],[-71.056687,42.350627]]],[[[-71.056679,42.350203],[-71.056669,42.350186],[-71.056602,42.350163],[-71.05656,42.350176],[-71.056567,42.350202],[-71.056634,42.350225],[-71.056659,42.350225],[-71.056679,42.350203]]],[[[-71.056677,42.353219],[-71.056593,42.353166],[-71.056547,42.353152],[-71.056522,42.353159],[-71.056533,42.353178],[-71.056578,42.353193],[-71.056582,42.353217],[-71.056651,42.353238],[-71.056677,42.353219]]],[[[-71.056652,42.350694],[-71.056597,42.350668],[-71.056573,42.350675],[-71.056583,42.350692],[-71.056626,42.350706],[-71.056652,42.350694]]],[[[-71.056619,42.350853],[-71.056605,42.350827],[-71.05651,42.350798],[-71.056476,42.350809],[-71.056461,42.350834],[-71.056476,42.350859],[-71.05657,42.350889],[-71.056605,42.350878],[-71.056619,42.350853]]],[[[-71.05653,42.353141],[-71.056472,42.353114],[-71.056447,42.353121],[-71.056458,42.35314],[-71.056503,42.353155],[-71.05653,42.353141]]],[[[-71.056512,42.351934],[-71.056457,42.351908],[-71.056433,42.351915],[-71.056443,42.351932],[-71.056486,42.351946],[-71.056512,42.351934]]],[[[-71.056464,42.351041],[-71.056417,42.351018],[-71.056393,42.351025],[-71.056438,42.351054],[-71.056464,42.351041]]],[[[-71.056442,42.351111],[-71.056387,42.351085],[-71.056363,42.351092],[-71.056373,42.351109],[-71.056416,42.351123],[-71.056442,42.351111]]],[[[-71.056441,42.353105],[-71.056379,42.353074],[-71.056349,42.353084],[-71.056361,42.353106],[-71.05641,42.353121],[-71.056441,42.353105]]],[[[-71.056421,42.35191],[-71.056377,42.351888],[-71.056353,42.351895],[-71.056396,42.351923],[-71.056421,42.35191]]],[[[-71.0564,42.351187],[-71.056353,42.351164],[-71.056329,42.351171],[-71.056374,42.3512],[-71.0564,42.351187]]],[[[-71.056382,42.354944],[-71.056327,42.354918],[-71.056303,42.354925],[-71.056313,42.354942],[-71.056356,42.354956],[-71.056382,42.354944]]],[[[-71.056372,42.35485],[-71.056317,42.354824],[-71.056293,42.354831],[-71.056303,42.354848],[-71.056346,42.354862],[-71.056372,42.35485]]],[[[-71.056357,42.354686],[-71.05629,42.354652],[-71.056256,42.354663],[-71.05627,42.354688],[-71.056321,42.354704],[-71.056357,42.354686]]],[[[-71.056355,42.354764],[-71.056297,42.354737],[-71.056272,42.354744],[-71.056283,42.354763],[-71.056328,42.354778],[-71.056355,42.354764]]],[[[-71.0563,42.350856],[-71.056245,42.35083],[-71.056221,42.350837],[-71.056231,42.350854],[-71.056274,42.350868],[-71.0563,42.350856]]],[[[-71.056296,42.351388],[-71.056247,42.351364],[-71.056223,42.351371],[-71.056271,42.3514],[-71.056296,42.351388]]],[[[-71.056284,42.353061],[-71.056237,42.353038],[-71.056213,42.353045],[-71.056258,42.353074],[-71.056284,42.353061]]],[[[-71.056277,42.351423],[-71.056228,42.351399],[-71.056204,42.351406],[-71.056252,42.351435],[-71.056277,42.351423]]],[[[-71.05627,42.350947],[-71.056215,42.350921],[-71.056191,42.350928],[-71.056201,42.350945],[-71.056244,42.350959],[-71.05627,42.350947]]],[[[-71.056246,42.351462],[-71.056197,42.351438],[-71.056173,42.351445],[-71.056221,42.351474],[-71.056246,42.351462]]],[[[-71.05623,42.35105],[-71.056175,42.351024],[-71.056151,42.351031],[-71.056161,42.351048],[-71.056204,42.351062],[-71.05623,42.35105]]],[[[-71.056192,42.351159],[-71.056137,42.351133],[-71.056113,42.35114],[-71.056123,42.351157],[-71.056166,42.351171],[-71.056192,42.351159]]],[[[-71.056116,42.351722],[-71.056067,42.351698],[-71.056043,42.351705],[-71.056091,42.351734],[-71.056116,42.351722]]],[[[-71.056021,42.351369],[-71.055966,42.351343],[-71.055942,42.35135],[-71.055952,42.351367],[-71.055995,42.351381],[-71.056021,42.351369]]],[[[-71.055997,42.351426],[-71.055942,42.3514],[-71.055918,42.351407],[-71.055928,42.351424],[-71.055971,42.351438],[-71.055997,42.351426]]],[[[-71.055964,42.351496],[-71.055909,42.35147],[-71.055885,42.351477],[-71.055895,42.351494],[-71.055938,42.351508],[-71.055964,42.351496]]],[[[-71.055932,42.351575],[-71.055877,42.351549],[-71.055853,42.351556],[-71.055863,42.351573],[-71.055906,42.351587],[-71.055932,42.351575]]],[[[-71.055929,42.352245],[-71.055899,42.352212],[-71.055801,42.352193],[-71.055737,42.352276],[-71.055767,42.352309],[-71.055865,42.352328],[-71.055929,42.352245]]],[[[-71.055903,42.351636],[-71.055848,42.35161],[-71.055824,42.351617],[-71.055834,42.351634],[-71.055877,42.351648],[-71.055903,42.351636]]],[[[-71.055852,42.351741],[-71.055797,42.351715],[-71.055773,42.351722],[-71.055783,42.351739],[-71.055826,42.351753],[-71.055852,42.351741]]],[[[-71.055845,42.353354],[-71.055835,42.353337],[-71.055768,42.353314],[-71.055726,42.353327],[-71.055733,42.353353],[-71.0558,42.353376],[-71.055825,42.353376],[-71.055845,42.353354]]],[[[-71.055832,42.35179],[-71.055777,42.351764],[-71.055753,42.351771],[-71.055763,42.351788],[-71.055806,42.351802],[-71.055832,42.35179]]],[[[-71.055778,42.353411],[-71.055706,42.353374],[-71.055666,42.353394],[-71.055738,42.353431],[-71.055778,42.353411]]],[[[-71.055691,42.353444],[-71.055633,42.353417],[-71.055608,42.353424],[-71.055619,42.353443],[-71.055664,42.353458],[-71.055691,42.353444]]],[[[-71.055602,42.353511],[-71.055547,42.353485],[-71.055523,42.353492],[-71.055533,42.353509],[-71.055576,42.353523],[-71.055602,42.353511]]],[[[-71.055536,42.353542],[-71.055487,42.353518],[-71.055463,42.353525],[-71.055511,42.353554],[-71.055536,42.353542]]],[[[-71.055298,42.353664],[-71.055237,42.353641],[-71.055189,42.353657],[-71.055189,42.353687],[-71.055161,42.353684],[-71.055149,42.353706],[-71.055227,42.353731],[-71.05524,42.353709],[-71.055284,42.353704],[-71.055298,42.353664]]]]},"properties":{"kind":"tree"}}]}