{"type":"FeatureCollection","features":[{"type":"Feature","geometry":{"type":"MultiPolygon","coordinates":[[[[-71.06706,42.351939],[-71.067007,42.351692],[-71.066747,42.351106],[-71.065467,42.351257],[-71.064967,42.35123],[-71.064851,42.351641],[-71.06487,42.35171],[-71.064842,42.351707],[-71.064683,42.352315],[-71.064715,42.352434],[-71.065532,42.352485],[-71.065539,42.35244],[-71.065709,42.352453],[-71.06572,42.352485],[-71.065917,42.3525],[-71.065964,42.352212],[-71.065932,42.352094],[-71.065958,42.351859],[-71.066028,42.351869],[-71.065959,42.352322],[-71.065988,42.352464],[-71.066084,42.352469],[-71.066101,42.352247],[-71.066091,42.352211],[-71.066281,42.35221],[-71.066302,42.35191],[-71.066877,42.351984],[-71.06706,42.351939]],[[-71.065196,42.351758],[-71.065187,42.351793],[-71.065177,42.351756],[-71.065196,42.351758]]],[[[-71.066506,42.348615],[-71.066483,42.348529],[-71.065962,42.348468],[-71.066025,42.348174],[-71.065995,42.348062],[-71.065837,42.348044],[-71.065752,42.348444],[-71.065782,42.348555],[-71.065805,42.348558],[-71.065836,42.34864],[-71.065932,42.348651],[-71.06594,42.348672],[-71.066478,42.348735],[-71.066506,42.348615]]],[[[-71.066115,42.349511],[-71.066051,42.349385],[-71.065989,42.349405],[-71.066051,42.349531],[-71.066115,42.349511]]],[[[-71.066104,42.349681],[-71.066006,42.349489],[-71.06562,42.349445],[-71.065521,42.349461],[-71.065431,42.349881],[-71.065343,42.350191],[-71.065371,42.35031],[-71.06531,42.3503],[-71.065227,42.350588],[-71.065233,42.350611],[-71.065381,42.350634],[-71.065386,42.350653],[-71.065406,42.350656],[-71.06521,42.350652],[-71.065139,42.350903],[-71.065207,42.351116],[-71.065423,42.351182],[-71.065825,42.351205],[-71.06604,42.351175],[-71.066008,42.350846],[-71.065959,42.350666],[-71.065832,42.350664],[-71.06597,42.350657],[-71.065938,42.350383],[-71.065937,42.350367],[-71.065956,42.350366],[-71.065921,42.350037],[-71.065881,42.34989],[-71.065776,42.349769],[-71.065693,42.349792],[-71.065731,42.349605],[-71.065801,42.349615],[-71.065918,42.349755],[-71.065995,42.349731],[-71.066001,42.349679],[-71.066016,42.349705],[-71.066104,42.349681]],[[-71.065784,42.350663],[-71.065768,42.350662],[-71.065783,42.35066],[-71.065784,42.350663]]],[[[-71.065572,42.354375],[-71.065563,42.354332],[-71.065534,42.354305],[-71.065487,42.354301],[-71.065445,42.354332],[-71.065457,42.354394],[-71.065487,42.354414],[-71.065547,42.35441],[-71.065572,42.354375]]],[[[-71.065533,42.34792],[-71.065483,42.347819],[-71.065392,42.347805],[-71.065371,42.347781],[-71.06533,42.347783],[-71.065319,42.347677],[-71.065257,42.347643],[-71.064894,42.347587],[-71.064503,42.347783],[-71.064389,42.348045],[-71.06434,42.34822],[-71.064352,42.348263],[-71.064388,42.348269],[-71.064529,42.348213],[-71.064553,42.348241],[-71.064637,42.3482],[-71.06463,42.348173],[-71.064693,42.34818],[-71.064466,42.348292],[-71.06444,42.348386],[-71.064476,42.34852],[-71.064841,42.348576],[-71.06488,42.348518],[-71.064918,42.348329],[-71.064932,42.348339],[-71.064955,42.348324],[-71.065097,42.348487],[-71.065406,42.348434],[-71.065427,42.348424],[-71.065427,42.34839],[-71.06535,42.348303],[-71.065478,42.348187],[-71.065487,42.348143],[-71.065475,42.348101],[-71.065413,42.348031],[-71.065524,42.347958],[-71.065533,42.34792]]],[[[-71.065425,42.352886],[-71.065421,42.352871],[-71.065303,42.352844],[-71.065286,42.352891],[-71.065316,42.352987],[-71.065382,42.353001],[-71.065425,42.352886]]],[[[-71.065336,42.348907],[-71.065329,42.348822],[-71.065279,42.348688],[-71.064844,42.348594],[-71.064341,42.348545],[-71.064334,42.348568],[-71.064275,42.348582],[-71.064127,42.348996],[-71.064134,42.349021],[-71.064481,42.349074],[-71.064483,42.349084],[-71.064404,42.349122],[-71.064426,42.349205],[-71.064675,42.349374],[-71.064856,42.349281],[-71.064851,42.349263],[-71.064942,42.349291],[-71.065204,42.349168],[-71.065188,42.349105],[-71.065285,42.349095],[-71.065336,42.348907]]],[[[-71.065197,42.349722],[-71.065169,42.349617],[-71.064416,42.349501],[-71.064395,42.349572],[-71.063761,42.349475],[-71.063743,42.349458],[-71.063784,42.349352],[-71.06381,42.349212],[-71.063789,42.349136],[-71.063858,42.348993],[-71.063976,42.348577],[-71.063945,42.348463],[-71.063623,42.348413],[-71.063505,42.348828],[-71.063561,42.34904],[-71.063074,42.348966],[-71.063026,42.349058],[-71.063,42.349197],[-71.062979,42.349145],[-71.062945,42.349131],[-71.06298,42.349061],[-71.062999,42.349067],[-71.063057,42.348949],[-71.063042,42.348892],[-71.062425,42.348727],[-71.062234,42.34916],[-71.062251,42.349233],[-71.062466,42.34933],[-71.0626,42.349262],[-71.062552,42.34932],[-71.062563,42.34936],[-71.062703,42.349424],[-71.062729,42.349412],[-71.06274,42.349455],[-71.062953,42.349552],[-71.063017,42.349475],[-71.063,42.349534],[-71.063032,42.349616],[-71.062592,42.349443],[-71.062574,42.349455],[-71.062287,42.349326],[-71.062233,42.349284],[-71.062169,42.349306],[-71.062155,42.349337],[-71.062163,42.349367],[-71.061999,42.349764],[-71.062019,42.349838],[-71.062117,42.349879],[-71.061969,42.349845],[-71.061924,42.349957],[-71.06194,42.350016],[-71.061899,42.350104],[-71.061905,42.350145],[-71.06188,42.350138],[-71.061849,42.350185],[-71.06178,42.350309],[-71.061767,42.350377],[-71.061746,42.350372],[-71.061673,42.350559],[-71.061705,42.350676],[-71.062216,42.350806],[-71.062286,42.350709],[-71.062326,42.350859],[-71.062549,42.350921],[-71.062628,42.350848],[-71.062657,42.350958],[-71.063007,42.351008],[-71.063184,42.350461],[-71.063145,42.350317],[-71.06317,42.350269],[-71.063307,42.35029],[-71.063392,42.350113],[-71.063403,42.350114],[-71.063491,42.349797],[-71.063685,42.349815],[-71.064126,42.350312],[-71.06399,42.350541],[-71.063898,42.350509],[-71.063927,42.350461],[-71.063915,42.350416],[-71.063539,42.350364],[-71.063408,42.350576],[-71.063427,42.350808],[-71.063478,42.350999],[-71.0637,42.351032],[-71.063812,42.350853],[-71.063949,42.350914],[-71.064339,42.350954],[-71.064392,42.351136],[-71.064886,42.351195],[-71.064914,42.351063],[-71.064865,42.350881],[-71.064895,42.350768],[-71.06494,42.350775],[-71.065041,42.350395],[-71.065001,42.350248],[-71.064843,42.350193],[-71.064857,42.35014],[-71.065065,42.350171],[-71.065173,42.349767],[-71.065185,42.349769],[-71.065197,42.349722]],[[-71.064619,42.35053],[-71.064618,42.350534],[-71.064615,42.350533],[-71.064619,42.35053]],[[-71.064273,42.350086],[-71.064265,42.3501],[-71.06426,42.350083],[-71.064273,42.350086]],[[-71.063054,42.34943],[-71.063054,42.349441],[-71.063026,42.349464],[-71.063054,42.34943]],[[-71.06276,42.349069],[-71.06274,42.349068],[-71.062738,42.349063],[-71.06276,42.349069]],[[-71.062751,42.350155],[-71.062665,42.350453],[-71.062546,42.350403],[-71.062668,42.350243],[-71.062636,42.350123],[-71.062595,42.350089],[-71.062751,42.350155]],[[-71.062598,42.349741],[-71.062445,42.349947],[-71.062463,42.350018],[-71.062172,42.349897],[-71.062189,42.349858],[-71.062264,42.349889],[-71.062527,42.349787],[-71.062576,42.349731],[-71.062598,42.349741]],[[-71.062514,42.35041],[-71.062294,42.350695],[-71.062323,42.35065],[-71.062306,42.35059],[-71.062329,42.350597],[-71.062488,42.350399],[-71.062514,42.35041]]],[[[-71.064757,42.351262],[-71.064745,42.351218],[-71.064502,42.351183],[-71.064481,42.35119],[-71.06447,42.351226],[-71.06446,42.35119],[-71.064438,42.351187],[-71.063934,42.351133],[-71.063928,42.351152],[-71.06376,42.35112],[-71.06329,42.35107],[-71.063242,42.351313],[-71.063252,42.351351],[-71.063231,42.351358],[-71.06328,42.351094],[-71.063273,42.351069],[-71.063049,42.351044],[-71.063027,42.351108],[-71.063015,42.351107],[-71.062961,42.35129],[-71.062918,42.351459],[-71.062924,42.351489],[-71.063451,42.351552],[-71.063483,42.351412],[-71.063462,42.351529],[-71.063485,42.351615],[-71.062895,42.351546],[-71.062827,42.351891],[-71.062842,42.351947],[-71.062817,42.351944],[-71.062772,42.35217],[-71.062793,42.352248],[-71.063482,42.352323],[-71.063497,42.352236],[-71.063544,42.352241],[-71.063561,42.352308],[-71.063584,42.35232],[-71.064128,42.352332],[-71.064187,42.352051],[-71.064168,42.351982],[-71.063874,42.351957],[-71.063887,42.351862],[-71.064102,42.351896],[-71.064107,42.351877],[-71.064252,42.351897],[-71.064172,42.352275],[-71.064205,42.352397],[-71.064482,42.352405],[-71.064517,42.352385],[-71.064649,42.351864],[-71.064625,42.351776],[-71.064659,42.35178],[-71.064692,42.351658],[-71.064664,42.351553],[-71.064457,42.35153],[-71.064453,42.351514],[-71.064683,42.351541],[-71.064757,42.351262]],[[-71.06442,42.351387],[-71.064419,42.351389],[-71.064419,42.351387],[-71.06442,42.351387]],[[-71.063648,42.351824],[-71.063632,42.351827],[-71.063631,42.351822],[-71.063648,42.351824]]],[[[-71.06473,42.352552],[-71.064662,42.352531],[-71.06463,42.352648],[-71.064695,42.352658],[-71.06473,42.352552]]],[[[-71.064613,42.353289],[-71.064542,42.353266],[-71.064511,42.353377],[-71.064579,42.353391],[-71.064613,42.353289]]],[[[-71.064405,42.352553],[-71.064373,42.352435],[-71.064339,42.352409],[-71.063942,42.352395],[-71.063916,42.35282],[-71.063869,42.352843],[-71.06386,42.352983],[-71.063898,42.35249],[-71.063872,42.352394],[-71.063363,42.352382],[-71.063364,42.352475],[-71.063337,42.352483],[-71.063313,42.35239],[-71.062724,42.352454],[-71.062724,42.352488],[-71.062679,42.352486],[-71.062647,42.353118],[-71.062669,42.3532],[-71.062733,42.353255],[-71.06286,42.353275],[-71.062875,42.353331],[-71.062954,42.353369],[-71.063126,42.353372],[-71.063201,42.353413],[-71.063187,42.353764],[-71.063216,42.353871],[-71.063551,42.353886],[-71.063698,42.353619],[-71.063728,42.353495],[-71.063699,42.353388],[-71.063651,42.353352],[-71.063338,42.353339],[-71.063332,42.353312],[-71.064168,42.353378],[-71.064243,42.353272],[-71.064274,42.353186],[-71.064263,42.353102],[-71.064298,42.353104],[-71.064341,42.352959],[-71.064384,42.352808],[-71.064376,42.352779],[-71.064405,42.352553]]],[[[-71.064121,42.348125],[-71.064105,42.348002],[-71.064113,42.347947],[-71.063968,42.347919],[-71.063883,42.347989],[-71.063856,42.347985],[-71.063829,42.348081],[-71.063847,42.348148],[-71.063554,42.348107],[-71.063614,42.347896],[-71.063606,42.347866],[-71.06346,42.347843],[-71.063365,42.348193],[-71.063375,42.34823],[-71.06403,42.348328],[-71.06406,42.348214],[-71.064095,42.34822],[-71.064121,42.348125]]],[[[-71.064109,42.353471],[-71.064097,42.353425],[-71.063837,42.353375],[-71.063796,42.353489],[-71.063808,42.353535],[-71.064064,42.3536],[-71.064109,42.353471]]],[[[-71.06404,42.353791],[-71.063998,42.353634],[-71.063768,42.353564],[-71.063645,42.35376],[-71.063665,42.353835],[-71.063609,42.353818],[-71.063484,42.354018],[-71.063343,42.354171],[-71.063362,42.354078],[-71.063351,42.354035],[-71.063148,42.354021],[-71.063184,42.353782],[-71.063082,42.353402],[-71.06272,42.353391],[-71.062533,42.353622],[-71.062491,42.353619],[-71.06209,42.354085],[-71.062098,42.354114],[-71.062067,42.354108],[-71.061806,42.354365],[-71.061835,42.354472],[-71.062317,42.354697],[-71.06233,42.354683],[-71.062505,42.354758],[-71.062674,42.354847],[-71.062974,42.354559],[-71.062956,42.35449],[-71.063033,42.35451],[-71.062746,42.354823],[-71.062778,42.35494],[-71.063243,42.35517],[-71.063287,42.355161],[-71.063359,42.355027],[-71.063396,42.355031],[-71.063426,42.354954],[-71.063457,42.354963],[-71.063746,42.354427],[-71.063736,42.354391],[-71.063765,42.354352],[-71.063752,42.354302],[-71.063782,42.354248],[-71.06383,42.354214],[-71.063894,42.354097],[-71.063904,42.35405],[-71.063883,42.353975],[-71.063934,42.35399],[-71.06404,42.353791]],[[-71.062685,42.354501],[-71.062623,42.354561],[-71.062582,42.35448],[-71.062685,42.354501]]],[[[-71.063938,42.35484],[-71.063869,42.354811],[-71.063849,42.354871],[-71.063915,42.354888],[-71.063938,42.35484]]],[[[-71.063493,42.348442],[-71.063476,42.348381],[-71.062604,42.34825],[-71.062448,42.348644],[-71.062465,42.348705],[-71.063382,42.348844],[-71.063493,42.348442]]],[[[-71.063308,42.348026],[-71.063301,42.347999],[-71.062961,42.347921],[-71.062929,42.348],[-71.062937,42.348028],[-71.06306,42.348054],[-71.063058,42.348111],[-71.063105,42.34812],[-71.063147,42.348071],[-71.063287,42.348103],[-71.063308,42.348026]]],[[[-71.063261,42.348209],[-71.06323,42.348148],[-71.063187,42.348141],[-71.063177,42.348169],[-71.062886,42.348123],[-71.062889,42.348068],[-71.062903,42.348071],[-71.062919,42.348034],[-71.062909,42.347999],[-71.062855,42.347962],[-71.062735,42.347939],[-71.062689,42.348052],[-71.062697,42.34809],[-71.062875,42.348129],[-71.062855,42.348206],[-71.062864,42.348241],[-71.063237,42.348292],[-71.063261,42.348209]]],[[[-71.0632,42.355228],[-71.063177,42.355145],[-71.063146,42.355127],[-71.062729,42.354937],[-71.062343,42.354737],[-71.062217,42.354875],[-71.062085,42.35483],[-71.062133,42.354804],[-71.062219,42.354709],[-71.062209,42.354674],[-71.062058,42.3546],[-71.061925,42.354749],[-71.061898,42.354734],[-71.062004,42.354619],[-71.061986,42.354554],[-71.061745,42.354425],[-71.061369,42.354786],[-71.061401,42.354903],[-71.061677,42.355046],[-71.061708,42.355013],[-71.0622,42.355267],[-71.062367,42.355088],[-71.062355,42.355044],[-71.062374,42.355093],[-71.062486,42.355156],[-71.062517,42.355129],[-71.062524,42.355155],[-71.062614,42.355206],[-71.062631,42.355188],[-71.062706,42.35523],[-71.062825,42.355107],[-71.062832,42.355133],[-71.063138,42.355295],[-71.0632,42.355228]]],[[[-71.062877,42.351107],[-71.062859,42.351039],[-71.062298,42.350942],[-71.062278,42.351002],[-71.062295,42.351065],[-71.062158,42.351034],[-71.062204,42.351315],[-71.062204,42.351398],[-71.062226,42.351476],[-71.062433,42.351523],[-71.062445,42.351505],[-71.062412,42.351379],[-71.062434,42.351383],[-71.062457,42.351529],[-71.062746,42.351593],[-71.062877,42.351107]],[[-71.062566,42.351146],[-71.0625,42.351125],[-71.062566,42.351143],[-71.062566,42.351146]]],[[[-71.062788,42.34817],[-71.062777,42.348131],[-71.062667,42.348107],[-71.06264,42.348175],[-71.062651,42.348214],[-71.062772,42.348231],[-71.062788,42.34817]]],[[[-71.062755,42.351951],[-71.062678,42.351664],[-71.062591,42.351633],[-71.062023,42.351525],[-71.061289,42.351543],[-71.061408,42.352115],[-71.061563,42.352107],[-71.061546,42.351951],[-71.061611,42.351948],[-71.061662,42.352126],[-71.061715,42.352125],[-71.061741,42.352226],[-71.061723,42.352231],[-71.061777,42.352469],[-71.062071,42.352436],[-71.062499,42.352417],[-71.062524,42.352387],[-71.062638,42.352398],[-71.062755,42.351951]]],[[[-71.062477,42.352601],[-71.062452,42.352508],[-71.062412,42.352483],[-71.061487,42.352561],[-71.061522,42.353095],[-71.061547,42.353188],[-71.062416,42.353151],[-71.062451,42.353124],[-71.062477,42.352601]]],[[[-71.062474,42.348057],[-71.062446,42.347953],[-71.061926,42.347827],[-71.061878,42.347943],[-71.061906,42.348047],[-71.062314,42.348139],[-71.062439,42.348146],[-71.062474,42.348057]]],[[[-71.062454,42.353305],[-71.062415,42.35316],[-71.061576,42.3532],[-71.061528,42.35321],[-71.061483,42.353426],[-71.061522,42.353571],[-71.062182,42.353897],[-71.062284,42.353787],[-71.062399,42.353584],[-71.062452,42.353438],[-71.062454,42.353305]]],[[[-71.062377,42.348267],[-71.062367,42.34823],[-71.062255,42.348206],[-71.062165,42.348433],[-71.06197,42.348388],[-71.062044,42.348202],[-71.062037,42.348157],[-71.061907,42.348129],[-71.06165,42.348751],[-71.061588,42.348952],[-71.061552,42.34896],[-71.061537,42.34904],[-71.06152,42.349047],[-71.061502,42.349124],[-71.061484,42.349135],[-71.061349,42.349469],[-71.061365,42.349557],[-71.061578,42.349651],[-71.061587,42.349683],[-71.061307,42.349568],[-71.061196,42.349845],[-71.061224,42.34995],[-71.061347,42.35],[-71.061316,42.350019],[-71.061242,42.350003],[-71.061208,42.350087],[-71.06109,42.35016],[-71.061001,42.350379],[-71.061026,42.350472],[-71.061509,42.350587],[-71.061806,42.349867],[-71.06179,42.349808],[-71.061831,42.34982],[-71.061854,42.349808],[-71.062017,42.349425],[-71.061975,42.34927],[-71.061817,42.349237],[-71.061839,42.34916],[-71.061753,42.349141],[-71.061911,42.348788],[-71.061895,42.34873],[-71.061837,42.348717],[-71.061911,42.348532],[-71.062222,42.348604],[-71.06225,42.348538],[-71.06227,42.348542],[-71.062377,42.348267]]],[[[-71.06213,42.351455],[-71.062061,42.351015],[-71.062101,42.351025],[-71.062129,42.350957],[-71.062111,42.350892],[-71.061597,42.350765],[-71.061565,42.350845],[-71.061581,42.350903],[-71.061545,42.350895],[-71.061526,42.350931],[-71.061462,42.35114],[-71.061448,42.351138],[-71.061352,42.351379],[-71.061384,42.351497],[-71.061412,42.351524],[-71.061724,42.351514],[-71.061725,42.351468],[-71.06213,42.351455]],[[-71.061798,42.350957],[-71.061793,42.350971],[-71.061788,42.350955],[-71.061798,42.350957]],[[-71.061706,42.351213],[-71.061695,42.351243],[-71.061679,42.35121],[-71.061706,42.351213]]],[[[-71.062057,42.354008],[-71.062033,42.353919],[-71.061316,42.353581],[-71.061282,42.353618],[-71.061186,42.35357],[-71.061166,42.353496],[-71.060695,42.353272],[-71.059969,42.354033],[-71.059395,42.3545],[-71.059374,42.35453],[-71.059372,42.35457],[-71.059416,42.354681],[-71.060148,42.355246],[-71.060192,42.355214],[-71.060501,42.355428],[-71.060682,42.355265],[-71.060703,42.355282],[-71.061316,42.354727],[-71.062057,42.354008]]],[[[-71.061901,42.347769],[-71.061866,42.34764],[-71.061712,42.347604],[-71.061566,42.347954],[-71.061555,42.348046],[-71.06159,42.348175],[-71.061709,42.348203],[-71.061901,42.347769]]],[[[-71.061652,42.352439],[-71.061625,42.3523],[-71.061514,42.352311],[-71.061454,42.352351],[-71.061474,42.352456],[-71.061652,42.352439]]],[[[-71.061651,42.348401],[-71.06164,42.348359],[-71.061414,42.348308],[-71.061385,42.348414],[-71.061396,42.348456],[-71.061435,42.348504],[-71.06142,42.348543],[-71.061351,42.348556],[-71.061342,42.348577],[-71.061288,42.348565],[-71.061244,42.348672],[-71.061256,42.348716],[-71.061491,42.34877],[-71.061616,42.348449],[-71.06163,42.348452],[-71.061651,42.348401]]],[[[-71.061566,42.355123],[-71.061545,42.355046],[-71.061254,42.354893],[-71.06106,42.355076],[-71.061081,42.355153],[-71.061394,42.35531],[-71.061566,42.355123]]],[[[-71.061449,42.348866],[-71.061436,42.348818],[-71.061371,42.34877],[-71.061248,42.348743],[-71.061155,42.348757],[-71.06111,42.348835],[-71.061094,42.348905],[-71.061107,42.348953],[-71.061127,42.348968],[-71.061083,42.349084],[-71.061093,42.349121],[-71.061161,42.349136],[-71.061145,42.349177],[-71.061153,42.349306],[-71.06128,42.349337],[-71.061449,42.348866]]],[[[-71.061392,42.353264],[-71.061368,42.352698],[-71.061336,42.35258],[-71.061194,42.352592],[-71.061121,42.352806],[-71.061104,42.352801],[-71.060815,42.353125],[-71.060842,42.35325],[-71.061309,42.353479],[-71.061374,42.353353],[-71.061392,42.353264]]],[[[-71.061376,42.348409],[-71.061365,42.348369],[-71.061295,42.34834],[-71.061321,42.348275],[-71.061312,42.348227],[-71.061184,42.348198],[-71.061147,42.348242],[-71.061138,42.348307],[-71.061122,42.348318],[-71.061068,42.348118],[-71.061011,42.348097],[-71.060743,42.348465],[-71.060549,42.348739],[-71.060603,42.34894],[-71.06084,42.348997],[-71.060848,42.348979],[-71.060744,42.349244],[-71.060752,42.349275],[-71.060978,42.349367],[-71.060986,42.349349],[-71.060992,42.349373],[-71.061205,42.349461],[-71.061253,42.34939],[-71.061244,42.349357],[-71.06102,42.349265],[-71.06102,42.349213],[-71.060994,42.349204],[-71.060936,42.349221],[-71.060889,42.349204],[-71.060912,42.349195],[-71.06093,42.349148],[-71.061004,42.349164],[-71.061004,42.349108],[-71.060958,42.349078],[-71.060985,42.349012],[-71.061044,42.349025],[-71.061061,42.348985],[-71.061054,42.348944],[-71.06088,42.348902],[-71.061109,42.348351],[-71.061114,42.348368],[-71.061011,42.348618],[-71.061019,42.348656],[-71.061136,42.348683],[-71.061248,42.348427],[-71.061367,42.348451],[-71.061376,42.348409]]],[[[-71.061371,42.350775],[-71.06136,42.350735],[-71.061295,42.350688],[-71.060899,42.350587],[-71.060839,42.350774],[-71.06085,42.350815],[-71.061066,42.350862],[-71.061199,42.350847],[-71.061203,42.350863],[-71.061323,42.350891],[-71.061371,42.350775]]],[[[-71.061246,42.351141],[-71.061227,42.351071],[-71.060769,42.350979],[-71.060611,42.351308],[-71.06063,42.351378],[-71.061091,42.351481],[-71.061117,42.351471],[-71.061246,42.351141]]],[[[-71.061226,42.350009],[-71.061162,42.349985],[-71.061139,42.350043],[-71.061202,42.350066],[-71.061226,42.350009]]],[[[-71.06115,42.3524],[-71.061127,42.352315],[-71.061108,42.352034],[-71.061121,42.352032],[-71.061089,42.351778],[-71.061041,42.351545],[-71.060388,42.351402],[-71.060369,42.351415],[-71.060443,42.351652],[-71.060654,42.351696],[-71.06047,42.351727],[-71.060742,42.35262],[-71.061117,42.352587],[-71.06115,42.3524]],[[-71.060973,42.352048],[-71.06086,42.352066],[-71.06094,42.352046],[-71.060828,42.35168],[-71.060837,42.351671],[-71.060929,42.351886],[-71.060973,42.352048]],[[-71.060814,42.352028],[-71.060742,42.351969],[-71.060656,42.351697],[-71.060708,42.351692],[-71.060814,42.352028]]],[[[-71.06102,42.352783],[-71.060985,42.352601],[-71.060475,42.352641],[-71.060188,42.352643],[-71.060204,42.352765],[-71.060295,42.352778],[-71.060268,42.352864],[-71.060286,42.352931],[-71.060717,42.353143],[-71.060852,42.35299],[-71.060876,42.352999],[-71.060983,42.352878],[-71.06102,42.352783]]],[[[-71.061005,42.350139],[-71.060966,42.349994],[-71.060509,42.349891],[-71.06038,42.350207],[-71.060419,42.350352],[-71.060867,42.350478],[-71.061005,42.350139]]],[[[-71.060768,42.350617],[-71.060747,42.35054],[-71.060472,42.350463],[-71.060395,42.350464],[-71.060385,42.350513],[-71.06026,42.350485],[-71.059972,42.351168],[-71.059985,42.351215],[-71.060265,42.351277],[-71.060274,42.351265],[-71.060278,42.351277],[-71.060481,42.351322],[-71.060608,42.351032],[-71.060596,42.350987],[-71.060684,42.350735],[-71.060695,42.35072],[-71.060721,42.350726],[-71.060768,42.350617]],[[-71.0604,42.351107],[-71.060393,42.351125],[-71.060337,42.351112],[-71.060344,42.351095],[-71.0604,42.351107]],[[-71.060377,42.350668],[-71.060359,42.350672],[-71.060362,42.350664],[-71.060377,42.350668]],[[-71.060362,42.35087],[-71.060284,42.350852],[-71.06032,42.350767],[-71.060345,42.350773],[-71.060362,42.35087]]],[[[-71.060631,42.352591],[-71.0605,42.352135],[-71.060316,42.352167],[-71.060309,42.35234],[-71.060276,42.352208],[-71.060118,42.352221],[-71.060187,42.3526],[-71.060631,42.352591]]],[[[-71.060621,42.34946],[-71.060567,42.349259],[-71.060443,42.349109],[-71.060321,42.349063],[-71.060204,42.349326],[-71.059925,42.350048],[-71.059979,42.350249],[-71.06028,42.350343],[-71.060381,42.350092],[-71.060352,42.349984],[-71.060421,42.349948],[-71.060621,42.34946]]],[[[-71.060459,42.352021],[-71.060247,42.351383],[-71.060234,42.351369],[-71.059977,42.351309],[-71.059968,42.35133],[-71.059962,42.351307],[-71.059758,42.351262],[-71.059709,42.351391],[-71.059832,42.352177],[-71.060048,42.352159],[-71.059944,42.351506],[-71.059952,42.351471],[-71.059972,42.351548],[-71.060003,42.35155],[-71.060016,42.351625],[-71.06018,42.351591],[-71.060256,42.351834],[-71.060056,42.351864],[-71.06009,42.352042],[-71.060268,42.352034],[-71.060276,42.352052],[-71.060459,42.352021]]],[[[-71.060345,42.353221],[-71.060325,42.353148],[-71.060198,42.353083],[-71.060156,42.353018],[-71.059657,42.352762],[-71.059553,42.352772],[-71.059559,42.352814],[-71.059531,42.352816],[-71.059577,42.353108],[-71.059586,42.353141],[-71.059611,42.353139],[-71.059638,42.353242],[-71.059921,42.353387],[-71.060123,42.35329],[-71.06023,42.353344],[-71.060345,42.353221]]],[[[-71.060165,42.353755],[-71.060133,42.353635],[-71.059811,42.353458],[-71.059789,42.35348],[-71.059597,42.353398],[-71.059432,42.35339],[-71.059141,42.353659],[-71.059114,42.353557],[-71.059223,42.353456],[-71.05923,42.353439],[-71.059207,42.353385],[-71.058797,42.353362],[-71.059469,42.353376],[-71.059417,42.35294],[-71.059351,42.352696],[-71.05936,42.352691],[-71.059295,42.352269],[-71.059226,42.352012],[-71.058965,42.352116],[-71.058906,42.352152],[-71.058834,42.352228],[-71.058775,42.35235],[-71.058822,42.352526],[-71.058176,42.352542],[-71.058142,42.35255],[-71.058055,42.352616],[-71.057947,42.353231],[-71.057972,42.353324],[-71.058015,42.353356],[-71.058262,42.353358],[-71.058016,42.353373],[-71.05798,42.35339],[-71.057933,42.353509],[-71.057965,42.35361],[-71.058629,42.354057],[-71.058771,42.353923],[-71.058834,42.353942],[-71.058709,42.354058],[-71.058745,42.354193],[-71.058898,42.354308],[-71.058927,42.354281],[-71.058959,42.354305],[-71.05898,42.354362],[-71.059041,42.354406],[-71.059431,42.354447],[-71.059648,42.354259],[-71.059641,42.354232],[-71.059654,42.35424],[-71.059941,42.353991],[-71.060165,42.353755]],[[-71.059653,42.353622],[-71.059643,42.353637],[-71.059627,42.353612],[-71.059653,42.353622]],[[-71.059419,42.353999],[-71.059133,42.354047],[-71.05906,42.353989],[-71.059039,42.354008],[-71.05903,42.353974],[-71.058982,42.353942],[-71.059069,42.353861],[-71.059287,42.353985],[-71.059349,42.353942],[-71.059379,42.353958],[-71.059411,42.353928],[-71.059419,42.353999]],[[-71.058461,42.35336],[-71.058447,42.353361],[-71.058373,42.353359],[-71.058461,42.35336]]],[[[-71.06013,42.350419],[-71.060116,42.350367],[-71.059867,42.350296],[-71.059794,42.350499],[-71.059808,42.350551],[-71.059821,42.350554],[-71.059789,42.350634],[-71.059796,42.350659],[-71.060026,42.350709],[-71.06013,42.350419]]],[[[-71.059768,42.352551],[-71.059735,42.352333],[-71.059715,42.35226],[-71.059702,42.352261],[-71.059626,42.351804],[-71.059386,42.351848],[-71.059498,42.352534],[-71.059768,42.352551]]],[[[-71.059657,42.355057],[-71.05962,42.354967],[-71.059161,42.354622],[-71.059145,42.354629],[-71.059081,42.35459],[-71.059033,42.354595],[-71.058538,42.355044],[-71.058561,42.355139],[-71.058895,42.355284],[-71.058931,42.355418],[-71.059005,42.355473],[-71.059297,42.355592],[-71.059543,42.355378],[-71.059606,42.3553],[-71.059564,42.355143],[-71.059657,42.355057]]],[[[-71.059522,42.350279],[-71.059505,42.350215],[-71.059471,42.35018],[-71.059047,42.350086],[-71.058996,42.350102],[-71.058689,42.350861],[-71.058706,42.350925],[-71.058738,42.350961],[-71.05916,42.351055],[-71.059215,42.351039],[-71.059522,42.350279]]],[[[-71.059322,42.349743],[-71.059318,42.349726],[-71.059179,42.349693],[-71.059109,42.349882],[-71.059248,42.349915],[-71.059322,42.349743]]],[[[-71.059052,42.351154],[-71.059038,42.351101],[-71.058633,42.351011],[-71.058362,42.351689],[-71.058376,42.351742],[-71.058572,42.351785],[-71.05876,42.351607],[-71.058874,42.35147],[-71.059004,42.351266],[-71.059052,42.351154]]],[[[-71.058985,42.354515],[-71.058955,42.354441],[-71.058627,42.354217],[-71.05787,42.354957],[-71.057888,42.355058],[-71.057935,42.355076],[-71.058163,42.35508],[-71.058187,42.355128],[-71.058314,42.355143],[-71.058377,42.355121],[-71.058463,42.355037],[-71.058449,42.354985],[-71.058467,42.354995],[-71.058738,42.354748],[-71.058732,42.354725],[-71.058985,42.354515]]],[[[-71.058802,42.350131],[-71.058776,42.350034],[-71.058372,42.349945],[-71.058142,42.350751],[-71.058156,42.350804],[-71.058262,42.35083],[-71.05827,42.350813],[-71.058468,42.350862],[-71.058667,42.350467],[-71.05865,42.350404],[-71.058693,42.350298],[-71.058732,42.350307],[-71.058793,42.350196],[-71.058802,42.350131]]],[[[-71.058539,42.354206],[-71.05852,42.354135],[-71.058044,42.353831],[-71.058014,42.353836],[-71.057915,42.353996],[-71.057846,42.353741],[-71.05759,42.353655],[-71.057554,42.353522],[-71.057391,42.353467],[-71.057439,42.353471],[-71.057445,42.353432],[-71.057624,42.353445],[-71.057636,42.353488],[-71.057733,42.353497],[-71.057744,42.353427],[-71.057795,42.353432],[-71.05786,42.353018],[-71.057796,42.352781],[-71.057688,42.352735],[-71.05756,42.352748],[-71.05731,42.352888],[-71.057163,42.352943],[-71.05712,42.352979],[-71.057099,42.353043],[-71.057168,42.353304],[-71.057199,42.353349],[-71.057323,42.353424],[-71.057336,42.353448],[-71.057295,42.353434],[-71.056984,42.35394],[-71.056989,42.353957],[-71.05697,42.353964],[-71.056898,42.35408],[-71.056907,42.354114],[-71.057043,42.35416],[-71.057072,42.354266],[-71.057271,42.354334],[-71.057279,42.354363],[-71.057336,42.354383],[-71.057364,42.354488],[-71.057563,42.354554],[-71.057546,42.354581],[-71.057565,42.354653],[-71.057958,42.354773],[-71.058269,42.35447],[-71.05826,42.354428],[-71.058289,42.354445],[-71.058539,42.354206]],[[-71.058163,42.354266],[-71.058141,42.354297],[-71.058152,42.354336],[-71.058071,42.354289],[-71.058103,42.354242],[-71.058163,42.354266]]],[[[-71.058438,42.349534],[-71.058415,42.349447],[-71.058432,42.349404],[-71.058424,42.349376],[-71.057926,42.349266],[-71.057859,42.349433],[-71.057867,42.349461],[-71.057994,42.349489],[-71.057962,42.349568],[-71.057872,42.349548],[-71.057853,42.349597],[-71.057857,42.349611],[-71.057947,42.349631],[-71.057964,42.349695],[-71.058311,42.349775],[-71.058344,42.34977],[-71.058438,42.349534]]],[[[-71.058434,42.351027],[-71.058414,42.350953],[-71.058104,42.350876],[-71.057903,42.351616],[-71.057923,42.35169],[-71.058151,42.351725],[-71.058434,42.351027]]],[[[-71.058294,42.349942],[-71.058289,42.349924],[-71.057874,42.34983],[-71.057688,42.349927],[-71.057546,42.350612],[-71.057571,42.350703],[-71.057721,42.350739],[-71.057736,42.35072],[-71.058082,42.350805],[-71.058206,42.350374],[-71.058188,42.350307],[-71.057884,42.350259],[-71.057887,42.350247],[-71.058218,42.350299],[-71.058263,42.350153],[-71.05825,42.350104],[-71.058294,42.349942]]],[[[-71.05814,42.35183],[-71.058107,42.351722],[-71.057885,42.351686],[-71.05786,42.351765],[-71.057838,42.351684],[-71.057355,42.351608],[-71.057276,42.352035],[-71.057301,42.352128],[-71.057968,42.352334],[-71.05814,42.35183]],[[-71.05782,42.351896],[-71.057776,42.352039],[-71.057738,42.352029],[-71.05782,42.351896]]],[[[-71.05811,42.348851],[-71.058071,42.348706],[-71.057613,42.348605],[-71.057529,42.348814],[-71.057568,42.348959],[-71.058027,42.34906],[-71.05811,42.348851]]],[[[-71.058072,42.350946],[-71.058052,42.350873],[-71.057558,42.350757],[-71.057527,42.350772],[-71.057378,42.351533],[-71.057398,42.351606],[-71.057846,42.351674],[-71.057908,42.351417],[-71.057892,42.351358],[-71.057909,42.351356],[-71.05794,42.351251],[-71.05792,42.351178],[-71.057765,42.351143],[-71.057776,42.351096],[-71.057824,42.35115],[-71.058009,42.351176],[-71.058072,42.350946]]],[[[-71.057537,42.349866],[-71.057505,42.349748],[-71.057133,42.349667],[-71.05695,42.350087],[-71.056922,42.350095],[-71.056797,42.350339],[-71.05682,42.350424],[-71.056847,42.350427],[-71.056887,42.350541],[-71.056976,42.35058],[-71.05706,42.350559],[-71.057323,42.350622],[-71.057362,42.350613],[-71.057467,42.350105],[-71.057488,42.350108],[-71.057537,42.349866]]],[[[-71.057441,42.355413],[-71.057421,42.355262],[-71.057329,42.354923],[-71.05689,42.354747],[-71.056502,42.354776],[-71.056566,42.355133],[-71.056658,42.355472],[-71.057441,42.355413]]],[[[-71.057338,42.350758],[-71.05732,42.350691],[-71.05694,42.350597],[-71.056815,42.350607],[-71.056678,42.350643],[-71.05656,42.350888],[-71.056578,42.350955],[-71.056919,42.351039],[-71.056543,42.350948],[-71.056401,42.351249],[-71.056421,42.351322],[-71.056776,42.351466],[-71.056804,42.351457],[-71.05696,42.351117],[-71.05694,42.351044],[-71.05698,42.351054],[-71.057047,42.350903],[-71.057065,42.350901],[-71.056841,42.351433],[-71.056858,42.351503],[-71.057126,42.351601],[-71.057174,42.351586],[-71.057338,42.350758]]],[[[-71.057182,42.351841],[-71.057141,42.351687],[-71.056525,42.351411],[-71.056294,42.351331],[-71.056079,42.351765],[-71.056111,42.351882],[-71.056535,42.351992],[-71.056544,42.352029],[-71.057119,42.352179],[-71.057182,42.351841]]],[[[-71.057043,42.352393],[-71.057,42.352232],[-71.056202,42.352031],[-71.05594,42.352127],[-71.055846,42.352326],[-71.055995,42.352879],[-71.056589,42.353028],[-71.056871,42.352923],[-71.056947,42.352757],[-71.056913,42.352631],[-71.056983,42.352525],[-71.057043,42.352393]]],[[[-71.057014,42.353888],[-71.057003,42.353611],[-71.056948,42.353395],[-71.056816,42.353425],[-71.056695,42.353478],[-71.056638,42.353263],[-71.056242,42.353099],[-71.055998,42.353225],[-71.05608,42.353532],[-71.056352,42.353644],[-71.056319,42.353664],[-71.056309,42.353689],[-71.056345,42.353902],[-71.056411,42.354104],[-71.056524,42.354119],[-71.056639,42.354104],[-71.056749,42.354065],[-71.05684,42.353953],[-71.057014,42.353888]]],[[[-71.056852,42.354518],[-71.056768,42.354123],[-71.056749,42.354112],[-71.056413,42.354145],[-71.056399,42.354161],[-71.056483,42.354554],[-71.056502,42.354566],[-71.056837,42.354533],[-71.056852,42.354518]]],[[[-71.05679,42.349256],[-71.056775,42.349199],[-71.056596,42.349149],[-71.055487,42.349466],[-71.055025,42.350377],[-71.05504,42.350434],[-71.055382,42.350696],[-71.05552,42.350749],[-71.055652,42.35076],[-71.056169,42.350746],[-71.056253,42.35073],[-71.056449,42.350338],[-71.05665,42.349839],[-71.05679,42.349256]]],[[[-71.056698,42.347658],[-71.056673,42.347544],[-71.055908,42.347262],[-71.054533,42.349309],[-71.054519,42.349436],[-71.054447,42.34941],[-71.053477,42.350853],[-71.053502,42.350946],[-71.054083,42.351161],[-71.05412,42.351113],[-71.054344,42.351196],[-71.055314,42.349749],[-71.055307,42.349724],[-71.055284,42.349716],[-71.055385,42.349615],[-71.056698,42.347658]]],[[[-71.056423,42.35563],[-71.056288,42.354884],[-71.056229,42.354666],[-71.056147,42.354629],[-71.05626,42.354612],[-71.056209,42.354424],[-71.056223,42.354422],[-71.056092,42.353765],[-71.055891,42.353852],[-71.055913,42.353973],[-71.055688,42.354072],[-71.055589,42.353983],[-71.055567,42.353993],[-71.055411,42.354084],[-71.055441,42.354195],[-71.055142,42.354338],[-71.055073,42.354096],[-71.05493,42.353943],[-71.054851,42.353901],[-71.054776,42.353908],[-71.054378,42.354122],[-71.054355,42.354162],[-71.054358,42.354189],[-71.054464,42.354578],[-71.054719,42.354843],[-71.054786,42.354857],[-71.054864,42.354818],[-71.055013,42.35496],[-71.055184,42.354887],[-71.055297,42.354991],[-71.055347,42.354995],[-71.055576,42.354858],[-71.055688,42.355479],[-71.055747,42.355697],[-71.055862,42.355702],[-71.055936,42.355939],[-71.056388,42.355895],[-71.056346,42.35565],[-71.056423,42.35563]],[[-71.055691,42.354674],[-71.055669,42.354678],[-71.055649,42.354606],[-71.055657,42.354582],[-71.055691,42.354674]]],[[[-71.056087,42.353706],[-71.056064,42.353622],[-71.055897,42.353294],[-71.055573,42.353469],[-71.055582,42.353501],[-71.055421,42.353589],[-71.055376,42.353638],[-71.055342,42.353603],[-71.054915,42.353838],[-71.054933,42.353903],[-71.055174,42.354145],[-71.055501,42.353933],[-71.05555,42.353915],[-71.055597,42.353963],[-71.055674,42.353948],[-71.05586,42.353865],[-71.055846,42.353813],[-71.056087,42.353706]]],[[[-71.055792,42.351708],[-71.055768,42.35162],[-71.055498,42.351545],[-71.054479,42.351779],[-71.054307,42.351954],[-71.054331,42.352042],[-71.054857,42.35232],[-71.055017,42.352371],[-71.055185,42.352396],[-71.055362,42.352356],[-71.055482,42.352266],[-71.055573,42.352157],[-71.055792,42.351708]]]]},"properties":{"kind":"building"}},{"type":"Feature","geometry":{"type":"MultiPolygon","coordinates":[[[[-71.066073,42.353506],[-71.066047,42.35341],[-71.065968,42.353351],[-71.065856,42.353351],[-71.065809,42.353375],[-71.065777,42.35341],[-71.065766,42.353451],[-71.065792,42.353548],[-71.065871,42.353606],[-71.065983,42.353606],[-71.06603,42.353583],[-71.066062,42.353548],[-71.066073,42.353506]]],[[[-71.066061,42.352973],[-71.066021,42.352832],[-71.065989,42.352797],[-71.065886,42.352765],[-71.065783,42.352797],[-71.06575,42.352742],[-71.06567,42.352727],[-71.065665,42.352659],[-71.065698,42.352665],[-71.065751,42.352649],[-71.065822,42.352681],[-71.065887,42.352651],[-71.065928,42.352685],[-71.065986,42.352685],[-71.066026,42.352655],[-71.066016,42.352576],[-71.065976,42.352546],[-71.065918,42.352546],[-71.065882,42.352572],[-71.065841,42.352538],[-71.065759,42.35255],[-71.065717,42.352522],[-71.065659,42.352522],[-71.065619,42.352552],[-71.065622,42.352604],[-71.065539,42.352598],[-71.06549,42.352634],[-71.06549,42.352686],[-71.065521,42.35275],[-71.065617,42.352765],[-71.065612,42.352784],[-71.065525,42.352783],[-71.065472,42.352821],[-71.065465,42.352849],[-71.065484,42.352921],[-71.065463,42.35295],[-71.065463,42.352996],[-71.065408,42.353037],[-71.0654,42.353066],[-71.065419,42.353137],[-71.065375,42.353174],[-71.065374,42.353233],[-71.065321,42.353203],[-71.065209,42.353203],[-71.065207,42.353143],[-71.065165,42.353122],[-71.065133,42.353132],[-71.06512,42.353156],[-71.06514,42.353207],[-71.065186,42.353215],[-71.065133,42.353259],[-71.06512,42.353212],[-71.06506,42.353168],[-71.065018,42.353161],[-71.064949,42.353181],[-71.064928,42.353066],[-71.064865,42.353015],[-71.06483,42.352952],[-71.064745,42.352926],[-71.06466,42.352952],[-71.064625,42.353015],[-71.064673,42.353204],[-71.064705,42.353239],[-71.064765,42.353264],[-71.064757,42.353275],[-71.064701,42.353248],[-71.064617,42.353248],[-71.064557,42.353292],[-71.064549,42.353323],[-71.06457,42.353403],[-71.064594,42.35343],[-71.064672,42.353453],[-71.06475,42.35343],[-71.064778,42.35339],[-71.064818,42.353401],[-71.064868,42.353385],[-71.064889,42.353348],[-71.064874,42.353292],[-71.064848,42.353269],[-71.064908,42.35324],[-71.064929,42.353323],[-71.064989,42.353367],[-71.065073,42.353367],[-71.065126,42.353331],[-71.065141,42.353386],[-71.065081,42.353409],[-71.065045,42.353473],[-71.065068,42.353561],[-71.065095,42.353591],[-71.065182,42.353617],[-71.06523,42.35361],[-71.06527,42.353591],[-71.065302,42.35354],[-71.065328,42.353605],[-71.06536,42.35364],[-71.065427,42.353666],[-71.065453,42.35373],[-71.065513,42.353741],[-71.065534,42.353818],[-71.065598,42.353828],[-71.065634,42.353788],[-71.065621,42.353739],[-71.065589,42.353716],[-71.065554,42.353715],[-71.065546,42.35365],[-71.065598,42.353605],[-71.065609,42.353563],[-71.065583,42.353467],[-71.065504,42.353408],[-71.065409,42.353406],[-71.065426,42.353358],[-71.065415,42.353317],[-71.06549,42.353335],[-71.065532,42.353329],[-71.065638,42.353272],[-71.065666,42.353222],[-71.065647,42.353152],[-71.065617,42.353125],[-71.065679,42.35314],[-71.06569,42.353224],[-71.065732,42.353255],[-71.065769,42.353312],[-71.065836,42.353332],[-71.065902,42.353312],[-71.06593,42.353262],[-71.065898,42.353178],[-71.065956,42.353173],[-71.066021,42.353125],[-71.06603,42.353091],[-71.066016,42.353038],[-71.066052,42.353005],[-71.066061,42.352973]],[[-71.065759,42.352944],[-71.065742,42.352958],[-71.06565,42.352936],[-71.065667,42.352876],[-71.065735,42.352879],[-71.065759,42.352944]]],[[[-71.066056,42.355007],[-71.066041,42.354953],[-71.066004,42.354925],[-71.065952,42.354925],[-71.065915,42.354953],[-71.065924,42.355026],[-71.065961,42.355053],[-71.066013,42.355053],[-71.066056,42.355007]]],[[[-71.066027,42.354086],[-71.066017,42.35405],[-71.065996,42.354034],[-71.065945,42.35405],[-71.065952,42.354097],[-71.065973,42.354113],[-71.066003,42.354113],[-71.066027,42.354086]]],[[[-71.065975,42.354166],[-71.065968,42.35414],[-71.065938,42.35413],[-71.065945,42.354109],[-71.065923,42.354056],[-71.06587,42.354048],[-71.065844,42.354067],[-71.065862,42.354135],[-71.065897,42.354145],[-71.06593,42.354136],[-71.065944,42.354181],[-71.065975,42.354166]]],[[[-71.06588,42.354523],[-71.065855,42.354431],[-71.065785,42.354379],[-71.065685,42.354379],[-71.065615,42.354431],[-71.065605,42.354468],[-71.06563,42.35456],[-71.0657,42.354612],[-71.0658,42.354612],[-71.065842,42.354591],[-71.06588,42.354523]]],[[[-71.065839,42.348072],[-71.065825,42.34802],[-71.06579,42.347994],[-71.06574,42.347994],[-71.065705,42.34802],[-71.065714,42.34809],[-71.065749,42.348116],[-71.065799,42.348116],[-71.065839,42.348072]]],[[[-71.065798,42.348211],[-71.065786,42.348164],[-71.065756,42.348142],[-71.065714,42.348142],[-71.065684,42.348164],[-71.065692,42.348226],[-71.065722,42.348248],[-71.065764,42.348248],[-71.065798,42.348211]]],[[[-71.065771,42.353967],[-71.065749,42.353914],[-71.065696,42.353906],[-71.06567,42.353925],[-71.06567,42.353953],[-71.065619,42.353976],[-71.065627,42.354032],[-71.065653,42.354052],[-71.06569,42.354052],[-71.065717,42.354032],[-71.065717,42.354005],[-71.065757,42.353993],[-71.065771,42.353967]]],[[[-71.065747,42.348478],[-71.065734,42.348429],[-71.065702,42.348406],[-71.065658,42.348406],[-71.065626,42.348429],[-71.065635,42.348494],[-71.065666,42.348518],[-71.065711,42.348518],[-71.065747,42.348478]]],[[[-71.065732,42.348307],[-71.065717,42.348281],[-71.065693,42.348288],[-71.065707,42.34832],[-71.065732,42.348307]]],[[[-71.065698,42.354896],[-71.065674,42.354808],[-71.065647,42.354779],[-71.06556,42.354752],[-71.065489,42.35477],[-71.065481,42.354739],[-71.065444,42.354711],[-71.065392,42.354711],[-71.065362,42.354731],[-71.065327,42.354655],[-71.065232,42.354615],[-71.065147,42.354627],[-71.065124,42.354668],[-71.06513,42.35469],[-71.065071,42.35471],[-71.065048,42.354751],[-71.065081,42.35483],[-71.065168,42.354879],[-71.065244,42.354868],[-71.06529,42.354919],[-71.065372,42.354907],[-71.065394,42.354868],[-71.065385,42.354837],[-71.065427,42.354843],[-71.06546,42.354931],[-71.065527,42.35498],[-71.065622,42.35498],[-71.065662,42.354961],[-71.065698,42.354896]]],[[[-71.065608,42.353895],[-71.065596,42.353851],[-71.065568,42.353831],[-71.065528,42.353831],[-71.0655,42.353851],[-71.065508,42.35391],[-71.065536,42.353931],[-71.065576,42.353931],[-71.065608,42.353895]]],[[[-71.065602,42.34897],[-71.065587,42.348945],[-71.065563,42.348952],[-71.065577,42.348983],[-71.065602,42.34897]]],[[[-71.065593,42.35124],[-71.065577,42.351211],[-71.065553,42.351218],[-71.065567,42.351252],[-71.065593,42.35124]]],[[[-71.065566,42.349107],[-71.065551,42.349082],[-71.065527,42.349089],[-71.065541,42.34912],[-71.065566,42.349107]]],[[[-71.065565,42.349261],[-71.065555,42.349222],[-71.065529,42.349203],[-71.065491,42.349203],[-71.065465,42.349222],[-71.065472,42.349274],[-71.065498,42.349294],[-71.065535,42.349294],[-71.065565,42.349261]]],[[[-71.065561,42.348349],[-71.065547,42.348299],[-71.065514,42.348274],[-71.065466,42.348274],[-71.065433,42.348299],[-71.065442,42.348366],[-71.065475,42.348391],[-71.065522,42.348391],[-71.065561,42.348349]]],[[[-71.065552,42.348124],[-71.065537,42.348098],[-71.065513,42.348105],[-71.065527,42.348137],[-71.065552,42.348124]]],[[[-71.065501,42.353898],[-71.065477,42.353838],[-71.065424,42.353828],[-71.065396,42.353753],[-71.065322,42.353742],[-71.065285,42.35377],[-71.065294,42.353843],[-71.065331,42.35387],[-71.065383,42.35387],[-71.065407,42.353926],[-71.065467,42.353935],[-71.065501,42.353898]]],[[[-71.065488,42.348466],[-71.065469,42.34843],[-71.065439,42.34844],[-71.065457,42.348481],[-71.065488,42.348466]]],[[[-71.065477,42.352634],[-71.065457,42.352558],[-71.065401,42.352516],[-71.065321,42.352516],[-71.065265,42.352558],[-71.065257,42.352587],[-71.065278,42.352663],[-71.065334,42.352705],[-71.065413,42.352705],[-71.065447,42.352688],[-71.065477,42.352634]]],[[[-71.065439,42.348815],[-71.065429,42.348776],[-71.065403,42.348757],[-71.065365,42.348757],[-71.065339,42.348776],[-71.065346,42.348828],[-71.065372,42.348848],[-71.065409,42.348848],[-71.065439,42.348815]]],[[[-71.065402,42.348964],[-71.065374,42.348916],[-71.065327,42.34893],[-71.065334,42.348974],[-71.065353,42.348988],[-71.06538,42.348988],[-71.065402,42.348964]]],[[[-71.065389,42.354004],[-71.065375,42.353952],[-71.06534,42.353926],[-71.065295,42.353925],[-71.065269,42.35386],[-71.065201,42.35385],[-71.065168,42.353875],[-71.065177,42.353942],[-71.06521,42.353967],[-71.065251,42.353968],[-71.065278,42.354038],[-71.065349,42.354048],[-71.065389,42.354004]]],[[[-71.065386,42.349098],[-71.065375,42.349056],[-71.065349,42.349037],[-71.065311,42.349037],[-71.065285,42.349056],[-71.065293,42.349112],[-71.065319,42.349132],[-71.065356,42.349132],[-71.065386,42.349098]]],[[[-71.065372,42.351226],[-71.065357,42.351198],[-71.065333,42.351205],[-71.065347,42.351238],[-71.065372,42.351226]]],[[[-71.065318,42.353086],[-71.065303,42.353032],[-71.065274,42.353008],[-71.065271,42.352957],[-71.06525,42.352941],[-71.065207,42.352948],[-71.065196,42.352968],[-71.065206,42.353004],[-71.065172,42.353051],[-71.065186,42.353105],[-71.065249,42.353136],[-71.065298,42.353121],[-71.065318,42.353086]]],[[[-71.065272,42.351224],[-71.065257,42.351198],[-71.065233,42.351205],[-71.065247,42.351237],[-71.065272,42.351224]]],[[[-71.065257,42.354096],[-71.065231,42.354033],[-71.06517,42.354024],[-71.065142,42.353957],[-71.065071,42.353947],[-71.065036,42.353973],[-71.065045,42.354043],[-71.06508,42.354069],[-71.06513,42.354069],[-71.065157,42.354126],[-71.065221,42.354136],[-71.065257,42.354096]]],[[[-71.065213,42.352817],[-71.0652,42.352768],[-71.065168,42.352745],[-71.065124,42.352745],[-71.065092,42.352768],[-71.065088,42.352877],[-71.065047,42.352891],[-71.065027,42.352928],[-71.065057,42.353001],[-71.065108,42.353017],[-71.065174,42.352984],[-71.065164,42.35291],[-71.065183,42.352894],[-71.06518,42.352855],[-71.065213,42.352817]]],[[[-71.065182,42.350741],[-71.06516,42.350702],[-71.065126,42.350713],[-71.065146,42.350759],[-71.065182,42.350741]]],[[[-71.065157,42.350805],[-71.065135,42.350766],[-71.065101,42.350777],[-71.065121,42.350823],[-71.065157,42.350805]]],[[[-71.065135,42.350872],[-71.065117,42.35084],[-71.065092,42.350847],[-71.065108,42.350885],[-71.065135,42.350872]]],[[[-71.065121,42.352626],[-71.065102,42.352553],[-71.065049,42.352515],[-71.064975,42.352515],[-71.064922,42.352553],[-71.064915,42.352581],[-71.064934,42.352653],[-71.064987,42.352692],[-71.065061,42.352692],[-71.065093,42.352676],[-71.065121,42.352626]]],[[[-71.065112,42.354625],[-71.065098,42.354575],[-71.065065,42.35455],[-71.065017,42.35455],[-71.064984,42.354575],[-71.064993,42.354642],[-71.065026,42.354667],[-71.065073,42.354667],[-71.065112,42.354625]]],[[[-71.065108,42.354211],[-71.065095,42.354162],[-71.065063,42.354139],[-71.065019,42.354139],[-71.064987,42.354162],[-71.064996,42.354227],[-71.065027,42.354251],[-71.065072,42.354251],[-71.065108,42.354211]]],[[[-71.065076,42.354491],[-71.065062,42.354441],[-71.065005,42.354412],[-71.064961,42.354426],[-71.064868,42.354419],[-71.064824,42.354451],[-71.064818,42.354474],[-71.064852,42.354556],[-71.06491,42.354573],[-71.064985,42.354536],[-71.065057,42.354523],[-71.065076,42.354491]]],[[[-71.065027,42.353514],[-71.065012,42.353458],[-71.064973,42.353429],[-71.064919,42.353429],[-71.06488,42.353458],[-71.06489,42.353534],[-71.064928,42.353563],[-71.064983,42.353563],[-71.065027,42.353514]]],[[[-71.065007,42.354703],[-71.064989,42.354635],[-71.06494,42.354599],[-71.06487,42.354599],[-71.064821,42.354635],[-71.064832,42.354729],[-71.064882,42.354765],[-71.064873,42.354795],[-71.064885,42.354841],[-71.064915,42.354863],[-71.064957,42.354863],[-71.064987,42.354841],[-71.064967,42.354766],[-71.065007,42.354703]]],[[[-71.064963,42.354323],[-71.064951,42.354279],[-71.064923,42.354259],[-71.064883,42.354259],[-71.064855,42.354279],[-71.064863,42.354338],[-71.064891,42.354359],[-71.064931,42.354359],[-71.064963,42.354323]]],[[[-71.064948,42.351326],[-71.064933,42.351298],[-71.064909,42.351305],[-71.064923,42.351338],[-71.064948,42.351326]]],[[[-71.064946,42.353999],[-71.064929,42.353937],[-71.064885,42.353905],[-71.064797,42.353918],[-71.064779,42.353878],[-71.064737,42.353847],[-71.064677,42.353847],[-71.064642,42.35387],[-71.064632,42.353832],[-71.064588,42.3538],[-71.064508,42.353809],[-71.064441,42.353775],[-71.064453,42.353725],[-71.064492,42.353674],[-71.064464,42.353606],[-71.064393,42.353596],[-71.064358,42.353622],[-71.064358,42.353658],[-71.064324,42.353692],[-71.064324,42.353728],[-71.064284,42.353761],[-71.064292,42.353823],[-71.064258,42.353857],[-71.064258,42.353905],[-71.064238,42.353945],[-71.064272,42.354026],[-71.06422,42.35406],[-71.064227,42.354131],[-71.064149,42.354121],[-71.064109,42.354151],[-71.064118,42.354224],[-71.064088,42.354236],[-71.064069,42.35427],[-71.064083,42.354322],[-71.064136,42.354351],[-71.064176,42.354416],[-71.064223,42.354439],[-71.064335,42.354439],[-71.064414,42.354381],[-71.064425,42.354339],[-71.064399,42.354243],[-71.064367,42.354208],[-71.064251,42.354166],[-71.064337,42.354178],[-71.064381,42.354145],[-71.064387,42.354122],[-71.064353,42.354041],[-71.064405,42.354007],[-71.064406,42.353966],[-71.06443,42.353925],[-71.064492,42.353916],[-71.064531,42.353947],[-71.064555,42.354044],[-71.064485,42.354046],[-71.06445,42.354063],[-71.064419,42.354119],[-71.06444,42.354197],[-71.064463,42.354223],[-71.064539,42.354246],[-71.06458,42.35424],[-71.064638,42.354197],[-71.064646,42.354167],[-71.064608,42.354069],[-71.064671,42.354061],[-71.064706,42.354087],[-71.064761,42.354087],[-71.064805,42.354039],[-71.064834,42.354055],[-71.064896,42.354055],[-71.064922,42.354042],[-71.064946,42.353999]]],[[[-71.064923,42.355033],[-71.064903,42.354957],[-71.064847,42.354915],[-71.064767,42.354915],[-71.064711,42.354957],[-71.064703,42.354986],[-71.064724,42.355062],[-71.06478,42.355104],[-71.064859,42.355104],[-71.064893,42.355087],[-71.064923,42.355033]]],[[[-71.064922,42.354198],[-71.064911,42.354156],[-71.064885,42.354137],[-71.064847,42.354137],[-71.064821,42.354156],[-71.064829,42.354212],[-71.064855,42.354232],[-71.064892,42.354232],[-71.064922,42.354198]]],[[[-71.064861,42.34847],[-71.064846,42.348444],[-71.064822,42.348451],[-71.064836,42.348483],[-71.064861,42.34847]]],[[[-71.064819,42.354497],[-71.064798,42.354419],[-71.064744,42.354378],[-71.064774,42.354338],[-71.064759,42.354284],[-71.064696,42.354253],[-71.064633,42.354284],[-71.064633,42.354322],[-71.064657,42.354373],[-71.064616,42.354356],[-71.064571,42.354378],[-71.064604,42.354495],[-71.064573,42.354497],[-71.064548,42.354444],[-71.064507,42.354432],[-71.064466,42.354444],[-71.064449,42.354475],[-71.064474,42.354537],[-71.064538,42.354547],[-71.064562,42.354599],[-71.064604,42.354612],[-71.064645,42.354599],[-71.064662,42.354569],[-71.064712,42.354576],[-71.064788,42.354553],[-71.064819,42.354497]]],[[[-71.064744,42.353582],[-71.064724,42.353508],[-71.06467,42.353467],[-71.064592,42.353467],[-71.064538,42.353508],[-71.06453,42.353536],[-71.06455,42.35361],[-71.064605,42.35365],[-71.064682,42.35365],[-71.064714,42.353634],[-71.064744,42.353582]]],[[[-71.064743,42.354811],[-71.064728,42.354785],[-71.064704,42.354792],[-71.064718,42.354824],[-71.064743,42.354811]]],[[[-71.064628,42.35184],[-71.064613,42.351814],[-71.064589,42.351821],[-71.064603,42.351853],[-71.064628,42.35184]]],[[[-71.064625,42.348439],[-71.06461,42.348413],[-71.064586,42.34842],[-71.0646,42.348452],[-71.064625,42.348439]]],[[[-71.064572,42.352071],[-71.064557,42.352043],[-71.064533,42.35205],[-71.064547,42.352083],[-71.064572,42.352071]]],[[[-71.06457,42.352123],[-71.064552,42.352091],[-71.064527,42.352098],[-71.064543,42.352136],[-71.06457,42.352123]]],[[[-71.064554,42.35465],[-71.064531,42.354594],[-71.064474,42.354586],[-71.064445,42.354531],[-71.064382,42.354522],[-71.06435,42.354545],[-71.064359,42.35461],[-71.06439,42.354634],[-71.064444,42.354629],[-71.064465,42.354678],[-71.064522,42.354686],[-71.064554,42.35465]]],[[[-71.064552,42.352174],[-71.064537,42.352148],[-71.064513,42.352155],[-71.064527,42.352187],[-71.064552,42.352174]]],[[[-71.064463,42.354726],[-71.064439,42.354666],[-71.064379,42.354657],[-71.064353,42.354608],[-71.064296,42.3546],[-71.064268,42.35462],[-71.064276,42.354679],[-71.064304,42.3547],[-71.064344,42.3547],[-71.064369,42.354754],[-71.064429,42.354763],[-71.064463,42.354726]]],[[[-71.06444,42.348413],[-71.064425,42.348387],[-71.064401,42.348394],[-71.064415,42.348426],[-71.06444,42.348413]]],[[[-71.064384,42.354817],[-71.064354,42.354744],[-71.064276,42.354732],[-71.064251,42.354684],[-71.064191,42.354675],[-71.064161,42.354697],[-71.064169,42.354759],[-71.064199,42.354781],[-71.064232,42.354783],[-71.064262,42.354854],[-71.06434,42.354866],[-71.064384,42.354817]]],[[[-71.064242,42.350939],[-71.064227,42.350913],[-71.064203,42.35092],[-71.064217,42.350952],[-71.064242,42.350939]]],[[[-71.064214,42.34874],[-71.064195,42.348704],[-71.064165,42.348714],[-71.064183,42.348755],[-71.064214,42.34874]]],[[[-71.064199,42.354578],[-71.064173,42.354482],[-71.064127,42.35444],[-71.064093,42.354357],[-71.064036,42.354339],[-71.063979,42.354357],[-71.063955,42.354399],[-71.063964,42.354432],[-71.063903,42.354482],[-71.063892,42.354523],[-71.063918,42.35462],[-71.06395,42.354655],[-71.064053,42.354686],[-71.064109,42.354678],[-71.064156,42.354655],[-71.064188,42.35462],[-71.064199,42.354578]]],[[[-71.064173,42.348858],[-71.064157,42.348828],[-71.064133,42.348835],[-71.064148,42.34887],[-71.064173,42.348858]]],[[[-71.064152,42.350928],[-71.064137,42.350902],[-71.064113,42.350909],[-71.064127,42.350941],[-71.064152,42.350928]]],[[[-71.064093,42.353318],[-71.064077,42.353288],[-71.064053,42.353295],[-71.064068,42.35333],[-71.064093,42.353318]]],[[[-71.064089,42.350937],[-71.064062,42.350892],[-71.06402,42.350905],[-71.064026,42.350946],[-71.064044,42.350959],[-71.064069,42.350959],[-71.064089,42.350937]]],[[[-71.064055,42.353409],[-71.064037,42.353377],[-71.064012,42.353384],[-71.064028,42.353422],[-71.064055,42.353409]]],[[[-71.064018,42.353301],[-71.064002,42.353271],[-71.063978,42.353278],[-71.063993,42.353313],[-71.064018,42.353301]]],[[[-71.064003,42.353778],[-71.063987,42.353748],[-71.063963,42.353755],[-71.063978,42.35379],[-71.064003,42.353778]]],[[[-71.06399,42.353405],[-71.063972,42.353373],[-71.063947,42.35338],[-71.063963,42.353418],[-71.06399,42.353405]]],[[[-71.06398,42.350928],[-71.06397,42.350892],[-71.063949,42.350876],[-71.063898,42.350892],[-71.063905,42.350939],[-71.063926,42.350955],[-71.063956,42.350955],[-71.06398,42.350928]]],[[[-71.063973,42.354747],[-71.063938,42.354663],[-71.063846,42.354649],[-71.0638,42.354683],[-71.063799,42.354727],[-71.063755,42.354758],[-71.063765,42.35484],[-71.063807,42.354871],[-71.063867,42.354871],[-71.063909,42.35484],[-71.063912,42.354806],[-71.063948,42.354791],[-71.063973,42.354747]]],[[[-71.063948,42.353288],[-71.063929,42.353252],[-71.063899,42.353262],[-71.063917,42.353303],[-71.063948,42.353288]]],[[[-71.063933,42.353392],[-71.063917,42.353362],[-71.063893,42.353369],[-71.063908,42.353404],[-71.063933,42.353392]]],[[[-71.063929,42.35399],[-71.063902,42.353945],[-71.06386,42.353958],[-71.063866,42.353999],[-71.063884,42.354012],[-71.063909,42.354012],[-71.063929,42.35399]]],[[[-71.063921,42.348694],[-71.063903,42.348662],[-71.063878,42.348669],[-71.063894,42.348707],[-71.063921,42.348694]]],[[[-71.063898,42.348763],[-71.063879,42.348727],[-71.063849,42.348737],[-71.063867,42.348778],[-71.063898,42.348763]]],[[[-71.063885,42.348889],[-71.063867,42.348857],[-71.063842,42.348864],[-71.063858,42.348902],[-71.063885,42.348889]]],[[[-71.063877,42.348807],[-71.063862,42.348781],[-71.063838,42.348788],[-71.063852,42.34882],[-71.063877,42.348807]]],[[[-71.063825,42.349162],[-71.06381,42.349136],[-71.063786,42.349143],[-71.0638,42.349175],[-71.063825,42.349162]]],[[[-71.063822,42.354141],[-71.0638,42.354102],[-71.063766,42.354113],[-71.063786,42.354159],[-71.063822,42.354141]]],[[[-71.063812,42.348441],[-71.063797,42.348415],[-71.063773,42.348422],[-71.063787,42.348454],[-71.063812,42.348441]]],[[[-71.063772,42.349307],[-71.063757,42.349281],[-71.063733,42.349288],[-71.063747,42.34932],[-71.063772,42.349307]]],[[[-71.063759,42.349349],[-71.063744,42.349323],[-71.06372,42.34933],[-71.063734,42.349362],[-71.063759,42.349349]]],[[[-71.063722,42.348424],[-71.063707,42.348398],[-71.063683,42.348405],[-71.063697,42.348437],[-71.063722,42.348424]]],[[[-71.063714,42.350906],[-71.063687,42.350861],[-71.063645,42.350874],[-71.063651,42.350915],[-71.063669,42.350928],[-71.063694,42.350928],[-71.063714,42.350906]]],[[[-71.063695,42.349779],[-71.063677,42.349747],[-71.063652,42.349754],[-71.063668,42.349792],[-71.063695,42.349779]]],[[[-71.063637,42.349872],[-71.063621,42.349842],[-71.063597,42.349849],[-71.063612,42.349884],[-71.063637,42.349872]]],[[[-71.063618,42.350896],[-71.063599,42.35086],[-71.063569,42.35087],[-71.063587,42.350911],[-71.063618,42.350896]]],[[[-71.063585,42.349969],[-71.063567,42.349937],[-71.063542,42.349944],[-71.063558,42.349982],[-71.063585,42.349969]]],[[[-71.063575,42.354725],[-71.063565,42.354686],[-71.063539,42.354667],[-71.063501,42.354667],[-71.063475,42.354686],[-71.063482,42.354738],[-71.063508,42.354758],[-71.063545,42.354758],[-71.063575,42.354725]]],[[[-71.063553,42.350018],[-71.063537,42.349988],[-71.063513,42.349995],[-71.063528,42.35003],[-71.063553,42.350018]]],[[[-71.063552,42.350885],[-71.06353,42.350846],[-71.063496,42.350857],[-71.063516,42.350903],[-71.063552,42.350885]]],[[[-71.063515,42.354825],[-71.063505,42.354786],[-71.063479,42.354767],[-71.063441,42.354767],[-71.063415,42.354786],[-71.063422,42.354838],[-71.063448,42.354858],[-71.063485,42.354858],[-71.063515,42.354825]]],[[[-71.063463,42.350436],[-71.063447,42.350406],[-71.063423,42.350413],[-71.063438,42.350448],[-71.063463,42.350436]]],[[[-71.063463,42.350197],[-71.063447,42.350168],[-71.063423,42.350175],[-71.063437,42.350209],[-71.063463,42.350197]]],[[[-71.063439,42.350504],[-71.063423,42.350475],[-71.063399,42.350482],[-71.063413,42.350516],[-71.063439,42.350504]]],[[[-71.063433,42.350263],[-71.063417,42.350234],[-71.063393,42.350241],[-71.063407,42.350275],[-71.063433,42.350263]]],[[[-71.063408,42.350297],[-71.063392,42.350268],[-71.063368,42.350275],[-71.063382,42.350309],[-71.063408,42.350297]]],[[[-71.063407,42.350566],[-71.063392,42.350538],[-71.063368,42.350545],[-71.063382,42.350578],[-71.063407,42.350566]]],[[[-71.063392,42.350847],[-71.06337,42.350808],[-71.063389,42.350787],[-71.063381,42.350757],[-71.063333,42.35075],[-71.063325,42.350765],[-71.063349,42.350807],[-71.063336,42.350819],[-71.063342,42.350854],[-71.063366,42.350866],[-71.063392,42.350847]]],[[[-71.063375,42.350723],[-71.063357,42.350691],[-71.063332,42.350698],[-71.063348,42.350736],[-71.063375,42.350723]]],[[[-71.063372,42.350626],[-71.063357,42.350598],[-71.063333,42.350605],[-71.063347,42.350638],[-71.063372,42.350626]]],[[[-71.063332,42.350456],[-71.063317,42.350428],[-71.063293,42.350435],[-71.063307,42.350468],[-71.063332,42.350456]]],[[[-71.063303,42.3505],[-71.063287,42.350471],[-71.063263,42.350478],[-71.063277,42.350512],[-71.063303,42.3505]]],[[[-71.063278,42.350553],[-71.063262,42.350524],[-71.063238,42.350531],[-71.063252,42.350565],[-71.063278,42.350553]]],[[[-71.063253,42.3506],[-71.063237,42.35057],[-71.063213,42.350577],[-71.063228,42.350612],[-71.063253,42.3506]]],[[[-71.063233,42.350648],[-71.063217,42.350618],[-71.063193,42.350625],[-71.063208,42.35066],[-71.063233,42.350648]]],[[[-71.063202,42.35069],[-71.063187,42.350665],[-71.063163,42.350672],[-71.063177,42.350703],[-71.063202,42.35069]]],[[[-71.063183,42.350744],[-71.063167,42.350715],[-71.063143,42.350722],[-71.063157,42.350756],[-71.063183,42.350744]]],[[[-71.063155,42.350784],[-71.063137,42.350752],[-71.063112,42.350759],[-71.063128,42.350797],[-71.063155,42.350784]]],[[[-71.063148,42.352254],[-71.063133,42.352226],[-71.063109,42.352233],[-71.063123,42.352266],[-71.063148,42.352254]]],[[[-71.063087,42.352266],[-71.063072,42.352238],[-71.063048,42.352245],[-71.063062,42.352278],[-71.063087,42.352266]]],[[[-71.062987,42.352269],[-71.062972,42.352241],[-71.062948,42.352248],[-71.062962,42.352281],[-71.062987,42.352269]]],[[[-71.062927,42.352237],[-71.062911,42.352208],[-71.062887,42.352215],[-71.062901,42.352249],[-71.062927,42.352237]]],[[[-71.062852,42.352231],[-71.062837,42.352203],[-71.062813,42.35221],[-71.062827,42.352243],[-71.062852,42.352231]]],[[[-71.062835,42.353321],[-71.062817,42.353289],[-71.062792,42.353296],[-71.062808,42.353334],[-71.062835,42.353321]]],[[[-71.062835,42.353233],[-71.062817,42.353201],[-71.062792,42.353208],[-71.062808,42.353246],[-71.062835,42.353233]]],[[[-71.062769,42.353226],[-71.062751,42.353194],[-71.062726,42.353201],[-71.062742,42.353239],[-71.062769,42.353226]]],[[[-71.062768,42.353326],[-71.062749,42.35329],[-71.062719,42.3533],[-71.062737,42.353341],[-71.062768,42.353326]]],[[[-71.062565,42.348376],[-71.062541,42.348334],[-71.062501,42.348354],[-71.062525,42.348396],[-71.062565,42.348376]]],[[[-71.062503,42.349399],[-71.062493,42.349361],[-71.06247,42.349344],[-71.062415,42.349361],[-71.062422,42.349411],[-71.062445,42.349428],[-71.062477,42.349428],[-71.062503,42.349399]]],[[[-71.062468,42.348577],[-71.062449,42.348541],[-71.062419,42.348551],[-71.062437,42.348592],[-71.062468,42.348577]]],[[[-71.062416,42.348398],[-71.062406,42.348362],[-71.062385,42.348346],[-71.062334,42.348362],[-71.062341,42.348409],[-71.062362,42.348425],[-71.062392,42.348425],[-71.062416,42.348398]]],[[[-71.062399,42.349349],[-71.062389,42.349311],[-71.062366,42.349294],[-71.062311,42.349311],[-71.062318,42.349361],[-71.062341,42.349378],[-71.062373,42.349378],[-71.062399,42.349349]]],[[[-71.062045,42.353771],[-71.062027,42.353739],[-71.062002,42.353746],[-71.062018,42.353784],[-71.062045,42.353771]]],[[[-71.06201,42.34932],[-71.061995,42.349294],[-71.061971,42.349301],[-71.061985,42.349333],[-71.06201,42.34932]]],[[[-71.061992,42.353874],[-71.061977,42.353848],[-71.061953,42.353855],[-71.061967,42.353887],[-71.061992,42.353874]]],[[[-71.061955,42.349452],[-71.06194,42.349426],[-71.061916,42.349433],[-71.06193,42.349465],[-71.061955,42.349452]]],[[[-71.061947,42.349573],[-71.061937,42.349534],[-71.061911,42.349515],[-71.061873,42.349515],[-71.061847,42.349534],[-71.061854,42.349586],[-71.06188,42.349606],[-71.061917,42.349606],[-71.061947,42.349573]]],[[[-71.061932,42.349894],[-71.061917,42.349868],[-71.061893,42.349875],[-71.061907,42.349907],[-71.061932,42.349894]]],[[[-71.06193,42.353719],[-71.061912,42.353687],[-71.061887,42.353694],[-71.061903,42.353732],[-71.06193,42.353719]]],[[[-71.061915,42.353844],[-71.061897,42.353812],[-71.061872,42.353819],[-71.061888,42.353857],[-71.061915,42.353844]]],[[[-71.061902,42.34994],[-71.061887,42.349914],[-71.061863,42.349921],[-71.061877,42.349953],[-71.061902,42.34994]]],[[[-71.061896,42.350014],[-71.061881,42.349988],[-71.061857,42.349995],[-71.061871,42.350027],[-71.061896,42.350014]]],[[[-71.061872,42.350058],[-71.061857,42.350032],[-71.061833,42.350039],[-71.061847,42.350071],[-71.061872,42.350058]]],[[[-71.061859,42.348339],[-71.061848,42.348299],[-71.061823,42.348281],[-71.061789,42.348281],[-71.061764,42.348299],[-71.061771,42.348352],[-71.061796,42.34837],[-71.061831,42.34837],[-71.061859,42.348339]]],[[[-71.061842,42.350094],[-71.061827,42.350068],[-71.061803,42.350075],[-71.061817,42.350107],[-71.061842,42.350094]]],[[[-71.061832,42.353797],[-71.061817,42.353771],[-71.061793,42.353778],[-71.061807,42.35381],[-71.061832,42.353797]]],[[[-71.061831,42.353672],[-71.061813,42.35364],[-71.061788,42.353647],[-71.061804,42.353685],[-71.061831,42.353672]]],[[[-71.061828,42.350168],[-71.061813,42.350143],[-71.061789,42.35015],[-71.061803,42.350181],[-71.061828,42.350168]]],[[[-71.061802,42.350214],[-71.061787,42.350188],[-71.061763,42.350195],[-71.061777,42.350227],[-71.061802,42.350214]]],[[[-71.061796,42.350317],[-71.061778,42.350272],[-71.061722,42.350272],[-71.061717,42.350313],[-71.061678,42.350333],[-71.061685,42.350386],[-71.061727,42.350407],[-71.061759,42.350397],[-71.061773,42.350373],[-71.061765,42.350345],[-71.061796,42.350317]]],[[[-71.061774,42.348435],[-71.061759,42.348409],[-71.061735,42.348416],[-71.061749,42.348448],[-71.061774,42.348435]]],[[[-71.061772,42.349691],[-71.061762,42.349652],[-71.061736,42.349633],[-71.061698,42.349633],[-71.061672,42.349652],[-71.061679,42.349704],[-71.061705,42.349724],[-71.061742,42.349724],[-71.061772,42.349691]]],[[[-71.061765,42.353632],[-71.061755,42.353593],[-71.061729,42.353574],[-71.061691,42.353574],[-71.061665,42.353593],[-71.061672,42.353645],[-71.061698,42.353665],[-71.061735,42.353665],[-71.061765,42.353632]]],[[[-71.061751,42.353752],[-71.061736,42.353726],[-71.061712,42.353733],[-71.061726,42.353765],[-71.061751,42.353752]]],[[[-71.061699,42.348674],[-71.061689,42.348636],[-71.061666,42.348619],[-71.061611,42.348636],[-71.061618,42.348686],[-71.061641,42.348703],[-71.061673,42.348703],[-71.061699,42.348674]]],[[[-71.061653,42.348328],[-71.061641,42.348281],[-71.061611,42.348259],[-71.061569,42.348259],[-71.061539,42.348281],[-71.061547,42.348343],[-71.061577,42.348365],[-71.061619,42.348365],[-71.061653,42.348328]]],[[[-71.061633,42.353567],[-71.061617,42.353538],[-71.061593,42.353545],[-71.061607,42.353579],[-71.061633,42.353567]]],[[[-71.061614,42.348851],[-71.061599,42.348825],[-71.061575,42.348832],[-71.061589,42.348864],[-71.061614,42.348851]]],[[[-71.061612,42.348514],[-71.061597,42.348488],[-71.061573,42.348495],[-71.061587,42.348527],[-71.061612,42.348514]]],[[[-71.061602,42.348201],[-71.061586,42.348172],[-71.061562,42.348179],[-71.061576,42.348213],[-71.061602,42.348201]]],[[[-71.061573,42.348697],[-71.061562,42.348657],[-71.061537,42.348639],[-71.061503,42.348639],[-71.061478,42.348657],[-71.061485,42.34871],[-71.06151,42.348728],[-71.061545,42.348728],[-71.061573,42.348697]]],[[[-71.061554,42.349593],[-71.061544,42.349554],[-71.061518,42.349535],[-71.06148,42.349535],[-71.061455,42.349553],[-71.061435,42.349509],[-71.061401,42.349498],[-71.061356,42.34952],[-71.061363,42.349572],[-71.061389,42.349592],[-71.061426,42.349592],[-71.061452,42.349573],[-71.061471,42.349618],[-71.061506,42.349629],[-71.06154,42.349618],[-71.061554,42.349593]]],[[[-71.061509,42.34888],[-71.061499,42.348842],[-71.061476,42.348825],[-71.061421,42.348842],[-71.061428,42.348892],[-71.061451,42.348909],[-71.061483,42.348909],[-71.061509,42.34888]]],[[[-71.061498,42.35097],[-71.061479,42.350934],[-71.061449,42.350944],[-71.061467,42.350985],[-71.061498,42.35097]]],[[[-71.061481,42.348183],[-71.061467,42.348133],[-71.061434,42.348108],[-71.061386,42.348108],[-71.061353,42.348133],[-71.061362,42.3482],[-71.061406,42.348226],[-71.06139,42.348257],[-71.061414,42.348293],[-71.061456,42.34828],[-71.06145,42.348239],[-71.061433,42.348226],[-71.061462,42.348215],[-71.061481,42.348183]]],[[[-71.061443,42.349272],[-71.061427,42.349243],[-71.061403,42.34925],[-71.061417,42.349284],[-71.061443,42.349272]]],[[[-71.061422,42.351136],[-71.061407,42.35111],[-71.061383,42.351117],[-71.061397,42.351149],[-71.061422,42.351136]]],[[[-71.061405,42.349071],[-71.061387,42.349039],[-71.061362,42.349046],[-71.061378,42.349084],[-71.061405,42.349071]]],[[[-71.061401,42.351194],[-71.061386,42.351168],[-71.061362,42.351175],[-71.061376,42.351207],[-71.061401,42.351194]]],[[[-71.061375,42.351254],[-71.06136,42.351228],[-71.061336,42.351235],[-71.06135,42.351267],[-71.061375,42.351254]]],[[[-71.061372,42.349444],[-71.061357,42.349418],[-71.061333,42.349425],[-71.061347,42.349457],[-71.061372,42.349444]]],[[[-71.061356,42.351303],[-71.061341,42.351277],[-71.061317,42.351284],[-71.061331,42.351316],[-71.061356,42.351303]]],[[[-71.061355,42.34925],[-71.061331,42.349208],[-71.061291,42.349228],[-71.061315,42.34927],[-71.061355,42.34925]]],[[[-71.061286,42.349646],[-71.061271,42.349618],[-71.061247,42.349625],[-71.061261,42.349658],[-71.061286,42.349646]]],[[[-71.061265,42.349694],[-71.06125,42.349666],[-71.061226,42.349673],[-71.06124,42.349706],[-71.061265,42.349694]]],[[[-71.061248,42.353384],[-71.061233,42.353358],[-71.061209,42.353365],[-71.061223,42.353397],[-71.061248,42.353384]]],[[[-71.061242,42.354788],[-71.061227,42.354762],[-71.061203,42.354769],[-71.061217,42.354801],[-71.061242,42.354788]]],[[[-71.061229,42.349856],[-71.061219,42.349818],[-71.061196,42.349801],[-71.061141,42.349818],[-71.061148,42.349868],[-71.061171,42.349885],[-71.061203,42.349885],[-71.061229,42.349856]]],[[[-71.061192,42.35493],[-71.061177,42.354904],[-71.061153,42.354911],[-71.061167,42.354943],[-71.061192,42.35493]]],[[[-71.061192,42.353358],[-71.061177,42.353332],[-71.061153,42.353339],[-71.061167,42.353371],[-71.061192,42.353358]]],[[[-71.061164,42.350059],[-71.061152,42.350015],[-71.061124,42.349995],[-71.061084,42.349995],[-71.061056,42.350015],[-71.061064,42.350074],[-71.061092,42.350095],[-71.061132,42.350095],[-71.061164,42.350059]]],[[[-71.061142,42.353334],[-71.061127,42.353308],[-71.061103,42.353315],[-71.061117,42.353347],[-71.061142,42.353334]]],[[[-71.061053,42.353292],[-71.061037,42.353263],[-71.061013,42.35327],[-71.061027,42.353304],[-71.061053,42.353292]]],[[[-71.061042,42.348504],[-71.061027,42.348478],[-71.061003,42.348485],[-71.061017,42.348517],[-71.061042,42.348504]]],[[[-71.06104,42.348631],[-71.061028,42.348587],[-71.061,42.348567],[-71.06096,42.348567],[-71.060932,42.348587],[-71.06094,42.348646],[-71.060968,42.348667],[-71.061008,42.348667],[-71.06104,42.348631]]],[[[-71.061013,42.348748],[-71.061001,42.348701],[-71.060971,42.348679],[-71.060929,42.348679],[-71.060899,42.348701],[-71.060907,42.348763],[-71.060937,42.348785],[-71.060979,42.348785],[-71.061013,42.348748]]],[[[-71.060992,42.353377],[-71.060977,42.353351],[-71.060953,42.353358],[-71.060967,42.35339],[-71.060992,42.353377]]],[[[-71.060949,42.348853],[-71.060939,42.348815],[-71.060916,42.348798],[-71.060861,42.348815],[-71.060868,42.348865],[-71.060891,42.348882],[-71.060923,42.348882],[-71.060949,42.348853]]],[[[-71.060942,42.353234],[-71.060927,42.353208],[-71.060903,42.353215],[-71.060917,42.353247],[-71.060942,42.353234]]],[[[-71.060927,42.353346],[-71.060912,42.353318],[-71.060888,42.353325],[-71.060902,42.353358],[-71.060927,42.353346]]],[[[-71.060866,42.353316],[-71.060851,42.35329],[-71.060827,42.353297],[-71.060841,42.353329],[-71.060866,42.353316]]],[[[-71.060857,42.34921],[-71.060842,42.349154],[-71.060803,42.349125],[-71.060749,42.349125],[-71.06071,42.349154],[-71.06072,42.34923],[-71.060758,42.349259],[-71.060813,42.349259],[-71.060857,42.34921]]],[[[-71.060739,42.349415],[-71.060729,42.349376],[-71.060703,42.349357],[-71.060665,42.349357],[-71.060639,42.349376],[-71.060646,42.349428],[-71.060672,42.349448],[-71.060709,42.349448],[-71.060739,42.349415]]],[[[-71.060702,42.349534],[-71.060691,42.349492],[-71.060665,42.349473],[-71.060627,42.349473],[-71.060601,42.349492],[-71.060609,42.349548],[-71.060635,42.349568],[-71.060672,42.349568],[-71.060702,42.349534]]],[[[-71.060632,42.349274],[-71.060617,42.349248],[-71.060593,42.349255],[-71.060607,42.349287],[-71.060632,42.349274]]],[[[-71.060616,42.349698],[-71.060605,42.349656],[-71.060579,42.349637],[-71.060541,42.349637],[-71.060515,42.349656],[-71.060523,42.349712],[-71.060549,42.349732],[-71.060586,42.349732],[-71.060616,42.349698]]],[[[-71.060612,42.349314],[-71.060597,42.349288],[-71.060573,42.349295],[-71.060587,42.349327],[-71.060612,42.349314]]],[[[-71.060602,42.353054],[-71.060587,42.353028],[-71.060563,42.353035],[-71.060577,42.353067],[-71.060602,42.353054]]],[[[-71.060592,42.349356],[-71.060577,42.34933],[-71.060553,42.349337],[-71.060567,42.349369],[-71.060592,42.349356]]],[[[-71.06059,42.349821],[-71.060578,42.349777],[-71.06055,42.349757],[-71.06051,42.349757],[-71.060482,42.349777],[-71.06049,42.349836],[-71.060518,42.349857],[-71.060558,42.349857],[-71.06059,42.349821]]],[[[-71.060562,42.349421],[-71.060547,42.349395],[-71.060523,42.349402],[-71.060537,42.349434],[-71.060562,42.349421]]],[[[-71.060552,42.349469],[-71.060537,42.349441],[-71.060513,42.349448],[-71.060527,42.349481],[-71.060552,42.349469]]],[[[-71.060542,42.349519],[-71.060527,42.349491],[-71.060503,42.349498],[-71.060517,42.349531],[-71.060542,42.349519]]],[[[-71.060522,42.353011],[-71.060507,42.352985],[-71.060483,42.352992],[-71.060497,42.353024],[-71.060522,42.353011]]],[[[-71.060512,42.353299],[-71.060497,42.353271],[-71.060473,42.353278],[-71.060487,42.353311],[-71.060512,42.353299]]],[[[-71.060508,42.353164],[-71.060493,42.353138],[-71.060469,42.353145],[-71.060483,42.353177],[-71.060508,42.353164]]],[[[-71.060508,42.349614],[-71.060493,42.349588],[-71.060469,42.349595],[-71.060483,42.349627],[-71.060508,42.349614]]],[[[-71.060508,42.34957],[-71.060493,42.349544],[-71.060469,42.349551],[-71.060483,42.349583],[-71.060508,42.34957]]],[[[-71.060492,42.349654],[-71.060477,42.349628],[-71.060453,42.349635],[-71.060467,42.349667],[-71.060492,42.349654]]],[[[-71.060472,42.35299],[-71.060457,42.352962],[-71.060433,42.352969],[-71.060447,42.353002],[-71.060472,42.35299]]],[[[-71.060432,42.353114],[-71.060417,42.353088],[-71.060393,42.353095],[-71.060407,42.353127],[-71.060432,42.353114]]],[[[-71.060426,42.35343],[-71.060417,42.353375],[-71.060393,42.353368],[-71.060344,42.353394],[-71.060349,42.353436],[-71.060323,42.353442],[-71.060327,42.353467],[-71.060351,42.353474],[-71.060361,42.353456],[-71.060402,42.353457],[-71.060426,42.35343]]],[[[-71.060392,42.3499],[-71.060377,42.349872],[-71.060353,42.349879],[-71.060367,42.349912],[-71.060392,42.3499]]],[[[-71.060378,42.353084],[-71.060363,42.353058],[-71.060339,42.353065],[-71.060353,42.353097],[-71.060378,42.353084]]],[[[-71.060322,42.350051],[-71.060307,42.350025],[-71.060283,42.350032],[-71.060297,42.350064],[-71.060322,42.350051]]],[[[-71.06032,42.350175],[-71.060287,42.350093],[-71.06022,42.350136],[-71.060227,42.350188],[-71.060253,42.350208],[-71.06029,42.350208],[-71.06032,42.350175]]],[[[-71.060181,42.349495],[-71.060171,42.349459],[-71.06015,42.349443],[-71.060099,42.349459],[-71.060106,42.349506],[-71.060127,42.349522],[-71.060157,42.349522],[-71.060181,42.349495]]],[[[-71.060162,42.352976],[-71.060147,42.35295],[-71.060123,42.352957],[-71.060137,42.352989],[-71.060162,42.352976]]],[[[-71.060125,42.349578],[-71.060101,42.349536],[-71.060061,42.349556],[-71.060085,42.349598],[-71.060125,42.349578]]],[[[-71.060113,42.353437],[-71.060102,42.353397],[-71.060077,42.353379],[-71.060043,42.353379],[-71.060018,42.353397],[-71.060025,42.35345],[-71.06005,42.353468],[-71.060085,42.353468],[-71.060113,42.353437]]],[[[-71.060092,42.349668],[-71.060064,42.34962],[-71.060017,42.349634],[-71.060024,42.349678],[-71.060043,42.349692],[-71.06007,42.349692],[-71.060092,42.349668]]],[[[-71.059979,42.35107],[-71.059969,42.351032],[-71.059946,42.351015],[-71.059891,42.351032],[-71.059898,42.351082],[-71.059921,42.351099],[-71.059953,42.351099],[-71.059979,42.35107]]],[[[-71.059907,42.351156],[-71.059885,42.351117],[-71.059851,42.351128],[-71.059871,42.351174],[-71.059907,42.351156]]],[[[-71.059862,42.353314],[-71.05981,42.353238],[-71.059764,42.353231],[-71.059741,42.353248],[-71.059757,42.353308],[-71.059817,42.353308],[-71.059837,42.353327],[-71.059862,42.353314]]],[[[-71.059762,42.352769],[-71.059747,42.352741],[-71.059723,42.352748],[-71.059737,42.352781],[-71.059762,42.352769]]],[[[-71.059692,42.352753],[-71.059677,42.352725],[-71.059653,42.352732],[-71.059667,42.352765],[-71.059692,42.352753]]],[[[-71.059675,42.354976],[-71.059667,42.354946],[-71.059629,42.354934],[-71.059573,42.354873],[-71.05955,42.354866],[-71.05952,42.354881],[-71.059526,42.354922],[-71.059573,42.35496],[-71.059609,42.354965],[-71.059635,42.354996],[-71.059675,42.354976]]],[[[-71.059655,42.351735],[-71.059645,42.351696],[-71.059619,42.351677],[-71.059581,42.351677],[-71.059555,42.351696],[-71.059562,42.351748],[-71.059588,42.351768],[-71.059625,42.351768],[-71.059655,42.351735]]],[[[-71.059638,42.352746],[-71.059623,42.352718],[-71.059599,42.352725],[-71.059613,42.352758],[-71.059638,42.352746]]],[[[-71.059595,42.352808],[-71.059585,42.352769],[-71.059559,42.35275],[-71.059521,42.35275],[-71.059495,42.352769],[-71.059502,42.352821],[-71.059528,42.352841],[-71.059565,42.352841],[-71.059595,42.352808]]],[[[-71.059569,42.351623],[-71.059542,42.351578],[-71.0595,42.351591],[-71.059506,42.351632],[-71.059524,42.351645],[-71.059549,42.351645],[-71.059569,42.351623]]],[[[-71.05955,42.351729],[-71.059532,42.351697],[-71.059507,42.351704],[-71.059523,42.351742],[-71.05955,42.351729]]],[[[-71.059522,42.351111],[-71.059507,42.351085],[-71.059483,42.351092],[-71.059497,42.351124],[-71.059522,42.351111]]],[[[-71.059489,42.354836],[-71.05948,42.354804],[-71.059438,42.354791],[-71.059389,42.354714],[-71.05935,42.354709],[-71.059331,42.354723],[-71.059338,42.354767],[-71.05937,42.354783],[-71.059383,42.354814],[-71.059419,42.354819],[-71.059433,42.354853],[-71.059469,42.354858],[-71.059489,42.354836]]],[[[-71.059482,42.351184],[-71.059467,42.351158],[-71.059443,42.351165],[-71.059457,42.351197],[-71.059482,42.351184]]],[[[-71.059462,42.351648],[-71.05944,42.351609],[-71.059406,42.35162],[-71.059426,42.351666],[-71.059462,42.351648]]],[[[-71.059432,42.353114],[-71.059417,42.353088],[-71.059393,42.353095],[-71.059407,42.353127],[-71.059432,42.353114]]],[[[-71.059422,42.353024],[-71.059407,42.352998],[-71.059383,42.353005],[-71.059397,42.353037],[-71.059422,42.353024]]],[[[-71.059392,42.351724],[-71.059373,42.351688],[-71.059343,42.351698],[-71.059361,42.351739],[-71.059392,42.351724]]],[[[-71.059328,42.3518],[-71.059309,42.351764],[-71.059279,42.351774],[-71.059297,42.351815],[-71.059328,42.3518]]],[[[-71.059226,42.351318],[-71.059187,42.351235],[-71.059144,42.351205],[-71.059091,42.351197],[-71.059065,42.351216],[-71.059073,42.351272],[-71.059118,42.351294],[-71.05913,42.351322],[-71.059091,42.351357],[-71.059113,42.351411],[-71.059148,42.351421],[-71.059182,42.351411],[-71.059196,42.351385],[-71.059188,42.351353],[-71.059226,42.351318]]],[[[-71.059188,42.353308],[-71.059173,42.353282],[-71.059149,42.353289],[-71.059163,42.353321],[-71.059188,42.353308]]],[[[-71.059102,42.351474],[-71.059087,42.351448],[-71.059063,42.351455],[-71.059077,42.351487],[-71.059102,42.351474]]],[[[-71.059099,42.354408],[-71.059072,42.354363],[-71.05903,42.354376],[-71.059036,42.354417],[-71.059054,42.35443],[-71.059079,42.35443],[-71.059099,42.354408]]],[[[-71.059092,42.353301],[-71.059077,42.353275],[-71.059053,42.353282],[-71.059067,42.353314],[-71.059092,42.353301]]],[[[-71.059072,42.351538],[-71.05905,42.351499],[-71.059016,42.35151],[-71.059036,42.351556],[-71.059072,42.351538]]],[[[-71.059022,42.354346],[-71.059007,42.35432],[-71.058983,42.354327],[-71.058997,42.354359],[-71.059022,42.354346]]],[[[-71.059012,42.351628],[-71.058995,42.351585],[-71.058956,42.35158],[-71.058934,42.351604],[-71.058943,42.351637],[-71.058912,42.351646],[-71.058918,42.351668],[-71.058941,42.351675],[-71.058947,42.351642],[-71.05899,42.351652],[-71.059012,42.351628]]],[[[-71.059002,42.353297],[-71.058987,42.353271],[-71.058963,42.353278],[-71.058977,42.35331],[-71.059002,42.353297]]],[[[-71.058965,42.354309],[-71.058947,42.354277],[-71.058922,42.354284],[-71.058938,42.354322],[-71.058965,42.354309]]],[[[-71.058929,42.351713],[-71.058913,42.351673],[-71.058867,42.351673],[-71.058864,42.351714],[-71.058817,42.351728],[-71.05882,42.351759],[-71.058767,42.35177],[-71.058774,42.351814],[-71.058807,42.35183],[-71.058832,42.351823],[-71.058837,42.351783],[-71.058882,42.351781],[-71.058885,42.351735],[-71.058919,42.35173],[-71.058929,42.351713]]],[[[-71.058868,42.353282],[-71.058853,42.353256],[-71.058829,42.353263],[-71.058843,42.353295],[-71.058868,42.353282]]],[[[-71.058782,42.351842],[-71.058777,42.351821],[-71.058753,42.351814],[-71.058701,42.351818],[-71.058677,42.351845],[-71.058687,42.351881],[-71.058723,42.351899],[-71.05875,42.351891],[-71.058759,42.351859],[-71.058782,42.351842]]],[[[-71.058762,42.353282],[-71.058747,42.353256],[-71.058723,42.353263],[-71.058737,42.353295],[-71.058762,42.353282]]],[[[-71.058699,42.351929],[-71.05869,42.351897],[-71.05866,42.351882],[-71.058597,42.35193],[-71.058604,42.351956],[-71.058634,42.351965],[-71.058689,42.351946],[-71.058699,42.351929]]],[[[-71.058602,42.351981],[-71.058587,42.351955],[-71.058491,42.351968],[-71.058451,42.352018],[-71.058451,42.352042],[-71.058397,42.35205],[-71.058405,42.352114],[-71.058447,42.352135],[-71.058479,42.352125],[-71.058489,42.352088],[-71.058589,42.352043],[-71.058585,42.351995],[-71.058602,42.351981]]],[[[-71.058572,42.352544],[-71.058557,42.352518],[-71.058533,42.352525],[-71.058547,42.352557],[-71.058572,42.352544]]],[[[-71.058512,42.352538],[-71.058498,42.352474],[-71.058473,42.352467],[-71.058462,42.352486],[-71.058477,42.352544],[-71.058501,42.352551],[-71.058512,42.352538]]],[[[-71.058432,42.352544],[-71.058417,42.352516],[-71.058393,42.352523],[-71.058407,42.352556],[-71.058432,42.352544]]],[[[-71.058392,42.352113],[-71.058377,42.352085],[-71.058353,42.352092],[-71.058367,42.352125],[-71.058392,42.352113]]],[[[-71.058392,42.352484],[-71.058377,42.352458],[-71.058353,42.352465],[-71.058367,42.352497],[-71.058392,42.352484]]],[[[-71.058352,42.352534],[-71.058337,42.352508],[-71.058313,42.352515],[-71.058327,42.352547],[-71.058352,42.352534]]],[[[-71.058292,42.350924],[-71.058277,42.350898],[-71.058253,42.350905],[-71.058267,42.350937],[-71.058292,42.350924]]],[[[-71.058282,42.352481],[-71.058267,42.352455],[-71.058243,42.352462],[-71.058257,42.352494],[-71.058282,42.352481]]],[[[-71.058272,42.352526],[-71.058257,42.3525],[-71.058233,42.352507],[-71.058247,42.352539],[-71.058272,42.352526]]],[[[-71.058222,42.350901],[-71.058207,42.350875],[-71.058183,42.350882],[-71.058197,42.350914],[-71.058222,42.350901]]],[[[-71.058042,42.352679],[-71.058027,42.352653],[-71.058003,42.35266],[-71.058017,42.352692],[-71.058042,42.352679]]],[[[-71.058036,42.352782],[-71.058021,42.352756],[-71.057997,42.352763],[-71.058011,42.352795],[-71.058036,42.352782]]],[[[-71.058012,42.352919],[-71.057997,42.352893],[-71.057973,42.3529],[-71.057987,42.352932],[-71.058012,42.352919]]],[[[-71.057807,42.350707],[-71.057792,42.350681],[-71.057768,42.350688],[-71.057782,42.35072],[-71.057807,42.350707]]],[[[-71.057762,42.350691],[-71.057747,42.350665],[-71.057723,42.350672],[-71.057737,42.350704],[-71.057762,42.350691]]],[[[-71.057756,42.352247],[-71.057734,42.352208],[-71.0577,42.352219],[-71.05772,42.352265],[-71.057756,42.352247]]],[[[-71.057629,42.352212],[-71.057605,42.35217],[-71.057565,42.35219],[-71.057589,42.352232],[-71.057629,42.352212]]],[[[-71.057542,42.352181],[-71.05752,42.352142],[-71.057486,42.352153],[-71.057506,42.352199],[-71.057542,42.352181]]],[[[-71.057462,42.352161],[-71.05744,42.352122],[-71.057406,42.352133],[-71.057426,42.352179],[-71.057462,42.352161]]],[[[-71.057418,42.350417],[-71.057403,42.350391],[-71.057379,42.350398],[-71.057393,42.35043],[-71.057418,42.350417]]],[[[-71.057402,42.350508],[-71.057387,42.350482],[-71.057363,42.350489],[-71.057377,42.350521],[-71.057402,42.350508]]],[[[-71.057375,42.352132],[-71.057351,42.35209],[-71.057311,42.35211],[-71.057335,42.352152],[-71.057375,42.352132]]],[[[-71.057352,42.351723],[-71.057337,42.351695],[-71.057313,42.351702],[-71.057327,42.351735],[-71.057352,42.351723]]],[[[-71.057342,42.351764],[-71.057327,42.351738],[-71.057303,42.351745],[-71.057317,42.351777],[-71.057342,42.351764]]],[[[-71.057313,42.351911],[-71.057298,42.351885],[-71.057274,42.351892],[-71.057288,42.351924],[-71.057313,42.351911]]],[[[-71.057303,42.350942],[-71.057287,42.350913],[-71.057263,42.35092],[-71.057277,42.350954],[-71.057303,42.350942]]],[[[-71.057302,42.351968],[-71.057287,42.351943],[-71.057263,42.35195],[-71.057277,42.351981],[-71.057302,42.351968]]],[[[-71.057273,42.35108],[-71.057257,42.351051],[-71.057233,42.351058],[-71.057247,42.351092],[-71.057273,42.35108]]],[[[-71.057212,42.351424],[-71.057197,42.351398],[-71.057173,42.351405],[-71.057187,42.351437],[-71.057212,42.351424]]],[[[-71.057202,42.350564],[-71.057187,42.350538],[-71.057163,42.350545],[-71.057177,42.350577],[-71.057202,42.350564]]],[[[-71.057151,42.350646],[-71.057136,42.35062],[-71.057112,42.350627],[-71.057126,42.350659],[-71.057151,42.350646]]],[[[-71.057098,42.350547],[-71.057083,42.350521],[-71.057059,42.350528],[-71.057073,42.35056],[-71.057098,42.350547]]],[[[-71.057042,42.349854],[-71.057027,42.349828],[-71.057003,42.349835],[-71.057017,42.349867],[-71.057042,42.349854]]],[[[-71.057029,42.349926],[-71.057002,42.349881],[-71.05696,42.349894],[-71.056966,42.349935],[-71.056984,42.349948],[-71.057009,42.349948],[-71.057029,42.349926]]],[[[-71.056873,42.352046],[-71.056857,42.352016],[-71.056833,42.352023],[-71.056848,42.352058],[-71.056873,42.352046]]],[[[-71.056838,42.350244],[-71.056823,42.350218],[-71.056799,42.350225],[-71.056813,42.350257],[-71.056838,42.350244]]],[[[-71.056836,42.349785],[-71.056826,42.349749],[-71.056805,42.349733],[-71.056754,42.349749],[-71.056761,42.349796],[-71.056782,42.349812],[-71.056812,42.349812],[-71.056836,42.349785]]],[[[-71.056802,42.350321],[-71.056787,42.350295],[-71.056763,42.350302],[-71.056777,42.350334],[-71.056802,42.350321]]],[[[-71.056799,42.349863],[-71.056772,42.349818],[-71.05673,42.349831],[-71.056736,42.349872],[-71.056754,42.349885],[-71.056779,42.349885],[-71.056799,42.349863]]],[[[-71.05678,42.34994],[-71.05677,42.349901],[-71.056744,42.349882],[-71.056706,42.349882],[-71.05668,42.349901],[-71.056687,42.349953],[-71.056713,42.349973],[-71.05675,42.349973],[-71.05678,42.34994]]],[[[-71.056753,42.352011],[-71.056737,42.351982],[-71.056713,42.351989],[-71.056727,42.352023],[-71.056753,42.352011]]],[[[-71.056735,42.350031],[-71.056725,42.349992],[-71.056699,42.349973],[-71.056661,42.349973],[-71.056635,42.349992],[-71.056642,42.350044],[-71.056668,42.350064],[-71.056705,42.350064],[-71.056735,42.350031]]],[[[-71.056665,42.350116],[-71.056641,42.350074],[-71.056601,42.350094],[-71.056625,42.350136],[-71.056665,42.350116]]],[[[-71.056648,42.350631],[-71.056632,42.350601],[-71.056608,42.350608],[-71.056623,42.350643],[-71.056648,42.350631]]],[[[-71.056632,42.353224],[-71.05661,42.353185],[-71.056576,42.353196],[-71.056596,42.353242],[-71.056632,42.353224]]],[[[-71.056629,42.350208],[-71.056602,42.350163],[-71.05656,42.350176],[-71.056566,42.350217],[-71.056584,42.35023],[-71.056609,42.35023],[-71.056629,42.350208]]],[[[-71.056613,42.350698],[-71.056597,42.350668],[-71.056573,42.350675],[-71.056588,42.35071],[-71.056613,42.350698]]],[[[-71.056565,42.350859],[-71.056555,42.35082],[-71.056529,42.350801],[-71.056491,42.350801],[-71.056465,42.35082],[-71.056472,42.350872],[-71.056498,42.350892],[-71.056535,42.350892],[-71.056565,42.350859]]],[[[-71.056565,42.353184],[-71.056547,42.353152],[-71.056522,42.353159],[-71.056538,42.353197],[-71.056565,42.353184]]],[[[-71.05649,42.353146],[-71.056472,42.353114],[-71.056447,42.353121],[-71.056463,42.353159],[-71.05649,42.353146]]],[[[-71.056473,42.351938],[-71.056457,42.351908],[-71.056433,42.351915],[-71.056448,42.35195],[-71.056473,42.351938]]],[[[-71.056432,42.351044],[-71.056417,42.351018],[-71.056393,42.351025],[-71.056407,42.351057],[-71.056432,42.351044]]],[[[-71.056403,42.351115],[-71.056387,42.351085],[-71.056363,42.351092],[-71.056378,42.351127],[-71.056403,42.351115]]],[[[-71.056398,42.35311],[-71.056379,42.353074],[-71.056349,42.353084],[-71.056367,42.353125],[-71.056398,42.35311]]],[[[-71.056392,42.351913],[-71.056377,42.351888],[-71.056353,42.351895],[-71.056367,42.351926],[-71.056392,42.351913]]],[[[-71.056368,42.35119],[-71.056353,42.351164],[-71.056329,42.351171],[-71.056343,42.351203],[-71.056368,42.35119]]],[[[-71.056343,42.354948],[-71.056327,42.354918],[-71.056303,42.354925],[-71.056318,42.35496],[-71.056343,42.354948]]],[[[-71.056333,42.354854],[-71.056317,42.354824],[-71.056293,42.354831],[-71.056308,42.354866],[-71.056333,42.354854]]],[[[-71.056315,42.354769],[-71.056297,42.354737],[-71.056272,42.354744],[-71.056288,42.354782],[-71.056315,42.354769]]],[[[-71.056312,42.354691],[-71.05629,42.354652],[-71.056256,42.354663],[-71.056276,42.354709],[-71.056312,42.354691]]],[[[-71.056262,42.351392],[-71.056247,42.351364],[-71.056223,42.351371],[-71.056227,42.351397],[-71.056204,42.351406],[-71.056208,42.351432],[-71.056242,42.351432],[-71.056238,42.351406],[-71.056262,42.351392]]],[[[-71.056261,42.35086],[-71.056245,42.35083],[-71.056221,42.350837],[-71.056236,42.350872],[-71.056261,42.35086]]],[[[-71.056252,42.353064],[-71.056237,42.353038],[-71.056213,42.353045],[-71.056227,42.353077],[-71.056252,42.353064]]],[[[-71.056231,42.350951],[-71.056215,42.350921],[-71.056191,42.350928],[-71.056206,42.350963],[-71.056231,42.350951]]],[[[-71.056212,42.351466],[-71.056197,42.351438],[-71.056173,42.351445],[-71.056187,42.351478],[-71.056212,42.351466]]],[[[-71.056191,42.351054],[-71.056175,42.351024],[-71.056151,42.351031],[-71.056166,42.351066],[-71.056191,42.351054]]],[[[-71.056153,42.351163],[-71.056137,42.351133],[-71.056113,42.35114],[-71.056128,42.351175],[-71.056153,42.351163]]],[[[-71.056082,42.351726],[-71.056067,42.351698],[-71.056043,42.351705],[-71.056057,42.351738],[-71.056082,42.351726]]],[[[-71.055982,42.351373],[-71.055966,42.351343],[-71.055942,42.35135],[-71.055957,42.351385],[-71.055982,42.351373]]],[[[-71.055958,42.35143],[-71.055942,42.3514],[-71.055918,42.351407],[-71.055933,42.351442],[-71.055958,42.35143]]],[[[-71.055925,42.3515],[-71.055909,42.35147],[-71.055885,42.351477],[-71.0559,42.351512],[-71.055925,42.3515]]],[[[-71.055893,42.351579],[-71.055877,42.351549],[-71.055853,42.351556],[-71.055868,42.351591],[-71.055893,42.351579]]],[[[-71.055875,42.352251],[-71.055854,42.352201],[-71.05582,42.35219],[-71.055786,42.352201],[-71.055775,42.35224],[-71.055741,42.352262],[-71.055748,42.352314],[-71.055793,42.352337],[-71.055827,42.352326],[-71.055838,42.352287],[-71.055875,42.352251]]],[[[-71.055864,42.35164],[-71.055848,42.35161],[-71.055824,42.351617],[-71.055839,42.351652],[-71.055864,42.35164]]],[[[-71.055813,42.351745],[-71.055797,42.351715],[-71.055773,42.351722],[-71.055788,42.351757],[-71.055813,42.351745]]],[[[-71.055795,42.353359],[-71.055768,42.353314],[-71.055726,42.353327],[-71.055732,42.353368],[-71.05575,42.353381],[-71.055775,42.353381],[-71.055795,42.353359]]],[[[-71.055793,42.351794],[-71.055777,42.351764],[-71.055753,42.351771],[-71.055768,42.351806],[-71.055793,42.351794]]],[[[-71.05573,42.353416],[-71.055706,42.353374],[-71.055666,42.353394],[-71.05569,42.353436],[-71.05573,42.353416]]],[[[-71.055651,42.353449],[-71.055633,42.353417],[-71.055608,42.353424],[-71.055624,42.353462],[-71.055651,42.353449]]],[[[-71.055563,42.353515],[-71.055547,42.353485],[-71.055523,42.353492],[-71.055538,42.353527],[-71.055563,42.353515]]],[[[-71.055502,42.353546],[-71.055487,42.353518],[-71.055463,42.353525],[-71.055477,42.353558],[-71.055502,42.353546]]],[[[-71.055266,42.353667],[-71.055251,42.353641],[-71.055189,42.353657],[-71.055185,42.353688],[-71.055147,42.3537],[-71.055154,42.353726],[-71.055184,42.353735],[-71.055196,42.353713],[-71.055237,42.353709],[-71.055241,42.35368],[-71.055266,42.353667]]]]},"properties":{"kind":"tree"}}]}