{"type":"FeatureCollection","features":[{"type":"Feature","geometry":{"type":"MultiPolygon","coordinates":[[[[-71.06703,42.351826],[-71.067007,42.351692],[-71.066747,42.351106],[-71.065467,42.351257],[-71.064967,42.35123],[-71.064655,42.352434],[-71.06547,42.352485],[-71.065481,42.352439],[-71.065666,42.352453],[-71.06566,42.352485],[-71.065857,42.3525],[-71.065932,42.352094],[-71.0659,42.352091],[-71.065928,42.351863],[-71.066026,42.351878],[-71.065985,42.352172],[-71.065949,42.352302],[-71.065949,42.352464],[-71.066045,42.352469],[-71.066077,42.352211],[-71.06626,42.352211],[-71.066293,42.351917],[-71.066821,42.351984],[-71.067004,42.351939],[-71.06703,42.351826]],[[-71.065195,42.351762],[-71.065125,42.352061],[-71.065173,42.35176],[-71.065195,42.351762]]],[[[-71.066483,42.348529],[-71.06591,42.348462],[-71.065995,42.348064],[-71.065837,42.348044],[-71.065726,42.348554],[-71.065793,42.348563],[-71.065776,42.34864],[-71.065872,42.348651],[-71.065881,42.348616],[-71.065897,42.348672],[-71.066435,42.348735],[-71.066483,42.348529]]],[[[-71.066107,42.349483],[-71.066051,42.349385],[-71.065989,42.349405],[-71.065982,42.349433],[-71.066036,42.349531],[-71.0661,42.349511],[-71.066107,42.349483]]],[[[-71.066095,42.349646],[-71.066006,42.349489],[-71.06562,42.349445],[-71.065521,42.349461],[-71.065426,42.349898],[-71.065222,42.350611],[-71.06537,42.350634],[-71.065365,42.350653],[-71.065381,42.350655],[-71.06521,42.350652],[-71.065097,42.351083],[-71.065116,42.351116],[-71.065332,42.351182],[-71.065734,42.351205],[-71.065949,42.351175],[-71.065991,42.350995],[-71.065959,42.350666],[-71.065806,42.350663],[-71.065932,42.350657],[-71.065953,42.350615],[-71.06593,42.350327],[-71.06589,42.350329],[-71.065916,42.350219],[-71.065881,42.34989],[-71.065776,42.349769],[-71.06566,42.349801],[-71.0657,42.349608],[-71.065777,42.349607],[-71.065892,42.349755],[-71.065969,42.349731],[-71.065984,42.349679],[-71.065999,42.349705],[-71.066087,42.349681],[-71.066095,42.349646]]],[[[-71.065565,42.354342],[-71.065534,42.354305],[-71.065469,42.354307],[-71.065445,42.354332],[-71.065439,42.354385],[-71.065474,42.354414],[-71.065521,42.354415],[-71.065552,42.354395],[-71.065565,42.354342]]],[[[-71.065529,42.347903],[-71.065483,42.347819],[-71.065392,42.347805],[-71.065371,42.347781],[-71.065313,42.347783],[-71.065319,42.347677],[-71.065257,42.347643],[-71.064894,42.347587],[-71.064503,42.347783],[-71.064389,42.348045],[-71.06433,42.348263],[-71.064366,42.348269],[-71.064504,42.348214],[-71.064527,42.348241],[-71.064611,42.3482],[-71.064618,42.348171],[-71.064694,42.348182],[-71.064466,42.348292],[-71.064409,42.34852],[-71.064774,42.348576],[-71.064813,42.348518],[-71.064868,42.348297],[-71.064924,42.348339],[-71.064949,42.348323],[-71.065091,42.348487],[-71.06542,42.348424],[-71.065427,42.34839],[-71.065348,42.3483],[-71.065472,42.348187],[-71.065475,42.348101],[-71.06541,42.348027],[-71.065516,42.347958],[-71.065529,42.347903]]],[[[-71.065421,42.352871],[-71.065303,42.352844],[-71.065282,42.352906],[-71.065308,42.352987],[-71.065374,42.353001],[-71.065421,42.352871]]],[[[-71.06533,42.348887],[-71.065323,42.348802],[-71.065279,42.348688],[-71.064844,42.348594],[-71.064341,42.348545],[-71.064334,42.348568],[-71.064275,42.348582],[-71.064121,42.349021],[-71.064468,42.349074],[-71.064464,42.349093],[-71.064404,42.349122],[-71.064385,42.349205],[-71.064634,42.349374],[-71.064815,42.349281],[-71.064818,42.349265],[-71.064901,42.349291],[-71.065163,42.349168],[-71.065177,42.349105],[-71.065274,42.349095],[-71.06533,42.348887]]],[[[-71.065169,42.349617],[-71.064416,42.349501],[-71.064395,42.349572],[-71.063761,42.349475],[-71.063692,42.349409],[-71.063945,42.348463],[-71.063623,42.348413],[-71.063478,42.348942],[-71.063502,42.349031],[-71.063074,42.348966],[-71.063032,42.34904],[-71.062992,42.349179],[-71.062979,42.349145],[-71.062929,42.349124],[-71.063029,42.348949],[-71.063042,42.348892],[-71.062425,42.348727],[-71.062285,42.349075],[-71.062234,42.34916],[-71.062223,42.349233],[-71.062438,42.34933],[-71.062603,42.349245],[-71.062636,42.3492],[-71.062647,42.349205],[-71.062552,42.34932],[-71.062543,42.34936],[-71.062683,42.349424],[-71.062723,42.349405],[-71.062712,42.349455],[-71.062925,42.349552],[-71.063023,42.349433],[-71.062993,42.349547],[-71.063006,42.349606],[-71.062592,42.349443],[-71.062574,42.349455],[-71.062287,42.349326],[-71.062233,42.349284],[-71.062169,42.349306],[-71.061999,42.349764],[-71.061982,42.349838],[-71.062033,42.34986],[-71.061969,42.349845],[-71.061924,42.349957],[-71.061889,42.350141],[-71.061849,42.350185],[-71.061757,42.350375],[-71.061746,42.350372],[-71.061673,42.350559],[-71.061646,42.350676],[-71.062157,42.350806],[-71.062264,42.35065],[-71.062278,42.350591],[-71.062298,42.350597],[-71.06245,42.350408],[-71.062474,42.350418],[-71.062608,42.350243],[-71.062636,42.350124],[-71.062743,42.35017],[-71.062665,42.350453],[-71.062526,42.350394],[-71.062285,42.350707],[-71.06225,42.350859],[-71.062473,42.350921],[-71.062582,42.35082],[-71.062552,42.350958],[-71.062902,42.351008],[-71.063022,42.350665],[-71.063124,42.35027],[-71.063255,42.35029],[-71.063356,42.350084],[-71.063437,42.349797],[-71.063618,42.349813],[-71.064061,42.350312],[-71.064097,42.350336],[-71.064127,42.350321],[-71.06399,42.350541],[-71.063879,42.350502],[-71.063915,42.350416],[-71.063539,42.350364],[-71.063408,42.350576],[-71.063363,42.350767],[-71.063382,42.350999],[-71.063604,42.351032],[-71.063723,42.350841],[-71.063782,42.35085],[-71.063926,42.350914],[-71.064315,42.350954],[-71.064273,42.351136],[-71.064767,42.351195],[-71.065001,42.350248],[-71.064827,42.350187],[-71.064839,42.350143],[-71.065024,42.350172],[-71.065169,42.349617]],[[-71.064614,42.350492],[-71.064608,42.350532],[-71.064578,42.350527],[-71.064614,42.350492]],[[-71.064449,42.350655],[-71.064404,42.350751],[-71.064419,42.350685],[-71.064449,42.350655]],[[-71.064271,42.35009],[-71.064238,42.350143],[-71.064251,42.350085],[-71.064271,42.35009]],[[-71.062836,42.349262],[-71.062792,42.349317],[-71.062809,42.349276],[-71.062831,42.349253],[-71.062836,42.349262]],[[-71.062749,42.349069],[-71.062731,42.349068],[-71.062732,42.349064],[-71.062749,42.349069]],[[-71.062599,42.349739],[-71.062445,42.349947],[-71.062431,42.350005],[-71.062146,42.349886],[-71.062156,42.349848],[-71.062256,42.349889],[-71.062344,42.349863],[-71.062519,42.349787],[-71.062554,42.349747],[-71.062574,42.349756],[-71.062599,42.349739]]],[[[-71.064745,42.351218],[-71.064481,42.35119],[-71.064407,42.351428],[-71.064392,42.351494],[-71.064402,42.35151],[-71.064661,42.351541],[-71.064745,42.351218]]],[[[-71.064727,42.352541],[-71.064662,42.352531],[-71.064624,42.352648],[-71.064689,42.352658],[-71.064727,42.352541]]],[[[-71.064664,42.351553],[-71.06438,42.351521],[-71.06446,42.35119],[-71.063934,42.351133],[-71.063924,42.351165],[-71.063928,42.35115],[-71.06376,42.35112],[-71.06329,42.35107],[-71.063231,42.351358],[-71.063217,42.351362],[-71.063273,42.351069],[-71.063049,42.351044],[-71.063027,42.351108],[-71.063015,42.351107],[-71.062912,42.351484],[-71.063438,42.351552],[-71.063473,42.351411],[-71.063489,42.351412],[-71.063442,42.35161],[-71.062895,42.351546],[-71.062754,42.352248],[-71.063443,42.352323],[-71.06346,42.352247],[-71.063494,42.352251],[-71.063579,42.351864],[-71.063543,42.352056],[-71.063529,42.352308],[-71.063552,42.35232],[-71.064093,42.352332],[-71.064168,42.351982],[-71.063863,42.351956],[-71.063878,42.351888],[-71.063951,42.351896],[-71.063957,42.351876],[-71.06412,42.351898],[-71.064276,42.351777],[-71.064144,42.352397],[-71.064421,42.352405],[-71.064456,42.352385],[-71.064664,42.351553]],[[-71.063622,42.351389],[-71.063619,42.351409],[-71.063618,42.351408],[-71.063622,42.351389]],[[-71.063597,42.351835],[-71.06358,42.35186],[-71.063585,42.351834],[-71.063597,42.351835]]],[[[-71.06461,42.353278],[-71.064542,42.353266],[-71.064505,42.353377],[-71.064573,42.353391],[-71.06461,42.353278]]],[[[-71.064373,42.352435],[-71.064339,42.352409],[-71.063942,42.352395],[-71.063914,42.352513],[-71.063885,42.352833],[-71.063869,42.352843],[-71.06384,42.352979],[-71.063823,42.352971],[-71.063872,42.352394],[-71.063363,42.352382],[-71.06334,42.352482],[-71.063319,42.352487],[-71.063313,42.35239],[-71.062724,42.352454],[-71.062716,42.352488],[-71.062679,42.352486],[-71.062659,42.352568],[-71.062628,42.3532],[-71.06269,42.353254],[-71.062685,42.353331],[-71.062764,42.353369],[-71.062918,42.353372],[-71.062958,42.353398],[-71.06272,42.353391],[-71.062533,42.353622],[-71.062491,42.353619],[-71.06209,42.354085],[-71.062084,42.354111],[-71.062067,42.354108],[-71.061806,42.354365],[-71.061787,42.354447],[-71.061745,42.354425],[-71.061369,42.354786],[-71.061342,42.354903],[-71.061618,42.355046],[-71.061659,42.355003],[-71.06217,42.355267],[-71.062337,42.355088],[-71.062347,42.355044],[-71.062343,42.355093],[-71.062455,42.355156],[-71.062486,42.355129],[-71.062479,42.355155],[-71.062569,42.355206],[-71.062593,42.355182],[-71.062678,42.35523],[-71.062802,42.355102],[-71.062795,42.355133],[-71.063101,42.355295],[-71.063163,42.355228],[-71.063177,42.355167],[-71.063228,42.355161],[-71.063816,42.354097],[-71.063842,42.353986],[-71.063855,42.35399],[-71.063878,42.353959],[-71.063948,42.353833],[-71.063998,42.353634],[-71.063768,42.353564],[-71.063645,42.35376],[-71.06363,42.353824],[-71.063609,42.353818],[-71.063484,42.354018],[-71.063265,42.354257],[-71.063329,42.354161],[-71.063351,42.354035],[-71.063017,42.354012],[-71.063074,42.353718],[-71.063043,42.353655],[-71.063076,42.353438],[-71.063138,42.353308],[-71.064127,42.353378],[-71.064281,42.352959],[-71.064353,42.352644],[-71.064373,42.352435]],[[-71.063027,42.354517],[-71.062746,42.354823],[-71.06272,42.354933],[-71.062343,42.354737],[-71.062217,42.354875],[-71.062079,42.354828],[-71.062201,42.354709],[-71.062209,42.354674],[-71.06213,42.354635],[-71.062263,42.354697],[-71.062283,42.354677],[-71.062639,42.354847],[-71.062939,42.354559],[-71.062952,42.354503],[-71.063027,42.354517]],[[-71.062678,42.354508],[-71.062623,42.354561],[-71.062588,42.354493],[-71.062678,42.354508]],[[-71.062057,42.354601],[-71.061925,42.354749],[-71.061876,42.354723],[-71.061971,42.35462],[-71.061983,42.354566],[-71.062057,42.354601]]],[[[-71.064113,42.347947],[-71.063968,42.347919],[-71.063883,42.347989],[-71.063856,42.347985],[-71.063815,42.348143],[-71.06354,42.348106],[-71.063606,42.347866],[-71.06346,42.347843],[-71.063356,42.34823],[-71.064011,42.348328],[-71.064113,42.347947]]],[[[-71.064097,42.353425],[-71.063837,42.353375],[-71.063785,42.353535],[-71.064041,42.3536],[-71.064097,42.353425]]],[[[-71.063935,42.354829],[-71.063869,42.354811],[-71.063843,42.354871],[-71.063909,42.354888],[-71.063935,42.354829]]],[[[-71.063699,42.353388],[-71.063651,42.353352],[-71.063204,42.353334],[-71.063179,42.353441],[-71.063162,42.353871],[-71.063497,42.353886],[-71.063644,42.353619],[-71.063699,42.353388]]],[[[-71.063476,42.348381],[-71.062604,42.34825],[-71.062434,42.348705],[-71.063351,42.348844],[-71.063476,42.348381]]],[[[-71.063301,42.347999],[-71.062961,42.347921],[-71.062922,42.348028],[-71.06306,42.348057],[-71.063045,42.348111],[-71.063092,42.34812],[-71.063134,42.348071],[-71.063274,42.348103],[-71.063301,42.347999]]],[[[-71.063253,42.34818],[-71.06323,42.348148],[-71.063187,42.348141],[-71.063177,42.348169],[-71.062886,42.348123],[-71.062847,42.348241],[-71.063222,42.348292],[-71.063253,42.34818]]],[[[-71.062909,42.347999],[-71.062855,42.347962],[-71.062735,42.347939],[-71.06268,42.34809],[-71.062863,42.34813],[-71.062909,42.347999]]],[[[-71.062859,42.351039],[-71.062298,42.350942],[-71.062265,42.351058],[-71.062158,42.351034],[-71.062142,42.351102],[-71.062192,42.351476],[-71.062386,42.351527],[-71.062408,42.351515],[-71.06242,42.351469],[-71.062422,42.351525],[-71.062712,42.351593],[-71.062859,42.351039]],[[-71.062546,42.35114],[-71.06254,42.351138],[-71.062545,42.351128],[-71.062546,42.35114]],[[-71.062416,42.351395],[-71.062413,42.351386],[-71.062415,42.351386],[-71.062416,42.351395]]],[[[-71.062777,42.348131],[-71.062667,42.348107],[-71.062631,42.348214],[-71.062752,42.348231],[-71.062777,42.348131]]],[[[-71.062678,42.351664],[-71.062591,42.351633],[-71.062023,42.351525],[-71.061289,42.351543],[-71.061266,42.351641],[-71.061329,42.351957],[-71.061349,42.351957],[-71.061382,42.352115],[-71.061537,42.352107],[-71.061549,42.352054],[-71.061537,42.351949],[-71.061566,42.351948],[-71.061617,42.352126],[-71.061637,42.352126],[-71.061623,42.352186],[-71.061632,42.352339],[-71.061625,42.3523],[-71.061514,42.352311],[-71.061454,42.352351],[-71.061461,42.352456],[-71.061639,42.352439],[-71.061632,42.352342],[-71.061656,42.352447],[-71.061741,42.352444],[-71.061747,42.352469],[-71.061912,42.352449],[-71.061915,42.352437],[-71.062105,42.352428],[-71.062132,42.352363],[-71.062182,42.352368],[-71.062189,42.352433],[-71.062483,42.352408],[-71.062586,42.352067],[-71.062678,42.351664]]],[[[-71.062452,42.352508],[-71.062412,42.352483],[-71.061487,42.352561],[-71.061465,42.352654],[-71.0615,42.353188],[-71.062369,42.353151],[-71.062404,42.353124],[-71.062426,42.353031],[-71.062452,42.352508]]],[[[-71.062446,42.347953],[-71.061926,42.347827],[-71.061854,42.348047],[-71.062262,42.348139],[-71.062387,42.348146],[-71.062446,42.347953]]],[[[-71.062415,42.35316],[-71.061528,42.35321],[-71.061449,42.353571],[-71.062109,42.353897],[-71.062211,42.353787],[-71.062326,42.353584],[-71.062413,42.353293],[-71.062415,42.35316]]],[[[-71.062367,42.34823],[-71.062255,42.348206],[-71.062165,42.348433],[-71.061952,42.348384],[-71.062037,42.348157],[-71.061907,42.348129],[-71.061581,42.348951],[-71.061552,42.34896],[-71.061349,42.349469],[-71.061331,42.349557],[-71.061544,42.349651],[-71.061541,42.349664],[-71.061307,42.349568],[-71.061196,42.349845],[-71.061172,42.34995],[-71.061326,42.350013],[-71.061242,42.350003],[-71.061208,42.350087],[-71.06109,42.35016],[-71.061001,42.350379],[-71.060979,42.350472],[-71.061462,42.350587],[-71.061766,42.349813],[-71.061939,42.349425],[-71.061975,42.34927],[-71.061811,42.349235],[-71.061839,42.34916],[-71.061745,42.349139],[-71.061708,42.349216],[-71.061895,42.34873],[-71.06182,42.348713],[-71.061893,42.348531],[-71.062211,42.348604],[-71.062239,42.348539],[-71.062251,42.348542],[-71.062367,42.34823]]],[[[-71.062111,42.350892],[-71.061597,42.350765],[-71.061553,42.350897],[-71.06154,42.350894],[-71.061526,42.350931],[-71.061462,42.35114],[-71.061448,42.351138],[-71.061352,42.351379],[-71.061324,42.351497],[-71.061352,42.351524],[-71.061664,42.351514],[-71.061675,42.351468],[-71.062093,42.351455],[-71.06211,42.351383],[-71.062062,42.351024],[-71.062111,42.350892]],[[-71.061795,42.350964],[-71.061695,42.351243],[-71.06168,42.351212],[-71.061694,42.351214],[-71.061783,42.350961],[-71.061795,42.350964]]],[[[-71.062033,42.353919],[-71.061316,42.353581],[-71.061282,42.353618],[-71.061153,42.353554],[-71.061166,42.353496],[-71.060695,42.353272],[-71.059969,42.354033],[-71.059395,42.3545],[-71.05937,42.354543],[-71.059355,42.354644],[-71.059379,42.354681],[-71.060111,42.355246],[-71.060156,42.355212],[-71.060485,42.355427],[-71.060656,42.355272],[-71.060669,42.355282],[-71.061779,42.354241],[-71.062012,42.354008],[-71.062033,42.353919]]],[[[-71.061866,42.34764],[-71.061712,42.347604],[-71.061566,42.347954],[-71.061525,42.348175],[-71.061644,42.348203],[-71.061836,42.347769],[-71.061866,42.34764]]],[[[-71.06164,42.348359],[-71.061414,42.348308],[-71.061375,42.348456],[-71.061428,42.348522],[-71.06142,42.348543],[-71.061351,42.348556],[-71.061342,42.348577],[-71.061288,42.348565],[-71.061234,42.348716],[-71.061469,42.34877],[-71.06164,42.348359]]],[[[-71.061545,42.355046],[-71.061254,42.354893],[-71.06106,42.355076],[-71.061042,42.355153],[-71.061355,42.35531],[-71.061527,42.355123],[-71.061545,42.355046]]],[[[-71.061436,42.348818],[-71.061371,42.34877],[-71.061248,42.348743],[-71.061155,42.348757],[-71.06111,42.348835],[-71.061083,42.348953],[-71.061121,42.348982],[-71.061074,42.349121],[-71.06116,42.34914],[-71.061135,42.349218],[-71.061148,42.349251],[-71.061133,42.349306],[-71.06126,42.349337],[-71.061353,42.349108],[-71.061384,42.349005],[-71.061371,42.349002],[-71.061436,42.348818]]],[[[-71.061365,42.348369],[-71.061275,42.348335],[-71.061312,42.348228],[-71.061184,42.348198],[-71.061133,42.348276],[-71.061002,42.348656],[-71.061119,42.348683],[-71.061226,42.348427],[-71.061347,42.348451],[-71.061365,42.348369]]],[[[-71.06136,42.350735],[-71.061295,42.350688],[-71.060899,42.350587],[-71.06083,42.350814],[-71.061046,42.350862],[-71.061186,42.350846],[-71.061183,42.350863],[-71.061303,42.350891],[-71.061337,42.350832],[-71.06136,42.350735]]],[[[-71.06136,42.353145],[-71.061336,42.35258],[-71.061194,42.352592],[-71.061121,42.352806],[-71.061104,42.352801],[-71.060815,42.353125],[-71.060782,42.35325],[-71.061249,42.353479],[-71.061314,42.353353],[-71.06136,42.353145]]],[[[-71.061244,42.349357],[-71.061017,42.349264],[-71.060977,42.349373],[-71.061188,42.349461],[-71.061244,42.349357]]],[[[-71.061227,42.351071],[-71.060769,42.350979],[-71.060668,42.35117],[-71.060595,42.351378],[-71.061056,42.351481],[-71.061082,42.351471],[-71.061227,42.351071]]],[[[-71.061223,42.349999],[-71.061162,42.349985],[-71.061139,42.350043],[-71.061197,42.350066],[-71.061223,42.349999]]],[[[-71.061125,42.352254],[-71.061108,42.351986],[-71.061041,42.351545],[-71.060388,42.351402],[-71.060369,42.351415],[-71.06036,42.351455],[-71.060423,42.351652],[-71.060643,42.351698],[-71.06047,42.351727],[-71.060456,42.351788],[-71.060537,42.352056],[-71.060522,42.352118],[-71.06068,42.35262],[-71.061055,42.352587],[-71.061125,42.352254]],[[-71.060952,42.352051],[-71.06085,42.352058],[-71.060921,42.352046],[-71.06093,42.352009],[-71.060877,42.351838],[-71.060952,42.352051]],[[-71.060788,42.352007],[-71.060742,42.351969],[-71.060656,42.351697],[-71.060691,42.351691],[-71.060788,42.352007]]],[[[-71.061068,42.348118],[-71.061011,42.348097],[-71.060549,42.348739],[-71.060502,42.34894],[-71.060739,42.348997],[-71.061021,42.348319],[-71.061068,42.348118]]],[[[-71.061054,42.348944],[-71.060878,42.348902],[-71.060737,42.349275],[-71.060963,42.349367],[-71.06102,42.349213],[-71.060994,42.349204],[-71.060936,42.349221],[-71.060877,42.349199],[-71.060896,42.349195],[-71.060914,42.349148],[-71.060988,42.349164],[-71.061004,42.349108],[-71.060946,42.34907],[-71.060969,42.349012],[-71.061027,42.349025],[-71.061054,42.348944]]],[[[-71.060995,42.352679],[-71.060985,42.352601],[-71.060475,42.352641],[-71.060188,42.352643],[-71.060182,42.352668],[-71.060191,42.352765],[-71.060294,42.35278],[-71.060252,42.352931],[-71.060683,42.353143],[-71.060951,42.352856],[-71.060995,42.352679]]],[[[-71.060966,42.349994],[-71.060509,42.349891],[-71.06038,42.350207],[-71.060346,42.350352],[-71.060794,42.350478],[-71.060932,42.350139],[-71.060966,42.349994]]],[[[-71.060747,42.35054],[-71.060472,42.350463],[-71.060395,42.350464],[-71.060378,42.350511],[-71.06026,42.350485],[-71.059961,42.351215],[-71.060241,42.351277],[-71.060321,42.351095],[-71.060398,42.351112],[-71.060393,42.351125],[-71.060318,42.351108],[-71.060256,42.351277],[-71.060459,42.351322],[-71.060584,42.351032],[-71.060595,42.350984],[-71.060576,42.35098],[-71.060712,42.350661],[-71.060747,42.35054]],[[-71.060369,42.35067],[-71.060335,42.350678],[-71.060341,42.350664],[-71.060369,42.35067]],[[-71.060346,42.350866],[-71.060264,42.350848],[-71.060299,42.350766],[-71.060333,42.350773],[-71.060346,42.350866]]],[[[-71.060606,42.352497],[-71.0605,42.352135],[-71.060316,42.352167],[-71.060293,42.352288],[-71.060276,42.352208],[-71.060118,42.352221],[-71.060096,42.352316],[-71.060139,42.3526],[-71.060584,42.352591],[-71.060606,42.352497]]],[[[-71.060567,42.349259],[-71.060443,42.349109],[-71.060321,42.349063],[-71.060204,42.349326],[-71.059925,42.350048],[-71.059878,42.350249],[-71.060179,42.350343],[-71.06028,42.350092],[-71.060313,42.349952],[-71.06052,42.34946],[-71.060567,42.349259]]],[[[-71.060448,42.351979],[-71.060234,42.351369],[-71.059977,42.351309],[-71.059927,42.351451],[-71.059962,42.351307],[-71.059758,42.351262],[-71.059709,42.351391],[-71.059696,42.351525],[-71.059804,42.352177],[-71.06002,42.352159],[-71.060033,42.352102],[-71.059943,42.351548],[-71.059994,42.351548],[-71.060005,42.351625],[-71.060161,42.351595],[-71.060236,42.351837],[-71.060056,42.351864],[-71.060043,42.351921],[-71.060062,42.352042],[-71.06024,42.352034],[-71.060255,42.352052],[-71.060438,42.352021],[-71.060448,42.351979]]],[[[-71.060325,42.353148],[-71.060198,42.353083],[-71.060156,42.353018],[-71.059657,42.352762],[-71.059553,42.352772],[-71.059543,42.352815],[-71.059531,42.352816],[-71.059523,42.352849],[-71.059589,42.353243],[-71.059872,42.353388],[-71.060078,42.353285],[-71.060193,42.353344],[-71.060308,42.353221],[-71.060325,42.353148]]],[[[-71.060133,42.353635],[-71.059811,42.353458],[-71.059789,42.35348],[-71.059597,42.353398],[-71.059432,42.35339],[-71.059051,42.35375],[-71.059096,42.353557],[-71.059205,42.353456],[-71.05922,42.353403],[-71.059185,42.353377],[-71.0588,42.353363],[-71.059285,42.353376],[-71.059293,42.35334],[-71.059367,42.353261],[-71.059392,42.353157],[-71.05939,42.353095],[-71.059318,42.352574],[-71.05926,42.352567],[-71.059291,42.352434],[-71.059226,42.352012],[-71.059026,42.352083],[-71.058873,42.352183],[-71.058801,42.352281],[-71.058733,42.352528],[-71.058176,42.352542],[-71.058142,42.35255],[-71.058055,42.352616],[-71.05797,42.352982],[-71.057919,42.353293],[-71.05793,42.353294],[-71.057925,42.353324],[-71.057968,42.353356],[-71.058262,42.353359],[-71.058016,42.353373],[-71.05798,42.35339],[-71.057917,42.353577],[-71.057931,42.35361],[-71.058594,42.354057],[-71.058714,42.353943],[-71.058803,42.353971],[-71.058709,42.354058],[-71.058678,42.354193],[-71.058831,42.354308],[-71.058873,42.354269],[-71.058922,42.354305],[-71.058913,42.354362],[-71.058974,42.354406],[-71.059364,42.354447],[-71.059981,42.353896],[-71.059986,42.353874],[-71.060105,42.353755],[-71.060133,42.353635]],[[-71.059649,42.353628],[-71.05963,42.353656],[-71.059638,42.353621],[-71.059649,42.353628]],[[-71.059608,42.353599],[-71.05959,42.353588],[-71.059597,42.353581],[-71.059608,42.353599]],[[-71.059424,42.353881],[-71.059385,42.354001],[-71.059133,42.354047],[-71.05906,42.353989],[-71.059017,42.354029],[-71.05903,42.353974],[-71.058917,42.353899],[-71.059016,42.353795],[-71.059005,42.353843],[-71.059254,42.353985],[-71.059315,42.353943],[-71.059342,42.353959],[-71.059424,42.353881]],[[-71.058457,42.35336],[-71.058447,42.353361],[-71.058395,42.35336],[-71.058457,42.35336]]],[[[-71.060116,42.350367],[-71.059867,42.350296],[-71.059782,42.350551],[-71.059819,42.350559],[-71.059783,42.350659],[-71.060013,42.350709],[-71.060116,42.350367]]],[[[-71.059748,42.352478],[-71.059715,42.35226],[-71.059695,42.352262],[-71.059626,42.351804],[-71.059386,42.351848],[-71.059369,42.351923],[-71.059461,42.352534],[-71.059731,42.352551],[-71.059748,42.352478]]],[[[-71.059638,42.354988],[-71.059161,42.354622],[-71.059145,42.354629],[-71.059081,42.35459],[-71.059033,42.354595],[-71.058538,42.355044],[-71.058522,42.355113],[-71.058526,42.355139],[-71.058838,42.355275],[-71.058804,42.355418],[-71.058878,42.355473],[-71.05917,42.355592],[-71.059416,42.355378],[-71.059479,42.3553],[-71.059512,42.355159],[-71.059622,42.355057],[-71.059638,42.354988]]],[[[-71.059505,42.350215],[-71.059471,42.35018],[-71.059047,42.350086],[-71.058996,42.350102],[-71.058689,42.350861],[-71.058674,42.350925],[-71.058706,42.350961],[-71.059128,42.351055],[-71.059183,42.351039],[-71.059505,42.350215]]],[[[-71.059318,42.349726],[-71.059179,42.349693],[-71.059101,42.349882],[-71.05924,42.349915],[-71.059318,42.349726]]],[[[-71.059038,42.351101],[-71.058633,42.351011],[-71.05835,42.351742],[-71.058546,42.351785],[-71.058657,42.351685],[-71.058781,42.351553],[-71.058908,42.351384],[-71.058993,42.351236],[-71.059038,42.351101]]],[[[-71.058969,42.354454],[-71.058627,42.354217],[-71.05787,42.354957],[-71.057849,42.355058],[-71.057896,42.355076],[-71.058099,42.35508],[-71.058124,42.355128],[-71.058251,42.355143],[-71.058314,42.355121],[-71.0584,42.355037],[-71.058412,42.354985],[-71.05843,42.354995],[-71.058701,42.354748],[-71.058707,42.354721],[-71.058955,42.354515],[-71.058969,42.354454]]],[[[-71.058776,42.350034],[-71.058372,42.349945],[-71.05813,42.350804],[-71.058236,42.35083],[-71.058245,42.35081],[-71.058451,42.350862],[-71.058567,42.350618],[-71.058673,42.350305],[-71.058744,42.350196],[-71.058776,42.350034]]],[[[-71.05852,42.354135],[-71.05806,42.353838],[-71.058014,42.353836],[-71.057546,42.354581],[-71.057529,42.354653],[-71.057921,42.354773],[-71.058234,42.354468],[-71.058241,42.354438],[-71.058253,42.354445],[-71.058503,42.354206],[-71.05852,42.354135]],[[-71.058155,42.354276],[-71.058134,42.354326],[-71.058045,42.354278],[-71.058069,42.354242],[-71.058155,42.354276]]],[[[-71.058424,42.349376],[-71.057926,42.349266],[-71.057852,42.349461],[-71.057993,42.349492],[-71.057962,42.349568],[-71.057872,42.349548],[-71.05785,42.349611],[-71.05794,42.349631],[-71.057925,42.349695],[-71.058142,42.349744],[-71.058179,42.349776],[-71.058219,42.349762],[-71.058279,42.349774],[-71.05838,42.349534],[-71.058424,42.349376]]],[[[-71.058414,42.350953],[-71.058104,42.350876],[-71.057887,42.351686],[-71.057776,42.352039],[-71.057698,42.352018],[-71.057785,42.351875],[-71.057838,42.351684],[-71.057355,42.351608],[-71.057254,42.352128],[-71.057906,42.352333],[-71.05793,42.352328],[-71.058093,42.35183],[-71.058113,42.351727],[-71.058333,42.351202],[-71.058414,42.350953]]],[[[-71.058289,42.349924],[-71.057874,42.34983],[-71.057688,42.349927],[-71.057525,42.350703],[-71.057675,42.350739],[-71.057693,42.350718],[-71.058048,42.350805],[-71.058188,42.350307],[-71.05784,42.350252],[-71.058184,42.3503],[-71.058289,42.349924]]],[[[-71.058071,42.348706],[-71.057613,42.348605],[-71.057529,42.348814],[-71.057495,42.348959],[-71.057954,42.34906],[-71.058036,42.348856],[-71.058071,42.348706]]],[[[-71.058052,42.350873],[-71.057558,42.350757],[-71.057527,42.350772],[-71.057361,42.351606],[-71.057809,42.351674],[-71.05792,42.351178],[-71.057816,42.351154],[-71.057972,42.351176],[-71.058052,42.350873]],[[-71.057784,42.351147],[-71.05773,42.351135],[-71.057739,42.351096],[-71.057784,42.351147]]],[[[-71.057846,42.353741],[-71.057588,42.353654],[-71.057568,42.353685],[-71.05752,42.353669],[-71.057554,42.353522],[-71.057309,42.353439],[-71.057504,42.353447],[-71.057498,42.353488],[-71.057595,42.353497],[-71.057612,42.353426],[-71.057676,42.353432],[-71.057731,42.353195],[-71.057796,42.352781],[-71.057688,42.352735],[-71.05756,42.352748],[-71.05731,42.352888],[-71.057163,42.352943],[-71.057105,42.353007],[-71.057045,42.353261],[-71.057051,42.353309],[-71.057094,42.35336],[-71.057204,42.353424],[-71.057202,42.353462],[-71.057273,42.353469],[-71.056898,42.35408],[-71.05689,42.354114],[-71.05694,42.354131],[-71.056908,42.354267],[-71.057089,42.354328],[-71.057081,42.354364],[-71.057218,42.354411],[-71.0572,42.354489],[-71.057459,42.354574],[-71.05777,42.354068],[-71.057846,42.353741]]],[[[-71.057505,42.349748],[-71.057133,42.349667],[-71.05695,42.350087],[-71.056922,42.350095],[-71.056797,42.350339],[-71.056777,42.350424],[-71.056808,42.350428],[-71.056795,42.350501],[-71.056827,42.350552],[-71.056904,42.35058],[-71.056999,42.350551],[-71.057286,42.350622],[-71.057325,42.350613],[-71.057505,42.349748]]],[[[-71.057349,42.355074],[-71.057329,42.354923],[-71.05689,42.354747],[-71.056502,42.354776],[-71.056423,42.355116],[-71.056487,42.355473],[-71.05727,42.355414],[-71.057349,42.355074]]],[[[-71.05732,42.350691],[-71.05694,42.350597],[-71.056815,42.350607],[-71.056678,42.350643],[-71.056401,42.351249],[-71.056384,42.351322],[-71.056739,42.351466],[-71.056767,42.351457],[-71.057013,42.350903],[-71.057062,42.350907],[-71.056841,42.351433],[-71.056824,42.351503],[-71.057092,42.351601],[-71.05714,42.351586],[-71.05732,42.350691]]],[[[-71.057141,42.351687],[-71.056525,42.351411],[-71.056294,42.351331],[-71.056079,42.351765],[-71.056052,42.351883],[-71.056476,42.351993],[-71.056467,42.352029],[-71.057042,42.352179],[-71.057141,42.351687]]],[[[-71.057,42.352232],[-71.056202,42.352031],[-71.05594,42.352127],[-71.055846,42.352326],[-71.055717,42.352879],[-71.056311,42.353028],[-71.056593,42.352923],[-71.056669,42.352757],[-71.056687,42.352681],[-71.056822,42.352645],[-71.056879,42.352566],[-71.056963,42.352393],[-71.057,42.352232]]],[[[-71.056982,42.353769],[-71.056971,42.353492],[-71.056948,42.353395],[-71.056816,42.353425],[-71.056626,42.35351],[-71.05666,42.353366],[-71.056638,42.353263],[-71.056242,42.353099],[-71.055998,42.353225],[-71.055955,42.353408],[-71.055897,42.353294],[-71.055573,42.353469],[-71.055563,42.353511],[-71.055421,42.353589],[-71.055376,42.353638],[-71.055342,42.353603],[-71.054915,42.353838],[-71.0549,42.353903],[-71.055141,42.354145],[-71.055469,42.353933],[-71.055493,42.353927],[-71.055528,42.353963],[-71.055605,42.353948],[-71.055791,42.353865],[-71.055803,42.353813],[-71.056044,42.353706],[-71.056064,42.353622],[-71.056029,42.353553],[-71.056315,42.353671],[-71.056266,42.353871],[-71.056302,42.354084],[-71.056329,42.354109],[-71.056425,42.354119],[-71.05654,42.354104],[-71.05665,42.354065],[-71.056738,42.353958],[-71.056954,42.353888],[-71.056982,42.353769]]],[[[-71.056813,42.354373],[-71.056768,42.354123],[-71.056749,42.354112],[-71.056413,42.354145],[-71.056399,42.354161],[-71.056365,42.354306],[-71.05641,42.354554],[-71.056429,42.354566],[-71.056764,42.354533],[-71.056813,42.354373]]],[[[-71.056775,42.349199],[-71.056596,42.349149],[-71.055487,42.349466],[-71.055025,42.350377],[-71.055012,42.350434],[-71.055354,42.350696],[-71.055492,42.350749],[-71.055624,42.35076],[-71.056141,42.350746],[-71.056225,42.35073],[-71.056421,42.350338],[-71.056622,42.349839],[-71.056775,42.349199]]],[[[-71.056683,42.347603],[-71.056673,42.347544],[-71.055908,42.347262],[-71.054533,42.349309],[-71.054513,42.349434],[-71.054447,42.34941],[-71.053477,42.350853],[-71.053455,42.350946],[-71.054036,42.351161],[-71.054081,42.351103],[-71.054331,42.351196],[-71.055301,42.349749],[-71.055307,42.349724],[-71.055264,42.349708],[-71.055357,42.349615],[-71.055684,42.349131],[-71.05667,42.347658],[-71.056683,42.347603]]],[[[-71.056364,42.355412],[-71.056229,42.354666],[-71.056133,42.354623],[-71.056206,42.354612],[-71.056231,42.354504],[-71.056183,42.354332],[-71.05619,42.3543],[-71.056092,42.353765],[-71.055891,42.353852],[-71.055865,42.353994],[-71.055688,42.354072],[-71.055589,42.353983],[-71.055474,42.354042],[-71.055411,42.354084],[-71.055383,42.354204],[-71.0554,42.35422],[-71.055179,42.354313],[-71.055104,42.35437],[-71.055051,42.35444],[-71.055009,42.354458],[-71.05508,42.35411],[-71.054889,42.353912],[-71.054834,42.353899],[-71.054776,42.353908],[-71.054391,42.354111],[-71.054359,42.354149],[-71.054271,42.354562],[-71.054545,42.35485],[-71.054599,42.354858],[-71.054649,42.354842],[-71.054749,42.354754],[-71.054952,42.35496],[-71.05505,42.354918],[-71.055129,42.354991],[-71.055179,42.354995],[-71.055506,42.354808],[-71.055541,42.354658],[-71.055593,42.354602],[-71.055608,42.354537],[-71.055603,42.354582],[-71.055642,42.354688],[-71.055554,42.354733],[-71.055503,42.354951],[-71.055564,42.355294],[-71.055548,42.355362],[-71.055654,42.35594],[-71.056106,42.355896],[-71.056161,42.355663],[-71.056313,42.35563],[-71.056364,42.355412]]],[[[-71.055768,42.35162],[-71.055498,42.351545],[-71.054479,42.351779],[-71.054307,42.351954],[-71.054286,42.352042],[-71.054812,42.35232],[-71.054972,42.352371],[-71.05514,42.352396],[-71.055317,42.352356],[-71.055437,42.352266],[-71.055528,42.352157],[-71.055747,42.351708],[-71.055768,42.35162]]]]},"properties":{"kind":"building"}},{"type":"Feature","geometry":{"type":"MultiPolygon","coordinates":[[[[-71.066058,42.353451],[-71.066047,42.35341],[-71.066015,42.353375],[-71.065968,42.353351],[-71.065856,42.353351],[-71.065777,42.35341],[-71.065753,42.353506],[-71.065764,42.353548],[-71.065796,42.353583],[-71.065843,42.353606],[-71.065955,42.353606],[-71.066034,42.353548],[-71.066058,42.353451]]],[[[-71.066048,42.352923],[-71.066021,42.352832],[-71.065942,42.352773],[-71.06583,42.352773],[-71.065767,42.352814],[-71.065774,42.352784],[-71.06575,42.352742],[-71.065693,42.352724],[-71.065636,42.352741],[-71.065664,42.352663],[-71.065732,42.352649],[-71.065803,42.352681],[-71.065868,42.352651],[-71.06591,42.352685],[-71.065991,42.352673],[-71.066022,42.352597],[-71.066,42.352558],[-71.065947,42.352542],[-71.065882,42.352572],[-71.065841,42.352538],[-71.065759,42.35255],[-71.065688,42.352518],[-71.065635,42.352534],[-71.065608,42.352598],[-71.065539,42.352598],[-71.06551,42.352612],[-71.065483,42.35266],[-71.06548,42.352728],[-71.065529,42.352764],[-71.065564,42.35277],[-71.065628,42.35275],[-71.065612,42.352784],[-71.065525,42.352783],[-71.065472,42.352821],[-71.065454,42.352894],[-71.065475,42.352936],[-71.06545,42.353002],[-71.065408,42.353037],[-71.065389,42.353113],[-71.065397,42.353142],[-71.065362,42.353224],[-71.065265,42.353195],[-71.065209,42.353203],[-71.06513,42.353262],[-71.065106,42.353358],[-71.065115,42.353392],[-71.065054,42.353438],[-71.065032,42.353526],[-71.065042,42.353561],[-71.065108,42.35361],[-71.065156,42.353617],[-71.065243,42.353591],[-71.065275,42.353539],[-71.065291,42.353542],[-71.0653,42.353605],[-71.065332,42.35364],[-71.065425,42.35367],[-71.065419,42.353698],[-71.065437,42.35373],[-71.06548,42.353743],[-71.06552,42.353732],[-71.065501,42.353788],[-71.065537,42.353828],[-71.0655,42.353851],[-71.065493,42.35391],[-71.065541,42.353934],[-71.065578,42.353923],[-71.0656,42.353866],[-71.065568,42.353831],[-71.065614,42.353804],[-71.065625,42.353756],[-71.065589,42.353716],[-71.06553,42.353723],[-71.06555,42.353665],[-71.065538,42.35364],[-71.06557,42.353605],[-71.065594,42.353508],[-71.065583,42.353467],[-71.065504,42.353408],[-71.065448,42.3534],[-71.065378,42.353415],[-71.065407,42.353321],[-71.065508,42.353329],[-71.065616,42.353272],[-71.065637,42.353249],[-71.065654,42.353179],[-71.065633,42.353137],[-71.065686,42.353135],[-71.065671,42.353224],[-71.065713,42.353255],[-71.065747,42.353312],[-71.065814,42.353332],[-71.06588,42.353312],[-71.065901,42.353289],[-71.065918,42.353219],[-71.065898,42.353178],[-71.065969,42.353154],[-71.065995,42.353125],[-71.066048,42.352923]],[[-71.065742,42.352864],[-71.065734,42.352953],[-71.065666,42.352934],[-71.065625,42.35294],[-71.065652,42.352878],[-71.065742,42.352864]]],[[[-71.066046,42.354972],[-71.066026,42.354936],[-71.065952,42.354925],[-71.065915,42.354953],[-71.065907,42.355026],[-71.065944,42.355053],[-71.065996,42.355053],[-71.066033,42.355026],[-71.066046,42.354972]]],[[[-71.06602,42.354061],[-71.066009,42.354041],[-71.065966,42.354034],[-71.065938,42.35408],[-71.065908,42.354048],[-71.06587,42.354048],[-71.065844,42.354067],[-71.065837,42.354123],[-71.065864,42.354143],[-71.065901,42.354143],[-71.065927,42.354123],[-71.065936,42.354087],[-71.06596,42.354113],[-71.06599,42.354113],[-71.066011,42.354097],[-71.06602,42.354061]]],[[[-71.06597,42.354146],[-71.065931,42.354134],[-71.06592,42.354166],[-71.065958,42.354178],[-71.06597,42.354146]]],[[[-71.065865,42.354468],[-71.065827,42.3544],[-71.065785,42.354379],[-71.065685,42.354379],[-71.065615,42.354431],[-71.065592,42.354523],[-71.065602,42.35456],[-71.065672,42.354612],[-71.065772,42.354612],[-71.065842,42.35456],[-71.065865,42.354468]]],[[[-71.06583,42.348038],[-71.065811,42.348004],[-71.06574,42.347994],[-71.065705,42.34802],[-71.065697,42.34809],[-71.065732,42.348116],[-71.065782,42.348116],[-71.065817,42.34809],[-71.06583,42.348038]]],[[[-71.06579,42.34818],[-71.065774,42.348151],[-71.065714,42.348142],[-71.065684,42.348164],[-71.065677,42.348226],[-71.065707,42.348248],[-71.065749,42.348248],[-71.065779,42.348226],[-71.06579,42.34818]]],[[[-71.065764,42.353939],[-71.065734,42.353906],[-71.065681,42.353914],[-71.065663,42.353954],[-71.065619,42.353976],[-71.065612,42.354032],[-71.065657,42.354054],[-71.065692,42.354044],[-71.06571,42.354003],[-71.065753,42.353981],[-71.065764,42.353939]]],[[[-71.065738,42.348446],[-71.065721,42.348415],[-71.065658,42.348406],[-71.065626,42.348429],[-71.065619,42.348494],[-71.06565,42.348518],[-71.065695,42.348518],[-71.065727,42.348494],[-71.065738,42.348446]]],[[[-71.065728,42.348293],[-71.065697,42.348283],[-71.065688,42.348307],[-71.06572,42.348317],[-71.065728,42.348293]]],[[[-71.065683,42.354843],[-71.065674,42.354808],[-71.065607,42.354759],[-71.06556,42.354752],[-71.065482,42.354774],[-71.065466,42.354722],[-71.065418,42.354708],[-71.065362,42.354731],[-71.065345,42.354722],[-71.065351,42.354697],[-71.065327,42.354655],[-71.065202,42.35461],[-71.065147,42.354627],[-71.065118,42.354695],[-71.065071,42.35471],[-71.065039,42.354789],[-71.065062,42.35483],[-71.06511,42.354846],[-71.065127,42.354867],[-71.065178,42.354883],[-71.065226,42.354868],[-71.065248,42.354907],[-71.0653,42.354923],[-71.065353,42.354907],[-71.065382,42.354838],[-71.065436,42.354839],[-71.065424,42.354896],[-71.065434,42.354931],[-71.0655,42.35498],[-71.065548,42.354987],[-71.065635,42.354961],[-71.065661,42.354931],[-71.065683,42.354843]]],[[[-71.065598,42.348957],[-71.065567,42.348947],[-71.065559,42.34897],[-71.06559,42.34898],[-71.065598,42.348957]]],[[[-71.065588,42.351223],[-71.065557,42.351213],[-71.065553,42.351249],[-71.065579,42.351249],[-71.065588,42.351223]]],[[[-71.065562,42.349094],[-71.065531,42.349084],[-71.065523,42.349107],[-71.065554,42.349117],[-71.065562,42.349094]]],[[[-71.065559,42.349236],[-71.065544,42.349211],[-71.065491,42.349203],[-71.065465,42.349222],[-71.065459,42.349274],[-71.065486,42.349294],[-71.065523,42.349294],[-71.065549,42.349274],[-71.065559,42.349236]]],[[[-71.065552,42.348316],[-71.065534,42.348284],[-71.065466,42.348274],[-71.065433,42.348299],[-71.065425,42.348366],[-71.065459,42.348391],[-71.065506,42.348391],[-71.065539,42.348366],[-71.065552,42.348316]]],[[[-71.065548,42.34811],[-71.065517,42.3481],[-71.065508,42.348124],[-71.06554,42.348134],[-71.065548,42.34811]]],[[[-71.065493,42.353867],[-71.065459,42.353829],[-71.065405,42.353835],[-71.065411,42.35377],[-71.065374,42.353742],[-71.065322,42.353742],[-71.065285,42.35377],[-71.065277,42.353843],[-71.065314,42.35387],[-71.065384,42.353861],[-71.06538,42.353913],[-71.06541,42.353935],[-71.06547,42.353926],[-71.065493,42.353867]]],[[[-71.065483,42.348446],[-71.065444,42.348434],[-71.065433,42.348466],[-71.065471,42.348478],[-71.065483,42.348446]]],[[[-71.065465,42.352587],[-71.065434,42.352533],[-71.065401,42.352516],[-71.065321,42.352516],[-71.065265,42.352558],[-71.065246,42.352634],[-71.065254,42.352663],[-71.06531,42.352705],[-71.06539,42.352705],[-71.065446,42.352663],[-71.065465,42.352587]]],[[[-71.065433,42.34879],[-71.065418,42.348765],[-71.065365,42.348757],[-71.065339,42.348776],[-71.065333,42.348828],[-71.06536,42.348848],[-71.065397,42.348848],[-71.065423,42.348828],[-71.065433,42.34879]]],[[[-71.065396,42.34894],[-71.065385,42.348921],[-71.065346,42.348916],[-71.065327,42.34893],[-71.065321,42.348974],[-71.065368,42.348988],[-71.065396,42.34894]]],[[[-71.06538,42.35397],[-71.06534,42.353926],[-71.065277,42.353932],[-71.065282,42.353875],[-71.065249,42.35385],[-71.065201,42.35385],[-71.065168,42.353875],[-71.06516,42.353942],[-71.065194,42.353967],[-71.065253,42.353961],[-71.065247,42.354022],[-71.065282,42.354048],[-71.065353,42.354038],[-71.06538,42.35397]]],[[[-71.065379,42.34907],[-71.065364,42.349045],[-71.065311,42.349037],[-71.065285,42.349056],[-71.065278,42.349112],[-71.065305,42.349132],[-71.065342,42.349132],[-71.065368,42.349112],[-71.065379,42.34907]]],[[[-71.065368,42.35121],[-71.065337,42.3512],[-71.065328,42.351226],[-71.065359,42.351235],[-71.065368,42.35121]]],[[[-71.065308,42.353051],[-71.065266,42.353004],[-71.065271,42.352957],[-71.06522,42.352941],[-71.065199,42.352957],[-71.065169,42.353105],[-71.065206,42.353132],[-71.065258,42.353132],[-71.065295,42.353105],[-71.065308,42.353051]]],[[[-71.065268,42.35121],[-71.065237,42.3512],[-71.065228,42.351224],[-71.06526,42.351234],[-71.065268,42.35121]]],[[[-71.065248,42.354064],[-71.065212,42.354024],[-71.065151,42.354032],[-71.065156,42.353973],[-71.065121,42.353947],[-71.065071,42.353947],[-71.065036,42.353973],[-71.065028,42.354043],[-71.065063,42.354069],[-71.065133,42.354059],[-71.065129,42.354112],[-71.06516,42.354136],[-71.065224,42.354126],[-71.065248,42.354064]]],[[[-71.06521,42.353156],[-71.065197,42.353132],[-71.065148,42.353125],[-71.065123,42.353143],[-71.065117,42.353196],[-71.065141,42.353214],[-71.065176,42.353214],[-71.065201,42.353196],[-71.06521,42.353156]]],[[[-71.065204,42.352785],[-71.065168,42.352745],[-71.065124,42.352745],[-71.065092,42.352768],[-71.065075,42.352879],[-71.065032,42.352908],[-71.065018,42.352964],[-71.065039,42.353001],[-71.06509,42.353017],[-71.065156,42.352984],[-71.065164,42.352908],[-71.065204,42.352785]]],[[[-71.065176,42.35072],[-71.06514,42.350702],[-71.065119,42.350741],[-71.065155,42.350759],[-71.065176,42.35072]]],[[[-71.065151,42.350784],[-71.065115,42.350766],[-71.065094,42.350805],[-71.06513,42.350823],[-71.065151,42.350784]]],[[[-71.065129,42.350853],[-71.065096,42.350843],[-71.065092,42.350882],[-71.065119,42.350882],[-71.065129,42.350853]]],[[[-71.065128,42.353243],[-71.065096,42.353185],[-71.06506,42.353168],[-71.064976,42.353168],[-71.064916,42.353212],[-71.064896,42.353292],[-71.064905,42.353323],[-71.064964,42.353367],[-71.065049,42.353367],[-71.065109,42.353323],[-71.065128,42.353243]]],[[[-71.065109,42.352581],[-71.065081,42.35253],[-71.065049,42.352515],[-71.064975,42.352515],[-71.064922,42.352553],[-71.064904,42.352626],[-71.064912,42.352653],[-71.064964,42.352692],[-71.065039,42.352692],[-71.065092,42.352653],[-71.065109,42.352581]]],[[[-71.065103,42.354592],[-71.065085,42.35456],[-71.065017,42.35455],[-71.064984,42.354575],[-71.064973,42.354618],[-71.064905,42.354594],[-71.064841,42.354613],[-71.064821,42.354635],[-71.064811,42.354729],[-71.064886,42.354769],[-71.064866,42.354826],[-71.064882,42.354854],[-71.064921,42.354866],[-71.064972,42.354841],[-71.064979,42.354779],[-71.064949,42.354757],[-71.064979,42.354729],[-71.064996,42.354661],[-71.065033,42.35467],[-71.065077,42.354657],[-71.065103,42.354592]]],[[[-71.065099,42.354179],[-71.065082,42.354148],[-71.065019,42.354139],[-71.064987,42.354162],[-71.06498,42.354227],[-71.065011,42.354251],[-71.065056,42.354251],[-71.065088,42.354227],[-71.065099,42.354179]]],[[[-71.065067,42.354458],[-71.065029,42.354416],[-71.064868,42.354419],[-71.064824,42.354451],[-71.064809,42.354513],[-71.064832,42.354556],[-71.064859,42.354569],[-71.064921,42.354569],[-71.064965,42.354536],[-71.065041,42.354523],[-71.065067,42.354458]]],[[[-71.065017,42.353478],[-71.064997,42.353441],[-71.064919,42.353429],[-71.06488,42.353458],[-71.064872,42.353534],[-71.06491,42.353563],[-71.064965,42.353563],[-71.065004,42.353534],[-71.065017,42.353478]]],[[[-71.064955,42.354294],[-71.06494,42.354267],[-71.064883,42.354259],[-71.064855,42.354279],[-71.064848,42.354338],[-71.064876,42.354359],[-71.064916,42.354359],[-71.064944,42.354338],[-71.064955,42.354294]]],[[[-71.064944,42.35131],[-71.064913,42.3513],[-71.064904,42.351326],[-71.064935,42.351335],[-71.064944,42.35131]]],[[[-71.064939,42.353107],[-71.064928,42.353066],[-71.064865,42.353015],[-71.06483,42.352952],[-71.064745,42.352926],[-71.06466,42.352952],[-71.064634,42.352981],[-71.064613,42.353067],[-71.064643,42.353124],[-71.064645,42.353204],[-71.064692,42.353246],[-71.064617,42.353248],[-71.064581,42.353265],[-71.064549,42.353323],[-71.064546,42.353403],[-71.064605,42.353447],[-71.064648,42.353453],[-71.064726,42.35343],[-71.064754,42.353388],[-71.0648,42.353401],[-71.06485,42.353385],[-71.064879,42.353312],[-71.064839,42.353265],[-71.064915,42.353204],[-71.064939,42.353107]],[[-71.064763,42.353272],[-71.064751,42.353281],[-71.064737,42.353265],[-71.064763,42.353272]]],[[[-71.064935,42.35396],[-71.064911,42.353918],[-71.064854,42.3539],[-71.064797,42.353918],[-71.064773,42.35396],[-71.064785,42.3539],[-71.064762,42.353859],[-71.064677,42.353847],[-71.064635,42.353878],[-71.064629,42.3539],[-71.064638,42.353855],[-71.064614,42.353813],[-71.064557,42.353795],[-71.064508,42.353809],[-71.064467,42.353779],[-71.064423,42.353776],[-71.064483,42.35364],[-71.064464,42.353606],[-71.064393,42.353596],[-71.064358,42.353622],[-71.064312,42.35374],[-71.064284,42.353761],[-71.064273,42.353808],[-71.064285,42.353832],[-71.064258,42.353857],[-71.064229,42.353984],[-71.064252,42.354027],[-71.06422,42.35406],[-71.064205,42.354121],[-71.064149,42.354121],[-71.064109,42.354151],[-71.0641,42.35423],[-71.064074,42.354252],[-71.064066,42.354322],[-71.064148,42.354416],[-71.064195,42.354439],[-71.064307,42.354439],[-71.064386,42.354381],[-71.06441,42.354284],[-71.064399,42.354243],[-71.064367,42.354208],[-71.064296,42.354181],[-71.064361,42.354145],[-71.064376,42.354083],[-71.064352,42.354041],[-71.064385,42.354007],[-71.06441,42.353925],[-71.064473,42.353916],[-71.06453,42.353952],[-71.064517,42.354007],[-71.064531,42.354041],[-71.06445,42.354063],[-71.064427,42.354089],[-71.064408,42.354167],[-71.064439,42.354223],[-71.064515,42.354246],[-71.064556,42.35424],[-71.064614,42.354197],[-71.064633,42.354119],[-71.064609,42.354071],[-71.064652,42.35406],[-71.064716,42.354091],[-71.064766,42.354075],[-71.064786,42.35404],[-71.064876,42.354055],[-71.06492,42.354022],[-71.064935,42.35396]],[[-71.064255,42.354177],[-71.064251,42.354178],[-71.064252,42.354176],[-71.064255,42.354177]]],[[[-71.064915,42.35417],[-71.0649,42.354145],[-71.064847,42.354137],[-71.064821,42.354156],[-71.064814,42.354212],[-71.064841,42.354232],[-71.064878,42.354232],[-71.064904,42.354212],[-71.064915,42.35417]]],[[[-71.064911,42.354986],[-71.06488,42.354932],[-71.064847,42.354915],[-71.064767,42.354915],[-71.064711,42.354957],[-71.064692,42.355033],[-71.0647,42.355062],[-71.064756,42.355104],[-71.064836,42.355104],[-71.064892,42.355062],[-71.064911,42.354986]]],[[[-71.064857,42.348456],[-71.064826,42.348446],[-71.064817,42.34847],[-71.064849,42.34848],[-71.064857,42.348456]]],[[[-71.064806,42.354449],[-71.064798,42.354419],[-71.06474,42.354376],[-71.064759,42.354284],[-71.064722,42.354256],[-71.06467,42.354256],[-71.064633,42.354284],[-71.064625,42.354357],[-71.064571,42.354378],[-71.064561,42.35442],[-71.064591,42.354454],[-71.064581,42.354496],[-71.064559,42.354504],[-71.064561,42.354458],[-71.064507,42.354432],[-71.064453,42.354458],[-71.064441,42.354507],[-71.064477,42.354547],[-71.064536,42.35454],[-71.064529,42.354569],[-71.064546,42.354599],[-71.06461,42.354609],[-71.064646,42.354569],[-71.064688,42.354576],[-71.064764,42.354553],[-71.064787,42.354527],[-71.064806,42.354449]]],[[[-71.064739,42.354797],[-71.064708,42.354787],[-71.064699,42.354811],[-71.064731,42.354821],[-71.064739,42.354797]]],[[[-71.064732,42.353536],[-71.064702,42.353483],[-71.06467,42.353467],[-71.064592,42.353467],[-71.064538,42.353508],[-71.06452,42.353582],[-71.064527,42.35361],[-71.064582,42.35365],[-71.064659,42.35365],[-71.064713,42.35361],[-71.064732,42.353536]]],[[[-71.064624,42.351826],[-71.064593,42.351816],[-71.064584,42.35184],[-71.064616,42.35185],[-71.064624,42.351826]]],[[[-71.064621,42.348425],[-71.06459,42.348415],[-71.064581,42.348439],[-71.064613,42.348449],[-71.064621,42.348425]]],[[[-71.064568,42.352055],[-71.064537,42.352045],[-71.064528,42.352071],[-71.064559,42.35208],[-71.064568,42.352055]]],[[[-71.064564,42.352104],[-71.064531,42.352094],[-71.064527,42.352133],[-71.064554,42.352133],[-71.064564,42.352104]]],[[[-71.064548,42.35216],[-71.064517,42.35215],[-71.064508,42.352174],[-71.06454,42.352184],[-71.064548,42.35216]]],[[[-71.064546,42.354621],[-71.064514,42.354586],[-71.064457,42.354594],[-71.064462,42.354562],[-71.064445,42.354531],[-71.064382,42.354522],[-71.06435,42.354545],[-71.064338,42.354594],[-71.064268,42.35462],[-71.064257,42.354665],[-71.064289,42.3547],[-71.064346,42.354692],[-71.064341,42.354737],[-71.064303,42.354728],[-71.064261,42.354739],[-71.064263,42.354697],[-71.064212,42.354672],[-71.064161,42.354697],[-71.064154,42.354759],[-71.064184,42.354781],[-71.064226,42.354781],[-71.064223,42.354817],[-71.064244,42.354854],[-71.064322,42.354866],[-71.064361,42.354837],[-71.064369,42.354762],[-71.064432,42.354754],[-71.064455,42.354695],[-71.064421,42.354657],[-71.064361,42.354666],[-71.064368,42.354635],[-71.064438,42.354624],[-71.064439,42.354665],[-71.064487,42.354689],[-71.064535,42.354665],[-71.064546,42.354621]]],[[[-71.064436,42.348399],[-71.064405,42.348389],[-71.064396,42.348413],[-71.064428,42.348423],[-71.064436,42.348399]]],[[[-71.064238,42.350925],[-71.064207,42.350915],[-71.064198,42.350939],[-71.06423,42.350949],[-71.064238,42.350925]]],[[[-71.064209,42.34872],[-71.06417,42.348708],[-71.064159,42.34874],[-71.064197,42.348752],[-71.064209,42.34872]]],[[[-71.064184,42.354523],[-71.064173,42.354482],[-71.06411,42.354431],[-71.064117,42.354399],[-71.064093,42.354357],[-71.064005,42.354344],[-71.063961,42.354376],[-71.063946,42.354438],[-71.063903,42.354482],[-71.063879,42.354578],[-71.06389,42.35462],[-71.063922,42.354655],[-71.063969,42.354678],[-71.064081,42.354678],[-71.06416,42.35462],[-71.064184,42.354523]]],[[[-71.064168,42.34884],[-71.064137,42.34883],[-71.064133,42.348867],[-71.064159,42.348867],[-71.064168,42.34884]]],[[[-71.064148,42.350914],[-71.064117,42.350904],[-71.064108,42.350928],[-71.06414,42.350938],[-71.064148,42.350914]]],[[[-71.064088,42.3533],[-71.064057,42.35329],[-71.064053,42.353327],[-71.064079,42.353327],[-71.064088,42.3533]]],[[[-71.064082,42.350914],[-71.064073,42.350897],[-71.064038,42.350892],[-71.064012,42.350937],[-71.064032,42.350959],[-71.064057,42.350959],[-71.064082,42.350914]]],[[[-71.064049,42.35339],[-71.064016,42.35338],[-71.064012,42.353419],[-71.064039,42.353419],[-71.064049,42.35339]]],[[[-71.064013,42.353283],[-71.063982,42.353273],[-71.063978,42.35331],[-71.064004,42.35331],[-71.064013,42.353283]]],[[[-71.063998,42.35376],[-71.063967,42.35375],[-71.063963,42.353787],[-71.063989,42.353787],[-71.063998,42.35376]]],[[[-71.063984,42.353386],[-71.063951,42.353376],[-71.063947,42.353415],[-71.063974,42.353415],[-71.063984,42.353386]]],[[[-71.063973,42.350903],[-71.063962,42.350883],[-71.063919,42.350876],[-71.063898,42.350892],[-71.063892,42.350939],[-71.063943,42.350955],[-71.063964,42.350939],[-71.063973,42.350903]]],[[[-71.063962,42.354707],[-71.063956,42.354683],[-71.06391,42.354649],[-71.063818,42.354663],[-71.063788,42.354731],[-71.063755,42.354758],[-71.063746,42.35484],[-71.063818,42.354876],[-71.063873,42.354859],[-71.063899,42.354805],[-71.063947,42.354771],[-71.063962,42.354707]]],[[[-71.063943,42.353268],[-71.063904,42.353256],[-71.063893,42.353288],[-71.063931,42.3533],[-71.063943,42.353268]]],[[[-71.063928,42.353374],[-71.063897,42.353364],[-71.063893,42.353401],[-71.063919,42.353401],[-71.063928,42.353374]]],[[[-71.063922,42.353967],[-71.063913,42.35395],[-71.063878,42.353945],[-71.063852,42.35399],[-71.063872,42.354012],[-71.063897,42.354012],[-71.063922,42.353967]]],[[[-71.063915,42.348675],[-71.063882,42.348665],[-71.063878,42.348704],[-71.063905,42.348704],[-71.063915,42.348675]]],[[[-71.063893,42.348743],[-71.063854,42.348731],[-71.063843,42.348763],[-71.063881,42.348775],[-71.063893,42.348743]]],[[[-71.063879,42.34887],[-71.063846,42.34886],[-71.063842,42.348899],[-71.063869,42.348899],[-71.063879,42.34887]]],[[[-71.063873,42.348793],[-71.063842,42.348783],[-71.063833,42.348807],[-71.063865,42.348817],[-71.063873,42.348793]]],[[[-71.063821,42.349148],[-71.06379,42.349138],[-71.063781,42.349162],[-71.063813,42.349172],[-71.063821,42.349148]]],[[[-71.063816,42.35412],[-71.06378,42.354102],[-71.063759,42.354141],[-71.063795,42.354159],[-71.063816,42.35412]]],[[[-71.063808,42.348427],[-71.063777,42.348417],[-71.063768,42.348441],[-71.0638,42.348451],[-71.063808,42.348427]]],[[[-71.063768,42.349293],[-71.063737,42.349283],[-71.063728,42.349307],[-71.06376,42.349317],[-71.063768,42.349293]]],[[[-71.063755,42.349335],[-71.063724,42.349325],[-71.063715,42.349349],[-71.063747,42.349359],[-71.063755,42.349335]]],[[[-71.063718,42.34841],[-71.063687,42.3484],[-71.063678,42.348424],[-71.06371,42.348434],[-71.063718,42.34841]]],[[[-71.063707,42.350883],[-71.063698,42.350866],[-71.063663,42.350861],[-71.063637,42.350906],[-71.063657,42.350928],[-71.063682,42.350928],[-71.063707,42.350883]]],[[[-71.063689,42.34976],[-71.063656,42.34975],[-71.063652,42.349789],[-71.063679,42.349789],[-71.063689,42.34976]]],[[[-71.063632,42.349854],[-71.063601,42.349844],[-71.063597,42.349881],[-71.063623,42.349881],[-71.063632,42.349854]]],[[[-71.063613,42.350876],[-71.063574,42.350864],[-71.063563,42.350896],[-71.063601,42.350908],[-71.063613,42.350876]]],[[[-71.063579,42.34995],[-71.063546,42.34994],[-71.063542,42.349979],[-71.063569,42.349979],[-71.063579,42.34995]]],[[[-71.063569,42.3547],[-71.063554,42.354675],[-71.063501,42.354667],[-71.063475,42.354686],[-71.063469,42.354738],[-71.063496,42.354758],[-71.063533,42.354758],[-71.063559,42.354738],[-71.063569,42.3547]]],[[[-71.063548,42.35],[-71.063517,42.34999],[-71.063513,42.350027],[-71.063539,42.350027],[-71.063548,42.35]]],[[[-71.063546,42.350864],[-71.06351,42.350846],[-71.063489,42.350885],[-71.063525,42.350903],[-71.063546,42.350864]]],[[[-71.063509,42.3548],[-71.063494,42.354775],[-71.063441,42.354767],[-71.063415,42.354786],[-71.063409,42.354838],[-71.063436,42.354858],[-71.063473,42.354858],[-71.063499,42.354838],[-71.063509,42.3548]]],[[[-71.063458,42.350418],[-71.063427,42.350408],[-71.063423,42.350445],[-71.063449,42.350445],[-71.063458,42.350418]]],[[[-71.063458,42.35018],[-71.063427,42.35017],[-71.063423,42.350206],[-71.063449,42.350206],[-71.063458,42.35018]]],[[[-71.063434,42.350487],[-71.063403,42.350477],[-71.063399,42.350513],[-71.063425,42.350513],[-71.063434,42.350487]]],[[[-71.063428,42.350246],[-71.063397,42.350236],[-71.063368,42.350275],[-71.063368,42.350306],[-71.063394,42.350306],[-71.063428,42.350246]]],[[[-71.063403,42.35055],[-71.063372,42.35054],[-71.063363,42.350566],[-71.063394,42.350575],[-71.063403,42.35055]]],[[[-71.063386,42.350826],[-71.06336,42.350807],[-71.063378,42.350787],[-71.063375,42.35075],[-71.063333,42.35075],[-71.06332,42.350787],[-71.063349,42.350809],[-71.063329,42.350847],[-71.063337,42.35086],[-71.063365,42.350865],[-71.063386,42.350826]]],[[[-71.063369,42.350704],[-71.063336,42.350694],[-71.063332,42.350733],[-71.063359,42.350733],[-71.063369,42.350704]]],[[[-71.063368,42.35061],[-71.063337,42.3506],[-71.063328,42.350626],[-71.063359,42.350635],[-71.063368,42.35061]]],[[[-71.063328,42.35044],[-71.063297,42.35043],[-71.063288,42.350456],[-71.063319,42.350465],[-71.063328,42.35044]]],[[[-71.063298,42.350483],[-71.063267,42.350473],[-71.063263,42.350509],[-71.063289,42.350509],[-71.063298,42.350483]]],[[[-71.063273,42.350536],[-71.063242,42.350526],[-71.063238,42.350562],[-71.063264,42.350562],[-71.063273,42.350536]]],[[[-71.063248,42.350582],[-71.063217,42.350572],[-71.063213,42.350609],[-71.063239,42.350609],[-71.063248,42.350582]]],[[[-71.063228,42.35063],[-71.063197,42.35062],[-71.063193,42.350657],[-71.063219,42.350657],[-71.063228,42.35063]]],[[[-71.063198,42.350677],[-71.063167,42.350667],[-71.063159,42.35069],[-71.06319,42.3507],[-71.063198,42.350677]]],[[[-71.063178,42.350727],[-71.063147,42.350717],[-71.063143,42.350753],[-71.063169,42.350753],[-71.063178,42.350727]]],[[[-71.063149,42.350765],[-71.063116,42.350755],[-71.063112,42.350794],[-71.063139,42.350794],[-71.063149,42.350765]]],[[[-71.063144,42.352238],[-71.063113,42.352228],[-71.063104,42.352254],[-71.063135,42.352263],[-71.063144,42.352238]]],[[[-71.063083,42.35225],[-71.063052,42.35224],[-71.063043,42.352266],[-71.063074,42.352275],[-71.063083,42.35225]]],[[[-71.062983,42.352253],[-71.062952,42.352243],[-71.062943,42.352269],[-71.062974,42.352278],[-71.062983,42.352253]]],[[[-71.062922,42.35222],[-71.062891,42.35221],[-71.062887,42.352246],[-71.062913,42.352246],[-71.062922,42.35222]]],[[[-71.062848,42.352215],[-71.062817,42.352205],[-71.062808,42.352231],[-71.062839,42.35224],[-71.062848,42.352215]]],[[[-71.062829,42.353302],[-71.062796,42.353292],[-71.062792,42.353331],[-71.062819,42.353331],[-71.062829,42.353302]]],[[[-71.062829,42.353214],[-71.062796,42.353204],[-71.062792,42.353243],[-71.062819,42.353243],[-71.062829,42.353214]]],[[[-71.062763,42.353207],[-71.06273,42.353197],[-71.062726,42.353236],[-71.062753,42.353236],[-71.062763,42.353207]]],[[[-71.062763,42.353306],[-71.062724,42.353294],[-71.062713,42.353326],[-71.062751,42.353338],[-71.062763,42.353306]]],[[[-71.062559,42.348354],[-71.062519,42.348334],[-71.062496,42.348376],[-71.062536,42.348396],[-71.062559,42.348354]]],[[[-71.062496,42.349373],[-71.062484,42.349351],[-71.062438,42.349344],[-71.062415,42.349361],[-71.062409,42.349411],[-71.062464,42.349428],[-71.062487,42.349411],[-71.062496,42.349373]]],[[[-71.062463,42.348557],[-71.062424,42.348545],[-71.062413,42.348577],[-71.062451,42.348589],[-71.062463,42.348557]]],[[[-71.062409,42.348373],[-71.062398,42.348353],[-71.062355,42.348346],[-71.062334,42.348362],[-71.062328,42.348409],[-71.062379,42.348425],[-71.0624,42.348409],[-71.062409,42.348373]]],[[[-71.062392,42.349323],[-71.06238,42.349301],[-71.062334,42.349294],[-71.062311,42.349311],[-71.062305,42.349361],[-71.06236,42.349378],[-71.062383,42.349361],[-71.062392,42.349323]]],[[[-71.062039,42.353752],[-71.062006,42.353742],[-71.062002,42.353781],[-71.062029,42.353781],[-71.062039,42.353752]]],[[[-71.062006,42.349306],[-71.061975,42.349296],[-71.061966,42.34932],[-71.061998,42.34933],[-71.062006,42.349306]]],[[[-71.061988,42.35386],[-71.061957,42.35385],[-71.061948,42.353874],[-71.06198,42.353884],[-71.061988,42.35386]]],[[[-71.061951,42.349438],[-71.06192,42.349428],[-71.061911,42.349452],[-71.061943,42.349462],[-71.061951,42.349438]]],[[[-71.061941,42.349548],[-71.061926,42.349523],[-71.061873,42.349515],[-71.061847,42.349534],[-71.061841,42.349586],[-71.061868,42.349606],[-71.061905,42.349606],[-71.061931,42.349586],[-71.061941,42.349548]]],[[[-71.061928,42.34988],[-71.061897,42.34987],[-71.061888,42.349894],[-71.06192,42.349904],[-71.061928,42.34988]]],[[[-71.061924,42.3537],[-71.061891,42.35369],[-71.061887,42.353729],[-71.061914,42.353729],[-71.061924,42.3537]]],[[[-71.061909,42.353825],[-71.061876,42.353815],[-71.061872,42.353854],[-71.061899,42.353854],[-71.061909,42.353825]]],[[[-71.061898,42.349926],[-71.061867,42.349916],[-71.061858,42.34994],[-71.06189,42.34995],[-71.061898,42.349926]]],[[[-71.061892,42.35],[-71.061861,42.34999],[-71.061852,42.350014],[-71.061884,42.350024],[-71.061892,42.35]]],[[[-71.061868,42.350044],[-71.061837,42.350034],[-71.061828,42.350058],[-71.06186,42.350068],[-71.061868,42.350044]]],[[[-71.061851,42.348312],[-71.061838,42.348288],[-71.061789,42.348281],[-71.061764,42.348299],[-71.061758,42.348352],[-71.061782,42.34837],[-71.061817,42.34837],[-71.061842,42.348352],[-71.061851,42.348312]]],[[[-71.061838,42.35008],[-71.061807,42.35007],[-71.061798,42.350094],[-71.06183,42.350104],[-71.061838,42.35008]]],[[[-71.061828,42.353783],[-71.061797,42.353773],[-71.061788,42.353797],[-71.06182,42.353807],[-71.061828,42.353783]]],[[[-71.061825,42.353653],[-71.061792,42.353643],[-71.061788,42.353682],[-71.061815,42.353682],[-71.061825,42.353653]]],[[[-71.061824,42.350155],[-71.061793,42.350145],[-71.061785,42.350168],[-71.061816,42.350178],[-71.061824,42.350155]]],[[[-71.061798,42.3502],[-71.061767,42.35019],[-71.061758,42.350214],[-71.06179,42.350224],[-71.061798,42.3502]]],[[[-71.061789,42.350292],[-71.061765,42.350265],[-71.061722,42.350272],[-71.061706,42.350315],[-71.061678,42.350333],[-71.061672,42.350386],[-71.061714,42.350407],[-71.061746,42.350397],[-71.061789,42.350292]]],[[[-71.06177,42.348421],[-71.061739,42.348411],[-71.06173,42.348435],[-71.061762,42.348445],[-71.06177,42.348421]]],[[[-71.061766,42.349666],[-71.061751,42.349641],[-71.061698,42.349633],[-71.061672,42.349652],[-71.061666,42.349704],[-71.061693,42.349724],[-71.06173,42.349724],[-71.061756,42.349704],[-71.061766,42.349666]]],[[[-71.061759,42.353607],[-71.061744,42.353582],[-71.061691,42.353574],[-71.061665,42.353593],[-71.061659,42.353645],[-71.061686,42.353665],[-71.061723,42.353665],[-71.061749,42.353645],[-71.061759,42.353607]]],[[[-71.061747,42.353738],[-71.061716,42.353728],[-71.061707,42.353752],[-71.061739,42.353762],[-71.061747,42.353738]]],[[[-71.061692,42.348648],[-71.06168,42.348626],[-71.061634,42.348619],[-71.061611,42.348636],[-71.061605,42.348686],[-71.06166,42.348703],[-71.061683,42.348686],[-71.061692,42.348648]]],[[[-71.061645,42.348297],[-71.061629,42.348268],[-71.061569,42.348259],[-71.061539,42.348281],[-71.061532,42.348343],[-71.061562,42.348365],[-71.061604,42.348365],[-71.061634,42.348343],[-71.061645,42.348297]]],[[[-71.061628,42.35355],[-71.061597,42.35354],[-71.061593,42.353576],[-71.061619,42.353576],[-71.061628,42.35355]]],[[[-71.06161,42.348837],[-71.061579,42.348827],[-71.06157,42.348851],[-71.061602,42.348861],[-71.06161,42.348837]]],[[[-71.061608,42.3485],[-71.061577,42.34849],[-71.061568,42.348514],[-71.0616,42.348524],[-71.061608,42.3485]]],[[[-71.061597,42.348184],[-71.061566,42.348174],[-71.061562,42.34821],[-71.061588,42.34821],[-71.061597,42.348184]]],[[[-71.061565,42.34867],[-71.061552,42.348646],[-71.061503,42.348639],[-71.061478,42.348657],[-71.061472,42.34871],[-71.061496,42.348728],[-71.061531,42.348728],[-71.061556,42.34871],[-71.061565,42.34867]]],[[[-71.061548,42.349568],[-71.061533,42.349543],[-71.06148,42.349535],[-71.061454,42.349554],[-71.061448,42.349606],[-71.061475,42.349626],[-71.061512,42.349626],[-71.061538,42.349606],[-71.061548,42.349568]]],[[[-71.061502,42.348854],[-71.06149,42.348832],[-71.061444,42.348825],[-71.061421,42.348842],[-71.061415,42.348892],[-71.06147,42.348909],[-71.061493,42.348892],[-71.061502,42.348854]]],[[[-71.061493,42.35095],[-71.061454,42.350938],[-71.061443,42.35097],[-71.061481,42.350982],[-71.061493,42.35095]]],[[[-71.061472,42.34815],[-71.061434,42.348108],[-71.061386,42.348108],[-71.061353,42.348133],[-71.061345,42.3482],[-71.061402,42.348228],[-71.061382,42.348271],[-71.061392,42.348288],[-71.061415,42.348295],[-71.061445,42.34828],[-71.061452,42.348248],[-71.061432,42.348226],[-71.061459,42.3482],[-71.061472,42.34815]]],[[[-71.06145,42.349534],[-71.061435,42.349509],[-71.061382,42.349501],[-71.061356,42.34952],[-71.06135,42.349572],[-71.061377,42.349592],[-71.061414,42.349592],[-71.06144,42.349572],[-71.06145,42.349534]]],[[[-71.061438,42.349255],[-71.061407,42.349245],[-71.061403,42.349281],[-71.061429,42.349281],[-71.061438,42.349255]]],[[[-71.061418,42.351122],[-71.061387,42.351112],[-71.061378,42.351136],[-71.06141,42.351146],[-71.061418,42.351122]]],[[[-71.061399,42.349052],[-71.061366,42.349042],[-71.061362,42.349081],[-71.061389,42.349081],[-71.061399,42.349052]]],[[[-71.061397,42.35118],[-71.061366,42.35117],[-71.061357,42.351194],[-71.061389,42.351204],[-71.061397,42.35118]]],[[[-71.061371,42.35124],[-71.06134,42.35123],[-71.061331,42.351254],[-71.061363,42.351264],[-71.061371,42.35124]]],[[[-71.061368,42.34943],[-71.061337,42.34942],[-71.061328,42.349444],[-71.06136,42.349454],[-71.061368,42.34943]]],[[[-71.061352,42.351289],[-71.061321,42.351279],[-71.061312,42.351303],[-71.061344,42.351313],[-71.061352,42.351289]]],[[[-71.061349,42.349228],[-71.061309,42.349208],[-71.061286,42.34925],[-71.061326,42.34927],[-71.061349,42.349228]]],[[[-71.061282,42.34963],[-71.061251,42.34962],[-71.061242,42.349646],[-71.061273,42.349655],[-71.061282,42.34963]]],[[[-71.061261,42.349678],[-71.06123,42.349668],[-71.061221,42.349694],[-71.061252,42.349703],[-71.061261,42.349678]]],[[[-71.061244,42.35337],[-71.061213,42.35336],[-71.061204,42.353384],[-71.061236,42.353394],[-71.061244,42.35337]]],[[[-71.061238,42.354774],[-71.061207,42.354764],[-71.061198,42.354788],[-71.06123,42.354798],[-71.061238,42.354774]]],[[[-71.061222,42.34983],[-71.06121,42.349808],[-71.061164,42.349801],[-71.061141,42.349818],[-71.061135,42.349868],[-71.06119,42.349885],[-71.061213,42.349868],[-71.061222,42.34983]]],[[[-71.061188,42.354916],[-71.061157,42.354906],[-71.061148,42.35493],[-71.06118,42.35494],[-71.061188,42.354916]]],[[[-71.061188,42.353344],[-71.061157,42.353334],[-71.061148,42.353358],[-71.06118,42.353368],[-71.061188,42.353344]]],[[[-71.061156,42.35003],[-71.061141,42.350003],[-71.061084,42.349995],[-71.061056,42.350015],[-71.061049,42.350074],[-71.061077,42.350095],[-71.061117,42.350095],[-71.061145,42.350074],[-71.061156,42.35003]]],[[[-71.061138,42.35332],[-71.061107,42.35331],[-71.061098,42.353334],[-71.06113,42.353344],[-71.061138,42.35332]]],[[[-71.061048,42.353275],[-71.061017,42.353265],[-71.061013,42.353301],[-71.061039,42.353301],[-71.061048,42.353275]]],[[[-71.061038,42.34849],[-71.061007,42.34848],[-71.060998,42.348504],[-71.06103,42.348514],[-71.061038,42.34849]]],[[[-71.061032,42.348602],[-71.061017,42.348575],[-71.06096,42.348567],[-71.060932,42.348587],[-71.060925,42.348646],[-71.060953,42.348667],[-71.060993,42.348667],[-71.061021,42.348646],[-71.061032,42.348602]]],[[[-71.061005,42.348717],[-71.060989,42.348688],[-71.060929,42.348679],[-71.060899,42.348701],[-71.060892,42.348763],[-71.060922,42.348785],[-71.060964,42.348785],[-71.060994,42.348763],[-71.061005,42.348717]]],[[[-71.060988,42.353363],[-71.060957,42.353353],[-71.060948,42.353377],[-71.06098,42.353387],[-71.060988,42.353363]]],[[[-71.060942,42.348827],[-71.06093,42.348805],[-71.060884,42.348798],[-71.060861,42.348815],[-71.060855,42.348865],[-71.06091,42.348882],[-71.060933,42.348865],[-71.060942,42.348827]]],[[[-71.060938,42.35322],[-71.060907,42.35321],[-71.060898,42.353234],[-71.06093,42.353244],[-71.060938,42.35322]]],[[[-71.060923,42.35333],[-71.060892,42.35332],[-71.060883,42.353346],[-71.060914,42.353355],[-71.060923,42.35333]]],[[[-71.060862,42.353302],[-71.060831,42.353292],[-71.060822,42.353316],[-71.060854,42.353326],[-71.060862,42.353302]]],[[[-71.060847,42.349174],[-71.060827,42.349137],[-71.060749,42.349125],[-71.06071,42.349154],[-71.060702,42.34923],[-71.06074,42.349259],[-71.060795,42.349259],[-71.060834,42.34923],[-71.060847,42.349174]]],[[[-71.060733,42.34939],[-71.060718,42.349365],[-71.060665,42.349357],[-71.060639,42.349376],[-71.060633,42.349428],[-71.06066,42.349448],[-71.060697,42.349448],[-71.060723,42.349428],[-71.060733,42.34939]]],[[[-71.060695,42.349506],[-71.06068,42.349481],[-71.060627,42.349473],[-71.060601,42.349492],[-71.060594,42.349548],[-71.060621,42.349568],[-71.060658,42.349568],[-71.060684,42.349548],[-71.060695,42.349506]]],[[[-71.060628,42.34926],[-71.060597,42.34925],[-71.060588,42.349274],[-71.06062,42.349284],[-71.060628,42.34926]]],[[[-71.060609,42.34967],[-71.060594,42.349645],[-71.060541,42.349637],[-71.060515,42.349656],[-71.060508,42.349712],[-71.060535,42.349732],[-71.060572,42.349732],[-71.060598,42.349712],[-71.060609,42.34967]]],[[[-71.060608,42.3493],[-71.060577,42.34929],[-71.060568,42.349314],[-71.0606,42.349324],[-71.060608,42.3493]]],[[[-71.060598,42.35304],[-71.060567,42.35303],[-71.060558,42.353054],[-71.06059,42.353064],[-71.060598,42.35304]]],[[[-71.060588,42.349342],[-71.060557,42.349332],[-71.060548,42.349356],[-71.06058,42.349366],[-71.060588,42.349342]]],[[[-71.060582,42.349792],[-71.060567,42.349765],[-71.06051,42.349757],[-71.060482,42.349777],[-71.060475,42.349836],[-71.060503,42.349857],[-71.060543,42.349857],[-71.060571,42.349836],[-71.060582,42.349792]]],[[[-71.060558,42.349407],[-71.060527,42.349397],[-71.060518,42.349421],[-71.06055,42.349431],[-71.060558,42.349407]]],[[[-71.060548,42.349453],[-71.060517,42.349443],[-71.060508,42.349469],[-71.060539,42.349478],[-71.060548,42.349453]]],[[[-71.060538,42.349503],[-71.060507,42.349493],[-71.060498,42.349519],[-71.060529,42.349528],[-71.060538,42.349503]]],[[[-71.060518,42.352997],[-71.060487,42.352987],[-71.060478,42.353011],[-71.06051,42.353021],[-71.060518,42.352997]]],[[[-71.060508,42.353283],[-71.060477,42.353273],[-71.060468,42.353299],[-71.060499,42.353308],[-71.060508,42.353283]]],[[[-71.060504,42.35315],[-71.060473,42.35314],[-71.060464,42.353164],[-71.060496,42.353174],[-71.060504,42.35315]]],[[[-71.060504,42.3496],[-71.060473,42.34959],[-71.060464,42.349614],[-71.060496,42.349624],[-71.060504,42.3496]]],[[[-71.060504,42.349556],[-71.060473,42.349546],[-71.060464,42.34957],[-71.060496,42.34958],[-71.060504,42.349556]]],[[[-71.060488,42.34964],[-71.060457,42.34963],[-71.060448,42.349654],[-71.06048,42.349664],[-71.060488,42.34964]]],[[[-71.060468,42.352974],[-71.060437,42.352964],[-71.060428,42.35299],[-71.060459,42.352999],[-71.060468,42.352974]]],[[[-71.060428,42.3531],[-71.060397,42.35309],[-71.060388,42.353114],[-71.06042,42.353124],[-71.060428,42.3531]]],[[[-71.060419,42.353405],[-71.060418,42.35338],[-71.0604,42.353367],[-71.060352,42.353385],[-71.060324,42.353471],[-71.060402,42.353451],[-71.060419,42.353405]]],[[[-71.060388,42.349884],[-71.060357,42.349874],[-71.060348,42.3499],[-71.060379,42.349909],[-71.060388,42.349884]]],[[[-71.060374,42.35307],[-71.060343,42.35306],[-71.060334,42.353084],[-71.060366,42.353094],[-71.060374,42.35307]]],[[[-71.060318,42.350037],[-71.060287,42.350027],[-71.060278,42.350051],[-71.06031,42.350061],[-71.060318,42.350037]]],[[[-71.060314,42.35015],[-71.060293,42.350095],[-71.060267,42.350095],[-71.06022,42.350136],[-71.060214,42.350188],[-71.060241,42.350208],[-71.060278,42.350208],[-71.060304,42.350188],[-71.060314,42.35015]]],[[[-71.060174,42.34947],[-71.060163,42.34945],[-71.06012,42.349443],[-71.060099,42.349459],[-71.060093,42.349506],[-71.060144,42.349522],[-71.060165,42.349506],[-71.060174,42.34947]]],[[[-71.060158,42.352962],[-71.060127,42.352952],[-71.060118,42.352976],[-71.06015,42.352986],[-71.060158,42.352962]]],[[[-71.060119,42.349556],[-71.060079,42.349536],[-71.060056,42.349578],[-71.060096,42.349598],[-71.060119,42.349556]]],[[[-71.060105,42.35341],[-71.060092,42.353386],[-71.060043,42.353379],[-71.060018,42.353397],[-71.060012,42.35345],[-71.060036,42.353468],[-71.060071,42.353468],[-71.060096,42.35345],[-71.060105,42.35341]]],[[[-71.060086,42.349644],[-71.060075,42.349625],[-71.060036,42.34962],[-71.060017,42.349634],[-71.060011,42.349678],[-71.060058,42.349692],[-71.060086,42.349644]]],[[[-71.059972,42.351044],[-71.05996,42.351022],[-71.059914,42.351015],[-71.059891,42.351032],[-71.059885,42.351082],[-71.05994,42.351099],[-71.059963,42.351082],[-71.059972,42.351044]]],[[[-71.059901,42.351135],[-71.059865,42.351117],[-71.059844,42.351156],[-71.05988,42.351174],[-71.059901,42.351135]]],[[[-71.059858,42.3533],[-71.059827,42.35329],[-71.059818,42.353314],[-71.05985,42.353324],[-71.059858,42.3533]]],[[[-71.059822,42.35326],[-71.05981,42.353238],[-71.059764,42.353231],[-71.059741,42.353248],[-71.059735,42.353298],[-71.05979,42.353315],[-71.059813,42.353298],[-71.059822,42.35326]]],[[[-71.059758,42.352753],[-71.059727,42.352743],[-71.059718,42.352769],[-71.059749,42.352778],[-71.059758,42.352753]]],[[[-71.059688,42.352737],[-71.059657,42.352727],[-71.059648,42.352753],[-71.059679,42.352762],[-71.059688,42.352737]]],[[[-71.059669,42.354954],[-71.059651,42.354934],[-71.059619,42.354939],[-71.059613,42.354903],[-71.059562,42.354868],[-71.05952,42.354881],[-71.059522,42.35493],[-71.059572,42.354965],[-71.059608,42.35496],[-71.059624,42.354996],[-71.059656,42.354991],[-71.059669,42.354954]]],[[[-71.059649,42.35171],[-71.059634,42.351685],[-71.059581,42.351677],[-71.059555,42.351696],[-71.059549,42.351748],[-71.059576,42.351768],[-71.059613,42.351768],[-71.059639,42.351748],[-71.059649,42.35171]]],[[[-71.059634,42.35273],[-71.059603,42.35272],[-71.059594,42.352746],[-71.059625,42.352755],[-71.059634,42.35273]]],[[[-71.059589,42.352783],[-71.059574,42.352758],[-71.059521,42.35275],[-71.059495,42.352769],[-71.059489,42.352821],[-71.059516,42.352841],[-71.059553,42.352841],[-71.059579,42.352821],[-71.059589,42.352783]]],[[[-71.059562,42.3516],[-71.059553,42.351583],[-71.059518,42.351578],[-71.059492,42.351623],[-71.059512,42.351645],[-71.059537,42.351645],[-71.059562,42.3516]]],[[[-71.059544,42.35171],[-71.059511,42.3517],[-71.059507,42.351739],[-71.059534,42.351739],[-71.059544,42.35171]]],[[[-71.059518,42.351097],[-71.059487,42.351087],[-71.059478,42.351111],[-71.05951,42.351121],[-71.059518,42.351097]]],[[[-71.059482,42.354813],[-71.059462,42.354791],[-71.059427,42.354796],[-71.059432,42.354774],[-71.059389,42.354714],[-71.05935,42.354709],[-71.059331,42.354723],[-71.059325,42.354767],[-71.059358,42.354783],[-71.059372,42.354814],[-71.059417,42.354814],[-71.059422,42.354853],[-71.059468,42.354853],[-71.059482,42.354813]]],[[[-71.059478,42.35117],[-71.059447,42.35116],[-71.059438,42.351184],[-71.05947,42.351194],[-71.059478,42.35117]]],[[[-71.059456,42.351627],[-71.05942,42.351609],[-71.059399,42.351648],[-71.059435,42.351666],[-71.059456,42.351627]]],[[[-71.059428,42.3531],[-71.059397,42.35309],[-71.059388,42.353114],[-71.05942,42.353124],[-71.059428,42.3531]]],[[[-71.059418,42.35301],[-71.059387,42.353],[-71.059378,42.353024],[-71.05941,42.353034],[-71.059418,42.35301]]],[[[-71.059387,42.351704],[-71.059348,42.351692],[-71.059337,42.351724],[-71.059375,42.351736],[-71.059387,42.351704]]],[[[-71.059323,42.35178],[-71.059284,42.351768],[-71.059273,42.3518],[-71.059311,42.351812],[-71.059323,42.35178]]],[[[-71.059219,42.35129],[-71.059183,42.35123],[-71.059159,42.35123],[-71.059129,42.351197],[-71.059091,42.351197],[-71.059065,42.351216],[-71.059058,42.351272],[-71.059085,42.351292],[-71.059121,42.351292],[-71.059085,42.351385],[-71.059115,42.351419],[-71.059152,42.351419],[-71.059178,42.351399],[-71.059219,42.35129]]],[[[-71.059184,42.353294],[-71.059153,42.353284],[-71.059144,42.353308],[-71.059176,42.353318],[-71.059184,42.353294]]],[[[-71.059098,42.35146],[-71.059067,42.35145],[-71.059058,42.351474],[-71.05909,42.351484],[-71.059098,42.35146]]],[[[-71.059092,42.354385],[-71.059083,42.354368],[-71.059048,42.354363],[-71.059022,42.354408],[-71.059042,42.35443],[-71.059067,42.35443],[-71.059092,42.354385]]],[[[-71.059088,42.353287],[-71.059057,42.353277],[-71.059048,42.353301],[-71.05908,42.353311],[-71.059088,42.353287]]],[[[-71.059066,42.351517],[-71.05903,42.351499],[-71.059009,42.351538],[-71.059045,42.351556],[-71.059066,42.351517]]],[[[-71.059018,42.354332],[-71.058987,42.354322],[-71.058978,42.354346],[-71.05901,42.354356],[-71.059018,42.354332]]],[[[-71.059006,42.351604],[-71.058984,42.35158],[-71.058945,42.351585],[-71.058912,42.351646],[-71.058913,42.351672],[-71.05899,42.351647],[-71.059006,42.351604]]],[[[-71.058998,42.353283],[-71.058967,42.353273],[-71.058958,42.353297],[-71.05899,42.353307],[-71.058998,42.353283]]],[[[-71.058959,42.35429],[-71.058926,42.35428],[-71.058922,42.354319],[-71.058949,42.354319],[-71.058959,42.35429]]],[[[-71.058922,42.35169],[-71.058902,42.351668],[-71.058867,42.351673],[-71.058852,42.351712],[-71.058825,42.351719],[-71.05881,42.351755],[-71.058767,42.35177],[-71.058753,42.351814],[-71.058688,42.351825],[-71.058674,42.351881],[-71.058637,42.351889],[-71.058626,42.351914],[-71.058599,42.351924],[-71.058599,42.351962],[-71.058678,42.351946],[-71.058686,42.351892],[-71.058738,42.351891],[-71.058778,42.351827],[-71.05882,42.351823],[-71.058834,42.351787],[-71.05887,42.351781],[-71.058922,42.35169]]],[[[-71.058864,42.353268],[-71.058833,42.353258],[-71.058824,42.353282],[-71.058856,42.353292],[-71.058864,42.353268]]],[[[-71.058758,42.353268],[-71.058727,42.353258],[-71.058718,42.353282],[-71.05875,42.353292],[-71.058758,42.353268]]],[[[-71.058598,42.351967],[-71.05858,42.351954],[-71.058491,42.351968],[-71.058445,42.352041],[-71.058397,42.35205],[-71.058392,42.352114],[-71.058416,42.352132],[-71.058466,42.352125],[-71.058482,42.352087],[-71.058574,42.352043],[-71.058598,42.351967]]],[[[-71.058568,42.35253],[-71.058537,42.35252],[-71.058528,42.352544],[-71.05856,42.352554],[-71.058568,42.35253]]],[[[-71.058508,42.352524],[-71.05849,42.352511],[-71.058494,42.35247],[-71.058466,42.35247],[-71.058456,42.352499],[-71.058476,42.352513],[-71.058474,42.352548],[-71.0585,42.352548],[-71.058508,42.352524]]],[[[-71.058428,42.352528],[-71.058397,42.352518],[-71.058388,42.352544],[-71.058419,42.352553],[-71.058428,42.352528]]],[[[-71.058388,42.35247],[-71.058357,42.35246],[-71.058348,42.352484],[-71.05838,42.352494],[-71.058388,42.35247]]],[[[-71.058388,42.352097],[-71.058357,42.352087],[-71.058348,42.352113],[-71.058379,42.352122],[-71.058388,42.352097]]],[[[-71.058348,42.35252],[-71.058317,42.35251],[-71.058308,42.352534],[-71.05834,42.352544],[-71.058348,42.35252]]],[[[-71.058288,42.35091],[-71.058257,42.3509],[-71.058248,42.350924],[-71.05828,42.350934],[-71.058288,42.35091]]],[[[-71.058278,42.352467],[-71.058247,42.352457],[-71.058238,42.352481],[-71.05827,42.352491],[-71.058278,42.352467]]],[[[-71.058268,42.352512],[-71.058237,42.352502],[-71.058228,42.352526],[-71.05826,42.352536],[-71.058268,42.352512]]],[[[-71.058218,42.350887],[-71.058187,42.350877],[-71.058178,42.350901],[-71.05821,42.350911],[-71.058218,42.350887]]],[[[-71.058038,42.352665],[-71.058007,42.352655],[-71.057998,42.352679],[-71.05803,42.352689],[-71.058038,42.352665]]],[[[-71.058032,42.352768],[-71.058001,42.352758],[-71.057992,42.352782],[-71.058024,42.352792],[-71.058032,42.352768]]],[[[-71.058008,42.352905],[-71.057977,42.352895],[-71.057968,42.352919],[-71.058,42.352929],[-71.058008,42.352905]]],[[[-71.057803,42.350693],[-71.057772,42.350683],[-71.057763,42.350707],[-71.057795,42.350717],[-71.057803,42.350693]]],[[[-71.057758,42.350677],[-71.057727,42.350667],[-71.057718,42.350691],[-71.05775,42.350701],[-71.057758,42.350677]]],[[[-71.05775,42.352226],[-71.057714,42.352208],[-71.057693,42.352247],[-71.057729,42.352265],[-71.05775,42.352226]]],[[[-71.057623,42.35219],[-71.057583,42.35217],[-71.05756,42.352212],[-71.0576,42.352232],[-71.057623,42.35219]]],[[[-71.057536,42.35216],[-71.0575,42.352142],[-71.057479,42.352181],[-71.057515,42.352199],[-71.057536,42.35216]]],[[[-71.057456,42.35214],[-71.05742,42.352122],[-71.057399,42.352161],[-71.057435,42.352179],[-71.057456,42.35214]]],[[[-71.057414,42.350403],[-71.057383,42.350393],[-71.057374,42.350417],[-71.057406,42.350427],[-71.057414,42.350403]]],[[[-71.057398,42.350494],[-71.057367,42.350484],[-71.057358,42.350508],[-71.05739,42.350518],[-71.057398,42.350494]]],[[[-71.057369,42.35211],[-71.057329,42.35209],[-71.057306,42.352132],[-71.057346,42.352152],[-71.057369,42.35211]]],[[[-71.057348,42.351707],[-71.057317,42.351697],[-71.057308,42.351723],[-71.057339,42.351732],[-71.057348,42.351707]]],[[[-71.057338,42.35175],[-71.057307,42.35174],[-71.057298,42.351764],[-71.05733,42.351774],[-71.057338,42.35175]]],[[[-71.057309,42.351897],[-71.057278,42.351887],[-71.057269,42.351911],[-71.057301,42.351921],[-71.057309,42.351897]]],[[[-71.057298,42.351955],[-71.057267,42.351945],[-71.057259,42.351968],[-71.05729,42.351978],[-71.057298,42.351955]]],[[[-71.057298,42.350925],[-71.057267,42.350915],[-71.057263,42.350951],[-71.057289,42.350951],[-71.057298,42.350925]]],[[[-71.057268,42.351063],[-71.057237,42.351053],[-71.057233,42.351089],[-71.057259,42.351089],[-71.057268,42.351063]]],[[[-71.057208,42.35141],[-71.057177,42.3514],[-71.057168,42.351424],[-71.0572,42.351434],[-71.057208,42.35141]]],[[[-71.057198,42.35055],[-71.057167,42.35054],[-71.057158,42.350564],[-71.05719,42.350574],[-71.057198,42.35055]]],[[[-71.057147,42.350632],[-71.057116,42.350622],[-71.057107,42.350646],[-71.057139,42.350656],[-71.057147,42.350632]]],[[[-71.057094,42.350533],[-71.057063,42.350523],[-71.057054,42.350547],[-71.057086,42.350557],[-71.057094,42.350533]]],[[[-71.057038,42.34984],[-71.057007,42.34983],[-71.056998,42.349854],[-71.05703,42.349864],[-71.057038,42.34984]]],[[[-71.057022,42.349903],[-71.057013,42.349886],[-71.056978,42.349881],[-71.056952,42.349926],[-71.056972,42.349948],[-71.056997,42.349948],[-71.057022,42.349903]]],[[[-71.056868,42.352028],[-71.056837,42.352018],[-71.056833,42.352055],[-71.056859,42.352055],[-71.056868,42.352028]]],[[[-71.056834,42.35023],[-71.056803,42.35022],[-71.056794,42.350244],[-71.056826,42.350254],[-71.056834,42.35023]]],[[[-71.056829,42.34976],[-71.056818,42.34974],[-71.056775,42.349733],[-71.056754,42.349749],[-71.056748,42.349796],[-71.056799,42.349812],[-71.05682,42.349796],[-71.056829,42.34976]]],[[[-71.056798,42.350307],[-71.056767,42.350297],[-71.056758,42.350321],[-71.05679,42.350331],[-71.056798,42.350307]]],[[[-71.056792,42.34984],[-71.056772,42.349818],[-71.05673,42.349831],[-71.056732,42.34988],[-71.05668,42.349901],[-71.056671,42.34994],[-71.056685,42.349965],[-71.056719,42.349976],[-71.056764,42.349953],[-71.056774,42.349915],[-71.056759,42.34989],[-71.056785,42.349872],[-71.056792,42.34984]]],[[[-71.056748,42.351994],[-71.056717,42.351984],[-71.056713,42.35202],[-71.056739,42.35202],[-71.056748,42.351994]]],[[[-71.056729,42.350006],[-71.056714,42.349981],[-71.056661,42.349973],[-71.056635,42.349992],[-71.056629,42.350044],[-71.056656,42.350064],[-71.056693,42.350064],[-71.056719,42.350044],[-71.056729,42.350006]]],[[[-71.056659,42.350094],[-71.056619,42.350074],[-71.056596,42.350116],[-71.056636,42.350136],[-71.056659,42.350094]]],[[[-71.056643,42.350613],[-71.056612,42.350603],[-71.056608,42.35064],[-71.056634,42.35064],[-71.056643,42.350613]]],[[[-71.056626,42.353203],[-71.05659,42.353185],[-71.056569,42.353224],[-71.056605,42.353242],[-71.056626,42.353203]]],[[[-71.056622,42.350185],[-71.056613,42.350168],[-71.056578,42.350163],[-71.056552,42.350208],[-71.056572,42.35023],[-71.056597,42.35023],[-71.056622,42.350185]]],[[[-71.056608,42.35068],[-71.056577,42.35067],[-71.056573,42.350707],[-71.056599,42.350707],[-71.056608,42.35068]]],[[[-71.056559,42.353165],[-71.056526,42.353155],[-71.056522,42.353194],[-71.056549,42.353194],[-71.056559,42.353165]]],[[[-71.056559,42.350834],[-71.056544,42.350809],[-71.056491,42.350801],[-71.056465,42.35082],[-71.056459,42.350872],[-71.056486,42.350892],[-71.056523,42.350892],[-71.056549,42.350872],[-71.056559,42.350834]]],[[[-71.056484,42.353127],[-71.056451,42.353117],[-71.056447,42.353156],[-71.056474,42.353156],[-71.056484,42.353127]]],[[[-71.056468,42.35192],[-71.056437,42.35191],[-71.056433,42.351947],[-71.056459,42.351947],[-71.056468,42.35192]]],[[[-71.056428,42.35103],[-71.056397,42.35102],[-71.056388,42.351044],[-71.05642,42.351054],[-71.056428,42.35103]]],[[[-71.056398,42.351097],[-71.056367,42.351087],[-71.056363,42.351124],[-71.056389,42.351124],[-71.056398,42.351097]]],[[[-71.056393,42.35309],[-71.056354,42.353078],[-71.056343,42.35311],[-71.056381,42.353122],[-71.056393,42.35309]]],[[[-71.056388,42.3519],[-71.056357,42.35189],[-71.056349,42.351913],[-71.05638,42.351923],[-71.056388,42.3519]]],[[[-71.056364,42.351176],[-71.056333,42.351166],[-71.056324,42.35119],[-71.056356,42.3512],[-71.056364,42.351176]]],[[[-71.056338,42.35493],[-71.056307,42.35492],[-71.056303,42.354957],[-71.056329,42.354957],[-71.056338,42.35493]]],[[[-71.056328,42.354836],[-71.056297,42.354826],[-71.056293,42.354863],[-71.056319,42.354863],[-71.056328,42.354836]]],[[[-71.056309,42.35475],[-71.056276,42.35474],[-71.056272,42.354779],[-71.056299,42.354779],[-71.056309,42.35475]]],[[[-71.056306,42.35467],[-71.05627,42.354652],[-71.056249,42.354691],[-71.056285,42.354709],[-71.056306,42.35467]]],[[[-71.056258,42.351376],[-71.056227,42.351366],[-71.056204,42.351436],[-71.05623,42.351436],[-71.056258,42.351376]]],[[[-71.056256,42.350842],[-71.056225,42.350832],[-71.056221,42.350869],[-71.056247,42.350869],[-71.056256,42.350842]]],[[[-71.056248,42.35305],[-71.056217,42.35304],[-71.056208,42.353064],[-71.05624,42.353074],[-71.056248,42.35305]]],[[[-71.056226,42.350933],[-71.056195,42.350923],[-71.056191,42.35096],[-71.056217,42.35096],[-71.056226,42.350933]]],[[[-71.056208,42.35145],[-71.056177,42.35144],[-71.056168,42.351466],[-71.056199,42.351475],[-71.056208,42.35145]]],[[[-71.056186,42.351036],[-71.056155,42.351026],[-71.056151,42.351063],[-71.056177,42.351063],[-71.056186,42.351036]]],[[[-71.056148,42.351145],[-71.056117,42.351135],[-71.056113,42.351172],[-71.056139,42.351172],[-71.056148,42.351145]]],[[[-71.056078,42.35171],[-71.056047,42.3517],[-71.056038,42.351726],[-71.056069,42.351735],[-71.056078,42.35171]]],[[[-71.055977,42.351355],[-71.055946,42.351345],[-71.055942,42.351382],[-71.055968,42.351382],[-71.055977,42.351355]]],[[[-71.055953,42.351412],[-71.055922,42.351402],[-71.055918,42.351439],[-71.055944,42.351439],[-71.055953,42.351412]]],[[[-71.05592,42.351482],[-71.055889,42.351472],[-71.055885,42.351509],[-71.055911,42.351509],[-71.05592,42.351482]]],[[[-71.055888,42.351561],[-71.055857,42.351551],[-71.055853,42.351588],[-71.055879,42.351588],[-71.055888,42.351561]]],[[[-71.055869,42.352226],[-71.055839,42.352193],[-71.055786,42.352201],[-71.055741,42.352262],[-71.055735,42.352314],[-71.05578,42.352337],[-71.055815,42.352326],[-71.055869,42.352226]]],[[[-71.055859,42.351622],[-71.055828,42.351612],[-71.055824,42.351649],[-71.05585,42.351649],[-71.055859,42.351622]]],[[[-71.055808,42.351727],[-71.055777,42.351717],[-71.055773,42.351754],[-71.055799,42.351754],[-71.055808,42.351727]]],[[[-71.055788,42.353336],[-71.055779,42.353319],[-71.055744,42.353314],[-71.055718,42.353359],[-71.055738,42.353381],[-71.055763,42.353381],[-71.055788,42.353336]]],[[[-71.055788,42.351776],[-71.055757,42.351766],[-71.055753,42.351803],[-71.055779,42.351803],[-71.055788,42.351776]]],[[[-71.055724,42.353394],[-71.055684,42.353374],[-71.055661,42.353416],[-71.055701,42.353436],[-71.055724,42.353394]]],[[[-71.055645,42.35343],[-71.055612,42.35342],[-71.055608,42.353459],[-71.055635,42.353459],[-71.055645,42.35343]]],[[[-71.055558,42.353497],[-71.055527,42.353487],[-71.055523,42.353524],[-71.055549,42.353524],[-71.055558,42.353497]]],[[[-71.055498,42.35353],[-71.055467,42.35352],[-71.055458,42.353546],[-71.055489,42.353555],[-71.055498,42.35353]]],[[[-71.055262,42.353653],[-71.055244,42.35364],[-71.055189,42.353657],[-71.055178,42.353684],[-71.055149,42.353694],[-71.055149,42.353732],[-71.055226,42.353709],[-71.055262,42.353653]]]]},"properties":{"kind":"tree"}}]}