{"type":"FeatureCollection","features":[{"type":"Feature","geometry":{"type":"MultiPolygon","coordinates":[[[[-71.06703,42.351826],[-71.067007,42.351692],[-71.066747,42.351106],[-71.065467,42.351257],[-71.064967,42.35123],[-71.064859,42.351311],[-71.064751,42.351715],[-71.064813,42.351729],[-71.064692,42.351819],[-71.064533,42.352427],[-71.065345,42.352478],[-71.065403,42.352434],[-71.065544,42.352445],[-71.065539,42.352478],[-71.065736,42.352493],[-71.065862,42.352399],[-71.065869,42.35246],[-71.065965,42.352465],[-71.066063,42.352392],[-71.066077,42.352209],[-71.066218,42.352208],[-71.06627,42.352169],[-71.066292,42.351927],[-71.066704,42.351977],[-71.066887,42.351932],[-71.06703,42.351826]],[[-71.066004,42.351885],[-71.065976,42.351906],[-71.065938,42.352202],[-71.065913,42.35222],[-71.065932,42.352094],[-71.0659,42.352091],[-71.065927,42.351873],[-71.066004,42.351885]],[[-71.065179,42.351763],[-71.065172,42.351769],[-71.065173,42.351762],[-71.065179,42.351763]]],[[[-71.066483,42.348529],[-71.06591,42.348462],[-71.065995,42.348064],[-71.065837,42.348044],[-71.065697,42.348148],[-71.065612,42.348548],[-71.065679,42.348557],[-71.065655,42.348633],[-71.065751,42.348644],[-71.065793,42.348612],[-71.065809,42.348666],[-71.066347,42.348729],[-71.066458,42.348649],[-71.066483,42.348529]]],[[[-71.066107,42.349483],[-71.066051,42.349385],[-71.065953,42.349432],[-71.065983,42.349486],[-71.06562,42.349445],[-71.065521,42.349461],[-71.06544,42.349522],[-71.06535,42.349942],[-71.065245,42.350019],[-71.065157,42.350329],[-71.065264,42.350354],[-71.065198,42.35061],[-71.065329,42.35063],[-71.065322,42.35065],[-71.06535,42.350654],[-71.06521,42.350652],[-71.064982,42.350821],[-71.064911,42.351072],[-71.06493,42.351105],[-71.065146,42.351171],[-71.065548,42.351194],[-71.065763,42.351164],[-71.065991,42.350995],[-71.065959,42.350666],[-71.065736,42.350662],[-71.065854,42.350652],[-71.065953,42.350615],[-71.06593,42.350327],[-71.065758,42.350337],[-71.065728,42.350359],[-71.065613,42.350365],[-71.06573,42.350357],[-71.065916,42.350219],[-71.065881,42.34989],[-71.065776,42.349769],[-71.06566,42.349801],[-71.065699,42.349611],[-71.065719,42.349596],[-71.06584,42.349752],[-71.065917,42.349728],[-71.06596,42.349697],[-71.066051,42.349679],[-71.066095,42.349646],[-71.066026,42.349524],[-71.066107,42.349483]]],[[[-71.065565,42.354342],[-71.065534,42.354305],[-71.065487,42.354301],[-71.065419,42.354344],[-71.06541,42.354383],[-71.065445,42.354412],[-71.065492,42.354413],[-71.065558,42.354367],[-71.065565,42.354342]]],[[[-71.065529,42.347903],[-71.065483,42.347819],[-71.065392,42.347805],[-71.065371,42.347781],[-71.065291,42.347784],[-71.065318,42.347764],[-71.065319,42.347677],[-71.065257,42.347643],[-71.064894,42.347587],[-71.064503,42.347783],[-71.064448,42.347824],[-71.064334,42.348086],[-71.064285,42.348261],[-71.064321,42.348267],[-71.064453,42.348214],[-71.064473,42.348238],[-71.064589,42.348173],[-71.06469,42.348183],[-71.064497,42.348267],[-71.064328,42.348393],[-71.064297,42.348418],[-71.064271,42.348512],[-71.064636,42.348568],[-71.064806,42.348442],[-71.064844,42.348384],[-71.064864,42.348306],[-71.064907,42.348338],[-71.064935,42.34832],[-71.065079,42.348486],[-71.065405,42.348423],[-71.065427,42.34839],[-71.065343,42.348295],[-71.065475,42.348175],[-71.065484,42.348131],[-71.065475,42.348101],[-71.065403,42.34802],[-71.06552,42.347941],[-71.065529,42.347903]]],[[[-71.065421,42.352871],[-71.065303,42.352844],[-71.065284,42.352858],[-71.065267,42.352905],[-71.065293,42.352986],[-71.065359,42.353],[-71.065378,42.352986],[-71.065421,42.352871]]],[[[-71.06533,42.348887],[-71.065323,42.348802],[-71.065279,42.348688],[-71.064844,42.348594],[-71.064341,42.348545],[-71.064244,42.348605],[-71.064096,42.349019],[-71.064396,42.349065],[-71.064369,42.349127],[-71.06438,42.34914],[-71.064299,42.3492],[-71.064548,42.349369],[-71.064745,42.349264],[-71.064815,42.349286],[-71.065077,42.349163],[-71.065156,42.349104],[-71.065253,42.349094],[-71.065279,42.349075],[-71.06533,42.348887]]],[[[-71.065169,42.349617],[-71.064416,42.349501],[-71.064333,42.349562],[-71.063761,42.349475],[-71.063654,42.349373],[-71.063696,42.349342],[-71.063746,42.349213],[-71.063772,42.349073],[-71.063736,42.349067],[-71.063827,42.348879],[-71.063945,42.348463],[-71.063623,42.348413],[-71.063479,42.34852],[-71.063361,42.348935],[-71.063381,42.349012],[-71.063074,42.348966],[-71.062953,42.349056],[-71.063042,42.348892],[-71.062425,42.348727],[-71.062332,42.34881],[-71.062163,42.34923],[-71.062378,42.349327],[-71.062598,42.349202],[-71.062619,42.349211],[-71.062501,42.349358],[-71.062641,42.349422],[-71.0627,42.349394],[-71.062653,42.349452],[-71.062866,42.349549],[-71.062878,42.34954],[-71.062878,42.349556],[-71.062592,42.349443],[-71.062574,42.349455],[-71.062287,42.349326],[-71.062233,42.349284],[-71.062169,42.349306],[-71.06206,42.349387],[-71.062046,42.349418],[-71.062063,42.349451],[-71.061905,42.349834],[-71.061956,42.349855],[-71.061817,42.349958],[-71.061772,42.35007],[-71.061797,42.35011],[-71.061747,42.350217],[-71.061774,42.350238],[-71.061683,42.350414],[-71.061598,42.350482],[-71.061525,42.350669],[-71.062036,42.350799],[-71.062184,42.350689],[-71.062617,42.350148],[-71.062674,42.350173],[-71.062644,42.350233],[-71.062483,42.350353],[-71.062456,42.350446],[-71.062334,42.350537],[-71.062093,42.35085],[-71.062316,42.350912],[-71.06235,42.350887],[-71.062337,42.350945],[-71.062687,42.350995],[-71.062951,42.350799],[-71.06312,42.35028],[-71.063148,42.350284],[-71.063279,42.350187],[-71.063373,42.350002],[-71.063432,42.349797],[-71.063485,42.349803],[-71.063929,42.350304],[-71.063965,42.350328],[-71.064162,42.3502],[-71.064112,42.350251],[-71.063942,42.350524],[-71.063865,42.350497],[-71.063915,42.350416],[-71.063539,42.350364],[-71.063298,42.350543],[-71.063167,42.350755],[-71.063186,42.350987],[-71.063408,42.35102],[-71.063649,42.350841],[-71.063736,42.350847],[-71.06388,42.350911],[-71.064175,42.350942],[-71.064096,42.351001],[-71.064088,42.351051],[-71.06405,42.351079],[-71.064029,42.351121],[-71.064523,42.35118],[-71.064822,42.350958],[-71.064902,42.350642],[-71.064888,42.350637],[-71.065001,42.350248],[-71.064826,42.350187],[-71.064836,42.350151],[-71.06494,42.350167],[-71.065043,42.35009],[-71.065169,42.349617]],[[-71.06443,42.350608],[-71.064397,42.350677],[-71.064369,42.350668],[-71.06443,42.350608]],[[-71.062801,42.349281],[-71.062798,42.349283],[-71.0628,42.349279],[-71.062801,42.349281]],[[-71.062733,42.349068],[-71.062723,42.349068],[-71.062725,42.349066],[-71.062733,42.349068]],[[-71.062541,42.349758],[-71.062371,42.349973],[-71.062089,42.349873],[-71.062129,42.349842],[-71.062239,42.349888],[-71.062327,42.349862],[-71.062541,42.349758]]],[[[-71.064745,42.351218],[-71.064502,42.351183],[-71.064456,42.351209],[-71.06446,42.35119],[-71.064438,42.351187],[-71.063934,42.351133],[-71.063915,42.351147],[-71.06329,42.35107],[-71.063269,42.351085],[-71.063273,42.351069],[-71.063049,42.351044],[-71.06301,42.351072],[-71.062984,42.35113],[-71.062887,42.351482],[-71.063299,42.351537],[-71.063234,42.351586],[-71.062895,42.351546],[-71.062667,42.351715],[-71.062678,42.351664],[-71.062591,42.351633],[-71.062023,42.351525],[-71.061289,42.351543],[-71.061165,42.351635],[-71.061228,42.351951],[-71.061294,42.351949],[-71.061327,42.352112],[-71.061409,42.352108],[-71.061327,42.352168],[-71.061334,42.352304],[-71.06136,42.352429],[-71.061429,42.352427],[-71.061434,42.352455],[-71.061612,42.352438],[-71.061638,42.352418],[-71.061676,42.352416],[-71.061687,42.352465],[-71.061852,42.352445],[-71.061926,42.35239],[-71.061923,42.352361],[-71.061957,42.352357],[-71.061969,42.352426],[-71.062049,42.35242],[-71.062113,42.352372],[-71.06212,42.352429],[-71.062396,42.352413],[-71.062499,42.352341],[-71.062555,42.352162],[-71.062686,42.352176],[-71.062673,42.352244],[-71.063362,42.352319],[-71.063461,42.352245],[-71.063466,42.352223],[-71.063463,42.352304],[-71.063486,42.352316],[-71.064033,42.35232],[-71.064018,42.352389],[-71.064295,42.352397],[-71.064484,42.352263],[-71.064616,42.351742],[-71.064551,42.351734],[-71.064631,42.351675],[-71.064664,42.351553],[-71.064318,42.351514],[-71.064346,42.351492],[-71.064356,42.351508],[-71.064615,42.351539],[-71.064671,42.351497],[-71.064745,42.351218]],[[-71.06424,42.351743],[-71.064139,42.351818],[-71.064105,42.351976],[-71.063857,42.351955],[-71.063876,42.351916],[-71.06388,42.351844],[-71.064086,42.351691],[-71.064079,42.351724],[-71.06424,42.351743]],[[-71.063584,42.351387],[-71.063571,42.351403],[-71.063564,42.351402],[-71.063584,42.351387]],[[-71.063496,42.352173],[-71.063472,42.352191],[-71.063474,42.352172],[-71.063496,42.352173]]],[[[-71.064727,42.352541],[-71.064662,42.352531],[-71.064648,42.352542],[-71.064613,42.352648],[-71.064678,42.352658],[-71.064692,42.352647],[-71.064727,42.352541]]],[[[-71.06461,42.353278],[-71.064542,42.353266],[-71.064528,42.353277],[-71.064494,42.353377],[-71.064562,42.353391],[-71.064576,42.35338],[-71.06461,42.353278]]],[[[-71.064373,42.352435],[-71.064339,42.352409],[-71.063942,42.352395],[-71.063867,42.352451],[-71.063872,42.352394],[-71.063363,42.352382],[-71.063315,42.352418],[-71.063313,42.35239],[-71.062724,42.352454],[-71.062575,42.352563],[-71.062561,42.352843],[-71.062475,42.352907],[-71.062462,42.35308],[-71.062351,42.353162],[-71.061576,42.3532],[-71.061528,42.35321],[-71.061345,42.353346],[-71.0613,42.353562],[-71.061465,42.353644],[-71.061316,42.353581],[-71.061273,42.353613],[-71.061135,42.353545],[-71.061166,42.353496],[-71.060695,42.353272],[-71.06041,42.353482],[-71.060051,42.353862],[-71.060004,42.353923],[-71.060016,42.353969],[-71.059905,42.354081],[-71.059451,42.354435],[-71.059302,42.354569],[-71.059277,42.354612],[-71.059284,42.354652],[-71.060035,42.355241],[-71.060104,42.355191],[-71.060442,42.355425],[-71.060574,42.355319],[-71.061121,42.354808],[-71.061112,42.354802],[-71.062033,42.353919],[-71.061964,42.353885],[-71.062197,42.353704],[-71.062326,42.353509],[-71.062394,42.353346],[-71.062494,42.353348],[-71.062547,42.353382],[-71.062651,42.353413],[-71.062833,42.353278],[-71.064043,42.353373],[-71.064146,42.353296],[-71.064309,42.35284],[-71.064275,42.352838],[-71.064309,42.352812],[-71.064353,42.352644],[-71.064373,42.352435]]],[[[-71.064113,42.347947],[-71.063968,42.347919],[-71.063766,42.348052],[-71.063743,42.348132],[-71.063538,42.348106],[-71.063606,42.347866],[-71.06346,42.347843],[-71.063422,42.347871],[-71.063318,42.348228],[-71.063973,42.348326],[-71.06402,42.348291],[-71.064113,42.347947]]],[[[-71.064097,42.353425],[-71.063837,42.353375],[-71.063779,42.353418],[-71.063738,42.353532],[-71.063994,42.353597],[-71.064052,42.353554],[-71.064097,42.353425]]],[[[-71.063998,42.353634],[-71.063768,42.353564],[-71.06357,42.353711],[-71.063447,42.353907],[-71.063477,42.353916],[-71.063414,42.353963],[-71.063346,42.354073],[-71.063351,42.354035],[-71.062976,42.354009],[-71.063026,42.353972],[-71.063052,42.353859],[-71.063387,42.35388],[-71.063522,42.353779],[-71.063669,42.353512],[-71.063699,42.353388],[-71.063651,42.353352],[-71.063204,42.353334],[-71.063078,42.353428],[-71.063082,42.353402],[-71.06272,42.353391],[-71.06224,42.353748],[-71.062042,42.353992],[-71.062077,42.354014],[-71.062132,42.354013],[-71.061671,42.354465],[-71.061683,42.354471],[-71.061221,42.354896],[-71.061238,42.354905],[-71.060962,42.355149],[-71.061275,42.355306],[-71.061373,42.355233],[-71.061545,42.355046],[-71.061511,42.355028],[-71.061569,42.354985],[-71.062108,42.355263],[-71.062184,42.355207],[-71.062289,42.355094],[-71.062478,42.355201],[-71.06252,42.35517],[-71.062621,42.355227],[-71.062731,42.355134],[-71.063026,42.35529],[-71.063162,42.355181],[-71.06318,42.355155],[-71.063146,42.355127],[-71.063255,42.355044],[-71.063852,42.353943],[-71.063862,42.353896],[-71.063823,42.353884],[-71.063915,42.353802],[-71.063998,42.353634]],[[-71.063066,42.353508],[-71.063059,42.353687],[-71.063043,42.353655],[-71.063066,42.353508]],[[-71.062985,42.354511],[-71.062634,42.354894],[-71.062343,42.354737],[-71.062198,42.354868],[-71.062068,42.354824],[-71.062209,42.354674],[-71.062189,42.354664],[-71.062203,42.354653],[-71.062194,42.354663],[-71.062566,42.354842],[-71.062655,42.354776],[-71.062932,42.354511],[-71.062985,42.354511]],[[-71.062652,42.354514],[-71.062616,42.354548],[-71.062594,42.354504],[-71.062652,42.354514]],[[-71.06202,42.354628],[-71.061915,42.354743],[-71.061845,42.354707],[-71.061948,42.354595],[-71.06202,42.354628]]],[[[-71.063935,42.354829],[-71.063869,42.354811],[-71.063832,42.35487],[-71.063898,42.354887],[-71.063935,42.354829]]],[[[-71.063476,42.348381],[-71.062604,42.34825],[-71.062526,42.348308],[-71.06237,42.348702],[-71.063287,42.348841],[-71.063365,42.348783],[-71.063476,42.348381]]],[[[-71.063301,42.347999],[-71.062961,42.347921],[-71.062926,42.347947],[-71.062906,42.347997],[-71.062855,42.347962],[-71.062735,42.347939],[-71.062689,42.347972],[-71.062645,42.348085],[-71.062827,42.348128],[-71.062871,42.348095],[-71.062886,42.348057],[-71.062876,42.34805],[-71.062894,42.348036],[-71.063032,42.348056],[-71.063018,42.34811],[-71.063065,42.348119],[-71.063116,42.348072],[-71.063246,42.348101],[-71.06328,42.348076],[-71.063301,42.347999]]],[[[-71.063253,42.34818],[-71.06323,42.348148],[-71.063187,42.348141],[-71.063153,42.348165],[-71.062886,42.348123],[-71.062833,42.348155],[-71.062811,42.348239],[-71.063192,42.34829],[-71.063229,42.348263],[-71.063253,42.34818]]],[[[-71.062859,42.351039],[-71.062298,42.350942],[-71.062213,42.351006],[-71.0622,42.351043],[-71.062158,42.351034],[-71.062073,42.351098],[-71.062123,42.351472],[-71.062298,42.351521],[-71.062352,42.351502],[-71.062353,42.351521],[-71.062643,42.351589],[-71.062728,42.351525],[-71.062859,42.351039]]],[[[-71.062777,42.348131],[-71.062667,42.348107],[-71.062617,42.348144],[-71.06259,42.348212],[-71.062711,42.348229],[-71.062761,42.348192],[-71.062777,42.348131]]],[[[-71.062452,42.352508],[-71.062412,42.352483],[-71.061487,42.352561],[-71.061369,42.352648],[-71.061404,42.353182],[-71.062273,42.353145],[-71.062426,42.353031],[-71.062452,42.352508]]],[[[-71.062446,42.347953],[-71.061926,42.347827],[-71.061793,42.347925],[-71.061747,42.348041],[-71.062155,42.348133],[-71.06228,42.34814],[-71.062411,42.348042],[-71.062446,42.347953]]],[[[-71.062367,42.34823],[-71.062255,42.348206],[-71.062208,42.348241],[-71.062135,42.348426],[-71.061947,42.348382],[-71.062034,42.348165],[-71.061907,42.348129],[-71.06186,42.348164],[-71.06164,42.348709],[-71.061605,42.348735],[-71.061512,42.348989],[-71.06149,42.349018],[-71.061476,42.34906],[-71.061484,42.349073],[-71.061465,42.349088],[-71.061423,42.349205],[-71.061379,42.349249],[-71.061264,42.349533],[-71.061262,42.349553],[-71.061303,42.349571],[-71.061175,42.349666],[-71.061064,42.349943],[-71.061169,42.349987],[-71.06115,42.349994],[-71.061127,42.350052],[-71.061187,42.350065],[-71.061219,42.350007],[-71.06123,42.350012],[-71.061182,42.350103],[-71.060972,42.350247],[-71.060883,42.350466],[-71.061366,42.350581],[-71.061484,42.350494],[-71.061778,42.349762],[-71.061706,42.349732],[-71.061812,42.349653],[-71.061975,42.34927],[-71.061808,42.349235],[-71.061839,42.34916],[-71.061745,42.349139],[-71.061723,42.34915],[-71.061697,42.349213],[-71.061783,42.348996],[-71.061764,42.348992],[-71.061895,42.34873],[-71.061814,42.348712],[-71.061886,42.348533],[-71.062188,42.348602],[-71.062216,42.348582],[-71.06226,42.348505],[-71.062367,42.34823]]],[[[-71.062111,42.350892],[-71.061597,42.350765],[-71.061515,42.350826],[-71.061483,42.350906],[-71.061512,42.350913],[-71.061488,42.350932],[-71.061414,42.351163],[-71.061299,42.351249],[-71.061203,42.35149],[-71.061231,42.351517],[-71.061543,42.351507],[-71.061601,42.351464],[-71.062019,42.351451],[-71.06211,42.351383],[-71.062061,42.351015],[-71.062022,42.351005],[-71.062083,42.35096],[-71.062111,42.350892]]],[[[-71.061866,42.34764],[-71.061712,42.347604],[-71.061549,42.347725],[-71.061403,42.348075],[-71.061392,42.348167],[-71.061511,42.348195],[-71.061674,42.348074],[-71.061866,42.34764]]],[[[-71.06164,42.348359],[-71.061414,42.348308],[-71.061354,42.348364],[-71.061269,42.348334],[-71.06131,42.348233],[-71.061184,42.348198],[-71.061094,42.348281],[-71.061059,42.348388],[-71.061069,42.348391],[-71.060967,42.348651],[-71.061083,42.348681],[-71.061127,42.348648],[-71.061214,42.348437],[-71.061306,42.348448],[-71.061346,42.348418],[-71.061332,42.348453],[-71.061389,42.348524],[-71.061379,42.348551],[-71.061327,42.348574],[-71.061288,42.348565],[-71.061232,42.348607],[-71.061188,42.348714],[-71.061423,42.348768],[-71.061479,42.348726],[-71.061597,42.348426],[-71.06164,42.348359]]],[[[-71.061436,42.348818],[-71.061371,42.34877],[-71.061248,42.348743],[-71.061155,42.348757],[-71.061095,42.348802],[-71.06105,42.34888],[-71.061036,42.348939],[-71.060878,42.348902],[-71.060834,42.348935],[-71.060705,42.349273],[-71.060933,42.349365],[-71.060953,42.349349],[-71.060945,42.349371],[-71.061155,42.349459],[-71.061196,42.349428],[-71.061244,42.349357],[-71.061145,42.349317],[-71.061219,42.349335],[-71.061269,42.349298],[-71.061384,42.349005],[-71.061339,42.348995],[-71.061377,42.348967],[-71.061436,42.348818]],[[-71.061139,42.349142],[-71.061115,42.34916],[-71.061093,42.349216],[-71.061109,42.349258],[-71.061095,42.349297],[-71.061017,42.349264],[-71.060994,42.349281],[-71.06102,42.349213],[-71.060994,42.349204],[-71.060936,42.349221],[-71.060865,42.349194],[-71.060908,42.349152],[-71.060955,42.349162],[-71.060995,42.349132],[-71.061004,42.349108],[-71.060941,42.349067],[-71.060959,42.349024],[-71.060991,42.349023],[-71.061035,42.34899],[-71.061048,42.34896],[-71.061089,42.348992],[-71.061036,42.349119],[-71.061139,42.349142]]],[[[-71.06136,42.350735],[-71.061295,42.350688],[-71.060899,42.350587],[-71.060848,42.350625],[-71.060788,42.350812],[-71.061004,42.35086],[-71.061147,42.350844],[-71.061141,42.35086],[-71.061261,42.350888],[-71.061321,42.350852],[-71.06136,42.350735]]],[[[-71.06136,42.353145],[-71.061336,42.35258],[-71.061194,42.352592],[-71.061045,42.352703],[-71.06098,42.352893],[-71.060665,42.353237],[-71.061127,42.353472],[-71.061284,42.353363],[-71.061342,42.353234],[-71.06136,42.353145]]],[[[-71.061227,42.351071],[-71.060769,42.350979],[-71.060681,42.351044],[-71.060523,42.351373],[-71.060984,42.351476],[-71.06101,42.351466],[-71.061098,42.351401],[-71.061227,42.351071]]],[[[-71.061125,42.352254],[-71.061106,42.352027],[-71.06086,42.352066],[-71.060842,42.352051],[-71.060898,42.352033],[-71.060901,42.352045],[-71.061049,42.35203],[-71.061108,42.351986],[-71.061041,42.351545],[-71.060388,42.351402],[-71.060319,42.351452],[-71.060382,42.351649],[-71.060605,42.351696],[-71.060659,42.351688],[-71.06047,42.351727],[-71.060392,42.351785],[-71.060473,42.352053],[-71.060396,42.35211],[-71.060409,42.352151],[-71.060316,42.352167],[-71.060259,42.352209],[-71.060118,42.352221],[-71.059998,42.35231],[-71.060041,42.352594],[-71.06043,42.352594],[-71.060488,42.352585],[-71.060534,42.35255],[-71.060554,42.352612],[-71.060929,42.352579],[-71.061084,42.352464],[-71.061125,42.352254]]],[[[-71.061068,42.348118],[-71.061011,42.348097],[-71.060757,42.348286],[-71.060295,42.348928],[-71.060532,42.348985],[-71.060786,42.348796],[-71.061068,42.348118]]],[[[-71.060995,42.352679],[-71.060985,42.352601],[-71.060475,42.352641],[-71.060188,42.352643],[-71.060157,42.352666],[-71.060166,42.352763],[-71.060232,42.352773],[-71.060184,42.352927],[-71.060615,42.353139],[-71.060699,42.353076],[-71.060958,42.352784],[-71.060995,42.352679]]],[[[-71.060966,42.349994],[-71.060509,42.349891],[-71.060325,42.350027],[-71.060197,42.350343],[-71.060645,42.350469],[-71.060828,42.350333],[-71.060966,42.349994]]],[[[-71.060747,42.35054],[-71.060472,42.350463],[-71.060395,42.350464],[-71.060342,42.350503],[-71.06026,42.350485],[-71.060206,42.350525],[-71.059913,42.351212],[-71.060193,42.351274],[-71.060217,42.35126],[-71.060212,42.351274],[-71.060415,42.351319],[-71.060469,42.351279],[-71.060595,42.350984],[-71.060568,42.350978],[-71.060747,42.35054]],[[-71.060357,42.351111],[-71.060303,42.351119],[-71.060311,42.3511],[-71.060357,42.351111]],[[-71.060356,42.350673],[-71.060327,42.35068],[-71.060332,42.350667],[-71.060356,42.350673]],[[-71.060306,42.350857],[-71.060257,42.350846],[-71.060289,42.350768],[-71.060304,42.350772],[-71.060293,42.35078],[-71.060306,42.350857]]],[[[-71.060567,42.349259],[-71.060443,42.349109],[-71.060321,42.349063],[-71.060067,42.349252],[-71.05995,42.349515],[-71.059671,42.350237],[-71.059865,42.350298],[-71.059801,42.350345],[-71.059742,42.3505],[-71.059728,42.350548],[-71.05977,42.350557],[-71.059745,42.35063],[-71.059767,42.350634],[-71.059757,42.350658],[-71.059987,42.350708],[-71.060019,42.350684],[-71.06004,42.35063],[-71.060021,42.350626],[-71.060116,42.350367],[-71.059977,42.350327],[-71.060226,42.350142],[-71.060327,42.349891],[-71.060273,42.349817],[-71.060367,42.349747],[-71.060567,42.349259]]],[[[-71.060448,42.351979],[-71.060234,42.351369],[-71.059977,42.351309],[-71.059957,42.351324],[-71.059962,42.351307],[-71.059758,42.351262],[-71.059675,42.351324],[-71.059626,42.351453],[-71.059636,42.351513],[-71.059624,42.351521],[-71.059653,42.351698],[-71.059669,42.351697],[-71.059745,42.352173],[-71.059961,42.352155],[-71.060033,42.352102],[-71.060023,42.352039],[-71.060203,42.352024],[-71.060212,42.352049],[-71.060395,42.352018],[-71.060448,42.351979]],[[-71.060196,42.351843],[-71.060056,42.351864],[-71.060001,42.351905],[-71.059942,42.351543],[-71.05997,42.35154],[-71.059981,42.351623],[-71.060125,42.351614],[-71.060196,42.351843]]],[[[-71.060325,42.353148],[-71.060198,42.353083],[-71.060156,42.353018],[-71.059657,42.352762],[-71.059553,42.352772],[-71.05943,42.352864],[-71.059489,42.353237],[-71.059772,42.353382],[-71.059991,42.353275],[-71.060117,42.35334],[-71.06021,42.353271],[-71.060325,42.353148]]],[[[-71.060133,42.353635],[-71.059811,42.353458],[-71.059784,42.353478],[-71.059597,42.353398],[-71.059432,42.35339],[-71.059213,42.353561],[-71.058938,42.353839],[-71.059187,42.353981],[-71.059244,42.353941],[-71.059265,42.353954],[-71.059471,42.353779],[-71.059348,42.353904],[-71.059258,42.354024],[-71.059133,42.354047],[-71.05906,42.353989],[-71.05899,42.354041],[-71.05903,42.353974],[-71.058895,42.353885],[-71.058725,42.354012],[-71.058539,42.354185],[-71.058604,42.354234],[-71.057885,42.354903],[-71.057889,42.354913],[-71.057771,42.35503],[-71.057768,42.355053],[-71.057815,42.355071],[-71.05797,42.355074],[-71.057994,42.35512],[-71.058121,42.355135],[-71.058184,42.355113],[-71.058451,42.354923],[-71.058969,42.354454],[-71.058905,42.354405],[-71.059225,42.354439],[-71.059627,42.354123],[-71.059912,42.353872],[-71.060133,42.353635]],[[-71.059565,42.353573],[-71.059541,42.353559],[-71.059551,42.353551],[-71.059565,42.353573]],[[-71.058836,42.354294],[-71.05879,42.354338],[-71.058718,42.354284],[-71.058768,42.354243],[-71.058836,42.354294]]],[[[-71.059748,42.352478],[-71.059715,42.35226],[-71.059695,42.352262],[-71.059626,42.351804],[-71.059386,42.351848],[-71.059292,42.351918],[-71.05933,42.352173],[-71.059346,42.352172],[-71.059386,42.35253],[-71.059656,42.352547],[-71.059748,42.352478]]],[[[-71.059638,42.354988],[-71.059161,42.354622],[-71.059145,42.354629],[-71.059081,42.35459],[-71.059033,42.354595],[-71.058996,42.354623],[-71.058451,42.355109],[-71.058455,42.355135],[-71.058702,42.355242],[-71.058545,42.355402],[-71.058619,42.355457],[-71.058911,42.355576],[-71.059117,42.355423],[-71.059141,42.355433],[-71.059228,42.355368],[-71.059638,42.354988]]],[[[-71.059505,42.350215],[-71.059471,42.35018],[-71.059047,42.350086],[-71.058996,42.350102],[-71.058915,42.350162],[-71.058608,42.350921],[-71.05864,42.350957],[-71.059062,42.351051],[-71.059117,42.351035],[-71.059198,42.350975],[-71.059505,42.350215]]],[[[-71.059392,42.353157],[-71.059318,42.352574],[-71.059134,42.352552],[-71.059292,42.352429],[-71.059226,42.352012],[-71.059026,42.352083],[-71.058906,42.352152],[-71.058581,42.352394],[-71.058509,42.35247],[-71.058471,42.352535],[-71.058142,42.35255],[-71.057793,42.352801],[-71.057796,42.352781],[-71.057688,42.352735],[-71.05756,42.352748],[-71.057293,42.352901],[-71.057163,42.352943],[-71.056815,42.35321],[-71.0568,42.353262],[-71.056813,42.353307],[-71.056864,42.353362],[-71.056928,42.353391],[-71.05692,42.353398],[-71.056757,42.353449],[-71.05634,42.35365],[-71.056103,42.353824],[-71.056092,42.353765],[-71.055891,42.353852],[-71.055737,42.353966],[-71.055744,42.354023],[-71.055688,42.354072],[-71.055589,42.353983],[-71.055474,42.354042],[-71.055259,42.354197],[-71.055323,42.354255],[-71.055139,42.35434],[-71.054798,42.354596],[-71.054622,42.354757],[-71.054639,42.354773],[-71.054624,42.354784],[-71.054623,42.354822],[-71.054784,42.35497],[-71.054834,42.354974],[-71.054903,42.354933],[-71.054925,42.354953],[-71.055208,42.354779],[-71.055316,42.354731],[-71.0555,42.354597],[-71.055535,42.354692],[-71.056027,42.354615],[-71.055658,42.35468],[-71.055554,42.354733],[-71.055278,42.354938],[-71.055304,42.355081],[-71.054972,42.355327],[-71.055078,42.355905],[-71.05553,42.355861],[-71.055797,42.355663],[-71.055982,42.355645],[-71.056088,42.355617],[-71.056329,42.355438],[-71.05692,42.355393],[-71.057349,42.355074],[-71.057329,42.354923],[-71.05689,42.354747],[-71.056502,42.354776],[-71.056279,42.354942],[-71.056229,42.354666],[-71.056094,42.354605],[-71.056231,42.354504],[-71.056176,42.35431],[-71.05619,42.3543],[-71.056154,42.354101],[-71.056336,42.354092],[-71.056446,42.354053],[-71.056562,42.353967],[-71.056787,42.353895],[-71.056648,42.354122],[-71.056413,42.354145],[-71.056216,42.354297],[-71.056261,42.354545],[-71.05628,42.354557],[-71.056615,42.354524],[-71.056798,42.354388],[-71.056895,42.354415],[-71.056863,42.354469],[-71.057122,42.354554],[-71.057535,42.354247],[-71.057846,42.353741],[-71.057588,42.353654],[-71.057553,42.35368],[-71.057474,42.353653],[-71.057554,42.353522],[-71.057351,42.353453],[-71.057403,42.353414],[-71.057432,42.353417],[-71.057622,42.353276],[-71.057834,42.353289],[-71.057829,42.353319],[-71.057872,42.353351],[-71.058504,42.353355],[-71.058016,42.353373],[-71.057894,42.353454],[-71.057847,42.353573],[-71.057861,42.353606],[-71.058084,42.353765],[-71.058078,42.353782],[-71.058214,42.353852],[-71.058523,42.354053],[-71.05861,42.353988],[-71.05922,42.353403],[-71.059185,42.353377],[-71.058861,42.353373],[-71.058764,42.353357],[-71.059158,42.353351],[-71.059347,42.353225],[-71.059392,42.353157]],[[-71.057242,42.353474],[-71.056978,42.353669],[-71.056961,42.353449],[-71.057019,42.353454],[-71.057067,42.353418],[-71.057223,42.35343],[-71.057217,42.353471],[-71.057242,42.353474]]],[[[-71.059318,42.349726],[-71.059179,42.349693],[-71.059159,42.349708],[-71.059085,42.349881],[-71.059224,42.349914],[-71.059244,42.349899],[-71.059318,42.349726]]],[[[-71.059038,42.351101],[-71.058633,42.351011],[-71.058566,42.351061],[-71.058295,42.351739],[-71.058491,42.351782],[-71.058558,42.351732],[-71.058746,42.351554],[-71.05886,42.351417],[-71.05899,42.351213],[-71.059038,42.351101]]],[[[-71.058776,42.350034],[-71.058372,42.349945],[-71.058261,42.350027],[-71.058289,42.349924],[-71.057874,42.34983],[-71.057827,42.349853],[-71.0576,42.349992],[-71.057565,42.35017],[-71.057535,42.350193],[-71.057431,42.350698],[-71.057581,42.350734],[-71.057612,42.35071],[-71.05798,42.3508],[-71.058064,42.350738],[-71.058117,42.350553],[-71.058136,42.350557],[-71.058075,42.350801],[-71.058181,42.350827],[-71.058207,42.350807],[-71.058418,42.35086],[-71.058459,42.35083],[-71.058581,42.350557],[-71.058587,42.350541],[-71.058574,42.350538],[-71.058706,42.35021],[-71.058767,42.350099],[-71.058776,42.350034]],[[-71.058258,42.350229],[-71.058232,42.350321],[-71.058171,42.350367],[-71.058188,42.350307],[-71.058076,42.350289],[-71.058115,42.350295],[-71.058205,42.350217],[-71.058258,42.350229]],[[-71.057885,42.350259],[-71.057837,42.350252],[-71.057837,42.350252],[-71.057885,42.350259]]],[[[-71.05852,42.354135],[-71.05806,42.353838],[-71.058014,42.353836],[-71.05792,42.353906],[-71.057455,42.354648],[-71.057846,42.354768],[-71.057938,42.3547],[-71.05852,42.354135]],[[-71.058109,42.354281],[-71.058094,42.354303],[-71.058008,42.354268],[-71.058032,42.354251],[-71.058109,42.354281]]],[[[-71.058424,42.349376],[-71.057926,42.349266],[-71.05789,42.349292],[-71.057823,42.349459],[-71.057898,42.349476],[-71.057831,42.349642],[-71.057795,42.349671],[-71.057795,42.349697],[-71.057828,42.349715],[-71.057874,42.349698],[-71.057915,42.349707],[-71.057905,42.349741],[-71.057939,42.349761],[-71.058007,42.349727],[-71.058198,42.349769],[-71.058297,42.349696],[-71.058424,42.349376]]],[[[-71.058414,42.350953],[-71.058104,42.350876],[-71.058038,42.350925],[-71.058052,42.350873],[-71.057558,42.350757],[-71.057434,42.350841],[-71.057285,42.351602],[-71.05735,42.351612],[-71.057237,42.351695],[-71.057158,42.352122],[-71.05781,42.352327],[-71.057949,42.352238],[-71.058115,42.351737],[-71.058103,42.35172],[-71.05805,42.351711],[-71.058131,42.351651],[-71.058414,42.350953]],[[-71.057968,42.351119],[-71.057811,42.35168],[-71.057736,42.351668],[-71.057826,42.351601],[-71.057888,42.351344],[-71.057821,42.351334],[-71.057889,42.351283],[-71.05792,42.351178],[-71.057887,42.35117],[-71.057968,42.351119]],[[-71.057873,42.351695],[-71.057823,42.351732],[-71.057836,42.35169],[-71.057873,42.351695]],[[-71.05772,42.351924],[-71.057692,42.352017],[-71.057667,42.35201],[-71.05772,42.351924]]],[[[-71.058071,42.348706],[-71.057613,42.348605],[-71.057429,42.348741],[-71.057345,42.34895],[-71.057804,42.349051],[-71.057988,42.348915],[-71.058071,42.348706]]],[[[-71.057505,42.349748],[-71.057133,42.349667],[-71.056984,42.349777],[-71.056883,42.350008],[-71.056918,42.350017],[-71.056866,42.350137],[-71.056807,42.350189],[-71.056648,42.350477],[-71.056668,42.350532],[-71.056757,42.350571],[-71.05681,42.350564],[-71.056865,42.350533],[-71.057226,42.350619],[-71.057338,42.350543],[-71.057505,42.349748]]],[[[-71.05732,42.350691],[-71.05694,42.350597],[-71.056815,42.350607],[-71.056678,42.350643],[-71.056593,42.350706],[-71.056475,42.350951],[-71.056523,42.350963],[-71.05645,42.351017],[-71.056308,42.351318],[-71.056663,42.351462],[-71.056691,42.351453],[-71.056784,42.351384],[-71.05694,42.351044],[-71.056899,42.351034],[-71.056962,42.350987],[-71.056999,42.350904],[-71.056756,42.351496],[-71.057023,42.351597],[-71.057071,42.351582],[-71.057156,42.351519],[-71.05732,42.350691]]],[[[-71.057141,42.351687],[-71.056525,42.351411],[-71.056294,42.351331],[-71.056146,42.351441],[-71.055931,42.351875],[-71.056325,42.351978],[-71.056309,42.352019],[-71.056884,42.352169],[-71.057078,42.352025],[-71.057141,42.351687]]],[[[-71.057,42.352232],[-71.056202,42.352031],[-71.05594,42.352127],[-71.055737,42.352278],[-71.05572,42.352313],[-71.055224,42.352681],[-71.055147,42.352845],[-71.055741,42.352994],[-71.056023,42.352889],[-71.0562,42.352757],[-71.056656,42.352635],[-71.056859,42.352484],[-71.05694,42.352364],[-71.057,42.352232]]],[[[-71.056775,42.349199],[-71.056596,42.349149],[-71.055487,42.349466],[-71.055415,42.34952],[-71.054953,42.350431],[-71.055006,42.350472],[-71.054998,42.350488],[-71.055042,42.3505],[-71.055295,42.350693],[-71.055433,42.350746],[-71.055565,42.350757],[-71.056082,42.350743],[-71.056166,42.350727],[-71.056238,42.350673],[-71.056434,42.350281],[-71.056635,42.349782],[-71.056775,42.349199]]],[[[-71.056683,42.347603],[-71.056673,42.347544],[-71.055908,42.347262],[-71.055839,42.347313],[-71.054464,42.34936],[-71.054458,42.349414],[-71.05433,42.349497],[-71.05336,42.35094],[-71.053941,42.351155],[-71.054027,42.351091],[-71.054306,42.351194],[-71.054337,42.351171],[-71.055307,42.349724],[-71.055234,42.349697],[-71.05537,42.34956],[-71.056683,42.347603]]],[[[-71.05666,42.353366],[-71.056638,42.353263],[-71.056242,42.353099],[-71.055573,42.353469],[-71.055467,42.353548],[-71.055477,42.353558],[-71.055367,42.353629],[-71.055342,42.353603],[-71.054915,42.353838],[-71.054833,42.353899],[-71.054776,42.353908],[-71.054391,42.354111],[-71.053907,42.354472],[-71.053884,42.354512],[-71.053893,42.354556],[-71.054148,42.354821],[-71.054215,42.354835],[-71.054265,42.354819],[-71.054736,42.354469],[-71.055079,42.354153],[-71.055378,42.353945],[-71.055388,42.353955],[-71.055465,42.35394],[-71.055651,42.353857],[-71.055717,42.353808],[-71.055958,42.353701],[-71.056048,42.353634],[-71.056149,42.353676],[-71.056405,42.353556],[-71.05666,42.353366]]],[[[-71.055768,42.35162],[-71.055498,42.351545],[-71.054479,42.351779],[-71.054368,42.351862],[-71.054196,42.352037],[-71.054722,42.352315],[-71.054882,42.352366],[-71.05505,42.352391],[-71.055227,42.352351],[-71.055458,42.352178],[-71.055549,42.352069],[-71.055768,42.35162]]]]},"properties":{"kind":"building"}},{"type":"Feature","geometry":{"type":"MultiPolygon","coordinates":[[[[-71.066058,42.353451],[-71.066047,42.35341],[-71.066015,42.353375],[-71.065912,42.353343],[-71.065809,42.353375],[-71.065707,42.353462],[-71.065696,42.353503],[-71.065707,42.353544],[-71.065739,42.353579],[-71.065842,42.353611],[-71.065945,42.353579],[-71.066047,42.353492],[-71.066058,42.353451]]],[[[-71.066048,42.352923],[-71.066021,42.352832],[-71.065989,42.352797],[-71.065886,42.352765],[-71.06583,42.352773],[-71.065766,42.352809],[-71.065774,42.352784],[-71.06575,42.352742],[-71.065662,42.352729],[-71.065586,42.352778],[-71.065493,42.352798],[-71.065416,42.352863],[-71.065416,42.352918],[-71.065454,42.35295],[-71.065414,42.352987],[-71.065412,42.353026],[-71.065349,42.35308],[-71.065349,42.353139],[-71.065372,42.353164],[-71.065326,42.353206],[-71.065209,42.353203],[-71.065126,42.353254],[-71.065121,42.353214],[-71.065148,42.353213],[-71.065197,42.35318],[-71.06521,42.353156],[-71.065198,42.353134],[-71.065244,42.353119],[-71.065303,42.35307],[-71.065303,42.353032],[-71.065245,42.353001],[-71.065271,42.352979],[-71.065271,42.352957],[-71.065235,42.352939],[-71.065167,42.352981],[-71.065167,42.353003],[-71.065188,42.353018],[-71.065133,42.353064],[-71.065133,42.353103],[-71.065148,42.353119],[-71.065085,42.35318],[-71.065018,42.353161],[-71.064976,42.353168],[-71.064878,42.353231],[-71.064851,42.353271],[-71.06481,42.35326],[-71.064928,42.353148],[-71.064939,42.353107],[-71.064928,42.353066],[-71.064865,42.353015],[-71.06483,42.352952],[-71.064791,42.352933],[-71.064699,42.352933],[-71.064568,42.35303],[-71.064559,42.353064],[-71.064588,42.353119],[-71.064577,42.353159],[-71.064588,42.3532],[-71.064639,42.353244],[-71.064519,42.353311],[-71.064487,42.353369],[-71.064495,42.3534],[-71.064555,42.353444],[-71.064597,42.35345],[-71.06464,42.353444],[-71.064725,42.35339],[-71.06479,42.353395],[-71.06487,42.353337],[-71.064956,42.35337],[-71.065056,42.353331],[-71.065049,42.353355],[-71.065075,42.353413],[-71.065014,42.353458],[-71.064973,42.353429],[-71.064895,42.353441],[-71.064835,42.353492],[-71.064835,42.353532],[-71.06485,42.353549],[-71.064928,42.353561],[-71.064979,42.353528],[-71.065014,42.353587],[-71.065101,42.353614],[-71.065148,42.353607],[-71.065234,42.353553],[-71.065243,42.353601],[-71.065275,42.353636],[-71.065322,42.35366],[-71.065402,42.353664],[-71.065385,42.353696],[-71.065403,42.353728],[-71.06547,42.353738],[-71.065545,42.353682],[-71.065545,42.353648],[-71.065501,42.353621],[-71.065583,42.353549],[-71.065594,42.353508],[-71.065583,42.353467],[-71.065504,42.353408],[-71.065448,42.3534],[-71.065378,42.353415],[-71.06536,42.353395],[-71.065368,42.353379],[-71.065404,42.353331],[-71.065458,42.353326],[-71.065627,42.353228],[-71.065674,42.353253],[-71.065682,42.353286],[-71.065733,42.353324],[-71.065769,42.353329],[-71.065836,42.353309],[-71.065911,42.353246],[-71.065918,42.353219],[-71.065891,42.35317],[-71.066007,42.353073],[-71.066016,42.353039],[-71.065998,42.352995],[-71.066039,42.352955],[-71.066048,42.352923]],[[-71.065699,42.352864],[-71.065673,42.352935],[-71.06561,42.352947],[-71.065595,42.352931],[-71.065649,42.35288],[-71.065699,42.352864]],[[-71.065681,42.353114],[-71.065649,42.353159],[-71.06563,42.353133],[-71.065681,42.353114]],[[-71.064755,42.353276],[-71.06475,42.35328],[-71.064746,42.353275],[-71.064755,42.353276]]],[[[-71.066046,42.354972],[-71.066026,42.354936],[-71.065952,42.354925],[-71.065886,42.354969],[-71.065866,42.355005],[-71.065908,42.355051],[-71.06596,42.355051],[-71.066026,42.355008],[-71.066046,42.354972]]],[[[-71.066022,42.352597],[-71.065976,42.352546],[-71.065918,42.352546],[-71.065881,42.352568],[-71.065841,42.352538],[-71.065759,42.35255],[-71.065717,42.352522],[-71.065659,42.352522],[-71.065456,42.352652],[-71.06543,42.3527],[-71.065456,42.352747],[-71.065486,42.352762],[-71.065555,42.352762],[-71.065638,42.352708],[-71.065665,42.35266],[-71.065694,42.352647],[-71.065737,42.352675],[-71.065794,42.352675],[-71.065831,42.352653],[-71.065872,42.352683],[-71.065929,42.352683],[-71.066,42.352636],[-71.066022,42.352597]]],[[[-71.06602,42.354061],[-71.065981,42.354032],[-71.065927,42.35406],[-71.06587,42.354048],[-71.065804,42.354108],[-71.065834,42.354141],[-71.065872,42.354141],[-71.065923,42.354106],[-71.065977,42.354105],[-71.06602,42.354061]]],[[[-71.06597,42.354146],[-71.065947,42.354129],[-71.065899,42.354165],[-71.065922,42.354181],[-71.06597,42.354146]]],[[[-71.065865,42.354468],[-71.065827,42.3544],[-71.065785,42.354379],[-71.065685,42.354379],[-71.065573,42.354452],[-71.065535,42.35452],[-71.065573,42.354588],[-71.065615,42.354609],[-71.065715,42.354609],[-71.065827,42.354536],[-71.065865,42.354468]]],[[[-71.06583,42.348038],[-71.065811,42.348004],[-71.06574,42.347994],[-71.065676,42.348036],[-71.065657,42.34807],[-71.065697,42.348114],[-71.065747,42.348114],[-71.065811,42.348072],[-71.06583,42.348038]]],[[[-71.06579,42.34818],[-71.065774,42.348151],[-71.065714,42.348142],[-71.065657,42.34818],[-71.065641,42.348209],[-71.065675,42.348246],[-71.065717,42.348246],[-71.065774,42.348209],[-71.06579,42.34818]]],[[[-71.065764,42.353939],[-71.065734,42.353906],[-71.065681,42.353914],[-71.065583,42.354003],[-71.065583,42.35403],[-71.065628,42.354053],[-71.065663,42.354042],[-71.065764,42.353939]]],[[[-71.065738,42.348446],[-71.065721,42.348415],[-71.065658,42.348406],[-71.065599,42.348445],[-71.065582,42.348476],[-71.065618,42.348516],[-71.065662,42.348516],[-71.065721,42.348477],[-71.065738,42.348446]]],[[[-71.065728,42.348293],[-71.06571,42.34828],[-71.065674,42.348307],[-71.065692,42.34832],[-71.065728,42.348293]]],[[[-71.065683,42.354843],[-71.065674,42.354808],[-71.065607,42.354759],[-71.06556,42.354752],[-71.065482,42.354774],[-71.065466,42.354722],[-71.065418,42.354708],[-71.06536,42.35473],[-71.065345,42.354722],[-71.065351,42.354697],[-71.065327,42.354655],[-71.065202,42.35461],[-71.065099,42.354663],[-71.065,42.354787],[-71.065023,42.354827],[-71.065073,42.354844],[-71.06509,42.354865],[-71.065141,42.354881],[-71.065188,42.354867],[-71.065209,42.354905],[-71.065262,42.354921],[-71.065315,42.354905],[-71.065397,42.354838],[-71.06537,42.354893],[-71.065379,42.354928],[-71.065446,42.354977],[-71.065493,42.354984],[-71.06558,42.354957],[-71.065674,42.354878],[-71.065683,42.354843]]],[[[-71.065625,42.353756],[-71.065608,42.353725],[-71.065545,42.353716],[-71.065486,42.353755],[-71.065469,42.353786],[-71.065505,42.353826],[-71.065549,42.353826],[-71.065608,42.353787],[-71.065625,42.353756]]],[[[-71.0656,42.353866],[-71.065568,42.353831],[-71.065528,42.353831],[-71.06549,42.353855],[-71.065438,42.353826],[-71.065399,42.353838],[-71.065344,42.353896],[-71.065378,42.353933],[-71.06542,42.353933],[-71.065462,42.353907],[-71.065511,42.353932],[-71.065547,42.353921],[-71.0656,42.353866]]],[[[-71.065598,42.348957],[-71.06558,42.348944],[-71.065545,42.34897],[-71.065563,42.348983],[-71.065598,42.348957]]],[[[-71.065588,42.351223],[-71.06557,42.35121],[-71.065531,42.351239],[-71.065549,42.351252],[-71.065588,42.351223]]],[[[-71.065562,42.349094],[-71.065544,42.349081],[-71.065509,42.349107],[-71.065527,42.34912],[-71.065562,42.349094]]],[[[-71.065559,42.349236],[-71.065544,42.349211],[-71.065491,42.349203],[-71.06543,42.349259],[-71.06546,42.349292],[-71.065498,42.349292],[-71.065559,42.349236]]],[[[-71.065552,42.348316],[-71.065534,42.348284],[-71.065466,42.348274],[-71.065405,42.348314],[-71.065387,42.348347],[-71.065425,42.348389],[-71.065472,42.348389],[-71.065534,42.348348],[-71.065552,42.348316]]],[[[-71.065548,42.34811],[-71.06553,42.348097],[-71.065494,42.348124],[-71.065512,42.348137],[-71.065548,42.34811]]],[[[-71.065483,42.348446],[-71.06546,42.348429],[-71.065412,42.348465],[-71.065435,42.348481],[-71.065483,42.348446]]],[[[-71.065465,42.352587],[-71.065434,42.352533],[-71.065401,42.352516],[-71.065321,42.352516],[-71.065229,42.352577],[-71.065198,42.352631],[-71.065229,42.352685],[-71.065262,42.352702],[-71.065342,42.352702],[-71.065434,42.352641],[-71.065465,42.352587]]],[[[-71.065433,42.34879],[-71.065418,42.348765],[-71.065365,42.348757],[-71.065304,42.348813],[-71.065334,42.348846],[-71.065372,42.348846],[-71.065433,42.34879]]],[[[-71.065416,42.353789],[-71.065374,42.353742],[-71.0653,42.353753],[-71.065241,42.353802],[-71.065249,42.35385],[-71.065181,42.35386],[-71.065127,42.353905],[-71.065127,42.35394],[-71.065184,42.353968],[-71.065227,42.353955],[-71.065282,42.353909],[-71.065275,42.353867],[-71.065352,42.353857],[-71.065416,42.353789]]],[[[-71.065396,42.34894],[-71.065385,42.348921],[-71.065346,42.348916],[-71.065297,42.348953],[-71.065297,42.348973],[-71.065343,42.348987],[-71.065396,42.34894]]],[[[-71.06538,42.35397],[-71.06534,42.353926],[-71.065269,42.353936],[-71.065212,42.353983],[-71.065212,42.35402],[-71.065168,42.354024],[-71.065109,42.354063],[-71.065096,42.35411],[-71.06515,42.354137],[-71.065191,42.354124],[-71.065244,42.354081],[-71.065244,42.354047],[-71.065318,42.354036],[-71.06538,42.35397]]],[[[-71.065379,42.34907],[-71.065364,42.349045],[-71.065311,42.349037],[-71.065245,42.349097],[-71.065275,42.34913],[-71.065313,42.34913],[-71.065379,42.34907]]],[[[-71.065368,42.35121],[-71.06535,42.351197],[-71.065312,42.351225],[-71.06533,42.351238],[-71.065368,42.35121]]],[[[-71.065268,42.35121],[-71.06525,42.351197],[-71.065213,42.351224],[-71.065232,42.351237],[-71.065268,42.35121]]],[[[-71.065204,42.352785],[-71.065187,42.352754],[-71.065146,42.352742],[-71.065065,42.352784],[-71.065048,42.352815],[-71.065065,42.352845],[-71.065049,42.35289],[-71.064987,42.352942],[-71.064987,42.352982],[-71.065002,42.352999],[-71.06508,42.353011],[-71.065149,42.352965],[-71.065169,42.352928],[-71.065149,42.352891],[-71.065175,42.352866],[-71.065168,42.35283],[-71.065204,42.352785]]],[[[-71.065176,42.35072],[-71.06514,42.350702],[-71.065098,42.35074],[-71.065134,42.350757],[-71.065176,42.35072]]],[[[-71.065161,42.353991],[-71.065142,42.353957],[-71.065071,42.353947],[-71.065007,42.353989],[-71.064988,42.354023],[-71.065028,42.354067],[-71.065078,42.354067],[-71.065142,42.354025],[-71.065161,42.353991]]],[[[-71.065151,42.350784],[-71.065115,42.350766],[-71.065073,42.350804],[-71.065109,42.350821],[-71.065151,42.350784]]],[[[-71.065129,42.350853],[-71.06511,42.350839],[-71.065067,42.350871],[-71.065086,42.350885],[-71.065129,42.350853]]],[[[-71.065109,42.352581],[-71.065081,42.35253],[-71.065049,42.352515],[-71.064975,42.352515],[-71.064887,42.352572],[-71.064858,42.352623],[-71.064887,42.352674],[-71.064918,42.352689],[-71.064993,42.352689],[-71.065081,42.352632],[-71.065109,42.352581]]],[[[-71.065103,42.354592],[-71.065085,42.35456],[-71.065041,42.354546],[-71.064997,42.35456],[-71.064946,42.354602],[-71.06487,42.354599],[-71.064767,42.354675],[-71.064767,42.354727],[-71.064817,42.354763],[-71.064886,42.354763],[-71.064969,42.354709],[-71.064994,42.354668],[-71.065023,42.354665],[-71.065085,42.354624],[-71.065103,42.354592]]],[[[-71.065099,42.354179],[-71.065082,42.354148],[-71.065019,42.354139],[-71.06496,42.354178],[-71.064943,42.354209],[-71.064979,42.354249],[-71.065023,42.354249],[-71.065082,42.35421],[-71.065099,42.354179]]],[[[-71.065067,42.354458],[-71.065049,42.354426],[-71.065005,42.354412],[-71.064961,42.354426],[-71.064868,42.354419],[-71.064803,42.35446],[-71.064798,42.354419],[-71.064775,42.354393],[-71.064702,42.35437],[-71.064759,42.354322],[-71.064759,42.354284],[-71.064722,42.354256],[-71.06467,42.354256],[-71.064589,42.354316],[-71.064589,42.354355],[-71.064535,42.354405],[-71.064544,42.354442],[-71.064485,42.354435],[-71.064426,42.354474],[-71.064413,42.35452],[-71.064382,42.354522],[-71.064323,42.354561],[-71.064306,42.354592],[-71.064231,42.354648],[-71.06423,42.354675],[-71.064191,42.354675],[-71.064134,42.354713],[-71.064122,42.354757],[-71.064173,42.354782],[-71.064212,42.354771],[-71.064263,42.354729],[-71.064263,42.354699],[-71.064315,42.35469],[-71.064368,42.354635],[-71.064445,42.354593],[-71.064458,42.354547],[-71.064489,42.354545],[-71.064537,42.354514],[-71.064501,42.35455],[-71.064501,42.354583],[-71.064457,42.354594],[-71.064405,42.354649],[-71.064322,42.354695],[-71.064306,42.354724],[-71.064252,42.354744],[-71.064192,42.354795],[-71.064192,42.354835],[-71.064207,42.354852],[-71.064285,42.354864],[-71.064369,42.354801],[-71.06437,42.354763],[-71.064531,42.354648],[-71.064542,42.354608],[-71.06468,42.354567],[-71.064769,42.354509],[-71.064792,42.354553],[-71.064881,42.354566],[-71.064938,42.35453],[-71.065007,42.354521],[-71.065067,42.354458]],[[-71.064554,42.354448],[-71.064553,42.354449],[-71.06455,42.354446],[-71.064554,42.354448]]],[[[-71.064983,42.354795],[-71.064967,42.354766],[-71.064907,42.354757],[-71.06485,42.354795],[-71.064834,42.354824],[-71.064868,42.354861],[-71.06491,42.354861],[-71.064967,42.354824],[-71.064983,42.354795]]],[[[-71.064955,42.354294],[-71.06494,42.354267],[-71.064883,42.354259],[-71.064814,42.354322],[-71.064846,42.354357],[-71.064886,42.354357],[-71.064955,42.354294]]],[[[-71.064944,42.35131],[-71.064926,42.351297],[-71.064888,42.351325],[-71.064906,42.351338],[-71.064944,42.35131]]],[[[-71.064935,42.35396],[-71.064911,42.353918],[-71.064854,42.3539],[-71.064797,42.353918],[-71.064749,42.353953],[-71.064785,42.3539],[-71.064762,42.353859],[-71.064707,42.353842],[-71.064633,42.353873],[-71.064632,42.353832],[-71.064588,42.3538],[-71.064508,42.353809],[-71.064437,42.353774],[-71.064387,42.353789],[-71.064444,42.353728],[-71.064444,42.353692],[-71.064483,42.35364],[-71.064443,42.353596],[-71.064372,42.353606],[-71.064315,42.353653],[-71.064315,42.35369],[-71.064281,42.353723],[-71.064281,42.353759],[-71.064245,42.35379],[-71.064245,42.353821],[-71.064271,42.353841],[-71.064207,42.353895],[-71.064207,42.353943],[-71.064188,42.353982],[-71.064212,42.354024],[-71.064238,42.354037],[-71.064188,42.354077],[-71.064165,42.354119],[-71.064062,42.354186],[-71.064057,42.354207],[-71.064077,42.354244],[-71.064026,42.354302],[-71.064045,42.354336],[-71.063979,42.354357],[-71.063912,42.354413],[-71.063912,42.354459],[-71.063833,42.354534],[-71.063822,42.354575],[-71.063861,42.354647],[-71.063818,42.354663],[-71.063749,42.354721],[-71.063746,42.354758],[-71.063707,42.354794],[-71.063707,42.354838],[-71.063779,42.354873],[-71.063834,42.354856],[-71.063956,42.354731],[-71.063956,42.354683],[-71.064024,42.354675],[-71.064141,42.354599],[-71.064173,42.354564],[-71.064184,42.354523],[-71.064173,42.354482],[-71.064105,42.354429],[-71.064194,42.354444],[-71.06425,42.354436],[-71.064399,42.354325],[-71.06441,42.354284],[-71.064399,42.354243],[-71.064367,42.354208],[-71.064267,42.354177],[-71.06437,42.354106],[-71.06437,42.35406],[-71.064326,42.354028],[-71.064394,42.353968],[-71.064395,42.353926],[-71.064432,42.353914],[-71.064507,42.353952],[-71.064474,42.354005],[-71.064494,42.354045],[-71.06439,42.354108],[-71.064359,42.354164],[-71.06439,42.35422],[-71.064466,42.354243],[-71.064541,42.35422],[-71.064625,42.354149],[-71.064633,42.354119],[-71.064602,42.354063],[-71.064613,42.354056],[-71.064679,42.354089],[-71.064764,42.354047],[-71.064836,42.354052],[-71.064911,42.354002],[-71.064935,42.35396]]],[[[-71.064915,42.35417],[-71.0649,42.354145],[-71.064847,42.354137],[-71.064781,42.354197],[-71.064811,42.35423],[-71.064849,42.35423],[-71.064915,42.35417]]],[[[-71.064911,42.354986],[-71.06488,42.354932],[-71.064847,42.354915],[-71.064767,42.354915],[-71.064675,42.354976],[-71.064644,42.35503],[-71.064675,42.355084],[-71.064708,42.355101],[-71.064788,42.355101],[-71.06488,42.35504],[-71.064911,42.354986]]],[[[-71.064857,42.348456],[-71.064839,42.348443],[-71.064803,42.34847],[-71.064821,42.348483],[-71.064857,42.348456]]],[[[-71.064739,42.354797],[-71.064721,42.354784],[-71.064684,42.354811],[-71.064703,42.354824],[-71.064739,42.354797]]],[[[-71.064732,42.353536],[-71.064702,42.353483],[-71.06467,42.353467],[-71.064592,42.353467],[-71.064502,42.353526],[-71.064473,42.353579],[-71.064502,42.353631],[-71.064535,42.353648],[-71.064612,42.353648],[-71.064702,42.353589],[-71.064732,42.353536]]],[[[-71.064624,42.351826],[-71.064606,42.351813],[-71.064569,42.35184],[-71.064588,42.351853],[-71.064624,42.351826]]],[[[-71.064621,42.348425],[-71.064603,42.348412],[-71.064567,42.348439],[-71.064585,42.348452],[-71.064621,42.348425]]],[[[-71.064568,42.352055],[-71.06455,42.352042],[-71.064512,42.35207],[-71.06453,42.352083],[-71.064568,42.352055]]],[[[-71.064564,42.352104],[-71.064545,42.35209],[-71.064502,42.352122],[-71.064521,42.352136],[-71.064564,42.352104]]],[[[-71.064548,42.35216],[-71.06453,42.352147],[-71.064493,42.352174],[-71.064512,42.352187],[-71.064548,42.35216]]],[[[-71.064436,42.348399],[-71.064418,42.348386],[-71.064382,42.348413],[-71.0644,42.348426],[-71.064436,42.348399]]],[[[-71.064238,42.350925],[-71.06422,42.350912],[-71.064183,42.350939],[-71.064202,42.350952],[-71.064238,42.350925]]],[[[-71.064209,42.34872],[-71.064186,42.348703],[-71.064138,42.348739],[-71.064161,42.348755],[-71.064209,42.34872]]],[[[-71.064168,42.34884],[-71.06415,42.348827],[-71.064109,42.348857],[-71.064128,42.34887],[-71.064168,42.34884]]],[[[-71.064148,42.350914],[-71.06413,42.350901],[-71.064093,42.350928],[-71.064112,42.350941],[-71.064148,42.350914]]],[[[-71.064088,42.3533],[-71.06407,42.353287],[-71.064029,42.353317],[-71.064048,42.35333],[-71.064088,42.3533]]],[[[-71.064082,42.350914],[-71.064073,42.350897],[-71.064038,42.350892],[-71.063991,42.350926],[-71.063991,42.350945],[-71.064033,42.350958],[-71.064082,42.350914]]],[[[-71.064049,42.35339],[-71.06403,42.353376],[-71.063987,42.353408],[-71.064006,42.353422],[-71.064049,42.35339]]],[[[-71.064013,42.353283],[-71.063995,42.35327],[-71.063954,42.3533],[-71.063973,42.353313],[-71.064013,42.353283]]],[[[-71.063998,42.35376],[-71.06398,42.353747],[-71.063939,42.353777],[-71.063958,42.35379],[-71.063998,42.35376]]],[[[-71.063984,42.353386],[-71.063965,42.353372],[-71.063922,42.353404],[-71.063941,42.353418],[-71.063984,42.353386]]],[[[-71.063973,42.350903],[-71.063962,42.350883],[-71.063919,42.350876],[-71.063866,42.350916],[-71.063866,42.350938],[-71.063917,42.350953],[-71.063973,42.350903]]],[[[-71.063943,42.353268],[-71.06392,42.353251],[-71.063872,42.353287],[-71.063895,42.353303],[-71.063943,42.353268]]],[[[-71.063928,42.353374],[-71.06391,42.353361],[-71.063869,42.353391],[-71.063888,42.353404],[-71.063928,42.353374]]],[[[-71.063922,42.353967],[-71.063913,42.35395],[-71.063878,42.353945],[-71.063831,42.353979],[-71.063831,42.353998],[-71.063873,42.354011],[-71.063922,42.353967]]],[[[-71.063915,42.348675],[-71.063896,42.348661],[-71.063853,42.348693],[-71.063872,42.348707],[-71.063915,42.348675]]],[[[-71.063893,42.348743],[-71.06387,42.348726],[-71.063822,42.348762],[-71.063845,42.348778],[-71.063893,42.348743]]],[[[-71.063879,42.34887],[-71.06386,42.348856],[-71.063817,42.348888],[-71.063836,42.348902],[-71.063879,42.34887]]],[[[-71.063873,42.348793],[-71.063855,42.34878],[-71.063819,42.348807],[-71.063837,42.34882],[-71.063873,42.348793]]],[[[-71.063821,42.349148],[-71.063803,42.349135],[-71.063766,42.349162],[-71.063785,42.349175],[-71.063821,42.349148]]],[[[-71.063816,42.35412],[-71.06378,42.354102],[-71.063738,42.35414],[-71.063774,42.354157],[-71.063816,42.35412]]],[[[-71.063808,42.348427],[-71.06379,42.348414],[-71.063754,42.348441],[-71.063772,42.348454],[-71.063808,42.348427]]],[[[-71.063768,42.349293],[-71.06375,42.34928],[-71.063713,42.349307],[-71.063732,42.34932],[-71.063768,42.349293]]],[[[-71.063755,42.349335],[-71.063737,42.349322],[-71.0637,42.349349],[-71.063719,42.349362],[-71.063755,42.349335]]],[[[-71.063718,42.34841],[-71.0637,42.348397],[-71.063664,42.348424],[-71.063682,42.348437],[-71.063718,42.34841]]],[[[-71.063707,42.350883],[-71.063698,42.350866],[-71.063663,42.350861],[-71.063616,42.350895],[-71.063616,42.350914],[-71.063658,42.350927],[-71.063707,42.350883]]],[[[-71.063689,42.34976],[-71.06367,42.349746],[-71.063627,42.349778],[-71.063646,42.349792],[-71.063689,42.34976]]],[[[-71.063632,42.349854],[-71.063614,42.349841],[-71.063573,42.349871],[-71.063592,42.349884],[-71.063632,42.349854]]],[[[-71.063613,42.350876],[-71.06359,42.350859],[-71.063542,42.350895],[-71.063565,42.350911],[-71.063613,42.350876]]],[[[-71.063579,42.34995],[-71.06356,42.349936],[-71.063517,42.349968],[-71.063536,42.349982],[-71.063579,42.34995]]],[[[-71.063569,42.3547],[-71.063554,42.354675],[-71.063501,42.354667],[-71.06344,42.354723],[-71.06347,42.354756],[-71.063508,42.354756],[-71.063569,42.3547]]],[[[-71.063548,42.35],[-71.06353,42.349987],[-71.063489,42.350017],[-71.063508,42.35003],[-71.063548,42.35]]],[[[-71.063546,42.350864],[-71.06351,42.350846],[-71.063468,42.350884],[-71.063504,42.350901],[-71.063546,42.350864]]],[[[-71.063509,42.3548],[-71.063494,42.354775],[-71.063441,42.354767],[-71.06338,42.354823],[-71.06341,42.354856],[-71.063448,42.354856],[-71.063509,42.3548]]],[[[-71.063458,42.350418],[-71.06344,42.350405],[-71.063399,42.350435],[-71.063418,42.350448],[-71.063458,42.350418]]],[[[-71.063458,42.35018],[-71.06344,42.350167],[-71.063401,42.350196],[-71.063419,42.350209],[-71.063458,42.35018]]],[[[-71.063434,42.350487],[-71.063416,42.350474],[-71.063377,42.350503],[-71.063395,42.350516],[-71.063434,42.350487]]],[[[-71.063428,42.350246],[-71.06341,42.350233],[-71.063376,42.350252],[-71.063351,42.350305],[-71.063398,42.35029],[-71.063428,42.350246]]],[[[-71.063403,42.35055],[-71.063385,42.350537],[-71.063347,42.350565],[-71.063365,42.350578],[-71.063403,42.35055]]],[[[-71.063386,42.350826],[-71.06335,42.350808],[-71.063308,42.350846],[-71.063344,42.350863],[-71.063386,42.350826]]],[[[-71.063383,42.350765],[-71.063343,42.350745],[-71.063297,42.350786],[-71.063337,42.350806],[-71.063383,42.350765]]],[[[-71.063369,42.350704],[-71.06335,42.35069],[-71.063307,42.350722],[-71.063326,42.350736],[-71.063369,42.350704]]],[[[-71.063368,42.35061],[-71.06335,42.350597],[-71.063312,42.350625],[-71.06333,42.350638],[-71.063368,42.35061]]],[[[-71.063328,42.35044],[-71.06331,42.350427],[-71.063272,42.350455],[-71.06329,42.350468],[-71.063328,42.35044]]],[[[-71.063298,42.350483],[-71.06328,42.35047],[-71.063241,42.350499],[-71.063259,42.350512],[-71.063298,42.350483]]],[[[-71.063273,42.350536],[-71.063255,42.350523],[-71.063216,42.350552],[-71.063234,42.350565],[-71.063273,42.350536]]],[[[-71.063248,42.350582],[-71.06323,42.350569],[-71.063189,42.350599],[-71.063208,42.350612],[-71.063248,42.350582]]],[[[-71.063228,42.35063],[-71.06321,42.350617],[-71.063169,42.350647],[-71.063188,42.35066],[-71.063228,42.35063]]],[[[-71.063198,42.350677],[-71.06318,42.350664],[-71.063145,42.35069],[-71.063163,42.350703],[-71.063198,42.350677]]],[[[-71.063178,42.350727],[-71.06316,42.350714],[-71.063126,42.350733],[-71.063093,42.350793],[-71.063144,42.350775],[-71.063144,42.350755],[-71.063178,42.350727]]],[[[-71.063144,42.352238],[-71.063126,42.352225],[-71.063088,42.352253],[-71.063106,42.352266],[-71.063144,42.352238]]],[[[-71.063083,42.35225],[-71.063065,42.352237],[-71.063027,42.352265],[-71.063045,42.352278],[-71.063083,42.35225]]],[[[-71.062983,42.352253],[-71.062965,42.35224],[-71.062927,42.352268],[-71.062945,42.352281],[-71.062983,42.352253]]],[[[-71.062922,42.35222],[-71.062904,42.352207],[-71.062865,42.352236],[-71.062883,42.352249],[-71.062922,42.35222]]],[[[-71.062848,42.352215],[-71.06283,42.352202],[-71.062792,42.35223],[-71.06281,42.352243],[-71.062848,42.352215]]],[[[-71.062829,42.353302],[-71.06281,42.353288],[-71.062767,42.35332],[-71.062786,42.353334],[-71.062829,42.353302]]],[[[-71.062829,42.353214],[-71.06281,42.3532],[-71.062767,42.353232],[-71.062786,42.353246],[-71.062829,42.353214]]],[[[-71.062763,42.353207],[-71.062744,42.353193],[-71.062701,42.353225],[-71.06272,42.353239],[-71.062763,42.353207]]],[[[-71.062763,42.353306],[-71.06274,42.353289],[-71.062692,42.353325],[-71.062715,42.353341],[-71.062763,42.353306]]],[[[-71.062559,42.348354],[-71.062519,42.348334],[-71.062473,42.348375],[-71.062513,42.348395],[-71.062559,42.348354]]],[[[-71.062496,42.349373],[-71.062484,42.349351],[-71.062438,42.349344],[-71.062379,42.349398],[-71.062405,42.349426],[-71.062437,42.349426],[-71.062496,42.349373]]],[[[-71.062463,42.348557],[-71.06244,42.34854],[-71.062392,42.348576],[-71.062415,42.348592],[-71.062463,42.348557]]],[[[-71.062409,42.348373],[-71.062398,42.348353],[-71.062355,42.348346],[-71.062302,42.348386],[-71.062302,42.348408],[-71.062353,42.348423],[-71.062409,42.348373]]],[[[-71.062392,42.349323],[-71.06238,42.349301],[-71.062334,42.349294],[-71.062275,42.349348],[-71.062301,42.349376],[-71.062333,42.349376],[-71.062392,42.349323]]],[[[-71.062039,42.353752],[-71.06202,42.353738],[-71.061977,42.35377],[-71.061996,42.353784],[-71.062039,42.353752]]],[[[-71.062006,42.349306],[-71.061988,42.349293],[-71.061951,42.34932],[-71.06197,42.349333],[-71.062006,42.349306]]],[[[-71.061988,42.35386],[-71.06197,42.353847],[-71.061933,42.353874],[-71.061952,42.353887],[-71.061988,42.35386]]],[[[-71.061951,42.349438],[-71.061933,42.349425],[-71.061896,42.349452],[-71.061915,42.349465],[-71.061951,42.349438]]],[[[-71.061941,42.349548],[-71.061926,42.349523],[-71.061873,42.349515],[-71.061812,42.349571],[-71.061842,42.349604],[-71.06188,42.349604],[-71.061941,42.349548]]],[[[-71.061928,42.34988],[-71.06191,42.349867],[-71.061873,42.349894],[-71.061892,42.349907],[-71.061928,42.34988]]],[[[-71.061924,42.3537],[-71.061905,42.353686],[-71.061862,42.353718],[-71.061881,42.353732],[-71.061924,42.3537]]],[[[-71.061909,42.353825],[-71.06189,42.353811],[-71.061847,42.353843],[-71.061866,42.353857],[-71.061909,42.353825]]],[[[-71.061898,42.349926],[-71.06188,42.349913],[-71.061843,42.34994],[-71.061862,42.349953],[-71.061898,42.349926]]],[[[-71.061892,42.35],[-71.061874,42.349987],[-71.061837,42.350014],[-71.061856,42.350027],[-71.061892,42.35]]],[[[-71.061868,42.350044],[-71.06185,42.350031],[-71.061819,42.350048],[-71.061789,42.350103],[-71.061833,42.35009],[-71.061833,42.350071],[-71.061868,42.350044]]],[[[-71.061851,42.348312],[-71.061838,42.348288],[-71.061789,42.348281],[-71.061726,42.348338],[-71.061754,42.348369],[-71.061789,42.348369],[-71.061851,42.348312]]],[[[-71.061828,42.353783],[-71.06181,42.35377],[-71.061773,42.353797],[-71.061792,42.35381],[-71.061828,42.353783]]],[[[-71.061825,42.353653],[-71.061806,42.353639],[-71.061763,42.353671],[-71.061782,42.353685],[-71.061825,42.353653]]],[[[-71.061824,42.350155],[-71.061806,42.350142],[-71.061771,42.350168],[-71.061789,42.350181],[-71.061824,42.350155]]],[[[-71.061798,42.3502],[-71.06178,42.350187],[-71.061743,42.350214],[-71.061762,42.350227],[-71.061798,42.3502]]],[[[-71.061789,42.350292],[-71.061765,42.350265],[-71.061722,42.350272],[-71.061644,42.350359],[-71.061644,42.350385],[-71.061685,42.350405],[-71.061718,42.350395],[-71.061762,42.350359],[-71.061789,42.350292]]],[[[-71.06177,42.348421],[-71.061752,42.348408],[-71.061716,42.348435],[-71.061734,42.348448],[-71.06177,42.348421]]],[[[-71.061766,42.349666],[-71.061751,42.349641],[-71.061698,42.349633],[-71.061637,42.349689],[-71.061667,42.349722],[-71.061705,42.349722],[-71.061766,42.349666]]],[[[-71.061759,42.353607],[-71.061744,42.353582],[-71.061691,42.353574],[-71.06163,42.35363],[-71.06166,42.353663],[-71.061698,42.353663],[-71.061759,42.353607]]],[[[-71.061747,42.353738],[-71.061729,42.353725],[-71.061692,42.353752],[-71.061711,42.353765],[-71.061747,42.353738]]],[[[-71.061692,42.348648],[-71.06168,42.348626],[-71.061634,42.348619],[-71.061575,42.348673],[-71.061601,42.348701],[-71.061633,42.348701],[-71.061692,42.348648]]],[[[-71.061645,42.348297],[-71.061629,42.348268],[-71.061569,42.348259],[-71.061512,42.348297],[-71.061496,42.348326],[-71.06153,42.348363],[-71.061572,42.348363],[-71.061629,42.348326],[-71.061645,42.348297]]],[[[-71.061628,42.35355],[-71.06161,42.353537],[-71.061571,42.353566],[-71.061589,42.353579],[-71.061628,42.35355]]],[[[-71.06161,42.348837],[-71.061592,42.348824],[-71.061556,42.348851],[-71.061574,42.348864],[-71.06161,42.348837]]],[[[-71.061608,42.3485],[-71.06159,42.348487],[-71.061554,42.348514],[-71.061572,42.348527],[-71.061608,42.3485]]],[[[-71.061597,42.348184],[-71.061579,42.348171],[-71.06154,42.3482],[-71.061558,42.348213],[-71.061597,42.348184]]],[[[-71.061565,42.34867],[-71.061552,42.348646],[-71.061503,42.348639],[-71.06144,42.348696],[-71.061468,42.348727],[-71.061503,42.348727],[-71.061565,42.34867]]],[[[-71.061548,42.349568],[-71.061533,42.349543],[-71.06148,42.349535],[-71.061419,42.349591],[-71.061449,42.349624],[-71.061487,42.349624],[-71.061548,42.349568]]],[[[-71.061502,42.348854],[-71.06149,42.348832],[-71.061444,42.348825],[-71.061385,42.348879],[-71.061411,42.348907],[-71.061443,42.348907],[-71.061502,42.348854]]],[[[-71.061493,42.35095],[-71.06147,42.350933],[-71.061422,42.350969],[-71.061445,42.350985],[-71.061493,42.35095]]],[[[-71.061472,42.34815],[-71.061454,42.348118],[-71.061386,42.348108],[-71.061325,42.348148],[-71.061307,42.348181],[-71.061345,42.348223],[-71.061392,42.348223],[-71.061454,42.348182],[-71.061472,42.34815]]],[[[-71.061452,42.348248],[-71.061443,42.348231],[-71.061408,42.348226],[-71.061361,42.34826],[-71.061361,42.348279],[-71.061403,42.348292],[-71.061452,42.348248]]],[[[-71.06145,42.349534],[-71.061435,42.349509],[-71.061382,42.349501],[-71.061321,42.349557],[-71.061351,42.34959],[-71.061389,42.34959],[-71.06145,42.349534]]],[[[-71.061438,42.349255],[-71.06142,42.349242],[-71.061381,42.349271],[-71.061399,42.349284],[-71.061438,42.349255]]],[[[-71.061418,42.351122],[-71.0614,42.351109],[-71.061363,42.351136],[-71.061382,42.351149],[-71.061418,42.351122]]],[[[-71.061399,42.349052],[-71.06138,42.349038],[-71.061337,42.34907],[-71.061356,42.349084],[-71.061399,42.349052]]],[[[-71.061397,42.35118],[-71.061379,42.351167],[-71.061342,42.351194],[-71.061361,42.351207],[-71.061397,42.35118]]],[[[-71.061371,42.35124],[-71.061353,42.351227],[-71.061316,42.351254],[-71.061335,42.351267],[-71.061371,42.35124]]],[[[-71.061368,42.34943],[-71.06135,42.349417],[-71.061313,42.349444],[-71.061332,42.349457],[-71.061368,42.34943]]],[[[-71.061352,42.351289],[-71.061334,42.351276],[-71.061297,42.351303],[-71.061316,42.351316],[-71.061352,42.351289]]],[[[-71.061349,42.349228],[-71.061309,42.349208],[-71.061263,42.349249],[-71.061303,42.349269],[-71.061349,42.349228]]],[[[-71.061282,42.34963],[-71.061264,42.349617],[-71.061226,42.349645],[-71.061244,42.349658],[-71.061282,42.34963]]],[[[-71.061261,42.349678],[-71.061243,42.349665],[-71.061205,42.349693],[-71.061223,42.349706],[-71.061261,42.349678]]],[[[-71.061244,42.35337],[-71.061226,42.353357],[-71.061189,42.353384],[-71.061208,42.353397],[-71.061244,42.35337]]],[[[-71.061238,42.354774],[-71.06122,42.354761],[-71.061183,42.354788],[-71.061202,42.354801],[-71.061238,42.354774]]],[[[-71.061222,42.34983],[-71.06121,42.349808],[-71.061164,42.349801],[-71.061105,42.349855],[-71.061131,42.349883],[-71.061163,42.349883],[-71.061222,42.34983]]],[[[-71.061188,42.354916],[-71.06117,42.354903],[-71.061133,42.35493],[-71.061152,42.354943],[-71.061188,42.354916]]],[[[-71.061188,42.353344],[-71.06117,42.353331],[-71.061133,42.353358],[-71.061152,42.353371],[-71.061188,42.353344]]],[[[-71.061156,42.35003],[-71.061141,42.350003],[-71.061084,42.349995],[-71.061015,42.350058],[-71.061047,42.350093],[-71.061087,42.350093],[-71.061156,42.35003]]],[[[-71.061138,42.35332],[-71.06112,42.353307],[-71.061083,42.353334],[-71.061102,42.353347],[-71.061138,42.35332]]],[[[-71.061048,42.353275],[-71.06103,42.353262],[-71.060991,42.353291],[-71.061009,42.353304],[-71.061048,42.353275]]],[[[-71.061038,42.34849],[-71.06102,42.348477],[-71.060984,42.348504],[-71.061002,42.348517],[-71.061038,42.34849]]],[[[-71.061032,42.348602],[-71.061017,42.348575],[-71.06096,42.348567],[-71.060891,42.34863],[-71.060923,42.348665],[-71.060963,42.348665],[-71.061032,42.348602]]],[[[-71.061005,42.348717],[-71.060989,42.348688],[-71.060929,42.348679],[-71.060872,42.348717],[-71.060856,42.348746],[-71.06089,42.348783],[-71.060932,42.348783],[-71.060989,42.348746],[-71.061005,42.348717]]],[[[-71.060988,42.353363],[-71.06097,42.35335],[-71.060933,42.353377],[-71.060952,42.35339],[-71.060988,42.353363]]],[[[-71.060942,42.348827],[-71.06093,42.348805],[-71.060884,42.348798],[-71.060825,42.348852],[-71.060851,42.34888],[-71.060883,42.34888],[-71.060942,42.348827]]],[[[-71.060938,42.35322],[-71.06092,42.353207],[-71.060883,42.353234],[-71.060902,42.353247],[-71.060938,42.35322]]],[[[-71.060923,42.35333],[-71.060905,42.353317],[-71.060867,42.353345],[-71.060885,42.353358],[-71.060923,42.35333]]],[[[-71.060862,42.353302],[-71.060844,42.353289],[-71.060807,42.353316],[-71.060826,42.353329],[-71.060862,42.353302]]],[[[-71.060847,42.349174],[-71.060827,42.349137],[-71.060749,42.349125],[-71.06068,42.34917],[-71.060659,42.349208],[-71.060703,42.349257],[-71.060758,42.349257],[-71.060827,42.349211],[-71.060847,42.349174]]],[[[-71.060733,42.34939],[-71.060718,42.349365],[-71.060665,42.349357],[-71.060604,42.349413],[-71.060634,42.349446],[-71.060672,42.349446],[-71.060733,42.34939]]],[[[-71.060695,42.349506],[-71.06068,42.349481],[-71.060627,42.349473],[-71.060561,42.349533],[-71.060591,42.349566],[-71.060629,42.349566],[-71.060695,42.349506]]],[[[-71.060628,42.34926],[-71.06061,42.349247],[-71.060579,42.349264],[-71.060589,42.349287],[-71.060559,42.349304],[-71.060559,42.349323],[-71.060603,42.34931],[-71.060593,42.349287],[-71.060628,42.34926]]],[[[-71.060609,42.34967],[-71.060594,42.349645],[-71.060541,42.349637],[-71.060475,42.349697],[-71.060505,42.34973],[-71.060543,42.34973],[-71.060609,42.34967]]],[[[-71.060598,42.35304],[-71.06058,42.353027],[-71.060543,42.353054],[-71.060562,42.353067],[-71.060598,42.35304]]],[[[-71.060588,42.349342],[-71.06057,42.349329],[-71.060533,42.349356],[-71.060552,42.349369],[-71.060588,42.349342]]],[[[-71.060582,42.349792],[-71.060567,42.349765],[-71.06051,42.349757],[-71.060441,42.34982],[-71.060473,42.349855],[-71.060513,42.349855],[-71.060582,42.349792]]],[[[-71.060558,42.349407],[-71.06054,42.349394],[-71.060503,42.349421],[-71.060522,42.349434],[-71.060558,42.349407]]],[[[-71.060548,42.349453],[-71.06053,42.34944],[-71.060492,42.349468],[-71.06051,42.349481],[-71.060548,42.349453]]],[[[-71.060538,42.349503],[-71.06052,42.34949],[-71.060482,42.349518],[-71.0605,42.349531],[-71.060538,42.349503]]],[[[-71.060518,42.352997],[-71.0605,42.352984],[-71.060463,42.353011],[-71.060482,42.353024],[-71.060518,42.352997]]],[[[-71.060508,42.353283],[-71.06049,42.35327],[-71.060452,42.353298],[-71.06047,42.353311],[-71.060508,42.353283]]],[[[-71.060504,42.35315],[-71.060486,42.353137],[-71.060449,42.353164],[-71.060468,42.353177],[-71.060504,42.35315]]],[[[-71.060504,42.3496],[-71.060486,42.349587],[-71.060455,42.349604],[-71.060467,42.349627],[-71.060439,42.349644],[-71.060439,42.349663],[-71.060483,42.34965],[-71.060471,42.349627],[-71.060504,42.3496]]],[[[-71.060504,42.349556],[-71.060486,42.349543],[-71.060449,42.34957],[-71.060468,42.349583],[-71.060504,42.349556]]],[[[-71.060468,42.352974],[-71.06045,42.352961],[-71.060412,42.352989],[-71.06043,42.353002],[-71.060468,42.352974]]],[[[-71.060428,42.3531],[-71.06041,42.353087],[-71.060373,42.353114],[-71.060392,42.353127],[-71.060428,42.3531]]],[[[-71.060419,42.353405],[-71.060413,42.35337],[-71.060365,42.353378],[-71.060312,42.353418],[-71.060303,42.353461],[-71.060335,42.35347],[-71.060419,42.353405]]],[[[-71.060388,42.349884],[-71.06037,42.349871],[-71.060332,42.349899],[-71.06035,42.349912],[-71.060388,42.349884]]],[[[-71.060374,42.35307],[-71.060356,42.353057],[-71.060319,42.353084],[-71.060338,42.353097],[-71.060374,42.35307]]],[[[-71.060318,42.350037],[-71.0603,42.350024],[-71.060263,42.350051],[-71.060282,42.350064],[-71.060318,42.350037]]],[[[-71.060314,42.35015],[-71.060287,42.350119],[-71.060297,42.3501],[-71.060273,42.350093],[-71.060185,42.350173],[-71.060215,42.350206],[-71.060253,42.350206],[-71.060314,42.35015]]],[[[-71.060174,42.34947],[-71.060163,42.34945],[-71.06012,42.349443],[-71.060067,42.349483],[-71.060067,42.349505],[-71.060118,42.34952],[-71.060174,42.34947]]],[[[-71.060158,42.352962],[-71.06014,42.352949],[-71.060103,42.352976],[-71.060122,42.352989],[-71.060158,42.352962]]],[[[-71.060119,42.349556],[-71.060079,42.349536],[-71.060033,42.349577],[-71.060073,42.349597],[-71.060119,42.349556]]],[[[-71.060105,42.35341],[-71.060092,42.353386],[-71.060043,42.353379],[-71.05998,42.353436],[-71.060008,42.353467],[-71.060043,42.353467],[-71.060105,42.35341]]],[[[-71.060086,42.349644],[-71.060075,42.349625],[-71.060036,42.34962],[-71.059987,42.349657],[-71.059987,42.349677],[-71.060033,42.349691],[-71.060086,42.349644]]],[[[-71.059972,42.351044],[-71.05996,42.351022],[-71.059914,42.351015],[-71.059855,42.351069],[-71.059881,42.351097],[-71.059913,42.351097],[-71.059972,42.351044]]],[[[-71.059901,42.351135],[-71.059865,42.351117],[-71.059823,42.351155],[-71.059859,42.351172],[-71.059901,42.351135]]],[[[-71.059858,42.3533],[-71.05984,42.353287],[-71.059803,42.353314],[-71.059822,42.353327],[-71.059858,42.3533]]],[[[-71.059822,42.35326],[-71.05981,42.353238],[-71.059764,42.353231],[-71.059705,42.353285],[-71.059731,42.353313],[-71.059763,42.353313],[-71.059822,42.35326]]],[[[-71.059758,42.352753],[-71.05974,42.35274],[-71.059702,42.352768],[-71.05972,42.352781],[-71.059758,42.352753]]],[[[-71.059688,42.352737],[-71.05967,42.352724],[-71.059632,42.352752],[-71.05965,42.352765],[-71.059688,42.352737]]],[[[-71.059669,42.354954],[-71.059629,42.354934],[-71.059583,42.354975],[-71.059623,42.354995],[-71.059669,42.354954]]],[[[-71.059649,42.35171],[-71.059634,42.351685],[-71.0596,42.351674],[-71.059541,42.351703],[-71.059518,42.351697],[-71.059482,42.351728],[-71.059569,42.351769],[-71.059603,42.351759],[-71.059649,42.35171]]],[[[-71.059634,42.35273],[-71.059616,42.352717],[-71.059578,42.352745],[-71.059596,42.352758],[-71.059634,42.35273]]],[[[-71.059622,42.35492],[-71.05955,42.354866],[-71.059491,42.354902],[-71.059498,42.354929],[-71.059561,42.354966],[-71.059622,42.35492]]],[[[-71.059589,42.352783],[-71.059574,42.352758],[-71.059521,42.35275],[-71.05946,42.352806],[-71.05949,42.352839],[-71.059528,42.352839],[-71.059589,42.352783]]],[[[-71.059562,42.3516],[-71.059553,42.351583],[-71.059518,42.351578],[-71.059471,42.351612],[-71.059471,42.351631],[-71.059513,42.351644],[-71.059562,42.3516]]],[[[-71.059518,42.351097],[-71.0595,42.351084],[-71.059463,42.351111],[-71.059482,42.351124],[-71.059518,42.351097]]],[[[-71.059482,42.354813],[-71.059473,42.354796],[-71.059438,42.354791],[-71.059391,42.354825],[-71.059391,42.354844],[-71.059433,42.354857],[-71.059482,42.354813]]],[[[-71.059478,42.35117],[-71.05946,42.351157],[-71.059423,42.351184],[-71.059442,42.351197],[-71.059478,42.35117]]],[[[-71.059456,42.351627],[-71.05942,42.351609],[-71.059378,42.351647],[-71.059414,42.351664],[-71.059456,42.351627]]],[[[-71.059432,42.354774],[-71.059389,42.354714],[-71.059364,42.354707],[-71.059298,42.354756],[-71.059308,42.354774],[-71.059347,42.35478],[-71.059348,42.354813],[-71.059371,42.35482],[-71.059432,42.354774]]],[[[-71.059428,42.3531],[-71.05941,42.353087],[-71.059373,42.353114],[-71.059392,42.353127],[-71.059428,42.3531]]],[[[-71.059418,42.35301],[-71.0594,42.352997],[-71.059363,42.353024],[-71.059382,42.353037],[-71.059418,42.35301]]],[[[-71.059387,42.351704],[-71.059364,42.351687],[-71.059316,42.351723],[-71.059339,42.351739],[-71.059387,42.351704]]],[[[-71.059323,42.35178],[-71.0593,42.351763],[-71.059252,42.351799],[-71.059275,42.351815],[-71.059323,42.35178]]],[[[-71.059219,42.35129],[-71.059204,42.351265],[-71.059176,42.351255],[-71.059187,42.351235],[-71.059129,42.351197],[-71.059076,42.351205],[-71.059025,42.351257],[-71.05904,42.351282],[-71.059074,42.351293],[-71.059136,42.351262],[-71.059089,42.351303],[-71.059096,42.351338],[-71.059059,42.35137],[-71.059059,42.351397],[-71.059085,42.351417],[-71.059123,42.351417],[-71.059174,42.351382],[-71.059189,42.351357],[-71.059178,42.351335],[-71.059219,42.35129]]],[[[-71.059184,42.353294],[-71.059166,42.353281],[-71.059129,42.353308],[-71.059148,42.353321],[-71.059184,42.353294]]],[[[-71.059098,42.35146],[-71.05908,42.351447],[-71.059043,42.351474],[-71.059062,42.351487],[-71.059098,42.35146]]],[[[-71.059092,42.354385],[-71.059083,42.354368],[-71.059048,42.354363],[-71.059001,42.354397],[-71.059001,42.354416],[-71.059043,42.354429],[-71.059092,42.354385]]],[[[-71.059088,42.353287],[-71.05907,42.353274],[-71.059033,42.353301],[-71.059052,42.353314],[-71.059088,42.353287]]],[[[-71.059066,42.351517],[-71.05903,42.351499],[-71.058988,42.351537],[-71.059024,42.351554],[-71.059066,42.351517]]],[[[-71.059018,42.354332],[-71.059,42.354319],[-71.058963,42.354346],[-71.058982,42.354359],[-71.059018,42.354332]]],[[[-71.059006,42.351604],[-71.05897,42.351578],[-71.058914,42.351608],[-71.058891,42.351662],[-71.058737,42.351793],[-71.058739,42.351822],[-71.058701,42.351818],[-71.058657,42.351848],[-71.058648,42.35188],[-71.058567,42.351957],[-71.058509,42.351959],[-71.058452,42.351997],[-71.058418,42.352043],[-71.058337,42.352102],[-71.058337,42.352121],[-71.058423,42.352131],[-71.058569,42.352026],[-71.058598,42.351967],[-71.058683,42.351923],[-71.05869,42.351897],[-71.058875,42.351757],[-71.05892,42.351681],[-71.059006,42.351604]]],[[[-71.058998,42.353283],[-71.05898,42.35327],[-71.058943,42.353297],[-71.058962,42.35331],[-71.058998,42.353283]]],[[[-71.058959,42.35429],[-71.05894,42.354276],[-71.058897,42.354308],[-71.058916,42.354322],[-71.058959,42.35429]]],[[[-71.058864,42.353268],[-71.058846,42.353255],[-71.058809,42.353282],[-71.058828,42.353295],[-71.058864,42.353268]]],[[[-71.058758,42.353268],[-71.05874,42.353255],[-71.058703,42.353282],[-71.058722,42.353295],[-71.058758,42.353268]]],[[[-71.058568,42.35253],[-71.05855,42.352517],[-71.058513,42.352544],[-71.058532,42.352557],[-71.058568,42.35253]]],[[[-71.058508,42.352524],[-71.05849,42.352511],[-71.058453,42.352538],[-71.058472,42.352551],[-71.058508,42.352524]]],[[[-71.058499,42.35248],[-71.05848,42.352466],[-71.058437,42.352498],[-71.058456,42.352512],[-71.058499,42.35248]]],[[[-71.058428,42.352528],[-71.05841,42.352515],[-71.058372,42.352543],[-71.05839,42.352556],[-71.058428,42.352528]]],[[[-71.058388,42.35247],[-71.05837,42.352457],[-71.058333,42.352484],[-71.058352,42.352497],[-71.058388,42.35247]]],[[[-71.058348,42.35252],[-71.05833,42.352507],[-71.058293,42.352534],[-71.058312,42.352547],[-71.058348,42.35252]]],[[[-71.058288,42.35091],[-71.05827,42.350897],[-71.058233,42.350924],[-71.058252,42.350937],[-71.058288,42.35091]]],[[[-71.058278,42.352467],[-71.05826,42.352454],[-71.058223,42.352481],[-71.058242,42.352494],[-71.058278,42.352467]]],[[[-71.058268,42.352512],[-71.05825,42.352499],[-71.058213,42.352526],[-71.058232,42.352539],[-71.058268,42.352512]]],[[[-71.058218,42.350887],[-71.0582,42.350874],[-71.058163,42.350901],[-71.058182,42.350914],[-71.058218,42.350887]]],[[[-71.058038,42.352665],[-71.05802,42.352652],[-71.057983,42.352679],[-71.058002,42.352692],[-71.058038,42.352665]]],[[[-71.058032,42.352768],[-71.058014,42.352755],[-71.057977,42.352782],[-71.057996,42.352795],[-71.058032,42.352768]]],[[[-71.058008,42.352905],[-71.05799,42.352892],[-71.057953,42.352919],[-71.057972,42.352932],[-71.058008,42.352905]]],[[[-71.057803,42.350693],[-71.057785,42.35068],[-71.057748,42.350707],[-71.057767,42.35072],[-71.057803,42.350693]]],[[[-71.057758,42.350677],[-71.05774,42.350664],[-71.057703,42.350691],[-71.057722,42.350704],[-71.057758,42.350677]]],[[[-71.05775,42.352226],[-71.057714,42.352208],[-71.057672,42.352246],[-71.057708,42.352263],[-71.05775,42.352226]]],[[[-71.057623,42.35219],[-71.057583,42.35217],[-71.057537,42.352211],[-71.057577,42.352231],[-71.057623,42.35219]]],[[[-71.057536,42.35216],[-71.0575,42.352142],[-71.057458,42.35218],[-71.057494,42.352197],[-71.057536,42.35216]]],[[[-71.057456,42.35214],[-71.05742,42.352122],[-71.057378,42.35216],[-71.057414,42.352177],[-71.057456,42.35214]]],[[[-71.057414,42.350403],[-71.057396,42.35039],[-71.057359,42.350417],[-71.057378,42.35043],[-71.057414,42.350403]]],[[[-71.057398,42.350494],[-71.05738,42.350481],[-71.057343,42.350508],[-71.057362,42.350521],[-71.057398,42.350494]]],[[[-71.057369,42.35211],[-71.057329,42.35209],[-71.057283,42.352131],[-71.057323,42.352151],[-71.057369,42.35211]]],[[[-71.057348,42.351707],[-71.05733,42.351694],[-71.057292,42.351722],[-71.05731,42.351735],[-71.057348,42.351707]]],[[[-71.057338,42.35175],[-71.05732,42.351737],[-71.057283,42.351764],[-71.057302,42.351777],[-71.057338,42.35175]]],[[[-71.057309,42.351897],[-71.057291,42.351884],[-71.057254,42.351911],[-71.057273,42.351924],[-71.057309,42.351897]]],[[[-71.057298,42.351955],[-71.05728,42.351942],[-71.057245,42.351968],[-71.057263,42.351981],[-71.057298,42.351955]]],[[[-71.057298,42.350925],[-71.05728,42.350912],[-71.057241,42.350941],[-71.057259,42.350954],[-71.057298,42.350925]]],[[[-71.057268,42.351063],[-71.05725,42.35105],[-71.057211,42.351079],[-71.057229,42.351092],[-71.057268,42.351063]]],[[[-71.057208,42.35141],[-71.05719,42.351397],[-71.057153,42.351424],[-71.057172,42.351437],[-71.057208,42.35141]]],[[[-71.057198,42.35055],[-71.05718,42.350537],[-71.057143,42.350564],[-71.057162,42.350577],[-71.057198,42.35055]]],[[[-71.057147,42.350632],[-71.057129,42.350619],[-71.057092,42.350646],[-71.057111,42.350659],[-71.057147,42.350632]]],[[[-71.057094,42.350533],[-71.057076,42.35052],[-71.057039,42.350547],[-71.057058,42.35056],[-71.057094,42.350533]]],[[[-71.057038,42.34984],[-71.05702,42.349827],[-71.056983,42.349854],[-71.057002,42.349867],[-71.057038,42.34984]]],[[[-71.057022,42.349903],[-71.057013,42.349886],[-71.056978,42.349881],[-71.056931,42.349915],[-71.056931,42.349934],[-71.056973,42.349947],[-71.057022,42.349903]]],[[[-71.056868,42.352028],[-71.05685,42.352015],[-71.056809,42.352045],[-71.056828,42.352058],[-71.056868,42.352028]]],[[[-71.056834,42.35023],[-71.056816,42.350217],[-71.056779,42.350244],[-71.056798,42.350257],[-71.056834,42.35023]]],[[[-71.056829,42.34976],[-71.056818,42.34974],[-71.056775,42.349733],[-71.056722,42.349773],[-71.056722,42.349795],[-71.056773,42.34981],[-71.056829,42.34976]]],[[[-71.056798,42.350307],[-71.05678,42.350294],[-71.056743,42.350321],[-71.056762,42.350334],[-71.056798,42.350307]]],[[[-71.056792,42.34984],[-71.05676,42.349816],[-71.056701,42.349852],[-71.056708,42.349879],[-71.056645,42.349938],[-71.056674,42.349971],[-71.056604,42.350015],[-71.056615,42.350055],[-71.056668,42.350062],[-71.056725,42.35002],[-71.056725,42.349992],[-71.0567,42.349973],[-71.05677,42.349929],[-71.05677,42.349901],[-71.056746,42.349883],[-71.056792,42.34984]]],[[[-71.056748,42.351994],[-71.05673,42.351981],[-71.056691,42.35201],[-71.056709,42.352023],[-71.056748,42.351994]]],[[[-71.056659,42.350094],[-71.056619,42.350074],[-71.056573,42.350115],[-71.056613,42.350135],[-71.056659,42.350094]]],[[[-71.056643,42.350613],[-71.056625,42.3506],[-71.056584,42.35063],[-71.056603,42.350643],[-71.056643,42.350613]]],[[[-71.056626,42.353203],[-71.05659,42.353185],[-71.056548,42.353223],[-71.056584,42.35324],[-71.056626,42.353203]]],[[[-71.056622,42.350185],[-71.056613,42.350168],[-71.056578,42.350163],[-71.056531,42.350197],[-71.056531,42.350216],[-71.056573,42.350229],[-71.056622,42.350185]]],[[[-71.056608,42.35068],[-71.05659,42.350667],[-71.056549,42.350697],[-71.056568,42.35071],[-71.056608,42.35068]]],[[[-71.056559,42.353165],[-71.05654,42.353151],[-71.056497,42.353183],[-71.056516,42.353197],[-71.056559,42.353165]]],[[[-71.056559,42.350834],[-71.056544,42.350809],[-71.056491,42.350801],[-71.05643,42.350857],[-71.05646,42.35089],[-71.056498,42.35089],[-71.056559,42.350834]]],[[[-71.056484,42.353127],[-71.056465,42.353113],[-71.056422,42.353145],[-71.056441,42.353159],[-71.056484,42.353127]]],[[[-71.056468,42.35192],[-71.05645,42.351907],[-71.056409,42.351937],[-71.056428,42.35195],[-71.056468,42.35192]]],[[[-71.056428,42.35103],[-71.05641,42.351017],[-71.056373,42.351044],[-71.056392,42.351057],[-71.056428,42.35103]]],[[[-71.056398,42.351097],[-71.05638,42.351084],[-71.056339,42.351114],[-71.056358,42.351127],[-71.056398,42.351097]]],[[[-71.056393,42.35309],[-71.05637,42.353073],[-71.056322,42.353109],[-71.056345,42.353125],[-71.056393,42.35309]]],[[[-71.056388,42.3519],[-71.05637,42.351887],[-71.056335,42.351913],[-71.056353,42.351926],[-71.056388,42.3519]]],[[[-71.056364,42.351176],[-71.056346,42.351163],[-71.056309,42.35119],[-71.056328,42.351203],[-71.056364,42.351176]]],[[[-71.056338,42.35493],[-71.05632,42.354917],[-71.056279,42.354947],[-71.056298,42.35496],[-71.056338,42.35493]]],[[[-71.056328,42.354836],[-71.05631,42.354823],[-71.056269,42.354853],[-71.056288,42.354866],[-71.056328,42.354836]]],[[[-71.056309,42.35475],[-71.05629,42.354736],[-71.056247,42.354768],[-71.056266,42.354782],[-71.056309,42.35475]]],[[[-71.056306,42.35467],[-71.05627,42.354652],[-71.056228,42.35469],[-71.056264,42.354707],[-71.056306,42.35467]]],[[[-71.056258,42.351376],[-71.05624,42.351363],[-71.056207,42.351381],[-71.056157,42.351474],[-71.056203,42.35146],[-71.056203,42.35144],[-71.056234,42.351421],[-71.056258,42.351376]]],[[[-71.056256,42.350842],[-71.056238,42.350829],[-71.056197,42.350859],[-71.056216,42.350872],[-71.056256,42.350842]]],[[[-71.056248,42.35305],[-71.05623,42.353037],[-71.056193,42.353064],[-71.056212,42.353077],[-71.056248,42.35305]]],[[[-71.056226,42.350933],[-71.056208,42.35092],[-71.056167,42.35095],[-71.056186,42.350963],[-71.056226,42.350933]]],[[[-71.056186,42.351036],[-71.056168,42.351023],[-71.056127,42.351053],[-71.056146,42.351066],[-71.056186,42.351036]]],[[[-71.056148,42.351145],[-71.05613,42.351132],[-71.056089,42.351162],[-71.056108,42.351175],[-71.056148,42.351145]]],[[[-71.056078,42.35171],[-71.05606,42.351697],[-71.056022,42.351725],[-71.05604,42.351738],[-71.056078,42.35171]]],[[[-71.055977,42.351355],[-71.055959,42.351342],[-71.055918,42.351372],[-71.055937,42.351385],[-71.055977,42.351355]]],[[[-71.055953,42.351412],[-71.055935,42.351399],[-71.055894,42.351429],[-71.055913,42.351442],[-71.055953,42.351412]]],[[[-71.05592,42.351482],[-71.055902,42.351469],[-71.055861,42.351499],[-71.05588,42.351512],[-71.05592,42.351482]]],[[[-71.055888,42.351561],[-71.05587,42.351548],[-71.055829,42.351578],[-71.055848,42.351591],[-71.055888,42.351561]]],[[[-71.055869,42.352226],[-71.055839,42.352193],[-71.055786,42.352201],[-71.05571,42.352285],[-71.05571,42.352313],[-71.055755,42.352335],[-71.055789,42.352325],[-71.055831,42.35229],[-71.055869,42.352226]]],[[[-71.055859,42.351622],[-71.055841,42.351609],[-71.0558,42.351639],[-71.055819,42.351652],[-71.055859,42.351622]]],[[[-71.055808,42.351727],[-71.05579,42.351714],[-71.055749,42.351744],[-71.055768,42.351757],[-71.055808,42.351727]]],[[[-71.055788,42.353336],[-71.055768,42.353314],[-71.055733,42.353319],[-71.055697,42.353348],[-71.055697,42.353367],[-71.055589,42.353437],[-71.055589,42.353458],[-71.055616,42.353458],[-71.055645,42.35343],[-71.055688,42.35343],[-71.055716,42.353409],[-71.055717,42.35338],[-71.05575,42.353375],[-71.055788,42.353336]]],[[[-71.055788,42.351776],[-71.05577,42.351763],[-71.055729,42.351793],[-71.055748,42.351806],[-71.055788,42.351776]]],[[[-71.055558,42.353497],[-71.05554,42.353484],[-71.055499,42.353514],[-71.055518,42.353527],[-71.055558,42.353497]]],[[[-71.055498,42.35353],[-71.05548,42.353517],[-71.055442,42.353545],[-71.05546,42.353558],[-71.055498,42.35353]]],[[[-71.055262,42.353653],[-71.055244,42.35364],[-71.055199,42.353652],[-71.055122,42.353719],[-71.055161,42.35373],[-71.055262,42.353653]]]]},"properties":{"kind":"tree"}}]}