{"type":"FeatureCollection","features":[{"type":"Feature","geometry":{"type":"MultiPolygon","coordinates":[[[[-71.06703,42.351826],[-71.067007,42.351692],[-71.066747,42.351106],[-71.065467,42.351257],[-71.064967,42.35123],[-71.064811,42.351305],[-71.064707,42.35171],[-71.064801,42.351727],[-71.064627,42.351811],[-71.064468,42.352419],[-71.065278,42.35247],[-71.065361,42.352429],[-71.065479,42.352438],[-71.065474,42.35247],[-71.065671,42.352485],[-71.065822,42.352413],[-71.065827,42.352454],[-71.065923,42.352459],[-71.066063,42.352392],[-71.066077,42.352206],[-71.066195,42.352205],[-71.06627,42.352169],[-71.066292,42.351929],[-71.066642,42.35197],[-71.066825,42.351925],[-71.06703,42.351826]],[[-71.065992,42.351884],[-71.065953,42.351903],[-71.065928,42.352094],[-71.0659,42.352091],[-71.065927,42.351875],[-71.065992,42.351884]]],[[[-71.066483,42.348529],[-71.06591,42.348462],[-71.065995,42.348064],[-71.065837,42.348044],[-71.065637,42.34814],[-71.065552,42.34854],[-71.065619,42.348549],[-71.065605,42.348556],[-71.06559,42.348625],[-71.065686,42.348636],[-71.065746,42.348607],[-71.065762,42.348661],[-71.0663,42.348724],[-71.066458,42.348649],[-71.066483,42.348529]]],[[[-71.066107,42.349483],[-71.066051,42.349385],[-71.065938,42.34943],[-71.065968,42.349485],[-71.06562,42.349445],[-71.065521,42.349461],[-71.065404,42.349517],[-71.065314,42.349937],[-71.065164,42.350009],[-71.065076,42.350319],[-71.065247,42.350353],[-71.065185,42.350608],[-71.065306,42.350627],[-71.065299,42.350648],[-71.065321,42.350651],[-71.06521,42.350652],[-71.064883,42.350809],[-71.064812,42.35106],[-71.064831,42.351093],[-71.065047,42.351159],[-71.065449,42.351182],[-71.065664,42.351152],[-71.065991,42.350995],[-71.065959,42.350666],[-71.065719,42.350662],[-71.065953,42.350615],[-71.06593,42.350327],[-71.065758,42.350337],[-71.065625,42.35037],[-71.065578,42.350352],[-71.065649,42.350347],[-71.065916,42.350219],[-71.065881,42.34989],[-71.065776,42.349769],[-71.06566,42.349801],[-71.065701,42.349605],[-71.065813,42.349749],[-71.066095,42.349646],[-71.066022,42.349518],[-71.066107,42.349483]],[[-71.065541,42.350658],[-71.065529,42.350658],[-71.065533,42.350657],[-71.065541,42.350658]]],[[[-71.065565,42.354342],[-71.065534,42.354305],[-71.065487,42.354301],[-71.065408,42.354338],[-71.065395,42.354381],[-71.065418,42.354405],[-71.065464,42.354414],[-71.065545,42.354379],[-71.065565,42.354342]]],[[[-71.065529,42.347903],[-71.065483,42.347819],[-71.065392,42.347805],[-71.065371,42.347781],[-71.065289,42.347784],[-71.065318,42.347764],[-71.065319,42.347677],[-71.065257,42.347643],[-71.064894,42.347587],[-71.064424,42.347821],[-71.06431,42.348083],[-71.064261,42.348258],[-71.064297,42.348264],[-71.064426,42.348213],[-71.064445,42.348234],[-71.064596,42.348163],[-71.064684,42.348183],[-71.064254,42.348384],[-71.064223,42.348409],[-71.064197,42.348503],[-71.064562,42.348559],[-71.064806,42.348442],[-71.064844,42.348384],[-71.064863,42.348311],[-71.064898,42.348336],[-71.064928,42.348322],[-71.065073,42.348485],[-71.065376,42.348432],[-71.065423,42.34841],[-71.065427,42.34839],[-71.065343,42.348295],[-71.065475,42.348175],[-71.065484,42.348131],[-71.065475,42.348101],[-71.065402,42.348018],[-71.06552,42.347941],[-71.065529,42.347903]]],[[[-71.065421,42.352871],[-71.065303,42.352844],[-71.065275,42.352857],[-71.065258,42.352904],[-71.065284,42.352985],[-71.06535,42.352999],[-71.065378,42.352986],[-71.065421,42.352871]]],[[[-71.06533,42.348887],[-71.065323,42.348802],[-71.065279,42.348688],[-71.064844,42.348594],[-71.064341,42.348545],[-71.064231,42.348603],[-71.064083,42.349017],[-71.064351,42.349059],[-71.064324,42.349121],[-71.064347,42.349149],[-71.064254,42.349194],[-71.064503,42.349363],[-71.06471,42.349262],[-71.06477,42.34928],[-71.065145,42.349103],[-71.065279,42.349075],[-71.06533,42.348887]]],[[[-71.065169,42.349617],[-71.064416,42.349501],[-71.064299,42.349557],[-71.063761,42.349475],[-71.063653,42.349372],[-71.063696,42.349342],[-71.063746,42.349213],[-71.063772,42.349073],[-71.063736,42.349067],[-71.063827,42.348879],[-71.063945,42.348463],[-71.063623,42.348413],[-71.063445,42.348498],[-71.063476,42.348381],[-71.062604,42.34825],[-71.062493,42.348304],[-71.062337,42.348698],[-71.063254,42.348837],[-71.063335,42.348797],[-71.063298,42.348928],[-71.063318,42.349002],[-71.063074,42.348966],[-71.062984,42.349009],[-71.063042,42.348892],[-71.062425,42.348727],[-71.062315,42.34878],[-71.06218,42.349111],[-71.062189,42.349115],[-71.06215,42.349162],[-71.062132,42.349226],[-71.062347,42.349323],[-71.062584,42.349204],[-71.062598,42.349211],[-71.062479,42.349355],[-71.062619,42.349419],[-71.062661,42.3494],[-71.062621,42.349448],[-71.06273,42.349498],[-71.062592,42.349443],[-71.06257,42.349454],[-71.062287,42.349326],[-71.062233,42.349284],[-71.062013,42.349381],[-71.061999,42.349412],[-71.06202,42.349452],[-71.061864,42.349829],[-71.061938,42.34986],[-71.061751,42.34995],[-71.061706,42.350062],[-71.061731,42.350102],[-71.061681,42.350209],[-71.061735,42.350243],[-71.061668,42.350363],[-71.061649,42.35041],[-71.06166,42.350414],[-71.061533,42.350474],[-71.06146,42.350661],[-71.061971,42.350791],[-71.062091,42.350734],[-71.06201,42.35084],[-71.062229,42.3509],[-71.062222,42.350931],[-71.062296,42.350943],[-71.062175,42.351001],[-71.062164,42.351035],[-71.062069,42.351077],[-71.062061,42.351015],[-71.062001,42.351],[-71.062083,42.35096],[-71.062111,42.350892],[-71.061597,42.350765],[-71.061479,42.350822],[-71.061447,42.350902],[-71.061499,42.350914],[-71.061466,42.35093],[-71.06139,42.351166],[-71.061234,42.351241],[-71.061138,42.351482],[-71.061166,42.351509],[-71.061478,42.351499],[-71.061561,42.351459],[-71.061979,42.351446],[-71.062076,42.351399],[-71.062096,42.351476],[-71.06226,42.351516],[-71.062315,42.351503],[-71.062315,42.351516],[-71.062605,42.351584],[-71.062728,42.351525],[-71.062859,42.351039],[-71.062325,42.350947],[-71.062572,42.350981],[-71.062951,42.350799],[-71.063126,42.350261],[-71.063279,42.350187],[-71.063382,42.349972],[-71.063428,42.34981],[-71.063859,42.350296],[-71.063895,42.35032],[-71.064121,42.350211],[-71.064065,42.350245],[-71.063901,42.35051],[-71.063865,42.350497],[-71.063915,42.350416],[-71.063539,42.350364],[-71.063193,42.350531],[-71.063062,42.350743],[-71.063081,42.350975],[-71.063303,42.351008],[-71.063649,42.350841],[-71.063711,42.350844],[-71.063855,42.350908],[-71.064087,42.350932],[-71.063975,42.350986],[-71.063967,42.351041],[-71.063919,42.351064],[-71.063898,42.351106],[-71.064392,42.351165],[-71.064822,42.350958],[-71.064855,42.350843],[-71.064839,42.350841],[-71.064902,42.350642],[-71.064885,42.350635],[-71.0649,42.350628],[-71.065001,42.350248],[-71.064826,42.350187],[-71.064836,42.350152],[-71.064895,42.350161],[-71.065043,42.35009],[-71.065169,42.349617]],[[-71.06259,42.350183],[-71.062563,42.350245],[-71.06253,42.350261],[-71.06259,42.350183]],[[-71.062453,42.349803],[-71.062322,42.34996],[-71.062066,42.349867],[-71.062121,42.349841],[-71.062231,42.349887],[-71.062453,42.349803]]],[[[-71.064745,42.351218],[-71.064502,42.351183],[-71.064457,42.351201],[-71.06446,42.35119],[-71.064438,42.351187],[-71.063934,42.351133],[-71.063908,42.351145],[-71.063049,42.351044],[-71.063004,42.351066],[-71.06297,42.351129],[-71.062873,42.351481],[-71.063215,42.351527],[-71.06312,42.351572],[-71.062895,42.351546],[-71.062662,42.351658],[-71.06213,42.351536],[-71.062023,42.351525],[-71.061289,42.351543],[-71.061111,42.351629],[-71.061174,42.351945],[-71.061264,42.351941],[-71.061294,42.35209],[-71.06117,42.352149],[-71.061179,42.352303],[-71.061203,42.35241],[-71.061411,42.352402],[-71.061419,42.352453],[-71.061597,42.352436],[-71.061644,42.352414],[-71.061654,42.352461],[-71.061819,42.352441],[-71.061926,42.35239],[-71.061921,42.35235],[-71.061941,42.352422],[-71.062021,42.352416],[-71.062079,42.352388],[-71.062083,42.352425],[-71.062359,42.352409],[-71.062499,42.352341],[-71.062555,42.35216],[-71.062643,42.35217],[-71.06263,42.352238],[-71.063319,42.352313],[-71.063428,42.352261],[-71.063427,42.3523],[-71.06345,42.352312],[-71.063963,42.352323],[-71.063951,42.352381],[-71.064228,42.352389],[-71.064484,42.352263],[-71.064616,42.351742],[-71.064516,42.35173],[-71.064631,42.351675],[-71.064664,42.351553],[-71.064318,42.351514],[-71.064331,42.351504],[-71.064591,42.351536],[-71.064671,42.351497],[-71.064745,42.351218]],[[-71.064218,42.35174],[-71.064072,42.35181],[-71.064038,42.35197],[-71.063857,42.351955],[-71.063876,42.351916],[-71.063881,42.351764],[-71.064026,42.351694],[-71.064021,42.351717],[-71.064218,42.35174]],[[-71.063476,42.352169],[-71.063475,42.35217],[-71.063475,42.352169],[-71.063476,42.352169]]],[[[-71.064727,42.352541],[-71.064642,42.352541],[-71.064607,42.352647],[-71.064692,42.352647],[-71.064727,42.352541]]],[[[-71.06461,42.353278],[-71.064542,42.353266],[-71.064522,42.353276],[-71.064488,42.353376],[-71.064556,42.35339],[-71.064576,42.35338],[-71.06461,42.353278]]],[[[-71.064373,42.352435],[-71.064339,42.352409],[-71.063942,42.352395],[-71.063869,42.35243],[-71.063872,42.352394],[-71.063363,42.352382],[-71.063314,42.352406],[-71.063313,42.35239],[-71.062724,42.352454],[-71.062543,42.352541],[-71.06253,42.352557],[-71.06252,42.352748],[-71.062438,42.352788],[-71.062452,42.352508],[-71.062412,42.352483],[-71.061487,42.352561],[-71.061338,42.352633],[-71.061336,42.35258],[-71.061194,42.352592],[-71.060995,42.352688],[-71.060985,42.352601],[-71.060475,42.352641],[-71.060188,42.352643],[-71.060143,42.352665],[-71.060152,42.352762],[-71.060195,42.352768],[-71.060147,42.352922],[-71.060578,42.353134],[-71.060699,42.353076],[-71.060945,42.352799],[-71.060913,42.352893],[-71.060599,42.353229],[-71.060682,42.353278],[-71.060287,42.353467],[-71.060133,42.353635],[-71.059811,42.353458],[-71.059776,42.353475],[-71.059597,42.353398],[-71.059432,42.35339],[-71.059214,42.353495],[-71.059086,42.353609],[-71.059113,42.353625],[-71.058902,42.353835],[-71.059151,42.353977],[-71.059247,42.353938],[-71.059191,42.354004],[-71.059194,42.354036],[-71.059133,42.354047],[-71.05906,42.353989],[-71.059005,42.354015],[-71.05903,42.353974],[-71.058895,42.353885],[-71.058651,42.354003],[-71.058513,42.354131],[-71.05806,42.353838],[-71.058014,42.353836],[-71.05788,42.353901],[-71.057416,42.354644],[-71.057806,42.354763],[-71.057938,42.3547],[-71.058251,42.354395],[-71.05824,42.354388],[-71.058472,42.354181],[-71.058562,42.354248],[-71.058517,42.35427],[-71.057966,42.354795],[-71.057872,42.35484],[-71.057815,42.354895],[-71.05783,42.354925],[-71.057728,42.355025],[-71.057725,42.355048],[-71.057772,42.355066],[-71.057902,42.355068],[-71.057924,42.355112],[-71.058051,42.355127],[-71.058343,42.354995],[-71.058384,42.354955],[-71.058451,42.354923],[-71.058718,42.354674],[-71.058709,42.354669],[-71.058969,42.354454],[-71.058903,42.354404],[-71.059151,42.35443],[-71.059395,42.354312],[-71.059933,42.353851],[-71.059881,42.353908],[-71.059915,42.354038],[-71.05941,42.35443],[-71.059251,42.354575],[-71.059238,42.354634],[-71.059262,42.354671],[-71.059994,42.355236],[-71.060087,42.355192],[-71.060421,42.355423],[-71.060494,42.355388],[-71.060574,42.355319],[-71.061961,42.353992],[-71.06212,42.353988],[-71.061982,42.354137],[-71.062,42.35414],[-71.06189,42.354193],[-71.06172,42.354369],[-71.061679,42.354389],[-71.061612,42.354458],[-71.061644,42.354473],[-71.061462,42.354634],[-71.061376,42.354683],[-71.061157,42.354888],[-71.061209,42.354915],[-71.061114,42.354961],[-71.06092,42.355144],[-71.061233,42.355301],[-71.061373,42.355233],[-71.061545,42.355046],[-71.061477,42.35501],[-71.061536,42.354981],[-71.062075,42.355259],[-71.062184,42.355207],[-71.06228,42.355104],[-71.06243,42.355195],[-71.06249,42.355166],[-71.062591,42.355223],[-71.062691,42.355175],[-71.06272,42.355145],[-71.062986,42.355285],[-71.063118,42.355222],[-71.063162,42.355181],[-71.063177,42.355145],[-71.063115,42.355111],[-71.063255,42.355044],[-71.063852,42.353943],[-71.063862,42.353896],[-71.0638,42.353877],[-71.063892,42.353833],[-71.063998,42.353634],[-71.063768,42.353564],[-71.063598,42.353646],[-71.063669,42.353512],[-71.063699,42.353388],[-71.063651,42.353352],[-71.063204,42.353334],[-71.063064,42.353401],[-71.06272,42.353391],[-71.062266,42.35361],[-71.062384,42.353374],[-71.062424,42.353386],[-71.062677,42.353264],[-71.063998,42.353367],[-71.064146,42.353296],[-71.064309,42.35284],[-71.064258,42.352836],[-71.064309,42.352812],[-71.064353,42.352644],[-71.064373,42.352435]],[[-71.063413,42.353912],[-71.06333,42.353952],[-71.063281,42.35403],[-71.062953,42.354007],[-71.063026,42.353972],[-71.063052,42.35386],[-71.063328,42.353873],[-71.063397,42.353839],[-71.063361,42.353897],[-71.063413,42.353912]],[[-71.062782,42.354654],[-71.062587,42.354867],[-71.062536,42.354833],[-71.062655,42.354776],[-71.062782,42.354654]],[[-71.062613,42.35451],[-71.062602,42.35452],[-71.062595,42.354507],[-71.062613,42.35451]],[[-71.062331,42.354743],[-71.062231,42.354791],[-71.062169,42.354859],[-71.062068,42.354824],[-71.062203,42.35468],[-71.062331,42.354743]],[[-71.062167,42.354648],[-71.062164,42.354652],[-71.062162,42.354651],[-71.062167,42.354648]],[[-71.06216,42.353142],[-71.0621,42.353171],[-71.061576,42.3532],[-71.061304,42.353318],[-71.061354,42.353176],[-71.06216,42.353142]],[[-71.06199,42.354635],[-71.0619,42.354736],[-71.061845,42.354707],[-71.061935,42.354609],[-71.06199,42.354635]],[[-71.061919,42.35386],[-71.061917,42.353862],[-71.061915,42.353862],[-71.061919,42.35386]],[[-71.061296,42.35359],[-71.061262,42.353607],[-71.061135,42.353545],[-71.061166,42.353496],[-71.061088,42.353457],[-71.061257,42.353376],[-71.06122,42.353553],[-71.061296,42.35359]],[[-71.060129,42.353639],[-71.060076,42.353696],[-71.060068,42.3537],[-71.060129,42.353639]],[[-71.059543,42.35356],[-71.05953,42.353552],[-71.059536,42.353549],[-71.059543,42.35356]],[[-71.058774,42.354274],[-71.058744,42.354303],[-71.058684,42.354259],[-71.058727,42.354238],[-71.058774,42.354274]],[[-71.058071,42.354276],[-71.058064,42.354285],[-71.058008,42.354268],[-71.058019,42.354256],[-71.058071,42.354276]]],[[[-71.064113,42.347947],[-71.063968,42.347919],[-71.063726,42.348047],[-71.063704,42.348126],[-71.063538,42.348106],[-71.063606,42.347866],[-71.06346,42.347843],[-71.063406,42.347869],[-71.063298,42.348225],[-71.063953,42.348323],[-71.06402,42.348291],[-71.064113,42.347947]]],[[[-71.064097,42.353425],[-71.063837,42.353375],[-71.063753,42.353415],[-71.063712,42.353529],[-71.063968,42.353594],[-71.064052,42.353554],[-71.064097,42.353425]]],[[[-71.063935,42.354829],[-71.063869,42.354811],[-71.06385,42.35482],[-71.063827,42.354869],[-71.063893,42.354886],[-71.063912,42.354877],[-71.063935,42.354829]]],[[[-71.063301,42.347999],[-71.062961,42.347921],[-71.06291,42.347946],[-71.062893,42.347988],[-71.062855,42.347962],[-71.062735,42.347939],[-71.06267,42.34797],[-71.062626,42.348082],[-71.062808,42.348125],[-71.062871,42.348095],[-71.062886,42.348057],[-71.062872,42.348047],[-71.062894,42.348036],[-71.063017,42.348054],[-71.063003,42.348108],[-71.06305,42.348117],[-71.063115,42.348074],[-71.063232,42.348099],[-71.06328,42.348076],[-71.063301,42.347999]]],[[[-71.063253,42.34818],[-71.06323,42.348148],[-71.063187,42.348141],[-71.06314,42.348163],[-71.062886,42.348123],[-71.062814,42.348153],[-71.062792,42.348237],[-71.063176,42.348288],[-71.063229,42.348263],[-71.063253,42.34818]]],[[[-71.062777,42.348131],[-71.062667,42.348107],[-71.062596,42.348141],[-71.062569,42.348209],[-71.06269,42.348226],[-71.062761,42.348192],[-71.062777,42.348131]]],[[[-71.062446,42.347953],[-71.061926,42.347827],[-71.061756,42.347908],[-71.061866,42.34764],[-71.061712,42.347604],[-71.061478,42.347716],[-71.061332,42.348066],[-71.061321,42.348158],[-71.06144,42.348186],[-71.061674,42.348074],[-71.061696,42.348035],[-71.062097,42.348126],[-71.062222,42.348133],[-71.062411,42.348042],[-71.062446,42.347953]]],[[[-71.062367,42.34823],[-71.062255,42.348206],[-71.062188,42.348238],[-71.062115,42.348421],[-71.061947,42.348382],[-71.062034,42.348165],[-71.061907,42.348129],[-71.061839,42.348162],[-71.061618,42.34871],[-71.061573,42.348731],[-71.061451,42.349057],[-71.061463,42.349074],[-71.061441,42.349085],[-71.061399,42.349202],[-71.061341,42.349244],[-71.061226,42.349528],[-71.061224,42.349548],[-71.061288,42.349577],[-71.061117,42.349659],[-71.061006,42.349936],[-71.061145,42.349993],[-71.061122,42.350051],[-71.061182,42.350064],[-71.061178,42.350082],[-71.060921,42.350241],[-71.060832,42.35046],[-71.061315,42.350575],[-71.061484,42.350494],[-71.061778,42.349762],[-71.061676,42.34972],[-71.061812,42.349653],[-71.061975,42.34927],[-71.061808,42.349235],[-71.061839,42.34916],[-71.061745,42.349139],[-71.061721,42.349147],[-71.061783,42.348996],[-71.061758,42.34899],[-71.061778,42.348981],[-71.061895,42.34873],[-71.061814,42.348712],[-71.061886,42.348534],[-71.062177,42.348601],[-71.062216,42.348582],[-71.06226,42.348505],[-71.062367,42.34823]]],[[[-71.06164,42.348359],[-71.061414,42.348308],[-71.061333,42.348356],[-71.061269,42.348334],[-71.06131,42.348233],[-71.061184,42.348198],[-71.061108,42.348234],[-71.061071,42.348278],[-71.061037,42.348386],[-71.061047,42.348388],[-71.060948,42.348648],[-71.061064,42.348678],[-71.061127,42.348648],[-71.061214,42.348437],[-71.061284,42.348446],[-71.061318,42.348429],[-71.061309,42.34845],[-71.061366,42.348521],[-71.061353,42.348556],[-71.061318,42.348572],[-71.061288,42.348565],[-71.061208,42.348604],[-71.061164,42.348711],[-71.061399,42.348765],[-71.061479,42.348726],[-71.0616,42.348419],[-71.061619,42.34841],[-71.06164,42.348359]]],[[[-71.061436,42.348818],[-71.061371,42.34877],[-71.061248,42.348743],[-71.061155,42.348757],[-71.061068,42.348799],[-71.061029,42.348863],[-71.061011,42.348933],[-71.060878,42.348902],[-71.060814,42.348933],[-71.060688,42.349271],[-71.060916,42.349363],[-71.060934,42.349354],[-71.060928,42.349369],[-71.061137,42.349456],[-71.061196,42.349428],[-71.061244,42.349357],[-71.061162,42.349324],[-71.061198,42.349332],[-71.061269,42.349298],[-71.061384,42.349005],[-71.061325,42.348992],[-71.061377,42.348967],[-71.061436,42.348818]],[[-71.061126,42.349141],[-71.061093,42.349157],[-71.061071,42.349213],[-71.061087,42.349255],[-71.061076,42.349289],[-71.061017,42.349264],[-71.060997,42.349273],[-71.06102,42.349213],[-71.060994,42.349204],[-71.060936,42.349221],[-71.060865,42.349194],[-71.060907,42.349153],[-71.060937,42.34916],[-71.060995,42.349132],[-71.061004,42.349108],[-71.060941,42.349067],[-71.060959,42.349024],[-71.061035,42.34899],[-71.061042,42.348973],[-71.06107,42.348994],[-71.061015,42.349117],[-71.061126,42.349141]]],[[[-71.06136,42.350735],[-71.061295,42.350688],[-71.060899,42.350587],[-71.060826,42.350622],[-71.060766,42.350809],[-71.060982,42.350857],[-71.061124,42.350841],[-71.061118,42.350857],[-71.061238,42.350885],[-71.061321,42.350852],[-71.06136,42.350735]]],[[[-71.061227,42.351071],[-71.060769,42.350979],[-71.060643,42.35104],[-71.060485,42.351369],[-71.060946,42.351472],[-71.060972,42.351462],[-71.061098,42.351401],[-71.061227,42.351071]]],[[[-71.061125,42.352254],[-71.061106,42.352027],[-71.06086,42.352066],[-71.060836,42.352046],[-71.061024,42.352026],[-71.061108,42.351986],[-71.061041,42.351545],[-71.060388,42.351402],[-71.060297,42.35145],[-71.06036,42.351647],[-71.060583,42.351694],[-71.060622,42.351687],[-71.060625,42.351701],[-71.06047,42.351727],[-71.060381,42.35177],[-71.060234,42.351369],[-71.059977,42.351309],[-71.059959,42.351318],[-71.059962,42.351307],[-71.059758,42.351262],[-71.059638,42.35132],[-71.059589,42.351449],[-71.0596,42.35151],[-71.059586,42.351516],[-71.059615,42.351693],[-71.059637,42.351692],[-71.059714,42.352169],[-71.05993,42.352151],[-71.060033,42.352102],[-71.060023,42.352037],[-71.060179,42.352017],[-71.060189,42.352046],[-71.060372,42.352015],[-71.060422,42.351991],[-71.06044,42.352049],[-71.060329,42.352102],[-71.060347,42.352162],[-71.060221,42.352212],[-71.060118,42.352221],[-71.059946,42.352304],[-71.059989,42.352588],[-71.060378,42.352588],[-71.060473,42.352561],[-71.060487,42.352604],[-71.060862,42.352571],[-71.061084,42.352464],[-71.061125,42.352254]],[[-71.060176,42.351846],[-71.060056,42.351864],[-71.059998,42.351892],[-71.059941,42.351535],[-71.059957,42.351534],[-71.059969,42.351622],[-71.060101,42.351604],[-71.060176,42.351846]]],[[[-71.061068,42.348118],[-71.061011,42.348097],[-71.060646,42.348273],[-71.060184,42.348915],[-71.060421,42.348972],[-71.060786,42.348796],[-71.061068,42.348118]]],[[[-71.060966,42.349994],[-71.060509,42.349891],[-71.060284,42.349999],[-71.060327,42.349891],[-71.060261,42.349801],[-71.060367,42.349747],[-71.060567,42.349259],[-71.060443,42.349109],[-71.060321,42.349063],[-71.059956,42.349239],[-71.059839,42.349502],[-71.05956,42.350224],[-71.059837,42.35031],[-71.059773,42.350341],[-71.059717,42.350486],[-71.0597,42.350544],[-71.059742,42.350554],[-71.059717,42.350626],[-71.059752,42.350634],[-71.059743,42.350656],[-71.059973,42.350706],[-71.060019,42.350684],[-71.06004,42.35063],[-71.060021,42.350626],[-71.060116,42.350367],[-71.059892,42.350303],[-71.060187,42.350161],[-71.060117,42.350334],[-71.060565,42.35046],[-71.060828,42.350333],[-71.060966,42.349994]]],[[[-71.060747,42.35054],[-71.060472,42.350463],[-71.060395,42.350464],[-71.060322,42.350499],[-71.06026,42.350485],[-71.060183,42.350522],[-71.059888,42.351209],[-71.060168,42.351271],[-71.060192,42.351262],[-71.060391,42.351316],[-71.060469,42.351279],[-71.060595,42.350984],[-71.060568,42.350978],[-71.060747,42.35054]],[[-71.060352,42.350674],[-71.060327,42.35068],[-71.060331,42.350669],[-71.060352,42.350674]],[[-71.060332,42.351108],[-71.060305,42.351114],[-71.06031,42.351103],[-71.060332,42.351108]],[[-71.060286,42.350852],[-71.060257,42.350846],[-71.060276,42.3508],[-71.060286,42.350852]]],[[[-71.060325,42.353148],[-71.060198,42.353083],[-71.060156,42.353018],[-71.059657,42.352762],[-71.059553,42.352772],[-71.059376,42.352857],[-71.059435,42.35323],[-71.059718,42.353375],[-71.059951,42.35327],[-71.060077,42.353335],[-71.06021,42.353271],[-71.060325,42.353148]]],[[[-71.059748,42.352478],[-71.059715,42.35226],[-71.059695,42.352262],[-71.059626,42.351804],[-71.059386,42.351848],[-71.059251,42.351913],[-71.059289,42.352168],[-71.059312,42.352166],[-71.059337,42.352337],[-71.059318,42.352346],[-71.059345,42.352525],[-71.059615,42.352542],[-71.059748,42.352478]]],[[[-71.059638,42.354988],[-71.059161,42.354622],[-71.059145,42.354629],[-71.059081,42.35459],[-71.059033,42.354595],[-71.05898,42.354621],[-71.058822,42.354765],[-71.058738,42.354805],[-71.058413,42.355104],[-71.058417,42.35513],[-71.058586,42.355204],[-71.058407,42.355386],[-71.058481,42.355441],[-71.058773,42.35556],[-71.059073,42.355415],[-71.059103,42.355428],[-71.059228,42.355368],[-71.059638,42.354988]]],[[[-71.059505,42.350215],[-71.059471,42.35018],[-71.059047,42.350086],[-71.05888,42.350158],[-71.058573,42.350917],[-71.058605,42.350953],[-71.059027,42.351047],[-71.059198,42.350975],[-71.059505,42.350215]]],[[[-71.059392,42.353157],[-71.059318,42.352574],[-71.059067,42.352544],[-71.059292,42.352429],[-71.059226,42.352012],[-71.059026,42.352083],[-71.058498,42.352341],[-71.058406,42.352408],[-71.058322,42.352538],[-71.058142,42.35255],[-71.057728,42.352749],[-71.057668,42.352733],[-71.05756,42.352748],[-71.056726,42.353154],[-71.056676,42.353213],[-71.056673,42.353266],[-71.056722,42.353345],[-71.056779,42.353365],[-71.056769,42.353427],[-71.056803,42.35343],[-71.055671,42.353958],[-71.055678,42.354015],[-71.055648,42.354029],[-71.055589,42.353983],[-71.055256,42.354147],[-71.055193,42.354189],[-71.05527,42.354271],[-71.054974,42.354411],[-71.054885,42.354476],[-71.054772,42.35453],[-71.054507,42.354702],[-71.05452,42.354714],[-71.05444,42.354762],[-71.054439,42.3548],[-71.0546,42.354948],[-71.05465,42.354952],[-71.054729,42.354914],[-71.054761,42.354945],[-71.055454,42.354626],[-71.055476,42.354685],[-71.056036,42.354598],[-71.05618,42.354528],[-71.056201,42.354547],[-71.056536,42.354514],[-71.056687,42.354441],[-71.056943,42.354532],[-71.057415,42.354305],[-71.057433,42.354311],[-71.057494,42.354281],[-71.057535,42.354247],[-71.057846,42.353741],[-71.057588,42.353654],[-71.057542,42.353676],[-71.057474,42.353653],[-71.057554,42.353522],[-71.057295,42.353434],[-71.056975,42.353588],[-71.05695,42.353403],[-71.057073,42.353412],[-71.057067,42.353453],[-71.057164,42.353462],[-71.057591,42.353263],[-71.057784,42.353275],[-71.057778,42.353312],[-71.057821,42.353344],[-71.058559,42.35335],[-71.058016,42.353373],[-71.057856,42.35345],[-71.057809,42.353569],[-71.057823,42.353602],[-71.057964,42.353699],[-71.057944,42.353766],[-71.058054,42.353828],[-71.058229,42.353882],[-71.058485,42.354048],[-71.05861,42.353988],[-71.058846,42.353765],[-71.058835,42.353752],[-71.058878,42.353731],[-71.05922,42.353403],[-71.059185,42.353377],[-71.058861,42.353373],[-71.058723,42.353351],[-71.059107,42.353344],[-71.059329,42.353238],[-71.059392,42.353157]],[[-71.056569,42.353936],[-71.056443,42.354142],[-71.056182,42.354256],[-71.056151,42.354089],[-71.056337,42.35404],[-71.056569,42.353936]]],[[[-71.059318,42.349726],[-71.059225,42.349697],[-71.059179,42.349693],[-71.05915,42.349707],[-71.059076,42.34988],[-71.059215,42.349913],[-71.059244,42.349899],[-71.059318,42.349726]]],[[[-71.059038,42.351101],[-71.058633,42.351011],[-71.058537,42.351057],[-71.058266,42.351735],[-71.058462,42.351778],[-71.058558,42.351732],[-71.058746,42.351554],[-71.05886,42.351417],[-71.05899,42.351213],[-71.059038,42.351101]]],[[[-71.058776,42.350034],[-71.058372,42.349945],[-71.05827,42.349994],[-71.058289,42.349924],[-71.057874,42.34983],[-71.057562,42.349988],[-71.057528,42.350166],[-71.057484,42.350187],[-71.05738,42.350692],[-71.05753,42.350728],[-71.057575,42.350706],[-71.057943,42.350796],[-71.058062,42.350739],[-71.058045,42.350798],[-71.058151,42.350824],[-71.05819,42.350805],[-71.058401,42.350858],[-71.058459,42.35083],[-71.058581,42.350557],[-71.058587,42.350541],[-71.058574,42.350538],[-71.058706,42.35021],[-71.058767,42.350099],[-71.058776,42.350034]],[[-71.058239,42.35023],[-71.058214,42.350319],[-71.05818,42.350335],[-71.058188,42.350307],[-71.05808,42.35029],[-71.058203,42.350222],[-71.058239,42.35023]]],[[[-71.058424,42.349376],[-71.057926,42.349266],[-71.057875,42.349291],[-71.057808,42.349458],[-71.057837,42.349464],[-71.057781,42.349601],[-71.05769,42.349645],[-71.057674,42.349675],[-71.05771,42.349701],[-71.057795,42.349687],[-71.057773,42.349716],[-71.05781,42.349746],[-71.057902,42.34971],[-71.058156,42.349764],[-71.058297,42.349696],[-71.058424,42.349376]]],[[[-71.058414,42.350953],[-71.058104,42.350876],[-71.058043,42.350905],[-71.058052,42.350873],[-71.057558,42.350757],[-71.057394,42.350836],[-71.057245,42.351597],[-71.057346,42.351612],[-71.057186,42.351689],[-71.057107,42.352116],[-71.057759,42.352321],[-71.057952,42.352235],[-71.058115,42.351737],[-71.058103,42.35172],[-71.058016,42.351706],[-71.058131,42.351651],[-71.058414,42.350953]],[[-71.057922,42.351135],[-71.057911,42.351176],[-71.057861,42.351165],[-71.057922,42.351135]],[[-71.057879,42.351288],[-71.057865,42.35134],[-71.057793,42.351329],[-71.057879,42.351288]],[[-71.057865,42.351695],[-71.057829,42.351713],[-71.057836,42.351691],[-71.057865,42.351695]],[[-71.057786,42.35162],[-71.057771,42.351673],[-71.057699,42.351662],[-71.057786,42.35162]]],[[[-71.058071,42.348706],[-71.057613,42.348605],[-71.05735,42.348732],[-71.057266,42.348941],[-71.057725,42.349042],[-71.057988,42.348915],[-71.058071,42.348706]]],[[[-71.057505,42.349748],[-71.057133,42.349667],[-71.05692,42.34977],[-71.056819,42.350001],[-71.056876,42.350015],[-71.056821,42.350143],[-71.056766,42.350172],[-71.056655,42.350389],[-71.056588,42.350431],[-71.056569,42.350483],[-71.056589,42.350523],[-71.056678,42.350562],[-71.056802,42.350522],[-71.057186,42.350614],[-71.057342,42.35054],[-71.057505,42.349748]]],[[[-71.057349,42.355074],[-71.057329,42.354923],[-71.05689,42.354747],[-71.056502,42.354776],[-71.056269,42.354888],[-71.056229,42.354666],[-71.056094,42.354605],[-71.055658,42.35468],[-71.055158,42.354923],[-71.055179,42.355042],[-71.054665,42.35529],[-71.054771,42.355868],[-71.055223,42.355824],[-71.055566,42.355659],[-71.055862,42.35563],[-71.055968,42.355602],[-71.056364,42.355412],[-71.056362,42.355399],[-71.056733,42.35537],[-71.057349,42.355074]]],[[[-71.05732,42.350691],[-71.05694,42.350597],[-71.056735,42.350624],[-71.056557,42.350701],[-71.056439,42.350946],[-71.05651,42.350964],[-71.05641,42.351012],[-71.056268,42.351313],[-71.056377,42.351357],[-71.056294,42.351331],[-71.056081,42.351433],[-71.055866,42.351867],[-71.056241,42.351965],[-71.056224,42.352009],[-71.056799,42.352159],[-71.057078,42.352025],[-71.057141,42.351687],[-71.056627,42.351456],[-71.056762,42.351395],[-71.05672,42.351491],[-71.056987,42.351592],[-71.057156,42.351519],[-71.05732,42.350691]],[[-71.056922,42.351006],[-71.056908,42.351036],[-71.056876,42.351028],[-71.056922,42.351006]]],[[[-71.057,42.352232],[-71.056202,42.352031],[-71.05594,42.352127],[-71.055649,42.352267],[-71.055632,42.352302],[-71.054921,42.352644],[-71.054844,42.352808],[-71.055438,42.352957],[-71.05572,42.352852],[-71.055909,42.352761],[-71.055985,42.352781],[-71.056568,42.352624],[-71.056859,42.352484],[-71.05694,42.352364],[-71.057,42.352232]]],[[[-71.056775,42.349199],[-71.056596,42.349149],[-71.055487,42.349466],[-71.055408,42.349504],[-71.056683,42.347603],[-71.056673,42.347544],[-71.055908,42.347262],[-71.055809,42.34731],[-71.054434,42.349357],[-71.054427,42.34942],[-71.054279,42.349491],[-71.053309,42.350934],[-71.05389,42.351149],[-71.054013,42.35109],[-71.054292,42.351193],[-71.054337,42.351171],[-71.055185,42.349906],[-71.054921,42.350427],[-71.05496,42.350457],[-71.054948,42.350482],[-71.055006,42.350498],[-71.055283,42.3507],[-71.055448,42.35075],[-71.05605,42.350739],[-71.056134,42.350723],[-71.056238,42.350673],[-71.056434,42.350281],[-71.056635,42.349782],[-71.056775,42.349199]],[[-71.055351,42.349579],[-71.055283,42.349713],[-71.055234,42.349697],[-71.055351,42.349579]]],[[[-71.05666,42.353366],[-71.056638,42.353263],[-71.056242,42.353099],[-71.055632,42.353401],[-71.055638,42.353425],[-71.055421,42.353542],[-71.055445,42.353566],[-71.055224,42.35366],[-71.054776,42.353908],[-71.054101,42.354233],[-71.053716,42.354436],[-71.05368,42.354487],[-71.053689,42.354531],[-71.053944,42.354796],[-71.053994,42.35481],[-71.054047,42.3548],[-71.054736,42.354469],[-71.055049,42.354192],[-71.055079,42.354153],[-71.055081,42.354124],[-71.055392,42.35393],[-71.056007,42.35365],[-71.056038,42.353662],[-71.05666,42.353366]]],[[[-71.055768,42.35162],[-71.055498,42.351545],[-71.054479,42.351779],[-71.054319,42.351856],[-71.054147,42.352031],[-71.054673,42.352309],[-71.054833,42.35236],[-71.055001,42.352385],[-71.055178,42.352345],[-71.055338,42.352268],[-71.055458,42.352178],[-71.055549,42.352069],[-71.055768,42.35162]]]]},"properties":{"kind":"building"}},{"type":"Feature","geometry":{"type":"MultiPolygon","coordinates":[[[[-71.066058,42.353451],[-71.066047,42.35341],[-71.066015,42.353375],[-71.065912,42.353343],[-71.065856,42.353351],[-71.065708,42.353423],[-71.065677,42.353458],[-71.065666,42.353499],[-71.065677,42.353541],[-71.065708,42.353576],[-71.065812,42.353607],[-71.065868,42.353599],[-71.066015,42.353527],[-71.066047,42.353492],[-71.066058,42.353451]]],[[[-71.066048,42.352923],[-71.066021,42.352832],[-71.065989,42.352797],[-71.065886,42.352765],[-71.065769,42.352803],[-71.065768,42.352761],[-71.06575,42.352742],[-71.065662,42.352729],[-71.065444,42.352821],[-71.065391,42.35286],[-71.065391,42.352915],[-71.065437,42.352951],[-71.065392,42.352984],[-71.065392,42.35303],[-71.065323,42.353077],[-71.065323,42.353136],[-71.065358,42.353167],[-71.065301,42.3532],[-71.065209,42.353203],[-71.065128,42.353242],[-71.06512,42.353213],[-71.065207,42.353169],[-71.065197,42.353132],[-71.065303,42.35307],[-71.065303,42.353032],[-71.06524,42.353001],[-71.065271,42.352979],[-71.065271,42.352957],[-71.06522,42.352941],[-71.065153,42.352979],[-71.065153,42.353001],[-71.065185,42.353018],[-71.065114,42.353062],[-71.065114,42.353101],[-71.065146,42.353126],[-71.065073,42.353167],[-71.064976,42.353168],[-71.064851,42.353228],[-71.064827,42.353254],[-71.064785,42.353263],[-71.064846,42.353233],[-71.064864,42.353201],[-71.064896,42.353183],[-71.064928,42.353148],[-71.064939,42.353107],[-71.064928,42.353066],[-71.064865,42.353015],[-71.06483,42.352952],[-71.064791,42.352933],[-71.064699,42.352933],[-71.064566,42.352998],[-71.06454,42.353026],[-71.06453,42.35306],[-71.064558,42.353114],[-71.064547,42.353155],[-71.064558,42.353197],[-71.064621,42.353247],[-71.064492,42.353308],[-71.06446,42.353366],[-71.064468,42.353397],[-71.064528,42.353441],[-71.06457,42.353447],[-71.064715,42.353392],[-71.06477,42.353392],[-71.064859,42.353349],[-71.064929,42.353367],[-71.065023,42.353336],[-71.06503,42.353393],[-71.065055,42.35342],[-71.065002,42.353446],[-71.064973,42.353429],[-71.064919,42.353429],[-71.06483,42.353472],[-71.064809,42.353509],[-71.06483,42.353547],[-71.064881,42.353562],[-71.064953,42.353537],[-71.064984,42.353584],[-71.065072,42.35361],[-71.065203,42.353563],[-71.065244,42.353633],[-71.065292,42.353656],[-71.065393,42.353658],[-71.065372,42.353676],[-71.065372,42.353711],[-71.065405,42.353736],[-71.065452,42.353736],[-71.065545,42.353682],[-71.065532,42.353633],[-71.065476,42.353621],[-71.065551,42.353584],[-71.065583,42.353549],[-71.065594,42.353508],[-71.065583,42.353467],[-71.065504,42.353408],[-71.065448,42.3534],[-71.065378,42.353415],[-71.065348,42.353389],[-71.065405,42.353327],[-71.065621,42.353231],[-71.065653,42.35325],[-71.065679,42.353306],[-71.065745,42.353326],[-71.065891,42.353268],[-71.065918,42.353219],[-71.065911,42.353192],[-71.065866,42.353158],[-71.065981,42.353102],[-71.066007,42.353073],[-71.066016,42.353039],[-71.065995,42.352992],[-71.066039,42.352955],[-71.066048,42.352923]],[[-71.065662,42.353108],[-71.065644,42.353149],[-71.065627,42.35313],[-71.065662,42.353108]],[[-71.065659,42.352871],[-71.065644,42.352937],[-71.06561,42.352947],[-71.065582,42.352924],[-71.065659,42.352871]],[[-71.064762,42.353272],[-71.064749,42.353278],[-71.064746,42.353275],[-71.064762,42.353272]]],[[[-71.066046,42.354972],[-71.066026,42.354936],[-71.065952,42.354925],[-71.065867,42.354967],[-71.065847,42.355002],[-71.065889,42.355049],[-71.065941,42.355049],[-71.066026,42.355008],[-71.066046,42.354972]]],[[[-71.066022,42.352597],[-71.065976,42.352546],[-71.065918,42.352546],[-71.065879,42.352565],[-71.065841,42.352538],[-71.065756,42.352551],[-71.065717,42.352522],[-71.065659,42.352522],[-71.065568,42.352566],[-71.065549,42.352597],[-71.065433,42.352649],[-71.065406,42.352697],[-71.065433,42.352745],[-71.065462,42.352759],[-71.065532,42.352759],[-71.065638,42.352708],[-71.065677,42.352643],[-71.065716,42.352672],[-71.065773,42.352672],[-71.065813,42.352653],[-71.06588,42.352684],[-71.066,42.352636],[-71.066022,42.352597]]],[[[-71.06602,42.354061],[-71.065981,42.354032],[-71.065923,42.354055],[-71.06587,42.354048],[-71.065803,42.35408],[-71.065789,42.354106],[-71.065819,42.354139],[-71.065856,42.354139],[-71.065919,42.354109],[-71.06595,42.35411],[-71.066009,42.354081],[-71.06602,42.354061]]],[[[-71.06597,42.354146],[-71.065947,42.354129],[-71.065902,42.354148],[-71.06589,42.35417],[-71.06592,42.354179],[-71.06597,42.354146]]],[[[-71.065865,42.354468],[-71.065827,42.3544],[-71.065735,42.354372],[-71.065685,42.354379],[-71.065543,42.354448],[-71.065505,42.354516],[-71.065543,42.354584],[-71.065635,42.354612],[-71.065684,42.354605],[-71.065827,42.354536],[-71.065865,42.354468]]],[[[-71.06583,42.348038],[-71.065811,42.348004],[-71.06574,42.347994],[-71.065658,42.348034],[-71.065639,42.348067],[-71.065679,42.348112],[-71.065729,42.348112],[-71.065811,42.348072],[-71.06583,42.348038]]],[[[-71.06579,42.34818],[-71.065774,42.348151],[-71.065714,42.348142],[-71.065641,42.348178],[-71.065624,42.348207],[-71.065658,42.348244],[-71.065701,42.348244],[-71.065774,42.348209],[-71.06579,42.34818]]],[[[-71.065764,42.353939],[-71.065749,42.353914],[-71.065696,42.353906],[-71.065629,42.353938],[-71.065567,42.354001],[-71.065567,42.354029],[-71.065594,42.354048],[-71.065631,42.354048],[-71.065698,42.354015],[-71.065764,42.353939]]],[[[-71.065738,42.348446],[-71.065721,42.348415],[-71.065658,42.348406],[-71.065581,42.348443],[-71.065564,42.348474],[-71.0656,42.348513],[-71.065645,42.348513],[-71.065721,42.348477],[-71.065738,42.348446]]],[[[-71.065728,42.348293],[-71.06571,42.34828],[-71.065667,42.348311],[-71.065691,42.348318],[-71.065728,42.348293]]],[[[-71.065683,42.354843],[-71.065674,42.354808],[-71.065607,42.354759],[-71.06556,42.354752],[-71.065482,42.354774],[-71.065481,42.354739],[-71.065444,42.354711],[-71.065357,42.354728],[-71.065327,42.354655],[-71.065202,42.35461],[-71.065078,42.354661],[-71.065059,42.354716],[-71.065002,42.354744],[-71.06498,42.354782],[-71.064949,42.354757],[-71.064907,42.354757],[-71.064834,42.354793],[-71.064817,42.354822],[-71.064851,42.354859],[-71.064894,42.354859],[-71.064967,42.354824],[-71.064983,42.354797],[-71.065002,42.354825],[-71.065054,42.354841],[-71.065093,42.354874],[-71.065168,42.354865],[-71.065189,42.354902],[-71.065242,42.354918],[-71.065338,42.354882],[-71.065376,42.354954],[-71.065464,42.35498],[-71.065511,42.354974],[-71.065647,42.354907],[-71.065683,42.354843]]],[[[-71.065625,42.353756],[-71.065608,42.353725],[-71.065545,42.353716],[-71.065468,42.353753],[-71.065451,42.353784],[-71.065487,42.353823],[-71.065532,42.353823],[-71.065608,42.353787],[-71.065625,42.353756]]],[[[-71.0656,42.353866],[-71.065568,42.353831],[-71.065488,42.35385],[-71.065438,42.353826],[-71.065344,42.353865],[-71.065327,42.353894],[-71.065361,42.353931],[-71.065404,42.353931],[-71.065449,42.353909],[-71.065495,42.35393],[-71.065585,42.353893],[-71.0656,42.353866]]],[[[-71.065598,42.348957],[-71.06558,42.348944],[-71.065539,42.348974],[-71.065563,42.348981],[-71.065598,42.348957]]],[[[-71.065588,42.351223],[-71.06557,42.35121],[-71.065523,42.351243],[-71.065547,42.35125],[-71.065588,42.351223]]],[[[-71.065562,42.349094],[-71.065544,42.349081],[-71.065503,42.349111],[-71.065527,42.349118],[-71.065562,42.349094]]],[[[-71.065559,42.349236],[-71.065544,42.349211],[-71.065491,42.349203],[-71.065431,42.349232],[-71.065417,42.349257],[-71.065447,42.349291],[-71.065484,42.349291],[-71.065544,42.349261],[-71.065559,42.349236]]],[[[-71.065552,42.348316],[-71.065534,42.348284],[-71.065466,42.348274],[-71.065387,42.348312],[-71.065369,42.348345],[-71.065407,42.348387],[-71.065454,42.348387],[-71.065534,42.348348],[-71.065552,42.348316]]],[[[-71.065548,42.34811],[-71.06553,42.348097],[-71.065487,42.348128],[-71.065511,42.348135],[-71.065548,42.34811]]],[[[-71.065483,42.348446],[-71.06546,42.348429],[-71.065415,42.348448],[-71.065403,42.34847],[-71.065433,42.348479],[-71.065483,42.348446]]],[[[-71.065465,42.352587],[-71.065434,42.352533],[-71.065361,42.35251],[-71.065203,42.352574],[-71.065173,42.352628],[-71.065203,42.352682],[-71.065276,42.352704],[-71.065434,42.352641],[-71.065465,42.352587]]],[[[-71.065433,42.34879],[-71.065418,42.348765],[-71.065365,42.348757],[-71.065305,42.348786],[-71.065291,42.348811],[-71.065321,42.348845],[-71.065358,42.348845],[-71.065418,42.348815],[-71.065433,42.34879]]],[[[-71.065416,42.353789],[-71.065396,42.353753],[-71.065348,42.353739],[-71.065237,42.353784],[-71.065217,42.353819],[-71.065229,42.353847],[-71.065122,42.353888],[-71.065104,42.353921],[-71.065116,42.353946],[-71.065071,42.353947],[-71.064989,42.353987],[-71.064975,42.354039],[-71.065035,42.354068],[-71.065142,42.354025],[-71.065161,42.353991],[-71.065148,42.353964],[-71.065189,42.353963],[-71.065269,42.353924],[-71.065282,42.353875],[-71.065396,42.353825],[-71.065416,42.353789]]],[[[-71.065396,42.34894],[-71.065385,42.348921],[-71.065346,42.348916],[-71.065281,42.348961],[-71.065303,42.348985],[-71.06533,42.348985],[-71.065396,42.34894]]],[[[-71.06538,42.35397],[-71.065361,42.353936],[-71.06529,42.353926],[-71.065208,42.353966],[-71.065194,42.354018],[-71.065091,42.354061],[-71.065079,42.354108],[-71.06511,42.354131],[-71.065155,42.354131],[-71.065231,42.354095],[-71.065244,42.354047],[-71.065361,42.354004],[-71.06538,42.35397]]],[[[-71.065379,42.34907],[-71.065364,42.349045],[-71.065311,42.349037],[-71.065244,42.349069],[-71.06523,42.349095],[-71.06526,42.349128],[-71.065297,42.349128],[-71.065364,42.349095],[-71.065379,42.34907]]],[[[-71.065368,42.35121],[-71.06535,42.351197],[-71.065305,42.351229],[-71.065329,42.351236],[-71.065368,42.35121]]],[[[-71.065268,42.35121],[-71.06525,42.351197],[-71.065207,42.351228],[-71.065231,42.351235],[-71.065268,42.35121]]],[[[-71.065204,42.352785],[-71.065187,42.352754],[-71.065146,42.352742],[-71.065047,42.352782],[-71.06503,42.352813],[-71.065047,42.352843],[-71.065033,42.352891],[-71.064967,42.352939],[-71.064967,42.35298],[-71.065033,42.353012],[-71.065149,42.352965],[-71.065169,42.352928],[-71.065149,42.352891],[-71.065179,42.352852],[-71.065165,42.352827],[-71.065204,42.352785]]],[[[-71.065176,42.35072],[-71.06514,42.350702],[-71.065088,42.350731],[-71.065088,42.350746],[-71.065122,42.350756],[-71.065176,42.35072]]],[[[-71.065151,42.350784],[-71.065115,42.350766],[-71.065063,42.350795],[-71.065063,42.35081],[-71.065097,42.35082],[-71.065151,42.350784]]],[[[-71.065129,42.350853],[-71.06511,42.350839],[-71.065058,42.350875],[-71.065083,42.350883],[-71.065129,42.350853]]],[[[-71.065109,42.352581],[-71.065081,42.35253],[-71.065012,42.352509],[-71.064862,42.352569],[-71.064834,42.35262],[-71.064862,42.352671],[-71.064931,42.352692],[-71.065081,42.352632],[-71.065109,42.352581]]],[[[-71.065103,42.354592],[-71.065085,42.35456],[-71.065041,42.354546],[-71.06493,42.354597],[-71.06487,42.354599],[-71.064764,42.35465],[-71.064737,42.354698],[-71.064744,42.354724],[-71.064793,42.35476],[-71.064863,42.35476],[-71.064969,42.354709],[-71.064995,42.354664],[-71.065085,42.354624],[-71.065103,42.354592]]],[[[-71.065099,42.354179],[-71.065082,42.354148],[-71.065019,42.354139],[-71.064942,42.354176],[-71.064925,42.354207],[-71.064961,42.354246],[-71.065006,42.354246],[-71.065082,42.35421],[-71.065099,42.354179]]],[[[-71.065067,42.354458],[-71.065049,42.354426],[-71.065005,42.354412],[-71.064953,42.35443],[-71.064868,42.354419],[-71.064806,42.354448],[-71.064775,42.354393],[-71.06474,42.354376],[-71.064671,42.354374],[-71.064744,42.354339],[-71.064764,42.354303],[-71.064744,42.354267],[-71.06467,42.354256],[-71.06457,42.354314],[-71.064582,42.354366],[-71.06453,42.354391],[-71.064519,42.354431],[-71.064408,42.354472],[-71.064396,42.354519],[-71.064305,42.354559],[-71.064291,42.354602],[-71.064226,42.354634],[-71.064214,42.354673],[-71.064118,42.354711],[-71.064106,42.354755],[-71.064157,42.35478],[-71.064251,42.354742],[-71.064263,42.354699],[-71.064353,42.354662],[-71.064368,42.354635],[-71.064458,42.354579],[-71.064458,42.354545],[-71.064514,42.354522],[-71.064484,42.354548],[-71.064484,42.354581],[-71.064404,42.35462],[-71.064379,42.354657],[-71.064306,42.354693],[-71.064276,42.354732],[-71.064172,42.354792],[-71.064172,42.354833],[-71.064187,42.35485],[-71.064265,42.354861],[-71.064354,42.354818],[-71.064369,42.354801],[-71.064369,42.354761],[-71.064439,42.354724],[-71.064452,42.354683],[-71.064531,42.354648],[-71.064542,42.354607],[-71.064749,42.354518],[-71.064797,42.354564],[-71.064859,42.354564],[-71.065049,42.35449],[-71.065067,42.354458]]],[[[-71.064955,42.354294],[-71.06494,42.354267],[-71.064883,42.354259],[-71.064813,42.354293],[-71.064798,42.35432],[-71.06483,42.354355],[-71.064869,42.354355],[-71.06494,42.354321],[-71.064955,42.354294]]],[[[-71.064944,42.35131],[-71.064926,42.351297],[-71.064881,42.351329],[-71.064905,42.351336],[-71.064944,42.35131]]],[[[-71.064935,42.35396],[-71.064929,42.353937],[-71.064885,42.353905],[-71.064823,42.353905],[-71.064773,42.353929],[-71.064779,42.353878],[-71.064737,42.353847],[-71.064677,42.353847],[-71.064635,42.353867],[-71.064632,42.353832],[-71.064588,42.3538],[-71.064508,42.353808],[-71.064437,42.353774],[-71.064387,42.353789],[-71.064387,42.353765],[-71.064444,42.353728],[-71.064444,42.353692],[-71.064478,42.353658],[-71.06448,42.35363],[-71.064548,42.35365],[-71.064587,42.353645],[-71.064702,42.353589],[-71.064732,42.353536],[-71.064702,42.353483],[-71.06467,42.353467],[-71.064592,42.353467],[-71.064477,42.353523],[-71.064455,42.353547],[-71.064455,42.353602],[-71.064393,42.353596],[-71.064311,42.353636],[-71.064297,42.353688],[-71.064263,42.353721],[-71.064263,42.353758],[-71.064224,42.353804],[-71.064258,42.353841],[-71.064185,42.353892],[-71.064167,42.353979],[-71.064191,42.354022],[-71.064242,42.354038],[-71.064167,42.354075],[-71.064143,42.354117],[-71.064042,42.354183],[-71.064042,42.354225],[-71.064058,42.354243],[-71.064013,42.354281],[-71.06402,42.354341],[-71.063908,42.354391],[-71.063884,42.354433],[-71.063897,42.354464],[-71.063834,42.354495],[-71.063803,42.35453],[-71.063792,42.354571],[-71.063803,42.354613],[-71.063834,42.354648],[-71.063727,42.354718],[-71.063726,42.354761],[-71.063686,42.354791],[-71.063686,42.354835],[-71.063758,42.354871],[-71.063882,42.354821],[-71.063902,42.354769],[-71.063956,42.354731],[-71.063956,42.354683],[-71.064141,42.354599],[-71.064173,42.354564],[-71.064184,42.354523],[-71.064173,42.354482],[-71.064113,42.354433],[-71.06422,42.354432],[-71.064367,42.35436],[-71.064399,42.354325],[-71.06441,42.354284],[-71.064385,42.354227],[-71.06448,42.354234],[-71.064602,42.354175],[-71.064633,42.354119],[-71.064609,42.354071],[-71.064659,42.354086],[-71.064751,42.354051],[-71.064814,42.35405],[-71.064911,42.354002],[-71.064935,42.35396]],[[-71.064601,42.354063],[-71.064586,42.354055],[-71.064592,42.354052],[-71.064601,42.354063]],[[-71.064494,42.353948],[-71.064458,42.353977],[-71.064451,42.354002],[-71.064477,42.354048],[-71.064371,42.354101],[-71.06437,42.35406],[-71.064352,42.354041],[-71.064301,42.354024],[-71.064376,42.353987],[-71.064405,42.353915],[-71.064455,42.353945],[-71.064494,42.353948]],[[-71.064346,42.354197],[-71.064251,42.354178],[-71.06434,42.354131],[-71.064332,42.354161],[-71.064346,42.354197]]],[[[-71.064915,42.35417],[-71.0649,42.354145],[-71.064847,42.354137],[-71.06478,42.354169],[-71.064766,42.354195],[-71.064796,42.354228],[-71.064833,42.354228],[-71.0649,42.354195],[-71.064915,42.35417]]],[[[-71.064911,42.354986],[-71.06488,42.354932],[-71.064807,42.354909],[-71.064649,42.354973],[-71.064619,42.355027],[-71.064649,42.355081],[-71.064722,42.355103],[-71.06488,42.35504],[-71.064911,42.354986]]],[[[-71.064857,42.348456],[-71.064839,42.348443],[-71.064796,42.348474],[-71.06482,42.348481],[-71.064857,42.348456]]],[[[-71.064739,42.354797],[-71.064721,42.354784],[-71.064678,42.354815],[-71.064702,42.354822],[-71.064739,42.354797]]],[[[-71.064624,42.351826],[-71.064606,42.351813],[-71.064563,42.351844],[-71.064587,42.351851],[-71.064624,42.351826]]],[[[-71.064621,42.348425],[-71.064603,42.348412],[-71.06456,42.348443],[-71.064584,42.34845],[-71.064621,42.348425]]],[[[-71.064568,42.352055],[-71.06455,42.352042],[-71.064505,42.352074],[-71.064529,42.352081],[-71.064568,42.352055]]],[[[-71.064564,42.352104],[-71.064545,42.35209],[-71.064493,42.352126],[-71.064518,42.352134],[-71.064564,42.352104]]],[[[-71.064548,42.35216],[-71.06453,42.352147],[-71.064487,42.352178],[-71.064511,42.352185],[-71.064548,42.35216]]],[[[-71.064436,42.348399],[-71.064418,42.348386],[-71.064375,42.348417],[-71.064399,42.348424],[-71.064436,42.348399]]],[[[-71.064238,42.350925],[-71.06422,42.350912],[-71.064177,42.350943],[-71.064201,42.35095],[-71.064238,42.350925]]],[[[-71.064209,42.34872],[-71.064186,42.348703],[-71.064141,42.348722],[-71.064129,42.348744],[-71.064159,42.348753],[-71.064209,42.34872]]],[[[-71.064168,42.34884],[-71.06415,42.348827],[-71.064101,42.348861],[-71.064125,42.348868],[-71.064168,42.34884]]],[[[-71.064148,42.350914],[-71.06413,42.350901],[-71.064087,42.350932],[-71.064111,42.350939],[-71.064148,42.350914]]],[[[-71.064088,42.3533],[-71.06407,42.353287],[-71.064021,42.353321],[-71.064045,42.353328],[-71.064088,42.3533]]],[[[-71.064082,42.350914],[-71.064073,42.350897],[-71.064038,42.350892],[-71.063985,42.350917],[-71.063978,42.350943],[-71.064021,42.350956],[-71.064082,42.350914]]],[[[-71.064049,42.35339],[-71.06403,42.353376],[-71.063978,42.353412],[-71.064003,42.35342],[-71.064049,42.35339]]],[[[-71.064013,42.353283],[-71.063995,42.35327],[-71.063946,42.353304],[-71.06397,42.353311],[-71.064013,42.353283]]],[[[-71.063998,42.35376],[-71.06398,42.353747],[-71.063931,42.353781],[-71.063955,42.353788],[-71.063998,42.35376]]],[[[-71.063984,42.353386],[-71.063965,42.353372],[-71.063913,42.353408],[-71.063938,42.353416],[-71.063984,42.353386]]],[[[-71.063973,42.350903],[-71.063962,42.350883],[-71.063919,42.350876],[-71.063861,42.350905],[-71.063849,42.350925],[-71.063873,42.350952],[-71.063903,42.350952],[-71.063962,42.350923],[-71.063973,42.350903]]],[[[-71.063943,42.353268],[-71.06392,42.353251],[-71.063875,42.35327],[-71.063863,42.353292],[-71.063893,42.353301],[-71.063943,42.353268]]],[[[-71.063928,42.353374],[-71.06391,42.353361],[-71.063861,42.353395],[-71.063885,42.353402],[-71.063928,42.353374]]],[[[-71.063922,42.353967],[-71.063913,42.35395],[-71.063878,42.353945],[-71.063825,42.35397],[-71.063818,42.353996],[-71.063861,42.354009],[-71.063922,42.353967]]],[[[-71.063915,42.348675],[-71.063896,42.348661],[-71.063844,42.348697],[-71.063869,42.348705],[-71.063915,42.348675]]],[[[-71.063893,42.348743],[-71.06387,42.348726],[-71.063825,42.348745],[-71.063813,42.348767],[-71.063843,42.348776],[-71.063893,42.348743]]],[[[-71.063879,42.34887],[-71.06386,42.348856],[-71.063808,42.348892],[-71.063833,42.3489],[-71.063879,42.34887]]],[[[-71.063873,42.348793],[-71.063855,42.34878],[-71.063812,42.348811],[-71.063836,42.348818],[-71.063873,42.348793]]],[[[-71.063821,42.349148],[-71.063803,42.349135],[-71.06376,42.349166],[-71.063784,42.349173],[-71.063821,42.349148]]],[[[-71.063816,42.35412],[-71.06378,42.354102],[-71.063728,42.354131],[-71.063728,42.354146],[-71.063762,42.354156],[-71.063816,42.35412]]],[[[-71.063808,42.348427],[-71.06379,42.348414],[-71.063747,42.348445],[-71.063771,42.348452],[-71.063808,42.348427]]],[[[-71.063768,42.349293],[-71.06375,42.34928],[-71.063707,42.349311],[-71.063731,42.349318],[-71.063768,42.349293]]],[[[-71.063755,42.349335],[-71.063737,42.349322],[-71.063694,42.349353],[-71.063718,42.34936],[-71.063755,42.349335]]],[[[-71.063718,42.34841],[-71.0637,42.348397],[-71.063657,42.348428],[-71.063681,42.348435],[-71.063718,42.34841]]],[[[-71.063707,42.350883],[-71.063698,42.350866],[-71.063663,42.350861],[-71.06361,42.350886],[-71.063603,42.350912],[-71.063646,42.350925],[-71.063707,42.350883]]],[[[-71.063689,42.34976],[-71.06367,42.349746],[-71.063618,42.349782],[-71.063643,42.34979],[-71.063689,42.34976]]],[[[-71.063632,42.349854],[-71.063614,42.349841],[-71.063565,42.349875],[-71.063589,42.349882],[-71.063632,42.349854]]],[[[-71.063613,42.350876],[-71.06359,42.350859],[-71.063545,42.350878],[-71.063533,42.3509],[-71.063563,42.350909],[-71.063613,42.350876]]],[[[-71.063579,42.34995],[-71.06356,42.349936],[-71.063508,42.349972],[-71.063533,42.34998],[-71.063579,42.34995]]],[[[-71.063569,42.3547],[-71.063554,42.354675],[-71.063501,42.354667],[-71.063441,42.354696],[-71.063427,42.354721],[-71.063457,42.354755],[-71.063494,42.354755],[-71.063554,42.354725],[-71.063569,42.3547]]],[[[-71.063548,42.35],[-71.06353,42.349987],[-71.063481,42.350021],[-71.063505,42.350028],[-71.063548,42.35]]],[[[-71.063546,42.350864],[-71.06351,42.350846],[-71.063458,42.350875],[-71.063458,42.35089],[-71.063492,42.3509],[-71.063546,42.350864]]],[[[-71.063509,42.3548],[-71.063494,42.354775],[-71.063441,42.354767],[-71.063381,42.354796],[-71.063367,42.354821],[-71.063397,42.354855],[-71.063434,42.354855],[-71.063494,42.354825],[-71.063509,42.3548]]],[[[-71.063458,42.350418],[-71.06344,42.350405],[-71.063391,42.350439],[-71.063415,42.350446],[-71.063458,42.350418]]],[[[-71.063458,42.35018],[-71.06344,42.350167],[-71.063393,42.3502],[-71.063417,42.350207],[-71.063458,42.35018]]],[[[-71.063434,42.350487],[-71.063416,42.350474],[-71.063369,42.350507],[-71.063393,42.350514],[-71.063434,42.350487]]],[[[-71.063428,42.350246],[-71.06341,42.350233],[-71.063373,42.350248],[-71.063338,42.3503],[-71.063362,42.350307],[-71.063392,42.350292],[-71.063428,42.350246]]],[[[-71.063403,42.35055],[-71.063385,42.350537],[-71.06334,42.350569],[-71.063364,42.350576],[-71.063403,42.35055]]],[[[-71.063386,42.350826],[-71.06335,42.350808],[-71.063298,42.350837],[-71.063298,42.350852],[-71.063332,42.350862],[-71.063386,42.350826]]],[[[-71.063383,42.350765],[-71.063343,42.350745],[-71.063285,42.350784],[-71.063325,42.350804],[-71.063383,42.350765]]],[[[-71.063369,42.350704],[-71.06335,42.35069],[-71.063298,42.350726],[-71.063323,42.350734],[-71.063369,42.350704]]],[[[-71.063368,42.35061],[-71.06335,42.350597],[-71.063305,42.350629],[-71.063329,42.350636],[-71.063368,42.35061]]],[[[-71.063328,42.35044],[-71.06331,42.350427],[-71.063265,42.350459],[-71.063289,42.350466],[-71.063328,42.35044]]],[[[-71.063298,42.350483],[-71.06328,42.35047],[-71.063233,42.350503],[-71.063257,42.35051],[-71.063298,42.350483]]],[[[-71.063273,42.350536],[-71.063255,42.350523],[-71.063208,42.350556],[-71.063232,42.350563],[-71.063273,42.350536]]],[[[-71.063248,42.350582],[-71.06323,42.350569],[-71.063181,42.350603],[-71.063205,42.35061],[-71.063248,42.350582]]],[[[-71.063228,42.35063],[-71.06321,42.350617],[-71.063161,42.350651],[-71.063185,42.350658],[-71.063228,42.35063]]],[[[-71.063198,42.350677],[-71.06318,42.350664],[-71.063139,42.350694],[-71.063163,42.350701],[-71.063198,42.350677]]],[[[-71.063178,42.350727],[-71.06316,42.350714],[-71.063123,42.350729],[-71.063078,42.350787],[-71.063103,42.350795],[-71.063137,42.350778],[-71.063139,42.350753],[-71.063178,42.350727]]],[[[-71.063144,42.352238],[-71.063126,42.352225],[-71.063082,42.352245],[-71.063058,42.352238],[-71.06302,42.352269],[-71.063105,42.352264],[-71.063144,42.352238]]],[[[-71.062983,42.352253],[-71.062965,42.35224],[-71.06292,42.352272],[-71.062944,42.352279],[-71.062983,42.352253]]],[[[-71.062922,42.35222],[-71.062904,42.352207],[-71.062857,42.35224],[-71.062881,42.352247],[-71.062922,42.35222]]],[[[-71.062848,42.352215],[-71.06283,42.352202],[-71.062785,42.352234],[-71.062809,42.352241],[-71.062848,42.352215]]],[[[-71.062829,42.353302],[-71.06281,42.353288],[-71.062769,42.353305],[-71.06274,42.353289],[-71.062695,42.353308],[-71.062683,42.35333],[-71.062713,42.353339],[-71.062749,42.353322],[-71.062776,42.353333],[-71.062829,42.353302]]],[[[-71.062829,42.353214],[-71.06281,42.3532],[-71.062758,42.353236],[-71.062783,42.353244],[-71.062829,42.353214]]],[[[-71.062763,42.353207],[-71.062744,42.353193],[-71.062692,42.353229],[-71.062717,42.353237],[-71.062763,42.353207]]],[[[-71.062559,42.348354],[-71.062519,42.348334],[-71.062461,42.348373],[-71.062501,42.348393],[-71.062559,42.348354]]],[[[-71.062496,42.349373],[-71.062484,42.349351],[-71.062438,42.349344],[-71.062377,42.349374],[-71.062364,42.349396],[-71.06239,42.349425],[-71.062423,42.349425],[-71.062484,42.349395],[-71.062496,42.349373]]],[[[-71.062463,42.348557],[-71.06244,42.34854],[-71.062395,42.348559],[-71.062383,42.348581],[-71.062413,42.34859],[-71.062463,42.348557]]],[[[-71.062409,42.348373],[-71.062398,42.348353],[-71.062355,42.348346],[-71.062297,42.348375],[-71.062285,42.348395],[-71.062309,42.348422],[-71.062339,42.348422],[-71.062398,42.348393],[-71.062409,42.348373]]],[[[-71.062392,42.349323],[-71.06238,42.349301],[-71.062334,42.349294],[-71.062273,42.349324],[-71.06226,42.349346],[-71.062286,42.349375],[-71.062319,42.349375],[-71.06238,42.349345],[-71.062392,42.349323]]],[[[-71.062039,42.353752],[-71.06202,42.353738],[-71.061968,42.353774],[-71.061993,42.353782],[-71.062039,42.353752]]],[[[-71.062006,42.349306],[-71.061988,42.349293],[-71.061945,42.349324],[-71.061969,42.349331],[-71.062006,42.349306]]],[[[-71.061988,42.35386],[-71.06197,42.353847],[-71.061927,42.353878],[-71.061951,42.353885],[-71.061988,42.35386]]],[[[-71.061951,42.349438],[-71.061933,42.349425],[-71.06189,42.349456],[-71.061914,42.349463],[-71.061951,42.349438]]],[[[-71.061941,42.349548],[-71.061926,42.349523],[-71.061873,42.349515],[-71.061813,42.349544],[-71.061799,42.349569],[-71.061829,42.349603],[-71.061866,42.349603],[-71.061926,42.349573],[-71.061941,42.349548]]],[[[-71.061928,42.34988],[-71.06191,42.349867],[-71.061867,42.349898],[-71.061891,42.349905],[-71.061928,42.34988]]],[[[-71.061924,42.3537],[-71.061905,42.353686],[-71.061853,42.353722],[-71.061878,42.35373],[-71.061924,42.3537]]],[[[-71.061909,42.353825],[-71.06189,42.353811],[-71.061838,42.353847],[-71.061863,42.353855],[-71.061909,42.353825]]],[[[-71.061898,42.349926],[-71.06188,42.349913],[-71.061837,42.349944],[-71.061861,42.349951],[-71.061898,42.349926]]],[[[-71.061892,42.35],[-71.061874,42.349987],[-71.061831,42.350018],[-71.061855,42.350025],[-71.061892,42.35]]],[[[-71.061868,42.350044],[-71.06185,42.350031],[-71.061817,42.350044],[-71.061777,42.350098],[-71.061827,42.350092],[-71.061868,42.350044]]],[[[-71.061851,42.348312],[-71.061838,42.348288],[-71.061789,42.348281],[-71.061724,42.348312],[-71.061711,42.348336],[-71.061739,42.348367],[-71.061774,42.348367],[-71.061838,42.348336],[-71.061851,42.348312]]],[[[-71.061828,42.353783],[-71.06181,42.35377],[-71.061767,42.353801],[-71.061791,42.353808],[-71.061828,42.353783]]],[[[-71.061825,42.353653],[-71.061806,42.353639],[-71.061754,42.353675],[-71.061779,42.353683],[-71.061825,42.353653]]],[[[-71.061824,42.350155],[-71.061806,42.350142],[-71.061765,42.350172],[-71.061789,42.350179],[-71.061824,42.350155]]],[[[-71.061798,42.3502],[-71.06178,42.350187],[-71.061737,42.350218],[-71.061761,42.350225],[-71.061798,42.3502]]],[[[-71.061789,42.350292],[-71.06175,42.350263],[-71.061677,42.350294],[-71.061668,42.350325],[-71.061628,42.350357],[-71.061628,42.350383],[-71.06167,42.350403],[-71.061752,42.35037],[-71.061765,42.350346],[-71.061754,42.350324],[-71.061789,42.350292]]],[[[-71.06177,42.348421],[-71.061752,42.348408],[-71.061709,42.348439],[-71.061733,42.348446],[-71.06177,42.348421]]],[[[-71.061766,42.349666],[-71.061751,42.349641],[-71.061698,42.349633],[-71.061638,42.349662],[-71.061624,42.349687],[-71.061654,42.349721],[-71.061691,42.349721],[-71.061751,42.349691],[-71.061766,42.349666]]],[[[-71.061759,42.353607],[-71.061744,42.353582],[-71.061691,42.353574],[-71.061631,42.353603],[-71.061617,42.353628],[-71.061647,42.353662],[-71.061684,42.353662],[-71.061744,42.353632],[-71.061759,42.353607]]],[[[-71.061747,42.353738],[-71.061729,42.353725],[-71.061686,42.353756],[-71.06171,42.353763],[-71.061747,42.353738]]],[[[-71.061692,42.348648],[-71.06168,42.348626],[-71.06165,42.348617],[-71.061563,42.348659],[-71.061537,42.348639],[-71.061503,42.348639],[-71.061438,42.34867],[-71.061425,42.348694],[-71.061453,42.348725],[-71.061488,42.348725],[-71.061562,42.348683],[-71.061619,42.3487],[-71.06168,42.34867],[-71.061692,42.348648]]],[[[-71.061645,42.348297],[-71.061629,42.348268],[-71.061569,42.348259],[-71.061496,42.348295],[-71.061479,42.348324],[-71.061513,42.348361],[-71.061556,42.348361],[-71.061629,42.348326],[-71.061645,42.348297]]],[[[-71.061628,42.35355],[-71.06161,42.353537],[-71.061563,42.35357],[-71.061587,42.353577],[-71.061628,42.35355]]],[[[-71.06161,42.348837],[-71.061592,42.348824],[-71.061549,42.348855],[-71.061573,42.348862],[-71.06161,42.348837]]],[[[-71.061608,42.3485],[-71.06159,42.348487],[-71.061547,42.348518],[-71.061571,42.348525],[-71.061608,42.3485]]],[[[-71.061597,42.348184],[-71.061579,42.348171],[-71.061532,42.348204],[-71.061556,42.348211],[-71.061597,42.348184]]],[[[-71.061548,42.349568],[-71.061533,42.349543],[-71.061499,42.349532],[-71.06144,42.349554],[-71.061446,42.34952],[-71.061401,42.349498],[-71.061322,42.34953],[-71.061308,42.349555],[-71.061322,42.349581],[-71.061356,42.349591],[-71.061415,42.349569],[-71.061409,42.349603],[-71.061454,42.349625],[-71.061533,42.349593],[-71.061548,42.349568]]],[[[-71.061502,42.348854],[-71.06149,42.348832],[-71.061444,42.348825],[-71.061383,42.348855],[-71.06137,42.348877],[-71.061396,42.348906],[-71.061429,42.348906],[-71.06149,42.348876],[-71.061502,42.348854]]],[[[-71.061493,42.35095],[-71.06147,42.350933],[-71.061425,42.350952],[-71.061413,42.350974],[-71.061443,42.350983],[-71.061493,42.35095]]],[[[-71.061472,42.34815],[-71.061454,42.348118],[-71.061386,42.348108],[-71.061307,42.348146],[-71.061289,42.348179],[-71.061327,42.348221],[-71.061374,42.348221],[-71.061454,42.348182],[-71.061472,42.34815]]],[[[-71.061452,42.348248],[-71.061443,42.348231],[-71.061408,42.348226],[-71.061355,42.348251],[-71.061348,42.348277],[-71.061391,42.34829],[-71.061452,42.348248]]],[[[-71.061438,42.349255],[-71.06142,42.349242],[-71.061373,42.349275],[-71.061397,42.349282],[-71.061438,42.349255]]],[[[-71.061418,42.351122],[-71.0614,42.351109],[-71.061357,42.35114],[-71.061381,42.351147],[-71.061418,42.351122]]],[[[-71.061399,42.349052],[-71.06138,42.349038],[-71.061328,42.349074],[-71.061353,42.349082],[-71.061399,42.349052]]],[[[-71.061397,42.35118],[-71.061379,42.351167],[-71.061336,42.351198],[-71.06136,42.351205],[-71.061397,42.35118]]],[[[-71.061371,42.35124],[-71.061353,42.351227],[-71.06131,42.351258],[-71.061334,42.351265],[-71.061371,42.35124]]],[[[-71.061368,42.34943],[-71.06135,42.349417],[-71.061307,42.349448],[-71.061331,42.349455],[-71.061368,42.34943]]],[[[-71.061352,42.351289],[-71.061334,42.351276],[-71.061291,42.351307],[-71.061315,42.351314],[-71.061352,42.351289]]],[[[-71.061349,42.349228],[-71.061309,42.349208],[-71.061251,42.349247],[-71.061291,42.349267],[-71.061349,42.349228]]],[[[-71.061282,42.34963],[-71.061264,42.349617],[-71.061219,42.349649],[-71.061243,42.349656],[-71.061282,42.34963]]],[[[-71.061261,42.349678],[-71.061243,42.349665],[-71.061198,42.349697],[-71.061222,42.349704],[-71.061261,42.349678]]],[[[-71.061244,42.35337],[-71.061226,42.353357],[-71.061183,42.353388],[-71.061207,42.353395],[-71.061244,42.35337]]],[[[-71.061238,42.354774],[-71.06122,42.354761],[-71.061177,42.354792],[-71.061201,42.354799],[-71.061238,42.354774]]],[[[-71.061222,42.34983],[-71.06121,42.349808],[-71.061164,42.349801],[-71.061103,42.349831],[-71.06109,42.349853],[-71.061116,42.349882],[-71.061149,42.349882],[-71.06121,42.349852],[-71.061222,42.34983]]],[[[-71.061188,42.354916],[-71.06117,42.354903],[-71.061127,42.354934],[-71.061151,42.354941],[-71.061188,42.354916]]],[[[-71.061188,42.353344],[-71.06117,42.353331],[-71.061127,42.353362],[-71.061151,42.353369],[-71.061188,42.353344]]],[[[-71.061156,42.35003],[-71.061141,42.350003],[-71.061084,42.349995],[-71.061014,42.350029],[-71.060999,42.350056],[-71.061031,42.350091],[-71.06107,42.350091],[-71.061141,42.350057],[-71.061156,42.35003]]],[[[-71.061138,42.35332],[-71.06112,42.353307],[-71.061077,42.353338],[-71.061101,42.353345],[-71.061138,42.35332]]],[[[-71.061048,42.353275],[-71.06103,42.353262],[-71.060983,42.353295],[-71.061007,42.353302],[-71.061048,42.353275]]],[[[-71.061038,42.34849],[-71.06102,42.348477],[-71.060977,42.348508],[-71.061001,42.348515],[-71.061038,42.34849]]],[[[-71.061032,42.348602],[-71.061017,42.348575],[-71.06096,42.348567],[-71.06089,42.348601],[-71.060875,42.348628],[-71.060907,42.348663],[-71.060946,42.348663],[-71.061017,42.348629],[-71.061032,42.348602]]],[[[-71.061005,42.348717],[-71.060989,42.348688],[-71.060929,42.348679],[-71.060856,42.348715],[-71.060839,42.348744],[-71.060873,42.348781],[-71.060916,42.348781],[-71.060989,42.348746],[-71.061005,42.348717]]],[[[-71.060988,42.353363],[-71.06097,42.35335],[-71.060927,42.353381],[-71.060951,42.353388],[-71.060988,42.353363]]],[[[-71.060942,42.348827],[-71.06093,42.348805],[-71.060884,42.348798],[-71.060823,42.348828],[-71.06081,42.34885],[-71.060836,42.348879],[-71.060869,42.348879],[-71.06093,42.348849],[-71.060942,42.348827]]],[[[-71.060938,42.35322],[-71.06092,42.353207],[-71.060877,42.353238],[-71.060901,42.353245],[-71.060938,42.35322]]],[[[-71.060923,42.35333],[-71.060905,42.353317],[-71.06086,42.353349],[-71.060884,42.353356],[-71.060923,42.35333]]],[[[-71.060862,42.353302],[-71.060844,42.353289],[-71.060801,42.35332],[-71.060825,42.353327],[-71.060862,42.353302]]],[[[-71.060847,42.349174],[-71.060827,42.349137],[-71.060749,42.349125],[-71.06066,42.349168],[-71.060639,42.349205],[-71.060683,42.349254],[-71.060738,42.349254],[-71.060827,42.349211],[-71.060847,42.349174]]],[[[-71.060733,42.34939],[-71.060718,42.349365],[-71.060665,42.349357],[-71.060605,42.349386],[-71.060591,42.349411],[-71.060621,42.349445],[-71.060658,42.349445],[-71.060718,42.349415],[-71.060733,42.34939]]],[[[-71.060695,42.349506],[-71.06068,42.349481],[-71.060627,42.349473],[-71.06056,42.349505],[-71.060546,42.349531],[-71.060576,42.349564],[-71.060613,42.349564],[-71.06068,42.349531],[-71.060695,42.349506]]],[[[-71.060628,42.34926],[-71.06061,42.349247],[-71.060567,42.349278],[-71.060591,42.349285],[-71.060628,42.34926]]],[[[-71.060609,42.34967],[-71.060594,42.349645],[-71.060541,42.349637],[-71.060474,42.349669],[-71.06046,42.349695],[-71.06049,42.349728],[-71.060527,42.349728],[-71.060594,42.349695],[-71.060609,42.34967]]],[[[-71.060608,42.3493],[-71.06059,42.349287],[-71.060547,42.349318],[-71.060571,42.349325],[-71.060608,42.3493]]],[[[-71.060598,42.35304],[-71.06058,42.353027],[-71.060537,42.353058],[-71.060561,42.353065],[-71.060598,42.35304]]],[[[-71.060588,42.349342],[-71.06057,42.349329],[-71.060527,42.34936],[-71.060551,42.349367],[-71.060588,42.349342]]],[[[-71.060582,42.349792],[-71.060567,42.349765],[-71.06051,42.349757],[-71.06044,42.349791],[-71.060425,42.349818],[-71.060457,42.349853],[-71.060496,42.349853],[-71.060567,42.349819],[-71.060582,42.349792]]],[[[-71.060558,42.349407],[-71.06054,42.349394],[-71.060497,42.349425],[-71.060521,42.349432],[-71.060558,42.349407]]],[[[-71.060548,42.349453],[-71.06053,42.34944],[-71.060485,42.349472],[-71.060509,42.349479],[-71.060548,42.349453]]],[[[-71.060538,42.349503],[-71.06052,42.34949],[-71.060475,42.349522],[-71.060499,42.349529],[-71.060538,42.349503]]],[[[-71.060518,42.352997],[-71.0605,42.352984],[-71.060457,42.353015],[-71.060481,42.353022],[-71.060518,42.352997]]],[[[-71.060508,42.353283],[-71.06049,42.35327],[-71.060445,42.353302],[-71.060469,42.353309],[-71.060508,42.353283]]],[[[-71.060504,42.35315],[-71.060486,42.353137],[-71.060443,42.353168],[-71.060467,42.353175],[-71.060504,42.35315]]],[[[-71.060504,42.3496],[-71.060486,42.349587],[-71.060443,42.349618],[-71.060467,42.349625],[-71.060504,42.3496]]],[[[-71.060504,42.349556],[-71.060486,42.349543],[-71.060443,42.349574],[-71.060467,42.349581],[-71.060504,42.349556]]],[[[-71.060488,42.34964],[-71.06047,42.349627],[-71.060427,42.349658],[-71.060451,42.349665],[-71.060488,42.34964]]],[[[-71.060468,42.352974],[-71.06045,42.352961],[-71.060405,42.352993],[-71.060429,42.353],[-71.060468,42.352974]]],[[[-71.060428,42.3531],[-71.06041,42.353087],[-71.060367,42.353118],[-71.060391,42.353125],[-71.060428,42.3531]]],[[[-71.060419,42.353405],[-71.060418,42.35338],[-71.0604,42.353367],[-71.060319,42.3534],[-71.060298,42.353416],[-71.060297,42.353465],[-71.060347,42.353459],[-71.060419,42.353405]]],[[[-71.060388,42.349884],[-71.06037,42.349871],[-71.060325,42.349903],[-71.060349,42.34991],[-71.060388,42.349884]]],[[[-71.060374,42.35307],[-71.060356,42.353057],[-71.060313,42.353088],[-71.060337,42.353095],[-71.060374,42.35307]]],[[[-71.060318,42.350037],[-71.0603,42.350024],[-71.060257,42.350055],[-71.060281,42.350062],[-71.060318,42.350037]]],[[[-71.060314,42.35015],[-71.060286,42.350118],[-71.060297,42.3501],[-71.060273,42.350093],[-71.060186,42.350146],[-71.060172,42.350171],[-71.060202,42.350205],[-71.060239,42.350205],[-71.060299,42.350175],[-71.060314,42.35015]]],[[[-71.060174,42.34947],[-71.060163,42.34945],[-71.06012,42.349443],[-71.060062,42.349472],[-71.06005,42.349492],[-71.060074,42.349519],[-71.060104,42.349519],[-71.060163,42.34949],[-71.060174,42.34947]]],[[[-71.060158,42.352962],[-71.06014,42.352949],[-71.060097,42.35298],[-71.060121,42.352987],[-71.060158,42.352962]]],[[[-71.060119,42.349556],[-71.060079,42.349536],[-71.060021,42.349575],[-71.060061,42.349595],[-71.060119,42.349556]]],[[[-71.060105,42.35341],[-71.060092,42.353386],[-71.060043,42.353379],[-71.059978,42.35341],[-71.059965,42.353434],[-71.059993,42.353465],[-71.060028,42.353465],[-71.060092,42.353434],[-71.060105,42.35341]]],[[[-71.060086,42.349644],[-71.060075,42.349625],[-71.060036,42.34962],[-71.059971,42.349665],[-71.059993,42.349689],[-71.06002,42.349689],[-71.060086,42.349644]]],[[[-71.059972,42.351044],[-71.05996,42.351022],[-71.059914,42.351015],[-71.059853,42.351045],[-71.05984,42.351067],[-71.059866,42.351096],[-71.059899,42.351096],[-71.05996,42.351066],[-71.059972,42.351044]]],[[[-71.059901,42.351135],[-71.059865,42.351117],[-71.059813,42.351146],[-71.059813,42.351161],[-71.059847,42.351171],[-71.059901,42.351135]]],[[[-71.059858,42.3533],[-71.05984,42.353287],[-71.059797,42.353318],[-71.059821,42.353325],[-71.059858,42.3533]]],[[[-71.059822,42.35326],[-71.05981,42.353238],[-71.059764,42.353231],[-71.059703,42.353261],[-71.05969,42.353283],[-71.059716,42.353312],[-71.059749,42.353312],[-71.05981,42.353282],[-71.059822,42.35326]]],[[[-71.059758,42.352753],[-71.05974,42.35274],[-71.059695,42.352772],[-71.059719,42.352779],[-71.059758,42.352753]]],[[[-71.059688,42.352737],[-71.05967,42.352724],[-71.059625,42.352756],[-71.059649,42.352763],[-71.059688,42.352737]]],[[[-71.059669,42.354954],[-71.059629,42.354934],[-71.059571,42.354973],[-71.059611,42.354993],[-71.059669,42.354954]]],[[[-71.059649,42.35171],[-71.059634,42.351685],[-71.0596,42.351674],[-71.059484,42.351713],[-71.059473,42.351732],[-71.059508,42.351735],[-71.059521,42.351757],[-71.059555,42.351767],[-71.059634,42.351735],[-71.059649,42.35171]]],[[[-71.059634,42.35273],[-71.059616,42.352717],[-71.059571,42.352749],[-71.059595,42.352756],[-71.059634,42.35273]]],[[[-71.059622,42.35492],[-71.05955,42.354866],[-71.059478,42.354901],[-71.059485,42.354927],[-71.059548,42.354964],[-71.059622,42.35492]]],[[[-71.059589,42.352783],[-71.059574,42.352758],[-71.059521,42.35275],[-71.059461,42.352779],[-71.059447,42.352804],[-71.059477,42.352838],[-71.059514,42.352838],[-71.059574,42.352808],[-71.059589,42.352783]]],[[[-71.059562,42.3516],[-71.059553,42.351583],[-71.059518,42.351578],[-71.059465,42.351603],[-71.059458,42.351629],[-71.059501,42.351642],[-71.059562,42.3516]]],[[[-71.059518,42.351097],[-71.0595,42.351084],[-71.059457,42.351115],[-71.059481,42.351122],[-71.059518,42.351097]]],[[[-71.059482,42.354813],[-71.059473,42.354796],[-71.059438,42.354791],[-71.059385,42.354816],[-71.059378,42.354842],[-71.059421,42.354855],[-71.059482,42.354813]]],[[[-71.059478,42.35117],[-71.05946,42.351157],[-71.059417,42.351188],[-71.059441,42.351195],[-71.059478,42.35117]]],[[[-71.059456,42.351627],[-71.05942,42.351609],[-71.059368,42.351638],[-71.059368,42.351653],[-71.059402,42.351663],[-71.059456,42.351627]]],[[[-71.059432,42.354774],[-71.059389,42.354714],[-71.059364,42.354707],[-71.059295,42.354735],[-71.059285,42.354754],[-71.059307,42.354778],[-71.059334,42.354778],[-71.059335,42.354811],[-71.059358,42.354818],[-71.059432,42.354774]]],[[[-71.059428,42.3531],[-71.05941,42.353087],[-71.059367,42.353118],[-71.059391,42.353125],[-71.059428,42.3531]]],[[[-71.059418,42.35301],[-71.0594,42.352997],[-71.059357,42.353028],[-71.059381,42.353035],[-71.059418,42.35301]]],[[[-71.059387,42.351704],[-71.059364,42.351687],[-71.059319,42.351706],[-71.059307,42.351728],[-71.059337,42.351737],[-71.059387,42.351704]]],[[[-71.059323,42.35178],[-71.0593,42.351763],[-71.059255,42.351782],[-71.059243,42.351804],[-71.059273,42.351813],[-71.059323,42.35178]]],[[[-71.059219,42.35129],[-71.059204,42.351265],[-71.059173,42.351254],[-71.059183,42.35123],[-71.059159,42.35123],[-71.059129,42.351197],[-71.059091,42.351197],[-71.05904,42.351222],[-71.05901,42.351255],[-71.059024,42.35128],[-71.059058,42.351291],[-71.059129,42.351263],[-71.059074,42.351301],[-71.059084,42.35134],[-71.059044,42.351368],[-71.059044,42.351396],[-71.05907,42.351415],[-71.059107,42.351415],[-71.059174,42.351382],[-71.059189,42.351357],[-71.059174,42.351332],[-71.059219,42.35129]]],[[[-71.059184,42.353294],[-71.059166,42.353281],[-71.059123,42.353312],[-71.059147,42.353319],[-71.059184,42.353294]]],[[[-71.059098,42.35146],[-71.05908,42.351447],[-71.059037,42.351478],[-71.059061,42.351485],[-71.059098,42.35146]]],[[[-71.059092,42.354385],[-71.059083,42.354368],[-71.059048,42.354363],[-71.058995,42.354388],[-71.058988,42.354414],[-71.059031,42.354427],[-71.059092,42.354385]]],[[[-71.059088,42.353287],[-71.05907,42.353274],[-71.059027,42.353305],[-71.059051,42.353312],[-71.059088,42.353287]]],[[[-71.059066,42.351517],[-71.05903,42.351499],[-71.058978,42.351528],[-71.058978,42.351543],[-71.059012,42.351553],[-71.059066,42.351517]]],[[[-71.059018,42.354332],[-71.059,42.354319],[-71.058957,42.35435],[-71.058981,42.354357],[-71.059018,42.354332]]],[[[-71.059006,42.351604],[-71.05897,42.351578],[-71.058901,42.351606],[-71.058891,42.351625],[-71.058901,42.351644],[-71.058825,42.351693],[-71.058818,42.351719],[-71.058723,42.351791],[-71.058723,42.351811],[-71.058643,42.351847],[-71.058631,42.351867],[-71.058642,42.351886],[-71.058595,42.351909],[-71.058557,42.351962],[-71.058509,42.351959],[-71.058436,42.351995],[-71.058325,42.352116],[-71.058408,42.352129],[-71.058569,42.352026],[-71.058581,42.351982],[-71.058683,42.351923],[-71.05869,42.351897],[-71.058875,42.351757],[-71.058883,42.351728],[-71.05892,42.351699],[-71.058913,42.351673],[-71.059006,42.351604]]],[[[-71.058998,42.353283],[-71.05898,42.35327],[-71.058937,42.353301],[-71.058961,42.353308],[-71.058998,42.353283]]],[[[-71.058959,42.35429],[-71.05894,42.354276],[-71.058888,42.354312],[-71.058913,42.35432],[-71.058959,42.35429]]],[[[-71.058864,42.353268],[-71.058846,42.353255],[-71.058803,42.353286],[-71.058827,42.353293],[-71.058864,42.353268]]],[[[-71.058758,42.353268],[-71.05874,42.353255],[-71.058697,42.353286],[-71.058721,42.353293],[-71.058758,42.353268]]],[[[-71.058568,42.35253],[-71.05855,42.352517],[-71.058507,42.352548],[-71.058531,42.352555],[-71.058568,42.35253]]],[[[-71.058508,42.352524],[-71.05849,42.352511],[-71.058447,42.352542],[-71.058471,42.352549],[-71.058508,42.352524]]],[[[-71.058499,42.35248],[-71.05848,42.352466],[-71.058428,42.352502],[-71.058453,42.35251],[-71.058499,42.35248]]],[[[-71.058428,42.352528],[-71.05841,42.352515],[-71.058365,42.352547],[-71.058389,42.352554],[-71.058428,42.352528]]],[[[-71.058388,42.35247],[-71.05837,42.352457],[-71.058327,42.352488],[-71.058351,42.352495],[-71.058388,42.35247]]],[[[-71.058348,42.35252],[-71.05833,42.352507],[-71.058287,42.352538],[-71.058311,42.352545],[-71.058348,42.35252]]],[[[-71.058288,42.35091],[-71.05827,42.350897],[-71.058227,42.350928],[-71.058251,42.350935],[-71.058288,42.35091]]],[[[-71.058278,42.352467],[-71.05826,42.352454],[-71.058217,42.352485],[-71.058241,42.352492],[-71.058278,42.352467]]],[[[-71.058268,42.352512],[-71.05825,42.352499],[-71.058207,42.35253],[-71.058231,42.352537],[-71.058268,42.352512]]],[[[-71.058218,42.350887],[-71.0582,42.350874],[-71.058157,42.350905],[-71.058181,42.350912],[-71.058218,42.350887]]],[[[-71.058038,42.352665],[-71.05802,42.352652],[-71.057977,42.352683],[-71.058001,42.35269],[-71.058038,42.352665]]],[[[-71.058032,42.352768],[-71.058014,42.352755],[-71.057971,42.352786],[-71.057995,42.352793],[-71.058032,42.352768]]],[[[-71.058008,42.352905],[-71.05799,42.352892],[-71.057947,42.352923],[-71.057971,42.35293],[-71.058008,42.352905]]],[[[-71.057803,42.350693],[-71.057785,42.35068],[-71.057742,42.350711],[-71.057766,42.350718],[-71.057803,42.350693]]],[[[-71.057758,42.350677],[-71.05774,42.350664],[-71.057697,42.350695],[-71.057721,42.350702],[-71.057758,42.350677]]],[[[-71.05775,42.352226],[-71.057714,42.352208],[-71.057662,42.352237],[-71.057662,42.352252],[-71.057696,42.352262],[-71.05775,42.352226]]],[[[-71.057623,42.35219],[-71.057583,42.35217],[-71.057525,42.352209],[-71.057565,42.352229],[-71.057623,42.35219]]],[[[-71.057536,42.35216],[-71.0575,42.352142],[-71.057448,42.352171],[-71.057448,42.352186],[-71.057482,42.352196],[-71.057536,42.35216]]],[[[-71.057456,42.35214],[-71.05742,42.352122],[-71.057368,42.352151],[-71.057368,42.352166],[-71.057402,42.352176],[-71.057456,42.35214]]],[[[-71.057414,42.350403],[-71.057396,42.35039],[-71.057353,42.350421],[-71.057377,42.350428],[-71.057414,42.350403]]],[[[-71.057398,42.350494],[-71.05738,42.350481],[-71.057337,42.350512],[-71.057361,42.350519],[-71.057398,42.350494]]],[[[-71.057369,42.35211],[-71.057329,42.35209],[-71.057271,42.352129],[-71.057311,42.352149],[-71.057369,42.35211]]],[[[-71.057348,42.351707],[-71.05733,42.351694],[-71.057285,42.351726],[-71.057309,42.351733],[-71.057348,42.351707]]],[[[-71.057338,42.35175],[-71.05732,42.351737],[-71.057277,42.351768],[-71.057301,42.351775],[-71.057338,42.35175]]],[[[-71.057309,42.351897],[-71.057291,42.351884],[-71.057248,42.351915],[-71.057272,42.351922],[-71.057309,42.351897]]],[[[-71.057298,42.351955],[-71.05728,42.351942],[-71.057239,42.351972],[-71.057263,42.351979],[-71.057298,42.351955]]],[[[-71.057298,42.350925],[-71.05728,42.350912],[-71.057233,42.350945],[-71.057257,42.350952],[-71.057298,42.350925]]],[[[-71.057268,42.351063],[-71.05725,42.35105],[-71.057203,42.351083],[-71.057227,42.35109],[-71.057268,42.351063]]],[[[-71.057208,42.35141],[-71.05719,42.351397],[-71.057147,42.351428],[-71.057171,42.351435],[-71.057208,42.35141]]],[[[-71.057198,42.35055],[-71.05718,42.350537],[-71.057137,42.350568],[-71.057161,42.350575],[-71.057198,42.35055]]],[[[-71.057147,42.350632],[-71.057129,42.350619],[-71.057086,42.35065],[-71.05711,42.350657],[-71.057147,42.350632]]],[[[-71.057094,42.350533],[-71.057076,42.35052],[-71.057033,42.350551],[-71.057057,42.350558],[-71.057094,42.350533]]],[[[-71.057038,42.34984],[-71.05702,42.349827],[-71.056977,42.349858],[-71.057001,42.349865],[-71.057038,42.34984]]],[[[-71.057022,42.349903],[-71.057013,42.349886],[-71.056978,42.349881],[-71.056925,42.349906],[-71.056918,42.349932],[-71.056961,42.349945],[-71.057022,42.349903]]],[[[-71.056868,42.352028],[-71.05685,42.352015],[-71.056801,42.352049],[-71.056825,42.352056],[-71.056868,42.352028]]],[[[-71.056834,42.35023],[-71.056816,42.350217],[-71.056773,42.350248],[-71.056797,42.350255],[-71.056834,42.35023]]],[[[-71.056829,42.34976],[-71.056818,42.34974],[-71.056775,42.349733],[-71.056717,42.349762],[-71.056705,42.349782],[-71.056729,42.349809],[-71.056759,42.349809],[-71.056818,42.34978],[-71.056829,42.34976]]],[[[-71.056798,42.350307],[-71.05678,42.350294],[-71.056737,42.350325],[-71.056761,42.350332],[-71.056798,42.350307]]],[[[-71.056792,42.34984],[-71.05676,42.349816],[-71.056688,42.349851],[-71.056706,42.349882],[-71.056646,42.349911],[-71.056632,42.349936],[-71.056672,42.349971],[-71.05659,42.350014],[-71.056601,42.350053],[-71.056654,42.350061],[-71.056725,42.35002],[-71.056725,42.349992],[-71.056688,42.349971],[-71.05677,42.349929],[-71.05677,42.349901],[-71.056744,42.349882],[-71.056792,42.34984]]],[[[-71.056748,42.351994],[-71.05673,42.351981],[-71.056683,42.352014],[-71.056707,42.352021],[-71.056748,42.351994]]],[[[-71.056659,42.350094],[-71.056619,42.350074],[-71.056561,42.350113],[-71.056601,42.350133],[-71.056659,42.350094]]],[[[-71.056643,42.350613],[-71.056625,42.3506],[-71.056576,42.350634],[-71.0566,42.350641],[-71.056643,42.350613]]],[[[-71.056626,42.353203],[-71.05659,42.353185],[-71.056538,42.353214],[-71.056538,42.353229],[-71.056572,42.353239],[-71.056626,42.353203]]],[[[-71.056622,42.350185],[-71.056613,42.350168],[-71.056578,42.350163],[-71.056525,42.350188],[-71.056518,42.350214],[-71.056561,42.350227],[-71.056622,42.350185]]],[[[-71.056608,42.35068],[-71.05659,42.350667],[-71.056541,42.350701],[-71.056565,42.350708],[-71.056608,42.35068]]],[[[-71.056559,42.353165],[-71.05654,42.353151],[-71.056488,42.353187],[-71.056513,42.353195],[-71.056559,42.353165]]],[[[-71.056559,42.350834],[-71.056544,42.350809],[-71.056491,42.350801],[-71.056431,42.35083],[-71.056417,42.350855],[-71.056447,42.350889],[-71.056484,42.350889],[-71.056544,42.350859],[-71.056559,42.350834]]],[[[-71.056484,42.353127],[-71.056465,42.353113],[-71.056413,42.353149],[-71.056438,42.353157],[-71.056484,42.353127]]],[[[-71.056468,42.35192],[-71.05645,42.351907],[-71.056401,42.351941],[-71.056425,42.351948],[-71.056468,42.35192]]],[[[-71.056428,42.35103],[-71.05641,42.351017],[-71.056367,42.351048],[-71.056391,42.351055],[-71.056428,42.35103]]],[[[-71.056398,42.351097],[-71.05638,42.351084],[-71.056331,42.351118],[-71.056355,42.351125],[-71.056398,42.351097]]],[[[-71.056393,42.35309],[-71.05637,42.353073],[-71.056325,42.353092],[-71.056313,42.353114],[-71.056343,42.353123],[-71.056393,42.35309]]],[[[-71.056388,42.3519],[-71.05637,42.351887],[-71.056329,42.351917],[-71.056353,42.351924],[-71.056388,42.3519]]],[[[-71.056364,42.351176],[-71.056346,42.351163],[-71.056303,42.351194],[-71.056327,42.351201],[-71.056364,42.351176]]],[[[-71.056338,42.35493],[-71.05632,42.354917],[-71.056271,42.354951],[-71.056295,42.354958],[-71.056338,42.35493]]],[[[-71.056328,42.354836],[-71.05631,42.354823],[-71.056261,42.354857],[-71.056285,42.354864],[-71.056328,42.354836]]],[[[-71.056309,42.35475],[-71.05629,42.354736],[-71.056238,42.354772],[-71.056263,42.35478],[-71.056309,42.35475]]],[[[-71.056306,42.35467],[-71.05627,42.354652],[-71.056218,42.354681],[-71.056218,42.354696],[-71.056252,42.354706],[-71.056306,42.35467]]],[[[-71.056258,42.351376],[-71.05624,42.351363],[-71.056195,42.351384],[-71.056205,42.351402],[-71.056176,42.351419],[-71.056186,42.351437],[-71.056145,42.351469],[-71.056169,42.351476],[-71.056207,42.351455],[-71.056197,42.351438],[-71.056238,42.351416],[-71.056228,42.351399],[-71.056258,42.351376]]],[[[-71.056256,42.350842],[-71.056238,42.350829],[-71.056189,42.350863],[-71.056213,42.35087],[-71.056256,42.350842]]],[[[-71.056248,42.35305],[-71.05623,42.353037],[-71.056187,42.353068],[-71.056211,42.353075],[-71.056248,42.35305]]],[[[-71.056226,42.350933],[-71.056208,42.35092],[-71.056159,42.350954],[-71.056183,42.350961],[-71.056226,42.350933]]],[[[-71.056186,42.351036],[-71.056168,42.351023],[-71.056119,42.351057],[-71.056143,42.351064],[-71.056186,42.351036]]],[[[-71.056148,42.351145],[-71.05613,42.351132],[-71.056081,42.351166],[-71.056105,42.351173],[-71.056148,42.351145]]],[[[-71.056078,42.35171],[-71.05606,42.351697],[-71.056015,42.351729],[-71.056039,42.351736],[-71.056078,42.35171]]],[[[-71.055977,42.351355],[-71.055959,42.351342],[-71.05591,42.351376],[-71.055934,42.351383],[-71.055977,42.351355]]],[[[-71.055953,42.351412],[-71.055935,42.351399],[-71.055886,42.351433],[-71.05591,42.35144],[-71.055953,42.351412]]],[[[-71.05592,42.351482],[-71.055902,42.351469],[-71.055853,42.351503],[-71.055877,42.35151],[-71.05592,42.351482]]],[[[-71.055888,42.351561],[-71.05587,42.351548],[-71.055821,42.351582],[-71.055845,42.351589],[-71.055888,42.351561]]],[[[-71.055869,42.352226],[-71.055854,42.352201],[-71.05582,42.35219],[-71.055741,42.352222],[-71.05573,42.352261],[-71.055696,42.352284],[-71.055696,42.352311],[-71.055741,42.352333],[-71.05582,42.352301],[-71.055831,42.352263],[-71.055869,42.352226]]],[[[-71.055859,42.351622],[-71.055841,42.351609],[-71.055792,42.351643],[-71.055816,42.35165],[-71.055859,42.351622]]],[[[-71.055808,42.351727],[-71.05579,42.351714],[-71.055741,42.351748],[-71.055765,42.351755],[-71.055808,42.351727]]],[[[-71.055788,42.353336],[-71.055756,42.353312],[-71.055691,42.353339],[-71.055691,42.353373],[-71.055635,42.353398],[-71.055574,42.353452],[-71.055599,42.35346],[-71.055716,42.353409],[-71.055717,42.35338],[-71.055788,42.353336]]],[[[-71.055788,42.351776],[-71.05577,42.351763],[-71.055721,42.351797],[-71.055745,42.351804],[-71.055788,42.351776]]],[[[-71.055558,42.353497],[-71.05554,42.353484],[-71.055491,42.353518],[-71.055515,42.353525],[-71.055558,42.353497]]],[[[-71.055498,42.35353],[-71.05548,42.353517],[-71.055435,42.353549],[-71.055459,42.353556],[-71.055498,42.35353]]],[[[-71.055262,42.353653],[-71.055244,42.35364],[-71.055199,42.353652],[-71.05515,42.353676],[-71.055113,42.353724],[-71.055143,42.353733],[-71.055231,42.353687],[-71.055262,42.353653]]]]},"properties":{"kind":"tree"}}]}