{"type":"FeatureCollection","features":[{"type":"Feature","geometry":{"type":"MultiPolygon","coordinates":[[[[-71.06703,42.351826],[-71.067007,42.351692],[-71.066747,42.351106],[-71.065467,42.351257],[-71.064967,42.35123],[-71.064761,42.351297],[-71.06466,42.351703],[-71.064794,42.351723],[-71.064605,42.351784],[-71.064616,42.351742],[-71.064476,42.351725],[-71.064631,42.351675],[-71.064664,42.351553],[-71.064318,42.351514],[-71.064332,42.351504],[-71.064565,42.351531],[-71.064671,42.351497],[-71.064745,42.351218],[-71.064502,42.351183],[-71.064458,42.351197],[-71.063934,42.351133],[-71.063901,42.351144],[-71.063049,42.351044],[-71.06299,42.351063],[-71.062956,42.351126],[-71.062859,42.351478],[-71.063113,42.351516],[-71.062987,42.351557],[-71.062895,42.351546],[-71.062608,42.351639],[-71.062023,42.351525],[-71.061289,42.351543],[-71.061053,42.35162],[-71.061041,42.351545],[-71.060388,42.351402],[-71.060274,42.351446],[-71.060337,42.351643],[-71.06056,42.35169],[-71.060571,42.35171],[-71.060377,42.351757],[-71.060234,42.351369],[-71.059758,42.351262],[-71.059599,42.351313],[-71.05955,42.351442],[-71.059561,42.351505],[-71.059545,42.35151],[-71.059574,42.351687],[-71.059603,42.351685],[-71.059622,42.351801],[-71.059386,42.351848],[-71.059207,42.351906],[-71.059222,42.352013],[-71.058407,42.352283],[-71.058254,42.352383],[-71.058195,42.352457],[-71.058157,42.352546],[-71.056991,42.352932],[-71.056741,42.353072],[-71.056595,42.353127],[-71.056546,42.353172],[-71.056532,42.353209],[-71.056242,42.353099],[-71.055752,42.353254],[-71.055513,42.353382],[-71.05553,42.353449],[-71.055372,42.353534],[-71.055396,42.353559],[-71.055262,42.353603],[-71.055094,42.353695],[-71.054759,42.353889],[-71.054777,42.353907],[-71.053881,42.354198],[-71.053496,42.354401],[-71.053464,42.354439],[-71.053463,42.354479],[-71.0537,42.354739],[-71.053774,42.354775],[-71.054549,42.354531],[-71.054242,42.354731],[-71.054241,42.354769],[-71.054402,42.354917],[-71.054452,42.354921],[-71.05456,42.354886],[-71.054581,42.354905],[-71.05464,42.354886],[-71.054689,42.354933],[-71.05498,42.354839],[-71.055224,42.354735],[-71.055207,42.354716],[-71.055403,42.35465],[-71.055413,42.354675],[-71.055973,42.354588],[-71.05615,42.35453],[-71.05645,42.354501],[-71.0566,42.354452],[-71.05675,42.354501],[-71.057381,42.354297],[-71.057404,42.354304],[-71.057494,42.354281],[-71.057535,42.354247],[-71.057833,42.353762],[-71.057909,42.353805],[-71.058012,42.353837],[-71.057836,42.353894],[-71.057647,42.354219],[-71.057373,42.354637],[-71.057764,42.354756],[-71.057938,42.3547],[-71.058251,42.354395],[-71.058235,42.354385],[-71.05827,42.354374],[-71.058444,42.354207],[-71.058508,42.354255],[-71.058481,42.354264],[-71.058245,42.354485],[-71.058256,42.354491],[-71.058208,42.354507],[-71.057922,42.354788],[-71.057798,42.354828],[-71.057741,42.354883],[-71.057766,42.354934],[-71.057682,42.355018],[-71.057679,42.355041],[-71.057726,42.355059],[-71.05783,42.35506],[-71.05785,42.3551],[-71.057977,42.355115],[-71.058343,42.354995],[-71.0584,42.35494],[-71.058451,42.354923],[-71.058718,42.354674],[-71.058709,42.354669],[-71.058969,42.354454],[-71.058896,42.354398],[-71.059071,42.354417],[-71.059395,42.354312],[-71.059776,42.35399],[-71.059802,42.354087],[-71.059367,42.354423],[-71.059218,42.354557],[-71.059193,42.3546],[-71.059204,42.354654],[-71.059081,42.35459],[-71.058962,42.354618],[-71.058819,42.354748],[-71.058697,42.354799],[-71.058372,42.355098],[-71.058376,42.355124],[-71.058459,42.35516],[-71.058258,42.355362],[-71.058332,42.355417],[-71.058624,42.355536],[-71.059025,42.355406],[-71.059062,42.355422],[-71.059228,42.355368],[-71.059633,42.354992],[-71.059951,42.355229],[-71.060069,42.355191],[-71.060388,42.355419],[-71.060491,42.355389],[-71.061121,42.354808],[-71.061112,42.354802],[-71.062001,42.353951],[-71.06211,42.353951],[-71.061947,42.354131],[-71.061977,42.354137],[-71.061833,42.354184],[-71.061658,42.354366],[-71.061616,42.354379],[-71.061549,42.354448],[-71.0616,42.354472],[-71.061424,42.354628],[-71.061307,42.354672],[-71.061088,42.354877],[-71.061171,42.35492],[-71.061068,42.354953],[-71.060874,42.355136],[-71.061187,42.355293],[-71.061373,42.355233],[-71.061545,42.355046],[-71.061446,42.354993],[-71.061501,42.354976],[-71.06204,42.355254],[-71.062184,42.355207],[-71.062271,42.355114],[-71.062378,42.355187],[-71.062457,42.355161],[-71.062558,42.355218],[-71.062691,42.355175],[-71.06271,42.355155],[-71.062943,42.355279],[-71.063118,42.355222],[-71.06318,42.355155],[-71.063088,42.355098],[-71.063255,42.355044],[-71.063852,42.353943],[-71.063862,42.353896],[-71.063778,42.35387],[-71.063892,42.353833],[-71.063998,42.353634],[-71.063768,42.353564],[-71.063615,42.353613],[-71.063669,42.353512],[-71.063699,42.353388],[-71.063651,42.353352],[-71.063204,42.353334],[-71.063001,42.3534],[-71.06272,42.353391],[-71.062319,42.353521],[-71.062413,42.353271],[-71.062517,42.353237],[-71.06395,42.35336],[-71.064146,42.353296],[-71.064309,42.35284],[-71.064239,42.352835],[-71.064309,42.352812],[-71.064353,42.352644],[-71.064373,42.352435],[-71.064339,42.352409],[-71.063942,42.352395],[-71.06387,42.352418],[-71.063872,42.352394],[-71.063363,42.352382],[-71.063313,42.352398],[-71.062724,42.352454],[-71.062484,42.352532],[-71.062475,42.352688],[-71.062443,42.352698],[-71.062452,42.352508],[-71.062412,42.352483],[-71.061487,42.352561],[-71.061337,42.35261],[-71.061336,42.35258],[-71.061194,42.352592],[-71.060993,42.352657],[-71.060985,42.352601],[-71.060475,42.352641],[-71.060188,42.352643],[-71.060128,42.352662],[-71.060137,42.352759],[-71.060156,42.352762],[-71.060108,42.352916],[-71.060539,42.353128],[-71.060638,42.353096],[-71.060529,42.353218],[-71.060651,42.353286],[-71.060156,42.353446],[-71.060033,42.35358],[-71.059811,42.353458],[-71.059769,42.353472],[-71.059597,42.353398],[-71.059432,42.35339],[-71.059145,42.353483],[-71.059213,42.35342],[-71.059207,42.353385],[-71.058861,42.353373],[-71.058707,42.353349],[-71.058263,42.353356],[-71.058016,42.353373],[-71.057816,42.353443],[-71.057769,42.353562],[-71.057783,42.353595],[-71.057834,42.35363],[-71.057804,42.353726],[-71.057588,42.353654],[-71.057531,42.353672],[-71.057474,42.353653],[-71.057554,42.353522],[-71.057295,42.353434],[-71.056973,42.353538],[-71.056957,42.353432],[-71.057003,42.353436],[-71.057602,42.353243],[-71.057731,42.353251],[-71.057723,42.353304],[-71.057766,42.353336],[-71.059026,42.353343],[-71.059298,42.353255],[-71.059374,42.353196],[-71.059378,42.353221],[-71.059661,42.353366],[-71.05993,42.353275],[-71.060034,42.353328],[-71.06021,42.353271],[-71.060325,42.353148],[-71.060198,42.353083],[-71.060156,42.353018],[-71.059657,42.352762],[-71.059553,42.352772],[-71.059352,42.352837],[-71.059318,42.352574],[-71.058989,42.352534],[-71.059287,42.352438],[-71.059302,42.352518],[-71.059572,42.352535],[-71.059748,42.352478],[-71.059715,42.35226],[-71.059695,42.352262],[-71.059628,42.351818],[-71.059681,42.352164],[-71.059897,42.352146],[-71.060033,42.352102],[-71.060023,42.352037],[-71.060153,42.352009],[-71.060165,42.352042],[-71.06039,42.351998],[-71.060403,42.352043],[-71.060256,42.35209],[-71.060284,42.352178],[-71.059891,42.352295],[-71.059934,42.352579],[-71.060323,42.352579],[-71.060405,42.352562],[-71.060414,42.352592],[-71.060789,42.352559],[-71.061084,42.352464],[-71.061099,42.352381],[-71.061396,42.352368],[-71.061404,42.35245],[-71.061612,42.352424],[-71.06162,42.352456],[-71.061785,42.352436],[-71.061907,42.352396],[-71.061911,42.352418],[-71.062041,42.352395],[-71.062043,42.352418],[-71.062319,42.352402],[-71.062499,42.352341],[-71.062557,42.352152],[-71.062598,42.352157],[-71.062584,42.352231],[-71.063273,42.352306],[-71.063389,42.352268],[-71.063389,42.352294],[-71.063412,42.352306],[-71.06389,42.352316],[-71.063879,42.35237],[-71.064156,42.352378],[-71.064428,42.35229],[-71.064397,42.352407],[-71.065205,42.352458],[-71.065317,42.352422],[-71.065409,42.352429],[-71.065404,42.352459],[-71.065601,42.352474],[-71.065777,42.352417],[-71.065781,42.352447],[-71.065877,42.352452],[-71.066063,42.352392],[-71.066078,42.352202],[-71.06617,42.352201],[-71.06627,42.352169],[-71.066292,42.351928],[-71.066575,42.351959],[-71.06703,42.351826]],[[-71.065981,42.351882],[-71.065928,42.351899],[-71.065904,42.352091],[-71.065927,42.351874],[-71.065981,42.351882]],[[-71.064197,42.351735],[-71.064,42.351799],[-71.063965,42.351964],[-71.063857,42.351955],[-71.063876,42.351916],[-71.063873,42.351801],[-71.063892,42.351712],[-71.063963,42.351689],[-71.063959,42.351707],[-71.064197,42.351735]],[[-71.063734,42.351805],[-71.063585,42.351838],[-71.063589,42.35181],[-71.063639,42.351794],[-71.063734,42.351805]],[[-71.063343,42.353904],[-71.063239,42.353938],[-71.063185,42.354023],[-71.062924,42.354005],[-71.063026,42.353972],[-71.063053,42.353853],[-71.063285,42.353856],[-71.063268,42.353882],[-71.063343,42.353904]],[[-71.062564,42.354806],[-71.062537,42.354834],[-71.062513,42.354822],[-71.062564,42.354806]],[[-71.062313,42.354747],[-71.062195,42.354785],[-71.062137,42.354848],[-71.062068,42.354824],[-71.062195,42.354689],[-71.062313,42.354747]],[[-71.061961,42.354641],[-71.061884,42.354727],[-71.061845,42.354707],[-71.061923,42.354623],[-71.061961,42.354641]],[[-71.061869,42.353143],[-71.061866,42.353184],[-71.061576,42.3532],[-71.061323,42.353276],[-71.061356,42.353165],[-71.061869,42.353143]],[[-71.061258,42.3536],[-71.061135,42.353545],[-71.061137,42.353541],[-71.061258,42.3536]],[[-71.061253,42.352037],[-71.061111,42.352085],[-71.061106,42.352027],[-71.06086,42.352066],[-71.060828,42.35204],[-71.060997,42.352022],[-71.061108,42.351986],[-71.061053,42.351621],[-71.061116,42.351936],[-71.061233,42.351931],[-71.061253,42.352037]],[[-71.061163,42.353402],[-71.061145,42.353485],[-71.06105,42.353439],[-71.061163,42.353402]],[[-71.060154,42.351849],[-71.059997,42.351883],[-71.059939,42.351524],[-71.059955,42.35162],[-71.060077,42.351604],[-71.060154,42.351849]],[[-71.060042,42.351491],[-71.060042,42.351493],[-71.060033,42.351494],[-71.060042,42.351491]],[[-71.0593,42.352331],[-71.059278,42.352338],[-71.05925,42.352161],[-71.059274,42.352159],[-71.0593,42.352331]],[[-71.059149,42.353959],[-71.05912,42.353992],[-71.059124,42.354039],[-71.05906,42.353989],[-71.059012,42.354005],[-71.05903,42.353974],[-71.058895,42.353885],[-71.058627,42.353972],[-71.058846,42.353765],[-71.05883,42.353747],[-71.058878,42.353731],[-71.059019,42.3536],[-71.059064,42.353626],[-71.058864,42.353829],[-71.059113,42.353971],[-71.059149,42.353959]],[[-71.058707,42.354249],[-71.058691,42.354264],[-71.058657,42.354239],[-71.058683,42.354231],[-71.058707,42.354249]],[[-71.058553,42.354006],[-71.058458,42.354095],[-71.058099,42.353863],[-71.058233,42.353904],[-71.058444,42.354042],[-71.058553,42.354006]],[[-71.058029,42.354269],[-71.057988,42.354263],[-71.058003,42.354258],[-71.058029,42.354269]],[[-71.056912,42.353386],[-71.05691,42.3534],[-71.056531,42.353517],[-71.055915,42.35378],[-71.055871,42.353831],[-71.055599,42.353947],[-71.055605,42.353994],[-71.055589,42.353983],[-71.055231,42.354109],[-71.055123,42.354177],[-71.055148,42.354201],[-71.055128,42.354211],[-71.055163,42.354244],[-71.055122,42.354262],[-71.05514,42.35428],[-71.055082,42.354305],[-71.055097,42.35432],[-71.054762,42.354447],[-71.055049,42.354192],[-71.055079,42.354153],[-71.05508,42.354111],[-71.055162,42.354085],[-71.055473,42.353876],[-71.056064,42.353622],[-71.056053,42.3536],[-71.056404,42.353486],[-71.056609,42.35339],[-71.056607,42.353401],[-71.056706,42.35341],[-71.056806,42.353378],[-71.056912,42.353386]],[[-71.056323,42.353991],[-71.056199,42.354194],[-71.056229,42.354204],[-71.056176,42.354222],[-71.056144,42.354049],[-71.056323,42.353991]]],[[[-71.066483,42.348529],[-71.06591,42.348462],[-71.065995,42.348064],[-71.065837,42.348044],[-71.065572,42.34813],[-71.065487,42.34853],[-71.065554,42.348539],[-71.065535,42.348545],[-71.06552,42.348614],[-71.065616,42.348625],[-71.065696,42.348599],[-71.065711,42.348653],[-71.066249,42.348716],[-71.066458,42.348649],[-71.066483,42.348529]]],[[[-71.066107,42.349483],[-71.066051,42.349385],[-71.065921,42.349427],[-71.065951,42.349483],[-71.06562,42.349445],[-71.065366,42.349511],[-71.065278,42.349922],[-71.065077,42.349996],[-71.064989,42.350306],[-71.065231,42.350343],[-71.065208,42.350425],[-71.065222,42.350432],[-71.065172,42.350606],[-71.065281,42.350623],[-71.065274,42.350644],[-71.065289,42.350646],[-71.06521,42.350652],[-71.06487,42.350762],[-71.064902,42.350642],[-71.064881,42.350634],[-71.0649,42.350628],[-71.065001,42.350248],[-71.064826,42.350187],[-71.064836,42.350152],[-71.065043,42.35009],[-71.065169,42.349617],[-71.064416,42.349501],[-71.06426,42.349551],[-71.063761,42.349475],[-71.063653,42.349372],[-71.063696,42.349342],[-71.063746,42.349213],[-71.063772,42.349073],[-71.063736,42.349067],[-71.063827,42.348879],[-71.063945,42.348463],[-71.063623,42.348413],[-71.063453,42.348468],[-71.063476,42.348381],[-71.062604,42.34825],[-71.062456,42.348298],[-71.0623,42.348692],[-71.063184,42.348827],[-71.063259,42.348817],[-71.063231,42.348917],[-71.063251,42.348991],[-71.063074,42.348966],[-71.062993,42.348992],[-71.063042,42.348892],[-71.062425,42.348727],[-71.062279,42.348774],[-71.062144,42.349105],[-71.062155,42.34911],[-71.062096,42.349205],[-71.062098,42.349221],[-71.062225,42.349287],[-71.061962,42.349373],[-71.061948,42.349404],[-71.061973,42.349452],[-71.06182,42.349822],[-71.061917,42.349862],[-71.06171,42.349929],[-71.061778,42.349762],[-71.061652,42.349709],[-71.061812,42.349653],[-71.061975,42.34927],[-71.061808,42.349235],[-71.061839,42.34916],[-71.061723,42.349144],[-71.061783,42.348996],[-71.061753,42.348989],[-71.061778,42.348981],[-71.061895,42.34873],[-71.061814,42.348712],[-71.061885,42.348535],[-71.062164,42.348599],[-71.062216,42.348582],[-71.06226,42.348505],[-71.062367,42.34823],[-71.062255,42.348206],[-71.062166,42.348235],[-71.062094,42.348416],[-71.061947,42.348382],[-71.062034,42.348165],[-71.061907,42.348129],[-71.061817,42.348158],[-71.061595,42.348708],[-71.061539,42.348726],[-71.061445,42.348984],[-71.061463,42.348988],[-71.061446,42.348994],[-71.061426,42.349053],[-71.061438,42.349071],[-71.061415,42.349081],[-71.061374,42.349198],[-71.061315,42.349218],[-71.061301,42.349238],[-71.061186,42.349522],[-71.061184,42.349542],[-71.061238,42.349566],[-71.061228,42.349594],[-71.061055,42.34965],[-71.060944,42.349927],[-71.061134,42.350005],[-71.061116,42.35005],[-71.061148,42.350057],[-71.06087,42.35023],[-71.060966,42.349994],[-71.060509,42.349891],[-71.0603,42.349958],[-71.060327,42.349891],[-71.060261,42.349801],[-71.060367,42.349747],[-71.060567,42.349259],[-71.060443,42.349109],[-71.060321,42.349063],[-71.059837,42.34922],[-71.05972,42.349483],[-71.059453,42.350176],[-71.059047,42.350086],[-71.058842,42.350152],[-71.058535,42.350911],[-71.058567,42.350947],[-71.058989,42.351041],[-71.059198,42.350975],[-71.059502,42.350224],[-71.059742,42.350299],[-71.060085,42.350188],[-71.060032,42.35032],[-71.06048,42.350446],[-71.060825,42.350334],[-71.060777,42.350451],[-71.06126,42.350566],[-71.061448,42.350506],[-71.061391,42.35065],[-71.061902,42.35078],[-71.061972,42.350758],[-71.06192,42.350825],[-71.062106,42.350877],[-71.062104,42.35089],[-71.061597,42.350765],[-71.061441,42.350816],[-71.061409,42.350896],[-71.061484,42.350912],[-71.061442,42.350926],[-71.061365,42.351165],[-71.061165,42.35123],[-71.061227,42.351071],[-71.060769,42.350979],[-71.060602,42.351033],[-71.060444,42.351362],[-71.060905,42.351465],[-71.061096,42.351402],[-71.061068,42.351471],[-71.061096,42.351498],[-71.061408,42.351488],[-71.061518,42.351452],[-71.061936,42.351439],[-71.062037,42.351407],[-71.062056,42.35147],[-71.06222,42.35151],[-71.062275,42.351501],[-71.062276,42.351514],[-71.062565,42.351578],[-71.062728,42.351525],[-71.062859,42.351039],[-71.062315,42.350945],[-71.062449,42.350962],[-71.062955,42.350789],[-71.062968,42.350956],[-71.06319,42.350989],[-71.063649,42.350841],[-71.063685,42.35084],[-71.063829,42.350904],[-71.063985,42.35092],[-71.063845,42.350965],[-71.063836,42.351023],[-71.06378,42.351041],[-71.063759,42.351083],[-71.063831,42.3511],[-71.064253,42.351142],[-71.06472,42.350991],[-71.064705,42.351043],[-71.064724,42.351076],[-71.06494,42.351142],[-71.065342,42.351165],[-71.065557,42.351135],[-71.065991,42.350995],[-71.065959,42.350666],[-71.065699,42.350661],[-71.065953,42.350615],[-71.06593,42.350327],[-71.065758,42.350337],[-71.065703,42.350365],[-71.065625,42.35037],[-71.065537,42.350337],[-71.065916,42.350219],[-71.065881,42.34989],[-71.065776,42.349769],[-71.06566,42.349801],[-71.065695,42.349631],[-71.065783,42.349744],[-71.066095,42.349646],[-71.066019,42.349511],[-71.066107,42.349483]],[[-71.065541,42.350658],[-71.065484,42.350657],[-71.0655,42.350652],[-71.065541,42.350658]],[[-71.064008,42.350247],[-71.063904,42.350414],[-71.063539,42.350364],[-71.06308,42.350512],[-71.063013,42.350621],[-71.063124,42.350237],[-71.063279,42.350187],[-71.063382,42.349972],[-71.063412,42.349866],[-71.063783,42.350284],[-71.063819,42.350308],[-71.064008,42.350247]],[[-71.062615,42.349409],[-71.062566,42.349452],[-71.062287,42.349326],[-71.062275,42.349306],[-71.062313,42.349318],[-71.062451,42.349273],[-71.062571,42.349211],[-71.062456,42.349351],[-71.062596,42.349415],[-71.062615,42.349409]],[[-71.062371,42.349837],[-71.062326,42.349897],[-71.062272,42.349939],[-71.062146,42.349886],[-71.062042,42.349862],[-71.062111,42.34984],[-71.062221,42.349886],[-71.062371,42.349837]],[[-71.062296,42.350942],[-71.062135,42.350995],[-71.062118,42.351047],[-71.062067,42.351063],[-71.062061,42.351015],[-71.061979,42.350994],[-71.062083,42.35096],[-71.062103,42.350912],[-71.062296,42.350942]],[[-71.061694,42.350245],[-71.061631,42.350357],[-71.061612,42.350404],[-71.061624,42.350408],[-71.061503,42.350451],[-71.061655,42.350082],[-71.06161,42.350197],[-71.061694,42.350245]],[[-71.061137,42.351298],[-71.061126,42.351325],[-71.061136,42.351299],[-71.061137,42.351298]]],[[[-71.065565,42.354342],[-71.065534,42.354305],[-71.065487,42.354301],[-71.065392,42.354335],[-71.065377,42.354373],[-71.065402,42.354402],[-71.065448,42.354411],[-71.065545,42.354379],[-71.065565,42.354342]]],[[[-71.065529,42.347903],[-71.065483,42.347819],[-71.065392,42.347805],[-71.065371,42.347781],[-71.065289,42.347784],[-71.065318,42.347764],[-71.065319,42.347677],[-71.065257,42.347643],[-71.064894,42.347587],[-71.06479,42.347621],[-71.064399,42.347817],[-71.064285,42.348079],[-71.064236,42.348254],[-71.064272,42.34826],[-71.064402,42.348216],[-71.064414,42.34823],[-71.064593,42.348163],[-71.064674,42.348182],[-71.064399,42.348274],[-71.064175,42.348371],[-71.064144,42.348396],[-71.064118,42.34849],[-71.064483,42.348546],[-71.064806,42.348442],[-71.064844,42.348384],[-71.06486,42.348323],[-71.064888,42.348335],[-71.064926,42.348323],[-71.065066,42.348484],[-71.065402,42.34842],[-71.065427,42.34839],[-71.065343,42.348295],[-71.065475,42.348175],[-71.065484,42.348131],[-71.065475,42.348101],[-71.065402,42.348018],[-71.06552,42.347941],[-71.065529,42.347903]]],[[[-71.065421,42.352871],[-71.065303,42.352844],[-71.065266,42.352856],[-71.065249,42.352903],[-71.065275,42.352984],[-71.065341,42.352998],[-71.065378,42.352986],[-71.065421,42.352871]]],[[[-71.06533,42.348887],[-71.065323,42.348802],[-71.065279,42.348688],[-71.064844,42.348594],[-71.064341,42.348545],[-71.064216,42.348601],[-71.064068,42.349015],[-71.064302,42.349051],[-71.064275,42.349114],[-71.064299,42.349142],[-71.064205,42.349187],[-71.064454,42.349356],[-71.064701,42.349267],[-71.064721,42.349273],[-71.06492,42.349208],[-71.065153,42.349099],[-71.065279,42.349075],[-71.06533,42.348887]]],[[[-71.064727,42.352541],[-71.064635,42.35254],[-71.0646,42.352646],[-71.064692,42.352647],[-71.064727,42.352541]]],[[[-71.06461,42.353278],[-71.064515,42.353275],[-71.064481,42.353375],[-71.064549,42.353389],[-71.064576,42.35338],[-71.06461,42.353278]]],[[[-71.064113,42.347947],[-71.063968,42.347919],[-71.063753,42.347988],[-71.063668,42.348058],[-71.063651,42.348118],[-71.063538,42.348106],[-71.063606,42.347866],[-71.06346,42.347843],[-71.063389,42.347866],[-71.06332,42.34812],[-71.063302,42.348126],[-71.063276,42.348222],[-71.063931,42.34832],[-71.06402,42.348291],[-71.064113,42.347947]]],[[[-71.064097,42.353425],[-71.063837,42.353375],[-71.063726,42.353411],[-71.063685,42.353525],[-71.063941,42.35359],[-71.064052,42.353554],[-71.064097,42.353425]]],[[[-71.063935,42.354829],[-71.063869,42.354811],[-71.063843,42.354819],[-71.06382,42.354868],[-71.063886,42.354885],[-71.063912,42.354877],[-71.063935,42.354829]]],[[[-71.063301,42.347999],[-71.062961,42.347921],[-71.062894,42.347943],[-71.062879,42.347978],[-71.062735,42.347939],[-71.062649,42.347967],[-71.062605,42.348079],[-71.062787,42.348122],[-71.062871,42.348095],[-71.062886,42.348057],[-71.062868,42.348044],[-71.06293,42.348036],[-71.063,42.348051],[-71.062987,42.348106],[-71.063034,42.348115],[-71.063115,42.348074],[-71.063216,42.348097],[-71.06328,42.348076],[-71.063301,42.347999]]],[[[-71.063253,42.34818],[-71.06323,42.348148],[-71.063187,42.348141],[-71.063125,42.348161],[-71.062886,42.348123],[-71.062793,42.348149],[-71.062771,42.348233],[-71.063159,42.348286],[-71.063229,42.348263],[-71.063253,42.34818]]],[[[-71.062777,42.348131],[-71.062667,42.348107],[-71.062572,42.348138],[-71.062545,42.348206],[-71.062666,42.348223],[-71.062761,42.348192],[-71.062777,42.348131]]],[[[-71.062446,42.347953],[-71.061926,42.347827],[-71.061769,42.347877],[-71.061866,42.34764],[-71.061712,42.347604],[-71.061402,42.347704],[-71.061256,42.348054],[-71.061245,42.348146],[-71.061364,42.348174],[-71.061674,42.348074],[-71.061694,42.348039],[-71.062036,42.348116],[-71.062161,42.348123],[-71.062411,42.348042],[-71.062446,42.347953]]],[[[-71.06164,42.348359],[-71.061414,42.348308],[-71.061313,42.348341],[-71.061269,42.348334],[-71.06131,42.348233],[-71.061184,42.348198],[-71.061084,42.34823],[-71.061033,42.348308],[-71.061037,42.348334],[-71.060956,42.348548],[-71.060971,42.348551],[-71.060927,42.348645],[-71.061043,42.348675],[-71.061127,42.348648],[-71.061214,42.348437],[-71.061291,42.348432],[-71.061285,42.348446],[-71.061342,42.348517],[-71.061323,42.348565],[-71.061182,42.348599],[-71.061138,42.348706],[-71.061373,42.34876],[-71.061479,42.348726],[-71.061601,42.348416],[-71.061619,42.34841],[-71.06164,42.348359]]],[[[-71.061436,42.348818],[-71.061371,42.34877],[-71.061248,42.348743],[-71.061155,42.348757],[-71.06104,42.348794],[-71.061001,42.348858],[-71.060983,42.348926],[-71.060878,42.348902],[-71.060794,42.348929],[-71.06067,42.349268],[-71.060899,42.34936],[-71.060914,42.349355],[-71.06091,42.349366],[-71.061118,42.349453],[-71.061196,42.349428],[-71.061244,42.349357],[-71.061178,42.34933],[-71.061269,42.349298],[-71.061384,42.349005],[-71.061311,42.348989],[-71.061377,42.348967],[-71.061436,42.348818]],[[-71.061112,42.349139],[-71.061068,42.349153],[-71.061046,42.349209],[-71.061062,42.349251],[-71.061054,42.34928],[-71.060999,42.34927],[-71.06102,42.349213],[-71.060994,42.349204],[-71.060936,42.349221],[-71.060865,42.349194],[-71.060884,42.349169],[-71.060995,42.349132],[-71.061001,42.349115],[-71.061112,42.349139]],[[-71.06105,42.348994],[-71.060997,42.349104],[-71.060941,42.349067],[-71.060963,42.349013],[-71.06105,42.348994]]],[[[-71.06136,42.350735],[-71.061295,42.350688],[-71.060899,42.350587],[-71.060802,42.350618],[-71.060742,42.350805],[-71.060958,42.350853],[-71.0611,42.350837],[-71.061094,42.350854],[-71.061214,42.350882],[-71.061321,42.350852],[-71.06136,42.350735]]],[[[-71.061068,42.348118],[-71.061011,42.348097],[-71.060527,42.348254],[-71.060065,42.348896],[-71.060302,42.348953],[-71.060786,42.348796],[-71.061068,42.348118]]],[[[-71.060747,42.35054],[-71.060472,42.350463],[-71.060395,42.350464],[-71.060301,42.350494],[-71.06026,42.350485],[-71.060158,42.350518],[-71.05986,42.351204],[-71.060366,42.351312],[-71.060469,42.351279],[-71.060595,42.350984],[-71.060568,42.350978],[-71.060747,42.35054]],[[-71.060349,42.350674],[-71.060327,42.35068],[-71.060331,42.35067],[-71.060349,42.350674]],[[-71.060263,42.350847],[-71.060257,42.350846],[-71.060261,42.350836],[-71.060263,42.350847]]],[[[-71.060116,42.350367],[-71.059867,42.350296],[-71.059742,42.350336],[-71.059669,42.350539],[-71.059711,42.350549],[-71.059686,42.350621],[-71.059737,42.350632],[-71.059728,42.350654],[-71.059958,42.350704],[-71.060019,42.350684],[-71.06004,42.35063],[-71.060021,42.350626],[-71.060116,42.350367]]],[[[-71.059318,42.349726],[-71.059225,42.349697],[-71.05914,42.349706],[-71.059066,42.349879],[-71.059205,42.349912],[-71.059244,42.349899],[-71.059318,42.349726]]],[[[-71.059038,42.351101],[-71.058633,42.351011],[-71.058506,42.351052],[-71.058235,42.35173],[-71.058431,42.351773],[-71.058558,42.351732],[-71.058746,42.351554],[-71.05886,42.351417],[-71.05899,42.351213],[-71.059038,42.351101]]],[[[-71.058776,42.350034],[-71.058372,42.349945],[-71.058275,42.349976],[-71.058289,42.349924],[-71.057874,42.34983],[-71.057707,42.349884],[-71.057521,42.349981],[-71.057488,42.35016],[-71.05743,42.350178],[-71.057326,42.350683],[-71.057476,42.350719],[-71.057536,42.3507],[-71.057904,42.35079],[-71.058026,42.35075],[-71.058014,42.350793],[-71.05812,42.350819],[-71.05817,42.350802],[-71.058381,42.350855],[-71.058459,42.35083],[-71.058581,42.350557],[-71.058587,42.350541],[-71.058574,42.350538],[-71.058706,42.35021],[-71.058767,42.350099],[-71.058776,42.350034]],[[-71.058219,42.350229],[-71.058194,42.350316],[-71.05804,42.350284],[-71.058219,42.350229]]],[[[-71.058424,42.349376],[-71.057926,42.349266],[-71.057858,42.349288],[-71.057721,42.349573],[-71.057572,42.349621],[-71.057547,42.349655],[-71.057593,42.349681],[-71.057688,42.349652],[-71.057637,42.349683],[-71.057645,42.349713],[-71.057672,42.349724],[-71.057789,42.34969],[-71.058109,42.349757],[-71.058297,42.349696],[-71.058424,42.349376]]],[[[-71.058414,42.350953],[-71.058104,42.350876],[-71.058046,42.350895],[-71.058052,42.350873],[-71.057558,42.350757],[-71.057351,42.350829],[-71.057202,42.35159],[-71.057344,42.351612],[-71.057131,42.35168],[-71.056802,42.351534],[-71.056947,42.351586],[-71.057156,42.351519],[-71.05732,42.350691],[-71.05694,42.350597],[-71.056755,42.350619],[-71.056536,42.350688],[-71.056517,42.350695],[-71.056399,42.35094],[-71.056495,42.350964],[-71.056367,42.351005],[-71.056225,42.351306],[-71.05629,42.351332],[-71.056012,42.351422],[-71.055797,42.351856],[-71.056151,42.351949],[-71.056134,42.351995],[-71.056709,42.352145],[-71.057066,42.352029],[-71.057052,42.352107],[-71.057704,42.352312],[-71.057943,42.352241],[-71.058115,42.351737],[-71.058103,42.35172],[-71.057978,42.3517],[-71.058131,42.351651],[-71.058414,42.350953]],[[-71.057875,42.35114],[-71.057868,42.351166],[-71.057824,42.351156],[-71.057875,42.35114]],[[-71.05786,42.351694],[-71.057832,42.351703],[-71.057836,42.351691],[-71.05786,42.351694]],[[-71.05783,42.351302],[-71.057821,42.351333],[-71.057762,42.351324],[-71.05783,42.351302]],[[-71.057738,42.35163],[-71.057727,42.351667],[-71.057657,42.351656],[-71.057738,42.35163]],[[-71.056875,42.351015],[-71.05687,42.351027],[-71.056852,42.351023],[-71.056875,42.351015]],[[-71.056714,42.351407],[-71.056682,42.35148],[-71.056599,42.351444],[-71.056714,42.351407]]],[[[-71.058071,42.348706],[-71.057613,42.348605],[-71.057264,42.348718],[-71.05718,42.348927],[-71.057639,42.349028],[-71.057988,42.348915],[-71.058071,42.348706]]],[[[-71.057505,42.349748],[-71.057133,42.349667],[-71.05685,42.349758],[-71.056749,42.349989],[-71.056832,42.350011],[-71.056776,42.350139],[-71.056718,42.350161],[-71.056609,42.350367],[-71.056504,42.350417],[-71.056485,42.350454],[-71.056495,42.350496],[-71.056542,42.350536],[-71.056594,42.350548],[-71.056741,42.350511],[-71.057143,42.350607],[-71.057338,42.350543],[-71.057505,42.349748]]],[[[-71.057349,42.355074],[-71.057329,42.354923],[-71.05689,42.354747],[-71.056502,42.354776],[-71.056263,42.354853],[-71.056229,42.354666],[-71.056094,42.354605],[-71.055658,42.35468],[-71.055134,42.35485],[-71.05503,42.354903],[-71.055048,42.355006],[-71.054334,42.355237],[-71.05444,42.355815],[-71.054892,42.355771],[-71.055258,42.355653],[-71.055734,42.35561],[-71.056364,42.355412],[-71.056353,42.355352],[-71.056533,42.355338],[-71.057349,42.355074]]],[[[-71.057,42.352232],[-71.056202,42.352031],[-71.055554,42.352252],[-71.055544,42.352273],[-71.054594,42.352592],[-71.054517,42.352756],[-71.055111,42.352905],[-71.055745,42.3527],[-71.055761,42.352732],[-71.05589,42.352766],[-71.056473,42.352609],[-71.056859,42.352484],[-71.05694,42.352364],[-71.057,42.352232]]],[[[-71.056775,42.349199],[-71.056596,42.349149],[-71.055419,42.349488],[-71.056683,42.347603],[-71.056673,42.347544],[-71.055908,42.347262],[-71.055777,42.347305],[-71.054402,42.349352],[-71.054393,42.349427],[-71.054224,42.349482],[-71.053254,42.350925],[-71.053835,42.35114],[-71.053999,42.351087],[-71.054278,42.35119],[-71.054337,42.351171],[-71.055034,42.350131],[-71.054887,42.350422],[-71.054911,42.35044],[-71.054894,42.350473],[-71.054968,42.350484],[-71.055277,42.350708],[-71.055448,42.350748],[-71.056016,42.350734],[-71.056238,42.350673],[-71.056434,42.350281],[-71.056635,42.349782],[-71.056775,42.349199]],[[-71.055276,42.349655],[-71.055251,42.349703],[-71.055234,42.349697],[-71.055276,42.349655]]],[[[-71.055768,42.35162],[-71.055498,42.351545],[-71.054479,42.351779],[-71.054267,42.351847],[-71.054095,42.352022],[-71.054621,42.3523],[-71.054781,42.352351],[-71.054949,42.352376],[-71.055126,42.352336],[-71.055338,42.352268],[-71.055458,42.352178],[-71.055549,42.352069],[-71.055768,42.35162]]]]},"properties":{"kind":"building"}},{"type":"Feature","geometry":{"type":"MultiPolygon","coordinates":[[[[-71.066058,42.353451],[-71.066047,42.35341],[-71.066015,42.353375],[-71.065912,42.353343],[-71.065676,42.353418],[-71.065644,42.353453],[-71.065633,42.353494],[-71.065644,42.353535],[-71.065676,42.35357],[-71.065779,42.353602],[-71.066015,42.353527],[-71.066047,42.353492],[-71.066058,42.353451]]],[[[-71.066048,42.352923],[-71.066021,42.352832],[-71.065989,42.352797],[-71.065886,42.352765],[-71.065772,42.352792],[-71.06575,42.352742],[-71.065662,42.352729],[-71.065386,42.352833],[-71.065358,42.352884],[-71.065365,42.352911],[-71.065413,42.352948],[-71.065369,42.352981],[-71.065369,42.353026],[-71.065305,42.353063],[-71.065288,42.353015],[-71.065224,42.353003],[-71.065271,42.352979],[-71.065263,42.352948],[-71.065235,42.352939],[-71.06516,42.352961],[-71.065138,42.352977],[-71.065138,42.352999],[-71.065174,42.353016],[-71.065108,42.353043],[-71.065088,42.353078],[-71.065108,42.353114],[-71.065143,42.353127],[-71.065057,42.353164],[-71.064976,42.353168],[-71.064863,42.353204],[-71.064928,42.353148],[-71.064939,42.353107],[-71.064928,42.353066],[-71.064865,42.353015],[-71.06483,42.352952],[-71.064791,42.352933],[-71.064699,42.352933],[-71.064574,42.352974],[-71.064509,42.353022],[-71.0645,42.353056],[-71.064526,42.353108],[-71.064514,42.35315],[-71.064525,42.353191],[-71.064604,42.35325],[-71.064464,42.353303],[-71.064431,42.353361],[-71.06444,42.353392],[-71.064499,42.353436],[-71.064542,42.353443],[-71.064851,42.353353],[-71.064901,42.353363],[-71.064987,42.353342],[-71.064997,42.353387],[-71.065026,42.353419],[-71.064919,42.353429],[-71.064809,42.353469],[-71.064788,42.353506],[-71.064809,42.353543],[-71.06486,42.353559],[-71.064925,42.353543],[-71.064953,42.353579],[-71.06504,42.353605],[-71.065174,42.35357],[-71.065212,42.353627],[-71.065259,42.353651],[-71.065371,42.353651],[-71.065551,42.353584],[-71.065583,42.353549],[-71.065594,42.353508],[-71.065583,42.353467],[-71.065504,42.353408],[-71.065448,42.3534],[-71.065376,42.353413],[-71.065348,42.353389],[-71.0654,42.353344],[-71.065407,42.353317],[-71.06561,42.353236],[-71.065653,42.353302],[-71.065719,42.353322],[-71.065891,42.353268],[-71.065918,42.353219],[-71.065911,42.353192],[-71.06586,42.353155],[-71.065981,42.353102],[-71.066007,42.353073],[-71.066016,42.353039],[-71.065995,42.352992],[-71.066039,42.352955],[-71.066048,42.352923]],[[-71.065635,42.353109],[-71.065629,42.353131],[-71.065605,42.353119],[-71.065635,42.353109]],[[-71.065614,42.352943],[-71.065578,42.352922],[-71.065608,42.352911],[-71.065614,42.352943]],[[-71.065331,42.353163],[-71.065272,42.353196],[-71.065125,42.353231],[-71.06512,42.353212],[-71.065207,42.353169],[-71.065207,42.353143],[-71.065182,42.353125],[-71.065288,42.353087],[-71.065296,42.353132],[-71.065331,42.353163]],[[-71.064798,42.353252],[-71.064796,42.353261],[-71.064745,42.353275],[-71.064798,42.353252]]],[[[-71.066046,42.354972],[-71.066026,42.354936],[-71.065978,42.354922],[-71.065846,42.354964],[-71.065826,42.354999],[-71.065846,42.355035],[-71.065894,42.355049],[-71.066026,42.355008],[-71.066046,42.354972]]],[[[-71.066022,42.352597],[-71.065976,42.352546],[-71.065874,42.35256],[-71.065812,42.352534],[-71.065753,42.352548],[-71.065688,42.352518],[-71.06557,42.352551],[-71.065524,42.352602],[-71.065446,42.352628],[-71.065465,42.352587],[-71.065457,42.352558],[-71.065434,42.352533],[-71.065361,42.35251],[-71.065175,42.352569],[-71.065145,42.352623],[-71.065175,42.352678],[-71.065249,42.3527],[-71.065395,42.35266],[-71.065388,42.352719],[-71.065437,42.352755],[-71.065472,42.35276],[-71.065638,42.352708],[-71.065658,42.352686],[-71.065661,42.352647],[-71.065694,42.352669],[-71.065796,42.352654],[-71.065858,42.352681],[-71.066,42.352636],[-71.066022,42.352597]]],[[[-71.06602,42.354061],[-71.065981,42.354032],[-71.06587,42.354048],[-71.065786,42.354078],[-71.065772,42.354103],[-71.065802,42.354136],[-71.065839,42.354136],[-71.065996,42.354088],[-71.06602,42.354061]]],[[[-71.06597,42.354146],[-71.065947,42.354129],[-71.065891,42.354146],[-71.065878,42.354168],[-71.065908,42.354177],[-71.06597,42.354146]]],[[[-71.065865,42.354468],[-71.065827,42.3544],[-71.065735,42.354372],[-71.06551,42.354443],[-71.065472,42.354511],[-71.06551,42.354579],[-71.065602,42.354607],[-71.065827,42.354536],[-71.065865,42.354468]]],[[[-71.06583,42.348038],[-71.065811,42.348004],[-71.065765,42.34799],[-71.065638,42.34803],[-71.065619,42.348064],[-71.065638,42.348098],[-71.065684,42.348112],[-71.065811,42.348072],[-71.06583,42.348038]]],[[[-71.06579,42.34818],[-71.065774,42.348151],[-71.065735,42.348139],[-71.065623,42.348175],[-71.065606,42.348204],[-71.065623,42.348233],[-71.065662,42.348245],[-71.065774,42.348209],[-71.06579,42.34818]]],[[[-71.065764,42.353939],[-71.065749,42.353914],[-71.065715,42.353903],[-71.065628,42.353928],[-71.065602,42.353947],[-71.065601,42.353971],[-71.065551,42.353998],[-71.065551,42.354026],[-71.065596,42.354048],[-71.065683,42.354023],[-71.065709,42.354004],[-71.06571,42.35398],[-71.065749,42.353964],[-71.065764,42.353939]]],[[[-71.065738,42.348446],[-71.065721,42.348415],[-71.06568,42.348403],[-71.065563,42.34844],[-71.065546,42.348471],[-71.065563,42.348501],[-71.065604,42.348514],[-71.065721,42.348477],[-71.065738,42.348446]]],[[[-71.065728,42.348293],[-71.06571,42.34828],[-71.065668,42.348292],[-71.065658,42.348309],[-71.065682,42.348317],[-71.065728,42.348293]]],[[[-71.065683,42.354843],[-71.065674,42.354808],[-71.065607,42.354759],[-71.06556,42.354752],[-71.065483,42.354768],[-71.065466,42.354722],[-71.065418,42.354708],[-71.065351,42.354725],[-71.065345,42.354674],[-71.065327,42.354655],[-71.065202,42.35461],[-71.065055,42.354657],[-71.065038,42.354676],[-71.065038,42.354717],[-71.064962,42.354759],[-71.064907,42.354757],[-71.064833,42.354781],[-71.064799,42.354819],[-71.064816,42.354848],[-71.064855,42.35486],[-71.064974,42.354816],[-71.065072,42.354871],[-71.065147,42.354864],[-71.065167,42.354899],[-71.06522,42.354915],[-71.065311,42.354891],[-71.065345,42.354949],[-71.065432,42.354975],[-71.065647,42.354907],[-71.065683,42.354843]]],[[[-71.065625,42.353756],[-71.065608,42.353725],[-71.065567,42.353713],[-71.06545,42.35375],[-71.065433,42.353781],[-71.06545,42.353811],[-71.065491,42.353824],[-71.065608,42.353787],[-71.065625,42.353756]]],[[[-71.0656,42.353866],[-71.065585,42.353839],[-71.065548,42.353828],[-71.065483,42.353845],[-71.065438,42.353826],[-71.065343,42.353853],[-71.065309,42.353891],[-71.065337,42.353925],[-71.06529,42.353926],[-71.065188,42.353962],[-71.065169,42.353996],[-71.065181,42.354022],[-71.065073,42.354058],[-71.06506,42.354105],[-71.065114,42.354132],[-71.065212,42.354104],[-71.065244,42.354081],[-71.065244,42.354047],[-71.065375,42.353988],[-71.065375,42.353952],[-71.065346,42.353929],[-71.065437,42.353912],[-71.065497,42.353924],[-71.065585,42.353893],[-71.0656,42.353866]]],[[[-71.065598,42.348957],[-71.06558,42.348944],[-71.065541,42.348955],[-71.065531,42.348973],[-71.065555,42.34898],[-71.065598,42.348957]]],[[[-71.065588,42.351223],[-71.06557,42.35121],[-71.065523,42.351223],[-71.065513,42.351241],[-71.065537,42.351248],[-71.065588,42.351223]]],[[[-71.065562,42.349094],[-71.065544,42.349081],[-71.065505,42.349092],[-71.065495,42.34911],[-71.065519,42.349117],[-71.065562,42.349094]]],[[[-71.065559,42.349236],[-71.065544,42.349211],[-71.06551,42.3492],[-71.065417,42.34923],[-71.065402,42.349255],[-71.065417,42.349281],[-71.065451,42.349291],[-71.065544,42.349261],[-71.065559,42.349236]]],[[[-71.065552,42.348316],[-71.065534,42.348284],[-71.06549,42.34827],[-71.065368,42.348309],[-71.06535,42.348341],[-71.065368,42.348374],[-71.065411,42.348387],[-71.065534,42.348348],[-71.065552,42.348316]]],[[[-71.06555,42.353665],[-71.065532,42.353633],[-71.065488,42.353619],[-71.065366,42.353658],[-71.065348,42.35369],[-71.065366,42.353723],[-71.065409,42.353736],[-71.065532,42.353697],[-71.06555,42.353665]]],[[[-71.065548,42.34811],[-71.06553,42.348097],[-71.065488,42.348109],[-71.065478,42.348126],[-71.065502,42.348134],[-71.065548,42.34811]]],[[[-71.065483,42.348446],[-71.06546,42.348429],[-71.065404,42.348446],[-71.065391,42.348468],[-71.065421,42.348477],[-71.065483,42.348446]]],[[[-71.065433,42.34879],[-71.065418,42.348765],[-71.065384,42.348754],[-71.065291,42.348784],[-71.065276,42.348809],[-71.065291,42.348835],[-71.065325,42.348845],[-71.065418,42.348815],[-71.065433,42.34879]]],[[[-71.065416,42.353789],[-71.065396,42.353753],[-71.065348,42.353739],[-71.065216,42.353781],[-71.065196,42.353816],[-71.065213,42.353848],[-71.065103,42.353885],[-71.065085,42.353917],[-71.065097,42.353943],[-71.064969,42.353983],[-71.064955,42.354036],[-71.065015,42.354065],[-71.065142,42.354025],[-71.065161,42.353991],[-71.065147,42.353963],[-71.065269,42.353924],[-71.065287,42.353892],[-71.065273,42.353865],[-71.065396,42.353825],[-71.065416,42.353789]]],[[[-71.065396,42.34894],[-71.06536,42.348914],[-71.065288,42.348934],[-71.065266,42.348959],[-71.065302,42.348985],[-71.065374,42.348964],[-71.065396,42.34894]]],[[[-71.065379,42.34907],[-71.065364,42.349045],[-71.06533,42.349034],[-71.065227,42.349067],[-71.065213,42.349092],[-71.065227,42.349118],[-71.065262,42.349128],[-71.065364,42.349095],[-71.065379,42.34907]]],[[[-71.065368,42.35121],[-71.06535,42.351197],[-71.065306,42.35121],[-71.065296,42.351227],[-71.06532,42.351235],[-71.065368,42.35121]]],[[[-71.065268,42.35121],[-71.06525,42.351197],[-71.065208,42.351209],[-71.065198,42.351226],[-71.065222,42.351234],[-71.065268,42.35121]]],[[[-71.065204,42.352785],[-71.065187,42.352754],[-71.065146,42.352742],[-71.065029,42.352779],[-71.065012,42.35281],[-71.065029,42.35284],[-71.065017,42.352888],[-71.064946,42.352936],[-71.064946,42.352976],[-71.065012,42.353009],[-71.065149,42.352965],[-71.065169,42.352928],[-71.065149,42.352891],[-71.065179,42.352852],[-71.065164,42.352827],[-71.065204,42.352785]]],[[[-71.065176,42.35072],[-71.06514,42.350702],[-71.06509,42.350719],[-71.065076,42.350744],[-71.06511,42.350754],[-71.065176,42.35072]]],[[[-71.065151,42.350784],[-71.065115,42.350766],[-71.065065,42.350783],[-71.065051,42.350808],[-71.065085,42.350818],[-71.065151,42.350784]]],[[[-71.065129,42.350853],[-71.06511,42.350839],[-71.065058,42.350854],[-71.065047,42.350873],[-71.065072,42.350881],[-71.065129,42.350853]]],[[[-71.065109,42.352581],[-71.065081,42.35253],[-71.065012,42.352509],[-71.064836,42.352565],[-71.064808,42.352616],[-71.064836,42.352667],[-71.064905,42.352688],[-71.065081,42.352632],[-71.065109,42.352581]]],[[[-71.065103,42.354592],[-71.065085,42.35456],[-71.065041,42.354546],[-71.064768,42.354632],[-71.064719,42.354668],[-71.064719,42.35472],[-71.064768,42.354756],[-71.064803,42.354761],[-71.06494,42.354723],[-71.064969,42.354709],[-71.064996,42.354661],[-71.065085,42.354624],[-71.065103,42.354592]]],[[[-71.065099,42.354179],[-71.065082,42.354148],[-71.065041,42.354136],[-71.064924,42.354173],[-71.064907,42.354204],[-71.064924,42.354234],[-71.064965,42.354247],[-71.065082,42.35421],[-71.065099,42.354179]]],[[[-71.065067,42.354458],[-71.065049,42.354426],[-71.065005,42.354412],[-71.064947,42.354427],[-71.064899,42.354414],[-71.064804,42.354439],[-71.064775,42.354393],[-71.06474,42.354376],[-71.064659,42.354376],[-71.064744,42.354339],[-71.064764,42.354303],[-71.064744,42.354267],[-71.06467,42.354256],[-71.064564,42.354295],[-71.064544,42.35433],[-71.064564,42.354366],[-71.064513,42.354389],[-71.064503,42.354428],[-71.06439,42.354469],[-71.064377,42.354516],[-71.064287,42.354556],[-71.064274,42.354603],[-71.064208,42.354631],[-71.064197,42.354673],[-71.0641,42.354708],[-71.064088,42.354752],[-71.064117,42.354774],[-71.06416,42.354774],[-71.064145,42.354809],[-71.064166,42.354846],[-71.064244,42.354858],[-71.064354,42.354818],[-71.064374,42.354781],[-71.064361,42.354752],[-71.064439,42.354724],[-71.064451,42.354679],[-71.064531,42.354648],[-71.064542,42.354606],[-71.064649,42.354554],[-71.064729,42.354526],[-71.064774,42.35456],[-71.064836,42.35456],[-71.065029,42.3545],[-71.065067,42.354458]],[[-71.064477,42.354532],[-71.064461,42.354558],[-71.064458,42.354545],[-71.064477,42.354532]],[[-71.064472,42.354586],[-71.064432,42.354599],[-71.064462,42.354565],[-71.064472,42.354586]],[[-71.064398,42.354611],[-71.064375,42.354629],[-71.064375,42.354659],[-71.064288,42.35469],[-71.064275,42.354732],[-71.064253,42.35474],[-71.064263,42.354697],[-71.064353,42.354662],[-71.064364,42.354622],[-71.064398,42.354611]]],[[[-71.064955,42.354294],[-71.06494,42.354267],[-71.064903,42.354256],[-71.064795,42.35429],[-71.06478,42.354317],[-71.064795,42.354344],[-71.064832,42.354355],[-71.06494,42.354321],[-71.064955,42.354294]]],[[[-71.064944,42.35131],[-71.064926,42.351297],[-71.064882,42.35131],[-71.064872,42.351327],[-71.064896,42.351335],[-71.064944,42.35131]]],[[[-71.064935,42.35396],[-71.064929,42.353937],[-71.064885,42.353905],[-71.06478,42.353919],[-71.064779,42.353878],[-71.064737,42.353847],[-71.064637,42.35386],[-71.064632,42.353832],[-71.064588,42.3538],[-71.064506,42.353806],[-71.064437,42.353774],[-71.064388,42.353785],[-71.064386,42.353762],[-71.064444,42.353728],[-71.064444,42.353692],[-71.064483,42.35364],[-71.06456,42.35364],[-71.06467,42.353605],[-71.064702,42.353589],[-71.064732,42.353536],[-71.064702,42.353483],[-71.064631,42.353462],[-71.06445,42.353519],[-71.064428,42.353543],[-71.064427,42.353593],[-71.064312,42.353622],[-71.064277,42.353648],[-71.064277,42.353685],[-71.064243,42.353718],[-71.064243,42.353755],[-71.064206,42.353801],[-71.064223,42.35383],[-71.064252,42.35384],[-71.064161,42.353888],[-71.06415,42.353998],[-71.064194,42.354031],[-71.064252,42.354031],[-71.064143,42.354071],[-71.064126,42.354091],[-71.064124,42.354129],[-71.06402,42.35418],[-71.06402,42.354222],[-71.064036,42.35424],[-71.063993,42.354278],[-71.063991,42.354348],[-71.063884,42.354387],[-71.063861,42.354429],[-71.063867,42.354452],[-71.06377,42.354525],[-71.063759,42.354566],[-71.06377,42.354607],[-71.063828,42.354655],[-71.063722,42.354694],[-71.063703,42.354714],[-71.063702,42.354758],[-71.063663,42.354788],[-71.063663,42.354832],[-71.063735,42.354867],[-71.063882,42.354821],[-71.063901,42.354767],[-71.063956,42.354731],[-71.063962,42.354707],[-71.063943,42.354668],[-71.064094,42.354623],[-71.064173,42.354564],[-71.064184,42.354523],[-71.064173,42.354482],[-71.064112,42.354432],[-71.064187,42.354427],[-71.064367,42.35436],[-71.064399,42.354325],[-71.06441,42.354284],[-71.064389,42.354232],[-71.064452,42.354229],[-71.064602,42.354175],[-71.064633,42.354119],[-71.064617,42.35408],[-71.064665,42.354079],[-71.064885,42.354015],[-71.064911,42.354002],[-71.064935,42.35396]],[[-71.064468,42.353945],[-71.064427,42.353998],[-71.064468,42.354051],[-71.064376,42.354081],[-71.064352,42.354041],[-71.064268,42.354027],[-71.064376,42.353987],[-71.064394,42.353968],[-71.064395,42.353925],[-71.064468,42.353945]],[[-71.064311,42.354183],[-71.064251,42.354178],[-71.06425,42.354163],[-71.064307,42.354145],[-71.064311,42.354183]]],[[[-71.064915,42.35417],[-71.0649,42.354145],[-71.064866,42.354134],[-71.064763,42.354167],[-71.064749,42.354192],[-71.064763,42.354218],[-71.064798,42.354228],[-71.0649,42.354195],[-71.064915,42.35417]]],[[[-71.064911,42.354986],[-71.06488,42.354932],[-71.064807,42.354909],[-71.064621,42.354968],[-71.064591,42.355022],[-71.064621,42.355077],[-71.064695,42.355099],[-71.06488,42.35504],[-71.064911,42.354986]]],[[[-71.064857,42.348456],[-71.064839,42.348443],[-71.064797,42.348455],[-71.064787,42.348472],[-71.064811,42.34848],[-71.064857,42.348456]]],[[[-71.064739,42.354797],[-71.064721,42.354784],[-71.064679,42.354796],[-71.064669,42.354813],[-71.064693,42.354821],[-71.064739,42.354797]]],[[[-71.064624,42.351826],[-71.064606,42.351813],[-71.064564,42.351825],[-71.064554,42.351842],[-71.064578,42.35185],[-71.064624,42.351826]]],[[[-71.064621,42.348425],[-71.064603,42.348412],[-71.064561,42.348424],[-71.064551,42.348441],[-71.064575,42.348449],[-71.064621,42.348425]]],[[[-71.064568,42.352055],[-71.06455,42.352042],[-71.064506,42.352055],[-71.064496,42.352072],[-71.06452,42.35208],[-71.064568,42.352055]]],[[[-71.064564,42.352104],[-71.064545,42.35209],[-71.064492,42.352105],[-71.064482,42.352124],[-71.064507,42.352132],[-71.064564,42.352104]]],[[[-71.064548,42.35216],[-71.06453,42.352147],[-71.064488,42.352159],[-71.064478,42.352176],[-71.064502,42.352184],[-71.064548,42.35216]]],[[[-71.064436,42.348399],[-71.064418,42.348386],[-71.064376,42.348398],[-71.064366,42.348415],[-71.06439,42.348423],[-71.064436,42.348399]]],[[[-71.064238,42.350925],[-71.06422,42.350912],[-71.064178,42.350924],[-71.064168,42.350941],[-71.064192,42.350949],[-71.064238,42.350925]]],[[[-71.064209,42.34872],[-71.064186,42.348703],[-71.06413,42.34872],[-71.064117,42.348742],[-71.064147,42.348751],[-71.064209,42.34872]]],[[[-71.064168,42.34884],[-71.06415,42.348827],[-71.064101,42.348841],[-71.064091,42.348859],[-71.064115,42.348866],[-71.064168,42.34884]]],[[[-71.064148,42.350914],[-71.06413,42.350901],[-71.064088,42.350913],[-71.064038,42.350892],[-71.063972,42.350915],[-71.063965,42.350941],[-71.064007,42.350954],[-71.064148,42.350914]]],[[[-71.064088,42.3533],[-71.06407,42.353287],[-71.064021,42.353301],[-71.064011,42.353319],[-71.064035,42.353326],[-71.064088,42.3533]]],[[[-71.064049,42.35339],[-71.06403,42.353376],[-71.063984,42.353389],[-71.063965,42.353372],[-71.063921,42.353385],[-71.063928,42.353374],[-71.06391,42.353361],[-71.063851,42.353383],[-71.063861,42.3534],[-71.063909,42.353389],[-71.063906,42.353411],[-71.063966,42.353401],[-71.063985,42.353419],[-71.064049,42.35339]]],[[[-71.064013,42.353283],[-71.063995,42.35327],[-71.063946,42.353284],[-71.063936,42.353302],[-71.06396,42.353309],[-71.064013,42.353283]]],[[[-71.063998,42.35376],[-71.06398,42.353747],[-71.063931,42.353761],[-71.063921,42.353779],[-71.063945,42.353786],[-71.063998,42.35376]]],[[[-71.063973,42.350903],[-71.063934,42.350874],[-71.063859,42.350896],[-71.063835,42.350923],[-71.063873,42.350951],[-71.063949,42.35093],[-71.063973,42.350903]]],[[[-71.063943,42.353268],[-71.06392,42.353251],[-71.063864,42.353268],[-71.063851,42.35329],[-71.063881,42.353299],[-71.063943,42.353268]]],[[[-71.063922,42.353967],[-71.063913,42.35395],[-71.063878,42.353945],[-71.063812,42.353968],[-71.063805,42.353994],[-71.063847,42.354007],[-71.063913,42.353984],[-71.063922,42.353967]]],[[[-71.063915,42.348675],[-71.063896,42.348661],[-71.063844,42.348676],[-71.063833,42.348695],[-71.063858,42.348703],[-71.063915,42.348675]]],[[[-71.063893,42.348743],[-71.06387,42.348726],[-71.063814,42.348743],[-71.063801,42.348765],[-71.063831,42.348774],[-71.063893,42.348743]]],[[[-71.063879,42.34887],[-71.06386,42.348856],[-71.063808,42.348871],[-71.063797,42.34889],[-71.063822,42.348898],[-71.063879,42.34887]]],[[[-71.063873,42.348793],[-71.063855,42.34878],[-71.063813,42.348792],[-71.063803,42.348809],[-71.063827,42.348817],[-71.063873,42.348793]]],[[[-71.063821,42.349148],[-71.063803,42.349135],[-71.063761,42.349147],[-71.063751,42.349164],[-71.063775,42.349172],[-71.063821,42.349148]]],[[[-71.063816,42.35412],[-71.06378,42.354102],[-71.06373,42.354119],[-71.063716,42.354144],[-71.06375,42.354154],[-71.063816,42.35412]]],[[[-71.063808,42.348427],[-71.06379,42.348414],[-71.063748,42.348426],[-71.063738,42.348443],[-71.063762,42.348451],[-71.063808,42.348427]]],[[[-71.063768,42.349293],[-71.06375,42.34928],[-71.063708,42.349292],[-71.063698,42.349309],[-71.063722,42.349317],[-71.063768,42.349293]]],[[[-71.063755,42.349335],[-71.063737,42.349322],[-71.063695,42.349334],[-71.063685,42.349351],[-71.063709,42.349359],[-71.063755,42.349335]]],[[[-71.063718,42.34841],[-71.0637,42.348397],[-71.063658,42.348409],[-71.063648,42.348426],[-71.063672,42.348434],[-71.063718,42.34841]]],[[[-71.063707,42.350883],[-71.063675,42.350859],[-71.063612,42.350877],[-71.06359,42.350859],[-71.063542,42.350873],[-71.063544,42.350857],[-71.06352,42.350845],[-71.063446,42.350873],[-71.06346,42.350898],[-71.063522,42.350884],[-71.063534,42.350907],[-71.063589,42.350895],[-71.063597,42.350918],[-71.06362,42.350925],[-71.063687,42.350905],[-71.063707,42.350883]]],[[[-71.063689,42.34976],[-71.06367,42.349746],[-71.063618,42.349761],[-71.063607,42.34978],[-71.063632,42.349788],[-71.063689,42.34976]]],[[[-71.063632,42.349854],[-71.063614,42.349841],[-71.063565,42.349855],[-71.063555,42.349873],[-71.063579,42.34988],[-71.063632,42.349854]]],[[[-71.063579,42.34995],[-71.06356,42.349936],[-71.063508,42.349951],[-71.063497,42.34997],[-71.063522,42.349978],[-71.063579,42.34995]]],[[[-71.063569,42.3547],[-71.063554,42.354675],[-71.06352,42.354664],[-71.063426,42.354694],[-71.063412,42.354719],[-71.063426,42.354745],[-71.063461,42.354755],[-71.063554,42.354725],[-71.063569,42.3547]]],[[[-71.063548,42.35],[-71.06353,42.349987],[-71.063481,42.350001],[-71.063471,42.350019],[-71.063495,42.350026],[-71.063548,42.35]]],[[[-71.063509,42.3548],[-71.063494,42.354775],[-71.06346,42.354764],[-71.063366,42.354794],[-71.063352,42.354819],[-71.063366,42.354845],[-71.063401,42.354855],[-71.063494,42.354825],[-71.063509,42.3548]]],[[[-71.063458,42.350418],[-71.06344,42.350405],[-71.063391,42.350419],[-71.063381,42.350437],[-71.063405,42.350444],[-71.063458,42.350418]]],[[[-71.063458,42.35018],[-71.06344,42.350167],[-71.063393,42.35018],[-71.063383,42.350198],[-71.063407,42.350205],[-71.063458,42.35018]]],[[[-71.063434,42.350487],[-71.063416,42.350474],[-71.063369,42.350487],[-71.063359,42.350505],[-71.063383,42.350512],[-71.063434,42.350487]]],[[[-71.063428,42.350246],[-71.06341,42.350233],[-71.063363,42.350246],[-71.063363,42.350271],[-71.063328,42.350298],[-71.063392,42.350292],[-71.063392,42.350268],[-71.063428,42.350246]]],[[[-71.063403,42.35055],[-71.063385,42.350537],[-71.063341,42.35055],[-71.063331,42.350567],[-71.063355,42.350575],[-71.063403,42.35055]]],[[[-71.063386,42.350826],[-71.06335,42.350808],[-71.0633,42.350825],[-71.063286,42.35085],[-71.06332,42.35086],[-71.063386,42.350826]]],[[[-71.063383,42.350765],[-71.063343,42.350745],[-71.063272,42.350782],[-71.063312,42.350802],[-71.063383,42.350765]]],[[[-71.063369,42.350704],[-71.06335,42.35069],[-71.063298,42.350705],[-71.063287,42.350724],[-71.063312,42.350732],[-71.063369,42.350704]]],[[[-71.063368,42.35061],[-71.06335,42.350597],[-71.063306,42.35061],[-71.063296,42.350627],[-71.06332,42.350635],[-71.063368,42.35061]]],[[[-71.063328,42.35044],[-71.06331,42.350427],[-71.063266,42.35044],[-71.063256,42.350457],[-71.06328,42.350465],[-71.063328,42.35044]]],[[[-71.063298,42.350483],[-71.06328,42.35047],[-71.063233,42.350483],[-71.063223,42.350501],[-71.063247,42.350508],[-71.063298,42.350483]]],[[[-71.063273,42.350536],[-71.063255,42.350523],[-71.063208,42.350536],[-71.063198,42.350554],[-71.063222,42.350561],[-71.063273,42.350536]]],[[[-71.063248,42.350582],[-71.06323,42.350569],[-71.063181,42.350583],[-71.063171,42.350601],[-71.063195,42.350608],[-71.063248,42.350582]]],[[[-71.063228,42.35063],[-71.06321,42.350617],[-71.063161,42.350631],[-71.063151,42.350649],[-71.063175,42.350656],[-71.063228,42.35063]]],[[[-71.063198,42.350677],[-71.06318,42.350664],[-71.063141,42.350675],[-71.063131,42.350693],[-71.063155,42.3507],[-71.063198,42.350677]]],[[[-71.063178,42.350727],[-71.06316,42.350714],[-71.063113,42.350727],[-71.063113,42.350752],[-71.063067,42.350785],[-71.063092,42.350793],[-71.063137,42.350778],[-71.063148,42.350771],[-71.063137,42.350752],[-71.063178,42.350727]]],[[[-71.063144,42.352238],[-71.063126,42.352225],[-71.063065,42.352237],[-71.063021,42.35225],[-71.063011,42.352267],[-71.063089,42.352264],[-71.063144,42.352238]]],[[[-71.062983,42.352253],[-71.062965,42.35224],[-71.062921,42.352253],[-71.062911,42.35227],[-71.062935,42.352278],[-71.062983,42.352253]]],[[[-71.062922,42.35222],[-71.062904,42.352207],[-71.062857,42.35222],[-71.062847,42.352238],[-71.062871,42.352245],[-71.062922,42.35222]]],[[[-71.062848,42.352215],[-71.06283,42.352202],[-71.062786,42.352215],[-71.062776,42.352232],[-71.0628,42.35224],[-71.062848,42.352215]]],[[[-71.062829,42.353302],[-71.06281,42.353288],[-71.062762,42.353302],[-71.062731,42.35329],[-71.062684,42.353306],[-71.062671,42.353328],[-71.062772,42.35333],[-71.062829,42.353302]]],[[[-71.062829,42.353214],[-71.06281,42.3532],[-71.06276,42.353214],[-71.062762,42.353201],[-71.062737,42.353194],[-71.062691,42.353208],[-71.062681,42.353227],[-71.062749,42.353221],[-71.062747,42.353234],[-71.062772,42.353242],[-71.062829,42.353214]]],[[[-71.062559,42.348354],[-71.062519,42.348334],[-71.062448,42.348371],[-71.062488,42.348391],[-71.062559,42.348354]]],[[[-71.062496,42.349373],[-71.062484,42.349351],[-71.062454,42.349342],[-71.062375,42.349365],[-71.062349,42.349393],[-71.062361,42.349416],[-71.062391,42.349425],[-71.06247,42.349402],[-71.062496,42.349373]]],[[[-71.062463,42.348557],[-71.06244,42.34854],[-71.062384,42.348557],[-71.062371,42.348579],[-71.062401,42.348588],[-71.062463,42.348557]]],[[[-71.062409,42.348373],[-71.06237,42.348344],[-71.062295,42.348366],[-71.062271,42.348393],[-71.062309,42.348421],[-71.062385,42.3484],[-71.062409,42.348373]]],[[[-71.062392,42.349323],[-71.06238,42.349301],[-71.06235,42.349292],[-71.062271,42.349315],[-71.062245,42.349343],[-71.062257,42.349366],[-71.062287,42.349375],[-71.062366,42.349352],[-71.062392,42.349323]]],[[[-71.062039,42.353752],[-71.06202,42.353738],[-71.061967,42.353753],[-71.061957,42.353772],[-71.061982,42.35378],[-71.062039,42.353752]]],[[[-71.062006,42.349306],[-71.061988,42.349293],[-71.061946,42.349305],[-71.061936,42.349322],[-71.06196,42.34933],[-71.062006,42.349306]]],[[[-71.061988,42.35386],[-71.06197,42.353847],[-71.061928,42.353859],[-71.061918,42.353876],[-71.061942,42.353884],[-71.061988,42.35386]]],[[[-71.061951,42.349438],[-71.061933,42.349425],[-71.061891,42.349437],[-71.061881,42.349454],[-71.061905,42.349462],[-71.061951,42.349438]]],[[[-71.061941,42.349548],[-71.061926,42.349523],[-71.061892,42.349512],[-71.061799,42.349542],[-71.061784,42.349567],[-71.061799,42.349593],[-71.061833,42.349603],[-71.061926,42.349573],[-71.061941,42.349548]]],[[[-71.061928,42.34988],[-71.06191,42.349867],[-71.061868,42.349879],[-71.061858,42.349896],[-71.061882,42.349904],[-71.061928,42.34988]]],[[[-71.061924,42.3537],[-71.061905,42.353686],[-71.061852,42.353701],[-71.061842,42.35372],[-71.061867,42.353728],[-71.061924,42.3537]]],[[[-71.061909,42.353825],[-71.06189,42.353811],[-71.061837,42.353826],[-71.061827,42.353845],[-71.061852,42.353853],[-71.061909,42.353825]]],[[[-71.061898,42.349926],[-71.06188,42.349913],[-71.061838,42.349925],[-71.061828,42.349942],[-71.061852,42.34995],[-71.061898,42.349926]]],[[[-71.061892,42.35],[-71.061874,42.349987],[-71.061832,42.349999],[-71.061822,42.350016],[-71.061846,42.350024],[-71.061892,42.35]]],[[[-71.061868,42.350044],[-71.06185,42.350031],[-71.061808,42.350043],[-71.061808,42.350068],[-71.061768,42.350096],[-71.061827,42.350092],[-71.061827,42.350068],[-71.061868,42.350044]]],[[[-71.061851,42.348312],[-71.061838,42.348288],[-71.061806,42.348278],[-71.061723,42.348302],[-71.061695,42.348333],[-71.061708,42.348357],[-71.06174,42.348367],[-71.061823,42.348343],[-71.061851,42.348312]]],[[[-71.061828,42.353783],[-71.06181,42.35377],[-71.061768,42.353782],[-71.061758,42.353799],[-71.061782,42.353807],[-71.061828,42.353783]]],[[[-71.061825,42.353653],[-71.061806,42.353639],[-71.061753,42.353654],[-71.061743,42.353673],[-71.061768,42.353681],[-71.061825,42.353653]]],[[[-71.061824,42.350155],[-71.061806,42.350142],[-71.061767,42.350153],[-71.061757,42.350171],[-71.061781,42.350178],[-71.061824,42.350155]]],[[[-71.061798,42.3502],[-71.06178,42.350187],[-71.061738,42.350199],[-71.061728,42.350216],[-71.061752,42.350224],[-71.061798,42.3502]]],[[[-71.061789,42.350292],[-71.06175,42.350263],[-71.061662,42.350291],[-71.061653,42.350323],[-71.061612,42.350354],[-71.061612,42.35038],[-71.061654,42.350401],[-71.061752,42.35037],[-71.061765,42.350346],[-71.061752,42.350323],[-71.061789,42.350292]]],[[[-71.06177,42.348421],[-71.061752,42.348408],[-71.06171,42.34842],[-71.0617,42.348437],[-71.061724,42.348445],[-71.06177,42.348421]]],[[[-71.061766,42.349666],[-71.061751,42.349641],[-71.061717,42.34963],[-71.061624,42.34966],[-71.061609,42.349685],[-71.061624,42.349711],[-71.061658,42.349721],[-71.061751,42.349691],[-71.061766,42.349666]]],[[[-71.061759,42.353607],[-71.061744,42.353582],[-71.06171,42.353571],[-71.061616,42.353601],[-71.061602,42.353626],[-71.061616,42.353652],[-71.061651,42.353662],[-71.061744,42.353632],[-71.061759,42.353607]]],[[[-71.061747,42.353738],[-71.061729,42.353725],[-71.061687,42.353737],[-71.061677,42.353754],[-71.061701,42.353762],[-71.061747,42.353738]]],[[[-71.061692,42.348648],[-71.06168,42.348626],[-71.06165,42.348617],[-71.061557,42.348646],[-71.061503,42.348639],[-71.061422,42.348668],[-71.061409,42.348691],[-71.061437,42.348722],[-71.061472,42.348722],[-71.061666,42.348677],[-71.061692,42.348648]]],[[[-71.061645,42.348297],[-71.061629,42.348268],[-71.06159,42.348256],[-71.061478,42.348292],[-71.061461,42.348321],[-71.061478,42.34835],[-71.061517,42.348362],[-71.061629,42.348326],[-71.061645,42.348297]]],[[[-71.061628,42.35355],[-71.06161,42.353537],[-71.061563,42.35355],[-71.061553,42.353568],[-71.061577,42.353575],[-71.061628,42.35355]]],[[[-71.06161,42.348837],[-71.061592,42.348824],[-71.06155,42.348836],[-71.06154,42.348853],[-71.061564,42.348861],[-71.06161,42.348837]]],[[[-71.061608,42.3485],[-71.06159,42.348487],[-71.061548,42.348499],[-71.061538,42.348516],[-71.061562,42.348524],[-71.061608,42.3485]]],[[[-71.061597,42.348184],[-71.061579,42.348171],[-71.061532,42.348184],[-71.061522,42.348202],[-71.061546,42.348209],[-71.061597,42.348184]]],[[[-71.061548,42.349568],[-71.061518,42.349535],[-71.061447,42.349546],[-71.061435,42.349509],[-71.061401,42.349498],[-71.061308,42.349528],[-71.061293,42.349553],[-71.061323,42.349586],[-71.061394,42.349575],[-71.061406,42.349613],[-71.06144,42.349623],[-71.061533,42.349593],[-71.061548,42.349568]]],[[[-71.061502,42.348854],[-71.06149,42.348832],[-71.06146,42.348823],[-71.061381,42.348846],[-71.061355,42.348874],[-71.061367,42.348897],[-71.061397,42.348906],[-71.061476,42.348883],[-71.061502,42.348854]]],[[[-71.061493,42.35095],[-71.06147,42.350933],[-71.061414,42.35095],[-71.061401,42.350972],[-71.061431,42.350981],[-71.061493,42.35095]]],[[[-71.061472,42.34815],[-71.061454,42.348118],[-71.06141,42.348104],[-71.061288,42.348143],[-71.06127,42.348175],[-71.061288,42.348208],[-71.061331,42.348221],[-71.061454,42.348182],[-71.061472,42.34815]]],[[[-71.061452,42.348248],[-71.061443,42.348231],[-71.061408,42.348226],[-71.061342,42.348249],[-71.061335,42.348275],[-71.061377,42.348288],[-71.061443,42.348265],[-71.061452,42.348248]]],[[[-71.061438,42.349255],[-71.06142,42.349242],[-71.061373,42.349255],[-71.061363,42.349273],[-71.061387,42.34928],[-71.061438,42.349255]]],[[[-71.061418,42.351122],[-71.0614,42.351109],[-71.061358,42.351121],[-71.061348,42.351138],[-71.061372,42.351146],[-71.061418,42.351122]]],[[[-71.061399,42.349052],[-71.06138,42.349038],[-71.061328,42.349053],[-71.061317,42.349072],[-71.061342,42.34908],[-71.061399,42.349052]]],[[[-71.061397,42.35118],[-71.061379,42.351167],[-71.061337,42.351179],[-71.061327,42.351196],[-71.061351,42.351204],[-71.061397,42.35118]]],[[[-71.061371,42.35124],[-71.061353,42.351227],[-71.061311,42.351239],[-71.061301,42.351256],[-71.061325,42.351264],[-71.061371,42.35124]]],[[[-71.061368,42.34943],[-71.06135,42.349417],[-71.061308,42.349429],[-71.061298,42.349446],[-71.061322,42.349454],[-71.061368,42.34943]]],[[[-71.061352,42.351289],[-71.061334,42.351276],[-71.061292,42.351288],[-71.061282,42.351305],[-71.061306,42.351313],[-71.061352,42.351289]]],[[[-71.061349,42.349228],[-71.061309,42.349208],[-71.061238,42.349245],[-71.061278,42.349265],[-71.061349,42.349228]]],[[[-71.061282,42.34963],[-71.061264,42.349617],[-71.06122,42.34963],[-71.06121,42.349647],[-71.061234,42.349655],[-71.061282,42.34963]]],[[[-71.061261,42.349678],[-71.061243,42.349665],[-71.061199,42.349678],[-71.061189,42.349695],[-71.061213,42.349703],[-71.061261,42.349678]]],[[[-71.061244,42.35337],[-71.061226,42.353357],[-71.061184,42.353369],[-71.061174,42.353386],[-71.061198,42.353394],[-71.061244,42.35337]]],[[[-71.061238,42.354774],[-71.06122,42.354761],[-71.061178,42.354773],[-71.061168,42.35479],[-71.061192,42.354798],[-71.061238,42.354774]]],[[[-71.061222,42.34983],[-71.06121,42.349808],[-71.06118,42.349799],[-71.061101,42.349822],[-71.061075,42.34985],[-71.061087,42.349873],[-71.061117,42.349882],[-71.061196,42.349859],[-71.061222,42.34983]]],[[[-71.061188,42.354916],[-71.06117,42.354903],[-71.061128,42.354915],[-71.061118,42.354932],[-71.061142,42.35494],[-71.061188,42.354916]]],[[[-71.061188,42.353344],[-71.06117,42.353331],[-71.061128,42.353343],[-71.061118,42.35336],[-71.061142,42.353368],[-71.061188,42.353344]]],[[[-71.061156,42.35003],[-71.061141,42.350003],[-71.061104,42.349992],[-71.060996,42.350026],[-71.060981,42.350053],[-71.060996,42.35008],[-71.061033,42.350091],[-71.061141,42.350057],[-71.061156,42.35003]]],[[[-71.061138,42.35332],[-71.06112,42.353307],[-71.061078,42.353319],[-71.061068,42.353336],[-71.061092,42.353344],[-71.061138,42.35332]]],[[[-71.061048,42.353275],[-71.06103,42.353262],[-71.060983,42.353275],[-71.060973,42.353293],[-71.060997,42.3533],[-71.061048,42.353275]]],[[[-71.061038,42.34849],[-71.06102,42.348477],[-71.060978,42.348489],[-71.060968,42.348506],[-71.060992,42.348514],[-71.061038,42.34849]]],[[[-71.061032,42.348602],[-71.061017,42.348575],[-71.06098,42.348564],[-71.060872,42.348598],[-71.060857,42.348625],[-71.060872,42.348652],[-71.060909,42.348663],[-71.061017,42.348629],[-71.061032,42.348602]]],[[[-71.061005,42.348717],[-71.060989,42.348688],[-71.06095,42.348676],[-71.060838,42.348712],[-71.060821,42.348741],[-71.060838,42.34877],[-71.060877,42.348782],[-71.060989,42.348746],[-71.061005,42.348717]]],[[[-71.060988,42.353363],[-71.06097,42.35335],[-71.060928,42.353362],[-71.060918,42.353379],[-71.060942,42.353387],[-71.060988,42.353363]]],[[[-71.060942,42.348827],[-71.06093,42.348805],[-71.0609,42.348796],[-71.060821,42.348819],[-71.060795,42.348847],[-71.060807,42.34887],[-71.060837,42.348879],[-71.060916,42.348856],[-71.060942,42.348827]]],[[[-71.060938,42.35322],[-71.06092,42.353207],[-71.060878,42.353219],[-71.060868,42.353236],[-71.060892,42.353244],[-71.060938,42.35322]]],[[[-71.060923,42.35333],[-71.060905,42.353317],[-71.060861,42.35333],[-71.060851,42.353347],[-71.060875,42.353355],[-71.060923,42.35333]]],[[[-71.060862,42.353302],[-71.060844,42.353289],[-71.060802,42.353301],[-71.060792,42.353318],[-71.060816,42.353326],[-71.060862,42.353302]]],[[[-71.060847,42.349174],[-71.060827,42.349137],[-71.060776,42.349121],[-71.060639,42.349165],[-71.060618,42.349202],[-71.060639,42.349239],[-71.06069,42.349255],[-71.060827,42.349211],[-71.060847,42.349174]]],[[[-71.060733,42.34939],[-71.060718,42.349365],[-71.060684,42.349354],[-71.060591,42.349384],[-71.060576,42.349409],[-71.060591,42.349435],[-71.060625,42.349445],[-71.060718,42.349415],[-71.060733,42.34939]]],[[[-71.060695,42.349506],[-71.06068,42.349481],[-71.060646,42.34947],[-71.060543,42.349503],[-71.060529,42.349528],[-71.060543,42.349554],[-71.060578,42.349564],[-71.06068,42.349531],[-71.060695,42.349506]]],[[[-71.060628,42.34926],[-71.06061,42.349247],[-71.060568,42.349259],[-71.060558,42.349276],[-71.060582,42.349284],[-71.060628,42.34926]]],[[[-71.060609,42.34967],[-71.060594,42.349645],[-71.06056,42.349634],[-71.060457,42.349667],[-71.060443,42.349692],[-71.060457,42.349718],[-71.060492,42.349728],[-71.060594,42.349695],[-71.060609,42.34967]]],[[[-71.060608,42.3493],[-71.06059,42.349287],[-71.060548,42.349299],[-71.060538,42.349316],[-71.060562,42.349324],[-71.060608,42.3493]]],[[[-71.060598,42.35304],[-71.06058,42.353027],[-71.060538,42.353039],[-71.060528,42.353056],[-71.060552,42.353064],[-71.060598,42.35304]]],[[[-71.060588,42.349342],[-71.06057,42.349329],[-71.060528,42.349341],[-71.060518,42.349358],[-71.060542,42.349366],[-71.060588,42.349342]]],[[[-71.060582,42.349792],[-71.060567,42.349765],[-71.06053,42.349754],[-71.060422,42.349788],[-71.060407,42.349815],[-71.060422,42.349842],[-71.060459,42.349853],[-71.060567,42.349819],[-71.060582,42.349792]]],[[[-71.060558,42.349407],[-71.06054,42.349394],[-71.060498,42.349406],[-71.060488,42.349423],[-71.060512,42.349431],[-71.060558,42.349407]]],[[[-71.060548,42.349453],[-71.06053,42.34944],[-71.060486,42.349453],[-71.060476,42.34947],[-71.0605,42.349478],[-71.060548,42.349453]]],[[[-71.060538,42.349503],[-71.06052,42.34949],[-71.060476,42.349503],[-71.060466,42.34952],[-71.06049,42.349528],[-71.060538,42.349503]]],[[[-71.060518,42.352997],[-71.0605,42.352984],[-71.060458,42.352996],[-71.060448,42.353013],[-71.060472,42.353021],[-71.060518,42.352997]]],[[[-71.060508,42.353283],[-71.06049,42.35327],[-71.060446,42.353283],[-71.060436,42.3533],[-71.06046,42.353308],[-71.060508,42.353283]]],[[[-71.060504,42.35315],[-71.060486,42.353137],[-71.060444,42.353149],[-71.060434,42.353166],[-71.060458,42.353174],[-71.060504,42.35315]]],[[[-71.060504,42.3496],[-71.060486,42.349587],[-71.060444,42.349599],[-71.060434,42.349616],[-71.060458,42.349624],[-71.060504,42.3496]]],[[[-71.060504,42.349556],[-71.060486,42.349543],[-71.060444,42.349555],[-71.060434,42.349572],[-71.060458,42.34958],[-71.060504,42.349556]]],[[[-71.060488,42.34964],[-71.06047,42.349627],[-71.060428,42.349639],[-71.060418,42.349656],[-71.060442,42.349664],[-71.060488,42.34964]]],[[[-71.060468,42.352974],[-71.06045,42.352961],[-71.060406,42.352974],[-71.060396,42.352991],[-71.06042,42.352999],[-71.060468,42.352974]]],[[[-71.060428,42.3531],[-71.06041,42.353087],[-71.060368,42.353099],[-71.060358,42.353116],[-71.060382,42.353124],[-71.060428,42.3531]]],[[[-71.060419,42.353405],[-71.060418,42.35338],[-71.0604,42.353367],[-71.060305,42.353398],[-71.060283,42.353414],[-71.060287,42.353458],[-71.060305,42.353472],[-71.060347,42.353459],[-71.060419,42.353405]]],[[[-71.060388,42.349884],[-71.06037,42.349871],[-71.060326,42.349884],[-71.060316,42.349901],[-71.06034,42.349909],[-71.060388,42.349884]]],[[[-71.060374,42.35307],[-71.060356,42.353057],[-71.060314,42.353069],[-71.060304,42.353086],[-71.060328,42.353094],[-71.060374,42.35307]]],[[[-71.060318,42.350037],[-71.0603,42.350024],[-71.060258,42.350036],[-71.060248,42.350053],[-71.060272,42.350061],[-71.060318,42.350037]]],[[[-71.060314,42.35015],[-71.060286,42.350118],[-71.060297,42.3501],[-71.060273,42.350093],[-71.060172,42.350144],[-71.060157,42.350169],[-71.060172,42.350195],[-71.060206,42.350205],[-71.060299,42.350175],[-71.060314,42.35015]]],[[[-71.060174,42.34947],[-71.060135,42.349441],[-71.06006,42.349463],[-71.060036,42.34949],[-71.060074,42.349518],[-71.06015,42.349497],[-71.060174,42.34947]]],[[[-71.060158,42.352962],[-71.06014,42.352949],[-71.060098,42.352961],[-71.060088,42.352978],[-71.060112,42.352986],[-71.060158,42.352962]]],[[[-71.060119,42.349556],[-71.060079,42.349536],[-71.060008,42.349573],[-71.060048,42.349593],[-71.060119,42.349556]]],[[[-71.060105,42.35341],[-71.060092,42.353386],[-71.06006,42.353376],[-71.059977,42.3534],[-71.059949,42.353431],[-71.059962,42.353455],[-71.059994,42.353465],[-71.060077,42.353441],[-71.060105,42.35341]]],[[[-71.060086,42.349644],[-71.06005,42.349618],[-71.059978,42.349638],[-71.059956,42.349663],[-71.059992,42.349689],[-71.060064,42.349668],[-71.060086,42.349644]]],[[[-71.059972,42.351044],[-71.05996,42.351022],[-71.05993,42.351013],[-71.059851,42.351036],[-71.059825,42.351064],[-71.059837,42.351087],[-71.059867,42.351096],[-71.059946,42.351073],[-71.059972,42.351044]]],[[[-71.059901,42.351135],[-71.059865,42.351117],[-71.059815,42.351134],[-71.059801,42.351159],[-71.059835,42.351169],[-71.059901,42.351135]]],[[[-71.059858,42.3533],[-71.05984,42.353287],[-71.059798,42.353299],[-71.059788,42.353316],[-71.059812,42.353324],[-71.059858,42.3533]]],[[[-71.059822,42.35326],[-71.05981,42.353238],[-71.05978,42.353229],[-71.059701,42.353252],[-71.059675,42.35328],[-71.059687,42.353303],[-71.059717,42.353312],[-71.059796,42.353289],[-71.059822,42.35326]]],[[[-71.059758,42.352753],[-71.05974,42.35274],[-71.059696,42.352753],[-71.059686,42.35277],[-71.05971,42.352778],[-71.059758,42.352753]]],[[[-71.059688,42.352737],[-71.05967,42.352724],[-71.059633,42.352734],[-71.059616,42.352717],[-71.059572,42.35273],[-71.059562,42.352747],[-71.059616,42.352745],[-71.059633,42.352763],[-71.059688,42.352737]]],[[[-71.059669,42.354954],[-71.059629,42.354934],[-71.059558,42.354971],[-71.059598,42.354991],[-71.059669,42.354954]]],[[[-71.059649,42.35171],[-71.059634,42.351685],[-71.0596,42.351674],[-71.059473,42.351711],[-71.059462,42.35173],[-71.059541,42.351765],[-71.059634,42.351735],[-71.059649,42.35171]]],[[[-71.059622,42.35492],[-71.05955,42.354866],[-71.059465,42.354899],[-71.059472,42.354925],[-71.059535,42.354962],[-71.059602,42.354942],[-71.059622,42.35492]]],[[[-71.059589,42.352783],[-71.059574,42.352758],[-71.05954,42.352747],[-71.059446,42.352777],[-71.059432,42.352802],[-71.059446,42.352828],[-71.059481,42.352838],[-71.059574,42.352808],[-71.059589,42.352783]]],[[[-71.059562,42.3516],[-71.059553,42.351583],[-71.059518,42.351578],[-71.05937,42.351626],[-71.059356,42.351651],[-71.05938,42.351662],[-71.059453,42.351636],[-71.059487,42.35164],[-71.059553,42.351617],[-71.059562,42.3516]]],[[[-71.059518,42.351097],[-71.0595,42.351084],[-71.059458,42.351096],[-71.059448,42.351113],[-71.059472,42.351121],[-71.059518,42.351097]]],[[[-71.059482,42.354813],[-71.059473,42.354796],[-71.059438,42.354791],[-71.059372,42.354814],[-71.059365,42.35484],[-71.059407,42.354853],[-71.059473,42.35483],[-71.059482,42.354813]]],[[[-71.059478,42.35117],[-71.05946,42.351157],[-71.059418,42.351169],[-71.059408,42.351186],[-71.059432,42.351194],[-71.059478,42.35117]]],[[[-71.059432,42.354774],[-71.059389,42.354714],[-71.059364,42.354707],[-71.059292,42.354727],[-71.05927,42.354752],[-71.059292,42.354776],[-71.05932,42.354776],[-71.059322,42.354809],[-71.059345,42.354816],[-71.059412,42.354796],[-71.059432,42.354774]]],[[[-71.059428,42.3531],[-71.05941,42.353087],[-71.059368,42.353099],[-71.059358,42.353116],[-71.059382,42.353124],[-71.059428,42.3531]]],[[[-71.059418,42.35301],[-71.0594,42.352997],[-71.059358,42.353009],[-71.059348,42.353026],[-71.059372,42.353034],[-71.059418,42.35301]]],[[[-71.059387,42.351704],[-71.059364,42.351687],[-71.059308,42.351704],[-71.059295,42.351726],[-71.059325,42.351735],[-71.059387,42.351704]]],[[[-71.059323,42.35178],[-71.0593,42.351763],[-71.059244,42.35178],[-71.059231,42.351802],[-71.059261,42.351811],[-71.059323,42.35178]]],[[[-71.059219,42.35129],[-71.059204,42.351265],[-71.059171,42.351254],[-71.059183,42.35123],[-71.059158,42.351229],[-71.059129,42.351197],[-71.059023,42.351219],[-71.058993,42.351252],[-71.059007,42.351278],[-71.059042,42.351288],[-71.059125,42.351264],[-71.059057,42.351298],[-71.059067,42.351338],[-71.059023,42.351379],[-71.059053,42.351412],[-71.059174,42.351382],[-71.059189,42.351357],[-71.059174,42.351332],[-71.059219,42.35129]]],[[[-71.059184,42.353294],[-71.059166,42.353281],[-71.059124,42.353293],[-71.059114,42.35331],[-71.059138,42.353318],[-71.059184,42.353294]]],[[[-71.059098,42.35146],[-71.05908,42.351447],[-71.059038,42.351459],[-71.059028,42.351476],[-71.059052,42.351484],[-71.059098,42.35146]]],[[[-71.059092,42.354385],[-71.059083,42.354368],[-71.059048,42.354363],[-71.058982,42.354386],[-71.058975,42.354412],[-71.059017,42.354425],[-71.059083,42.354402],[-71.059092,42.354385]]],[[[-71.059088,42.353287],[-71.05907,42.353274],[-71.059028,42.353286],[-71.059018,42.353303],[-71.059042,42.353311],[-71.059088,42.353287]]],[[[-71.059066,42.351517],[-71.05903,42.351499],[-71.05898,42.351516],[-71.058966,42.351541],[-71.059,42.351551],[-71.059066,42.351517]]],[[[-71.059018,42.354332],[-71.059,42.354319],[-71.058958,42.354331],[-71.058948,42.354348],[-71.058972,42.354356],[-71.059018,42.354332]]],[[[-71.059006,42.351604],[-71.05897,42.351578],[-71.058887,42.351604],[-71.058877,42.351668],[-71.058812,42.351691],[-71.058805,42.351717],[-71.058709,42.351789],[-71.058701,42.351818],[-71.058628,42.351844],[-71.058617,42.351865],[-71.058628,42.351885],[-71.058582,42.351907],[-71.05855,42.351945],[-71.058556,42.351957],[-71.058418,42.351992],[-71.058385,42.35205],[-71.058332,42.352082],[-71.05832,42.352119],[-71.058374,42.352129],[-71.058457,42.352105],[-71.058569,42.352026],[-71.058593,42.351957],[-71.058683,42.351923],[-71.058683,42.351889],[-71.058744,42.351865],[-71.058777,42.351821],[-71.058875,42.351757],[-71.058883,42.351728],[-71.05892,42.351699],[-71.058913,42.351673],[-71.059006,42.351604]]],[[[-71.058998,42.353283],[-71.05898,42.35327],[-71.058938,42.353282],[-71.058928,42.353299],[-71.058952,42.353307],[-71.058998,42.353283]]],[[[-71.058959,42.35429],[-71.05894,42.354276],[-71.058887,42.354291],[-71.058877,42.35431],[-71.058902,42.354318],[-71.058959,42.35429]]],[[[-71.058864,42.353268],[-71.058846,42.353255],[-71.058804,42.353267],[-71.058794,42.353284],[-71.058818,42.353292],[-71.058864,42.353268]]],[[[-71.058758,42.353268],[-71.05874,42.353255],[-71.058698,42.353267],[-71.058688,42.353284],[-71.058712,42.353292],[-71.058758,42.353268]]],[[[-71.058568,42.35253],[-71.05855,42.352517],[-71.058508,42.352529],[-71.058483,42.352512],[-71.058438,42.35254],[-71.058497,42.352536],[-71.058522,42.352554],[-71.058568,42.35253]]],[[[-71.058499,42.35248],[-71.05848,42.352466],[-71.058427,42.352481],[-71.058417,42.3525],[-71.058442,42.352508],[-71.058499,42.35248]]],[[[-71.058428,42.352528],[-71.05841,42.352515],[-71.058366,42.352528],[-71.058356,42.352545],[-71.05838,42.352553],[-71.058428,42.352528]]],[[[-71.058388,42.35247],[-71.05837,42.352457],[-71.058328,42.352469],[-71.058318,42.352486],[-71.058342,42.352494],[-71.058388,42.35247]]],[[[-71.058348,42.35252],[-71.05833,42.352507],[-71.058288,42.352519],[-71.058278,42.352536],[-71.058302,42.352544],[-71.058348,42.35252]]],[[[-71.058288,42.35091],[-71.05827,42.350897],[-71.058228,42.350909],[-71.058218,42.350926],[-71.058242,42.350934],[-71.058288,42.35091]]],[[[-71.058278,42.352467],[-71.05826,42.352454],[-71.058218,42.352466],[-71.058208,42.352483],[-71.058232,42.352491],[-71.058278,42.352467]]],[[[-71.058268,42.352512],[-71.05825,42.352499],[-71.058208,42.352511],[-71.058198,42.352528],[-71.058222,42.352536],[-71.058268,42.352512]]],[[[-71.058218,42.350887],[-71.0582,42.350874],[-71.058158,42.350886],[-71.058148,42.350903],[-71.058172,42.350911],[-71.058218,42.350887]]],[[[-71.058038,42.352665],[-71.05802,42.352652],[-71.057978,42.352664],[-71.057968,42.352681],[-71.057992,42.352689],[-71.058038,42.352665]]],[[[-71.058032,42.352768],[-71.058014,42.352755],[-71.057972,42.352767],[-71.057962,42.352784],[-71.057986,42.352792],[-71.058032,42.352768]]],[[[-71.058008,42.352905],[-71.05799,42.352892],[-71.057948,42.352904],[-71.057938,42.352921],[-71.057962,42.352929],[-71.058008,42.352905]]],[[[-71.057803,42.350693],[-71.057785,42.35068],[-71.057743,42.350692],[-71.057733,42.350709],[-71.057757,42.350717],[-71.057803,42.350693]]],[[[-71.057758,42.350677],[-71.05774,42.350664],[-71.057698,42.350676],[-71.057688,42.350693],[-71.057712,42.350701],[-71.057758,42.350677]]],[[[-71.05775,42.352226],[-71.057714,42.352208],[-71.057664,42.352225],[-71.05765,42.35225],[-71.057684,42.35226],[-71.05775,42.352226]]],[[[-71.057623,42.35219],[-71.057583,42.35217],[-71.057512,42.352207],[-71.057552,42.352227],[-71.057623,42.35219]]],[[[-71.057536,42.35216],[-71.0575,42.352142],[-71.05745,42.352159],[-71.057436,42.352184],[-71.05747,42.352194],[-71.057536,42.35216]]],[[[-71.057456,42.35214],[-71.05742,42.352122],[-71.05737,42.352139],[-71.057356,42.352164],[-71.05739,42.352174],[-71.057456,42.35214]]],[[[-71.057414,42.350403],[-71.057396,42.35039],[-71.057354,42.350402],[-71.057344,42.350419],[-71.057368,42.350427],[-71.057414,42.350403]]],[[[-71.057398,42.350494],[-71.05738,42.350481],[-71.057338,42.350493],[-71.057328,42.35051],[-71.057352,42.350518],[-71.057398,42.350494]]],[[[-71.057369,42.35211],[-71.057329,42.35209],[-71.057258,42.352127],[-71.057298,42.352147],[-71.057369,42.35211]]],[[[-71.057348,42.351707],[-71.05733,42.351694],[-71.057286,42.351707],[-71.057276,42.351724],[-71.0573,42.351732],[-71.057348,42.351707]]],[[[-71.057338,42.35175],[-71.05732,42.351737],[-71.057278,42.351749],[-71.057268,42.351766],[-71.057292,42.351774],[-71.057338,42.35175]]],[[[-71.057309,42.351897],[-71.057291,42.351884],[-71.057249,42.351896],[-71.057239,42.351913],[-71.057263,42.351921],[-71.057309,42.351897]]],[[[-71.057298,42.351955],[-71.05728,42.351942],[-71.057241,42.351953],[-71.057231,42.351971],[-71.057255,42.351978],[-71.057298,42.351955]]],[[[-71.057298,42.350925],[-71.05728,42.350912],[-71.057233,42.350925],[-71.057223,42.350943],[-71.057247,42.35095],[-71.057298,42.350925]]],[[[-71.057268,42.351063],[-71.05725,42.35105],[-71.057203,42.351063],[-71.057193,42.351081],[-71.057217,42.351088],[-71.057268,42.351063]]],[[[-71.057208,42.35141],[-71.05719,42.351397],[-71.057148,42.351409],[-71.057138,42.351426],[-71.057162,42.351434],[-71.057208,42.35141]]],[[[-71.057198,42.35055],[-71.05718,42.350537],[-71.057138,42.350549],[-71.057128,42.350566],[-71.057152,42.350574],[-71.057198,42.35055]]],[[[-71.057147,42.350632],[-71.057129,42.350619],[-71.057087,42.350631],[-71.057077,42.350648],[-71.057101,42.350656],[-71.057147,42.350632]]],[[[-71.057094,42.350533],[-71.057076,42.35052],[-71.057034,42.350532],[-71.057024,42.350549],[-71.057048,42.350557],[-71.057094,42.350533]]],[[[-71.057038,42.34984],[-71.05702,42.349827],[-71.056978,42.349839],[-71.056968,42.349856],[-71.056992,42.349864],[-71.057038,42.34984]]],[[[-71.057022,42.349903],[-71.057013,42.349886],[-71.056978,42.349881],[-71.056912,42.349904],[-71.056905,42.34993],[-71.056947,42.349943],[-71.057013,42.34992],[-71.057022,42.349903]]],[[[-71.056868,42.352028],[-71.05685,42.352015],[-71.056801,42.352029],[-71.056791,42.352047],[-71.056815,42.352054],[-71.056868,42.352028]]],[[[-71.056834,42.35023],[-71.056816,42.350217],[-71.056774,42.350229],[-71.056764,42.350246],[-71.056788,42.350254],[-71.056834,42.35023]]],[[[-71.056829,42.34976],[-71.05679,42.349731],[-71.056715,42.349753],[-71.056691,42.34978],[-71.056729,42.349808],[-71.056805,42.349787],[-71.056829,42.34976]]],[[[-71.056798,42.350307],[-71.05678,42.350294],[-71.056738,42.350306],[-71.056728,42.350323],[-71.056752,42.350331],[-71.056798,42.350307]]],[[[-71.056792,42.34984],[-71.056783,42.349823],[-71.056748,42.349818],[-71.056682,42.349841],[-71.056675,42.349867],[-71.056717,42.34988],[-71.056783,42.349857],[-71.056792,42.34984]]],[[[-71.056774,42.349915],[-71.056759,42.34989],[-71.056725,42.349879],[-71.056632,42.349909],[-71.056617,42.349934],[-71.056632,42.34996],[-71.056666,42.34997],[-71.056759,42.34994],[-71.056774,42.349915]]],[[[-71.056748,42.351994],[-71.05673,42.351981],[-71.056683,42.351994],[-71.056673,42.352012],[-71.056697,42.352019],[-71.056748,42.351994]]],[[[-71.056729,42.350006],[-71.056714,42.349981],[-71.05668,42.34997],[-71.056587,42.35],[-71.056572,42.350025],[-71.056587,42.350051],[-71.056621,42.350061],[-71.056714,42.350031],[-71.056729,42.350006]]],[[[-71.056659,42.350094],[-71.056619,42.350074],[-71.056548,42.350111],[-71.056588,42.350131],[-71.056659,42.350094]]],[[[-71.056643,42.350613],[-71.056625,42.3506],[-71.056576,42.350614],[-71.056566,42.350632],[-71.05659,42.350639],[-71.056643,42.350613]]],[[[-71.056626,42.353203],[-71.05659,42.353185],[-71.05654,42.353202],[-71.056526,42.353227],[-71.05656,42.353237],[-71.056626,42.353203]]],[[[-71.056622,42.350185],[-71.056613,42.350168],[-71.056578,42.350163],[-71.056512,42.350186],[-71.056505,42.350212],[-71.056547,42.350225],[-71.056613,42.350202],[-71.056622,42.350185]]],[[[-71.056608,42.35068],[-71.05659,42.350667],[-71.056541,42.350681],[-71.056531,42.350699],[-71.056555,42.350706],[-71.056608,42.35068]]],[[[-71.056559,42.353165],[-71.05654,42.353151],[-71.056487,42.353166],[-71.056477,42.353185],[-71.056502,42.353193],[-71.056559,42.353165]]],[[[-71.056559,42.350834],[-71.056544,42.350809],[-71.05651,42.350798],[-71.056417,42.350828],[-71.056402,42.350853],[-71.056417,42.350879],[-71.056451,42.350889],[-71.056544,42.350859],[-71.056559,42.350834]]],[[[-71.056484,42.353127],[-71.056465,42.353113],[-71.056412,42.353128],[-71.056402,42.353147],[-71.056427,42.353155],[-71.056484,42.353127]]],[[[-71.056468,42.35192],[-71.05645,42.351907],[-71.056401,42.351921],[-71.056391,42.351939],[-71.056415,42.351946],[-71.056468,42.35192]]],[[[-71.056428,42.35103],[-71.05641,42.351017],[-71.056368,42.351029],[-71.056358,42.351046],[-71.056382,42.351054],[-71.056428,42.35103]]],[[[-71.056398,42.351097],[-71.05638,42.351084],[-71.056331,42.351098],[-71.056321,42.351116],[-71.056345,42.351123],[-71.056398,42.351097]]],[[[-71.056393,42.35309],[-71.05637,42.353073],[-71.056314,42.35309],[-71.056301,42.353112],[-71.056331,42.353121],[-71.056393,42.35309]]],[[[-71.056388,42.3519],[-71.05637,42.351887],[-71.056331,42.351898],[-71.056321,42.351916],[-71.056345,42.351923],[-71.056388,42.3519]]],[[[-71.056364,42.351176],[-71.056346,42.351163],[-71.056304,42.351175],[-71.056294,42.351192],[-71.056318,42.3512],[-71.056364,42.351176]]],[[[-71.056338,42.35493],[-71.05632,42.354917],[-71.056271,42.354931],[-71.056261,42.354949],[-71.056285,42.354956],[-71.056338,42.35493]]],[[[-71.056328,42.354836],[-71.05631,42.354823],[-71.056261,42.354837],[-71.056251,42.354855],[-71.056275,42.354862],[-71.056328,42.354836]]],[[[-71.056309,42.35475],[-71.05629,42.354736],[-71.056237,42.354751],[-71.056227,42.35477],[-71.056252,42.354778],[-71.056309,42.35475]]],[[[-71.056306,42.35467],[-71.05627,42.354652],[-71.05622,42.354669],[-71.056206,42.354694],[-71.05624,42.354704],[-71.056306,42.35467]]],[[[-71.056258,42.351376],[-71.05624,42.351363],[-71.056196,42.351376],[-71.056186,42.351393],[-71.056206,42.351401],[-71.056167,42.351428],[-71.056228,42.351423],[-71.056238,42.351406],[-71.056217,42.351398],[-71.056258,42.351376]]],[[[-71.056256,42.350842],[-71.056238,42.350829],[-71.056189,42.350843],[-71.056179,42.350861],[-71.056203,42.350868],[-71.056256,42.350842]]],[[[-71.056248,42.35305],[-71.05623,42.353037],[-71.056188,42.353049],[-71.056178,42.353066],[-71.056202,42.353074],[-71.056248,42.35305]]],[[[-71.056226,42.350933],[-71.056208,42.35092],[-71.056159,42.350934],[-71.056149,42.350952],[-71.056173,42.350959],[-71.056226,42.350933]]],[[[-71.056208,42.35145],[-71.05619,42.351437],[-71.056146,42.35145],[-71.056136,42.351467],[-71.05616,42.351475],[-71.056208,42.35145]]],[[[-71.056186,42.351036],[-71.056168,42.351023],[-71.056119,42.351037],[-71.056109,42.351055],[-71.056133,42.351062],[-71.056186,42.351036]]],[[[-71.056148,42.351145],[-71.05613,42.351132],[-71.056081,42.351146],[-71.056071,42.351164],[-71.056095,42.351171],[-71.056148,42.351145]]],[[[-71.056078,42.35171],[-71.05606,42.351697],[-71.056016,42.35171],[-71.056006,42.351727],[-71.05603,42.351735],[-71.056078,42.35171]]],[[[-71.055977,42.351355],[-71.055959,42.351342],[-71.05591,42.351356],[-71.0559,42.351374],[-71.055924,42.351381],[-71.055977,42.351355]]],[[[-71.055953,42.351412],[-71.055935,42.351399],[-71.055886,42.351413],[-71.055876,42.351431],[-71.0559,42.351438],[-71.055953,42.351412]]],[[[-71.05592,42.351482],[-71.055902,42.351469],[-71.055853,42.351483],[-71.055843,42.351501],[-71.055867,42.351508],[-71.05592,42.351482]]],[[[-71.055888,42.351561],[-71.05587,42.351548],[-71.055821,42.351562],[-71.055811,42.35158],[-71.055835,42.351587],[-71.055888,42.351561]]],[[[-71.055869,42.352226],[-71.055854,42.352201],[-71.05582,42.35219],[-71.055742,42.352212],[-71.055716,42.352231],[-71.055716,42.352259],[-71.055682,42.352281],[-71.055682,42.352309],[-71.055727,42.352331],[-71.055805,42.352309],[-71.055869,42.352226]]],[[[-71.055859,42.351622],[-71.055841,42.351609],[-71.055792,42.351623],[-71.055782,42.351641],[-71.055806,42.351648],[-71.055859,42.351622]]],[[[-71.055808,42.351727],[-71.05579,42.351714],[-71.055741,42.351728],[-71.055731,42.351746],[-71.055755,42.351753],[-71.055808,42.351727]]],[[[-71.055788,42.353336],[-71.055756,42.353312],[-71.055678,42.353337],[-71.055678,42.353371],[-71.055622,42.353396],[-71.055563,42.35345],[-71.055588,42.353458],[-71.055716,42.353409],[-71.055716,42.353379],[-71.055788,42.353336]]],[[[-71.055788,42.351776],[-71.05577,42.351763],[-71.055721,42.351777],[-71.055711,42.351795],[-71.055735,42.351802],[-71.055788,42.351776]]],[[[-71.055558,42.353497],[-71.05554,42.353484],[-71.055491,42.353498],[-71.055426,42.353547],[-71.055487,42.353542],[-71.055558,42.353497]]],[[[-71.055262,42.353653],[-71.055244,42.35364],[-71.055146,42.353669],[-71.055101,42.353722],[-71.055131,42.353731],[-71.055179,42.353716],[-71.055262,42.353653]]]]},"properties":{"kind":"tree"}}]}