{"type":"FeatureCollection","features":[{"type":"Feature","geometry":{"type":"MultiPolygon","coordinates":[[[[-71.06703,42.351826],[-71.067007,42.351692],[-71.066747,42.351106],[-71.065467,42.351257],[-71.064967,42.35123],[-71.06473,42.35128],[-71.064745,42.351218],[-71.064502,42.351183],[-71.06446,42.351192],[-71.063934,42.351133],[-71.063892,42.351142],[-71.063049,42.351044],[-71.062974,42.35106],[-71.062952,42.35112],[-71.06294,42.351123],[-71.062843,42.351475],[-71.062969,42.351496],[-71.062635,42.351575],[-71.062629,42.351602],[-71.062538,42.351622],[-71.062023,42.351525],[-71.061289,42.351543],[-71.061049,42.351594],[-71.061041,42.351545],[-71.060388,42.351402],[-71.060267,42.351428],[-71.060234,42.351369],[-71.059758,42.351262],[-71.059556,42.351305],[-71.059507,42.351434],[-71.059518,42.351497],[-71.0595,42.351501],[-71.059529,42.351678],[-71.059566,42.351675],[-71.059591,42.351807],[-71.059158,42.351896],[-71.059177,42.352022],[-71.05844,42.352179],[-71.05824,42.35225],[-71.058087,42.35235],[-71.058028,42.352424],[-71.057989,42.352517],[-71.058155,42.352546],[-71.057024,42.352787],[-71.056937,42.352853],[-71.056841,42.352874],[-71.056838,42.352901],[-71.056558,42.353058],[-71.056476,42.353075],[-71.056423,42.353108],[-71.056384,42.353158],[-71.056242,42.353099],[-71.05562,42.353228],[-71.055381,42.353356],[-71.055409,42.353461],[-71.055423,42.353466],[-71.055317,42.353523],[-71.055342,42.353549],[-71.055173,42.353585],[-71.055005,42.353677],[-71.05496,42.353726],[-71.054973,42.353739],[-71.054716,42.35388],[-71.054748,42.353912],[-71.053656,42.354143],[-71.053254,42.354352],[-71.053222,42.35439],[-71.053221,42.35443],[-71.053495,42.354718],[-71.053549,42.354726],[-71.054184,42.354591],[-71.054024,42.354687],[-71.054023,42.354725],[-71.054184,42.354873],[-71.054234,42.354877],[-71.054366,42.354849],[-71.054385,42.354866],[-71.054525,42.354836],[-71.05461,42.354917],[-71.054941,42.354847],[-71.054888,42.354874],[-71.054904,42.354966],[-71.053971,42.355164],[-71.054077,42.355742],[-71.054529,42.355698],[-71.055017,42.355595],[-71.055022,42.35562],[-71.055137,42.355625],[-71.055592,42.355581],[-71.056364,42.355412],[-71.056342,42.355288],[-71.057349,42.355074],[-71.057329,42.354923],[-71.05689,42.354747],[-71.056502,42.354776],[-71.056258,42.354828],[-71.056229,42.354666],[-71.056094,42.354605],[-71.055051,42.354809],[-71.055224,42.354735],[-71.055198,42.354704],[-71.055397,42.354652],[-71.055903,42.354574],[-71.056231,42.354504],[-71.056228,42.354494],[-71.056509,42.354449],[-71.056538,42.354459],[-71.057344,42.354287],[-71.057382,42.3543],[-71.057494,42.354281],[-71.057513,42.354252],[-71.057535,42.354247],[-71.057814,42.353793],[-71.057979,42.353843],[-71.057788,42.353884],[-71.05763,42.354139],[-71.057644,42.354144],[-71.057603,42.354211],[-71.057327,42.354628],[-71.057716,42.354747],[-71.057938,42.3547],[-71.058251,42.354395],[-71.05823,42.354383],[-71.05827,42.354374],[-71.058416,42.354235],[-71.058444,42.354256],[-71.058205,42.354477],[-71.058218,42.354485],[-71.05816,42.354497],[-71.057874,42.354778],[-71.057716,42.354812],[-71.057659,42.354867],[-71.057697,42.354943],[-71.057631,42.355008],[-71.057628,42.355031],[-71.057675,42.355049],[-71.057751,42.35505],[-71.057768,42.355084],[-71.057895,42.355099],[-71.058343,42.354995],[-71.058407,42.354932],[-71.058451,42.354923],[-71.058718,42.354674],[-71.058709,42.354669],[-71.058969,42.354454],[-71.058883,42.354389],[-71.058983,42.354399],[-71.059395,42.354312],[-71.05967,42.354085],[-71.059818,42.354061],[-71.059744,42.354081],[-71.059558,42.35422],[-71.05917,42.354548],[-71.059123,42.354612],[-71.059081,42.35459],[-71.058943,42.354614],[-71.058832,42.354715],[-71.058652,42.35479],[-71.058327,42.355089],[-71.058094,42.355329],[-71.058168,42.355384],[-71.05846,42.355503],[-71.058974,42.355394],[-71.059017,42.355413],[-71.059228,42.355368],[-71.059607,42.355017],[-71.059836,42.35519],[-71.059858,42.355185],[-71.059903,42.35522],[-71.060048,42.355189],[-71.060363,42.355414],[-71.060491,42.355389],[-71.061045,42.354879],[-71.061125,42.35492],[-71.061018,42.354943],[-71.060824,42.355126],[-71.061137,42.355283],[-71.061373,42.355233],[-71.061545,42.355046],[-71.061416,42.354978],[-71.061462,42.354968],[-71.062001,42.355246],[-71.062184,42.355207],[-71.06225,42.355136],[-71.06232,42.355175],[-71.062421,42.355154],[-71.062522,42.355211],[-71.0627,42.355165],[-71.062896,42.355269],[-71.063118,42.355222],[-71.06318,42.355155],[-71.063062,42.355085],[-71.063255,42.355044],[-71.063852,42.353943],[-71.063862,42.353896],[-71.063753,42.353862],[-71.063892,42.353833],[-71.063985,42.353676],[-71.063998,42.353634],[-71.063768,42.353564],[-71.063626,42.353594],[-71.063664,42.353521],[-71.063911,42.353584],[-71.064052,42.353554],[-71.064097,42.353425],[-71.063837,42.353375],[-71.063696,42.353405],[-71.063699,42.353388],[-71.063651,42.353352],[-71.063204,42.353334],[-71.062908,42.353397],[-71.06272,42.353391],[-71.062345,42.353471],[-71.062413,42.353293],[-71.062414,42.353194],[-71.062511,42.35324],[-71.063896,42.353349],[-71.064146,42.353296],[-71.064309,42.35284],[-71.064208,42.352833],[-71.064309,42.352812],[-71.064353,42.352644],[-71.064373,42.352435],[-71.064339,42.352409],[-71.063942,42.352395],[-71.063871,42.35241],[-71.063872,42.352394],[-71.063705,42.352384],[-71.063363,42.352382],[-71.062724,42.352454],[-71.062452,42.352512],[-71.062412,42.352483],[-71.061487,42.352561],[-71.061336,42.352593],[-71.061336,42.35258],[-71.061194,42.352592],[-71.06099,42.352635],[-71.060985,42.352601],[-71.060475,42.352641],[-71.060188,42.352643],[-71.060112,42.352659],[-71.060119,42.352732],[-71.060064,42.352907],[-71.060495,42.353119],[-71.060533,42.353111],[-71.060452,42.353202],[-71.060613,42.353289],[-71.060015,42.353416],[-71.059919,42.353517],[-71.059811,42.353458],[-71.059762,42.353468],[-71.059597,42.353398],[-71.059432,42.35339],[-71.05919,42.353441],[-71.05922,42.353403],[-71.059185,42.353377],[-71.058861,42.353373],[-71.058707,42.353349],[-71.058016,42.353373],[-71.057771,42.353434],[-71.057741,42.353511],[-71.057699,42.35352],[-71.057651,42.353675],[-71.057588,42.353654],[-71.05752,42.353669],[-71.057474,42.353653],[-71.057554,42.353522],[-71.057295,42.353434],[-71.056971,42.353503],[-71.056948,42.353395],[-71.05692,42.353398],[-71.056494,42.35349],[-71.056159,42.353636],[-71.056165,42.353645],[-71.055901,42.353701],[-71.055786,42.353754],[-71.055754,42.353797],[-71.055757,42.353836],[-71.05552,42.353931],[-71.055524,42.353963],[-71.055407,42.354013],[-71.055222,42.354061],[-71.055083,42.354136],[-71.05508,42.35411],[-71.055162,42.354085],[-71.055476,42.353873],[-71.056064,42.353622],[-71.056035,42.353564],[-71.056404,42.353486],[-71.05666,42.353366],[-71.056656,42.353347],[-71.056734,42.353351],[-71.056728,42.353392],[-71.056825,42.353401],[-71.057661,42.353214],[-71.057675,42.353215],[-71.057662,42.353291],[-71.057705,42.353323],[-71.058965,42.35333],[-71.059276,42.353263],[-71.059347,42.353225],[-71.059597,42.353353],[-71.059914,42.353282],[-71.059986,42.353319],[-71.06021,42.353271],[-71.060325,42.353148],[-71.060198,42.353083],[-71.060156,42.353018],[-71.059657,42.352762],[-71.059349,42.352815],[-71.059318,42.352574],[-71.058879,42.352525],[-71.059245,42.352447],[-71.059255,42.352508],[-71.059525,42.352525],[-71.059748,42.352478],[-71.059715,42.35226],[-71.059695,42.352262],[-71.059679,42.352155],[-71.05986,42.352139],[-71.060033,42.352102],[-71.06002,42.352018],[-71.060126,42.352004],[-71.060138,42.352037],[-71.060353,42.351999],[-71.060364,42.352035],[-71.060176,42.352074],[-71.060212,42.352189],[-71.059829,42.352282],[-71.059872,42.352566],[-71.06032,42.352558],[-71.060334,42.352576],[-71.060709,42.352543],[-71.061084,42.352464],[-71.061107,42.352335],[-71.061295,42.352327],[-71.061514,42.352281],[-71.061546,42.352284],[-71.061551,42.352307],[-71.061434,42.352328],[-71.061374,42.352368],[-71.061387,42.352447],[-71.061576,42.352428],[-71.061581,42.352448],[-71.061876,42.352401],[-71.061878,42.352411],[-71.061998,42.352396],[-71.062,42.35241],[-71.062276,42.352394],[-71.062499,42.352341],[-71.062536,42.352221],[-71.063222,42.352296],[-71.063347,42.352269],[-71.063347,42.352286],[-71.06337,42.352298],[-71.06381,42.352307],[-71.0638,42.352354],[-71.064077,42.352362],[-71.064343,42.352306],[-71.06432,42.352392],[-71.065126,42.352442],[-71.065269,42.352412],[-71.065332,42.352417],[-71.065327,42.352444],[-71.065524,42.352459],[-71.065728,42.352415],[-71.065731,42.352437],[-71.065827,42.352442],[-71.066063,42.352392],[-71.066078,42.352196],[-71.06627,42.352169],[-71.066293,42.351923],[-71.066502,42.351944],[-71.06703,42.351826]],[[-71.065978,42.351878],[-71.065925,42.351889],[-71.065927,42.35187],[-71.065978,42.351878]],[[-71.064794,42.351717],[-71.064613,42.351756],[-71.064616,42.351742],[-71.064423,42.351719],[-71.064612,42.351679],[-71.064625,42.351701],[-71.064794,42.351717]],[[-71.064658,42.3515],[-71.064645,42.351551],[-71.064318,42.351514],[-71.064334,42.351502],[-71.064536,42.351526],[-71.064658,42.3515]],[[-71.064182,42.351728],[-71.063921,42.351783],[-71.063884,42.351958],[-71.063857,42.351955],[-71.063876,42.351916],[-71.063873,42.351801],[-71.063896,42.351694],[-71.064182,42.351728]],[[-71.063736,42.351804],[-71.063584,42.351837],[-71.063593,42.351788],[-71.063736,42.351804]],[[-71.063266,42.353891],[-71.063139,42.353918],[-71.063077,42.354016],[-71.062883,42.354002],[-71.063026,42.353972],[-71.063056,42.353842],[-71.063175,42.353848],[-71.063167,42.353862],[-71.063266,42.353891]],[[-71.062293,42.354748],[-71.062155,42.354777],[-71.062101,42.354835],[-71.062068,42.354824],[-71.062187,42.354698],[-71.062293,42.354748]],[[-71.062155,42.353844],[-71.061908,42.354124],[-71.061953,42.354132],[-71.061783,42.354168],[-71.062033,42.353919],[-71.061962,42.353884],[-71.062155,42.353844]],[[-71.06193,42.354645],[-71.061865,42.354718],[-71.061845,42.354707],[-71.061911,42.354636],[-71.06193,42.354645]],[[-71.061619,42.353139],[-71.061615,42.353198],[-71.061334,42.353251],[-71.061359,42.35315],[-71.061619,42.353139]],[[-71.061619,42.354327],[-71.061592,42.354356],[-71.061589,42.354356],[-71.061619,42.354327]],[[-71.061548,42.354467],[-71.061381,42.354619],[-71.061284,42.354646],[-71.061497,42.354443],[-71.061548,42.354467]],[[-71.061241,42.351915],[-71.061197,42.351924],[-71.061203,42.351954],[-71.06088,42.352063],[-71.06086,42.352066],[-71.060822,42.352035],[-71.061108,42.351986],[-71.061098,42.351921],[-71.061241,42.351915]],[[-71.061063,42.35341],[-71.061056,42.353442],[-71.061013,42.353421],[-71.061063,42.35341]],[[-71.060512,42.35172],[-71.060373,42.351748],[-71.060335,42.351643],[-71.060489,42.351675],[-71.060512,42.35172]],[[-71.06013,42.351853],[-71.059996,42.351877],[-71.059955,42.351619],[-71.060047,42.351604],[-71.06013,42.351853]],[[-71.060033,42.351487],[-71.060032,42.351494],[-71.059937,42.35151],[-71.060033,42.351487]],[[-71.05906,42.353956],[-71.059044,42.353992],[-71.059015,42.353998],[-71.05903,42.353974],[-71.058895,42.353885],[-71.058668,42.353933],[-71.058846,42.353765],[-71.058825,42.353742],[-71.058878,42.353731],[-71.058999,42.353619],[-71.059011,42.353626],[-71.058906,42.353715],[-71.058858,42.353767],[-71.058871,42.353775],[-71.058822,42.35382],[-71.05906,42.353956]],[[-71.058424,42.354027],[-71.058395,42.354054],[-71.058142,42.353891],[-71.058167,42.353882],[-71.058399,42.354033],[-71.058424,42.354027]],[[-71.055043,42.354208],[-71.05502,42.354218],[-71.055037,42.354202],[-71.055043,42.354208]],[[-71.054967,42.354327],[-71.054854,42.354366],[-71.054936,42.354293],[-71.054967,42.354327]]],[[[-71.066483,42.348529],[-71.06591,42.348462],[-71.065995,42.348064],[-71.065837,42.348044],[-71.0655,42.348116],[-71.065415,42.348516],[-71.065482,42.348525],[-71.065458,42.34853],[-71.065443,42.348599],[-71.065539,42.34861],[-71.06564,42.348588],[-71.065655,42.348642],[-71.066193,42.348705],[-71.066458,42.348649],[-71.066483,42.348529]]],[[[-71.066107,42.349483],[-71.066051,42.349385],[-71.065903,42.349423],[-71.065934,42.349481],[-71.06562,42.349445],[-71.065324,42.349503],[-71.065242,42.349888],[-71.065087,42.349927],[-71.065169,42.349617],[-71.064416,42.349501],[-71.064213,42.349544],[-71.063761,42.349475],[-71.063653,42.349372],[-71.063696,42.349342],[-71.063746,42.349213],[-71.063772,42.349073],[-71.063736,42.349067],[-71.063827,42.348879],[-71.063945,42.348463],[-71.063623,42.348413],[-71.063459,42.348448],[-71.063476,42.348381],[-71.062604,42.34825],[-71.062417,42.34829],[-71.062261,42.348684],[-71.063178,42.348823],[-71.063157,42.348902],[-71.063177,42.34898],[-71.063074,42.348966],[-71.062998,42.348982],[-71.063042,42.348892],[-71.062562,42.348758],[-71.062425,42.348727],[-71.06224,42.348766],[-71.062105,42.349097],[-71.062118,42.349103],[-71.062059,42.349197],[-71.062061,42.349213],[-71.062208,42.349289],[-71.061943,42.349349],[-71.061975,42.34927],[-71.061808,42.349235],[-71.061839,42.34916],[-71.061724,42.349141],[-71.061783,42.348996],[-71.061746,42.348988],[-71.061778,42.348981],[-71.061895,42.34873],[-71.061814,42.348712],[-71.061885,42.348535],[-71.062149,42.348596],[-71.062216,42.348582],[-71.06226,42.348505],[-71.062367,42.34823],[-71.062255,42.348206],[-71.062142,42.34823],[-71.06207,42.348411],[-71.061947,42.348382],[-71.062034,42.348165],[-71.061907,42.348129],[-71.061793,42.348153],[-71.061571,42.348703],[-71.061502,42.348718],[-71.061408,42.348976],[-71.061434,42.348982],[-71.061418,42.348988],[-71.061397,42.349047],[-71.061409,42.349065],[-71.061387,42.349075],[-71.061345,42.349192],[-71.061311,42.3492],[-71.061384,42.349005],[-71.061294,42.348985],[-71.061377,42.348967],[-71.061436,42.348818],[-71.061371,42.34877],[-71.061248,42.348743],[-71.061009,42.348788],[-71.06097,42.348852],[-71.060952,42.348919],[-71.060878,42.348902],[-71.060771,42.348925],[-71.06065,42.349264],[-71.060894,42.349353],[-71.061096,42.349449],[-71.061175,42.349433],[-71.061115,42.349609],[-71.060987,42.349636],[-71.060876,42.349913],[-71.061124,42.350015],[-71.061119,42.350026],[-71.060897,42.350164],[-71.060966,42.349994],[-71.060509,42.349891],[-71.06031,42.349933],[-71.060327,42.349891],[-71.060261,42.349801],[-71.060367,42.349747],[-71.060567,42.349259],[-71.060443,42.349109],[-71.060321,42.349063],[-71.059706,42.349193],[-71.059589,42.349456],[-71.059323,42.350147],[-71.059047,42.350086],[-71.0588,42.350144],[-71.058493,42.350903],[-71.058525,42.350939],[-71.058947,42.351033],[-71.059198,42.350975],[-71.059496,42.350237],[-71.059611,42.350272],[-71.059981,42.350194],[-71.059937,42.350301],[-71.060385,42.350427],[-71.060753,42.350349],[-71.060717,42.350439],[-71.0612,42.350554],[-71.06136,42.35052],[-71.061315,42.350635],[-71.061826,42.350765],[-71.061858,42.350758],[-71.061821,42.350805],[-71.061971,42.350847],[-71.061969,42.350858],[-71.061597,42.350765],[-71.061399,42.350807],[-71.061367,42.350887],[-71.061462,42.350908],[-71.061415,42.350921],[-71.061338,42.351161],[-71.061178,42.351195],[-71.061227,42.351071],[-71.060769,42.350979],[-71.060581,42.351019],[-71.060595,42.350984],[-71.060568,42.350978],[-71.060747,42.35054],[-71.060472,42.350463],[-71.060395,42.350464],[-71.06013,42.350513],[-71.05983,42.351198],[-71.060338,42.351307],[-71.060425,42.351288],[-71.060398,42.351353],[-71.060859,42.351456],[-71.061003,42.351426],[-71.060992,42.351455],[-71.06102,42.351482],[-71.061332,42.351472],[-71.061471,42.351443],[-71.061889,42.35143],[-71.061994,42.351408],[-71.062012,42.351461],[-71.062176,42.351501],[-71.062231,42.351495],[-71.062235,42.351507],[-71.062521,42.351569],[-71.062728,42.351525],[-71.062859,42.351039],[-71.062298,42.350942],[-71.062091,42.350986],[-71.062071,42.351046],[-71.062085,42.35105],[-71.062066,42.351053],[-71.062061,42.351015],[-71.061954,42.350987],[-71.062083,42.35096],[-71.062105,42.350907],[-71.062313,42.350934],[-71.062835,42.350824],[-71.062844,42.350932],[-71.063066,42.350965],[-71.063649,42.350841],[-71.063799,42.350898],[-71.063856,42.350904],[-71.063702,42.350937],[-71.063693,42.350996],[-71.063626,42.351011],[-71.063605,42.351053],[-71.063677,42.35107],[-71.064099,42.351112],[-71.064592,42.351007],[-71.064607,42.351053],[-71.064823,42.351119],[-71.065225,42.351142],[-71.06544,42.351112],[-71.065991,42.350995],[-71.065959,42.350666],[-71.065673,42.350661],[-71.065953,42.350615],[-71.06593,42.350327],[-71.065758,42.350337],[-71.065689,42.350352],[-71.065689,42.350366],[-71.065625,42.35037],[-71.065537,42.350337],[-71.065417,42.350318],[-71.065916,42.350219],[-71.065881,42.34989],[-71.065776,42.349769],[-71.065662,42.349793],[-71.065689,42.349659],[-71.06575,42.349738],[-71.066095,42.349646],[-71.066017,42.349509],[-71.066107,42.349483]],[[-71.065545,42.350658],[-71.065452,42.350657],[-71.065486,42.350649],[-71.065545,42.350658]],[[-71.065256,42.350653],[-71.064881,42.350722],[-71.064902,42.350642],[-71.064878,42.350633],[-71.0649,42.350628],[-71.064985,42.350309],[-71.065215,42.350327],[-71.065188,42.350421],[-71.065208,42.350429],[-71.065157,42.350603],[-71.065254,42.350618],[-71.065256,42.350653]],[[-71.064943,42.350111],[-71.064913,42.350217],[-71.064826,42.350187],[-71.064841,42.350133],[-71.064943,42.350111]],[[-71.063945,42.350247],[-71.063846,42.350406],[-71.063539,42.350364],[-71.063068,42.350464],[-71.063128,42.350252],[-71.063119,42.350221],[-71.063279,42.350187],[-71.063396,42.349924],[-71.0637,42.350267],[-71.063736,42.350291],[-71.063945,42.350247]],[[-71.062576,42.349446],[-71.062287,42.349326],[-71.062277,42.34931],[-71.062451,42.349273],[-71.062518,42.349238],[-71.06243,42.349346],[-71.06257,42.34941],[-71.06255,42.349435],[-71.062576,42.349446]],[[-71.062287,42.349865],[-71.062216,42.349915],[-71.062015,42.349856],[-71.0621,42.349838],[-71.06221,42.349884],[-71.062287,42.349865]],[[-71.061922,42.34945],[-71.061772,42.349812],[-71.061891,42.349862],[-71.061723,42.349897],[-71.061778,42.349762],[-71.061627,42.349699],[-71.061812,42.349653],[-71.061911,42.349428],[-71.061922,42.34945]],[[-71.061649,42.350245],[-71.061572,42.350396],[-71.061596,42.350404],[-71.061516,42.350421],[-71.0616,42.350222],[-71.061649,42.350245]],[[-71.061225,42.349307],[-71.061211,42.349343],[-71.061157,42.349322],[-71.061225,42.349307]],[[-71.06109,42.349135],[-71.061042,42.349148],[-71.06102,42.349204],[-71.061031,42.34927],[-71.061,42.349268],[-71.06102,42.349213],[-71.060994,42.349204],[-71.060925,42.349219],[-71.060865,42.349194],[-71.060908,42.34915],[-71.060995,42.349132],[-71.061001,42.349115],[-71.06109,42.349135]],[[-71.061029,42.348991],[-71.060976,42.34909],[-71.060941,42.349067],[-71.060966,42.349005],[-71.061029,42.348991]],[[-71.060342,42.350673],[-71.060328,42.350677],[-71.060331,42.350671],[-71.060342,42.350673]]],[[[-71.065565,42.354342],[-71.065534,42.354305],[-71.065487,42.354301],[-71.065385,42.354325],[-71.065359,42.35437],[-71.065384,42.354399],[-71.06543,42.354408],[-71.06554,42.354382],[-71.065565,42.354342]]],[[[-71.065529,42.347903],[-71.065483,42.347819],[-71.065392,42.347805],[-71.065371,42.347781],[-71.065289,42.347784],[-71.065318,42.347764],[-71.065319,42.347677],[-71.065257,42.347643],[-71.064894,42.347587],[-71.064762,42.347615],[-71.064371,42.347811],[-71.064257,42.348073],[-71.064208,42.348248],[-71.064244,42.348254],[-71.064376,42.348226],[-71.064539,42.348189],[-71.064593,42.348163],[-71.064664,42.348179],[-71.064312,42.348257],[-71.064088,42.348354],[-71.064057,42.348379],[-71.064031,42.348473],[-71.064396,42.348529],[-71.064806,42.348442],[-71.064844,42.348384],[-71.06486,42.348323],[-71.06492,42.348324],[-71.065059,42.348482],[-71.065402,42.34842],[-71.065427,42.34839],[-71.065343,42.348295],[-71.065475,42.348175],[-71.065484,42.348131],[-71.065475,42.348101],[-71.065402,42.348018],[-71.06552,42.347941],[-71.065529,42.347903]]],[[[-71.065421,42.352871],[-71.065303,42.352844],[-71.065256,42.352854],[-71.065239,42.352901],[-71.065265,42.352982],[-71.065331,42.352996],[-71.065378,42.352986],[-71.065421,42.352871]]],[[[-71.06533,42.348887],[-71.065323,42.348802],[-71.065279,42.348688],[-71.064844,42.348594],[-71.064341,42.348545],[-71.0642,42.348598],[-71.064052,42.349012],[-71.064244,42.349042],[-71.064221,42.349103],[-71.064245,42.349131],[-71.064151,42.349176],[-71.0644,42.349345],[-71.064653,42.349291],[-71.064742,42.349246],[-71.06492,42.349208],[-71.065164,42.349094],[-71.065279,42.349075],[-71.06533,42.348887]]],[[[-71.064727,42.352541],[-71.064628,42.352538],[-71.064593,42.352644],[-71.064692,42.352647],[-71.064727,42.352541]]],[[[-71.06461,42.353278],[-71.064508,42.353273],[-71.064474,42.353373],[-71.064576,42.35338],[-71.06461,42.353278]]],[[[-71.064113,42.347947],[-71.063968,42.347919],[-71.063695,42.347977],[-71.06361,42.348047],[-71.063592,42.348109],[-71.063538,42.348106],[-71.063606,42.347866],[-71.06346,42.347843],[-71.063369,42.347862],[-71.0633,42.348116],[-71.063277,42.348121],[-71.063251,42.348217],[-71.063906,42.348315],[-71.06402,42.348291],[-71.064113,42.347947]]],[[[-71.063935,42.354829],[-71.063869,42.354811],[-71.063836,42.354818],[-71.063813,42.354867],[-71.063879,42.354884],[-71.063912,42.354877],[-71.063935,42.354829]]],[[[-71.063301,42.347999],[-71.062961,42.347921],[-71.062875,42.347939],[-71.062864,42.347968],[-71.062735,42.347939],[-71.062626,42.347962],[-71.062582,42.348075],[-71.062764,42.348118],[-71.062871,42.348095],[-71.062886,42.348057],[-71.062865,42.348042],[-71.062912,42.348032],[-71.062981,42.348047],[-71.06297,42.348102],[-71.063017,42.348111],[-71.063098,42.348094],[-71.063114,42.348075],[-71.063199,42.348093],[-71.06328,42.348076],[-71.063301,42.347999]]],[[[-71.063253,42.34818],[-71.06323,42.348148],[-71.063187,42.348141],[-71.063106,42.348158],[-71.062886,42.348123],[-71.062774,42.348144],[-71.062777,42.348131],[-71.062667,42.348107],[-71.062547,42.348133],[-71.06252,42.348201],[-71.062641,42.348218],[-71.062758,42.348193],[-71.062748,42.348229],[-71.06314,42.348282],[-71.063229,42.348263],[-71.063253,42.34818]]],[[[-71.062446,42.347953],[-71.061926,42.347827],[-71.061777,42.347858],[-71.061866,42.34764],[-71.061712,42.347604],[-71.061318,42.347688],[-71.061172,42.348038],[-71.061161,42.34813],[-71.06128,42.348158],[-71.061674,42.348074],[-71.061693,42.34804],[-71.061968,42.348102],[-71.062093,42.348109],[-71.062411,42.348042],[-71.062446,42.347953]]],[[[-71.06164,42.348359],[-71.061414,42.348308],[-71.061269,42.348334],[-71.06131,42.348233],[-71.061184,42.348198],[-71.061057,42.348225],[-71.061007,42.348303],[-71.061011,42.34833],[-71.060929,42.348542],[-71.060949,42.348547],[-71.060904,42.348641],[-71.06102,42.348671],[-71.061127,42.348648],[-71.061214,42.348437],[-71.061262,42.348431],[-71.061315,42.348512],[-71.061293,42.348566],[-71.061153,42.348594],[-71.061109,42.348701],[-71.061344,42.348755],[-71.061479,42.348726],[-71.061602,42.348414],[-71.061619,42.34841],[-71.06164,42.348359]]],[[[-71.06136,42.350735],[-71.061295,42.350688],[-71.060899,42.350587],[-71.060776,42.350613],[-71.060716,42.3508],[-71.060932,42.350848],[-71.061074,42.350832],[-71.061068,42.350848],[-71.061188,42.350876],[-71.061321,42.350852],[-71.06136,42.350735]]],[[[-71.061068,42.348118],[-71.061011,42.348097],[-71.060396,42.348227],[-71.059934,42.348869],[-71.060171,42.348926],[-71.060786,42.348796],[-71.061068,42.348118]]],[[[-71.060116,42.350367],[-71.059867,42.350296],[-71.059708,42.35033],[-71.059635,42.350533],[-71.059677,42.350542],[-71.059652,42.350615],[-71.05972,42.350629],[-71.059711,42.35065],[-71.059941,42.3507],[-71.060019,42.350684],[-71.06004,42.35063],[-71.060021,42.350626],[-71.060116,42.350367]]],[[[-71.059318,42.349726],[-71.059225,42.349697],[-71.05913,42.349703],[-71.059056,42.349876],[-71.059195,42.349909],[-71.059244,42.349899],[-71.059318,42.349726]]],[[[-71.059038,42.351101],[-71.058633,42.351011],[-71.058471,42.351045],[-71.0582,42.351723],[-71.058396,42.351766],[-71.058558,42.351732],[-71.058746,42.351554],[-71.05886,42.351417],[-71.05899,42.351213],[-71.059038,42.351101]]],[[[-71.058776,42.350034],[-71.058372,42.349945],[-71.058278,42.349965],[-71.058289,42.349924],[-71.057874,42.34983],[-71.057662,42.349875],[-71.057476,42.349972],[-71.057444,42.350151],[-71.057423,42.350155],[-71.057505,42.349748],[-71.057133,42.349667],[-71.056774,42.349743],[-71.056673,42.349974],[-71.056784,42.350003],[-71.056727,42.350132],[-71.056675,42.350143],[-71.056629,42.350174],[-71.056541,42.350349],[-71.056431,42.350382],[-71.056392,42.350451],[-71.056424,42.350502],[-71.056501,42.35053],[-71.056674,42.350498],[-71.057095,42.350597],[-71.057291,42.350556],[-71.057267,42.350671],[-71.057417,42.350707],[-71.057493,42.350691],[-71.057861,42.350781],[-71.057988,42.350754],[-71.057979,42.350786],[-71.058085,42.350812],[-71.058149,42.350798],[-71.05836,42.350851],[-71.058459,42.35083],[-71.058581,42.350557],[-71.058587,42.350541],[-71.058574,42.350538],[-71.058706,42.35021],[-71.058767,42.350099],[-71.058776,42.350034]],[[-71.058195,42.350233],[-71.058174,42.350305],[-71.057837,42.350252],[-71.057994,42.350276],[-71.058195,42.350233]]],[[[-71.058424,42.349376],[-71.057926,42.349266],[-71.05784,42.349284],[-71.057795,42.349397],[-71.057704,42.349416],[-71.05765,42.349547],[-71.057433,42.349593],[-71.057408,42.349627],[-71.05743,42.34965],[-71.057489,42.349646],[-71.057491,42.34968],[-71.05752,42.349693],[-71.057667,42.349664],[-71.058059,42.349747],[-71.058297,42.349696],[-71.058424,42.349376]]],[[[-71.058414,42.350953],[-71.058104,42.350876],[-71.058048,42.350888],[-71.058052,42.350873],[-71.057558,42.350757],[-71.057303,42.35082],[-71.057154,42.351581],[-71.057347,42.35161],[-71.057092,42.351664],[-71.056887,42.351571],[-71.057156,42.351519],[-71.05732,42.350691],[-71.05694,42.350597],[-71.056815,42.350607],[-71.056492,42.350679],[-71.056473,42.350686],[-71.056355,42.350931],[-71.056478,42.350962],[-71.056319,42.350996],[-71.056177,42.351297],[-71.056273,42.351335],[-71.055935,42.351407],[-71.05572,42.351841],[-71.056052,42.351927],[-71.056034,42.351975],[-71.056609,42.352125],[-71.057001,42.352041],[-71.056992,42.352095],[-71.057644,42.3523],[-71.057943,42.352241],[-71.058115,42.351737],[-71.058103,42.35172],[-71.057932,42.351693],[-71.058131,42.351651],[-71.058414,42.350953]],[[-71.057858,42.351692],[-71.057834,42.351697],[-71.057837,42.351688],[-71.057858,42.351692]],[[-71.057825,42.351138],[-71.05782,42.351155],[-71.057782,42.351147],[-71.057825,42.351138]],[[-71.057778,42.351307],[-71.057772,42.351326],[-71.057723,42.351318],[-71.057778,42.351307]],[[-71.057687,42.351631],[-71.057678,42.351659],[-71.057606,42.351648],[-71.057687,42.351631]],[[-71.056828,42.351015],[-71.056827,42.351017],[-71.056825,42.351016],[-71.056828,42.351015]],[[-71.056664,42.351412],[-71.056642,42.351463],[-71.056572,42.351432],[-71.056664,42.351412]]],[[[-71.058071,42.348706],[-71.057613,42.348605],[-71.057169,42.348699],[-71.057085,42.348908],[-71.057544,42.349009],[-71.057988,42.348915],[-71.058071,42.348706]]],[[[-71.057,42.352232],[-71.056202,42.352031],[-71.055712,42.352135],[-71.055529,42.352202],[-71.055386,42.352232],[-71.055458,42.352178],[-71.055549,42.352069],[-71.055768,42.35162],[-71.055498,42.351545],[-71.05421,42.351836],[-71.054038,42.352011],[-71.054564,42.352289],[-71.054815,42.352353],[-71.054524,42.352415],[-71.054235,42.35252],[-71.054158,42.352684],[-71.054752,42.352833],[-71.055625,42.352648],[-71.055657,42.352711],[-71.055786,42.352745],[-71.056276,42.352641],[-71.056859,42.352484],[-71.05694,42.352364],[-71.057,42.352232]]],[[[-71.056775,42.349199],[-71.056596,42.349149],[-71.056421,42.349186],[-71.055432,42.349469],[-71.056683,42.347603],[-71.056673,42.347544],[-71.055908,42.347262],[-71.055741,42.347297],[-71.054364,42.349338],[-71.054358,42.349421],[-71.054164,42.34947],[-71.053194,42.350913],[-71.053775,42.351128],[-71.053983,42.351084],[-71.054262,42.351187],[-71.054337,42.351171],[-71.054865,42.350384],[-71.054834,42.350461],[-71.054923,42.350471],[-71.055192,42.350676],[-71.055344,42.350732],[-71.055979,42.350726],[-71.056238,42.350673],[-71.056434,42.350281],[-71.056635,42.349782],[-71.056775,42.349199]]]]},"properties":{"kind":"building"}},{"type":"Feature","geometry":{"type":"MultiPolygon","coordinates":[[[[-71.066058,42.353451],[-71.066047,42.35341],[-71.066015,42.353375],[-71.065912,42.353343],[-71.065687,42.353387],[-71.065608,42.353446],[-71.065597,42.353487],[-71.065608,42.353528],[-71.06564,42.353563],[-71.065743,42.353595],[-71.065968,42.353551],[-71.066015,42.353527],[-71.066047,42.353492],[-71.066058,42.353451]]],[[[-71.066048,42.352923],[-71.066021,42.352832],[-71.065942,42.352773],[-71.065886,42.352765],[-71.065774,42.352785],[-71.06575,42.352742],[-71.065693,42.352724],[-71.065542,42.352754],[-71.065498,42.352786],[-71.065389,42.352811],[-71.065336,42.35285],[-71.065336,42.352905],[-71.065387,42.352943],[-71.065343,42.352975],[-71.065343,42.353021],[-71.065304,42.353034],[-71.06524,42.353001],[-71.065107,42.353027],[-71.065071,42.353054],[-71.065071,42.353093],[-71.065107,42.35312],[-71.065258,42.353099],[-71.065265,42.353126],[-71.065303,42.353158],[-71.065231,42.3532],[-71.065123,42.353222],[-71.065111,42.353202],[-71.065207,42.353169],[-71.065197,42.353132],[-71.065148,42.353125],[-71.06504,42.353161],[-71.064892,42.353185],[-71.064928,42.353148],[-71.064939,42.353107],[-71.064928,42.353066],[-71.064865,42.353015],[-71.06483,42.352952],[-71.064791,42.352933],[-71.064745,42.352926],[-71.06454,42.352967],[-71.064475,42.353015],[-71.064466,42.353049],[-71.064491,42.3531],[-71.064478,42.353143],[-71.064489,42.353184],[-71.064521,42.353219],[-71.064611,42.353249],[-71.064432,42.353297],[-71.064399,42.353355],[-71.064408,42.353386],[-71.064468,42.35343],[-71.06451,42.353436],[-71.064951,42.353342],[-71.064961,42.35338],[-71.064993,42.353415],[-71.064786,42.353464],[-71.064765,42.353501],[-71.064786,42.353539],[-71.064836,42.353554],[-71.064893,42.353544],[-71.064958,42.353592],[-71.065006,42.353599],[-71.065141,42.353573],[-71.065176,42.35362],[-71.065279,42.353652],[-71.065504,42.353608],[-71.065583,42.353549],[-71.065594,42.353508],[-71.065583,42.353467],[-71.065504,42.353408],[-71.065375,42.353412],[-71.065348,42.353389],[-71.0654,42.353344],[-71.065411,42.353303],[-71.065519,42.35328],[-71.065596,42.353243],[-71.065625,42.353296],[-71.065691,42.353317],[-71.065891,42.353268],[-71.065918,42.353219],[-71.065911,42.353192],[-71.06586,42.353155],[-71.065878,42.353135],[-71.065981,42.353102],[-71.066007,42.353073],[-71.066016,42.353039],[-71.065995,42.352992],[-71.066039,42.352955],[-71.066048,42.352923]],[[-71.065608,42.353107],[-71.065605,42.353119],[-71.065584,42.353113],[-71.065608,42.353107]],[[-71.064763,42.353256],[-71.06476,42.353268],[-71.064732,42.353263],[-71.064763,42.353256]]],[[[-71.066046,42.354972],[-71.066026,42.354936],[-71.065978,42.354922],[-71.065845,42.354948],[-71.065803,42.354995],[-71.065823,42.35503],[-71.065872,42.355045],[-71.066004,42.355019],[-71.066046,42.354972]]],[[[-71.066022,42.352597],[-71.065976,42.352546],[-71.06587,42.352556],[-71.065812,42.352534],[-71.065751,42.352545],[-71.065688,42.352518],[-71.065546,42.352546],[-71.0655,42.352597],[-71.065457,42.352615],[-71.065457,42.352558],[-71.065434,42.352533],[-71.065361,42.35251],[-71.065179,42.352546],[-71.065122,42.352588],[-71.065115,42.352617],[-71.065145,42.352672],[-71.065179,42.352688],[-71.065218,42.352694],[-71.065359,42.352667],[-71.065361,42.352713],[-71.06538,42.352735],[-71.065445,42.352755],[-71.065609,42.352722],[-71.065638,42.352708],[-71.065665,42.352661],[-71.065776,42.352654],[-71.065834,42.352676],[-71.065976,42.352648],[-71.066022,42.352597]]],[[[-71.06602,42.354061],[-71.065981,42.354032],[-71.065889,42.354045],[-71.065784,42.354066],[-71.065754,42.354099],[-71.065768,42.354125],[-71.065802,42.354135],[-71.065996,42.354088],[-71.06602,42.354061]]],[[[-71.06597,42.354146],[-71.065947,42.354129],[-71.065878,42.354143],[-71.065865,42.354165],[-71.065895,42.354174],[-71.06597,42.354146]]],[[[-71.065865,42.354468],[-71.065827,42.3544],[-71.065735,42.354372],[-71.065516,42.354415],[-71.065446,42.354467],[-71.065436,42.354504],[-71.065474,42.354572],[-71.065566,42.3546],[-71.065785,42.354557],[-71.065827,42.354536],[-71.065865,42.354468]]],[[[-71.06583,42.348038],[-71.065811,42.348004],[-71.065765,42.34799],[-71.065637,42.348016],[-71.065597,42.34806],[-71.065616,42.348094],[-71.065662,42.348108],[-71.06579,42.348082],[-71.06583,42.348038]]],[[[-71.06579,42.34818],[-71.065774,42.348151],[-71.065735,42.348139],[-71.065621,42.348162],[-71.065587,42.3482],[-71.065603,42.348229],[-71.065642,42.348241],[-71.065756,42.348218],[-71.06579,42.34818]]],[[[-71.065764,42.353939],[-71.065749,42.353914],[-71.065715,42.353903],[-71.06561,42.353924],[-71.065583,42.353944],[-71.065583,42.35397],[-71.065532,42.353995],[-71.065532,42.354022],[-71.065577,42.354044],[-71.065683,42.354023],[-71.065709,42.354004],[-71.065709,42.353977],[-71.065749,42.353964],[-71.065764,42.353939]]],[[[-71.065738,42.348446],[-71.065721,42.348415],[-71.06568,42.348403],[-71.065561,42.348427],[-71.065525,42.348467],[-71.065542,42.348497],[-71.065583,42.34851],[-71.065702,42.348486],[-71.065738,42.348446]]],[[[-71.065728,42.348293],[-71.06571,42.34828],[-71.065659,42.34829],[-71.065649,42.348308],[-71.065673,42.348315],[-71.065728,42.348293]]],[[[-71.065683,42.354843],[-71.065674,42.354808],[-71.065607,42.354759],[-71.065484,42.354765],[-71.065466,42.354722],[-71.065418,42.354708],[-71.065343,42.354722],[-71.065351,42.354697],[-71.065327,42.354655],[-71.065202,42.35461],[-71.065056,42.35464],[-71.065014,42.354671],[-71.065014,42.354715],[-71.064938,42.354754],[-71.064814,42.354777],[-71.06478,42.354815],[-71.064814,42.354852],[-71.064967,42.354824],[-71.065009,42.354833],[-71.065049,42.354866],[-71.065123,42.354862],[-71.065167,42.354906],[-71.065279,42.354894],[-71.06531,42.354942],[-71.065398,42.354969],[-71.065607,42.354927],[-71.065647,42.354907],[-71.065683,42.354843]]],[[[-71.065625,42.353756],[-71.065608,42.353725],[-71.065567,42.353713],[-71.065448,42.353737],[-71.065412,42.353775],[-71.065396,42.353753],[-71.065348,42.353739],[-71.065215,42.353765],[-71.065173,42.353812],[-71.065193,42.353847],[-71.065081,42.353881],[-71.065063,42.353913],[-71.065081,42.353945],[-71.064947,42.353979],[-71.064933,42.354031],[-71.064993,42.354061],[-71.065067,42.354047],[-71.065035,42.354085],[-71.065071,42.354124],[-71.065212,42.354104],[-71.065244,42.354081],[-71.065234,42.354037],[-71.06534,42.354014],[-71.065375,42.353988],[-71.065375,42.353952],[-71.065343,42.353927],[-71.065568,42.353901],[-71.065596,42.353881],[-71.065596,42.353851],[-71.065568,42.353831],[-71.065479,42.353841],[-71.065438,42.353826],[-71.065324,42.353849],[-71.06529,42.353887],[-71.06532,42.353923],[-71.065187,42.353948],[-71.065154,42.353971],[-71.065142,42.353957],[-71.065269,42.353924],[-71.065287,42.353892],[-71.065269,42.35386],[-71.065374,42.353836],[-71.065416,42.353791],[-71.065448,42.353816],[-71.065493,42.353816],[-71.065589,42.353796],[-71.065625,42.353756]],[[-71.065165,42.354025],[-71.065125,42.354033],[-71.065153,42.354012],[-71.065165,42.354025]]],[[[-71.065598,42.348957],[-71.06558,42.348944],[-71.065532,42.348953],[-71.065522,42.348971],[-71.065546,42.348978],[-71.065598,42.348957]]],[[[-71.065588,42.351223],[-71.06557,42.35121],[-71.065512,42.351221],[-71.065502,42.351239],[-71.065526,42.351246],[-71.065588,42.351223]]],[[[-71.065562,42.349094],[-71.065544,42.349081],[-71.065496,42.34909],[-71.065486,42.349108],[-71.06551,42.349115],[-71.065562,42.349094]]],[[[-71.065559,42.349236],[-71.065544,42.349211],[-71.06551,42.3492],[-71.065416,42.349219],[-71.065386,42.349252],[-71.065401,42.349277],[-71.065435,42.349288],[-71.065529,42.349269],[-71.065559,42.349236]]],[[[-71.065552,42.348316],[-71.065534,42.348284],[-71.06549,42.34827],[-71.065366,42.348295],[-71.065328,42.348337],[-71.065346,42.348369],[-71.06539,42.348383],[-71.065514,42.348358],[-71.065552,42.348316]]],[[[-71.06555,42.353665],[-71.065532,42.353633],[-71.065488,42.353619],[-71.065364,42.353644],[-71.065326,42.353686],[-71.065344,42.353718],[-71.065388,42.353732],[-71.065512,42.353707],[-71.06555,42.353665]]],[[[-71.065548,42.34811],[-71.06553,42.348097],[-71.065479,42.348107],[-71.065469,42.348125],[-71.065493,42.348132],[-71.065548,42.34811]]],[[[-71.065483,42.348446],[-71.06546,42.348429],[-71.065391,42.348443],[-71.065378,42.348465],[-71.065408,42.348474],[-71.065483,42.348446]]],[[[-71.065433,42.34879],[-71.065418,42.348765],[-71.065384,42.348754],[-71.06529,42.348773],[-71.06526,42.348806],[-71.065275,42.348831],[-71.065309,42.348842],[-71.065403,42.348823],[-71.065433,42.34879]]],[[[-71.065396,42.34894],[-71.06536,42.348914],[-71.065273,42.348931],[-71.065251,42.348956],[-71.065286,42.348982],[-71.065374,42.348964],[-71.065396,42.34894]]],[[[-71.065379,42.34907],[-71.065364,42.349045],[-71.06533,42.349034],[-71.065225,42.349055],[-71.065195,42.349088],[-71.065209,42.349114],[-71.065243,42.349124],[-71.065349,42.349103],[-71.065379,42.34907]]],[[[-71.065368,42.35121],[-71.06535,42.351197],[-71.065296,42.351208],[-71.065286,42.351225],[-71.06531,42.351233],[-71.065368,42.35121]]],[[[-71.065274,42.352968],[-71.065235,42.352939],[-71.065158,42.352955],[-71.065169,42.352928],[-71.065149,42.352891],[-71.065179,42.352852],[-71.065164,42.352827],[-71.065204,42.352785],[-71.065187,42.352754],[-71.065146,42.352742],[-71.065008,42.352775],[-71.064991,42.352806],[-71.065017,42.352841],[-71.064995,42.35287],[-71.065006,42.352893],[-71.064938,42.352914],[-71.064917,42.352951],[-71.064961,42.353],[-71.065121,42.352978],[-71.065131,42.353005],[-71.065158,42.353013],[-71.06525,42.352995],[-71.065274,42.352968]]],[[[-71.065268,42.35121],[-71.06525,42.351197],[-71.065199,42.351207],[-71.065189,42.351225],[-71.065213,42.351232],[-71.065268,42.35121]]],[[[-71.065176,42.35072],[-71.06514,42.350702],[-71.065076,42.350716],[-71.065062,42.350741],[-71.065096,42.350751],[-71.06516,42.350738],[-71.065176,42.35072]]],[[[-71.065151,42.350784],[-71.065115,42.350766],[-71.065051,42.35078],[-71.065037,42.350805],[-71.065071,42.350815],[-71.065135,42.350802],[-71.065151,42.350784]]],[[[-71.065129,42.350853],[-71.06511,42.350839],[-71.065045,42.350852],[-71.065035,42.350871],[-71.06506,42.350878],[-71.065129,42.350853]]],[[[-71.065109,42.352581],[-71.065081,42.35253],[-71.065012,42.352509],[-71.064839,42.352543],[-71.064786,42.352582],[-71.064779,42.35261],[-71.064807,42.352661],[-71.064876,42.352682],[-71.065049,42.352647],[-71.065081,42.352632],[-71.065109,42.352581]]],[[[-71.065103,42.354592],[-71.065085,42.35456],[-71.065041,42.354546],[-71.064917,42.354571],[-71.064884,42.354596],[-71.064711,42.354641],[-71.064685,42.354688],[-71.064711,42.354736],[-71.064776,42.354756],[-71.06494,42.354723],[-71.064989,42.354687],[-71.064993,42.354649],[-71.065085,42.354624],[-71.065103,42.354592]]],[[[-71.065099,42.354179],[-71.065063,42.354139],[-71.064922,42.35416],[-71.064866,42.354134],[-71.064761,42.354155],[-71.064731,42.354188],[-71.064761,42.354222],[-71.064885,42.354203],[-71.064903,42.35423],[-71.064944,42.354243],[-71.065063,42.354219],[-71.065099,42.354179]]],[[[-71.065067,42.354458],[-71.065029,42.354416],[-71.064899,42.354414],[-71.064802,42.354433],[-71.064775,42.354393],[-71.06474,42.354376],[-71.06465,42.354367],[-71.064722,42.35435],[-71.064759,42.354322],[-71.064813,42.354352],[-71.064923,42.354329],[-71.064955,42.354294],[-71.064923,42.354259],[-71.064793,42.354278],[-71.064765,42.354298],[-71.064744,42.354267],[-71.064696,42.354253],[-71.064563,42.354279],[-71.064521,42.354326],[-71.064555,42.354368],[-71.064495,42.354385],[-71.064463,42.35444],[-71.064369,42.354465],[-71.064352,42.354496],[-71.064368,42.354525],[-71.064266,42.354552],[-71.064249,42.354583],[-71.064261,42.354607],[-71.064189,42.354627],[-71.064174,42.354654],[-71.064185,42.354677],[-71.06408,42.354704],[-71.064068,42.354748],[-71.064098,42.35477],[-71.06414,42.35477],[-71.064127,42.354824],[-71.064166,42.354853],[-71.06433,42.35483],[-71.064369,42.354801],[-71.064356,42.354746],[-71.064439,42.354724],[-71.064455,42.354695],[-71.064444,42.354671],[-71.064531,42.354648],[-71.064546,42.354621],[-71.064532,42.354595],[-71.064617,42.354577],[-71.064652,42.354541],[-71.06471,42.354528],[-71.064779,42.354559],[-71.06493,42.354529],[-71.065049,42.35449],[-71.065067,42.354458]],[[-71.064459,42.354589],[-71.064446,42.354591],[-71.064453,42.354584],[-71.064459,42.354589]],[[-71.064453,42.354531],[-71.064449,42.354536],[-71.064446,42.354533],[-71.064453,42.354531]],[[-71.064366,42.354615],[-71.064362,42.354618],[-71.06436,42.354616],[-71.064366,42.354615]],[[-71.064362,42.354661],[-71.06435,42.354663],[-71.064358,42.354657],[-71.064362,42.354661]],[[-71.064271,42.354684],[-71.06426,42.354694],[-71.064254,42.354688],[-71.064271,42.354684]],[[-71.06426,42.354735],[-71.064256,42.354736],[-71.064259,42.354733],[-71.06426,42.354735]]],[[[-71.064944,42.35131],[-71.064926,42.351297],[-71.064872,42.351308],[-71.064862,42.351325],[-71.064886,42.351333],[-71.064944,42.35131]]],[[[-71.064935,42.35396],[-71.064929,42.353937],[-71.064885,42.353905],[-71.064781,42.353913],[-71.064779,42.353878],[-71.064737,42.353847],[-71.064638,42.353855],[-71.064632,42.353832],[-71.064588,42.3538],[-71.064504,42.353804],[-71.064437,42.353774],[-71.064389,42.353783],[-71.064386,42.353761],[-71.064444,42.353728],[-71.064444,42.353692],[-71.064483,42.35364],[-71.06467,42.353605],[-71.064702,42.353589],[-71.064732,42.353536],[-71.064702,42.353483],[-71.064631,42.353462],[-71.06442,42.353513],[-71.064391,42.353566],[-71.064399,42.353594],[-71.06429,42.353618],[-71.064255,42.353644],[-71.064255,42.35368],[-71.064216,42.353732],[-71.064228,42.353758],[-71.064187,42.353797],[-71.064203,42.353826],[-71.064239,42.353837],[-71.064153,42.353863],[-71.064135,42.353883],[-71.064118,42.35397],[-71.064142,42.354013],[-71.064199,42.35403],[-71.06435,42.354],[-71.064394,42.353968],[-71.064396,42.353931],[-71.064437,42.35394],[-71.0644,42.353993],[-71.064407,42.354018],[-71.064454,42.354052],[-71.064373,42.35407],[-71.064352,42.354041],[-71.064295,42.354023],[-71.064144,42.354053],[-71.0641,42.354085],[-71.0641,42.354131],[-71.064012,42.354157],[-71.06399,42.354196],[-71.064011,42.354234],[-71.06396,42.354279],[-71.063958,42.354354],[-71.063859,42.354382],[-71.063835,42.354424],[-71.063841,42.354447],[-71.063766,42.354483],[-71.063734,42.354518],[-71.063723,42.354559],[-71.063734,42.3546],[-71.06381,42.354657],[-71.063695,42.354689],[-71.063677,42.354709],[-71.063676,42.354754],[-71.063639,42.354783],[-71.063639,42.354827],[-71.063711,42.354862],[-71.063882,42.354821],[-71.063901,42.354766],[-71.063956,42.354731],[-71.063956,42.354683],[-71.063928,42.354658],[-71.064094,42.354623],[-71.064173,42.354564],[-71.064184,42.354523],[-71.064173,42.354482],[-71.064105,42.354429],[-71.06432,42.354384],[-71.064367,42.35436],[-71.064399,42.354325],[-71.06441,42.354284],[-71.064386,42.354228],[-71.064567,42.354192],[-71.064625,42.354149],[-71.064633,42.354119],[-71.064615,42.354078],[-71.064885,42.354015],[-71.064911,42.354002],[-71.064935,42.35396]],[[-71.064281,42.354179],[-71.064251,42.354178],[-71.064248,42.354155],[-71.064273,42.35415],[-71.064281,42.354179]]],[[[-71.064911,42.354986],[-71.06488,42.354932],[-71.064807,42.354909],[-71.064625,42.354945],[-71.064568,42.354987],[-71.064561,42.355016],[-71.064591,42.355071],[-71.064664,42.355093],[-71.064847,42.355057],[-71.06488,42.35504],[-71.064911,42.354986]]],[[[-71.064857,42.348456],[-71.064839,42.348443],[-71.064788,42.348453],[-71.064778,42.348471],[-71.064802,42.348478],[-71.064857,42.348456]]],[[[-71.064739,42.354797],[-71.064721,42.354784],[-71.06467,42.354794],[-71.06466,42.354812],[-71.064684,42.354819],[-71.064739,42.354797]]],[[[-71.064624,42.351826],[-71.064606,42.351813],[-71.064555,42.351823],[-71.064545,42.351841],[-71.064569,42.351848],[-71.064624,42.351826]]],[[[-71.064621,42.348425],[-71.064603,42.348412],[-71.064552,42.348422],[-71.064542,42.34844],[-71.064566,42.348447],[-71.064621,42.348425]]],[[[-71.064568,42.352055],[-71.06455,42.352042],[-71.064496,42.352053],[-71.064486,42.35207],[-71.06451,42.352078],[-71.064568,42.352055]]],[[[-71.064564,42.352104],[-71.064545,42.35209],[-71.06448,42.352103],[-71.06447,42.352122],[-71.064495,42.352129],[-71.064564,42.352104]]],[[[-71.064548,42.35216],[-71.06453,42.352147],[-71.064479,42.352157],[-71.064469,42.352175],[-71.064493,42.352182],[-71.064548,42.35216]]],[[[-71.064436,42.348399],[-71.064418,42.348386],[-71.064367,42.348396],[-71.064357,42.348414],[-71.064381,42.348421],[-71.064436,42.348399]]],[[[-71.064238,42.350925],[-71.06422,42.350912],[-71.064169,42.350922],[-71.064159,42.35094],[-71.064183,42.350947],[-71.064238,42.350925]]],[[[-71.064209,42.34872],[-71.064186,42.348703],[-71.064117,42.348717],[-71.064104,42.348739],[-71.064134,42.348748],[-71.064209,42.34872]]],[[[-71.064168,42.34884],[-71.06415,42.348827],[-71.064089,42.348839],[-71.064079,42.348857],[-71.064103,42.348864],[-71.064168,42.34884]]],[[[-71.064148,42.350914],[-71.06413,42.350901],[-71.064082,42.35091],[-71.06405,42.35089],[-71.063972,42.350906],[-71.063962,42.350883],[-71.063934,42.350874],[-71.063842,42.350893],[-71.063818,42.350919],[-71.063842,42.350946],[-71.063947,42.35093],[-71.06398,42.350953],[-71.064148,42.350914]]],[[[-71.064088,42.3533],[-71.06407,42.353287],[-71.064009,42.353299],[-71.063999,42.353317],[-71.064023,42.353324],[-71.064088,42.3533]]],[[[-71.064049,42.35339],[-71.06403,42.353376],[-71.063927,42.353379],[-71.063917,42.353362],[-71.063839,42.35338],[-71.063849,42.353398],[-71.06389,42.353392],[-71.0639,42.353411],[-71.063954,42.353403],[-71.063973,42.353417],[-71.064049,42.35339]]],[[[-71.064013,42.353283],[-71.063995,42.35327],[-71.063934,42.353282],[-71.063924,42.3533],[-71.063948,42.353307],[-71.064013,42.353283]]],[[[-71.063998,42.35376],[-71.06398,42.353747],[-71.063919,42.353759],[-71.063909,42.353777],[-71.063933,42.353784],[-71.063998,42.35376]]],[[[-71.063943,42.353268],[-71.06392,42.353251],[-71.063851,42.353265],[-71.063838,42.353287],[-71.063868,42.353296],[-71.063943,42.353268]]],[[[-71.063922,42.353967],[-71.063913,42.35395],[-71.063878,42.353945],[-71.063797,42.353965],[-71.06379,42.353991],[-71.063832,42.354004],[-71.063902,42.353989],[-71.063922,42.353967]]],[[[-71.063915,42.348675],[-71.063896,42.348661],[-71.063831,42.348674],[-71.063821,42.348693],[-71.063846,42.3487],[-71.063915,42.348675]]],[[[-71.063893,42.348743],[-71.06387,42.348726],[-71.063801,42.34874],[-71.063788,42.348762],[-71.063818,42.348771],[-71.063893,42.348743]]],[[[-71.063879,42.34887],[-71.06386,42.348856],[-71.063795,42.348869],[-71.063785,42.348888],[-71.06381,42.348895],[-71.063879,42.34887]]],[[[-71.063873,42.348793],[-71.063855,42.34878],[-71.063804,42.34879],[-71.063794,42.348808],[-71.063818,42.348815],[-71.063873,42.348793]]],[[[-71.063821,42.349148],[-71.063803,42.349135],[-71.063752,42.349145],[-71.063742,42.349163],[-71.063766,42.34917],[-71.063821,42.349148]]],[[[-71.063816,42.35412],[-71.06378,42.354102],[-71.063716,42.354116],[-71.063702,42.354141],[-71.063736,42.354151],[-71.0638,42.354138],[-71.063816,42.35412]]],[[[-71.063808,42.348427],[-71.06379,42.348414],[-71.063739,42.348424],[-71.063729,42.348442],[-71.063753,42.348449],[-71.063808,42.348427]]],[[[-71.063768,42.349293],[-71.06375,42.34928],[-71.063699,42.34929],[-71.063689,42.349308],[-71.063713,42.349315],[-71.063768,42.349293]]],[[[-71.063755,42.349335],[-71.063737,42.349322],[-71.063686,42.349332],[-71.063676,42.34935],[-71.0637,42.349357],[-71.063755,42.349335]]],[[[-71.063718,42.34841],[-71.0637,42.348397],[-71.063649,42.348407],[-71.063639,42.348425],[-71.063663,42.348432],[-71.063718,42.34841]]],[[[-71.063707,42.350883],[-71.063675,42.350859],[-71.063545,42.350868],[-71.06352,42.350845],[-71.063432,42.35087],[-71.063446,42.350895],[-71.063572,42.350897],[-71.063605,42.350922],[-71.063687,42.350905],[-71.063707,42.350883]]],[[[-71.063689,42.34976],[-71.06367,42.349746],[-71.063605,42.349759],[-71.063595,42.349778],[-71.06362,42.349785],[-71.063689,42.34976]]],[[[-71.063632,42.349854],[-71.063614,42.349841],[-71.063553,42.349853],[-71.063543,42.349871],[-71.063567,42.349878],[-71.063632,42.349854]]],[[[-71.063579,42.34995],[-71.06356,42.349936],[-71.063495,42.349949],[-71.063485,42.349968],[-71.06351,42.349975],[-71.063579,42.34995]]],[[[-71.063569,42.3547],[-71.063554,42.354675],[-71.06352,42.354664],[-71.063426,42.354683],[-71.063396,42.354716],[-71.063411,42.354741],[-71.063445,42.354752],[-71.063539,42.354733],[-71.063569,42.3547]]],[[[-71.063548,42.35],[-71.06353,42.349987],[-71.063469,42.349999],[-71.063459,42.350017],[-71.063483,42.350024],[-71.063548,42.35]]],[[[-71.063509,42.3548],[-71.063494,42.354775],[-71.06346,42.354764],[-71.063366,42.354783],[-71.063336,42.354816],[-71.063351,42.354841],[-71.063385,42.354852],[-71.063479,42.354833],[-71.063509,42.3548]]],[[[-71.063458,42.350418],[-71.06344,42.350405],[-71.063379,42.350417],[-71.063369,42.350435],[-71.063393,42.350442],[-71.063458,42.350418]]],[[[-71.063458,42.35018],[-71.06344,42.350167],[-71.063382,42.350178],[-71.063372,42.350196],[-71.063396,42.350203],[-71.063458,42.35018]]],[[[-71.063434,42.350487],[-71.063416,42.350474],[-71.063358,42.350485],[-71.063348,42.350503],[-71.063372,42.35051],[-71.063434,42.350487]]],[[[-71.063428,42.350246],[-71.06341,42.350233],[-71.063352,42.350244],[-71.063342,42.350262],[-71.063366,42.350269],[-71.063428,42.350246]]],[[[-71.063403,42.35055],[-71.063385,42.350537],[-71.063331,42.350548],[-71.063321,42.350565],[-71.063345,42.350573],[-71.063403,42.35055]]],[[[-71.063403,42.35028],[-71.063385,42.350267],[-71.063327,42.350278],[-71.063317,42.350296],[-71.063341,42.350303],[-71.063403,42.35028]]],[[[-71.063386,42.350826],[-71.06335,42.350808],[-71.063286,42.350822],[-71.063272,42.350847],[-71.063306,42.350857],[-71.06337,42.350844],[-71.063386,42.350826]]],[[[-71.063383,42.350765],[-71.063354,42.350743],[-71.063276,42.350759],[-71.063258,42.350779],[-71.063287,42.350801],[-71.063365,42.350785],[-71.063383,42.350765]]],[[[-71.063369,42.350704],[-71.06335,42.35069],[-71.063285,42.350703],[-71.063275,42.350722],[-71.0633,42.350729],[-71.063369,42.350704]]],[[[-71.063368,42.35061],[-71.06335,42.350597],[-71.063296,42.350608],[-71.063286,42.350625],[-71.06331,42.350633],[-71.063368,42.35061]]],[[[-71.063328,42.35044],[-71.06331,42.350427],[-71.063256,42.350438],[-71.063246,42.350455],[-71.06327,42.350463],[-71.063328,42.35044]]],[[[-71.063298,42.350483],[-71.06328,42.35047],[-71.063222,42.350481],[-71.063212,42.350499],[-71.063236,42.350506],[-71.063298,42.350483]]],[[[-71.063273,42.350536],[-71.063255,42.350523],[-71.063197,42.350534],[-71.063187,42.350552],[-71.063211,42.350559],[-71.063273,42.350536]]],[[[-71.063248,42.350582],[-71.06323,42.350569],[-71.063169,42.350581],[-71.063159,42.350599],[-71.063183,42.350606],[-71.063248,42.350582]]],[[[-71.063228,42.35063],[-71.06321,42.350617],[-71.063149,42.350629],[-71.063139,42.350647],[-71.063163,42.350654],[-71.063228,42.35063]]],[[[-71.063198,42.350677],[-71.06318,42.350664],[-71.063132,42.350673],[-71.063122,42.350691],[-71.063146,42.350698],[-71.063198,42.350677]]],[[[-71.063178,42.350727],[-71.06316,42.350714],[-71.063102,42.350725],[-71.063092,42.350743],[-71.063116,42.35075],[-71.063178,42.350727]]],[[[-71.063149,42.350765],[-71.06313,42.350751],[-71.063065,42.350764],[-71.063055,42.350783],[-71.06308,42.35079],[-71.063149,42.350765]]],[[[-71.063144,42.352238],[-71.063126,42.352225],[-71.063011,42.352248],[-71.063001,42.352265],[-71.063025,42.352273],[-71.063144,42.352238]]],[[[-71.062983,42.352253],[-71.062965,42.35224],[-71.062911,42.352251],[-71.062901,42.352268],[-71.062925,42.352276],[-71.062983,42.352253]]],[[[-71.062922,42.35222],[-71.062904,42.352207],[-71.062847,42.352218],[-71.06283,42.352202],[-71.062776,42.352213],[-71.062766,42.35223],[-71.062836,42.352228],[-71.062853,42.352244],[-71.062922,42.35222]]],[[[-71.062829,42.353302],[-71.06281,42.353288],[-71.062731,42.35329],[-71.062671,42.353303],[-71.062658,42.353325],[-71.062753,42.353329],[-71.062829,42.353302]]],[[[-71.062829,42.353214],[-71.06281,42.3532],[-71.062763,42.353209],[-71.062744,42.353193],[-71.062679,42.353206],[-71.062669,42.353225],[-71.062734,42.353224],[-71.062753,42.353241],[-71.062829,42.353214]]],[[[-71.062559,42.348354],[-71.06253,42.348332],[-71.062452,42.348348],[-71.062434,42.348368],[-71.062463,42.34839],[-71.062541,42.348374],[-71.062559,42.348354]]],[[[-71.062496,42.349373],[-71.062484,42.349351],[-71.062454,42.349342],[-71.062358,42.349361],[-71.062332,42.34939],[-71.062344,42.349412],[-71.062374,42.349421],[-71.06247,42.349402],[-71.062496,42.349373]]],[[[-71.062463,42.348557],[-71.06244,42.34854],[-71.062371,42.348554],[-71.062358,42.348576],[-71.062388,42.348585],[-71.062463,42.348557]]],[[[-71.062409,42.348373],[-71.06237,42.348344],[-71.062278,42.348363],[-71.062254,42.348389],[-71.062293,42.348418],[-71.062385,42.3484],[-71.062409,42.348373]]],[[[-71.062392,42.349323],[-71.06238,42.349301],[-71.06235,42.349292],[-71.062254,42.349311],[-71.062228,42.34934],[-71.06224,42.349362],[-71.06227,42.349371],[-71.062366,42.349352],[-71.062392,42.349323]]],[[[-71.062039,42.353752],[-71.06202,42.353738],[-71.061955,42.353751],[-71.061945,42.35377],[-71.06197,42.353777],[-71.062039,42.353752]]],[[[-71.062006,42.349306],[-71.061988,42.349293],[-71.061937,42.349303],[-71.061927,42.349321],[-71.061951,42.349328],[-71.062006,42.349306]]],[[[-71.061988,42.35386],[-71.06197,42.353847],[-71.061919,42.353857],[-71.061909,42.353875],[-71.061933,42.353882],[-71.061988,42.35386]]],[[[-71.061951,42.349438],[-71.061933,42.349425],[-71.061882,42.349435],[-71.061872,42.349453],[-71.061896,42.34946],[-71.061951,42.349438]]],[[[-71.061941,42.349548],[-71.061926,42.349523],[-71.061892,42.349512],[-71.061798,42.349531],[-71.061768,42.349564],[-71.061783,42.349589],[-71.061817,42.3496],[-71.061911,42.349581],[-71.061941,42.349548]]],[[[-71.061928,42.34988],[-71.06191,42.349867],[-71.061859,42.349877],[-71.061849,42.349895],[-71.061873,42.349902],[-71.061928,42.34988]]],[[[-71.061924,42.3537],[-71.061905,42.353686],[-71.06184,42.353699],[-71.06183,42.353718],[-71.061855,42.353725],[-71.061924,42.3537]]],[[[-71.061909,42.353825],[-71.06189,42.353811],[-71.061825,42.353824],[-71.061815,42.353843],[-71.06184,42.35385],[-71.061909,42.353825]]],[[[-71.061898,42.349926],[-71.06188,42.349913],[-71.061829,42.349923],[-71.061819,42.349941],[-71.061843,42.349948],[-71.061898,42.349926]]],[[[-71.061892,42.35],[-71.061874,42.349987],[-71.061823,42.349997],[-71.061813,42.350015],[-71.061837,42.350022],[-71.061892,42.35]]],[[[-71.061868,42.350044],[-71.06185,42.350031],[-71.061799,42.350041],[-71.061789,42.350059],[-71.061813,42.350066],[-71.061868,42.350044]]],[[[-71.061851,42.348312],[-71.061838,42.348288],[-71.061806,42.348278],[-71.061705,42.348299],[-71.061677,42.34833],[-71.06169,42.348353],[-71.061722,42.348363],[-71.061823,42.348343],[-71.061851,42.348312]]],[[[-71.061838,42.35008],[-71.06182,42.350067],[-71.061769,42.350077],[-71.061759,42.350095],[-71.061783,42.350102],[-71.061838,42.35008]]],[[[-71.061828,42.353783],[-71.06181,42.35377],[-71.061759,42.35378],[-71.061749,42.353798],[-71.061773,42.353805],[-71.061828,42.353783]]],[[[-71.061825,42.353653],[-71.061806,42.353639],[-71.061741,42.353652],[-71.061731,42.353671],[-71.061756,42.353678],[-71.061825,42.353653]]],[[[-71.061824,42.350155],[-71.061806,42.350142],[-71.061758,42.350151],[-71.061748,42.350169],[-71.061772,42.350176],[-71.061824,42.350155]]],[[[-71.061798,42.3502],[-71.06178,42.350187],[-71.061729,42.350197],[-71.061719,42.350215],[-71.061743,42.350222],[-71.061798,42.3502]]],[[[-71.061789,42.350292],[-71.06175,42.350263],[-71.061658,42.350282],[-71.061637,42.350297],[-71.061644,42.350327],[-71.061595,42.350351],[-71.061595,42.350377],[-71.061636,42.350397],[-71.061737,42.350377],[-71.061762,42.350359],[-71.061752,42.350322],[-71.061789,42.350292]]],[[[-71.06177,42.348421],[-71.061752,42.348408],[-71.061701,42.348418],[-71.061691,42.348436],[-71.061715,42.348443],[-71.06177,42.348421]]],[[[-71.061766,42.349666],[-71.061751,42.349641],[-71.061717,42.34963],[-71.061623,42.349649],[-71.061593,42.349682],[-71.061608,42.349707],[-71.061642,42.349718],[-71.061736,42.349699],[-71.061766,42.349666]]],[[[-71.061759,42.353607],[-71.061744,42.353582],[-71.06171,42.353571],[-71.061616,42.35359],[-71.061586,42.353623],[-71.061601,42.353648],[-71.061635,42.353659],[-71.061729,42.35364],[-71.061759,42.353607]]],[[[-71.061747,42.353738],[-71.061729,42.353725],[-71.061678,42.353735],[-71.061668,42.353753],[-71.061692,42.35376],[-71.061747,42.353738]]],[[[-71.061692,42.348648],[-71.06168,42.348626],[-71.06165,42.348617],[-71.061419,42.348657],[-71.061391,42.348688],[-71.061404,42.348711],[-71.061436,42.348721],[-71.061666,42.348677],[-71.061692,42.348648]]],[[[-71.061645,42.348297],[-71.061629,42.348268],[-71.06159,42.348256],[-71.061476,42.348279],[-71.061442,42.348317],[-71.061458,42.348346],[-71.061497,42.348358],[-71.061611,42.348335],[-71.061645,42.348297]]],[[[-71.061628,42.35355],[-71.06161,42.353537],[-71.061552,42.353548],[-71.061542,42.353566],[-71.061566,42.353573],[-71.061628,42.35355]]],[[[-71.06161,42.348837],[-71.061592,42.348824],[-71.061541,42.348834],[-71.061531,42.348852],[-71.061555,42.348859],[-71.06161,42.348837]]],[[[-71.061608,42.3485],[-71.06159,42.348487],[-71.061539,42.348497],[-71.061529,42.348515],[-71.061553,42.348522],[-71.061608,42.3485]]],[[[-71.061597,42.348184],[-71.061579,42.348171],[-71.061521,42.348182],[-71.061511,42.3482],[-71.061535,42.348207],[-71.061597,42.348184]]],[[[-71.061548,42.349568],[-71.061518,42.349535],[-71.061448,42.349542],[-71.061435,42.349509],[-71.061401,42.349498],[-71.061307,42.349517],[-71.061277,42.34955],[-71.061307,42.349583],[-71.061377,42.349576],[-71.06139,42.349609],[-71.061424,42.34962],[-71.061518,42.349601],[-71.061548,42.349568]]],[[[-71.061502,42.348854],[-71.06149,42.348832],[-71.06146,42.348823],[-71.061364,42.348842],[-71.061338,42.348871],[-71.06135,42.348893],[-71.06138,42.348902],[-71.061476,42.348883],[-71.061502,42.348854]]],[[[-71.061493,42.35095],[-71.06147,42.350933],[-71.061401,42.350947],[-71.061388,42.350969],[-71.061418,42.350978],[-71.061493,42.35095]]],[[[-71.061472,42.34815],[-71.061454,42.348118],[-71.06141,42.348104],[-71.061286,42.348129],[-71.061248,42.348171],[-71.061266,42.348203],[-71.06131,42.348217],[-71.061434,42.348192],[-71.061472,42.34815]]],[[[-71.061452,42.348248],[-71.061443,42.348231],[-71.061408,42.348226],[-71.061327,42.348246],[-71.06132,42.348272],[-71.061362,42.348285],[-71.061432,42.34827],[-71.061452,42.348248]]],[[[-71.061438,42.349255],[-71.06142,42.349242],[-71.061362,42.349253],[-71.061352,42.349271],[-71.061376,42.349278],[-71.061438,42.349255]]],[[[-71.061418,42.351122],[-71.0614,42.351109],[-71.061349,42.351119],[-71.061339,42.351137],[-71.061363,42.351144],[-71.061418,42.351122]]],[[[-71.061399,42.349052],[-71.06138,42.349038],[-71.061315,42.349051],[-71.061305,42.34907],[-71.06133,42.349077],[-71.061399,42.349052]]],[[[-71.061397,42.35118],[-71.061379,42.351167],[-71.061328,42.351177],[-71.061318,42.351195],[-71.061342,42.351202],[-71.061397,42.35118]]],[[[-71.061371,42.35124],[-71.061353,42.351227],[-71.061302,42.351237],[-71.061292,42.351255],[-71.061316,42.351262],[-71.061371,42.35124]]],[[[-71.061368,42.34943],[-71.06135,42.349417],[-71.061299,42.349427],[-71.061289,42.349445],[-71.061313,42.349452],[-71.061368,42.34943]]],[[[-71.061352,42.351289],[-71.061334,42.351276],[-71.061283,42.351286],[-71.061273,42.351304],[-71.061297,42.351311],[-71.061352,42.351289]]],[[[-71.061349,42.349228],[-71.06132,42.349206],[-71.061242,42.349222],[-71.061224,42.349242],[-71.061253,42.349264],[-71.061331,42.349248],[-71.061349,42.349228]]],[[[-71.061282,42.34963],[-71.061264,42.349617],[-71.06121,42.349628],[-71.0612,42.349645],[-71.061224,42.349653],[-71.061282,42.34963]]],[[[-71.061261,42.349678],[-71.061243,42.349665],[-71.061189,42.349676],[-71.061179,42.349693],[-71.061203,42.349701],[-71.061261,42.349678]]],[[[-71.061244,42.35337],[-71.061226,42.353357],[-71.061175,42.353367],[-71.061165,42.353385],[-71.061189,42.353392],[-71.061244,42.35337]]],[[[-71.061238,42.354774],[-71.06122,42.354761],[-71.061169,42.354771],[-71.061159,42.354789],[-71.061183,42.354796],[-71.061238,42.354774]]],[[[-71.061222,42.34983],[-71.06121,42.349808],[-71.06118,42.349799],[-71.061084,42.349818],[-71.061058,42.349847],[-71.06107,42.349869],[-71.0611,42.349878],[-71.061196,42.349859],[-71.061222,42.34983]]],[[[-71.061188,42.354916],[-71.06117,42.354903],[-71.061119,42.354913],[-71.061109,42.354931],[-71.061133,42.354938],[-71.061188,42.354916]]],[[[-71.061188,42.353344],[-71.06117,42.353331],[-71.061119,42.353341],[-71.061109,42.353359],[-71.061133,42.353366],[-71.061188,42.353344]]],[[[-71.061156,42.35003],[-71.061141,42.350003],[-71.061104,42.349992],[-71.060994,42.350014],[-71.060962,42.350049],[-71.060977,42.350076],[-71.061014,42.350088],[-71.061124,42.350065],[-71.061156,42.35003]]],[[[-71.061138,42.35332],[-71.06112,42.353307],[-71.061069,42.353317],[-71.061059,42.353335],[-71.061083,42.353342],[-71.061138,42.35332]]],[[[-71.061048,42.353275],[-71.06103,42.353262],[-71.060972,42.353273],[-71.060962,42.353291],[-71.060986,42.353298],[-71.061048,42.353275]]],[[[-71.061038,42.34849],[-71.06102,42.348477],[-71.060969,42.348487],[-71.060959,42.348505],[-71.060983,42.348512],[-71.061038,42.34849]]],[[[-71.061032,42.348602],[-71.061017,42.348575],[-71.06098,42.348564],[-71.06087,42.348586],[-71.060838,42.348621],[-71.060853,42.348648],[-71.06089,42.34866],[-71.061,42.348637],[-71.061032,42.348602]]],[[[-71.061005,42.348717],[-71.060989,42.348688],[-71.06095,42.348676],[-71.060836,42.348699],[-71.060802,42.348737],[-71.060818,42.348766],[-71.060857,42.348778],[-71.060971,42.348755],[-71.061005,42.348717]]],[[[-71.060988,42.353363],[-71.06097,42.35335],[-71.060919,42.35336],[-71.060909,42.353378],[-71.060933,42.353385],[-71.060988,42.353363]]],[[[-71.060942,42.348827],[-71.06093,42.348805],[-71.0609,42.348796],[-71.060804,42.348815],[-71.060778,42.348844],[-71.06079,42.348866],[-71.06082,42.348875],[-71.060916,42.348856],[-71.060942,42.348827]]],[[[-71.060938,42.35322],[-71.06092,42.353207],[-71.060869,42.353217],[-71.060859,42.353235],[-71.060883,42.353242],[-71.060938,42.35322]]],[[[-71.060923,42.35333],[-71.060905,42.353317],[-71.060851,42.353328],[-71.060841,42.353345],[-71.060865,42.353353],[-71.060923,42.35333]]],[[[-71.060862,42.353302],[-71.060844,42.353289],[-71.060793,42.353299],[-71.060783,42.353317],[-71.060807,42.353324],[-71.060862,42.353302]]],[[[-71.060847,42.349174],[-71.060827,42.349137],[-71.060776,42.349121],[-71.060639,42.349149],[-71.060595,42.349197],[-71.060616,42.349235],[-71.060666,42.34925],[-71.060803,42.349223],[-71.060847,42.349174]]],[[[-71.060733,42.34939],[-71.060718,42.349365],[-71.060684,42.349354],[-71.06059,42.349373],[-71.06056,42.349406],[-71.060575,42.349431],[-71.060609,42.349442],[-71.060703,42.349423],[-71.060733,42.34939]]],[[[-71.060695,42.349506],[-71.06068,42.349481],[-71.060646,42.34947],[-71.060466,42.349501],[-71.060456,42.349518],[-71.060512,42.349519],[-71.060525,42.34955],[-71.060559,42.34956],[-71.060665,42.349539],[-71.060695,42.349506]]],[[[-71.060628,42.34926],[-71.06061,42.349247],[-71.060559,42.349257],[-71.060549,42.349275],[-71.060573,42.349282],[-71.060628,42.34926]]],[[[-71.060609,42.34967],[-71.060594,42.349645],[-71.06056,42.349634],[-71.060483,42.349649],[-71.06047,42.349627],[-71.060409,42.349644],[-71.060419,42.349662],[-71.060447,42.349659],[-71.060428,42.349675],[-71.060428,42.349702],[-71.060473,42.349724],[-71.060579,42.349703],[-71.060609,42.34967]]],[[[-71.060608,42.3493],[-71.06059,42.349287],[-71.060539,42.349297],[-71.060529,42.349315],[-71.060553,42.349322],[-71.060608,42.3493]]],[[[-71.060598,42.35304],[-71.06058,42.353027],[-71.060529,42.353037],[-71.060519,42.353055],[-71.060543,42.353062],[-71.060598,42.35304]]],[[[-71.060588,42.349342],[-71.06057,42.349329],[-71.060519,42.349339],[-71.060509,42.349357],[-71.060533,42.349364],[-71.060588,42.349342]]],[[[-71.060582,42.349792],[-71.060567,42.349765],[-71.06053,42.349754],[-71.06042,42.349776],[-71.060388,42.349811],[-71.060403,42.349838],[-71.06044,42.34985],[-71.06055,42.349827],[-71.060582,42.349792]]],[[[-71.060558,42.349407],[-71.06054,42.349394],[-71.060489,42.349404],[-71.060479,42.349422],[-71.060503,42.349429],[-71.060558,42.349407]]],[[[-71.060548,42.349453],[-71.06053,42.34944],[-71.060476,42.349451],[-71.060466,42.349468],[-71.06049,42.349476],[-71.060548,42.349453]]],[[[-71.060518,42.352997],[-71.0605,42.352984],[-71.060449,42.352994],[-71.060439,42.353012],[-71.060463,42.353019],[-71.060518,42.352997]]],[[[-71.060508,42.353283],[-71.06049,42.35327],[-71.060436,42.353281],[-71.060426,42.353298],[-71.06045,42.353306],[-71.060508,42.353283]]],[[[-71.060504,42.35315],[-71.060486,42.353137],[-71.060435,42.353147],[-71.060425,42.353165],[-71.060449,42.353172],[-71.060504,42.35315]]],[[[-71.060504,42.3496],[-71.060486,42.349587],[-71.060435,42.349597],[-71.060425,42.349615],[-71.060449,42.349622],[-71.060504,42.3496]]],[[[-71.060504,42.349556],[-71.060486,42.349543],[-71.060435,42.349553],[-71.060425,42.349571],[-71.060449,42.349578],[-71.060504,42.349556]]],[[[-71.060468,42.352974],[-71.06045,42.352961],[-71.060396,42.352972],[-71.060386,42.352989],[-71.06041,42.352997],[-71.060468,42.352974]]],[[[-71.060428,42.3531],[-71.06041,42.353087],[-71.060359,42.353097],[-71.060349,42.353115],[-71.060373,42.353122],[-71.060428,42.3531]]],[[[-71.060419,42.353405],[-71.060418,42.35338],[-71.0604,42.353367],[-71.060288,42.353395],[-71.060264,42.353421],[-71.060279,42.353462],[-71.060303,42.353469],[-71.060347,42.353459],[-71.060419,42.353405]]],[[[-71.060388,42.349884],[-71.06037,42.349871],[-71.060316,42.349882],[-71.060306,42.349899],[-71.06033,42.349907],[-71.060388,42.349884]]],[[[-71.060374,42.35307],[-71.060356,42.353057],[-71.060305,42.353067],[-71.060295,42.353085],[-71.060319,42.353092],[-71.060374,42.35307]]],[[[-71.060318,42.350037],[-71.0603,42.350024],[-71.060249,42.350034],[-71.060239,42.350052],[-71.060263,42.350059],[-71.060318,42.350037]]],[[[-71.060314,42.35015],[-71.060286,42.350118],[-71.060297,42.3501],[-71.060273,42.350093],[-71.060156,42.35014],[-71.060141,42.350166],[-71.060156,42.350191],[-71.06019,42.350202],[-71.060284,42.350183],[-71.060314,42.35015]]],[[[-71.060174,42.34947],[-71.060135,42.349441],[-71.060043,42.34946],[-71.060019,42.349486],[-71.060058,42.349515],[-71.06015,42.349497],[-71.060174,42.34947]]],[[[-71.060158,42.352962],[-71.06014,42.352949],[-71.060089,42.352959],[-71.060079,42.352977],[-71.060103,42.352984],[-71.060158,42.352962]]],[[[-71.060119,42.349556],[-71.06009,42.349534],[-71.060012,42.34955],[-71.059994,42.34957],[-71.060023,42.349592],[-71.060101,42.349576],[-71.060119,42.349556]]],[[[-71.060105,42.35341],[-71.060092,42.353386],[-71.06006,42.353376],[-71.059959,42.353397],[-71.059931,42.353428],[-71.059944,42.353451],[-71.059976,42.353461],[-71.060077,42.353441],[-71.060105,42.35341]]],[[[-71.060086,42.349644],[-71.06005,42.349618],[-71.059963,42.349635],[-71.059941,42.34966],[-71.059976,42.349686],[-71.060064,42.349668],[-71.060086,42.349644]]],[[[-71.059972,42.351044],[-71.05996,42.351022],[-71.05993,42.351013],[-71.059834,42.351032],[-71.059808,42.351061],[-71.05982,42.351083],[-71.05985,42.351092],[-71.059946,42.351073],[-71.059972,42.351044]]],[[[-71.059901,42.351135],[-71.059865,42.351117],[-71.059801,42.351131],[-71.059787,42.351156],[-71.059821,42.351166],[-71.059885,42.351153],[-71.059901,42.351135]]],[[[-71.059858,42.3533],[-71.05984,42.353287],[-71.059789,42.353297],[-71.059779,42.353315],[-71.059803,42.353322],[-71.059858,42.3533]]],[[[-71.059822,42.35326],[-71.05981,42.353238],[-71.05978,42.353229],[-71.059684,42.353248],[-71.059658,42.353277],[-71.05967,42.353299],[-71.0597,42.353308],[-71.059796,42.353289],[-71.059822,42.35326]]],[[[-71.059758,42.352753],[-71.05974,42.35274],[-71.059686,42.352751],[-71.059676,42.352768],[-71.0597,42.352776],[-71.059758,42.352753]]],[[[-71.059688,42.352737],[-71.059616,42.352717],[-71.059562,42.352728],[-71.059552,42.352745],[-71.059446,42.352766],[-71.059416,42.352799],[-71.059431,42.352824],[-71.059465,42.352835],[-71.059559,42.352816],[-71.059589,42.352783],[-71.059565,42.352753],[-71.059605,42.352746],[-71.059623,42.352761],[-71.059688,42.352737]]],[[[-71.059669,42.354954],[-71.059651,42.354934],[-71.059611,42.354938],[-71.05962,42.354911],[-71.059562,42.354868],[-71.05945,42.354896],[-71.05945,42.354914],[-71.059497,42.354952],[-71.059553,42.354953],[-71.059544,42.354968],[-71.059562,42.354988],[-71.059651,42.354974],[-71.059669,42.354954]]],[[[-71.059649,42.35171],[-71.059634,42.351685],[-71.0596,42.351674],[-71.05946,42.351709],[-71.05945,42.351728],[-71.059525,42.351762],[-71.059619,42.351743],[-71.059649,42.35171]]],[[[-71.059562,42.3516],[-71.05953,42.351576],[-71.059447,42.351593],[-71.059356,42.351623],[-71.059342,42.351648],[-71.059366,42.35166],[-71.05944,42.351645],[-71.059542,42.351622],[-71.059562,42.3516]]],[[[-71.059518,42.351097],[-71.0595,42.351084],[-71.059449,42.351094],[-71.059439,42.351112],[-71.059463,42.351119],[-71.059518,42.351097]]],[[[-71.059482,42.354813],[-71.059462,42.354791],[-71.059413,42.354796],[-71.05943,42.354765],[-71.059378,42.354709],[-71.059257,42.354739],[-71.059265,42.354767],[-71.059304,42.354773],[-71.059307,42.354806],[-71.059367,42.354806],[-71.05935,42.354837],[-71.059367,42.35485],[-71.059462,42.354835],[-71.059482,42.354813]]],[[[-71.059478,42.35117],[-71.05946,42.351157],[-71.059409,42.351167],[-71.059399,42.351185],[-71.059423,42.351192],[-71.059478,42.35117]]],[[[-71.059428,42.3531],[-71.05941,42.353087],[-71.059359,42.353097],[-71.059349,42.353115],[-71.059373,42.353122],[-71.059428,42.3531]]],[[[-71.059418,42.35301],[-71.0594,42.352997],[-71.059349,42.353007],[-71.059339,42.353025],[-71.059363,42.353032],[-71.059418,42.35301]]],[[[-71.059387,42.351704],[-71.059364,42.351687],[-71.059295,42.351701],[-71.059282,42.351723],[-71.059312,42.351732],[-71.059387,42.351704]]],[[[-71.059323,42.35178],[-71.0593,42.351763],[-71.059231,42.351777],[-71.059218,42.351799],[-71.059248,42.351808],[-71.059323,42.35178]]],[[[-71.059219,42.35129],[-71.059204,42.351265],[-71.05917,42.351254],[-71.059183,42.35123],[-71.059158,42.351229],[-71.059129,42.351197],[-71.059005,42.351215],[-71.058975,42.351248],[-71.059005,42.351282],[-71.059059,42.351278],[-71.059035,42.351308],[-71.059049,42.351334],[-71.059005,42.351375],[-71.059035,42.351409],[-71.059174,42.351382],[-71.059189,42.351357],[-71.059174,42.351332],[-71.059219,42.35129]]],[[[-71.059184,42.353294],[-71.059166,42.353281],[-71.059115,42.353291],[-71.059105,42.353309],[-71.059129,42.353316],[-71.059184,42.353294]]],[[[-71.059098,42.35146],[-71.05908,42.351447],[-71.059029,42.351457],[-71.059019,42.351475],[-71.059043,42.351482],[-71.059098,42.35146]]],[[[-71.059092,42.354385],[-71.059083,42.354368],[-71.059048,42.354363],[-71.058967,42.354383],[-71.05896,42.354409],[-71.059002,42.354422],[-71.059072,42.354407],[-71.059092,42.354385]]],[[[-71.059088,42.353287],[-71.05907,42.353274],[-71.059019,42.353284],[-71.059009,42.353302],[-71.059033,42.353309],[-71.059088,42.353287]]],[[[-71.059066,42.351517],[-71.05903,42.351499],[-71.058966,42.351513],[-71.058952,42.351538],[-71.058986,42.351548],[-71.05905,42.351535],[-71.059066,42.351517]]],[[[-71.059018,42.354332],[-71.059,42.354319],[-71.058949,42.354329],[-71.058939,42.354347],[-71.058963,42.354354],[-71.059018,42.354332]]],[[[-71.059006,42.351604],[-71.05897,42.351578],[-71.058871,42.351601],[-71.058866,42.351666],[-71.058797,42.351688],[-71.058797,42.351722],[-71.058751,42.351735],[-71.058743,42.351764],[-71.058693,42.351786],[-71.058701,42.351814],[-71.058612,42.351841],[-71.058603,42.351872],[-71.058624,42.351888],[-71.058567,42.351904],[-71.058537,42.351943],[-71.058553,42.351959],[-71.058398,42.351988],[-71.058368,42.352047],[-71.058315,42.352079],[-71.058306,42.352112],[-71.058356,42.352125],[-71.058472,42.352098],[-71.058483,42.352064],[-71.058581,42.352013],[-71.058593,42.351957],[-71.058683,42.351923],[-71.05869,42.351897],[-71.058673,42.351884],[-71.058744,42.351865],[-71.058777,42.351831],[-71.058768,42.351814],[-71.058825,42.351799],[-71.058833,42.35177],[-71.058875,42.351757],[-71.058886,42.351738],[-71.058875,42.351719],[-71.05892,42.351699],[-71.058902,42.351668],[-71.058995,42.351623],[-71.059006,42.351604]]],[[[-71.058998,42.353283],[-71.05898,42.35327],[-71.058929,42.35328],[-71.058919,42.353298],[-71.058943,42.353305],[-71.058998,42.353283]]],[[[-71.058959,42.35429],[-71.05894,42.354276],[-71.058875,42.354289],[-71.058865,42.354308],[-71.05889,42.354315],[-71.058959,42.35429]]],[[[-71.058864,42.353268],[-71.058846,42.353255],[-71.058795,42.353265],[-71.058785,42.353283],[-71.058809,42.35329],[-71.058864,42.353268]]],[[[-71.058758,42.353268],[-71.05874,42.353255],[-71.058689,42.353265],[-71.058679,42.353283],[-71.058703,42.35329],[-71.058758,42.353268]]],[[[-71.058568,42.35253],[-71.05849,42.352511],[-71.058439,42.352521],[-71.058429,42.352539],[-71.058488,42.352538],[-71.058506,42.352553],[-71.058568,42.35253]]],[[[-71.058499,42.35248],[-71.05848,42.352466],[-71.058415,42.352479],[-71.058405,42.352498],[-71.05843,42.352505],[-71.058499,42.35248]]],[[[-71.058428,42.352528],[-71.05841,42.352515],[-71.058356,42.352526],[-71.058346,42.352543],[-71.05837,42.352551],[-71.058428,42.352528]]],[[[-71.058388,42.35247],[-71.05837,42.352457],[-71.058319,42.352467],[-71.058309,42.352485],[-71.058333,42.352492],[-71.058388,42.35247]]],[[[-71.058348,42.35252],[-71.05833,42.352507],[-71.058279,42.352517],[-71.058269,42.352535],[-71.058293,42.352542],[-71.058348,42.35252]]],[[[-71.058288,42.35091],[-71.05827,42.350897],[-71.058219,42.350907],[-71.058209,42.350925],[-71.058233,42.350932],[-71.058288,42.35091]]],[[[-71.058278,42.352467],[-71.05826,42.352454],[-71.058209,42.352464],[-71.058199,42.352482],[-71.058223,42.352489],[-71.058278,42.352467]]],[[[-71.058268,42.352512],[-71.05825,42.352499],[-71.058199,42.352509],[-71.058189,42.352527],[-71.058213,42.352534],[-71.058268,42.352512]]],[[[-71.058218,42.350887],[-71.0582,42.350874],[-71.058149,42.350884],[-71.058139,42.350902],[-71.058163,42.350909],[-71.058218,42.350887]]],[[[-71.058038,42.352665],[-71.05802,42.352652],[-71.057969,42.352662],[-71.057959,42.35268],[-71.057983,42.352687],[-71.058038,42.352665]]],[[[-71.058032,42.352768],[-71.058014,42.352755],[-71.057963,42.352765],[-71.057953,42.352783],[-71.057977,42.35279],[-71.058032,42.352768]]],[[[-71.058008,42.352905],[-71.05799,42.352892],[-71.057939,42.352902],[-71.057929,42.35292],[-71.057953,42.352927],[-71.058008,42.352905]]],[[[-71.057803,42.350693],[-71.057785,42.35068],[-71.057754,42.350686],[-71.057747,42.350665],[-71.057679,42.350681],[-71.057689,42.350699],[-71.057727,42.350694],[-71.057734,42.350715],[-71.057803,42.350693]]],[[[-71.05775,42.352226],[-71.057714,42.352208],[-71.05765,42.352222],[-71.057636,42.352247],[-71.05767,42.352257],[-71.057734,42.352244],[-71.05775,42.352226]]],[[[-71.057623,42.35219],[-71.057594,42.352168],[-71.057516,42.352184],[-71.057498,42.352204],[-71.057527,42.352226],[-71.057605,42.35221],[-71.057623,42.35219]]],[[[-71.057536,42.35216],[-71.05751,42.352141],[-71.057449,42.352153],[-71.057448,42.352126],[-71.05743,42.352121],[-71.057342,42.352146],[-71.057356,42.352171],[-71.057428,42.35216],[-71.057428,42.352187],[-71.057446,42.352193],[-71.05752,42.352178],[-71.057536,42.35216]]],[[[-71.057414,42.350403],[-71.057396,42.35039],[-71.057345,42.3504],[-71.057335,42.350418],[-71.057359,42.350425],[-71.057414,42.350403]]],[[[-71.057398,42.350494],[-71.05738,42.350481],[-71.057329,42.350491],[-71.057319,42.350509],[-71.057343,42.350516],[-71.057398,42.350494]]],[[[-71.057369,42.35211],[-71.05734,42.352088],[-71.057262,42.352104],[-71.057244,42.352124],[-71.057273,42.352146],[-71.057351,42.35213],[-71.057369,42.35211]]],[[[-71.057348,42.351707],[-71.05733,42.351694],[-71.057276,42.351705],[-71.057266,42.351722],[-71.05729,42.35173],[-71.057348,42.351707]]],[[[-71.057338,42.35175],[-71.05732,42.351737],[-71.057269,42.351747],[-71.057259,42.351765],[-71.057283,42.351772],[-71.057338,42.35175]]],[[[-71.057309,42.351897],[-71.057291,42.351884],[-71.05724,42.351894],[-71.05723,42.351912],[-71.057254,42.351919],[-71.057309,42.351897]]],[[[-71.057298,42.351955],[-71.05728,42.351942],[-71.057232,42.351951],[-71.057222,42.351969],[-71.057246,42.351976],[-71.057298,42.351955]]],[[[-71.057298,42.350925],[-71.05728,42.350912],[-71.057222,42.350923],[-71.057212,42.350941],[-71.057236,42.350948],[-71.057298,42.350925]]],[[[-71.057268,42.351063],[-71.05725,42.35105],[-71.057192,42.351061],[-71.057182,42.351079],[-71.057206,42.351086],[-71.057268,42.351063]]],[[[-71.057208,42.35141],[-71.05719,42.351397],[-71.057139,42.351407],[-71.057129,42.351425],[-71.057153,42.351432],[-71.057208,42.35141]]],[[[-71.057198,42.35055],[-71.05718,42.350537],[-71.057129,42.350547],[-71.057119,42.350565],[-71.057143,42.350572],[-71.057198,42.35055]]],[[[-71.057147,42.350632],[-71.057129,42.350619],[-71.057078,42.350629],[-71.057068,42.350647],[-71.057092,42.350654],[-71.057147,42.350632]]],[[[-71.057094,42.350533],[-71.057076,42.35052],[-71.057025,42.35053],[-71.057015,42.350548],[-71.057039,42.350555],[-71.057094,42.350533]]],[[[-71.057038,42.34984],[-71.05702,42.349827],[-71.056969,42.349837],[-71.056959,42.349855],[-71.056983,42.349862],[-71.057038,42.34984]]],[[[-71.057022,42.349903],[-71.057013,42.349886],[-71.056978,42.349881],[-71.056897,42.349901],[-71.05689,42.349927],[-71.056932,42.34994],[-71.057002,42.349925],[-71.057022,42.349903]]],[[[-71.056868,42.352028],[-71.05685,42.352015],[-71.056789,42.352027],[-71.056779,42.352045],[-71.056803,42.352052],[-71.056868,42.352028]]],[[[-71.056834,42.35023],[-71.056816,42.350217],[-71.056765,42.350227],[-71.056755,42.350245],[-71.056779,42.350252],[-71.056834,42.35023]]],[[[-71.056829,42.34976],[-71.05679,42.349731],[-71.056698,42.34975],[-71.056674,42.349776],[-71.056713,42.349805],[-71.056805,42.349787],[-71.056829,42.34976]]],[[[-71.056798,42.350307],[-71.05678,42.350294],[-71.056729,42.350304],[-71.056719,42.350322],[-71.056743,42.350329],[-71.056798,42.350307]]],[[[-71.056792,42.34984],[-71.056783,42.349823],[-71.056748,42.349818],[-71.056667,42.349838],[-71.05666,42.349864],[-71.056702,42.349877],[-71.056772,42.349862],[-71.056792,42.34984]]],[[[-71.056774,42.349915],[-71.056759,42.34989],[-71.056725,42.349879],[-71.056631,42.349898],[-71.056601,42.349931],[-71.056616,42.349956],[-71.05665,42.349967],[-71.056744,42.349948],[-71.056774,42.349915]]],[[[-71.056748,42.351994],[-71.05673,42.351981],[-71.056672,42.351992],[-71.056662,42.35201],[-71.056686,42.352017],[-71.056748,42.351994]]],[[[-71.056729,42.350006],[-71.056714,42.349981],[-71.05668,42.34997],[-71.056586,42.349989],[-71.056556,42.350022],[-71.056571,42.350047],[-71.056605,42.350058],[-71.056699,42.350039],[-71.056729,42.350006]]],[[[-71.056659,42.350094],[-71.05663,42.350072],[-71.056552,42.350088],[-71.056534,42.350108],[-71.056563,42.35013],[-71.056641,42.350114],[-71.056659,42.350094]]],[[[-71.056643,42.350613],[-71.056625,42.3506],[-71.056564,42.350612],[-71.056554,42.35063],[-71.056578,42.350637],[-71.056643,42.350613]]],[[[-71.056626,42.353203],[-71.05659,42.353185],[-71.056526,42.353199],[-71.056512,42.353224],[-71.056546,42.353234],[-71.05661,42.353221],[-71.056626,42.353203]]],[[[-71.056622,42.350185],[-71.056613,42.350168],[-71.056578,42.350163],[-71.056497,42.350183],[-71.05649,42.350209],[-71.056532,42.350222],[-71.056602,42.350207],[-71.056622,42.350185]]],[[[-71.056608,42.35068],[-71.05659,42.350667],[-71.056529,42.350679],[-71.056519,42.350697],[-71.056543,42.350704],[-71.056608,42.35068]]],[[[-71.056559,42.353165],[-71.05654,42.353151],[-71.056475,42.353164],[-71.056465,42.353183],[-71.05649,42.35319],[-71.056559,42.353165]]],[[[-71.056559,42.350834],[-71.056544,42.350809],[-71.05651,42.350798],[-71.056416,42.350817],[-71.056386,42.35085],[-71.056401,42.350875],[-71.056435,42.350886],[-71.056529,42.350867],[-71.056559,42.350834]]],[[[-71.056484,42.353127],[-71.056465,42.353113],[-71.0564,42.353126],[-71.05639,42.353145],[-71.056415,42.353152],[-71.056484,42.353127]]],[[[-71.056468,42.35192],[-71.05645,42.351907],[-71.056389,42.351919],[-71.056379,42.351937],[-71.056403,42.351944],[-71.056468,42.35192]]],[[[-71.056428,42.35103],[-71.05641,42.351017],[-71.056359,42.351027],[-71.056349,42.351045],[-71.056373,42.351052],[-71.056428,42.35103]]],[[[-71.056398,42.351097],[-71.05638,42.351084],[-71.056319,42.351096],[-71.056309,42.351114],[-71.056333,42.351121],[-71.056398,42.351097]]],[[[-71.056393,42.35309],[-71.05637,42.353073],[-71.056301,42.353087],[-71.056288,42.353109],[-71.056318,42.353118],[-71.056393,42.35309]]],[[[-71.056388,42.3519],[-71.05637,42.351887],[-71.056322,42.351896],[-71.056312,42.351914],[-71.056336,42.351921],[-71.056388,42.3519]]],[[[-71.056364,42.351176],[-71.056346,42.351163],[-71.056295,42.351173],[-71.056285,42.351191],[-71.056309,42.351198],[-71.056364,42.351176]]],[[[-71.056338,42.35493],[-71.05632,42.354917],[-71.056259,42.354929],[-71.056249,42.354947],[-71.056273,42.354954],[-71.056338,42.35493]]],[[[-71.056328,42.354836],[-71.05631,42.354823],[-71.056249,42.354835],[-71.056239,42.354853],[-71.056263,42.35486],[-71.056328,42.354836]]],[[[-71.056309,42.35475],[-71.05629,42.354736],[-71.056225,42.354749],[-71.056215,42.354768],[-71.05624,42.354775],[-71.056309,42.35475]]],[[[-71.056306,42.35467],[-71.05627,42.354652],[-71.056206,42.354666],[-71.056192,42.354691],[-71.056226,42.354701],[-71.05629,42.354688],[-71.056306,42.35467]]],[[[-71.056258,42.351376],[-71.05624,42.351363],[-71.056186,42.351374],[-71.056176,42.351391],[-71.0562,42.351399],[-71.056258,42.351376]]],[[[-71.056256,42.350842],[-71.056238,42.350829],[-71.056177,42.350841],[-71.056167,42.350859],[-71.056191,42.350866],[-71.056256,42.350842]]],[[[-71.056248,42.35305],[-71.05623,42.353037],[-71.056179,42.353047],[-71.056169,42.353065],[-71.056193,42.353072],[-71.056248,42.35305]]],[[[-71.056239,42.351411],[-71.056221,42.351398],[-71.056167,42.351409],[-71.056157,42.351426],[-71.056181,42.351434],[-71.056239,42.351411]]],[[[-71.056226,42.350933],[-71.056208,42.35092],[-71.056147,42.350932],[-71.056137,42.35095],[-71.056161,42.350957],[-71.056226,42.350933]]],[[[-71.056208,42.35145],[-71.05619,42.351437],[-71.056136,42.351448],[-71.056126,42.351465],[-71.05615,42.351473],[-71.056208,42.35145]]],[[[-71.056186,42.351036],[-71.056168,42.351023],[-71.056107,42.351035],[-71.056097,42.351053],[-71.056121,42.35106],[-71.056186,42.351036]]],[[[-71.056148,42.351145],[-71.05613,42.351132],[-71.056069,42.351144],[-71.056059,42.351162],[-71.056083,42.351169],[-71.056148,42.351145]]],[[[-71.056078,42.35171],[-71.05606,42.351697],[-71.056006,42.351708],[-71.055996,42.351725],[-71.05602,42.351733],[-71.056078,42.35171]]],[[[-71.055977,42.351355],[-71.055959,42.351342],[-71.055898,42.351354],[-71.055888,42.351372],[-71.055912,42.351379],[-71.055977,42.351355]]],[[[-71.055953,42.351412],[-71.055935,42.351399],[-71.055874,42.351411],[-71.055864,42.351429],[-71.055888,42.351436],[-71.055953,42.351412]]],[[[-71.05592,42.351482],[-71.055902,42.351469],[-71.055841,42.351481],[-71.055831,42.351499],[-71.055855,42.351506],[-71.05592,42.351482]]],[[[-71.055888,42.351561],[-71.05587,42.351548],[-71.055809,42.35156],[-71.055799,42.351578],[-71.055823,42.351585],[-71.055888,42.351561]]],[[[-71.055869,42.352226],[-71.055854,42.352201],[-71.05582,42.35219],[-71.055726,42.352209],[-71.0557,42.352228],[-71.0557,42.352256],[-71.055666,42.352278],[-71.055666,42.352306],[-71.055711,42.352328],[-71.055805,42.352309],[-71.055869,42.352226]]],[[[-71.055859,42.351622],[-71.055841,42.351609],[-71.05578,42.351621],[-71.05577,42.351639],[-71.055794,42.351646],[-71.055859,42.351622]]],[[[-71.055808,42.351727],[-71.05579,42.351714],[-71.055729,42.351726],[-71.055719,42.351744],[-71.055743,42.351751],[-71.055808,42.351727]]],[[[-71.055788,42.353336],[-71.055756,42.353312],[-71.055673,42.353329],[-71.055656,42.35336],[-71.055673,42.353373],[-71.055607,42.353393],[-71.055604,42.35342],[-71.055561,42.353429],[-71.055551,42.353448],[-71.055633,42.353443],[-71.055706,42.353414],[-71.055724,42.353394],[-71.055706,42.353374],[-71.055768,42.353358],[-71.055788,42.353336]]],[[[-71.055788,42.351776],[-71.05577,42.351763],[-71.055709,42.351775],[-71.055699,42.351793],[-71.055723,42.3518],[-71.055788,42.351776]]],[[[-71.055558,42.353497],[-71.05554,42.353484],[-71.055479,42.353496],[-71.055416,42.353545],[-71.055487,42.353542],[-71.055558,42.353497]]],[[[-71.055262,42.353653],[-71.055244,42.35364],[-71.055132,42.353666],[-71.055088,42.353719],[-71.055118,42.353728],[-71.055179,42.353716],[-71.055262,42.353653]]]]},"properties":{"kind":"tree"}}]}