{"type":"FeatureCollection","features":[{"type":"Feature","geometry":{"type":"MultiPolygon","coordinates":[[[[-71.06703,42.351826],[-71.067007,42.351692],[-71.066747,42.351106],[-71.065467,42.351257],[-71.064967,42.35123],[-71.064735,42.351259],[-71.064745,42.351218],[-71.064502,42.351183],[-71.064453,42.351189],[-71.063934,42.351133],[-71.063882,42.35114],[-71.063049,42.351044],[-71.062955,42.351056],[-71.06288,42.351257],[-71.062798,42.351275],[-71.062767,42.351379],[-71.062859,42.351039],[-71.062298,42.350942],[-71.062042,42.350974],[-71.062031,42.351007],[-71.061924,42.35098],[-71.062083,42.35096],[-71.062111,42.350892],[-71.062159,42.350898],[-71.062698,42.350831],[-71.062704,42.350898],[-71.062926,42.350931],[-71.063649,42.350841],[-71.06373,42.350874],[-71.06354,42.350898],[-71.063531,42.350957],[-71.063451,42.350969],[-71.06343,42.351011],[-71.063924,42.35107],[-71.064464,42.351003],[-71.064474,42.351021],[-71.06469,42.351087],[-71.065092,42.35111],[-71.065991,42.350995],[-71.065959,42.350666],[-71.065648,42.35066],[-71.065953,42.350615],[-71.06593,42.350327],[-71.065673,42.350348],[-71.065673,42.350367],[-71.065625,42.35037],[-71.065537,42.350337],[-71.06531,42.3503],[-71.065195,42.350314],[-71.065166,42.350415],[-71.065191,42.350424],[-71.06514,42.350599],[-71.065216,42.350611],[-71.065212,42.350643],[-71.06528,42.350653],[-71.064889,42.350692],[-71.064902,42.350642],[-71.064874,42.350631],[-71.0649,42.350628],[-71.064988,42.350297],[-71.065358,42.350289],[-71.065916,42.350219],[-71.065881,42.34989],[-71.065776,42.349769],[-71.065664,42.349783],[-71.065683,42.34969],[-71.065713,42.349729],[-71.065904,42.349705],[-71.066095,42.349646],[-71.066016,42.349506],[-71.066107,42.349483],[-71.066051,42.349385],[-71.065882,42.349418],[-71.065915,42.349479],[-71.06562,42.349445],[-71.065277,42.349491],[-71.065201,42.349843],[-71.065102,42.349869],[-71.065169,42.349617],[-71.064416,42.349501],[-71.064149,42.349534],[-71.063761,42.349475],[-71.063653,42.349372],[-71.063696,42.349342],[-71.063746,42.349213],[-71.063772,42.349073],[-71.063736,42.349067],[-71.063827,42.348879],[-71.063945,42.348463],[-71.063623,42.348413],[-71.063462,42.348433],[-71.063476,42.348381],[-71.062604,42.34825],[-71.062371,42.348279],[-71.062215,42.348673],[-71.063094,42.348807],[-71.063073,42.348882],[-71.063096,42.348969],[-71.063001,42.348975],[-71.063042,42.348892],[-71.062562,42.348758],[-71.062425,42.348727],[-71.062195,42.348756],[-71.062061,42.349086],[-71.062076,42.349093],[-71.062016,42.349187],[-71.062018,42.349203],[-71.062196,42.349289],[-71.061955,42.349319],[-71.061975,42.34927],[-71.061808,42.349235],[-71.061839,42.34916],[-71.061724,42.34914],[-71.061783,42.348996],[-71.061738,42.348986],[-71.061778,42.348981],[-71.061895,42.34873],[-71.061814,42.348712],[-71.061885,42.348535],[-71.062133,42.348592],[-71.062216,42.348582],[-71.06226,42.348505],[-71.062367,42.34823],[-71.062255,42.348206],[-71.062114,42.348224],[-71.062042,42.348404],[-71.061947,42.348382],[-71.062034,42.348165],[-71.061907,42.348129],[-71.061766,42.348147],[-71.061544,42.348697],[-71.061488,42.348705],[-71.061603,42.348412],[-71.061619,42.34841],[-71.06164,42.348359],[-71.061414,42.348308],[-71.061272,42.348326],[-71.06131,42.348233],[-71.061184,42.348198],[-71.061027,42.348218],[-71.061068,42.348118],[-71.061011,42.348097],[-71.060248,42.348192],[-71.059786,42.348834],[-71.060023,42.348891],[-71.060786,42.348796],[-71.060937,42.348433],[-71.0609,42.348535],[-71.060925,42.348541],[-71.060879,42.348634],[-71.060995,42.348664],[-71.061093,42.348652],[-71.061076,42.348693],[-71.061311,42.348747],[-71.061451,42.348729],[-71.061421,42.348807],[-71.061371,42.34877],[-71.061248,42.348743],[-71.060974,42.34878],[-71.060935,42.348844],[-71.060917,42.348911],[-71.060878,42.348902],[-71.060745,42.348919],[-71.060628,42.349259],[-71.061054,42.349436],[-71.060991,42.349607],[-71.06091,42.349617],[-71.060799,42.349894],[-71.061062,42.350002],[-71.060929,42.350085],[-71.060966,42.349994],[-71.060509,42.349891],[-71.060317,42.349915],[-71.060327,42.349891],[-71.060261,42.349801],[-71.060367,42.349747],[-71.060567,42.349259],[-71.060443,42.349109],[-71.060321,42.349063],[-71.059558,42.349158],[-71.059441,42.349421],[-71.059174,42.350114],[-71.059047,42.350086],[-71.058753,42.350132],[-71.058446,42.350891],[-71.058478,42.350927],[-71.0589,42.351021],[-71.059198,42.350975],[-71.059498,42.350233],[-71.059866,42.350187],[-71.059831,42.350275],[-71.060279,42.350401],[-71.060677,42.350352],[-71.060648,42.350423],[-71.061131,42.350538],[-71.061265,42.350521],[-71.061229,42.350614],[-71.061737,42.350744],[-71.06171,42.350779],[-71.061818,42.350809],[-71.061597,42.350765],[-71.061351,42.350796],[-71.061319,42.350876],[-71.061452,42.350905],[-71.061385,42.350913],[-71.061308,42.351155],[-71.061188,42.35117],[-71.061227,42.351071],[-71.060769,42.350979],[-71.060588,42.351002],[-71.060595,42.350984],[-71.060568,42.350978],[-71.060747,42.35054],[-71.060472,42.350463],[-71.060104,42.3505],[-71.059796,42.35119],[-71.060306,42.351299],[-71.060367,42.351292],[-71.060347,42.351341],[-71.060808,42.351444],[-71.060906,42.351432],[-71.060933,42.351462],[-71.061945,42.351404],[-71.061963,42.351449],[-71.062424,42.351547],[-71.062412,42.351596],[-71.062023,42.351525],[-71.061289,42.351543],[-71.061046,42.351573],[-71.061041,42.351545],[-71.060388,42.351402],[-71.060258,42.351418],[-71.060234,42.351369],[-71.059758,42.351262],[-71.059508,42.351293],[-71.059459,42.351422],[-71.05947,42.351486],[-71.059449,42.351489],[-71.059478,42.351666],[-71.059524,42.351662],[-71.059551,42.351811],[-71.059103,42.351883],[-71.059124,42.352025],[-71.05825,42.352134],[-71.05805,42.352205],[-71.057897,42.352305],[-71.057838,42.352379],[-71.057799,42.352472],[-71.058195,42.352542],[-71.056789,42.352715],[-71.056676,42.352778],[-71.056519,42.352798],[-71.056515,42.352834],[-71.056496,42.352836],[-71.056483,42.35296],[-71.056402,42.353011],[-71.056273,42.353027],[-71.056269,42.353054],[-71.056215,42.3531],[-71.055472,42.353192],[-71.055233,42.35332],[-71.055261,42.353425],[-71.055345,42.35346],[-71.055256,42.353509],[-71.055282,42.353535],[-71.055073,42.353561],[-71.054905,42.353653],[-71.05486,42.353702],[-71.054898,42.353742],[-71.054669,42.353869],[-71.054712,42.353912],[-71.053382,42.354078],[-71.05298,42.354287],[-71.052948,42.354325],[-71.052947,42.354365],[-71.053221,42.354653],[-71.053275,42.354661],[-71.053841,42.35459],[-71.053777,42.354628],[-71.053776,42.354666],[-71.053937,42.354814],[-71.054147,42.354798],[-71.054163,42.354813],[-71.054403,42.354783],[-71.054521,42.354896],[-71.054733,42.35487],[-71.054742,42.354919],[-71.053559,42.355066],[-71.053665,42.355644],[-71.054848,42.355509],[-71.054861,42.355582],[-71.054976,42.355587],[-71.056258,42.35544],[-71.056364,42.355412],[-71.056326,42.355201],[-71.057349,42.355074],[-71.057329,42.354923],[-71.05689,42.354747],[-71.056255,42.354807],[-71.056229,42.354666],[-71.056094,42.354605],[-71.055209,42.354717],[-71.055193,42.354698],[-71.055334,42.354674],[-71.055469,42.354617],[-71.056231,42.354504],[-71.056218,42.354459],[-71.056798,42.354388],[-71.056813,42.354373],[-71.056807,42.354338],[-71.057303,42.354276],[-71.057357,42.354294],[-71.05749,42.354281],[-71.057274,42.354615],[-71.057663,42.354734],[-71.057878,42.354707],[-71.057819,42.354765],[-71.057623,42.35479],[-71.057566,42.354845],[-71.057618,42.35495],[-71.057574,42.354994],[-71.057571,42.355017],[-71.057662,42.355036],[-71.057675,42.355062],[-71.057802,42.355077],[-71.058166,42.355031],[-71.057909,42.355285],[-71.057983,42.35534],[-71.058275,42.355459],[-71.058916,42.355379],[-71.058966,42.355401],[-71.059228,42.355368],[-71.059579,42.355043],[-71.059746,42.355168],[-71.059791,42.355162],[-71.059848,42.355207],[-71.060023,42.355185],[-71.060334,42.355407],[-71.060491,42.355389],[-71.060784,42.355122],[-71.06108,42.35527],[-71.061373,42.355233],[-71.061545,42.355046],[-71.061385,42.354961],[-71.061418,42.354957],[-71.061802,42.355166],[-71.061957,42.355235],[-71.062184,42.355207],[-71.062237,42.35515],[-71.062255,42.35516],[-71.06238,42.355144],[-71.062481,42.355201],[-71.06269,42.355175],[-71.062843,42.355256],[-71.063118,42.355222],[-71.063177,42.355145],[-71.06304,42.355074],[-71.063255,42.355044],[-71.063852,42.353943],[-71.063862,42.353896],[-71.063725,42.353854],[-71.063892,42.353833],[-71.063985,42.353676],[-71.063998,42.353634],[-71.063768,42.353564],[-71.063633,42.353581],[-71.063664,42.353522],[-71.063877,42.353576],[-71.064052,42.353554],[-71.064097,42.353425],[-71.063837,42.353375],[-71.063698,42.353392],[-71.063651,42.353352],[-71.063204,42.353334],[-71.062361,42.353436],[-71.062413,42.353293],[-71.062414,42.353216],[-71.063836,42.353335],[-71.064146,42.353296],[-71.064309,42.35284],[-71.064156,42.352831],[-71.064309,42.352812],[-71.064353,42.352644],[-71.064373,42.352435],[-71.064339,42.352409],[-71.063363,42.352382],[-71.062425,42.352491],[-71.061487,42.352561],[-71.060987,42.352618],[-71.060985,42.352601],[-71.060094,42.352655],[-71.060015,42.352895],[-71.060435,42.353102],[-71.060364,42.353181],[-71.060565,42.353288],[-71.059851,42.353377],[-71.059769,42.353463],[-71.059597,42.353398],[-71.059432,42.35339],[-71.059214,42.353417],[-71.059207,42.353385],[-71.059185,42.353377],[-71.058861,42.353373],[-71.058601,42.353346],[-71.058016,42.353373],[-71.057757,42.353405],[-71.057721,42.353422],[-71.057709,42.353453],[-71.057518,42.353477],[-71.057509,42.353506],[-71.057295,42.353434],[-71.056967,42.353475],[-71.056948,42.353395],[-71.056473,42.353454],[-71.05666,42.353366],[-71.056656,42.353349],[-71.057601,42.353231],[-71.057594,42.353275],[-71.057637,42.353307],[-71.058812,42.353316],[-71.05925,42.35327],[-71.059329,42.353238],[-71.059525,42.353336],[-71.059895,42.35329],[-71.059932,42.353306],[-71.06021,42.353271],[-71.060325,42.353148],[-71.060198,42.353083],[-71.060156,42.353018],[-71.059657,42.352762],[-71.059347,42.352798],[-71.059318,42.352574],[-71.058902,42.352524],[-71.058521,42.352533],[-71.059194,42.35245],[-71.059201,42.352496],[-71.059471,42.352513],[-71.059748,42.352478],[-71.059715,42.35226],[-71.059695,42.352262],[-71.059677,42.352142],[-71.060033,42.352102],[-71.060017,42.352005],[-71.060095,42.351997],[-71.060107,42.35203],[-71.060312,42.352002],[-71.060318,42.352022],[-71.060086,42.352053],[-71.060127,42.352182],[-71.059961,42.352211],[-71.05996,42.352241],[-71.05976,42.352266],[-71.059803,42.35255],[-71.060241,42.352544],[-71.060244,42.352555],[-71.061084,42.352464],[-71.061117,42.352277],[-71.061953,42.352187],[-71.061935,42.352219],[-71.061892,42.352224],[-71.061887,42.352201],[-71.061804,42.352207],[-71.061581,42.352235],[-71.0615,42.352259],[-71.061511,42.352311],[-71.061414,42.352323],[-71.061354,42.352363],[-71.061367,42.352442],[-71.061535,42.352426],[-71.061538,42.352438],[-71.061949,42.352392],[-71.061951,42.352404],[-71.062106,42.352392],[-71.062481,42.35235],[-71.062499,42.352341],[-71.062538,42.352214],[-71.063164,42.352282],[-71.0633,42.352265],[-71.063323,42.352286],[-71.063709,42.352297],[-71.06371,42.352333],[-71.063987,42.352341],[-71.064249,42.352308],[-71.064233,42.352371],[-71.064653,42.352401],[-71.065036,42.352421],[-71.065216,42.352398],[-71.065244,42.3524],[-71.065241,42.352423],[-71.065438,42.352438],[-71.065672,42.352409],[-71.065674,42.352424],[-71.06577,42.352429],[-71.066063,42.352392],[-71.066079,42.352189],[-71.06627,42.352169],[-71.066293,42.351912],[-71.066419,42.351924],[-71.066847,42.351871],[-71.06703,42.351826]],[[-71.065989,42.351872],[-71.065926,42.35188],[-71.065928,42.351863],[-71.065989,42.351872]],[[-71.065554,42.350658],[-71.065396,42.350655],[-71.065473,42.350646],[-71.065554,42.350658]],[[-71.064809,42.35171],[-71.064588,42.351739],[-71.064347,42.35171],[-71.06456,42.351684],[-71.064809,42.35171]],[[-71.064594,42.351507],[-71.064585,42.351544],[-71.064318,42.351514],[-71.064338,42.351498],[-71.064503,42.351518],[-71.064594,42.351507]],[[-71.06418,42.351718],[-71.063883,42.351755],[-71.063898,42.351685],[-71.06418,42.351718]],[[-71.063877,42.350239],[-71.063779,42.350397],[-71.063539,42.350364],[-71.063081,42.350421],[-71.063128,42.350252],[-71.063115,42.350207],[-71.063279,42.350187],[-71.063378,42.349987],[-71.063642,42.350268],[-71.063877,42.350239]],[[-71.063722,42.351801],[-71.063586,42.351829],[-71.063594,42.351786],[-71.063722,42.351801]],[[-71.063179,42.353872],[-71.063045,42.353888],[-71.063057,42.353836],[-71.063179,42.353872]],[[-71.06297,42.353979],[-71.062953,42.354007],[-71.062819,42.353998],[-71.06297,42.353979]],[[-71.062526,42.349397],[-71.062508,42.349425],[-71.062526,42.349433],[-71.062287,42.349326],[-71.062258,42.349297],[-71.062451,42.349273],[-71.0624,42.349339],[-71.062526,42.349397]],[[-71.062341,42.353162],[-71.06193,42.35318],[-71.062339,42.353129],[-71.062341,42.353162]],[[-71.062222,42.354727],[-71.062207,42.354754],[-71.062128,42.354764],[-71.06218,42.354706],[-71.062222,42.354727]],[[-71.062179,42.349873],[-71.062152,42.349886],[-71.061982,42.349848],[-71.062088,42.349835],[-71.062179,42.349873]],[[-71.062168,42.353764],[-71.061865,42.354113],[-71.061927,42.354125],[-71.061812,42.35414],[-71.062033,42.353919],[-71.061807,42.353809],[-71.062168,42.353764]],[[-71.06186,42.349859],[-71.061732,42.349874],[-71.061756,42.349815],[-71.06186,42.349859]],[[-71.061772,42.349667],[-71.061739,42.349746],[-71.061601,42.349688],[-71.061772,42.349667]],[[-71.061601,42.350239],[-71.061572,42.35029],[-71.061594,42.350237],[-71.061601,42.350239]],[[-71.061558,42.350395],[-71.061525,42.3504],[-71.061531,42.350387],[-71.061558,42.350395]],[[-71.06155,42.353203],[-71.061343,42.353229],[-71.06136,42.353145],[-71.06155,42.353203]],[[-71.061493,42.354459],[-71.061316,42.354615],[-71.061485,42.354455],[-71.061493,42.354459]],[[-71.061402,42.348974],[-71.061379,42.348998],[-71.061286,42.348983],[-71.061402,42.348974]],[[-71.061377,42.349058],[-71.06136,42.349065],[-71.061368,42.349045],[-71.061377,42.349058]],[[-71.061335,42.349147],[-71.061331,42.349149],[-71.061332,42.349146],[-71.061335,42.349147]],[[-71.061284,42.348505],[-71.061261,42.348563],[-71.061154,42.348582],[-71.06123,42.348427],[-71.061284,42.348505]],[[-71.06107,42.354916],[-71.060995,42.354925],[-71.061028,42.354894],[-71.06107,42.354916]],[[-71.061062,42.349128],[-71.061011,42.34914],[-71.060989,42.349196],[-71.060913,42.349214],[-71.060865,42.349194],[-71.060911,42.349142],[-71.060995,42.349132],[-71.061001,42.349115],[-71.061062,42.349128]],[[-71.061011,42.34924],[-71.06101,42.349241],[-71.061011,42.34924],[-71.061011,42.34924]],[[-71.061003,42.348994],[-71.060987,42.349034],[-71.060967,42.349038],[-71.060952,42.349074],[-71.060941,42.349067],[-71.060969,42.348998],[-71.061003,42.348994]],[[-71.061002,42.349264],[-71.061001,42.349266],[-71.061001,42.349266],[-71.061002,42.349264]],[[-71.060967,42.348372],[-71.060962,42.348373],[-71.060963,42.348371],[-71.060967,42.348372]],[[-71.060443,42.351723],[-71.060368,42.351734],[-71.060335,42.351642],[-71.06041,42.351658],[-71.060443,42.351723]],[[-71.060101,42.351852],[-71.059995,42.351868],[-71.059955,42.351619],[-71.060024,42.351603],[-71.060101,42.351852]],[[-71.060022,42.351484],[-71.060022,42.351495],[-71.059936,42.351504],[-71.059934,42.351495],[-71.060022,42.351484]],[[-71.059819,42.354014],[-71.059776,42.354057],[-71.059689,42.354068],[-71.059738,42.354024],[-71.059819,42.354014]],[[-71.059617,42.354124],[-71.059592,42.354144],[-71.059611,42.354125],[-71.059617,42.354124]],[[-71.059333,42.35432],[-71.059033,42.35459],[-71.058922,42.354609],[-71.058849,42.354675],[-71.058612,42.354773],[-71.058718,42.354674],[-71.058709,42.354669],[-71.058969,42.354454],[-71.058862,42.354373],[-71.059333,42.35432]],[[-71.058979,42.353926],[-71.058971,42.353935],[-71.058895,42.353885],[-71.058692,42.35391],[-71.05879,42.353818],[-71.058979,42.353926]],[[-71.058511,42.354217],[-71.058493,42.354234],[-71.058406,42.354245],[-71.058423,42.354228],[-71.058511,42.354217]],[[-71.058324,42.354005],[-71.058051,42.353834],[-71.05806,42.353833],[-71.058324,42.354005]],[[-71.058258,42.354376],[-71.058242,42.35439],[-71.058225,42.35438],[-71.058258,42.354376]],[[-71.058176,42.354475],[-71.05817,42.354476],[-71.058173,42.354473],[-71.058176,42.354475]],[[-71.05794,42.353844],[-71.05777,42.353865],[-71.057808,42.353803],[-71.05794,42.353844]],[[-71.056331,42.353495],[-71.056155,42.353576],[-71.056051,42.353597],[-71.056019,42.353534],[-71.056331,42.353495]],[[-71.055616,42.353829],[-71.055349,42.353959],[-71.055478,42.353872],[-71.055567,42.353835],[-71.05556,42.353827],[-71.055614,42.353817],[-71.055616,42.353829]],[[-71.055297,42.354019],[-71.055251,42.354025],[-71.055292,42.353997],[-71.055297,42.354019]]],[[[-71.066483,42.348529],[-71.06591,42.348462],[-71.065995,42.348064],[-71.065837,42.348044],[-71.065466,42.34809],[-71.065402,42.348018],[-71.06552,42.347941],[-71.065529,42.347903],[-71.065483,42.347819],[-71.065392,42.347805],[-71.065371,42.347781],[-71.065289,42.347784],[-71.065318,42.347764],[-71.065319,42.347677],[-71.065257,42.347643],[-71.064894,42.347587],[-71.06473,42.347607],[-71.064339,42.347803],[-71.064225,42.348065],[-71.064176,42.34824],[-71.064191,42.348243],[-71.06399,42.34833],[-71.063959,42.348355],[-71.063933,42.348449],[-71.064298,42.348505],[-71.064806,42.348442],[-71.064844,42.348384],[-71.064859,42.348325],[-71.064914,42.348324],[-71.06505,42.34848],[-71.065347,42.348431],[-71.065334,42.348496],[-71.065401,42.348505],[-71.065371,42.348509],[-71.065356,42.348578],[-71.065452,42.348589],[-71.065577,42.348573],[-71.065592,42.348627],[-71.06613,42.34869],[-71.066458,42.348649],[-71.066483,42.348529]],[[-71.065384,42.348258],[-71.065366,42.348321],[-71.065343,42.348295],[-71.065384,42.348258]],[[-71.064658,42.348178],[-71.064423,42.348207],[-71.064539,42.348189],[-71.064593,42.348163],[-71.064658,42.348178]]],[[[-71.065565,42.354342],[-71.065545,42.354311],[-71.065508,42.354299],[-71.065383,42.354314],[-71.065354,42.354327],[-71.065339,42.354355],[-71.065364,42.354394],[-71.06541,42.354403],[-71.06554,42.354382],[-71.065565,42.354342]]],[[[-71.065421,42.352871],[-71.065303,42.352844],[-71.065245,42.352851],[-71.065228,42.352898],[-71.065254,42.352979],[-71.06532,42.352993],[-71.065378,42.352986],[-71.065421,42.352871]]],[[[-71.06533,42.348887],[-71.065323,42.348802],[-71.065279,42.348688],[-71.064844,42.348594],[-71.064341,42.348545],[-71.064264,42.348555],[-71.064259,42.34857],[-71.064182,42.348594],[-71.064034,42.349008],[-71.064184,42.349031],[-71.06416,42.349088],[-71.064184,42.349116],[-71.06409,42.349161],[-71.064339,42.34933],[-71.064653,42.349291],[-71.064782,42.349225],[-71.06492,42.349208],[-71.065178,42.349087],[-71.065279,42.349075],[-71.06533,42.348887]]],[[[-71.064727,42.352541],[-71.064619,42.352536],[-71.064584,42.352642],[-71.064692,42.352647],[-71.064727,42.352541]]],[[[-71.06461,42.353278],[-71.064499,42.353271],[-71.064465,42.353371],[-71.064576,42.35338],[-71.06461,42.353278]]],[[[-71.064113,42.347947],[-71.063968,42.347919],[-71.06363,42.347961],[-71.063565,42.348013],[-71.063606,42.347866],[-71.06346,42.347843],[-71.063348,42.347857],[-71.063279,42.348111],[-71.06325,42.348115],[-71.063238,42.348159],[-71.063187,42.348141],[-71.06308,42.348154],[-71.062886,42.348123],[-71.062776,42.348135],[-71.062667,42.348107],[-71.062518,42.348126],[-71.062491,42.348194],[-71.062612,42.348211],[-71.062729,42.348196],[-71.062723,42.348223],[-71.063119,42.348277],[-71.063229,42.348263],[-71.063243,42.348214],[-71.063879,42.348309],[-71.06402,42.348291],[-71.064113,42.347947]]],[[[-71.063935,42.354829],[-71.063828,42.354816],[-71.063805,42.354865],[-71.063912,42.354877],[-71.063935,42.354829]]],[[[-71.063301,42.347999],[-71.062961,42.347921],[-71.062855,42.347934],[-71.062844,42.34796],[-71.062735,42.347939],[-71.0626,42.347956],[-71.062557,42.348068],[-71.062739,42.348111],[-71.062871,42.348095],[-71.062886,42.348057],[-71.062862,42.34804],[-71.062894,42.348036],[-71.062961,42.348042],[-71.062951,42.348097],[-71.062998,42.348106],[-71.063098,42.348094],[-71.063115,42.348074],[-71.063179,42.348089],[-71.06328,42.348076],[-71.063301,42.347999]]],[[[-71.062446,42.347953],[-71.061926,42.347827],[-71.061782,42.347845],[-71.061866,42.34764],[-71.061712,42.347604],[-71.061224,42.347665],[-71.061078,42.348015],[-71.061067,42.348107],[-71.061186,42.348135],[-71.061674,42.348074],[-71.061694,42.348039],[-71.061892,42.348084],[-71.062017,42.348091],[-71.062411,42.348042],[-71.062446,42.347953]]],[[[-71.06136,42.350735],[-71.061295,42.350688],[-71.060899,42.350587],[-71.060746,42.350606],[-71.060686,42.350793],[-71.060902,42.350841],[-71.061044,42.350825],[-71.061038,42.350841],[-71.061158,42.350869],[-71.061321,42.350852],[-71.06136,42.350735]]],[[[-71.060116,42.350367],[-71.059867,42.350296],[-71.05967,42.350321],[-71.059597,42.350524],[-71.059639,42.350533],[-71.059614,42.350606],[-71.059702,42.350624],[-71.059693,42.350646],[-71.059923,42.350696],[-71.060019,42.350684],[-71.06004,42.35063],[-71.060021,42.350626],[-71.060116,42.350367]]],[[[-71.059318,42.349726],[-71.059225,42.349697],[-71.059118,42.349701],[-71.059044,42.349874],[-71.059183,42.349907],[-71.059244,42.349899],[-71.059318,42.349726]]],[[[-71.059038,42.351101],[-71.058633,42.351011],[-71.058432,42.351036],[-71.058161,42.351714],[-71.058357,42.351757],[-71.058558,42.351732],[-71.058746,42.351554],[-71.05886,42.351417],[-71.05899,42.351213],[-71.059038,42.351101]]],[[[-71.058776,42.350034],[-71.058372,42.349945],[-71.05828,42.349956],[-71.058289,42.349924],[-71.057874,42.34983],[-71.057611,42.349863],[-71.057467,42.349937],[-71.057505,42.349748],[-71.057133,42.349667],[-71.056687,42.349723],[-71.056586,42.349954],[-71.056729,42.34999],[-71.056673,42.35012],[-71.056555,42.350151],[-71.056512,42.350185],[-71.056439,42.350328],[-71.056409,42.350332],[-71.056635,42.349782],[-71.056775,42.349199],[-71.056596,42.349149],[-71.056379,42.349176],[-71.05545,42.349442],[-71.056683,42.347603],[-71.056673,42.347544],[-71.055908,42.347262],[-71.055701,42.347288],[-71.054421,42.349192],[-71.054308,42.349324],[-71.054301,42.349428],[-71.054096,42.349454],[-71.053125,42.350897],[-71.053706,42.351112],[-71.053965,42.35108],[-71.054244,42.351183],[-71.054337,42.351171],[-71.054815,42.350459],[-71.054874,42.350455],[-71.05515,42.350666],[-71.055335,42.350727],[-71.055937,42.350716],[-71.056238,42.350673],[-71.056332,42.350485],[-71.056396,42.350504],[-71.056602,42.35048],[-71.057025,42.350584],[-71.057219,42.350562],[-71.0572,42.350655],[-71.05735,42.350691],[-71.057444,42.350679],[-71.057812,42.350769],[-71.057946,42.350753],[-71.05794,42.350776],[-71.058046,42.350802],[-71.058126,42.350792],[-71.058337,42.350845],[-71.058459,42.35083],[-71.058581,42.350557],[-71.058587,42.350541],[-71.058574,42.350538],[-71.058706,42.35021],[-71.058767,42.350099],[-71.058776,42.350034]],[[-71.058168,42.350236],[-71.058149,42.350301],[-71.057837,42.350252],[-71.057944,42.350264],[-71.058168,42.350236]]],[[[-71.058424,42.349376],[-71.057926,42.349266],[-71.057819,42.349279],[-71.05778,42.349376],[-71.057619,42.349396],[-71.05757,42.349518],[-71.057275,42.349555],[-71.057251,42.349592],[-71.057272,42.349612],[-71.057312,42.349613],[-71.057323,42.349643],[-71.057348,42.349652],[-71.057525,42.349631],[-71.058001,42.349733],[-71.058297,42.349696],[-71.058424,42.349376]]],[[[-71.058414,42.350953],[-71.058104,42.350876],[-71.058049,42.350883],[-71.058052,42.350873],[-71.057558,42.350757],[-71.057301,42.350789],[-71.05732,42.350691],[-71.05694,42.350597],[-71.056581,42.350636],[-71.056443,42.350668],[-71.056424,42.350675],[-71.056306,42.35092],[-71.056462,42.350958],[-71.056265,42.350983],[-71.056123,42.351284],[-71.056253,42.351336],[-71.055849,42.351386],[-71.055736,42.351611],[-71.055498,42.351545],[-71.055164,42.351587],[-71.054145,42.351821],[-71.053973,42.351996],[-71.054495,42.352271],[-71.054117,42.352318],[-71.053828,42.352423],[-71.053751,42.352587],[-71.054345,42.352736],[-71.055493,42.352593],[-71.055538,42.352683],[-71.055667,42.352717],[-71.056276,42.352641],[-71.056859,42.352484],[-71.05694,42.352364],[-71.057,42.352232],[-71.056202,42.352031],[-71.055593,42.352107],[-71.055484,42.352147],[-71.055549,42.352069],[-71.055667,42.351829],[-71.055939,42.3519],[-71.055921,42.351948],[-71.056496,42.352098],[-71.05693,42.352043],[-71.056923,42.352079],[-71.057575,42.352284],[-71.057943,42.352241],[-71.058115,42.351737],[-71.058103,42.35172],[-71.057885,42.351686],[-71.057835,42.351692],[-71.058131,42.351651],[-71.058414,42.350953]],[[-71.057769,42.35113],[-71.057766,42.351143],[-71.057731,42.351135],[-71.057769,42.35113]],[[-71.05772,42.351305],[-71.057717,42.351317],[-71.057677,42.351311],[-71.05772,42.351305]],[[-71.05763,42.351625],[-71.057623,42.35165],[-71.057355,42.351608],[-71.057054,42.351646],[-71.05687,42.351564],[-71.057107,42.351534],[-71.0571,42.351568],[-71.057548,42.351636],[-71.05763,42.351625]],[[-71.056611,42.351411],[-71.056597,42.351443],[-71.056544,42.351419],[-71.056611,42.351411]]],[[[-71.058071,42.348706],[-71.057613,42.348605],[-71.057062,42.348674],[-71.056978,42.348883],[-71.057437,42.348984],[-71.057988,42.348915],[-71.058071,42.348706]]]]},"properties":{"kind":"building"}},{"type":"Feature","geometry":{"type":"MultiPolygon","coordinates":[[[[-71.066058,42.353451],[-71.066047,42.35341],[-71.066015,42.353375],[-71.065912,42.353343],[-71.065647,42.353377],[-71.065599,42.353401],[-71.065565,42.353446],[-71.065504,42.353408],[-71.065373,42.353409],[-71.065348,42.353389],[-71.0654,42.353344],[-71.065411,42.353303],[-71.065519,42.35328],[-71.065568,42.353249],[-71.065593,42.353289],[-71.065659,42.353309],[-71.06586,42.353283],[-71.065891,42.353268],[-71.065918,42.353219],[-71.065911,42.353192],[-71.06586,42.353155],[-71.065883,42.353129],[-71.065981,42.353102],[-71.066007,42.353073],[-71.066016,42.353039],[-71.065995,42.352992],[-71.066039,42.352955],[-71.066048,42.352923],[-71.066021,42.352832],[-71.065942,42.352773],[-71.065886,42.352765],[-71.065773,42.352779],[-71.06575,42.352742],[-71.065693,42.352724],[-71.065513,42.352747],[-71.06547,42.35278],[-71.065324,42.352819],[-71.065296,42.35287],[-71.065303,42.352898],[-71.065356,42.352937],[-71.065315,42.352969],[-71.065314,42.353013],[-71.06524,42.353001],[-71.06506,42.353032],[-71.06504,42.353067],[-71.06506,42.353103],[-71.065108,42.353118],[-71.065227,42.353103],[-71.065269,42.35315],[-71.065214,42.35317],[-71.06519,42.353197],[-71.06512,42.353213],[-71.065106,42.353197],[-71.065197,42.35318],[-71.06521,42.353156],[-71.065197,42.353132],[-71.065165,42.353122],[-71.065044,42.353138],[-71.065019,42.353156],[-71.064903,42.353176],[-71.064939,42.353107],[-71.064928,42.353066],[-71.064865,42.353015],[-71.06483,42.352952],[-71.064791,42.352933],[-71.064745,42.352926],[-71.064502,42.352958],[-71.064437,42.353006],[-71.064428,42.35304],[-71.064451,42.353089],[-71.064437,42.353133],[-71.064449,42.353174],[-71.064528,42.353233],[-71.064631,42.353245],[-71.064432,42.353271],[-71.064372,42.353315],[-71.064363,42.353346],[-71.064396,42.353404],[-71.064474,42.353428],[-71.064701,42.353398],[-71.064744,42.353373],[-71.064912,42.353338],[-71.064952,42.353405],[-71.064759,42.353458],[-71.064738,42.353495],[-71.064759,42.353532],[-71.06481,42.353548],[-71.06486,42.353541],[-71.064919,42.353582],[-71.064967,42.353589],[-71.065103,42.353572],[-71.065135,42.35361],[-71.065238,42.353642],[-71.065504,42.353608],[-71.065551,42.353584],[-71.065586,42.353539],[-71.065647,42.353577],[-71.065702,42.353585],[-71.065968,42.353551],[-71.066015,42.353527],[-71.066047,42.353492],[-71.066058,42.353451]],[[-71.064725,42.353256],[-71.064724,42.353259],[-71.06472,42.353257],[-71.064725,42.353256]]],[[[-71.066046,42.354972],[-71.066026,42.354936],[-71.065978,42.354922],[-71.06582,42.354942],[-71.065778,42.354988],[-71.065798,42.355024],[-71.065846,42.355039],[-71.066004,42.355019],[-71.066046,42.354972]]],[[[-71.066022,42.352597],[-71.065976,42.352546],[-71.065748,42.352542],[-71.065688,42.352518],[-71.065519,42.35254],[-71.065479,42.352569],[-71.065477,42.352605],[-71.065459,42.352607],[-71.065457,42.352558],[-71.065401,42.352516],[-71.065184,42.352532],[-71.065111,42.352555],[-71.065049,42.352515],[-71.065012,42.352509],[-71.064806,42.352536],[-71.064753,42.352575],[-71.064746,42.352602],[-71.064774,42.352653],[-71.064843,42.352674],[-71.065081,42.352632],[-71.065144,42.35268],[-71.065326,42.352668],[-71.065329,42.352706],[-71.065349,42.352728],[-71.065413,42.352747],[-71.065609,42.352722],[-71.065638,42.352708],[-71.065665,42.352661],[-71.065752,42.352652],[-71.065807,42.35267],[-71.065976,42.352648],[-71.066022,42.352597]]],[[[-71.06602,42.354061],[-71.065981,42.354032],[-71.065763,42.354061],[-71.065733,42.354094],[-71.065747,42.35412],[-71.065781,42.35413],[-71.065908,42.354114],[-71.065933,42.354096],[-71.065996,42.354088],[-71.06602,42.354061]]],[[[-71.06597,42.354146],[-71.065947,42.354129],[-71.065872,42.354139],[-71.065849,42.354155],[-71.065872,42.354172],[-71.065947,42.354163],[-71.06597,42.354146]]],[[[-71.065865,42.354468],[-71.065827,42.3544],[-71.065735,42.354372],[-71.065476,42.354405],[-71.065405,42.354457],[-71.065396,42.354494],[-71.065434,42.354562],[-71.065525,42.35459],[-71.065785,42.354557],[-71.065827,42.354536],[-71.065865,42.354468]]],[[[-71.06583,42.348038],[-71.065811,42.348004],[-71.065765,42.34799],[-71.065612,42.34801],[-71.065572,42.348054],[-71.065591,42.348088],[-71.065637,42.348102],[-71.06579,42.348082],[-71.06583,42.348038]]],[[[-71.06579,42.34818],[-71.065774,42.348151],[-71.065735,42.348139],[-71.065598,42.348157],[-71.065564,42.348194],[-71.06558,42.348223],[-71.065619,42.348235],[-71.065756,42.348218],[-71.06579,42.34818]]],[[[-71.065764,42.353939],[-71.065749,42.353914],[-71.065715,42.353903],[-71.065589,42.353919],[-71.065562,42.353939],[-71.065562,42.353966],[-71.065511,42.35399],[-71.065511,42.354017],[-71.065556,42.354039],[-71.065683,42.354023],[-71.065709,42.354004],[-71.065709,42.353976],[-71.065749,42.353964],[-71.065764,42.353939]]],[[[-71.065738,42.348446],[-71.065721,42.348415],[-71.06568,42.348403],[-71.065538,42.348421],[-71.065502,42.348461],[-71.065519,42.348491],[-71.06556,42.348504],[-71.065702,42.348486],[-71.065738,42.348446]]],[[[-71.065728,42.348293],[-71.06571,42.34828],[-71.065637,42.3483],[-71.065655,42.348313],[-71.065728,42.348293]]],[[[-71.065683,42.354843],[-71.065647,42.354779],[-71.06556,42.354752],[-71.065485,42.354761],[-71.065481,42.354739],[-71.065444,42.354711],[-71.065346,42.354717],[-71.065345,42.354674],[-71.065327,42.354655],[-71.065232,42.354615],[-71.065082,42.354625],[-71.065103,42.354592],[-71.065065,42.35455],[-71.064893,42.354565],[-71.064857,42.3546],[-71.06471,42.354619],[-71.06466,42.354655],[-71.064653,42.354681],[-71.06468,42.354729],[-71.06471,42.354743],[-71.064936,42.354724],[-71.064907,42.354757],[-71.064773,42.354781],[-71.064761,42.354825],[-71.064791,42.354847],[-71.064982,42.354827],[-71.065022,42.35486],[-71.065097,42.354858],[-71.06514,42.354899],[-71.065242,42.354894],[-71.065271,42.354933],[-71.065311,42.354952],[-71.065359,42.354959],[-71.065607,42.354927],[-71.065647,42.354907],[-71.065683,42.354843]],[[-71.06501,42.354641],[-71.064994,42.354655],[-71.064991,42.354644],[-71.06501,42.354641]],[[-71.064988,42.354711],[-71.064956,42.354715],[-71.064982,42.354694],[-71.064988,42.354711]]],[[[-71.065625,42.353756],[-71.065608,42.353725],[-71.065567,42.353713],[-71.065425,42.353731],[-71.065395,42.353753],[-71.065348,42.353739],[-71.06519,42.353759],[-71.065148,42.353805],[-71.065188,42.353851],[-71.065057,42.353875],[-71.065039,42.353907],[-71.065071,42.353946],[-71.064933,42.353968],[-71.064911,42.353918],[-71.064854,42.3539],[-71.064782,42.353909],[-71.064779,42.353878],[-71.064737,42.353847],[-71.064637,42.353851],[-71.064614,42.353813],[-71.064588,42.3538],[-71.064502,42.353802],[-71.064467,42.353779],[-71.064389,42.35378],[-71.064386,42.353761],[-71.064444,42.353728],[-71.064444,42.353692],[-71.064478,42.353658],[-71.06448,42.353629],[-71.064702,42.353589],[-71.064732,42.353536],[-71.064702,42.353483],[-71.064631,42.353462],[-71.06442,42.353489],[-71.064387,42.353505],[-71.064357,42.353558],[-71.064375,42.353597],[-71.064265,42.353612],[-71.06423,42.353638],[-71.06423,42.353674],[-71.064191,42.353726],[-71.064204,42.353753],[-71.064164,42.353791],[-71.06418,42.35382],[-71.064219,42.353832],[-71.064124,42.353856],[-71.064106,42.353876],[-71.064089,42.353964],[-71.064113,42.354006],[-71.064139,42.354019],[-71.064371,42.35399],[-71.064395,42.354031],[-71.064451,42.354049],[-71.064369,42.354059],[-71.064295,42.354023],[-71.064115,42.354046],[-71.064072,42.354079],[-71.064072,42.354124],[-71.063985,42.354151],[-71.063963,42.354189],[-71.063978,42.354221],[-71.063919,42.354269],[-71.063908,42.35431],[-71.063919,42.354351],[-71.06383,42.354375],[-71.063806,42.354418],[-71.063813,42.35444],[-71.063725,42.354473],[-71.063693,42.354508],[-71.063682,42.354549],[-71.063693,42.35459],[-71.063725,42.354625],[-71.063806,42.354654],[-71.063666,42.354682],[-71.063648,42.354702],[-71.063647,42.354748],[-71.063611,42.354776],[-71.063611,42.35482],[-71.063683,42.354856],[-71.063882,42.354821],[-71.063901,42.354766],[-71.063938,42.354751],[-71.063962,42.354707],[-71.063956,42.354683],[-71.06391,42.354649],[-71.064094,42.354623],[-71.064173,42.354564],[-71.064184,42.354523],[-71.064173,42.354482],[-71.064105,42.354429],[-71.064114,42.354411],[-71.06432,42.354384],[-71.064367,42.35436],[-71.064399,42.354325],[-71.06441,42.354284],[-71.064376,42.354217],[-71.064567,42.354192],[-71.064602,42.354175],[-71.064633,42.354119],[-71.064607,42.354069],[-71.064751,42.354051],[-71.064784,42.354029],[-71.064903,42.354006],[-71.064943,42.354051],[-71.065032,42.354047],[-71.065012,42.354079],[-71.065048,42.354119],[-71.065212,42.354104],[-71.065244,42.354081],[-71.065231,42.354033],[-71.06534,42.354014],[-71.065375,42.353988],[-71.065361,42.353936],[-71.065315,42.353922],[-71.065259,42.353929],[-71.065282,42.353909],[-71.065322,42.353922],[-71.065568,42.353901],[-71.0656,42.353866],[-71.065568,42.353831],[-71.065378,42.353834],[-71.065411,42.353808],[-71.065589,42.353796],[-71.065625,42.353756]],[[-71.065297,42.353846],[-71.065273,42.353864],[-71.065252,42.353851],[-71.065297,42.353846]],[[-71.065152,42.354026],[-71.065137,42.354027],[-71.065145,42.354022],[-71.065152,42.354026]],[[-71.065152,42.353947],[-71.065138,42.353955],[-71.065127,42.35395],[-71.065152,42.353947]],[[-71.064408,42.353933],[-71.064398,42.353938],[-71.064397,42.353932],[-71.064408,42.353933]],[[-71.064251,42.354178],[-71.064251,42.354178],[-71.064251,42.354178],[-71.064251,42.354178]]],[[[-71.065598,42.348957],[-71.06558,42.348944],[-71.065511,42.348963],[-71.065529,42.348977],[-71.065598,42.348957]]],[[[-71.065588,42.351223],[-71.06557,42.35121],[-71.065489,42.351231],[-71.065507,42.351244],[-71.065588,42.351223]]],[[[-71.065562,42.349094],[-71.065544,42.349081],[-71.065475,42.3491],[-71.065493,42.349114],[-71.065562,42.349094]]],[[[-71.065559,42.349236],[-71.065544,42.349211],[-71.06551,42.3492],[-71.065398,42.349214],[-71.065368,42.349248],[-71.065382,42.349273],[-71.065417,42.349284],[-71.065529,42.349269],[-71.065559,42.349236]]],[[[-71.065552,42.348316],[-71.065534,42.348284],[-71.06549,42.34827],[-71.065342,42.348289],[-71.065304,42.348331],[-71.065322,42.348364],[-71.065366,42.348377],[-71.065514,42.348358],[-71.065552,42.348316]]],[[[-71.06555,42.353665],[-71.065532,42.353633],[-71.065488,42.353619],[-71.06534,42.353638],[-71.065302,42.35368],[-71.06532,42.353713],[-71.065364,42.353726],[-71.065512,42.353707],[-71.06555,42.353665]]],[[[-71.065548,42.34811],[-71.06553,42.348097],[-71.065457,42.348117],[-71.065475,42.34813],[-71.065548,42.34811]]],[[[-71.065483,42.348446],[-71.06546,42.348429],[-71.065385,42.348439],[-71.065362,42.348455],[-71.065385,42.348472],[-71.06546,42.348463],[-71.065483,42.348446]]],[[[-71.065433,42.34879],[-71.065418,42.348765],[-71.065384,42.348754],[-71.065272,42.348768],[-71.065242,42.348802],[-71.065256,42.348827],[-71.065291,42.348838],[-71.065403,42.348823],[-71.065433,42.34879]]],[[[-71.065396,42.34894],[-71.06536,42.348914],[-71.065255,42.348927],[-71.065233,42.348951],[-71.065269,42.348978],[-71.065374,42.348964],[-71.065396,42.34894]]],[[[-71.065379,42.34907],[-71.065364,42.349045],[-71.06533,42.349034],[-71.065204,42.34905],[-71.065174,42.349083],[-71.065188,42.349109],[-71.065222,42.349119],[-71.065349,42.349103],[-71.065379,42.34907]]],[[[-71.065368,42.35121],[-71.06535,42.351197],[-71.065273,42.351217],[-71.065291,42.351231],[-71.065368,42.35121]]],[[[-71.065274,42.352968],[-71.06525,42.352941],[-71.065164,42.352948],[-71.065164,42.352908],[-71.065149,42.352891],[-71.065179,42.352852],[-71.065164,42.352827],[-71.065204,42.352785],[-71.065187,42.352754],[-71.065146,42.352742],[-71.064985,42.352769],[-71.064968,42.3528],[-71.064996,42.352836],[-71.064974,42.352865],[-71.064986,42.352889],[-71.064911,42.352908],[-71.06489,42.352945],[-71.064934,42.352994],[-71.065098,42.352981],[-71.06514,42.353009],[-71.06525,42.352995],[-71.065274,42.352968]]],[[[-71.065268,42.35121],[-71.06525,42.351197],[-71.065177,42.351217],[-71.065195,42.35123],[-71.065268,42.35121]]],[[[-71.065176,42.35072],[-71.06515,42.350701],[-71.065071,42.350711],[-71.065047,42.350737],[-71.065071,42.350749],[-71.06515,42.350739],[-71.065176,42.35072]]],[[[-71.065151,42.350784],[-71.065125,42.350765],[-71.065046,42.350775],[-71.065022,42.350801],[-71.065046,42.350813],[-71.065125,42.350803],[-71.065151,42.350784]]],[[[-71.065129,42.350853],[-71.06511,42.350839],[-71.06502,42.350862],[-71.065039,42.350876],[-71.065129,42.350853]]],[[[-71.065099,42.354179],[-71.065063,42.354139],[-71.064908,42.354153],[-71.064866,42.354134],[-71.06474,42.35415],[-71.06471,42.354183],[-71.06474,42.354217],[-71.064866,42.354206],[-71.064921,42.354237],[-71.065063,42.354219],[-71.065099,42.354179]]],[[[-71.065067,42.354458],[-71.065029,42.354416],[-71.0648,42.354426],[-71.06474,42.354376],[-71.064658,42.354375],[-71.064638,42.354361],[-71.064722,42.35435],[-71.064751,42.354331],[-71.064791,42.354346],[-71.064923,42.354329],[-71.064955,42.354294],[-71.064923,42.354259],[-71.064756,42.35428],[-71.064696,42.354253],[-71.064538,42.354273],[-71.064496,42.354319],[-71.064537,42.354366],[-71.064474,42.35438],[-71.064419,42.354441],[-71.064346,42.354459],[-71.064329,42.35449],[-71.064355,42.354525],[-71.064243,42.354546],[-71.064226,42.354577],[-71.064241,42.354606],[-71.064167,42.354622],[-71.064152,42.354649],[-71.064167,42.354676],[-71.064057,42.354699],[-71.064045,42.354743],[-71.064075,42.354765],[-71.064111,42.354766],[-71.064101,42.354818],[-71.064139,42.354847],[-71.06433,42.35483],[-71.064369,42.354801],[-71.064374,42.354781],[-71.064354,42.354744],[-71.064439,42.354724],[-71.064455,42.354695],[-71.064439,42.354666],[-71.064514,42.354656],[-71.064542,42.354636],[-71.064542,42.354606],[-71.064522,42.354589],[-71.064617,42.354577],[-71.064653,42.354537],[-71.064688,42.354529],[-71.064751,42.354552],[-71.06493,42.354529],[-71.065049,42.35449],[-71.065067,42.354458]]],[[[-71.064944,42.35131],[-71.064926,42.351297],[-71.064849,42.351317],[-71.064867,42.351331],[-71.064944,42.35131]]],[[[-71.064911,42.354986],[-71.06488,42.354932],[-71.064807,42.354909],[-71.06459,42.354937],[-71.064534,42.354979],[-71.064526,42.355008],[-71.064557,42.355062],[-71.06463,42.355085],[-71.064847,42.355057],[-71.06488,42.35504],[-71.064911,42.354986]]],[[[-71.064857,42.348456],[-71.064839,42.348443],[-71.064766,42.348463],[-71.064784,42.348476],[-71.064857,42.348456]]],[[[-71.064739,42.354797],[-71.064721,42.354784],[-71.064648,42.354804],[-71.064666,42.354817],[-71.064739,42.354797]]],[[[-71.064624,42.351826],[-71.064606,42.351813],[-71.064533,42.351833],[-71.064551,42.351846],[-71.064624,42.351826]]],[[[-71.064621,42.348425],[-71.064603,42.348412],[-71.06453,42.348432],[-71.064548,42.348445],[-71.064621,42.348425]]],[[[-71.064568,42.352055],[-71.06455,42.352042],[-71.064473,42.352062],[-71.064491,42.352076],[-71.064568,42.352055]]],[[[-71.064564,42.352104],[-71.064545,42.35209],[-71.064455,42.352113],[-71.064474,42.352127],[-71.064564,42.352104]]],[[[-71.064548,42.35216],[-71.06453,42.352147],[-71.064457,42.352167],[-71.064475,42.35218],[-71.064548,42.35216]]],[[[-71.064436,42.348399],[-71.064418,42.348386],[-71.064345,42.348406],[-71.064363,42.348419],[-71.064436,42.348399]]],[[[-71.064238,42.350925],[-71.06422,42.350912],[-71.064147,42.350932],[-71.064165,42.350945],[-71.064238,42.350925]]],[[[-71.064209,42.34872],[-71.064186,42.348703],[-71.064111,42.348713],[-71.064088,42.348729],[-71.064111,42.348746],[-71.064186,42.348737],[-71.064209,42.34872]]],[[[-71.064168,42.34884],[-71.06415,42.348827],[-71.064065,42.348848],[-71.064083,42.348862],[-71.064168,42.34884]]],[[[-71.064148,42.350914],[-71.06405,42.35089],[-71.063972,42.3509],[-71.063934,42.350874],[-71.063824,42.350888],[-71.0638,42.350915],[-71.063824,42.350941],[-71.063932,42.350932],[-71.063963,42.350949],[-71.064148,42.350914]]],[[[-71.064088,42.3533],[-71.06407,42.353287],[-71.064003,42.353295],[-71.064002,42.353271],[-71.063939,42.353276],[-71.063929,42.353252],[-71.063845,42.353261],[-71.063822,42.353277],[-71.063845,42.353294],[-71.063911,42.353286],[-71.063921,42.353304],[-71.063995,42.353297],[-71.063996,42.353321],[-71.064088,42.3533]]],[[[-71.064049,42.35339],[-71.06403,42.353376],[-71.063928,42.353376],[-71.06391,42.353361],[-71.063825,42.353382],[-71.063894,42.353409],[-71.063952,42.353412],[-71.064049,42.35339]]],[[[-71.063998,42.35376],[-71.06398,42.353747],[-71.063895,42.353768],[-71.063913,42.353782],[-71.063998,42.35376]]],[[[-71.063922,42.353967],[-71.06389,42.353943],[-71.063803,42.353954],[-71.063773,42.353969],[-71.063773,42.353987],[-71.063803,42.354002],[-71.06389,42.353991],[-71.063922,42.353967]]],[[[-71.063915,42.348675],[-71.063896,42.348661],[-71.063806,42.348684],[-71.063825,42.348698],[-71.063915,42.348675]]],[[[-71.063893,42.348743],[-71.06387,42.348726],[-71.063795,42.348736],[-71.063772,42.348752],[-71.063795,42.348769],[-71.06387,42.34876],[-71.063893,42.348743]]],[[[-71.063879,42.34887],[-71.06386,42.348856],[-71.06377,42.348879],[-71.063789,42.348893],[-71.063879,42.34887]]],[[[-71.063873,42.348793],[-71.063855,42.34878],[-71.063782,42.3488],[-71.0638,42.348813],[-71.063873,42.348793]]],[[[-71.063821,42.349148],[-71.063803,42.349135],[-71.06373,42.349155],[-71.063748,42.349168],[-71.063821,42.349148]]],[[[-71.063816,42.35412],[-71.06379,42.354101],[-71.063711,42.354111],[-71.063687,42.354137],[-71.063711,42.354149],[-71.06379,42.354139],[-71.063816,42.35412]]],[[[-71.063808,42.348427],[-71.06379,42.348414],[-71.063717,42.348434],[-71.063735,42.348447],[-71.063808,42.348427]]],[[[-71.063768,42.349293],[-71.06375,42.34928],[-71.063677,42.3493],[-71.063695,42.349313],[-71.063768,42.349293]]],[[[-71.063755,42.349335],[-71.063737,42.349322],[-71.063664,42.349342],[-71.063682,42.349355],[-71.063755,42.349335]]],[[[-71.063718,42.34841],[-71.0637,42.348397],[-71.063627,42.348417],[-71.063645,42.34843],[-71.063718,42.34841]]],[[[-71.063707,42.350883],[-71.063687,42.350861],[-71.063546,42.350865],[-71.06352,42.350845],[-71.063417,42.350867],[-71.063431,42.350892],[-71.063556,42.350897],[-71.063588,42.350918],[-71.063687,42.350905],[-71.063707,42.350883]]],[[[-71.063689,42.34976],[-71.06367,42.349746],[-71.06358,42.349769],[-71.063599,42.349783],[-71.063689,42.34976]]],[[[-71.063632,42.349854],[-71.063614,42.349841],[-71.063529,42.349862],[-71.063547,42.349876],[-71.063632,42.349854]]],[[[-71.063579,42.34995],[-71.06356,42.349936],[-71.06347,42.349959],[-71.063489,42.349973],[-71.063579,42.34995]]],[[[-71.063569,42.3547],[-71.063554,42.354675],[-71.06352,42.354664],[-71.063408,42.354678],[-71.063378,42.354712],[-71.063392,42.354737],[-71.063427,42.354748],[-71.063539,42.354733],[-71.063569,42.3547]]],[[[-71.063548,42.35],[-71.06353,42.349987],[-71.063445,42.350008],[-71.063463,42.350022],[-71.063548,42.35]]],[[[-71.063509,42.3548],[-71.063494,42.354775],[-71.06346,42.354764],[-71.063348,42.354778],[-71.063318,42.354812],[-71.063332,42.354837],[-71.063367,42.354848],[-71.063479,42.354833],[-71.063509,42.3548]]],[[[-71.063458,42.350418],[-71.06344,42.350405],[-71.063355,42.350426],[-71.063373,42.35044],[-71.063458,42.350418]]],[[[-71.063458,42.35018],[-71.06344,42.350167],[-71.063359,42.350188],[-71.063377,42.350201],[-71.063458,42.35018]]],[[[-71.063434,42.350487],[-71.063416,42.350474],[-71.063335,42.350495],[-71.063353,42.350508],[-71.063434,42.350487]]],[[[-71.063428,42.350246],[-71.06341,42.350233],[-71.063329,42.350254],[-71.063347,42.350267],[-71.063428,42.350246]]],[[[-71.063403,42.35055],[-71.063385,42.350537],[-71.063308,42.350557],[-71.063326,42.350571],[-71.063403,42.35055]]],[[[-71.063403,42.35028],[-71.063385,42.350267],[-71.063304,42.350288],[-71.063322,42.350301],[-71.063403,42.35028]]],[[[-71.063386,42.350826],[-71.06336,42.350807],[-71.063281,42.350817],[-71.063257,42.350843],[-71.063281,42.350855],[-71.06336,42.350845],[-71.063386,42.350826]]],[[[-71.063383,42.350765],[-71.063354,42.350743],[-71.06326,42.350755],[-71.063242,42.350775],[-71.063271,42.350797],[-71.063365,42.350785],[-71.063383,42.350765]]],[[[-71.063369,42.350704],[-71.06335,42.35069],[-71.06326,42.350713],[-71.063279,42.350727],[-71.063369,42.350704]]],[[[-71.063368,42.35061],[-71.06335,42.350597],[-71.063273,42.350617],[-71.063291,42.350631],[-71.063368,42.35061]]],[[[-71.063328,42.35044],[-71.06331,42.350427],[-71.063233,42.350447],[-71.063251,42.350461],[-71.063328,42.35044]]],[[[-71.063298,42.350483],[-71.06328,42.35047],[-71.063199,42.350491],[-71.063217,42.350504],[-71.063298,42.350483]]],[[[-71.063273,42.350536],[-71.063255,42.350523],[-71.063174,42.350544],[-71.063192,42.350557],[-71.063273,42.350536]]],[[[-71.063248,42.350582],[-71.06323,42.350569],[-71.063145,42.35059],[-71.063163,42.350604],[-71.063248,42.350582]]],[[[-71.063228,42.35063],[-71.06321,42.350617],[-71.063125,42.350638],[-71.063143,42.350652],[-71.063228,42.35063]]],[[[-71.063198,42.350677],[-71.06318,42.350664],[-71.063111,42.350683],[-71.063129,42.350697],[-71.063198,42.350677]]],[[[-71.063178,42.350727],[-71.06316,42.350714],[-71.063079,42.350735],[-71.063097,42.350748],[-71.063178,42.350727]]],[[[-71.063149,42.350765],[-71.06313,42.350751],[-71.06304,42.350774],[-71.063059,42.350788],[-71.063149,42.350765]]],[[[-71.063144,42.352238],[-71.063126,42.352225],[-71.062988,42.352257],[-71.063006,42.352271],[-71.063144,42.352238]]],[[[-71.062983,42.352253],[-71.062965,42.35224],[-71.062888,42.35226],[-71.062906,42.352274],[-71.062983,42.352253]]],[[[-71.062922,42.35222],[-71.062837,42.352203],[-71.062753,42.352222],[-71.062834,42.35224],[-71.062922,42.35222]]],[[[-71.062829,42.353302],[-71.06281,42.353288],[-71.06274,42.353289],[-71.062665,42.353299],[-71.062642,42.353315],[-71.062665,42.353332],[-71.06281,42.353316],[-71.062829,42.353302]]],[[[-71.062829,42.353214],[-71.062744,42.353193],[-71.062654,42.353216],[-71.062739,42.353237],[-71.062829,42.353214]]],[[[-71.062559,42.348354],[-71.06253,42.348332],[-71.062436,42.348344],[-71.062418,42.348364],[-71.062447,42.348386],[-71.062541,42.348374],[-71.062559,42.348354]]],[[[-71.062496,42.349373],[-71.062484,42.349351],[-71.062454,42.349342],[-71.062338,42.349357],[-71.062312,42.349385],[-71.062325,42.349407],[-71.062354,42.349417],[-71.06247,42.349402],[-71.062496,42.349373]]],[[[-71.062463,42.348557],[-71.06244,42.34854],[-71.062365,42.34855],[-71.062342,42.348566],[-71.062365,42.348583],[-71.06244,42.348574],[-71.062463,42.348557]]],[[[-71.062409,42.348373],[-71.06237,42.348344],[-71.06226,42.348358],[-71.062236,42.348385],[-71.062275,42.348414],[-71.062385,42.3484],[-71.062409,42.348373]]],[[[-71.062392,42.349323],[-71.06238,42.349301],[-71.06235,42.349292],[-71.062234,42.349307],[-71.062208,42.349335],[-71.062221,42.349357],[-71.06225,42.349367],[-71.062366,42.349352],[-71.062392,42.349323]]],[[[-71.062039,42.353752],[-71.06202,42.353738],[-71.06193,42.353761],[-71.061949,42.353775],[-71.062039,42.353752]]],[[[-71.062006,42.349306],[-71.061988,42.349293],[-71.061915,42.349313],[-71.061933,42.349326],[-71.062006,42.349306]]],[[[-71.061988,42.35386],[-71.06197,42.353847],[-71.061897,42.353867],[-71.061915,42.35388],[-71.061988,42.35386]]],[[[-71.061951,42.349438],[-71.061933,42.349425],[-71.06186,42.349445],[-71.061878,42.349458],[-71.061951,42.349438]]],[[[-71.061941,42.349548],[-71.061926,42.349523],[-71.061892,42.349512],[-71.06178,42.349526],[-71.06175,42.34956],[-71.061764,42.349585],[-71.061799,42.349596],[-71.061911,42.349581],[-71.061941,42.349548]]],[[[-71.061928,42.34988],[-71.06191,42.349867],[-71.061837,42.349887],[-71.061855,42.3499],[-71.061928,42.34988]]],[[[-71.061924,42.3537],[-71.061905,42.353686],[-71.061815,42.353709],[-71.061834,42.353723],[-71.061924,42.3537]]],[[[-71.061909,42.353825],[-71.06189,42.353811],[-71.0618,42.353834],[-71.061819,42.353848],[-71.061909,42.353825]]],[[[-71.061898,42.349926],[-71.06188,42.349913],[-71.061807,42.349933],[-71.061825,42.349946],[-71.061898,42.349926]]],[[[-71.061892,42.35],[-71.061874,42.349987],[-71.061801,42.350007],[-71.061819,42.35002],[-71.061892,42.35]]],[[[-71.061868,42.350044],[-71.06185,42.350031],[-71.061777,42.350051],[-71.061795,42.350064],[-71.061868,42.350044]]],[[[-71.061851,42.348312],[-71.061838,42.348288],[-71.061806,42.348278],[-71.061685,42.348294],[-71.061657,42.348325],[-71.06167,42.348349],[-71.061702,42.348358],[-71.061823,42.348343],[-71.061851,42.348312]]],[[[-71.061838,42.35008],[-71.06182,42.350067],[-71.061747,42.350087],[-71.061765,42.3501],[-71.061838,42.35008]]],[[[-71.061828,42.353783],[-71.06181,42.35377],[-71.061737,42.35379],[-71.061755,42.353803],[-71.061828,42.353783]]],[[[-71.061825,42.353653],[-71.061806,42.353639],[-71.061716,42.353662],[-71.061735,42.353676],[-71.061825,42.353653]]],[[[-71.061824,42.350155],[-71.061806,42.350142],[-71.061737,42.350161],[-71.061755,42.350175],[-71.061824,42.350155]]],[[[-71.061798,42.3502],[-71.06178,42.350187],[-71.061707,42.350207],[-71.061725,42.35022],[-71.061798,42.3502]]],[[[-71.061789,42.350292],[-71.06175,42.350263],[-71.06164,42.350277],[-71.061619,42.350293],[-71.061627,42.350324],[-71.061584,42.350335],[-71.061574,42.350372],[-71.061616,42.350392],[-71.061737,42.350377],[-71.061762,42.350359],[-71.061752,42.350322],[-71.061789,42.350292]]],[[[-71.06177,42.348421],[-71.061752,42.348408],[-71.061679,42.348428],[-71.061697,42.348441],[-71.06177,42.348421]]],[[[-71.061766,42.349666],[-71.061751,42.349641],[-71.061717,42.34963],[-71.061605,42.349644],[-71.061575,42.349678],[-71.061589,42.349703],[-71.061624,42.349714],[-71.061736,42.349699],[-71.061766,42.349666]]],[[[-71.061759,42.353607],[-71.061744,42.353582],[-71.06171,42.353571],[-71.061598,42.353585],[-71.061568,42.353619],[-71.061582,42.353644],[-71.061617,42.353655],[-71.061729,42.35364],[-71.061759,42.353607]]],[[[-71.061747,42.353738],[-71.061729,42.353725],[-71.061656,42.353745],[-71.061674,42.353758],[-71.061747,42.353738]]],[[[-71.061692,42.348648],[-71.06168,42.348626],[-71.06165,42.348617],[-71.061399,42.348652],[-71.061371,42.348683],[-71.061384,42.348707],[-71.061416,42.348716],[-71.061666,42.348677],[-71.061692,42.348648]]],[[[-71.061645,42.348297],[-71.061629,42.348268],[-71.06159,42.348256],[-71.061453,42.348274],[-71.061419,42.348311],[-71.061435,42.34834],[-71.061474,42.348352],[-71.061611,42.348335],[-71.061645,42.348297]]],[[[-71.061628,42.35355],[-71.06161,42.353537],[-71.061529,42.353558],[-71.061547,42.353571],[-71.061628,42.35355]]],[[[-71.06161,42.348837],[-71.061592,42.348824],[-71.061519,42.348844],[-71.061537,42.348857],[-71.06161,42.348837]]],[[[-71.061608,42.3485],[-71.06159,42.348487],[-71.061517,42.348507],[-71.061535,42.34852],[-71.061608,42.3485]]],[[[-71.061597,42.348184],[-71.061579,42.348171],[-71.061498,42.348192],[-71.061516,42.348205],[-71.061597,42.348184]]],[[[-71.061548,42.349568],[-71.061518,42.349535],[-71.061449,42.349538],[-71.061435,42.349509],[-71.061401,42.349498],[-71.061289,42.349512],[-71.061259,42.349546],[-71.061289,42.349579],[-71.061358,42.349575],[-71.061371,42.349605],[-71.061406,42.349616],[-71.061518,42.349601],[-71.061548,42.349568]]],[[[-71.061502,42.348854],[-71.06149,42.348832],[-71.06146,42.348823],[-71.061344,42.348838],[-71.061318,42.348866],[-71.061331,42.348888],[-71.06136,42.348898],[-71.061476,42.348883],[-71.061502,42.348854]]],[[[-71.061493,42.35095],[-71.06147,42.350933],[-71.061395,42.350943],[-71.061372,42.350959],[-71.061395,42.350976],[-71.06147,42.350967],[-71.061493,42.35095]]],[[[-71.061472,42.34815],[-71.061454,42.348118],[-71.06141,42.348104],[-71.061262,42.348123],[-71.061224,42.348165],[-71.061242,42.348198],[-71.061286,42.348211],[-71.061434,42.348192],[-71.061472,42.34815]]],[[[-71.061452,42.348248],[-71.06142,42.348224],[-71.061333,42.348235],[-71.061303,42.34825],[-71.061303,42.348268],[-71.061333,42.348283],[-71.06142,42.348272],[-71.061452,42.348248]]],[[[-71.061438,42.349255],[-71.06142,42.349242],[-71.061339,42.349263],[-71.061357,42.349276],[-71.061438,42.349255]]],[[[-71.061418,42.351122],[-71.0614,42.351109],[-71.061327,42.351129],[-71.061345,42.351142],[-71.061418,42.351122]]],[[[-71.061399,42.349052],[-71.06138,42.349038],[-71.06129,42.349061],[-71.061309,42.349075],[-71.061399,42.349052]]],[[[-71.061397,42.35118],[-71.061379,42.351167],[-71.061306,42.351187],[-71.061324,42.3512],[-71.061397,42.35118]]],[[[-71.061371,42.35124],[-71.061353,42.351227],[-71.06128,42.351247],[-71.061298,42.35126],[-71.061371,42.35124]]],[[[-71.061368,42.34943],[-71.06135,42.349417],[-71.061277,42.349437],[-71.061295,42.34945],[-71.061368,42.34943]]],[[[-71.061352,42.351289],[-71.061334,42.351276],[-71.061261,42.351296],[-71.061279,42.351309],[-71.061352,42.351289]]],[[[-71.061349,42.349228],[-71.06132,42.349206],[-71.061226,42.349218],[-71.061208,42.349238],[-71.061237,42.34926],[-71.061331,42.349248],[-71.061349,42.349228]]],[[[-71.061282,42.34963],[-71.061264,42.349617],[-71.061187,42.349637],[-71.061205,42.349651],[-71.061282,42.34963]]],[[[-71.061261,42.349678],[-71.061243,42.349665],[-71.061166,42.349685],[-71.061184,42.349699],[-71.061261,42.349678]]],[[[-71.061244,42.35337],[-71.061226,42.353357],[-71.061153,42.353377],[-71.061171,42.35339],[-71.061244,42.35337]]],[[[-71.061238,42.354774],[-71.06122,42.354761],[-71.061147,42.354781],[-71.061165,42.354794],[-71.061238,42.354774]]],[[[-71.061222,42.34983],[-71.06121,42.349808],[-71.06118,42.349799],[-71.061064,42.349814],[-71.061038,42.349842],[-71.061051,42.349864],[-71.06108,42.349874],[-71.061196,42.349859],[-71.061222,42.34983]]],[[[-71.061188,42.354916],[-71.06117,42.354903],[-71.061097,42.354923],[-71.061115,42.354936],[-71.061188,42.354916]]],[[[-71.061188,42.353344],[-71.06117,42.353331],[-71.061097,42.353351],[-71.061115,42.353364],[-71.061188,42.353344]]],[[[-71.061156,42.35003],[-71.061141,42.350003],[-71.061104,42.349992],[-71.060972,42.350008],[-71.06094,42.350044],[-71.060955,42.350071],[-71.060992,42.350082],[-71.061124,42.350065],[-71.061156,42.35003]]],[[[-71.061138,42.35332],[-71.06112,42.353307],[-71.061047,42.353327],[-71.061065,42.35334],[-71.061138,42.35332]]],[[[-71.061048,42.353275],[-71.06103,42.353262],[-71.060949,42.353283],[-71.060967,42.353296],[-71.061048,42.353275]]],[[[-71.061038,42.34849],[-71.06102,42.348477],[-71.060947,42.348497],[-71.060965,42.34851],[-71.061038,42.34849]]],[[[-71.061032,42.348602],[-71.061017,42.348575],[-71.06098,42.348564],[-71.060848,42.34858],[-71.060816,42.348616],[-71.060831,42.348643],[-71.060868,42.348654],[-71.061,42.348637],[-71.061032,42.348602]]],[[[-71.061005,42.348717],[-71.060989,42.348688],[-71.06095,42.348676],[-71.060813,42.348694],[-71.060779,42.348731],[-71.060795,42.34876],[-71.060834,42.348772],[-71.060971,42.348755],[-71.061005,42.348717]]],[[[-71.060988,42.353363],[-71.06097,42.35335],[-71.060897,42.35337],[-71.060915,42.353383],[-71.060988,42.353363]]],[[[-71.060942,42.348827],[-71.06093,42.348805],[-71.0609,42.348796],[-71.060784,42.348811],[-71.060758,42.348839],[-71.060771,42.348861],[-71.0608,42.348871],[-71.060916,42.348856],[-71.060942,42.348827]]],[[[-71.060938,42.35322],[-71.06092,42.353207],[-71.060847,42.353227],[-71.060865,42.35324],[-71.060938,42.35322]]],[[[-71.060923,42.35333],[-71.060905,42.353317],[-71.060828,42.353337],[-71.060846,42.353351],[-71.060923,42.35333]]],[[[-71.060862,42.353302],[-71.060844,42.353289],[-71.060771,42.353309],[-71.060789,42.353322],[-71.060862,42.353302]]],[[[-71.060847,42.349174],[-71.060827,42.349137],[-71.060776,42.349121],[-71.060612,42.349142],[-71.060568,42.349191],[-71.060589,42.349228],[-71.06064,42.349244],[-71.060803,42.349223],[-71.060847,42.349174]]],[[[-71.060733,42.34939],[-71.060718,42.349365],[-71.060684,42.349354],[-71.060572,42.349368],[-71.060467,42.349414],[-71.060591,42.349438],[-71.060703,42.349423],[-71.060733,42.34939]]],[[[-71.060695,42.349506],[-71.06068,42.349481],[-71.060646,42.34947],[-71.060443,42.34951],[-71.06049,42.34952],[-71.060504,42.349545],[-71.060538,42.349555],[-71.060665,42.349539],[-71.060695,42.349506]]],[[[-71.060628,42.34926],[-71.06061,42.349247],[-71.060537,42.349267],[-71.060555,42.34928],[-71.060628,42.34926]]],[[[-71.060609,42.34967],[-71.060594,42.349645],[-71.06056,42.349634],[-71.060487,42.349643],[-71.06047,42.349627],[-71.060397,42.349647],[-71.060415,42.34966],[-71.060407,42.349697],[-71.060452,42.349719],[-71.060579,42.349703],[-71.060609,42.34967]]],[[[-71.060608,42.3493],[-71.06059,42.349287],[-71.060517,42.349307],[-71.060535,42.34932],[-71.060608,42.3493]]],[[[-71.060598,42.35304],[-71.06058,42.353027],[-71.060507,42.353047],[-71.060525,42.35306],[-71.060598,42.35304]]],[[[-71.060588,42.349342],[-71.06057,42.349329],[-71.060497,42.349349],[-71.060515,42.349362],[-71.060588,42.349342]]],[[[-71.060582,42.349792],[-71.060567,42.349765],[-71.06053,42.349754],[-71.060398,42.34977],[-71.060366,42.349806],[-71.060381,42.349833],[-71.060418,42.349844],[-71.06055,42.349827],[-71.060582,42.349792]]],[[[-71.060548,42.349453],[-71.06053,42.34944],[-71.060453,42.34946],[-71.060471,42.349474],[-71.060548,42.349453]]],[[[-71.060518,42.352997],[-71.0605,42.352984],[-71.060427,42.353004],[-71.060445,42.353017],[-71.060518,42.352997]]],[[[-71.060508,42.353283],[-71.06049,42.35327],[-71.060413,42.35329],[-71.060431,42.353304],[-71.060508,42.353283]]],[[[-71.060504,42.35315],[-71.060486,42.353137],[-71.060413,42.353157],[-71.060431,42.35317],[-71.060504,42.35315]]],[[[-71.060504,42.3496],[-71.060486,42.349587],[-71.060413,42.349607],[-71.060431,42.34962],[-71.060504,42.3496]]],[[[-71.060504,42.349556],[-71.060486,42.349543],[-71.060413,42.349563],[-71.060431,42.349576],[-71.060504,42.349556]]],[[[-71.060468,42.352974],[-71.06045,42.352961],[-71.060373,42.352981],[-71.060391,42.352995],[-71.060468,42.352974]]],[[[-71.060428,42.3531],[-71.06041,42.353087],[-71.060337,42.353107],[-71.060355,42.35312],[-71.060428,42.3531]]],[[[-71.060419,42.353405],[-71.060418,42.35338],[-71.0604,42.353367],[-71.06027,42.35339],[-71.060246,42.353417],[-71.060285,42.353467],[-71.060353,42.353457],[-71.060353,42.353437],[-71.060395,42.353432],[-71.060419,42.353405]]],[[[-71.060388,42.349884],[-71.06037,42.349871],[-71.060293,42.349891],[-71.060311,42.349905],[-71.060388,42.349884]]],[[[-71.060374,42.35307],[-71.060356,42.353057],[-71.060283,42.353077],[-71.060301,42.35309],[-71.060374,42.35307]]],[[[-71.060318,42.350037],[-71.0603,42.350024],[-71.060227,42.350044],[-71.060245,42.350057],[-71.060318,42.350037]]],[[[-71.060314,42.35015],[-71.060285,42.350118],[-71.060297,42.35011],[-71.060287,42.350093],[-71.060212,42.350102],[-71.060212,42.350121],[-71.060153,42.350128],[-71.060123,42.350162],[-71.060137,42.350187],[-71.060172,42.350198],[-71.060284,42.350183],[-71.060314,42.35015]]],[[[-71.060174,42.34947],[-71.060135,42.349441],[-71.060025,42.349455],[-71.060001,42.349482],[-71.06004,42.349511],[-71.06015,42.349497],[-71.060174,42.34947]]],[[[-71.060158,42.352962],[-71.06014,42.352949],[-71.060067,42.352969],[-71.060085,42.352982],[-71.060158,42.352962]]],[[[-71.060119,42.349556],[-71.06009,42.349534],[-71.059996,42.349546],[-71.059978,42.349566],[-71.060007,42.349588],[-71.060101,42.349576],[-71.060119,42.349556]]],[[[-71.060105,42.35341],[-71.060092,42.353386],[-71.06006,42.353376],[-71.059939,42.353392],[-71.059911,42.353423],[-71.059924,42.353447],[-71.059956,42.353456],[-71.060077,42.353441],[-71.060105,42.35341]]],[[[-71.060086,42.349644],[-71.06005,42.349618],[-71.059945,42.349631],[-71.059923,42.349655],[-71.059959,42.349682],[-71.060064,42.349668],[-71.060086,42.349644]]],[[[-71.059972,42.351044],[-71.05996,42.351022],[-71.05993,42.351013],[-71.059814,42.351028],[-71.059788,42.351056],[-71.059801,42.351078],[-71.05983,42.351088],[-71.059946,42.351073],[-71.059972,42.351044]]],[[[-71.059901,42.351135],[-71.059875,42.351116],[-71.059796,42.351126],[-71.059772,42.351152],[-71.059796,42.351164],[-71.059875,42.351154],[-71.059901,42.351135]]],[[[-71.059858,42.3533],[-71.05984,42.353287],[-71.059767,42.353307],[-71.059785,42.35332],[-71.059858,42.3533]]],[[[-71.059822,42.35326],[-71.05981,42.353238],[-71.05978,42.353229],[-71.059664,42.353244],[-71.059638,42.353272],[-71.059651,42.353294],[-71.05968,42.353304],[-71.059796,42.353289],[-71.059822,42.35326]]],[[[-71.059758,42.352753],[-71.05974,42.35274],[-71.059683,42.352747],[-71.05967,42.352724],[-71.059557,42.352724],[-71.059544,42.352747],[-71.059428,42.352761],[-71.059398,42.352795],[-71.059412,42.35282],[-71.059447,42.352831],[-71.059574,42.352808],[-71.059589,42.352783],[-71.05956,42.35275],[-71.059669,42.352751],[-71.059681,42.352774],[-71.059758,42.352753]]],[[[-71.059669,42.354954],[-71.059651,42.354934],[-71.059614,42.354936],[-71.059613,42.354903],[-71.059562,42.354868],[-71.059433,42.354892],[-71.059433,42.35491],[-71.05948,42.354948],[-71.059534,42.354951],[-71.059528,42.354964],[-71.059546,42.354984],[-71.059651,42.354974],[-71.059669,42.354954]]],[[[-71.059649,42.35171],[-71.059634,42.351685],[-71.0596,42.351674],[-71.059488,42.351688],[-71.059435,42.351719],[-71.059507,42.351758],[-71.059619,42.351743],[-71.059649,42.35171]]],[[[-71.059562,42.3516],[-71.05953,42.351576],[-71.05943,42.351589],[-71.059341,42.351619],[-71.059327,42.351644],[-71.059351,42.351656],[-71.05944,42.351645],[-71.059542,42.351622],[-71.059562,42.3516]]],[[[-71.059518,42.351097],[-71.0595,42.351084],[-71.059427,42.351104],[-71.059445,42.351117],[-71.059518,42.351097]]],[[[-71.059482,42.354813],[-71.059462,42.354791],[-71.059419,42.354793],[-71.05943,42.354765],[-71.059378,42.354709],[-71.059259,42.35472],[-71.05924,42.354734],[-71.059247,42.354763],[-71.059289,42.354769],[-71.05929,42.354802],[-71.059343,42.354805],[-71.059333,42.354833],[-71.05935,42.354846],[-71.059462,42.354835],[-71.059482,42.354813]]],[[[-71.059478,42.35117],[-71.05946,42.351157],[-71.059387,42.351177],[-71.059405,42.35119],[-71.059478,42.35117]]],[[[-71.059428,42.3531],[-71.05941,42.353087],[-71.059337,42.353107],[-71.059355,42.35312],[-71.059428,42.3531]]],[[[-71.059418,42.35301],[-71.0594,42.352997],[-71.059327,42.353017],[-71.059345,42.35303],[-71.059418,42.35301]]],[[[-71.059387,42.351704],[-71.059364,42.351687],[-71.059289,42.351697],[-71.059266,42.351713],[-71.059289,42.35173],[-71.059364,42.351721],[-71.059387,42.351704]]],[[[-71.059323,42.35178],[-71.0593,42.351763],[-71.059225,42.351773],[-71.059202,42.351789],[-71.059225,42.351806],[-71.0593,42.351797],[-71.059323,42.35178]]],[[[-71.059219,42.35129],[-71.059189,42.351257],[-71.05914,42.351258],[-71.059188,42.35124],[-71.059129,42.351197],[-71.058984,42.35121],[-71.058954,42.351243],[-71.058984,42.351277],[-71.059033,42.351276],[-71.059014,42.351303],[-71.059038,42.351334],[-71.058998,42.351345],[-71.058984,42.35137],[-71.059014,42.351404],[-71.059174,42.351382],[-71.059189,42.351357],[-71.059164,42.351327],[-71.059204,42.351315],[-71.059219,42.35129]]],[[[-71.059184,42.353294],[-71.059166,42.353281],[-71.059093,42.353301],[-71.059111,42.353314],[-71.059184,42.353294]]],[[[-71.059098,42.35146],[-71.05908,42.351447],[-71.059007,42.351467],[-71.059025,42.35148],[-71.059098,42.35146]]],[[[-71.059092,42.354385],[-71.05906,42.354361],[-71.058973,42.354372],[-71.058943,42.354387],[-71.058943,42.354405],[-71.058973,42.35442],[-71.05906,42.354409],[-71.059092,42.354385]]],[[[-71.059088,42.353287],[-71.05907,42.353274],[-71.058997,42.353294],[-71.059015,42.353307],[-71.059088,42.353287]]],[[[-71.059066,42.351517],[-71.05904,42.351498],[-71.058961,42.351508],[-71.058937,42.351534],[-71.058961,42.351546],[-71.05904,42.351536],[-71.059066,42.351517]]],[[[-71.059018,42.354332],[-71.059,42.354319],[-71.058927,42.354339],[-71.058945,42.354352],[-71.059018,42.354332]]],[[[-71.059006,42.351604],[-71.05897,42.351578],[-71.058865,42.351591],[-71.058843,42.351615],[-71.058865,42.35164],[-71.058849,42.351654],[-71.058867,42.351667],[-71.058943,42.351656],[-71.058943,42.351636],[-71.058995,42.351623],[-71.059006,42.351604]]],[[[-71.058998,42.353283],[-71.05898,42.35327],[-71.058907,42.35329],[-71.058925,42.353303],[-71.058998,42.353283]]],[[[-71.058959,42.35429],[-71.05894,42.354276],[-71.05885,42.354299],[-71.058869,42.354313],[-71.058959,42.35429]]],[[[-71.058922,42.35169],[-71.05889,42.351666],[-71.05878,42.351684],[-71.05878,42.351718],[-71.058733,42.351731],[-71.058726,42.351759],[-71.058676,42.351781],[-71.058676,42.351801],[-71.058706,42.351817],[-71.058606,42.35183],[-71.058585,42.351846],[-71.058585,42.351868],[-71.058621,42.351886],[-71.058744,42.351865],[-71.058777,42.351821],[-71.058723,42.351817],[-71.058825,42.351799],[-71.058833,42.35177],[-71.058883,42.351748],[-71.058875,42.351719],[-71.058922,42.35169]]],[[[-71.058864,42.353268],[-71.058846,42.353255],[-71.058773,42.353275],[-71.058791,42.353288],[-71.058864,42.353268]]],[[[-71.058758,42.353268],[-71.05874,42.353255],[-71.058667,42.353275],[-71.058685,42.353288],[-71.058758,42.353268]]],[[[-71.058692,42.351906],[-71.05866,42.351882],[-71.05856,42.351895],[-71.058522,42.351939],[-71.058545,42.351956],[-71.05862,42.351947],[-71.058683,42.351923],[-71.058692,42.351906]]],[[[-71.058598,42.351967],[-71.05858,42.351954],[-71.058393,42.351974],[-71.058363,42.351996],[-71.058348,42.352042],[-71.058294,42.352074],[-71.058294,42.352109],[-71.058336,42.35212],[-71.058457,42.352105],[-71.058482,42.352087],[-71.058482,42.352062],[-71.058569,42.352026],[-71.058598,42.351967]]],[[[-71.058568,42.35253],[-71.058497,42.352512],[-71.058351,42.352522],[-71.05833,42.352507],[-71.058275,42.352513],[-71.058257,42.3525],[-71.058177,42.352519],[-71.058195,42.352532],[-71.05833,42.352533],[-71.058351,42.352549],[-71.058421,42.352539],[-71.058488,42.352549],[-71.058568,42.35253]]],[[[-71.058499,42.35248],[-71.05848,42.352466],[-71.05839,42.352489],[-71.058409,42.352503],[-71.058499,42.35248]]],[[[-71.058388,42.35247],[-71.05837,42.352457],[-71.058297,42.352477],[-71.058315,42.35249],[-71.058388,42.35247]]],[[[-71.058288,42.35091],[-71.05827,42.350897],[-71.058197,42.350917],[-71.058215,42.35093],[-71.058288,42.35091]]],[[[-71.058278,42.352467],[-71.05826,42.352454],[-71.058187,42.352474],[-71.058205,42.352487],[-71.058278,42.352467]]],[[[-71.058218,42.350887],[-71.0582,42.350874],[-71.058127,42.350894],[-71.058145,42.350907],[-71.058218,42.350887]]],[[[-71.058038,42.352665],[-71.05802,42.352652],[-71.057947,42.352672],[-71.057965,42.352685],[-71.058038,42.352665]]],[[[-71.058032,42.352768],[-71.058014,42.352755],[-71.057941,42.352775],[-71.057959,42.352788],[-71.058032,42.352768]]],[[[-71.058008,42.352905],[-71.05799,42.352892],[-71.057917,42.352912],[-71.057935,42.352925],[-71.058008,42.352905]]],[[[-71.057803,42.350693],[-71.057756,42.350683],[-71.057747,42.350665],[-71.057667,42.350684],[-71.057714,42.350694],[-71.057723,42.350712],[-71.057803,42.350693]]],[[[-71.05775,42.352226],[-71.057724,42.352207],[-71.057645,42.352217],[-71.057621,42.352243],[-71.057645,42.352255],[-71.057724,42.352245],[-71.05775,42.352226]]],[[[-71.057623,42.35219],[-71.057594,42.352168],[-71.05752,42.352178],[-71.057534,42.352153],[-71.05752,42.352142],[-71.057453,42.352148],[-71.05744,42.352122],[-71.057327,42.352143],[-71.057341,42.352168],[-71.057407,42.352162],[-71.057421,42.352188],[-71.0575,42.35218],[-71.057482,42.3522],[-71.0575,42.35222],[-71.057605,42.35221],[-71.057623,42.35219]]],[[[-71.057414,42.350403],[-71.057396,42.35039],[-71.057323,42.35041],[-71.057341,42.350423],[-71.057414,42.350403]]],[[[-71.057398,42.350494],[-71.05738,42.350481],[-71.057307,42.350501],[-71.057325,42.350514],[-71.057398,42.350494]]],[[[-71.057369,42.35211],[-71.05734,42.352088],[-71.057246,42.3521],[-71.057228,42.35212],[-71.057257,42.352142],[-71.057351,42.35213],[-71.057369,42.35211]]],[[[-71.057348,42.351707],[-71.05733,42.351694],[-71.057253,42.351714],[-71.057271,42.351728],[-71.057348,42.351707]]],[[[-71.057338,42.35175],[-71.05732,42.351737],[-71.057247,42.351757],[-71.057265,42.35177],[-71.057338,42.35175]]],[[[-71.057309,42.351897],[-71.057291,42.351884],[-71.057218,42.351904],[-71.057236,42.351917],[-71.057309,42.351897]]],[[[-71.057298,42.351955],[-71.05728,42.351942],[-71.057211,42.351961],[-71.057229,42.351975],[-71.057298,42.351955]]],[[[-71.057298,42.350925],[-71.05728,42.350912],[-71.057199,42.350933],[-71.057217,42.350946],[-71.057298,42.350925]]],[[[-71.057268,42.351063],[-71.05725,42.35105],[-71.057169,42.351071],[-71.057187,42.351084],[-71.057268,42.351063]]],[[[-71.057208,42.35141],[-71.05719,42.351397],[-71.057117,42.351417],[-71.057135,42.35143],[-71.057208,42.35141]]],[[[-71.057198,42.35055],[-71.05718,42.350537],[-71.057107,42.350557],[-71.057125,42.35057],[-71.057198,42.35055]]],[[[-71.057147,42.350632],[-71.057129,42.350619],[-71.057056,42.350639],[-71.057074,42.350652],[-71.057147,42.350632]]],[[[-71.057094,42.350533],[-71.057076,42.35052],[-71.057003,42.35054],[-71.057021,42.350553],[-71.057094,42.350533]]],[[[-71.057038,42.34984],[-71.05702,42.349827],[-71.056947,42.349847],[-71.056965,42.34986],[-71.057038,42.34984]]],[[[-71.057022,42.349903],[-71.05699,42.349879],[-71.056903,42.34989],[-71.056873,42.349905],[-71.056873,42.349923],[-71.056903,42.349938],[-71.05699,42.349927],[-71.057022,42.349903]]],[[[-71.056868,42.352028],[-71.05685,42.352015],[-71.056765,42.352036],[-71.056783,42.35205],[-71.056868,42.352028]]],[[[-71.056834,42.35023],[-71.056816,42.350217],[-71.056743,42.350237],[-71.056761,42.35025],[-71.056834,42.35023]]],[[[-71.056829,42.34976],[-71.05679,42.349731],[-71.05668,42.349745],[-71.056656,42.349772],[-71.056695,42.349801],[-71.056805,42.349787],[-71.056829,42.34976]]],[[[-71.056798,42.350307],[-71.05678,42.350294],[-71.056707,42.350314],[-71.056725,42.350327],[-71.056798,42.350307]]],[[[-71.056792,42.34984],[-71.05676,42.349816],[-71.056673,42.349827],[-71.056643,42.349842],[-71.056643,42.34986],[-71.056673,42.349875],[-71.05676,42.349864],[-71.056792,42.34984]]],[[[-71.056774,42.349915],[-71.056759,42.34989],[-71.056725,42.349879],[-71.056613,42.349893],[-71.056583,42.349927],[-71.056597,42.349952],[-71.056632,42.349963],[-71.056744,42.349948],[-71.056774,42.349915]]],[[[-71.056748,42.351994],[-71.05673,42.351981],[-71.056649,42.352002],[-71.056667,42.352015],[-71.056748,42.351994]]],[[[-71.056729,42.350006],[-71.056714,42.349981],[-71.05668,42.34997],[-71.056568,42.349984],[-71.056538,42.350018],[-71.056552,42.350043],[-71.056587,42.350054],[-71.056699,42.350039],[-71.056729,42.350006]]],[[[-71.056659,42.350094],[-71.05663,42.350072],[-71.056536,42.350084],[-71.056518,42.350104],[-71.056547,42.350126],[-71.056641,42.350114],[-71.056659,42.350094]]],[[[-71.056643,42.350613],[-71.056625,42.3506],[-71.05654,42.350621],[-71.056558,42.350635],[-71.056643,42.350613]]],[[[-71.056626,42.353203],[-71.0566,42.353184],[-71.056521,42.353194],[-71.056497,42.35322],[-71.056521,42.353232],[-71.0566,42.353222],[-71.056626,42.353203]]],[[[-71.056622,42.350185],[-71.05659,42.350161],[-71.056503,42.350172],[-71.056473,42.350187],[-71.056473,42.350205],[-71.056503,42.35022],[-71.05659,42.350209],[-71.056622,42.350185]]],[[[-71.056608,42.35068],[-71.05659,42.350667],[-71.056505,42.350688],[-71.056523,42.350702],[-71.056608,42.35068]]],[[[-71.056559,42.353165],[-71.05654,42.353151],[-71.05645,42.353174],[-71.056469,42.353188],[-71.056559,42.353165]]],[[[-71.056559,42.350834],[-71.056544,42.350809],[-71.05651,42.350798],[-71.056398,42.350812],[-71.056368,42.350846],[-71.056382,42.350871],[-71.056417,42.350882],[-71.056529,42.350867],[-71.056559,42.350834]]],[[[-71.056484,42.353127],[-71.056465,42.353113],[-71.056375,42.353136],[-71.056394,42.35315],[-71.056484,42.353127]]],[[[-71.056468,42.35192],[-71.05645,42.351907],[-71.056365,42.351928],[-71.056383,42.351942],[-71.056468,42.35192]]],[[[-71.056428,42.35103],[-71.05641,42.351017],[-71.056337,42.351037],[-71.056355,42.35105],[-71.056428,42.35103]]],[[[-71.056398,42.351097],[-71.05638,42.351084],[-71.056295,42.351105],[-71.056313,42.351119],[-71.056398,42.351097]]],[[[-71.056393,42.35309],[-71.05637,42.353073],[-71.056295,42.353083],[-71.056272,42.353099],[-71.056295,42.353116],[-71.05637,42.353107],[-71.056393,42.35309]]],[[[-71.056388,42.3519],[-71.05637,42.351887],[-71.056301,42.351906],[-71.056319,42.35192],[-71.056388,42.3519]]],[[[-71.056364,42.351176],[-71.056346,42.351163],[-71.056273,42.351183],[-71.056291,42.351196],[-71.056364,42.351176]]],[[[-71.056338,42.35493],[-71.05632,42.354917],[-71.056235,42.354938],[-71.056253,42.354952],[-71.056338,42.35493]]],[[[-71.056328,42.354836],[-71.05631,42.354823],[-71.056225,42.354844],[-71.056243,42.354858],[-71.056328,42.354836]]],[[[-71.056309,42.35475],[-71.05629,42.354736],[-71.0562,42.354759],[-71.056219,42.354773],[-71.056309,42.35475]]],[[[-71.056306,42.35467],[-71.05628,42.354651],[-71.056201,42.354661],[-71.056177,42.354687],[-71.056201,42.354699],[-71.05628,42.354689],[-71.056306,42.35467]]],[[[-71.056258,42.351376],[-71.05624,42.351363],[-71.056163,42.351383],[-71.056181,42.351397],[-71.056258,42.351376]]],[[[-71.056256,42.350842],[-71.056238,42.350829],[-71.056153,42.35085],[-71.056171,42.350864],[-71.056256,42.350842]]],[[[-71.056248,42.35305],[-71.05623,42.353037],[-71.056157,42.353057],[-71.056175,42.35307],[-71.056248,42.35305]]],[[[-71.056239,42.351411],[-71.056221,42.351398],[-71.056144,42.351418],[-71.056162,42.351432],[-71.056239,42.351411]]],[[[-71.056226,42.350933],[-71.056208,42.35092],[-71.056123,42.350941],[-71.056141,42.350955],[-71.056226,42.350933]]],[[[-71.056208,42.35145],[-71.05619,42.351437],[-71.056113,42.351457],[-71.056131,42.351471],[-71.056208,42.35145]]],[[[-71.056186,42.351036],[-71.056168,42.351023],[-71.056083,42.351044],[-71.056101,42.351058],[-71.056186,42.351036]]],[[[-71.056148,42.351145],[-71.05613,42.351132],[-71.056045,42.351153],[-71.056063,42.351167],[-71.056148,42.351145]]],[[[-71.056078,42.35171],[-71.05606,42.351697],[-71.055983,42.351717],[-71.056001,42.351731],[-71.056078,42.35171]]],[[[-71.055977,42.351355],[-71.055959,42.351342],[-71.055874,42.351363],[-71.055892,42.351377],[-71.055977,42.351355]]],[[[-71.055953,42.351412],[-71.055935,42.351399],[-71.05585,42.35142],[-71.055868,42.351434],[-71.055953,42.351412]]],[[[-71.05592,42.351482],[-71.055902,42.351469],[-71.055817,42.35149],[-71.055835,42.351504],[-71.05592,42.351482]]],[[[-71.055888,42.351561],[-71.05587,42.351548],[-71.055785,42.351569],[-71.055803,42.351583],[-71.055888,42.351561]]],[[[-71.055869,42.352226],[-71.055854,42.352201],[-71.05582,42.35219],[-71.055708,42.352204],[-71.055682,42.352224],[-71.055682,42.352251],[-71.055648,42.352274],[-71.055648,42.352301],[-71.055693,42.352324],[-71.055805,42.352309],[-71.055869,42.352226]]],[[[-71.055859,42.351622],[-71.055841,42.351609],[-71.055756,42.35163],[-71.055774,42.351644],[-71.055859,42.351622]]],[[[-71.055808,42.351727],[-71.05579,42.351714],[-71.055705,42.351735],[-71.055723,42.351749],[-71.055808,42.351727]]],[[[-71.055788,42.353336],[-71.055756,42.353312],[-71.055669,42.353323],[-71.055639,42.353338],[-71.055639,42.353356],[-71.055669,42.353371],[-71.055756,42.35336],[-71.055788,42.353336]]],[[[-71.055788,42.351776],[-71.05577,42.351763],[-71.055685,42.351784],[-71.055703,42.351798],[-71.055788,42.351776]]],[[[-71.055724,42.353394],[-71.055695,42.353372],[-71.055601,42.353384],[-71.055583,42.353404],[-71.055591,42.35342],[-71.055536,42.353439],[-71.055555,42.353453],[-71.055626,42.353444],[-71.055724,42.353394]]],[[[-71.055558,42.353497],[-71.05554,42.353484],[-71.055473,42.353492],[-71.05546,42.353515],[-71.055403,42.353537],[-71.055421,42.353551],[-71.05548,42.353543],[-71.055493,42.35352],[-71.055558,42.353497]]],[[[-71.055262,42.353653],[-71.055244,42.35364],[-71.055116,42.353662],[-71.055072,42.353709],[-71.055095,42.353726],[-71.05517,42.353717],[-71.055231,42.353687],[-71.055262,42.353653]]]]},"properties":{"kind":"tree"}}]}