{"type":"FeatureCollection","features":[{"type":"Feature","geometry":{"type":"MultiPolygon","coordinates":[[[[-71.06703,42.351826],[-71.067007,42.351692],[-71.066747,42.351106],[-71.065954,42.351044],[-71.06466,42.351196],[-71.062819,42.351033],[-71.062298,42.350942],[-71.062097,42.350926],[-71.062111,42.350892],[-71.062092,42.350886],[-71.061597,42.350765],[-71.061356,42.350746],[-71.06136,42.350735],[-71.061295,42.350688],[-71.060899,42.350587],[-71.060734,42.350574],[-71.060747,42.35054],[-71.060472,42.350463],[-71.06009,42.350433],[-71.060116,42.350367],[-71.059867,42.350296],[-71.059502,42.350267],[-71.059429,42.35047],[-71.059471,42.35048],[-71.059446,42.350552],[-71.059623,42.35059],[-71.059611,42.35062],[-71.05988,42.350673],[-71.059823,42.350792],[-71.059799,42.35079],[-71.059645,42.351142],[-71.060132,42.351247],[-71.060122,42.35127],[-71.060583,42.351373],[-71.060935,42.3514],[-71.060925,42.351452],[-71.06025,42.351391],[-71.060234,42.351369],[-71.060193,42.351358],[-71.059758,42.351262],[-71.059295,42.351226],[-71.059246,42.351355],[-71.059256,42.351415],[-71.059226,42.351418],[-71.059255,42.351595],[-71.059337,42.351601],[-71.059374,42.351784],[-71.059103,42.351763],[-71.058863,42.351807],[-71.058889,42.351985],[-71.058055,42.35192],[-71.058115,42.351737],[-71.058103,42.35172],[-71.057355,42.351608],[-71.056886,42.351571],[-71.056737,42.351505],[-71.057386,42.351566],[-71.057612,42.35161],[-71.057998,42.351641],[-71.05799,42.35166],[-71.058186,42.351703],[-71.058558,42.351732],[-71.058746,42.351554],[-71.05886,42.351417],[-71.05899,42.351213],[-71.059038,42.351101],[-71.058633,42.351011],[-71.058399,42.350993],[-71.058414,42.350953],[-71.057558,42.350757],[-71.057311,42.350738],[-71.05732,42.350691],[-71.05694,42.350597],[-71.05647,42.35056],[-71.056285,42.350582],[-71.056372,42.350406],[-71.056789,42.350509],[-71.056914,42.350519],[-71.056905,42.350562],[-71.057055,42.350598],[-71.057229,42.350611],[-71.057597,42.350701],[-71.058022,42.350759],[-71.058244,42.350813],[-71.058239,42.350826],[-71.058271,42.350862],[-71.058693,42.350956],[-71.059143,42.350991],[-71.059198,42.350975],[-71.059504,42.350218],[-71.059471,42.35018],[-71.059047,42.350086],[-71.058772,42.350064],[-71.058776,42.350034],[-71.058285,42.349938],[-71.058289,42.349924],[-71.057874,42.34983],[-71.057494,42.3498],[-71.057505,42.349748],[-71.057133,42.349667],[-71.056673,42.349631],[-71.056722,42.349423],[-71.057176,42.349459],[-71.057157,42.349505],[-71.05775,42.349653],[-71.058297,42.349696],[-71.058424,42.349376],[-71.057926,42.349266],[-71.057728,42.34925],[-71.057703,42.349314],[-71.057249,42.349279],[-71.057207,42.349381],[-71.056741,42.349344],[-71.056775,42.349199],[-71.056596,42.349149],[-71.056194,42.349117],[-71.055544,42.349303],[-71.056683,42.347603],[-71.056673,42.347544],[-71.055908,42.347262],[-71.055525,42.347232],[-71.054435,42.348853],[-71.054099,42.349198],[-71.054066,42.349248],[-71.054057,42.349379],[-71.053796,42.349359],[-71.052826,42.350802],[-71.053407,42.351017],[-71.053885,42.351054],[-71.054164,42.351157],[-71.054337,42.351171],[-71.0548,42.350482],[-71.054985,42.350618],[-71.05515,42.350668],[-71.055586,42.350703],[-71.056172,42.350686],[-71.05609,42.350851],[-71.056456,42.350941],[-71.056029,42.350908],[-71.055887,42.351209],[-71.056163,42.351321],[-71.05547,42.351266],[-71.055336,42.351532],[-71.05488,42.351496],[-71.053861,42.35173],[-71.053732,42.351862],[-71.052334,42.351752],[-71.052045,42.351857],[-71.051968,42.352021],[-71.052562,42.35217],[-71.054939,42.352357],[-71.055012,42.352501],[-71.055003,42.352585],[-71.05508,42.352591],[-71.055076,42.35262],[-71.055448,42.35265],[-71.055436,42.352725],[-71.055674,42.352744],[-71.05565,42.352757],[-71.055386,42.352745],[-71.055375,42.352818],[-71.055392,42.35282],[-71.055353,42.352881],[-71.055369,42.352963],[-71.055356,42.352962],[-71.055345,42.353027],[-71.05482,42.352985],[-71.054581,42.353113],[-71.05459,42.353145],[-71.054579,42.353151],[-71.054593,42.353157],[-71.054609,42.353218],[-71.05494,42.353356],[-71.054895,42.353429],[-71.054625,42.353408],[-71.054607,42.353436],[-71.054465,42.353514],[-71.05442,42.353563],[-71.054487,42.353631],[-71.054413,42.353753],[-71.054496,42.353782],[-71.054459,42.353802],[-71.054485,42.353829],[-71.054397,42.353865],[-71.052221,42.353693],[-71.052163,42.353702],[-71.051778,42.353905],[-71.051742,42.353956],[-71.051751,42.354],[-71.052019,42.354271],[-71.052689,42.354329],[-71.052857,42.354471],[-71.053941,42.354562],[-71.053934,42.354584],[-71.052212,42.354448],[-71.051755,42.354493],[-71.051861,42.355071],[-71.054138,42.35525],[-71.054157,42.355359],[-71.055803,42.355484],[-71.056258,42.35544],[-71.056364,42.355412],[-71.05631,42.355113],[-71.056566,42.355133],[-71.057181,42.355087],[-71.057463,42.355201],[-71.058664,42.355296],[-71.058743,42.35533],[-71.059228,42.355368],[-71.059541,42.355078],[-71.05961,42.355131],[-71.059911,42.355155],[-71.060209,42.355368],[-71.060481,42.355389],[-71.06075,42.355153],[-71.06083,42.35519],[-71.061373,42.355233],[-71.061527,42.355066],[-71.061764,42.355174],[-71.062184,42.355207],[-71.062263,42.355122],[-71.062302,42.355144],[-71.062579,42.355166],[-71.062608,42.355182],[-71.063118,42.355222],[-71.063177,42.355145],[-71.062958,42.355033],[-71.063211,42.355053],[-71.063255,42.355044],[-71.063852,42.353943],[-71.063862,42.353896],[-71.063609,42.353818],[-71.063068,42.353775],[-71.063892,42.353833],[-71.063998,42.353634],[-71.063768,42.353564],[-71.063647,42.353554],[-71.063668,42.353513],[-71.064052,42.353554],[-71.064097,42.353425],[-71.063651,42.353352],[-71.062899,42.353293],[-71.062452,42.353275],[-71.062449,42.353352],[-71.062393,42.353348],[-71.062413,42.353293],[-71.062415,42.35316],[-71.061566,42.353093],[-71.062074,42.353072],[-71.062128,42.353123],[-71.062188,42.353142],[-71.064146,42.353296],[-71.064309,42.35284],[-71.063838,42.352803],[-71.063839,42.352786],[-71.064309,42.352812],[-71.064353,42.352644],[-71.064373,42.352435],[-71.064339,42.352409],[-71.063509,42.352344],[-71.062879,42.352319],[-71.062537,42.352317],[-71.062535,42.352362],[-71.062023,42.352399],[-71.062023,42.352433],[-71.061643,42.352401],[-71.061761,42.35241],[-71.061926,42.35239],[-71.061924,42.352369],[-71.062206,42.352372],[-71.062481,42.35235],[-71.062499,42.352341],[-71.062554,42.352163],[-71.063567,42.352256],[-71.063992,42.352261],[-71.065081,42.352341],[-71.066063,42.352392],[-71.06608,42.35217],[-71.06627,42.352169],[-71.066295,42.351885],[-71.065928,42.351857],[-71.065934,42.351796],[-71.066847,42.351871],[-71.06703,42.351826]],[[-71.064474,42.351678],[-71.064009,42.351641],[-71.063998,42.351681],[-71.063901,42.351673],[-71.062895,42.351546],[-71.061091,42.351404],[-71.061105,42.351384],[-71.06138,42.351406],[-71.061671,42.351397],[-71.06203,42.351439],[-71.062253,42.351488],[-71.062728,42.351525],[-71.062735,42.351503],[-71.063478,42.351561],[-71.063897,42.351617],[-71.064432,42.351659],[-71.064474,42.351678]],[[-71.064121,42.351325],[-71.064095,42.351332],[-71.064098,42.351322],[-71.064121,42.351325]],[[-71.063049,42.351932],[-71.063044,42.351969],[-71.062612,42.351928],[-71.06262,42.351898],[-71.063049,42.351932]],[[-71.062551,42.353976],[-71.062358,42.353953],[-71.062484,42.353957],[-71.062551,42.353976]],[[-71.061949,42.353737],[-71.061865,42.353837],[-71.061602,42.353709],[-71.061949,42.353737]],[[-71.061812,42.350939],[-71.061808,42.35095],[-71.061715,42.350931],[-71.061812,42.350939]],[[-71.061716,42.352177],[-71.061474,42.352169],[-71.06131,42.352199],[-71.061331,42.352296],[-71.06127,42.352336],[-71.061277,42.352382],[-71.061101,42.352368],[-71.061125,42.352254],[-71.061113,42.352112],[-71.061714,42.352159],[-71.061716,42.352177]],[[-71.061475,42.350889],[-71.061253,42.350871],[-71.061189,42.351063],[-71.060769,42.350979],[-71.060574,42.350964],[-71.06065,42.350773],[-71.060773,42.3508],[-71.061296,42.35085],[-71.061475,42.350889]],[[-71.060082,42.352499],[-71.060077,42.352569],[-71.059815,42.352589],[-71.059835,42.352714],[-71.0598,42.352827],[-71.060069,42.35296],[-71.060061,42.352969],[-71.059657,42.352762],[-71.059341,42.352737],[-71.059318,42.352574],[-71.058902,42.352524],[-71.056937,42.352369],[-71.057,42.352232],[-71.056202,42.352031],[-71.055592,42.351983],[-71.055657,42.351851],[-71.056,42.35194],[-71.056647,42.351991],[-71.057014,42.352106],[-71.056968,42.352208],[-71.057472,42.352297],[-71.060082,42.352499]],[[-71.059688,42.35211],[-71.059672,42.352113],[-71.059672,42.352109],[-71.059688,42.35211]],[[-71.059017,42.353271],[-71.058947,42.353347],[-71.05859,42.353324],[-71.058574,42.353339],[-71.056881,42.353211],[-71.056727,42.353226],[-71.056682,42.353374],[-71.056648,42.353371],[-71.05666,42.353366],[-71.056638,42.353263],[-71.056282,42.353116],[-71.05799,42.353263],[-71.059017,42.353271]],[[-71.058852,42.354269],[-71.058783,42.354331],[-71.05868,42.354256],[-71.058852,42.354269]],[[-71.058055,42.350221],[-71.058041,42.350272],[-71.057837,42.350252],[-71.05785,42.350204],[-71.058055,42.350221]],[[-71.057929,42.353822],[-71.057803,42.353812],[-71.057834,42.35376],[-71.057929,42.353822]],[[-71.05776,42.353712],[-71.057588,42.353654],[-71.057479,42.353645],[-71.057493,42.353622],[-71.057657,42.353635],[-71.05776,42.353712]],[[-71.057596,42.354673],[-71.05758,42.354689],[-71.057216,42.35466],[-71.057159,42.354715],[-71.057241,42.354879],[-71.05689,42.354747],[-71.056234,42.354695],[-71.056229,42.354666],[-71.056094,42.354605],[-71.055753,42.354578],[-71.056231,42.354504],[-71.056202,42.3544],[-71.056463,42.354421],[-71.056798,42.354388],[-71.056813,42.354373],[-71.05678,42.354188],[-71.057112,42.354214],[-71.057234,42.354255],[-71.057042,42.354541],[-71.057429,42.35466],[-71.057596,42.354673]]],[[[-71.066483,42.348529],[-71.06591,42.348462],[-71.065995,42.348064],[-71.065414,42.348011],[-71.06552,42.347941],[-71.065529,42.347903],[-71.065483,42.347819],[-71.065392,42.347805],[-71.065371,42.347781],[-71.065302,42.347776],[-71.065318,42.347764],[-71.065319,42.347677],[-71.065257,42.347643],[-71.064894,42.347587],[-71.06459,42.347563],[-71.064199,42.347759],[-71.064107,42.34797],[-71.064113,42.347947],[-71.063968,42.347919],[-71.063599,42.34789],[-71.063606,42.347866],[-71.063252,42.347827],[-71.06321,42.347979],[-71.062961,42.347921],[-71.062764,42.347905],[-71.062749,42.347942],[-71.062487,42.347919],[-71.062444,42.348033],[-71.062626,42.348076],[-71.062871,42.348095],[-71.06288,42.348073],[-71.063098,42.348094],[-71.063124,42.348064],[-71.063186,42.348069],[-71.063183,42.34808],[-71.06313,42.348076],[-71.063114,42.348135],[-71.062983,42.348125],[-71.062977,42.348139],[-71.06239,42.348085],[-71.062363,42.348153],[-71.063229,42.348263],[-71.063249,42.348194],[-71.063523,42.348235],[-71.063502,42.348312],[-71.063867,42.348368],[-71.064805,42.348442],[-71.064844,42.348384],[-71.06486,42.348323],[-71.064882,42.348318],[-71.064981,42.348431],[-71.064975,42.348457],[-71.065013,42.348469],[-71.0653,42.348486],[-71.065315,42.348539],[-71.065853,42.348602],[-71.066455,42.348649],[-71.066483,42.348529]],[[-71.064605,42.348161],[-71.064598,42.34816],[-71.064599,42.34816],[-71.064605,42.348161]],[[-71.062876,42.348035],[-71.062872,42.348047],[-71.062852,42.348033],[-71.062876,42.348035]]],[[[-71.066107,42.349483],[-71.066051,42.349385],[-71.065853,42.349369],[-71.065791,42.349389],[-71.065835,42.34947],[-71.065168,42.349409],[-71.065069,42.349425],[-71.065032,42.349596],[-71.064416,42.349501],[-71.063844,42.349456],[-71.063835,42.349486],[-71.063761,42.349475],[-71.063653,42.349372],[-71.063696,42.349342],[-71.063746,42.349213],[-71.063772,42.349073],[-71.063736,42.349067],[-71.063827,42.348879],[-71.063945,42.348463],[-71.063471,42.348401],[-71.063476,42.348381],[-71.062604,42.34825],[-71.062025,42.348188],[-71.062034,42.348165],[-71.061907,42.348129],[-71.061645,42.348108],[-71.061552,42.348339],[-71.061283,42.348298],[-71.06131,42.348233],[-71.061184,42.348198],[-71.061039,42.348187],[-71.061068,42.348118],[-71.061011,42.348097],[-71.059599,42.347986],[-71.059137,42.348628],[-71.059374,42.348685],[-71.06078,42.348796],[-71.060759,42.348879],[-71.060779,42.348894],[-71.060632,42.348883],[-71.060613,42.348931],[-71.060633,42.348935],[-71.060532,42.349217],[-71.060443,42.349109],[-71.060321,42.349063],[-71.058909,42.348952],[-71.058791,42.349215],[-71.058512,42.349937],[-71.058813,42.350031],[-71.059384,42.350076],[-71.059363,42.350127],[-71.059811,42.350253],[-71.060361,42.350296],[-71.060348,42.350328],[-71.060869,42.350446],[-71.06085,42.350494],[-71.061149,42.35057],[-71.061135,42.350634],[-71.061443,42.350685],[-71.065776,42.351025],[-71.065991,42.350995],[-71.065959,42.350666],[-71.065733,42.350648],[-71.065953,42.350615],[-71.06593,42.350327],[-71.065772,42.350315],[-71.0656,42.350325],[-71.0656,42.350335],[-71.065097,42.350283],[-71.065059,42.350428],[-71.065037,42.350426],[-71.065027,42.350469],[-71.065053,42.350472],[-71.065037,42.350587],[-71.065117,42.3506],[-71.064912,42.350584],[-71.065001,42.350248],[-71.064826,42.350187],[-71.06483,42.350172],[-71.065714,42.350233],[-71.065916,42.350219],[-71.065881,42.34989],[-71.065776,42.349769],[-71.065668,42.349761],[-71.065684,42.349688],[-71.065904,42.349705],[-71.066095,42.349646],[-71.066013,42.349501],[-71.066107,42.349483]],[[-71.063589,42.350166],[-71.06347,42.350359],[-71.063106,42.35033],[-71.063128,42.350252],[-71.063108,42.350182],[-71.063279,42.350187],[-71.0633,42.350143],[-71.063589,42.350166]],[[-71.062714,42.3488],[-71.062425,42.348727],[-71.062,42.348694],[-71.061911,42.348913],[-71.061875,42.348911],[-71.061852,42.348957],[-71.061889,42.348967],[-71.061867,42.349025],[-71.061891,42.349033],[-71.061851,42.34908],[-71.061833,42.349144],[-71.061983,42.349221],[-71.062076,42.349244],[-71.062076,42.349272],[-71.061808,42.349235],[-71.061839,42.34916],[-71.061725,42.349137],[-71.061783,42.348996],[-71.061682,42.348973],[-71.061778,42.348981],[-71.061867,42.348804],[-71.061895,42.34873],[-71.061814,42.348712],[-71.061887,42.348529],[-71.062036,42.348564],[-71.062017,42.34861],[-71.062705,42.348715],[-71.062696,42.34875],[-71.062714,42.3488]],[[-71.061823,42.349801],[-71.061805,42.349827],[-71.061821,42.349833],[-71.061751,42.349828],[-71.061764,42.349797],[-71.061823,42.349801]],[[-71.06151,42.349643],[-71.061508,42.34965],[-71.061486,42.349641],[-71.06151,42.349643]],[[-71.06125,42.348708],[-71.061238,42.348742],[-71.060913,42.348717],[-71.06082,42.348731],[-71.060799,42.348765],[-71.060858,42.348623],[-71.060939,42.348633],[-71.060933,42.348648],[-71.061168,42.348702],[-71.06125,42.348708]],[[-71.060758,42.349909],[-71.060714,42.349937],[-71.060509,42.349891],[-71.060316,42.349876],[-71.060261,42.349801],[-71.060367,42.349747],[-71.060517,42.349381],[-71.060474,42.349498],[-71.060563,42.349532],[-71.060461,42.349787],[-71.060758,42.349909]],[[-71.060567,42.349243],[-71.060563,42.349254],[-71.060547,42.349234],[-71.060567,42.349243]]],[[[-71.065565,42.354342],[-71.065554,42.354318],[-71.065521,42.354301],[-71.065315,42.354284],[-71.065265,42.354299],[-71.06525,42.354327],[-71.065257,42.354351],[-71.065287,42.354371],[-71.0655,42.35439],[-71.06555,42.354375],[-71.065565,42.354342]]],[[[-71.065421,42.352871],[-71.065196,42.352836],[-71.065179,42.352883],[-71.065205,42.352964],[-71.065378,42.352986],[-71.065421,42.352871]]],[[[-71.06533,42.348887],[-71.065323,42.348802],[-71.065279,42.348688],[-71.064844,42.348594],[-71.064198,42.348534],[-71.064191,42.348555],[-71.064139,42.34855],[-71.064103,42.348568],[-71.063986,42.348883],[-71.063939,42.348896],[-71.063892,42.349003],[-71.063916,42.349031],[-71.063822,42.349076],[-71.064071,42.349245],[-71.064653,42.349291],[-71.064829,42.349201],[-71.06492,42.349208],[-71.065182,42.349085],[-71.065279,42.349075],[-71.06533,42.348887]]],[[[-71.064727,42.352541],[-71.064583,42.352525],[-71.064548,42.352631],[-71.064692,42.352647],[-71.064727,42.352541]]],[[[-71.06461,42.353278],[-71.064463,42.35326],[-71.064429,42.35336],[-71.064576,42.35338],[-71.06461,42.353278]]],[[[-71.063935,42.354829],[-71.063794,42.354805],[-71.063771,42.354854],[-71.063912,42.354877],[-71.063935,42.354829]]],[[[-71.062446,42.347953],[-71.061926,42.347827],[-71.061794,42.347817],[-71.061866,42.34764],[-71.061712,42.347604],[-71.060808,42.347533],[-71.060662,42.347883],[-71.060651,42.347975],[-71.06077,42.348003],[-71.061674,42.348074],[-71.061721,42.347991],[-71.062411,42.348042],[-71.062446,42.347953]]],[[[-71.058071,42.348706],[-71.057613,42.348605],[-71.056594,42.348525],[-71.05651,42.348734],[-71.056969,42.348835],[-71.057988,42.348915],[-71.058071,42.348706]]]]},"properties":{"kind":"building"}},{"type":"Feature","geometry":{"type":"MultiPolygon","coordinates":[[[[-71.066058,42.353451],[-71.066047,42.35341],[-71.066015,42.353375],[-71.065912,42.353343],[-71.065524,42.353313],[-71.065468,42.353321],[-71.065421,42.353344],[-71.065385,42.353395],[-71.065355,42.353393],[-71.0654,42.353344],[-71.065405,42.353281],[-71.065477,42.353287],[-71.065547,42.353267],[-71.065824,42.353289],[-71.06586,42.353283],[-71.065911,42.353246],[-71.065911,42.353192],[-71.06586,42.353155],[-71.065885,42.353127],[-71.065981,42.353102],[-71.066007,42.353073],[-71.066016,42.353039],[-71.065995,42.352992],[-71.066039,42.352955],[-71.066048,42.352923],[-71.066021,42.352832],[-71.065942,42.352773],[-71.065763,42.352755],[-71.065724,42.352729],[-71.065617,42.352718],[-71.065658,42.352686],[-71.065658,42.352634],[-71.065976,42.352648],[-71.066016,42.352618],[-71.066022,42.352597],[-71.066,42.352558],[-71.065947,42.352542],[-71.065428,42.352497],[-71.065377,42.352513],[-71.065033,42.352484],[-71.064963,42.352505],[-71.064662,42.35249],[-71.064609,42.352529],[-71.064602,42.352556],[-71.064631,42.352607],[-71.064662,42.352623],[-71.065012,42.352653],[-71.065064,42.35264],[-71.065189,42.35265],[-71.065242,42.352699],[-71.065377,42.352712],[-71.065338,42.352759],[-71.065249,42.352752],[-71.065197,42.352765],[-71.065146,42.352742],[-71.064902,42.352728],[-71.064866,42.352768],[-71.064902,42.352807],[-71.064882,42.352836],[-71.064894,42.352859],[-71.064795,42.352871],[-71.064774,42.352908],[-71.06478,42.352928],[-71.06438,42.352897],[-71.064295,42.352923],[-71.06426,42.352986],[-71.064276,42.353028],[-71.064259,42.353076],[-71.06427,42.353118],[-71.064349,42.353176],[-71.064513,42.353193],[-71.064529,42.353215],[-71.064568,42.353228],[-71.064274,42.353221],[-71.064214,42.353265],[-71.064214,42.353327],[-71.064274,42.353371],[-71.064689,42.3534],[-71.064643,42.353421],[-71.064622,42.353458],[-71.064311,42.353436],[-71.06424,42.353458],[-71.06421,42.353511],[-71.064218,42.353539],[-71.064288,42.353582],[-71.064181,42.353573],[-71.064135,42.353587],[-71.064121,42.35364],[-71.064082,42.353691],[-71.064099,42.353723],[-71.064065,42.35376],[-71.064096,42.353796],[-71.063994,42.353815],[-71.063976,42.353835],[-71.063963,42.353923],[-71.063987,42.353966],[-71.064013,42.353979],[-71.064724,42.354055],[-71.06479,42.354022],[-71.064919,42.354025],[-71.064914,42.354063],[-71.064946,42.354086],[-71.06519,42.354107],[-71.065231,42.354095],[-71.065244,42.354047],[-71.065212,42.354024],[-71.065148,42.354018],[-71.065156,42.354009],[-71.065315,42.354018],[-71.065375,42.353988],[-71.065361,42.353936],[-71.065274,42.353919],[-71.065286,42.353896],[-71.065472,42.353898],[-71.065471,42.353937],[-71.06542,42.353961],[-71.06543,42.354],[-71.065683,42.354023],[-71.065709,42.354004],[-71.065709,42.353976],[-71.06576,42.353953],[-71.065749,42.353914],[-71.065585,42.353893],[-71.065596,42.353851],[-71.065568,42.353831],[-71.065404,42.353816],[-71.065416,42.353789],[-71.065567,42.353799],[-71.065621,42.353773],[-71.065608,42.353725],[-71.065506,42.353708],[-71.065532,42.353697],[-71.06555,42.353665],[-71.065512,42.353623],[-71.065258,42.353601],[-71.065215,42.353615],[-71.065197,42.353647],[-71.065215,42.353679],[-71.065327,42.353698],[-71.065288,42.353734],[-71.065103,42.353719],[-71.065055,42.353734],[-71.065035,42.35377],[-71.065055,42.353805],[-71.06518,42.353826],[-71.064995,42.353828],[-71.064952,42.353842],[-71.064938,42.353891],[-71.064972,42.353916],[-71.065028,42.353922],[-71.065018,42.353933],[-71.064922,42.353929],[-71.064885,42.353905],[-71.064783,42.353894],[-71.064737,42.353847],[-71.064633,42.353837],[-71.064588,42.3538],[-71.064388,42.353771],[-71.064383,42.353758],[-71.06443,42.353744],[-71.064444,42.353692],[-71.064478,42.353658],[-71.064478,42.353622],[-71.064443,42.353596],[-71.06467,42.353605],[-71.064724,42.353564],[-71.064727,42.353517],[-71.064951,42.353547],[-71.065004,42.353577],[-71.06506,42.353585],[-71.065448,42.353616],[-71.065551,42.353584],[-71.065587,42.353533],[-71.065912,42.353559],[-71.065968,42.353551],[-71.066015,42.353527],[-71.066047,42.353492],[-71.066058,42.353451]],[[-71.065239,42.352895],[-71.065168,42.352934],[-71.065149,42.352891],[-71.065173,42.352867],[-71.065239,42.352895]],[[-71.065113,42.3531],[-71.065067,42.353115],[-71.064973,42.353107],[-71.064934,42.353125],[-71.064928,42.353066],[-71.064865,42.353015],[-71.064837,42.35296],[-71.065103,42.352986],[-71.064969,42.352985],[-71.064927,42.353032],[-71.064969,42.353078],[-71.065113,42.3531]],[[-71.064932,42.353155],[-71.064923,42.353154],[-71.064929,42.353145],[-71.064932,42.353155]]],[[[-71.066046,42.354972],[-71.066004,42.354925],[-71.065733,42.354902],[-71.065685,42.354917],[-71.065665,42.354953],[-71.065707,42.354999],[-71.065978,42.355022],[-71.066026,42.355008],[-71.066046,42.354972]]],[[[-71.06602,42.354061],[-71.065996,42.354034],[-71.065804,42.354018],[-71.065769,42.354036],[-71.065671,42.354032],[-71.065641,42.354065],[-71.065671,42.354099],[-71.065889,42.354117],[-71.065996,42.354088],[-71.06602,42.354061]]],[[[-71.06597,42.354146],[-71.065947,42.354129],[-71.065808,42.354118],[-71.065785,42.354135],[-71.065808,42.354152],[-71.065947,42.354163],[-71.06597,42.354146]]],[[[-71.065865,42.354468],[-71.065855,42.354431],[-71.065785,42.354379],[-71.065347,42.354341],[-71.065255,42.35437],[-71.065217,42.354437],[-71.065255,42.354505],[-71.065297,42.354526],[-71.065735,42.354564],[-71.065827,42.354536],[-71.065865,42.354468]]],[[[-71.06583,42.348038],[-71.06579,42.347994],[-71.065528,42.347971],[-71.065482,42.347985],[-71.065463,42.348019],[-71.065503,42.348064],[-71.065765,42.348086],[-71.065811,42.348072],[-71.06583,42.348038]]],[[[-71.06579,42.34818],[-71.065756,42.348142],[-71.065532,42.348123],[-71.065548,42.34811],[-71.06553,42.348097],[-71.065429,42.348089],[-71.06541,42.348102],[-71.065519,42.348123],[-71.065482,42.348134],[-71.065465,42.348163],[-71.065499,42.348201],[-71.065735,42.348221],[-71.065774,42.348209],[-71.06579,42.34818]]],[[[-71.065738,42.348446],[-71.065702,42.348406],[-71.065458,42.348385],[-71.065417,42.348398],[-71.065401,42.348425],[-71.065321,42.348418],[-71.065298,42.348435],[-71.065321,42.348452],[-71.065458,42.348472],[-71.06568,42.348489],[-71.065721,42.348477],[-71.065738,42.348446]]],[[[-71.065728,42.348293],[-71.06571,42.34828],[-71.065609,42.348272],[-71.06559,42.348285],[-71.065609,42.348299],[-71.06571,42.348306],[-71.065728,42.348293]]],[[[-71.065683,42.354843],[-71.065674,42.354808],[-71.065607,42.354759],[-71.065483,42.354746],[-71.065444,42.354711],[-71.06535,42.354702],[-71.065327,42.354655],[-71.065232,42.354615],[-71.0651,42.354602],[-71.065098,42.354575],[-71.065065,42.35455],[-71.064811,42.354528],[-71.064768,42.354542],[-71.06475,42.354574],[-71.064627,42.354572],[-71.064649,42.354554],[-71.06465,42.354524],[-71.064899,42.354534],[-71.06497,42.354501],[-71.065029,42.3545],[-71.065062,42.354475],[-71.065062,42.354441],[-71.065029,42.354416],[-71.064776,42.354394],[-71.064616,42.354356],[-71.064381,42.354345],[-71.064399,42.354325],[-71.064696,42.354353],[-71.064759,42.354322],[-71.064923,42.354329],[-71.064955,42.354294],[-71.064923,42.354259],[-71.064451,42.354233],[-71.064403,42.354248],[-71.064367,42.354208],[-71.064285,42.354179],[-71.064526,42.354198],[-71.064567,42.354192],[-71.064618,42.354156],[-71.064648,42.354188],[-71.065041,42.354222],[-71.065095,42.354196],[-71.065082,42.354148],[-71.064819,42.354118],[-71.064632,42.354129],[-71.064625,42.354089],[-71.064567,42.354046],[-71.06402,42.354001],[-71.063945,42.354038],[-71.063939,42.354061],[-71.063959,42.3541],[-71.063865,42.354113],[-71.063844,42.35415],[-71.063773,42.354177],[-71.063741,42.354212],[-71.06373,42.354253],[-71.063762,42.354317],[-71.063704,42.354335],[-71.063683,42.354387],[-71.063594,42.354393],[-71.063547,42.354416],[-71.063515,42.354451],[-71.063504,42.354492],[-71.063515,42.354534],[-71.063547,42.354569],[-71.063594,42.354592],[-71.06406,42.354628],[-71.064089,42.354654],[-71.064137,42.354659],[-71.063998,42.354655],[-71.06395,42.354677],[-71.06391,42.354649],[-71.063596,42.354622],[-71.063536,42.354641],[-71.063518,42.354661],[-71.063348,42.35465],[-71.063303,42.354673],[-71.063313,42.354712],[-71.063491,42.354734],[-71.063485,42.35477],[-71.063288,42.35475],[-71.063253,42.354761],[-71.063239,42.354786],[-71.063253,42.354812],[-71.063288,42.354822],[-71.06346,42.354836],[-71.063494,42.354825],[-71.063508,42.354801],[-71.063827,42.354838],[-71.063882,42.354821],[-71.063901,42.354766],[-71.063956,42.354731],[-71.06399,42.354736],[-71.063985,42.354781],[-71.064023,42.35481],[-71.064303,42.354834],[-71.064354,42.354818],[-71.064369,42.354801],[-71.064369,42.354761],[-71.06433,42.354732],[-71.064264,42.354725],[-71.0644,42.354736],[-71.064451,42.354711],[-71.064439,42.354666],[-71.064363,42.354651],[-71.064514,42.354656],[-71.064573,42.3547],[-71.064784,42.354719],[-71.064784,42.354743],[-71.064692,42.35474],[-71.064658,42.354778],[-71.064607,42.354779],[-71.064607,42.354799],[-71.064714,42.354819],[-71.06498,42.354831],[-71.065021,42.354861],[-71.065092,42.354869],[-71.06514,42.354898],[-71.065187,42.354905],[-71.06556,42.354934],[-71.065647,42.354907],[-71.065683,42.354843]],[[-71.064568,42.354578],[-71.064535,42.354599],[-71.064457,42.35458],[-71.06446,42.35457],[-71.064568,42.354578]],[[-71.064319,42.354503],[-71.064182,42.354501],[-71.064141,42.354447],[-71.064105,42.354429],[-71.064112,42.35438],[-71.064264,42.354392],[-71.064257,42.35442],[-71.064231,42.354441],[-71.064231,42.354474],[-71.064263,42.354497],[-71.064319,42.354503]],[[-71.064159,42.354584],[-71.064155,42.354584],[-71.064156,42.354583],[-71.064159,42.354584]]],[[[-71.065598,42.348957],[-71.065486,42.348936],[-71.065468,42.34895],[-71.06558,42.34897],[-71.065598,42.348957]]],[[[-71.065588,42.351223],[-71.06557,42.35121],[-71.065454,42.3512],[-71.065435,42.351214],[-71.065454,42.351227],[-71.06557,42.351236],[-71.065588,42.351223]]],[[[-71.065562,42.349094],[-71.06545,42.349073],[-71.065432,42.349087],[-71.065544,42.349107],[-71.065562,42.349094]]],[[[-71.065559,42.349236],[-71.065529,42.349203],[-71.065338,42.349186],[-71.065303,42.349197],[-71.065289,42.349222],[-71.065319,42.349256],[-71.06551,42.349272],[-71.065544,42.349261],[-71.065559,42.349236]]],[[[-71.065552,42.348316],[-71.065514,42.348274],[-71.06526,42.348252],[-71.065217,42.348266],[-71.065199,42.348298],[-71.065237,42.34834],[-71.06549,42.348362],[-71.065534,42.348348],[-71.065552,42.348316]]],[[[-71.065433,42.34879],[-71.065403,42.348757],[-71.065212,42.34874],[-71.065177,42.348751],[-71.065163,42.348776],[-71.065193,42.34881],[-71.065384,42.348826],[-71.065418,42.348815],[-71.065433,42.34879]]],[[[-71.065396,42.34894],[-71.065374,42.348916],[-71.065191,42.3489],[-71.065155,42.348927],[-71.065177,42.348951],[-71.06536,42.348966],[-71.065396,42.34894]]],[[[-71.065379,42.34907],[-71.065349,42.349037],[-71.065131,42.349018],[-71.065096,42.349029],[-71.065082,42.349054],[-71.065112,42.349088],[-71.06533,42.349106],[-71.065364,42.349095],[-71.065379,42.34907]]],[[[-71.065368,42.35121],[-71.06535,42.351197],[-71.065241,42.351188],[-71.065149,42.351189],[-71.06513,42.351202],[-71.065149,42.351216],[-71.06525,42.351223],[-71.06535,42.351223],[-71.065368,42.35121]]],[[[-71.065176,42.35072],[-71.06515,42.350701],[-71.065003,42.350689],[-71.064979,42.350701],[-71.065003,42.350728],[-71.06515,42.350739],[-71.065176,42.35072]]],[[[-71.065151,42.350784],[-71.065125,42.350765],[-71.064978,42.350753],[-71.064954,42.350765],[-71.064978,42.350792],[-71.065125,42.350803],[-71.065151,42.350784]]],[[[-71.065129,42.350853],[-71.06511,42.350839],[-71.064979,42.350828],[-71.064959,42.350843],[-71.064979,42.350857],[-71.06511,42.350867],[-71.065129,42.350853]]],[[[-71.064944,42.35131],[-71.064926,42.351297],[-71.064817,42.351288],[-71.064799,42.351301],[-71.064817,42.351315],[-71.064926,42.351323],[-71.064944,42.35131]]],[[[-71.064911,42.354986],[-71.064903,42.354957],[-71.064847,42.354915],[-71.064479,42.354883],[-71.064406,42.354906],[-71.064376,42.35496],[-71.064406,42.355014],[-71.06444,42.355031],[-71.064807,42.355063],[-71.06488,42.35504],[-71.064911,42.354986]]],[[[-71.064857,42.348456],[-71.064839,42.348443],[-71.064738,42.348435],[-71.064719,42.348448],[-71.064738,42.348462],[-71.064839,42.348469],[-71.064857,42.348456]]],[[[-71.064624,42.351826],[-71.064606,42.351813],[-71.064505,42.351805],[-71.064486,42.351818],[-71.064505,42.351832],[-71.064606,42.351839],[-71.064624,42.351826]]],[[[-71.064621,42.348425],[-71.064603,42.348412],[-71.064502,42.348404],[-71.064483,42.348417],[-71.064502,42.348431],[-71.064603,42.348438],[-71.064621,42.348425]]],[[[-71.064568,42.352055],[-71.06455,42.352042],[-71.064441,42.352033],[-71.064423,42.352046],[-71.064441,42.35206],[-71.06455,42.352068],[-71.064568,42.352055]]],[[[-71.064564,42.352104],[-71.064545,42.35209],[-71.064414,42.352079],[-71.064394,42.352094],[-71.064414,42.352108],[-71.064545,42.352118],[-71.064564,42.352104]]],[[[-71.064548,42.35216],[-71.06453,42.352147],[-71.064429,42.352139],[-71.06441,42.352152],[-71.064429,42.352166],[-71.06453,42.352173],[-71.064548,42.35216]]],[[[-71.064436,42.348399],[-71.064418,42.348386],[-71.064317,42.348378],[-71.064298,42.348391],[-71.064317,42.348405],[-71.064418,42.348412],[-71.064436,42.348399]]],[[[-71.064238,42.350925],[-71.06422,42.350912],[-71.063757,42.35086],[-71.063718,42.350889],[-71.063742,42.350916],[-71.063934,42.350932],[-71.06405,42.350938],[-71.06408,42.350924],[-71.06422,42.350938],[-71.064238,42.350925]]],[[[-71.064209,42.34872],[-71.064186,42.348703],[-71.064047,42.348692],[-71.064024,42.348709],[-71.064047,42.348726],[-71.064186,42.348737],[-71.064209,42.34872]]],[[[-71.064168,42.34884],[-71.06415,42.348827],[-71.064026,42.348817],[-71.064008,42.34883],[-71.064026,42.348844],[-71.06415,42.348853],[-71.064168,42.34884]]],[[[-71.064088,42.3533],[-71.06392,42.353251],[-71.063781,42.35324],[-71.063758,42.353257],[-71.063781,42.353274],[-71.063939,42.353303],[-71.06407,42.353313],[-71.064088,42.3533]]],[[[-71.064049,42.35339],[-71.063917,42.353362],[-71.063786,42.353351],[-71.063768,42.353364],[-71.063826,42.353389],[-71.06403,42.353404],[-71.064049,42.35339]]],[[[-71.063998,42.35376],[-71.06398,42.353747],[-71.063856,42.353737],[-71.063838,42.35375],[-71.063856,42.353764],[-71.06398,42.353773],[-71.063998,42.35376]]],[[[-71.063922,42.353967],[-71.06389,42.353943],[-71.063728,42.35393],[-71.063698,42.353945],[-71.063705,42.353971],[-71.063728,42.353978],[-71.06389,42.353991],[-71.063922,42.353967]]],[[[-71.063915,42.348675],[-71.063896,42.348661],[-71.063765,42.34865],[-71.063745,42.348665],[-71.063765,42.348679],[-71.063896,42.348689],[-71.063915,42.348675]]],[[[-71.063893,42.348743],[-71.06387,42.348726],[-71.063731,42.348715],[-71.063708,42.348732],[-71.063731,42.348749],[-71.06387,42.34876],[-71.063893,42.348743]]],[[[-71.063879,42.34887],[-71.06386,42.348856],[-71.063729,42.348845],[-71.063709,42.34886],[-71.063729,42.348874],[-71.06386,42.348884],[-71.063879,42.34887]]],[[[-71.063873,42.348793],[-71.063855,42.34878],[-71.063754,42.348772],[-71.063735,42.348785],[-71.063754,42.348799],[-71.063855,42.348806],[-71.063873,42.348793]]],[[[-71.063821,42.349148],[-71.063803,42.349135],[-71.063702,42.349127],[-71.063683,42.34914],[-71.063702,42.349154],[-71.063803,42.349161],[-71.063821,42.349148]]],[[[-71.063816,42.35412],[-71.06379,42.354101],[-71.063643,42.354089],[-71.063619,42.354101],[-71.063643,42.354128],[-71.06379,42.354139],[-71.063816,42.35412]]],[[[-71.063808,42.348427],[-71.063707,42.348398],[-71.063599,42.348389],[-71.06358,42.348402],[-71.063682,42.348431],[-71.06379,42.34844],[-71.063808,42.348427]]],[[[-71.063768,42.349293],[-71.06375,42.34928],[-71.063649,42.349272],[-71.06363,42.349285],[-71.063649,42.349299],[-71.06375,42.349306],[-71.063768,42.349293]]],[[[-71.063755,42.349335],[-71.063737,42.349322],[-71.063636,42.349314],[-71.063617,42.349327],[-71.063636,42.349341],[-71.063737,42.349348],[-71.063755,42.349335]]],[[[-71.063707,42.350883],[-71.063687,42.350861],[-71.063383,42.350834],[-71.063384,42.350819],[-71.06336,42.350807],[-71.063213,42.350795],[-71.063189,42.350807],[-71.063204,42.350832],[-71.06335,42.350844],[-71.063364,42.35087],[-71.063513,42.350894],[-71.063675,42.350907],[-71.063707,42.350883]]],[[[-71.063689,42.34976],[-71.06367,42.349746],[-71.063539,42.349735],[-71.063519,42.34975],[-71.063539,42.349764],[-71.06367,42.349774],[-71.063689,42.34976]]],[[[-71.063632,42.349854],[-71.063614,42.349841],[-71.06349,42.349831],[-71.063472,42.349844],[-71.06349,42.349858],[-71.063614,42.349867],[-71.063632,42.349854]]],[[[-71.063579,42.34995],[-71.06356,42.349936],[-71.063429,42.349925],[-71.063409,42.34994],[-71.063429,42.349954],[-71.06356,42.349964],[-71.063579,42.34995]]],[[[-71.063548,42.35],[-71.06353,42.349987],[-71.063406,42.349977],[-71.063388,42.34999],[-71.063406,42.350004],[-71.06353,42.350013],[-71.063548,42.35]]],[[[-71.063458,42.350418],[-71.06344,42.350405],[-71.063316,42.350395],[-71.063298,42.350408],[-71.063316,42.350422],[-71.06344,42.350431],[-71.063458,42.350418]]],[[[-71.063458,42.35018],[-71.06344,42.350167],[-71.063324,42.350157],[-71.063305,42.350171],[-71.063324,42.350184],[-71.06344,42.350193],[-71.063458,42.35018]]],[[[-71.063434,42.350487],[-71.063416,42.350474],[-71.0633,42.350464],[-71.063164,42.35046],[-71.063145,42.350474],[-71.063164,42.350487],[-71.06328,42.350496],[-71.063416,42.3505],[-71.063434,42.350487]]],[[[-71.063428,42.350246],[-71.06341,42.350233],[-71.063294,42.350223],[-71.063275,42.350237],[-71.063294,42.35025],[-71.06341,42.350259],[-71.063428,42.350246]]],[[[-71.063403,42.35055],[-71.063385,42.350537],[-71.063139,42.350513],[-71.06312,42.350527],[-71.063139,42.35054],[-71.063385,42.350563],[-71.063403,42.35055]]],[[[-71.063403,42.35028],[-71.063385,42.350267],[-71.063269,42.350257],[-71.06325,42.350271],[-71.063269,42.350284],[-71.063385,42.350293],[-71.063403,42.35028]]],[[[-71.063383,42.350765],[-71.063365,42.350745],[-71.0632,42.350731],[-71.063171,42.350753],[-71.063189,42.350773],[-71.063354,42.350787],[-71.063383,42.350765]]],[[[-71.063369,42.350704],[-71.06335,42.35069],[-71.063219,42.350679],[-71.063199,42.350694],[-71.063219,42.350708],[-71.06335,42.350718],[-71.063369,42.350704]]],[[[-71.063368,42.35061],[-71.06335,42.350597],[-71.063246,42.350588],[-71.063237,42.35057],[-71.063106,42.350559],[-71.063088,42.350572],[-71.063106,42.350586],[-71.063225,42.350595],[-71.063234,42.350614],[-71.06335,42.350623],[-71.063368,42.35061]]],[[[-71.063328,42.35044],[-71.06331,42.350427],[-71.063201,42.350418],[-71.063183,42.350431],[-71.063201,42.350445],[-71.06331,42.350453],[-71.063328,42.35044]]],[[[-71.063228,42.35063],[-71.06321,42.350617],[-71.063086,42.350607],[-71.063068,42.35062],[-71.063086,42.350634],[-71.06321,42.350643],[-71.063228,42.35063]]],[[[-71.063198,42.350677],[-71.063086,42.350656],[-71.063068,42.35067],[-71.06318,42.35069],[-71.063198,42.350677]]],[[[-71.063178,42.350727],[-71.06316,42.350714],[-71.063044,42.350704],[-71.063025,42.350718],[-71.063044,42.350731],[-71.06316,42.35074],[-71.063178,42.350727]]],[[[-71.063149,42.350765],[-71.06313,42.350751],[-71.062999,42.35074],[-71.062979,42.350755],[-71.062999,42.350769],[-71.06313,42.350779],[-71.063149,42.350765]]],[[[-71.063144,42.352238],[-71.063126,42.352225],[-71.063017,42.352216],[-71.062999,42.352229],[-71.062856,42.352231],[-71.062838,42.352244],[-71.062856,42.352258],[-71.062965,42.352266],[-71.063065,42.352263],[-71.063144,42.352238]]],[[[-71.062922,42.35222],[-71.062904,42.352207],[-71.062721,42.352193],[-71.062703,42.352206],[-71.062721,42.35222],[-71.062904,42.352233],[-71.062922,42.35222]]],[[[-71.062829,42.353302],[-71.06281,42.353288],[-71.062679,42.353277],[-71.062601,42.353278],[-71.062578,42.353295],[-71.062601,42.353312],[-71.06274,42.353323],[-71.062829,42.353302]]],[[[-71.062829,42.353214],[-71.06281,42.3532],[-71.062613,42.353182],[-71.062593,42.353197],[-71.062613,42.353211],[-71.06281,42.353228],[-71.062829,42.353214]]],[[[-71.062559,42.348354],[-71.062541,42.348334],[-71.062376,42.34832],[-71.062347,42.348342],[-71.062178,42.348332],[-71.062154,42.348359],[-71.062178,42.348386],[-71.06237,42.348402],[-71.062409,42.348373],[-71.06253,42.348376],[-71.062559,42.348354]]],[[[-71.062496,42.349373],[-71.06247,42.349344],[-71.062388,42.349337],[-71.062389,42.349311],[-71.062366,42.349294],[-71.062166,42.349277],[-71.062136,42.349286],[-71.062123,42.349308],[-71.06215,42.349337],[-71.062232,42.349345],[-71.062231,42.34937],[-71.062254,42.349387],[-71.062454,42.349404],[-71.062484,42.349395],[-71.062496,42.349373]]],[[[-71.062463,42.348557],[-71.06244,42.34854],[-71.062301,42.348529],[-71.062278,42.348546],[-71.062301,42.348563],[-71.06244,42.348574],[-71.062463,42.348557]]],[[[-71.062039,42.353752],[-71.06202,42.353738],[-71.061889,42.353727],[-71.061869,42.353742],[-71.061889,42.353756],[-71.06202,42.353766],[-71.062039,42.353752]]],[[[-71.062006,42.349306],[-71.061988,42.349293],[-71.061887,42.349285],[-71.061868,42.349298],[-71.061887,42.349312],[-71.061988,42.349319],[-71.062006,42.349306]]],[[[-71.061988,42.35386],[-71.06197,42.353847],[-71.061869,42.353839],[-71.06185,42.353852],[-71.061869,42.353866],[-71.06197,42.353873],[-71.061988,42.35386]]],[[[-71.061951,42.349438],[-71.061933,42.349425],[-71.061832,42.349417],[-71.061813,42.34943],[-71.061832,42.349444],[-71.061933,42.349451],[-71.061951,42.349438]]],[[[-71.061941,42.349548],[-71.061911,42.349515],[-71.06172,42.349498],[-71.061685,42.349509],[-71.061671,42.349534],[-71.061701,42.349568],[-71.061892,42.349584],[-71.061926,42.349573],[-71.061941,42.349548]]],[[[-71.061928,42.34988],[-71.06191,42.349867],[-71.061809,42.349859],[-71.06179,42.349872],[-71.061809,42.349886],[-71.06191,42.349893],[-71.061928,42.34988]]],[[[-71.061924,42.3537],[-71.061905,42.353686],[-71.061774,42.353675],[-71.061754,42.35369],[-71.061774,42.353704],[-71.061905,42.353714],[-71.061924,42.3537]]],[[[-71.061909,42.353825],[-71.06189,42.353811],[-71.061759,42.3538],[-71.061739,42.353815],[-71.061759,42.353829],[-71.06189,42.353839],[-71.061909,42.353825]]],[[[-71.061898,42.349926],[-71.06188,42.349913],[-71.061779,42.349905],[-71.06176,42.349918],[-71.061779,42.349932],[-71.06188,42.349939],[-71.061898,42.349926]]],[[[-71.061892,42.35],[-71.061874,42.349987],[-71.061773,42.349979],[-71.061754,42.349992],[-71.061773,42.350006],[-71.061874,42.350013],[-71.061892,42.35]]],[[[-71.061868,42.350044],[-71.06185,42.350031],[-71.061749,42.350023],[-71.06173,42.350036],[-71.061749,42.35005],[-71.06185,42.350057],[-71.061868,42.350044]]],[[[-71.061851,42.348312],[-71.061823,42.348281],[-71.061452,42.348245],[-71.06142,42.348224],[-71.061258,42.348211],[-71.061228,42.348226],[-71.061246,42.348257],[-71.061325,42.348265],[-71.061325,42.348296],[-71.061376,42.348321],[-71.061806,42.348346],[-71.061838,42.348336],[-71.061851,42.348312]]],[[[-71.061838,42.35008],[-71.06182,42.350067],[-71.061719,42.350059],[-71.0617,42.350072],[-71.061719,42.350086],[-71.06182,42.350093],[-71.061838,42.35008]]],[[[-71.061828,42.353783],[-71.06181,42.35377],[-71.061709,42.353762],[-71.06169,42.353775],[-71.061709,42.353789],[-71.06181,42.353796],[-71.061828,42.353783]]],[[[-71.061825,42.353653],[-71.061742,42.353634],[-71.061759,42.353607],[-71.061729,42.353574],[-71.061611,42.353563],[-71.061628,42.35355],[-71.06161,42.353537],[-71.061494,42.353527],[-71.061475,42.353541],[-71.061536,42.353558],[-71.061503,42.353568],[-71.061489,42.353593],[-71.061519,42.353627],[-71.061656,42.353639],[-71.061675,42.353657],[-71.061806,42.353667],[-71.061825,42.353653]]],[[[-71.061824,42.350155],[-71.061712,42.350134],[-71.061694,42.350148],[-71.061806,42.350168],[-71.061824,42.350155]]],[[[-71.061798,42.3502],[-71.06178,42.350187],[-71.061679,42.350179],[-71.06166,42.350192],[-71.061679,42.350206],[-71.06178,42.350213],[-71.061798,42.3502]]],[[[-71.061789,42.350292],[-71.061765,42.350265],[-71.061573,42.350249],[-71.061537,42.350267],[-71.061546,42.350298],[-71.061496,42.350307],[-71.061483,42.350331],[-71.061511,42.350362],[-71.06172,42.35038],[-71.061762,42.350359],[-71.061752,42.350322],[-71.061789,42.350292]]],[[[-71.06177,42.348421],[-71.061752,42.348408],[-71.061651,42.3484],[-71.061632,42.348413],[-71.061651,42.348427],[-71.061752,42.348434],[-71.06177,42.348421]]],[[[-71.061766,42.349666],[-71.061736,42.349633],[-71.061545,42.349616],[-71.06151,42.349627],[-71.061496,42.349652],[-71.061526,42.349686],[-71.061717,42.349702],[-71.061751,42.349691],[-71.061766,42.349666]]],[[[-71.061747,42.353738],[-71.061729,42.353725],[-71.061628,42.353717],[-71.061609,42.35373],[-71.061628,42.353744],[-71.061729,42.353751],[-71.061747,42.353738]]],[[[-71.061692,42.348648],[-71.061666,42.348619],[-71.061466,42.348602],[-71.061427,42.348622],[-71.061311,42.348624],[-71.061283,42.348655],[-71.061311,42.348686],[-71.06152,42.348704],[-71.061552,42.348694],[-71.061565,42.348672],[-71.061666,42.348677],[-71.061692,42.348648]]],[[[-71.06161,42.348837],[-71.061592,42.348824],[-71.061276,42.348808],[-71.061246,42.348817],[-71.061233,42.348839],[-71.06126,42.348868],[-71.06146,42.348885],[-71.06149,42.348876],[-71.061499,42.348843],[-71.061592,42.34885],[-71.06161,42.348837]]],[[[-71.061608,42.3485],[-71.06159,42.348487],[-71.061489,42.348479],[-71.06147,42.348492],[-71.061489,42.348506],[-71.06159,42.348513],[-71.061608,42.3485]]],[[[-71.061597,42.348184],[-71.061579,42.348171],[-71.061469,42.348162],[-71.061454,42.348118],[-71.06141,42.348104],[-71.06118,42.348086],[-71.061137,42.3481],[-71.061119,42.348132],[-71.061137,42.348164],[-71.06118,42.348178],[-71.06141,42.348196],[-71.06145,42.348184],[-71.061579,42.348197],[-71.061597,42.348184]]],[[[-71.061548,42.349568],[-71.061518,42.349535],[-71.061448,42.349528],[-71.061401,42.349498],[-71.061229,42.349484],[-71.061194,42.349495],[-71.06118,42.34952],[-71.06121,42.349554],[-71.061279,42.34956],[-71.061327,42.34959],[-71.061499,42.349604],[-71.061533,42.349593],[-71.061548,42.349568]]],[[[-71.061493,42.35095],[-71.06147,42.350933],[-71.061331,42.350922],[-71.061308,42.350939],[-71.061331,42.350956],[-71.06147,42.350967],[-71.061493,42.35095]]],[[[-71.061438,42.349255],[-71.061347,42.349236],[-71.061347,42.34922],[-71.06132,42.349206],[-71.061166,42.349194],[-71.061137,42.349216],[-71.061155,42.349236],[-71.061297,42.349258],[-71.06142,42.349268],[-71.061438,42.349255]]],[[[-71.061418,42.351122],[-71.0614,42.351109],[-71.061299,42.351101],[-71.06128,42.351114],[-71.061299,42.351128],[-71.0614,42.351135],[-71.061418,42.351122]]],[[[-71.061399,42.349052],[-71.06138,42.349038],[-71.061249,42.349027],[-71.061229,42.349042],[-71.061249,42.349056],[-71.06138,42.349066],[-71.061399,42.349052]]],[[[-71.061397,42.35118],[-71.061379,42.351167],[-71.061278,42.351159],[-71.061259,42.351172],[-71.061278,42.351186],[-71.061379,42.351193],[-71.061397,42.35118]]],[[[-71.061371,42.35124],[-71.061353,42.351227],[-71.061252,42.351219],[-71.061233,42.351232],[-71.061252,42.351246],[-71.061353,42.351253],[-71.061371,42.35124]]],[[[-71.061368,42.34943],[-71.06135,42.349417],[-71.061249,42.349409],[-71.06123,42.349422],[-71.061249,42.349436],[-71.06135,42.349443],[-71.061368,42.34943]]],[[[-71.061352,42.351289],[-71.061334,42.351276],[-71.061233,42.351268],[-71.061214,42.351281],[-71.061233,42.351295],[-71.061334,42.351302],[-71.061352,42.351289]]],[[[-71.061282,42.34963],[-71.061264,42.349617],[-71.061155,42.349608],[-71.061137,42.349621],[-71.061155,42.349635],[-71.061264,42.349643],[-71.061282,42.34963]]],[[[-71.061261,42.349678],[-71.061243,42.349665],[-71.061134,42.349656],[-71.061116,42.349669],[-71.061134,42.349683],[-71.061243,42.349691],[-71.061261,42.349678]]],[[[-71.061244,42.35337],[-71.061183,42.353353],[-71.061183,42.353334],[-71.061135,42.353328],[-71.061127,42.353308],[-71.061019,42.353299],[-71.061,42.353312],[-71.061054,42.353328],[-71.061062,42.353348],[-71.061111,42.353353],[-71.061125,42.353376],[-71.061226,42.353383],[-71.061244,42.35337]]],[[[-71.061238,42.354774],[-71.06122,42.354761],[-71.061119,42.354753],[-71.0611,42.354766],[-71.061119,42.35478],[-71.06122,42.354787],[-71.061238,42.354774]]],[[[-71.061222,42.34983],[-71.061196,42.349801],[-71.060996,42.349784],[-71.060966,42.349793],[-71.060953,42.349815],[-71.06098,42.349844],[-71.06118,42.349861],[-71.06121,42.349852],[-71.061222,42.34983]]],[[[-71.061188,42.354916],[-71.06117,42.354903],[-71.061069,42.354895],[-71.06105,42.354908],[-71.061069,42.354922],[-71.06117,42.354929],[-71.061188,42.354916]]],[[[-71.061156,42.35003],[-71.061124,42.349995],[-71.060897,42.349975],[-71.06086,42.349987],[-71.060845,42.350014],[-71.060877,42.350049],[-71.061104,42.350068],[-71.061141,42.350057],[-71.061156,42.35003]]],[[[-71.061048,42.353275],[-71.06103,42.353262],[-71.060914,42.353252],[-71.060895,42.353266],[-71.060914,42.353279],[-71.06103,42.353288],[-71.061048,42.353275]]],[[[-71.061038,42.34849],[-71.06102,42.348477],[-71.060919,42.348469],[-71.0609,42.348482],[-71.060919,42.348496],[-71.06102,42.348503],[-71.061038,42.34849]]],[[[-71.061032,42.348602],[-71.061,42.348567],[-71.060773,42.348547],[-71.060736,42.348559],[-71.060721,42.348586],[-71.060753,42.348621],[-71.06098,42.34864],[-71.061017,42.348629],[-71.061032,42.348602]]],[[[-71.061005,42.348717],[-71.060971,42.348679],[-71.060736,42.348659],[-71.060697,42.348671],[-71.06068,42.3487],[-71.060714,42.348738],[-71.06095,42.348758],[-71.060989,42.348746],[-71.061005,42.348717]]],[[[-71.060988,42.353363],[-71.06097,42.35335],[-71.060869,42.353342],[-71.06085,42.353355],[-71.060869,42.353369],[-71.06097,42.353376],[-71.060988,42.353363]]],[[[-71.060942,42.348827],[-71.060916,42.348798],[-71.060716,42.348781],[-71.060686,42.34879],[-71.060673,42.348812],[-71.0607,42.348841],[-71.0609,42.348858],[-71.06093,42.348849],[-71.060942,42.348827]]],[[[-71.060938,42.35322],[-71.06092,42.353207],[-71.060819,42.353199],[-71.0608,42.353212],[-71.060819,42.353226],[-71.06092,42.353233],[-71.060938,42.35322]]],[[[-71.060923,42.35333],[-71.060855,42.353313],[-71.060862,42.353302],[-71.060844,42.353289],[-71.060743,42.353281],[-71.060724,42.353294],[-71.060785,42.353311],[-71.060778,42.353321],[-71.060796,42.353335],[-71.060905,42.353343],[-71.060923,42.35333]]],[[[-71.060847,42.349174],[-71.060803,42.349125],[-71.060524,42.349101],[-71.060473,42.349117],[-71.060452,42.349154],[-71.060496,42.349203],[-71.060776,42.349227],[-71.060827,42.349211],[-71.060847,42.349174]]],[[[-71.060733,42.34939],[-71.060703,42.349357],[-71.060469,42.349321],[-71.06045,42.349334],[-71.060482,42.349349],[-71.060466,42.349388],[-71.06042,42.349399],[-71.060439,42.349413],[-71.060684,42.349426],[-71.060718,42.349415],[-71.060733,42.34939]]],[[[-71.060695,42.349506],[-71.060665,42.349473],[-71.060421,42.349431],[-71.060403,42.349444],[-71.060421,42.349458],[-71.060394,42.349489],[-71.060428,42.349524],[-71.060646,42.349542],[-71.06068,42.349531],[-71.060695,42.349506]]],[[[-71.060628,42.34926],[-71.06061,42.349247],[-71.060509,42.349239],[-71.06049,42.349252],[-71.060509,42.349266],[-71.06061,42.349273],[-71.060628,42.34926]]],[[[-71.060609,42.34967],[-71.060579,42.349637],[-71.060369,42.349619],[-71.060326,42.349629],[-71.060312,42.349654],[-71.060342,42.349688],[-71.06056,42.349706],[-71.060594,42.349695],[-71.060609,42.34967]]],[[[-71.060608,42.3493],[-71.06059,42.349287],[-71.060489,42.349279],[-71.06047,42.349292],[-71.060489,42.349306],[-71.06059,42.349313],[-71.060608,42.3493]]],[[[-71.060598,42.35304],[-71.06058,42.353027],[-71.060479,42.353019],[-71.06046,42.353032],[-71.060479,42.353046],[-71.06058,42.353053],[-71.060598,42.35304]]],[[[-71.060582,42.349792],[-71.06055,42.349757],[-71.060323,42.349737],[-71.060286,42.349749],[-71.060271,42.349776],[-71.060303,42.349811],[-71.06053,42.34983],[-71.060567,42.349819],[-71.060582,42.349792]]],[[[-71.060518,42.352997],[-71.060465,42.352981],[-71.060457,42.352962],[-71.060341,42.352952],[-71.060323,42.352965],[-71.060383,42.352982],[-71.060392,42.353001],[-71.0605,42.35301],[-71.060518,42.352997]]],[[[-71.060508,42.353283],[-71.06049,42.35327],[-71.060381,42.353261],[-71.060363,42.353274],[-71.060381,42.353288],[-71.06049,42.353296],[-71.060508,42.353283]]],[[[-71.060504,42.35315],[-71.060486,42.353137],[-71.060385,42.353129],[-71.060366,42.353142],[-71.060385,42.353156],[-71.060486,42.353163],[-71.060504,42.35315]]],[[[-71.060504,42.3496],[-71.060486,42.349587],[-71.060385,42.349579],[-71.060366,42.349592],[-71.060385,42.349606],[-71.060486,42.349613],[-71.060504,42.3496]]],[[[-71.060504,42.349556],[-71.060486,42.349543],[-71.060385,42.349535],[-71.060366,42.349548],[-71.060385,42.349562],[-71.060486,42.349569],[-71.060504,42.349556]]],[[[-71.060428,42.3531],[-71.060361,42.353083],[-71.060373,42.353075],[-71.060363,42.353058],[-71.060255,42.353049],[-71.060236,42.353062],[-71.060303,42.353079],[-71.060292,42.353087],[-71.060302,42.353104],[-71.06041,42.353113],[-71.060428,42.3531]]],[[[-71.060419,42.353405],[-71.060413,42.35337],[-71.060299,42.353359],[-71.060188,42.353364],[-71.060164,42.353391],[-71.060188,42.353418],[-71.06038,42.353434],[-71.060419,42.353405]]],[[[-71.060388,42.349884],[-71.06037,42.349871],[-71.060261,42.349862],[-71.060243,42.349875],[-71.060261,42.349889],[-71.06037,42.349897],[-71.060388,42.349884]]],[[[-71.060358,42.353447],[-71.06034,42.353434],[-71.060239,42.353426],[-71.06022,42.353439],[-71.060239,42.353453],[-71.06034,42.35346],[-71.060358,42.353447]]],[[[-71.060318,42.350037],[-71.0603,42.350024],[-71.060199,42.350016],[-71.06018,42.350029],[-71.060199,42.350043],[-71.0603,42.35005],[-71.060318,42.350037]]],[[[-71.060314,42.35015],[-71.060285,42.350118],[-71.060297,42.35011],[-71.060287,42.350093],[-71.060179,42.350084],[-71.060165,42.350106],[-71.060074,42.350103],[-71.060044,42.350136],[-71.060074,42.35017],[-71.060265,42.350186],[-71.060299,42.350175],[-71.060314,42.35015]]],[[[-71.060174,42.34947],[-71.06015,42.349443],[-71.059958,42.349427],[-71.059919,42.349456],[-71.059943,42.349483],[-71.060135,42.349499],[-71.060174,42.34947]]],[[[-71.060158,42.352962],[-71.06014,42.352949],[-71.060039,42.352941],[-71.06002,42.352954],[-71.060039,42.352968],[-71.06014,42.352975],[-71.060158,42.352962]]],[[[-71.060119,42.349556],[-71.060101,42.349536],[-71.059936,42.349522],[-71.059907,42.349544],[-71.059925,42.349564],[-71.06009,42.349578],[-71.060119,42.349556]]],[[[-71.060105,42.35341],[-71.060077,42.353379],[-71.059868,42.353361],[-71.059836,42.353371],[-71.059823,42.353395],[-71.059851,42.353426],[-71.06006,42.353444],[-71.060092,42.353434],[-71.060105,42.35341]]],[[[-71.060086,42.349644],[-71.060064,42.34962],[-71.059881,42.349604],[-71.059845,42.349631],[-71.059867,42.349655],[-71.06005,42.34967],[-71.060086,42.349644]]],[[[-71.059972,42.351044],[-71.059946,42.351015],[-71.059746,42.350998],[-71.059716,42.351007],[-71.059703,42.351029],[-71.05973,42.351058],[-71.05993,42.351075],[-71.05996,42.351066],[-71.059972,42.351044]]],[[[-71.059901,42.351135],[-71.059875,42.351116],[-71.059728,42.351104],[-71.059704,42.351116],[-71.059728,42.351143],[-71.059875,42.351154],[-71.059901,42.351135]]],[[[-71.059858,42.3533],[-71.059806,42.353284],[-71.059822,42.35326],[-71.059796,42.353231],[-71.059596,42.353214],[-71.059566,42.353223],[-71.059553,42.353245],[-71.05958,42.353274],[-71.059722,42.353287],[-71.059732,42.353304],[-71.05984,42.353313],[-71.059858,42.3533]]],[[[-71.059758,42.352753],[-71.059616,42.352717],[-71.059507,42.352708],[-71.059489,42.352721],[-71.059624,42.352757],[-71.05974,42.352766],[-71.059758,42.352753]]],[[[-71.059669,42.354954],[-71.059651,42.354934],[-71.059619,42.354931],[-71.059613,42.354903],[-71.059562,42.354868],[-71.059388,42.354853],[-71.059358,42.354868],[-71.059365,42.354894],[-71.059416,42.354929],[-71.059459,42.354934],[-71.059475,42.354962],[-71.05964,42.354976],[-71.059669,42.354954]]],[[[-71.059649,42.35171],[-71.059619,42.351677],[-71.059428,42.35166],[-71.059373,42.351688],[-71.059225,42.351676],[-71.059202,42.351693],[-71.059225,42.35171],[-71.0596,42.351746],[-71.059634,42.351735],[-71.059649,42.35171]]],[[[-71.059589,42.352783],[-71.059559,42.35275],[-71.059368,42.352733],[-71.059333,42.352744],[-71.059319,42.352769],[-71.059349,42.352803],[-71.05954,42.352819],[-71.059574,42.352808],[-71.059589,42.352783]]],[[[-71.059562,42.3516],[-71.059542,42.351578],[-71.059368,42.351563],[-71.059338,42.351578],[-71.059338,42.351596],[-71.059274,42.351598],[-71.059259,42.351623],[-71.05943,42.351646],[-71.059454,42.35162],[-71.059542,42.351622],[-71.059562,42.3516]]],[[[-71.059518,42.351097],[-71.0595,42.351084],[-71.059399,42.351076],[-71.05938,42.351089],[-71.059399,42.351103],[-71.0595,42.35111],[-71.059518,42.351097]]],[[[-71.059482,42.354813],[-71.059462,42.354791],[-71.059426,42.354787],[-71.059413,42.354738],[-71.059378,42.354709],[-71.059195,42.354693],[-71.059162,42.35471],[-71.05917,42.354738],[-71.059213,42.354747],[-71.059215,42.354778],[-71.059262,42.354787],[-71.059256,42.3548],[-71.059276,42.354822],[-71.05945,42.354837],[-71.059482,42.354813]]],[[[-71.059478,42.35117],[-71.05946,42.351157],[-71.059359,42.351149],[-71.05934,42.351162],[-71.059359,42.351176],[-71.05946,42.351183],[-71.059478,42.35117]]],[[[-71.059428,42.3531],[-71.05941,42.353087],[-71.059309,42.353079],[-71.05929,42.353092],[-71.059309,42.353106],[-71.05941,42.353113],[-71.059428,42.3531]]],[[[-71.059418,42.35301],[-71.0594,42.352997],[-71.059299,42.352989],[-71.05928,42.353002],[-71.059299,42.353016],[-71.0594,42.353023],[-71.059418,42.35301]]],[[[-71.059323,42.35178],[-71.0593,42.351763],[-71.059161,42.351752],[-71.059138,42.351769],[-71.059161,42.351786],[-71.0593,42.351797],[-71.059323,42.35178]]],[[[-71.059219,42.35129],[-71.059204,42.351265],[-71.059147,42.351252],[-71.059188,42.35124],[-71.059129,42.351197],[-71.058911,42.351178],[-71.058876,42.351189],[-71.058862,42.351214],[-71.058876,42.35124],[-71.058933,42.351252],[-71.058926,42.351288],[-71.058949,42.351306],[-71.058906,42.351316],[-71.058892,42.351341],[-71.058922,42.351375],[-71.059159,42.35139],[-71.059189,42.351357],[-71.059162,42.351325],[-71.059204,42.351315],[-71.059219,42.35129]]],[[[-71.059184,42.353294],[-71.059166,42.353281],[-71.058745,42.353247],[-71.058639,42.353247],[-71.05862,42.35326],[-71.058639,42.353274],[-71.058859,42.353278],[-71.05898,42.353296],[-71.059166,42.353307],[-71.059184,42.353294]]],[[[-71.059098,42.35146],[-71.05908,42.351447],[-71.058979,42.351439],[-71.05896,42.351452],[-71.058979,42.351466],[-71.05908,42.351473],[-71.059098,42.35146]]],[[[-71.059092,42.354385],[-71.05906,42.354361],[-71.058898,42.354348],[-71.058868,42.354363],[-71.058875,42.354389],[-71.058898,42.354396],[-71.05906,42.354409],[-71.059092,42.354385]]],[[[-71.059066,42.351517],[-71.05904,42.351498],[-71.058893,42.351486],[-71.058869,42.351498],[-71.058893,42.351525],[-71.05904,42.351536],[-71.059066,42.351517]]],[[[-71.059018,42.354332],[-71.059,42.354319],[-71.058899,42.354311],[-71.05888,42.354324],[-71.058899,42.354338],[-71.059,42.354345],[-71.059018,42.354332]]],[[[-71.059006,42.351604],[-71.058984,42.35158],[-71.058801,42.351564],[-71.058765,42.351591],[-71.058787,42.351615],[-71.05897,42.35163],[-71.059006,42.351604]]],[[[-71.058959,42.35429],[-71.05894,42.354276],[-71.058809,42.354265],[-71.058789,42.35428],[-71.058809,42.354294],[-71.05894,42.354304],[-71.058959,42.35429]]],[[[-71.058948,42.351646],[-71.05893,42.351633],[-71.058814,42.351623],[-71.058795,42.351637],[-71.058814,42.35165],[-71.05893,42.351659],[-71.058948,42.351646]]],[[[-71.058922,42.35169],[-71.05889,42.351666],[-71.058728,42.351653],[-71.058698,42.351668],[-71.058705,42.351694],[-71.058728,42.351701],[-71.05889,42.351714],[-71.058922,42.35169]]],[[[-71.058886,42.351738],[-71.058864,42.351714],[-71.058681,42.351698],[-71.058648,42.351715],[-71.058655,42.351742],[-71.058617,42.351742],[-71.058595,42.351767],[-71.058617,42.351791],[-71.0588,42.351806],[-71.058833,42.35179],[-71.058826,42.351762],[-71.058864,42.351762],[-71.058886,42.351738]]],[[[-71.058778,42.351826],[-71.05876,42.351813],[-71.058539,42.351802],[-71.0585,42.351831],[-71.058524,42.351858],[-71.058716,42.351874],[-71.058744,42.351865],[-71.058778,42.351826]]],[[[-71.058692,42.351906],[-71.058672,42.351884],[-71.058498,42.351869],[-71.058468,42.351884],[-71.05846,42.351925],[-71.05862,42.351947],[-71.058683,42.351923],[-71.058692,42.351906]]],[[[-71.058598,42.351967],[-71.05858,42.351954],[-71.058294,42.351942],[-71.058265,42.351965],[-71.058267,42.352027],[-71.058216,42.352035],[-71.058203,42.352059],[-71.058254,42.352101],[-71.058457,42.352105],[-71.058482,42.352087],[-71.058482,42.352061],[-71.058569,42.352026],[-71.058598,42.351967]]],[[[-71.058568,42.35253],[-71.05855,42.352517],[-71.058389,42.352503],[-71.058149,42.352491],[-71.05813,42.352504],[-71.058149,42.352518],[-71.05841,42.352541],[-71.05855,42.352543],[-71.058568,42.35253]]],[[[-71.058499,42.35248],[-71.05848,42.352466],[-71.058269,42.352449],[-71.058159,42.352446],[-71.05814,42.352459],[-71.058159,42.352473],[-71.05848,42.352494],[-71.058499,42.35248]]],[[[-71.058288,42.35091],[-71.058217,42.350892],[-71.058207,42.350875],[-71.058099,42.350866],[-71.05808,42.350879],[-71.058152,42.350897],[-71.058162,42.350914],[-71.05827,42.350923],[-71.058288,42.35091]]],[[[-71.058038,42.352665],[-71.05802,42.352652],[-71.057919,42.352644],[-71.0579,42.352657],[-71.057919,42.352671],[-71.05802,42.352678],[-71.058038,42.352665]]],[[[-71.058032,42.352768],[-71.058014,42.352755],[-71.057913,42.352747],[-71.057894,42.35276],[-71.057913,42.352774],[-71.058014,42.352781],[-71.058032,42.352768]]],[[[-71.058008,42.352905],[-71.05799,42.352892],[-71.057889,42.352884],[-71.05787,42.352897],[-71.057889,42.352911],[-71.05799,42.352918],[-71.058008,42.352905]]],[[[-71.057803,42.350693],[-71.05774,42.350664],[-71.057639,42.350656],[-71.05762,42.350669],[-71.057684,42.350699],[-71.057785,42.350706],[-71.057803,42.350693]]],[[[-71.05775,42.352226],[-71.057724,42.352207],[-71.057621,42.352199],[-71.057605,42.35217],[-71.057535,42.352164],[-71.05752,42.352142],[-71.057368,42.352116],[-71.057351,42.35209],[-71.057186,42.352076],[-71.057157,42.352098],[-71.057175,42.352118],[-71.057258,42.352125],[-71.057273,42.352146],[-71.057412,42.352171],[-71.057429,42.352198],[-71.057553,42.352208],[-71.057567,42.352232],[-71.057724,42.352245],[-71.05775,42.352226]]],[[[-71.057414,42.350403],[-71.057396,42.35039],[-71.057295,42.350382],[-71.057276,42.350395],[-71.057295,42.350409],[-71.057396,42.350416],[-71.057414,42.350403]]],[[[-71.057398,42.350494],[-71.05738,42.350481],[-71.057279,42.350473],[-71.05726,42.350486],[-71.057279,42.3505],[-71.05738,42.350507],[-71.057398,42.350494]]],[[[-71.057348,42.351707],[-71.05733,42.351694],[-71.057221,42.351685],[-71.057203,42.351698],[-71.057221,42.351712],[-71.05733,42.35172],[-71.057348,42.351707]]],[[[-71.057338,42.35175],[-71.05732,42.351737],[-71.057219,42.351729],[-71.0572,42.351742],[-71.057219,42.351756],[-71.05732,42.351763],[-71.057338,42.35175]]],[[[-71.057309,42.351897],[-71.057291,42.351884],[-71.05719,42.351876],[-71.057171,42.351889],[-71.05719,42.351903],[-71.057291,42.35191],[-71.057309,42.351897]]],[[[-71.057298,42.351955],[-71.057186,42.351934],[-71.057168,42.351948],[-71.05728,42.351968],[-71.057298,42.351955]]],[[[-71.057298,42.350925],[-71.05728,42.350912],[-71.057164,42.350902],[-71.057145,42.350916],[-71.057164,42.350929],[-71.05728,42.350938],[-71.057298,42.350925]]],[[[-71.057268,42.351063],[-71.05725,42.35105],[-71.057134,42.35104],[-71.057115,42.351054],[-71.057134,42.351067],[-71.05725,42.351076],[-71.057268,42.351063]]],[[[-71.057208,42.35141],[-71.05719,42.351397],[-71.057089,42.351389],[-71.05707,42.351402],[-71.057089,42.351416],[-71.05719,42.351423],[-71.057208,42.35141]]],[[[-71.057198,42.35055],[-71.057083,42.350521],[-71.056975,42.350512],[-71.056956,42.350525],[-71.057072,42.350554],[-71.05718,42.350563],[-71.057198,42.35055]]],[[[-71.057147,42.350632],[-71.057129,42.350619],[-71.057028,42.350611],[-71.057009,42.350624],[-71.057028,42.350638],[-71.057129,42.350645],[-71.057147,42.350632]]],[[[-71.057038,42.34984],[-71.05702,42.349827],[-71.056919,42.349819],[-71.0569,42.349832],[-71.056919,42.349846],[-71.05702,42.349853],[-71.057038,42.34984]]],[[[-71.057022,42.349903],[-71.05699,42.349879],[-71.056828,42.349866],[-71.056798,42.349881],[-71.056805,42.349907],[-71.056828,42.349914],[-71.05699,42.349927],[-71.057022,42.349903]]],[[[-71.056868,42.352028],[-71.05685,42.352015],[-71.056738,42.352006],[-71.056737,42.351982],[-71.056614,42.351971],[-71.056595,42.351985],[-71.056614,42.351998],[-71.056718,42.352007],[-71.056719,42.352031],[-71.05685,42.352041],[-71.056868,42.352028]]],[[[-71.056834,42.35023],[-71.056816,42.350217],[-71.056715,42.350209],[-71.056696,42.350222],[-71.056715,42.350236],[-71.056816,42.350243],[-71.056834,42.35023]]],[[[-71.056829,42.34976],[-71.056805,42.349733],[-71.056613,42.349717],[-71.056574,42.349746],[-71.056598,42.349773],[-71.05679,42.349789],[-71.056829,42.34976]]],[[[-71.056798,42.350307],[-71.05678,42.350294],[-71.056679,42.350286],[-71.05666,42.350299],[-71.056679,42.350313],[-71.05678,42.35032],[-71.056798,42.350307]]],[[[-71.056792,42.34984],[-71.05676,42.349816],[-71.056598,42.349803],[-71.056568,42.349818],[-71.056575,42.349844],[-71.056598,42.349851],[-71.05676,42.349864],[-71.056792,42.34984]]],[[[-71.056774,42.349915],[-71.056744,42.349882],[-71.056553,42.349865],[-71.056518,42.349876],[-71.056504,42.349901],[-71.056534,42.349935],[-71.056725,42.349951],[-71.056759,42.34994],[-71.056774,42.349915]]],[[[-71.056729,42.350006],[-71.056699,42.349973],[-71.056508,42.349956],[-71.056473,42.349967],[-71.056459,42.349992],[-71.056489,42.350026],[-71.05668,42.350042],[-71.056714,42.350031],[-71.056729,42.350006]]],[[[-71.056659,42.350094],[-71.056641,42.350074],[-71.056476,42.35006],[-71.056447,42.350082],[-71.056465,42.350102],[-71.05663,42.350116],[-71.056659,42.350094]]],[[[-71.056643,42.350613],[-71.056625,42.3506],[-71.056501,42.35059],[-71.056483,42.350603],[-71.056501,42.350617],[-71.056625,42.350626],[-71.056643,42.350613]]],[[[-71.056626,42.353203],[-71.0566,42.353184],[-71.056541,42.353179],[-71.056559,42.353165],[-71.05654,42.353151],[-71.056409,42.35314],[-71.056389,42.353155],[-71.056452,42.353172],[-71.056427,42.353191],[-71.056453,42.353211],[-71.0566,42.353222],[-71.056626,42.353203]]],[[[-71.056622,42.350185],[-71.05659,42.350161],[-71.056428,42.350148],[-71.056398,42.350163],[-71.056405,42.350189],[-71.056428,42.350196],[-71.05659,42.350209],[-71.056622,42.350185]]],[[[-71.056608,42.35068],[-71.05659,42.350667],[-71.056466,42.350657],[-71.056448,42.35067],[-71.056466,42.350684],[-71.05659,42.350693],[-71.056608,42.35068]]],[[[-71.056559,42.350834],[-71.056529,42.350801],[-71.056338,42.350784],[-71.056303,42.350795],[-71.056289,42.35082],[-71.056319,42.350854],[-71.05651,42.35087],[-71.056544,42.350859],[-71.056559,42.350834]]],[[[-71.056484,42.353127],[-71.056465,42.353113],[-71.056377,42.353106],[-71.056391,42.353096],[-71.056379,42.353074],[-71.056236,42.353063],[-71.056247,42.353055],[-71.056237,42.353038],[-71.056129,42.353029],[-71.05611,42.353042],[-71.056225,42.353063],[-71.056208,42.353079],[-71.056231,42.353096],[-71.056326,42.353103],[-71.056316,42.353122],[-71.056326,42.35313],[-71.056465,42.353141],[-71.056484,42.353127]]],[[[-71.056468,42.35192],[-71.05637,42.351887],[-71.056276,42.351879],[-71.056258,42.351893],[-71.056326,42.351924],[-71.05645,42.351933],[-71.056468,42.35192]]],[[[-71.056428,42.35103],[-71.05641,42.351017],[-71.056309,42.351009],[-71.05629,42.351022],[-71.056309,42.351036],[-71.05641,42.351043],[-71.056428,42.35103]]],[[[-71.056398,42.351097],[-71.05638,42.351084],[-71.056256,42.351074],[-71.056238,42.351087],[-71.056256,42.351101],[-71.05638,42.35111],[-71.056398,42.351097]]],[[[-71.056364,42.351176],[-71.056346,42.351163],[-71.056245,42.351155],[-71.056226,42.351168],[-71.056245,42.351182],[-71.056346,42.351189],[-71.056364,42.351176]]],[[[-71.056338,42.35493],[-71.05632,42.354917],[-71.056196,42.354907],[-71.056178,42.35492],[-71.056196,42.354934],[-71.05632,42.354943],[-71.056338,42.35493]]],[[[-71.056328,42.354836],[-71.05631,42.354823],[-71.056186,42.354813],[-71.056168,42.354826],[-71.056186,42.35484],[-71.05631,42.354849],[-71.056328,42.354836]]],[[[-71.056309,42.35475],[-71.05629,42.354736],[-71.056159,42.354725],[-71.056139,42.35474],[-71.056159,42.354754],[-71.05629,42.354764],[-71.056309,42.35475]]],[[[-71.056306,42.35467],[-71.05628,42.354651],[-71.056133,42.354639],[-71.056109,42.354651],[-71.056133,42.354678],[-71.05628,42.354689],[-71.056306,42.35467]]],[[[-71.056258,42.351376],[-71.05624,42.351363],[-71.056131,42.351354],[-71.056113,42.351367],[-71.056131,42.351381],[-71.05624,42.351389],[-71.056258,42.351376]]],[[[-71.056256,42.350842],[-71.056238,42.350829],[-71.056114,42.350819],[-71.056096,42.350832],[-71.056114,42.350846],[-71.056238,42.350855],[-71.056256,42.350842]]],[[[-71.056239,42.351411],[-71.056221,42.351398],[-71.056112,42.351389],[-71.056094,42.351402],[-71.056112,42.351416],[-71.056221,42.351424],[-71.056239,42.351411]]],[[[-71.056226,42.350933],[-71.056208,42.35092],[-71.056084,42.35091],[-71.056066,42.350923],[-71.056084,42.350937],[-71.056208,42.350946],[-71.056226,42.350933]]],[[[-71.056208,42.35145],[-71.05619,42.351437],[-71.056081,42.351428],[-71.056063,42.351441],[-71.056081,42.351455],[-71.05619,42.351463],[-71.056208,42.35145]]],[[[-71.056186,42.351036],[-71.056168,42.351023],[-71.056044,42.351013],[-71.056026,42.351026],[-71.056044,42.35104],[-71.056168,42.351049],[-71.056186,42.351036]]],[[[-71.056148,42.351145],[-71.05613,42.351132],[-71.056006,42.351122],[-71.055988,42.351135],[-71.056006,42.351149],[-71.05613,42.351158],[-71.056148,42.351145]]],[[[-71.056078,42.35171],[-71.05606,42.351697],[-71.055951,42.351688],[-71.055933,42.351701],[-71.055951,42.351715],[-71.05606,42.351723],[-71.056078,42.35171]]],[[[-71.055977,42.351355],[-71.055959,42.351342],[-71.055835,42.351332],[-71.055817,42.351345],[-71.055835,42.351359],[-71.055959,42.351368],[-71.055977,42.351355]]],[[[-71.055953,42.351412],[-71.055935,42.351399],[-71.055811,42.351389],[-71.055793,42.351402],[-71.055811,42.351416],[-71.055935,42.351425],[-71.055953,42.351412]]],[[[-71.05592,42.351482],[-71.055902,42.351469],[-71.055778,42.351459],[-71.05576,42.351472],[-71.055778,42.351486],[-71.055902,42.351495],[-71.05592,42.351482]]],[[[-71.055888,42.351561],[-71.05587,42.351548],[-71.055746,42.351538],[-71.055728,42.351551],[-71.055746,42.351565],[-71.05587,42.351574],[-71.055888,42.351561]]],[[[-71.055869,42.352226],[-71.055839,42.352193],[-71.055648,42.352176],[-71.055613,42.352187],[-71.055603,42.352226],[-71.055565,42.352262],[-71.055595,42.352296],[-71.055786,42.352312],[-71.05582,42.352301],[-71.055831,42.352262],[-71.055869,42.352226]]],[[[-71.055859,42.351622],[-71.055841,42.351609],[-71.055717,42.351599],[-71.055699,42.351612],[-71.055717,42.351626],[-71.055841,42.351635],[-71.055859,42.351622]]],[[[-71.055808,42.351727],[-71.05579,42.351714],[-71.055666,42.351704],[-71.055648,42.351717],[-71.055666,42.351731],[-71.05579,42.35174],[-71.055808,42.351727]]],[[[-71.055788,42.353336],[-71.055756,42.353312],[-71.055594,42.353299],[-71.055564,42.353314],[-71.055571,42.35334],[-71.055594,42.353347],[-71.055756,42.35336],[-71.055788,42.353336]]],[[[-71.055788,42.351776],[-71.05577,42.351763],[-71.055646,42.351753],[-71.055628,42.351766],[-71.055646,42.35178],[-71.05577,42.351789],[-71.055788,42.351776]]],[[[-71.055724,42.353394],[-71.055706,42.353374],[-71.055541,42.35336],[-71.055512,42.353382],[-71.05553,42.353402],[-71.055695,42.353416],[-71.055724,42.353394]]],[[[-71.055645,42.35343],[-71.055626,42.353416],[-71.055495,42.353405],[-71.055475,42.35342],[-71.055495,42.353434],[-71.055626,42.353444],[-71.055645,42.35343]]],[[[-71.055558,42.353497],[-71.05554,42.353484],[-71.055416,42.353474],[-71.055398,42.353487],[-71.055416,42.353501],[-71.05554,42.35351],[-71.055558,42.353497]]],[[[-71.055498,42.35353],[-71.05548,42.353517],[-71.055371,42.353508],[-71.055353,42.353521],[-71.055371,42.353535],[-71.05548,42.353543],[-71.055498,42.35353]]],[[[-71.055262,42.353653],[-71.055244,42.35364],[-71.055143,42.353632],[-71.055045,42.35364],[-71.05501,42.353695],[-71.05517,42.353717],[-71.055231,42.353687],[-71.055262,42.353653]]]]},"properties":{"kind":"tree"}}]}