{"type":"FeatureCollection","features":[{"type":"Feature","geometry":{"type":"MultiPolygon","coordinates":[[[[-71.06703,42.351826],[-71.067007,42.351692],[-71.066747,42.351106],[-71.065973,42.350998],[-71.065991,42.350995],[-71.065959,42.350666],[-71.06578,42.350641],[-71.065953,42.350615],[-71.06593,42.350327],[-71.065732,42.350299],[-71.065562,42.350309],[-71.065263,42.350267],[-71.065127,42.350274],[-71.064998,42.35026],[-71.065001,42.350248],[-71.064826,42.350187],[-71.064841,42.350131],[-71.065528,42.350227],[-71.065916,42.350219],[-71.065881,42.34989],[-71.065776,42.349769],[-71.06567,42.349754],[-71.065686,42.349675],[-71.065904,42.349705],[-71.065984,42.34967],[-71.066095,42.349646],[-71.066011,42.349499],[-71.066107,42.349483],[-71.066051,42.349385],[-71.065802,42.34935],[-71.06574,42.34937],[-71.065789,42.349459],[-71.065052,42.349365],[-71.064953,42.349381],[-71.064911,42.349578],[-71.063698,42.3494],[-71.063695,42.349412],[-71.063653,42.349372],[-71.063696,42.349342],[-71.063746,42.349213],[-71.06377,42.349085],[-71.063922,42.349189],[-71.064653,42.349291],[-71.064834,42.349198],[-71.06492,42.349208],[-71.065182,42.349085],[-71.065279,42.349075],[-71.06533,42.348887],[-71.065323,42.348802],[-71.065279,42.348688],[-71.064844,42.348594],[-71.064161,42.34852],[-71.064154,42.348542],[-71.064095,42.348534],[-71.064059,42.348552],[-71.063971,42.348781],[-71.063842,42.348825],[-71.063945,42.348463],[-71.062822,42.348282],[-71.06203,42.348175],[-71.062034,42.348165],[-71.061907,42.348129],[-71.061578,42.348083],[-71.061481,42.348323],[-71.061286,42.34829],[-71.06131,42.348233],[-71.061043,42.348178],[-71.061068,42.348118],[-71.061011,42.348097],[-71.059238,42.347849],[-71.058776,42.348491],[-71.059013,42.348548],[-71.060688,42.348782],[-71.060673,42.348846],[-71.060717,42.348879],[-71.060569,42.348859],[-71.06055,42.348907],[-71.060576,42.348913],[-71.060523,42.349049],[-71.060332,42.349022],[-71.060317,42.349062],[-71.058548,42.348815],[-71.058328,42.349355],[-71.057926,42.349266],[-71.057678,42.349231],[-71.057656,42.349286],[-71.057043,42.3492],[-71.057004,42.349297],[-71.05676,42.349263],[-71.056775,42.349199],[-71.056596,42.349149],[-71.056091,42.349078],[-71.055601,42.349218],[-71.056683,42.347603],[-71.056673,42.347544],[-71.055908,42.347262],[-71.055427,42.347195],[-71.054415,42.3487],[-71.054401,42.348698],[-71.053964,42.349146],[-71.053931,42.349196],[-71.053921,42.349336],[-71.05363,42.349296],[-71.05266,42.350739],[-71.053241,42.350954],[-71.053841,42.351038],[-71.05412,42.351141],[-71.054337,42.351171],[-71.054782,42.350509],[-71.05491,42.350592],[-71.055047,42.350629],[-71.055586,42.350703],[-71.05602,42.350693],[-71.05597,42.350805],[-71.056432,42.350913],[-71.056423,42.350931],[-71.055897,42.350858],[-71.055755,42.351159],[-71.05611,42.351303],[-71.056263,42.351324],[-71.055259,42.351186],[-71.055106,42.35149],[-71.054723,42.351436],[-71.053704,42.35167],[-71.053673,42.351701],[-71.051343,42.351375],[-71.051054,42.35148],[-71.050977,42.351644],[-71.051571,42.351793],[-71.054158,42.352155],[-71.054197,42.352168],[-71.054186,42.352275],[-71.054296,42.35229],[-71.054292,42.352322],[-71.054719,42.352382],[-71.054732,42.352409],[-71.054789,42.352424],[-71.05478,42.352475],[-71.055307,42.352549],[-71.055239,42.352589],[-71.054893,42.352558],[-71.054882,42.352631],[-71.054933,42.352638],[-71.054889,42.352705],[-71.0549,42.352776],[-71.054864,42.352775],[-71.054852,42.35285],[-71.056316,42.353056],[-71.056288,42.353059],[-71.056272,42.353111],[-71.054458,42.352848],[-71.054181,42.353],[-71.054231,42.353021],[-71.054247,42.353081],[-71.054359,42.353127],[-71.054317,42.353195],[-71.053919,42.35314],[-71.053707,42.353485],[-71.054067,42.35361],[-71.054451,42.353672],[-71.054401,42.353726],[-71.054098,42.353683],[-71.053993,42.353729],[-71.053668,42.353683],[-71.053578,42.353723],[-71.051513,42.353443],[-71.051111,42.353652],[-71.051075,42.353703],[-71.051084,42.353747],[-71.051352,42.354018],[-71.052136,42.354132],[-71.052219,42.354208],[-71.051209,42.354067],[-71.050752,42.354112],[-71.050858,42.35469],[-71.053745,42.355094],[-71.053766,42.35521],[-71.055688,42.355479],[-71.055803,42.355484],[-71.056258,42.35544],[-71.056364,42.355412],[-71.056307,42.355097],[-71.056566,42.355133],[-71.057337,42.355075],[-71.058523,42.355241],[-71.058619,42.355283],[-71.059228,42.355368],[-71.05953,42.355088],[-71.059848,42.355133],[-71.06014,42.355341],[-71.060481,42.355389],[-71.060757,42.355147],[-71.061373,42.355233],[-71.061526,42.355067],[-71.061657,42.355133],[-71.062184,42.355207],[-71.062269,42.355116],[-71.063118,42.355222],[-71.063177,42.355145],[-71.062916,42.355012],[-71.063211,42.355053],[-71.063255,42.355044],[-71.063852,42.353943],[-71.063862,42.353896],[-71.063609,42.353818],[-71.063241,42.353766],[-71.063499,42.353778],[-71.063892,42.353833],[-71.063998,42.353634],[-71.063768,42.353564],[-71.06365,42.353548],[-71.063673,42.353501],[-71.064052,42.353554],[-71.064097,42.353425],[-71.063837,42.353375],[-71.062707,42.35322],[-71.062414,42.353208],[-71.062415,42.35316],[-71.061851,42.353081],[-71.061998,42.353075],[-71.062761,42.353187],[-71.064146,42.353296],[-71.064309,42.35284],[-71.063998,42.352796],[-71.064309,42.352812],[-71.064353,42.352644],[-71.064373,42.352435],[-71.064339,42.352409],[-71.063297,42.352263],[-71.0629,42.352249],[-71.062898,42.352268],[-71.062667,42.352239],[-71.062531,42.352238],[-71.062561,42.35214],[-71.063567,42.352256],[-71.064083,42.352263],[-71.065081,42.352341],[-71.066063,42.352392],[-71.06608,42.35217],[-71.06627,42.352169],[-71.066295,42.351885],[-71.065931,42.351834],[-71.065939,42.351753],[-71.066847,42.351871],[-71.06703,42.351826]],[[-71.065426,42.351005],[-71.064408,42.351125],[-71.064211,42.351124],[-71.064206,42.351142],[-71.06392,42.351121],[-71.061882,42.350836],[-71.061597,42.350765],[-71.061355,42.350731],[-71.061295,42.350688],[-71.060899,42.350587],[-71.060738,42.350564],[-71.060747,42.35054],[-71.060472,42.350463],[-71.060099,42.350411],[-71.060116,42.350367],[-71.059867,42.350296],[-71.059494,42.350244],[-71.059504,42.350218],[-71.059471,42.35018],[-71.059047,42.350086],[-71.058774,42.350048],[-71.058776,42.350034],[-71.057874,42.34983],[-71.057499,42.349777],[-71.057505,42.349748],[-71.057133,42.349667],[-71.05668,42.349603],[-71.056743,42.349333],[-71.056976,42.349366],[-71.056951,42.349426],[-71.057262,42.349505],[-71.057256,42.349521],[-71.05761,42.3496],[-71.0582,42.349682],[-71.058152,42.3498],[-71.058453,42.349894],[-71.05912,42.349987],[-71.059103,42.350028],[-71.059551,42.350154],[-71.06019,42.350244],[-71.060182,42.350264],[-71.060655,42.350377],[-71.06064,42.350414],[-71.06077,42.350447],[-71.060761,42.350491],[-71.060952,42.350521],[-71.061171,42.350582],[-71.062508,42.350769],[-71.062535,42.350744],[-71.062951,42.350799],[-71.06297,42.350746],[-71.063649,42.350841],[-71.063656,42.35083],[-71.064822,42.350958],[-71.064831,42.350926],[-71.065426,42.351005]],[[-71.064956,42.350437],[-71.064944,42.350524],[-71.064928,42.350522],[-71.064956,42.350437]],[[-71.063793,42.351571],[-71.063779,42.351625],[-71.06322,42.351554],[-71.063215,42.351575],[-71.062733,42.351508],[-71.062752,42.351441],[-71.063793,42.351571]],[[-71.063746,42.349069],[-71.063736,42.349067],[-71.063738,42.349064],[-71.063746,42.349069]],[[-71.063371,42.350102],[-71.063339,42.350261],[-71.063297,42.350329],[-71.063114,42.350303],[-71.063128,42.350252],[-71.063108,42.350181],[-71.063124,42.350166],[-71.063279,42.350187],[-71.063323,42.350095],[-71.063371,42.350102]],[[-71.062914,42.351901],[-71.062911,42.351938],[-71.062619,42.351902],[-71.06263,42.351863],[-71.062914,42.351901]],[[-71.062517,42.348751],[-71.061891,42.348652],[-71.06186,42.348718],[-71.061814,42.348712],[-71.06189,42.348524],[-71.061922,42.348532],[-71.061907,42.348568],[-71.06246,42.348653],[-71.062502,42.34868],[-71.062517,42.348751]],[[-71.061897,42.351391],[-71.061893,42.35139],[-71.061894,42.35139],[-71.061897,42.351391]],[[-71.061832,42.353708],[-71.061765,42.353789],[-71.061507,42.353663],[-71.061832,42.353708]],[[-71.061826,42.349155],[-71.061726,42.349136],[-71.061737,42.349109],[-71.061826,42.349155]],[[-71.061826,42.349192],[-71.061826,42.349227],[-71.061813,42.349225],[-71.061826,42.349192]],[[-71.061771,42.348993],[-71.061611,42.348958],[-71.061761,42.348979],[-71.061771,42.348993]],[[-71.061597,42.352144],[-71.061286,42.352134],[-71.061205,42.352158],[-71.061226,42.352259],[-71.061124,42.352245],[-71.06111,42.352074],[-71.061597,42.352144]],[[-71.06127,42.350845],[-71.061267,42.350856],[-71.061179,42.350843],[-71.061097,42.351043],[-71.060579,42.350952],[-71.060654,42.350762],[-71.06127,42.350845]],[[-71.061168,42.354881],[-71.061059,42.354866],[-71.061077,42.354849],[-71.061118,42.354855],[-71.061168,42.354881]],[[-71.061143,42.348679],[-71.061126,42.348726],[-71.060832,42.348685],[-71.06086,42.348619],[-71.061143,42.348679]],[[-71.060591,42.349846],[-71.060516,42.349893],[-71.060306,42.349863],[-71.060261,42.349801],[-71.060359,42.349751],[-71.060591,42.349846]],[[-71.060234,42.351276],[-71.05968,42.351199],[-71.05966,42.351248],[-71.059176,42.351181],[-71.059127,42.35131],[-71.059137,42.351367],[-71.059102,42.351371],[-71.059131,42.351548],[-71.059162,42.351552],[-71.05918,42.351742],[-71.058969,42.351712],[-71.058729,42.351756],[-71.058757,42.351946],[-71.058078,42.351851],[-71.058115,42.351737],[-71.058103,42.35172],[-71.056792,42.351529],[-71.056662,42.351472],[-71.057108,42.351534],[-71.057158,42.351507],[-71.058558,42.351732],[-71.058746,42.351554],[-71.05886,42.351417],[-71.05899,42.351213],[-71.059038,42.351101],[-71.058633,42.351011],[-71.058404,42.350979],[-71.058414,42.350953],[-71.058104,42.350876],[-71.057558,42.350757],[-71.057314,42.350723],[-71.05732,42.350691],[-71.05694,42.350597],[-71.056317,42.350516],[-71.056379,42.35039],[-71.056747,42.350471],[-71.056741,42.350499],[-71.056891,42.350535],[-71.05711,42.350566],[-71.057478,42.350656],[-71.057964,42.350737],[-71.058126,42.350778],[-71.058156,42.350818],[-71.058578,42.350912],[-71.059143,42.350991],[-71.059198,42.350975],[-71.059381,42.350523],[-71.059581,42.350564],[-71.059565,42.350603],[-71.059795,42.350653],[-71.059746,42.350763],[-71.059716,42.350759],[-71.059562,42.351111],[-71.060004,42.351207],[-71.059997,42.351222],[-71.060234,42.351276]],[[-71.059713,42.352678],[-71.059683,42.352775],[-71.059338,42.352717],[-71.059318,42.352574],[-71.056993,42.352248],[-71.05699,42.352229],[-71.056202,42.352031],[-71.05561,42.351948],[-71.055671,42.351822],[-71.05654,42.35195],[-71.056507,42.352032],[-71.057011,42.352121],[-71.059368,42.352446],[-71.059512,42.352522],[-71.059649,42.352541],[-71.059669,42.352662],[-71.059713,42.352678]],[[-71.058266,42.353265],[-71.058248,42.353285],[-71.058099,42.353264],[-71.058266,42.353265]],[[-71.057994,42.350203],[-71.057981,42.350249],[-71.057843,42.35023],[-71.057855,42.350184],[-71.057994,42.350203]],[[-71.057653,42.353675],[-71.057483,42.353639],[-71.05752,42.353579],[-71.057653,42.353675]],[[-71.057105,42.354209],[-71.056914,42.354492],[-71.057007,42.354521],[-71.056766,42.35473],[-71.056192,42.354649],[-71.056094,42.354605],[-71.055824,42.354567],[-71.056231,42.354504],[-71.056197,42.354384],[-71.056463,42.354421],[-71.056798,42.354388],[-71.056813,42.354373],[-71.056771,42.35414],[-71.056993,42.354171],[-71.057105,42.354209]]],[[[-71.066483,42.348529],[-71.065913,42.348449],[-71.065995,42.348064],[-71.065452,42.347986],[-71.06552,42.347941],[-71.065529,42.347903],[-71.065491,42.347827],[-71.065307,42.347772],[-71.065318,42.347764],[-71.065319,42.347677],[-71.065257,42.347643],[-71.064512,42.347534],[-71.064121,42.34773],[-71.064034,42.347929],[-71.063199,42.347806],[-71.063096,42.347879],[-71.063041,42.347872],[-71.063023,42.347935],[-71.062714,42.347886],[-71.062695,42.347933],[-71.062424,42.347895],[-71.062405,42.34794],[-71.061797,42.347809],[-71.061866,42.34764],[-71.061712,42.347604],[-71.060577,42.347445],[-71.060431,42.347795],[-71.06042,42.347887],[-71.060539,42.347915],[-71.061674,42.348074],[-71.061735,42.347958],[-71.062286,42.348035],[-71.062411,42.348042],[-71.062419,42.34802],[-71.062871,42.348095],[-71.062883,42.348064],[-71.063053,42.348088],[-71.063044,42.348121],[-71.06293,42.348105],[-71.062922,42.348128],[-71.06232,42.348058],[-71.062293,42.348126],[-71.063229,42.348263],[-71.063253,42.34818],[-71.063272,42.348183],[-71.063262,42.348221],[-71.063627,42.348277],[-71.064805,42.348442],[-71.064842,42.348387],[-71.06494,42.348401],[-71.064993,42.348461],[-71.065159,42.348469],[-71.065162,42.34848],[-71.065917,42.348586],[-71.066455,42.348649],[-71.066483,42.348529]]],[[[-71.065565,42.354342],[-71.065554,42.354318],[-71.065521,42.354301],[-71.065265,42.354265],[-71.065215,42.35428],[-71.0652,42.354308],[-71.065207,42.354332],[-71.065237,42.354352],[-71.0655,42.35439],[-71.06555,42.354375],[-71.065565,42.354342]]],[[[-71.065421,42.352871],[-71.065168,42.352825],[-71.065151,42.352872],[-71.065177,42.352953],[-71.065378,42.352986],[-71.065421,42.352871]]],[[[-71.064727,42.352541],[-71.064563,42.352517],[-71.064528,42.352623],[-71.064692,42.352647],[-71.064727,42.352541]]],[[[-71.06461,42.353278],[-71.064443,42.353252],[-71.064409,42.353352],[-71.064576,42.35338],[-71.06461,42.353278]]],[[[-71.063935,42.354829],[-71.063775,42.354798],[-71.063752,42.354847],[-71.063912,42.354877],[-71.063935,42.354829]]],[[[-71.058071,42.348706],[-71.057613,42.348605],[-71.056333,42.348426],[-71.056249,42.348635],[-71.056708,42.348736],[-71.057988,42.348915],[-71.058071,42.348706]]]]},"properties":{"kind":"building"}},{"type":"Feature","geometry":{"type":"MultiPolygon","coordinates":[[[[-71.066058,42.353451],[-71.066047,42.35341],[-71.065968,42.353351],[-71.065492,42.353284],[-71.065565,42.353252],[-71.065824,42.353289],[-71.06586,42.353283],[-71.065911,42.353246],[-71.065911,42.353192],[-71.06586,42.353155],[-71.065886,42.353126],[-71.065981,42.353102],[-71.066007,42.353073],[-71.066016,42.353039],[-71.065995,42.352992],[-71.066039,42.352955],[-71.066048,42.352923],[-71.066021,42.352832],[-71.065942,42.352773],[-71.065624,42.352714],[-71.065665,42.35266],[-71.065647,42.352622],[-71.065976,42.352648],[-71.066016,42.352618],[-71.066022,42.352597],[-71.066,42.352558],[-71.065621,42.352496],[-71.065362,42.352472],[-71.065297,42.352501],[-71.06495,42.352453],[-71.064864,42.352488],[-71.06462,42.352454],[-71.064551,42.352475],[-71.064522,42.352526],[-71.064551,42.352577],[-71.064582,42.352593],[-71.065012,42.352653],[-71.065115,42.352629],[-71.065166,42.35267],[-71.0653,42.352689],[-71.065267,42.352736],[-71.06517,42.352722],[-71.065113,42.352737],[-71.064845,42.352706],[-71.064809,42.352746],[-71.064845,42.352786],[-71.064831,42.352817],[-71.064843,42.352839],[-71.064781,42.352831],[-71.064731,42.352846],[-71.06471,42.352884],[-71.06474,42.352926],[-71.064286,42.352862],[-71.064201,42.352888],[-71.064166,42.352951],[-71.064171,42.35308],[-71.06425,42.353138],[-71.064454,42.353167],[-71.064486,42.353214],[-71.064186,42.353187],[-71.064127,42.353232],[-71.064127,42.353294],[-71.064186,42.353338],[-71.06458,42.353394],[-71.064563,42.353413],[-71.064563,42.353452],[-71.064191,42.353411],[-71.064136,42.353451],[-71.064136,42.353508],[-71.064191,42.353548],[-71.064631,42.35361],[-71.064702,42.353589],[-71.064724,42.353564],[-71.064724,42.353508],[-71.06487,42.353522],[-71.064905,42.353539],[-71.065192,42.35358],[-71.065143,42.353607],[-71.065143,42.353642],[-71.065176,42.353667],[-71.065262,42.353679],[-71.06523,42.353717],[-71.065041,42.353696],[-71.064993,42.35371],[-71.064973,42.353746],[-71.064993,42.353782],[-71.065123,42.353808],[-71.065114,42.353829],[-71.064937,42.353806],[-71.064893,42.353819],[-71.06488,42.353869],[-71.064913,42.353894],[-71.064965,42.353901],[-71.064954,42.353923],[-71.064782,42.35389],[-71.064737,42.353847],[-71.064632,42.353832],[-71.064588,42.3538],[-71.064388,42.353768],[-71.064383,42.353758],[-71.064444,42.353728],[-71.064444,42.353692],[-71.064478,42.353658],[-71.064478,42.353622],[-71.064443,42.353596],[-71.064095,42.353554],[-71.06406,42.35358],[-71.06406,42.353617],[-71.064026,42.35365],[-71.06404,42.353702],[-71.064011,42.353739],[-71.064027,42.353768],[-71.063991,42.35377],[-71.063998,42.35376],[-71.06398,42.353747],[-71.063824,42.353725],[-71.063806,42.353738],[-71.063965,42.353771],[-71.063922,42.353787],[-71.063897,42.353831],[-71.063899,42.35392],[-71.063943,42.353952],[-71.064724,42.354055],[-71.064775,42.354039],[-71.064793,42.354011],[-71.064854,42.35402],[-71.064857,42.354041],[-71.064889,42.354065],[-71.06519,42.354107],[-71.065231,42.354095],[-71.065244,42.354047],[-71.065212,42.354024],[-71.065151,42.354015],[-71.065159,42.353996],[-71.065315,42.354018],[-71.065361,42.354004],[-71.065378,42.353979],[-71.065609,42.354018],[-71.06559,42.354046],[-71.06562,42.354079],[-71.065889,42.354117],[-71.065923,42.354106],[-71.065937,42.354084],[-71.066009,42.354081],[-71.066017,42.35405],[-71.065996,42.354034],[-71.065759,42.354001],[-71.065694,42.354018],[-71.065709,42.353976],[-71.06576,42.353953],[-71.065749,42.353914],[-71.065591,42.353886],[-71.0656,42.353866],[-71.065585,42.353839],[-71.065411,42.353808],[-71.065413,42.353778],[-71.065567,42.353799],[-71.065621,42.353773],[-71.065608,42.353725],[-71.065515,42.353706],[-71.06555,42.353665],[-71.065532,42.353633],[-71.065455,42.353615],[-71.065551,42.353584],[-71.065592,42.353514],[-71.065912,42.353559],[-71.066015,42.353527],[-71.066047,42.353492],[-71.066058,42.353451]],[[-71.065422,42.35392],[-71.065369,42.353941],[-71.065276,42.353917],[-71.065287,42.353892],[-71.065416,42.353905],[-71.065422,42.35392]],[[-71.065409,42.353277],[-71.065404,42.353278],[-71.065404,42.353276],[-71.065409,42.353277]],[[-71.065177,42.352867],[-71.065173,42.352868],[-71.065174,42.352867],[-71.065177,42.352867]],[[-71.065008,42.353069],[-71.064935,42.35309],[-71.064919,42.353056],[-71.065008,42.353069]],[[-71.064933,42.352958],[-71.064885,42.352972],[-71.064865,42.353008],[-71.064856,42.352981],[-71.064805,42.35294],[-71.064933,42.352958]]],[[[-71.066046,42.354972],[-71.066004,42.354925],[-71.065673,42.354879],[-71.065674,42.354808],[-71.065607,42.354759],[-71.065482,42.354741],[-71.065444,42.354711],[-71.065351,42.354698],[-71.065327,42.354655],[-71.065232,42.354615],[-71.065102,42.354596],[-71.065098,42.354575],[-71.065065,42.35455],[-71.064925,42.35453],[-71.064972,42.354499],[-71.065049,42.35449],[-71.065067,42.354458],[-71.065029,42.354416],[-71.064399,42.354326],[-71.064402,42.354312],[-71.064696,42.354353],[-71.064744,42.354339],[-71.064762,42.354313],[-71.064903,42.354332],[-71.064951,42.354309],[-71.064951,42.354279],[-71.064923,42.354259],[-71.064643,42.354219],[-71.064599,42.354239],[-71.064371,42.354212],[-71.06432,42.354184],[-71.064252,42.354174],[-71.064249,42.354159],[-71.064526,42.354198],[-71.064616,42.354171],[-71.065041,42.354222],[-71.065095,42.354196],[-71.065095,42.354162],[-71.065063,42.354139],[-71.064762,42.354097],[-71.064721,42.354109],[-71.064628,42.354101],[-71.064602,42.354063],[-71.064567,42.354046],[-71.064105,42.353981],[-71.063919,42.353979],[-71.063902,42.353945],[-71.063687,42.353915],[-71.063657,42.353929],[-71.063675,42.353961],[-71.06389,42.353991],[-71.063869,42.354035],[-71.063892,42.354077],[-71.063823,42.354075],[-71.063787,42.3541],[-71.063606,42.354075],[-71.063582,42.354087],[-71.063596,42.354112],[-71.0637,42.354127],[-71.063642,42.354174],[-71.063631,42.354216],[-71.063642,42.354257],[-71.063674,42.354292],[-71.063634,42.354308],[-71.06361,42.354351],[-71.063495,42.354355],[-71.063448,42.354378],[-71.063416,42.354413],[-71.063405,42.354455],[-71.063416,42.354496],[-71.063495,42.354554],[-71.064027,42.354629],[-71.064081,42.35464],[-71.064077,42.354653],[-71.063943,42.354635],[-71.063878,42.354645],[-71.063523,42.354595],[-71.063464,42.354613],[-71.06344,42.354653],[-71.063303,42.354634],[-71.063259,42.354656],[-71.063269,42.354695],[-71.063417,42.354721],[-71.063419,42.354755],[-71.063243,42.354734],[-71.063209,42.354744],[-71.063195,42.35477],[-71.063225,42.354803],[-71.06346,42.354836],[-71.063494,42.354825],[-71.063509,42.3548],[-71.063827,42.354838],[-71.063882,42.354821],[-71.063901,42.354766],[-71.063922,42.354759],[-71.063959,42.354785],[-71.064303,42.354834],[-71.064354,42.354818],[-71.064369,42.354801],[-71.064369,42.354761],[-71.06433,42.354732],[-71.064264,42.354723],[-71.064421,42.354733],[-71.064451,42.354711],[-71.064451,42.354679],[-71.064421,42.354657],[-71.064364,42.354649],[-71.064467,42.354656],[-71.064713,42.354701],[-71.064718,42.354725],[-71.064659,42.354717],[-71.06462,42.354728],[-71.064606,42.354767],[-71.064576,42.354779],[-71.064594,42.354793],[-71.064947,42.354833],[-71.065045,42.354862],[-71.06556,42.354934],[-71.065603,42.354928],[-71.065645,42.354976],[-71.065978,42.355022],[-71.066026,42.355008],[-71.066046,42.354972]],[[-71.064702,42.354528],[-71.064694,42.354564],[-71.064645,42.354557],[-71.064649,42.354521],[-71.064702,42.354528]],[[-71.064466,42.354562],[-71.064461,42.354568],[-71.064462,42.354562],[-71.064466,42.354562]],[[-71.064262,42.354484],[-71.064258,42.354498],[-71.064174,42.354487],[-71.064105,42.354429],[-71.064111,42.354376],[-71.064174,42.354379],[-71.064174,42.354452],[-71.064206,42.354476],[-71.064262,42.354484]],[[-71.064185,42.354574],[-71.064184,42.354578],[-71.064163,42.354575],[-71.064185,42.354574]]],[[[-71.06597,42.354146],[-71.065947,42.354129],[-71.065772,42.354105],[-71.06575,42.354122],[-71.065772,42.354138],[-71.065947,42.354163],[-71.06597,42.354146]]],[[[-71.065865,42.354468],[-71.065855,42.354431],[-71.065785,42.354379],[-71.065248,42.354304],[-71.065156,42.354332],[-71.065118,42.3544],[-71.065156,42.354468],[-71.065198,42.354488],[-71.065735,42.354564],[-71.065827,42.354536],[-71.065865,42.354468]]],[[[-71.06583,42.348038],[-71.06579,42.347994],[-71.065467,42.347948],[-71.065421,42.347962],[-71.065402,42.347996],[-71.065443,42.348041],[-71.065765,42.348086],[-71.065811,42.348072],[-71.06583,42.348038]]],[[[-71.06579,42.34818],[-71.065756,42.348142],[-71.065403,42.348079],[-71.065385,42.348092],[-71.065434,42.34811],[-71.065411,42.348142],[-71.065445,42.34818],[-71.065735,42.348221],[-71.065774,42.348209],[-71.06579,42.34818]]],[[[-71.065738,42.348446],[-71.065702,42.348406],[-71.065401,42.348364],[-71.06536,42.348376],[-71.065343,42.348407],[-71.065285,42.348405],[-71.065263,42.348422],[-71.065285,42.348438],[-71.06568,42.348489],[-71.065721,42.348477],[-71.065738,42.348446]]],[[[-71.065728,42.348293],[-71.065583,42.348262],[-71.065565,42.348275],[-71.06571,42.348306],[-71.065728,42.348293]]],[[[-71.065598,42.348957],[-71.065462,42.348927],[-71.065444,42.348941],[-71.06558,42.34897],[-71.065598,42.348957]]],[[[-71.065588,42.351223],[-71.065424,42.351189],[-71.065406,42.351203],[-71.06557,42.351236],[-71.065588,42.351223]]],[[[-71.065562,42.349094],[-71.065426,42.349064],[-71.065408,42.349078],[-71.065544,42.349107],[-71.065562,42.349094]]],[[[-71.065559,42.349236],[-71.065529,42.349203],[-71.065294,42.34917],[-71.065259,42.34918],[-71.065245,42.349206],[-71.065275,42.349239],[-71.06551,42.349272],[-71.065544,42.349261],[-71.065559,42.349236]]],[[[-71.065552,42.348316],[-71.065514,42.348274],[-71.065202,42.34823],[-71.065158,42.348243],[-71.06514,42.348276],[-71.065178,42.348318],[-71.06549,42.348362],[-71.065534,42.348348],[-71.065552,42.348316]]],[[[-71.065433,42.34879],[-71.065403,42.348757],[-71.065168,42.348724],[-71.065133,42.348734],[-71.065119,42.34876],[-71.065149,42.348793],[-71.065384,42.348826],[-71.065418,42.348815],[-71.065433,42.34879]]],[[[-71.065396,42.34894],[-71.065374,42.348916],[-71.065148,42.348884],[-71.065112,42.34891],[-71.065134,42.348935],[-71.06536,42.348966],[-71.065396,42.34894]]],[[[-71.065379,42.34907],[-71.065349,42.349037],[-71.06508,42.348999],[-71.065045,42.34901],[-71.065031,42.349035],[-71.065061,42.349068],[-71.06533,42.349106],[-71.065364,42.349095],[-71.065379,42.34907]]],[[[-71.065368,42.35121],[-71.065213,42.351177],[-71.065123,42.351179],[-71.065105,42.351192],[-71.06525,42.351223],[-71.06535,42.351223],[-71.065368,42.35121]]],[[[-71.065176,42.35072],[-71.06515,42.350701],[-71.064966,42.350675],[-71.064942,42.350687],[-71.064966,42.350713],[-71.06515,42.350739],[-71.065176,42.35072]]],[[[-71.065151,42.350784],[-71.065125,42.350765],[-71.064941,42.350739],[-71.064917,42.350751],[-71.064941,42.350777],[-71.065125,42.350803],[-71.065151,42.350784]]],[[[-71.065129,42.350853],[-71.06511,42.350839],[-71.064945,42.350815],[-71.064925,42.35083],[-71.064945,42.350844],[-71.06511,42.350867],[-71.065129,42.350853]]],[[[-71.064944,42.35131],[-71.064789,42.351277],[-71.064771,42.351291],[-71.064926,42.351323],[-71.064944,42.35131]]],[[[-71.064911,42.354986],[-71.064903,42.354957],[-71.064847,42.354915],[-71.064396,42.354852],[-71.064322,42.354874],[-71.064292,42.354928],[-71.064322,42.354983],[-71.064356,42.354999],[-71.064807,42.355063],[-71.06488,42.35504],[-71.064911,42.354986]]],[[[-71.064857,42.348456],[-71.064712,42.348425],[-71.064694,42.348438],[-71.064839,42.348469],[-71.064857,42.348456]]],[[[-71.064624,42.351826],[-71.064479,42.351795],[-71.064461,42.351808],[-71.064606,42.351839],[-71.064624,42.351826]]],[[[-71.064621,42.348425],[-71.064476,42.348394],[-71.064458,42.348407],[-71.064603,42.348438],[-71.064621,42.348425]]],[[[-71.064568,42.352055],[-71.064413,42.352022],[-71.064395,42.352036],[-71.06455,42.352068],[-71.064568,42.352055]]],[[[-71.064564,42.352104],[-71.064545,42.35209],[-71.06438,42.352066],[-71.06436,42.352081],[-71.06438,42.352095],[-71.064545,42.352118],[-71.064564,42.352104]]],[[[-71.064548,42.35216],[-71.064403,42.352129],[-71.064385,42.352142],[-71.06453,42.352173],[-71.064548,42.35216]]],[[[-71.064436,42.348399],[-71.064291,42.348368],[-71.064273,42.348381],[-71.064418,42.348412],[-71.064436,42.348399]]],[[[-71.064238,42.350925],[-71.06422,42.350912],[-71.063712,42.350843],[-71.063678,42.350859],[-71.063386,42.350826],[-71.06336,42.350807],[-71.063176,42.350781],[-71.063152,42.350793],[-71.063166,42.350818],[-71.06331,42.350838],[-71.063336,42.350857],[-71.063675,42.350907],[-71.06405,42.350938],[-71.06408,42.350923],[-71.06422,42.350938],[-71.064238,42.350925]]],[[[-71.064209,42.34872],[-71.064186,42.348703],[-71.064011,42.348679],[-71.063989,42.348696],[-71.064011,42.348712],[-71.064186,42.348737],[-71.064209,42.34872]]],[[[-71.064168,42.34884],[-71.063994,42.348805],[-71.063976,42.348818],[-71.06415,42.348853],[-71.064168,42.34884]]],[[[-71.064088,42.3533],[-71.063929,42.353252],[-71.063745,42.353227],[-71.063723,42.353244],[-71.063745,42.35326],[-71.063907,42.353291],[-71.06407,42.353313],[-71.064088,42.3533]]],[[[-71.064049,42.35339],[-71.06403,42.353376],[-71.063754,42.353339],[-71.063736,42.353352],[-71.063792,42.353376],[-71.063965,42.3534],[-71.06403,42.353404],[-71.064049,42.35339]]],[[[-71.063915,42.348675],[-71.063896,42.348661],[-71.063731,42.348637],[-71.063711,42.348652],[-71.063731,42.348666],[-71.063896,42.348689],[-71.063915,42.348675]]],[[[-71.063893,42.348743],[-71.06387,42.348726],[-71.063695,42.348702],[-71.063673,42.348719],[-71.063695,42.348735],[-71.06387,42.34876],[-71.063893,42.348743]]],[[[-71.063879,42.34887],[-71.06386,42.348856],[-71.063695,42.348832],[-71.063675,42.348847],[-71.063695,42.348861],[-71.06386,42.348884],[-71.063879,42.34887]]],[[[-71.063873,42.348793],[-71.063728,42.348762],[-71.06371,42.348775],[-71.063855,42.348806],[-71.063873,42.348793]]],[[[-71.063821,42.349148],[-71.063676,42.349117],[-71.063658,42.34913],[-71.063803,42.349161],[-71.063821,42.349148]]],[[[-71.063808,42.348427],[-71.063573,42.348379],[-71.063555,42.348392],[-71.06379,42.34844],[-71.063808,42.348427]]],[[[-71.063768,42.349293],[-71.063623,42.349262],[-71.063605,42.349275],[-71.06375,42.349306],[-71.063768,42.349293]]],[[[-71.063755,42.349335],[-71.06361,42.349304],[-71.063592,42.349317],[-71.063737,42.349348],[-71.063755,42.349335]]],[[[-71.063689,42.34976],[-71.06367,42.349746],[-71.063505,42.349722],[-71.063485,42.349737],[-71.063505,42.349751],[-71.06367,42.349774],[-71.063689,42.34976]]],[[[-71.063632,42.349854],[-71.063458,42.349819],[-71.06344,42.349832],[-71.063614,42.349867],[-71.063632,42.349854]]],[[[-71.063579,42.34995],[-71.06356,42.349936],[-71.063395,42.349912],[-71.063375,42.349927],[-71.063395,42.349941],[-71.06356,42.349964],[-71.063579,42.34995]]],[[[-71.063548,42.35],[-71.063374,42.349965],[-71.063356,42.349978],[-71.06353,42.350013],[-71.063548,42.35]]],[[[-71.063458,42.350418],[-71.063284,42.350383],[-71.063266,42.350396],[-71.06344,42.350431],[-71.063458,42.350418]]],[[[-71.063458,42.35018],[-71.063294,42.350146],[-71.063276,42.35016],[-71.06344,42.350193],[-71.063458,42.35018]]],[[[-71.063434,42.350487],[-71.06327,42.350453],[-71.063134,42.350449],[-71.063116,42.350463],[-71.06328,42.350496],[-71.063416,42.3505],[-71.063434,42.350487]]],[[[-71.063428,42.350246],[-71.063264,42.350212],[-71.063246,42.350226],[-71.06341,42.350259],[-71.063428,42.350246]]],[[[-71.063403,42.35055],[-71.063248,42.350517],[-71.063109,42.350502],[-71.063091,42.350516],[-71.063255,42.350549],[-71.063385,42.350563],[-71.063403,42.35055]]],[[[-71.063403,42.35028],[-71.063239,42.350246],[-71.063221,42.35026],[-71.063385,42.350293],[-71.063403,42.35028]]],[[[-71.063383,42.350765],[-71.063365,42.350745],[-71.063014,42.350693],[-71.063001,42.350716],[-71.063132,42.350737],[-71.063139,42.350753],[-71.062965,42.350727],[-71.062945,42.350742],[-71.062965,42.350756],[-71.06313,42.350779],[-71.063144,42.350755],[-71.063354,42.350787],[-71.063383,42.350765]]],[[[-71.063369,42.350704],[-71.06335,42.35069],[-71.063062,42.350647],[-71.063044,42.350661],[-71.06335,42.350718],[-71.063369,42.350704]]],[[[-71.063368,42.35061],[-71.06323,42.350569],[-71.063074,42.350547],[-71.063056,42.35056],[-71.063213,42.350604],[-71.06335,42.350623],[-71.063368,42.35061]]],[[[-71.063328,42.35044],[-71.063173,42.350407],[-71.063155,42.350421],[-71.06331,42.350453],[-71.063328,42.35044]]],[[[-71.063228,42.35063],[-71.063054,42.350595],[-71.063036,42.350608],[-71.06321,42.350643],[-71.063228,42.35063]]],[[[-71.063144,42.352238],[-71.062989,42.352205],[-71.062971,42.352219],[-71.062758,42.352186],[-71.062693,42.352182],[-71.062675,42.352196],[-71.062814,42.352226],[-71.062821,42.352246],[-71.062965,42.352266],[-71.062983,42.352253],[-71.063065,42.352263],[-71.063144,42.352238]]],[[[-71.062829,42.353302],[-71.06281,42.353288],[-71.062645,42.353264],[-71.062565,42.353265],[-71.062543,42.353282],[-71.062565,42.353298],[-71.06274,42.353323],[-71.062829,42.353302]]],[[[-71.062829,42.353214],[-71.06281,42.3532],[-71.062645,42.353176],[-71.062579,42.353169],[-71.062559,42.353184],[-71.062579,42.353198],[-71.062744,42.353221],[-71.06281,42.353228],[-71.062829,42.353214]]],[[[-71.062559,42.348354],[-71.062541,42.348334],[-71.062337,42.348305],[-71.062307,42.348327],[-71.062133,42.348315],[-71.062109,42.348342],[-71.062133,42.348369],[-71.06237,42.348402],[-71.062398,42.348393],[-71.062406,42.348362],[-71.06253,42.348376],[-71.062559,42.348354]]],[[[-71.062496,42.349373],[-71.06247,42.349344],[-71.06239,42.349333],[-71.062389,42.349311],[-71.062366,42.349294],[-71.062119,42.349259],[-71.062089,42.349269],[-71.062076,42.349291],[-71.062102,42.349319],[-71.062183,42.349331],[-71.062184,42.349353],[-71.062206,42.349369],[-71.062454,42.349404],[-71.062484,42.349395],[-71.062496,42.349373]]],[[[-71.062463,42.348557],[-71.06244,42.34854],[-71.062265,42.348516],[-71.062243,42.348533],[-71.062265,42.348549],[-71.06244,42.348574],[-71.062463,42.348557]]],[[[-71.062039,42.353752],[-71.06202,42.353738],[-71.061855,42.353714],[-71.061835,42.353729],[-71.061855,42.353743],[-71.06202,42.353766],[-71.062039,42.353752]]],[[[-71.062006,42.349306],[-71.061861,42.349275],[-71.061843,42.349288],[-71.061988,42.349319],[-71.062006,42.349306]]],[[[-71.061988,42.35386],[-71.061901,42.353837],[-71.061909,42.353825],[-71.06189,42.353811],[-71.061725,42.353787],[-71.061705,42.353802],[-71.061833,42.353831],[-71.061825,42.353842],[-71.061843,42.353856],[-71.06197,42.353873],[-71.061988,42.35386]]],[[[-71.061951,42.349438],[-71.061806,42.349407],[-71.061788,42.34942],[-71.061933,42.349451],[-71.061951,42.349438]]],[[[-71.061941,42.349548],[-71.061911,42.349515],[-71.061676,42.349482],[-71.061641,42.349492],[-71.061627,42.349518],[-71.061657,42.349551],[-71.061892,42.349584],[-71.061926,42.349573],[-71.061941,42.349548]]],[[[-71.061928,42.34988],[-71.061783,42.349849],[-71.061765,42.349862],[-71.06191,42.349893],[-71.061928,42.34988]]],[[[-71.061924,42.3537],[-71.061905,42.353686],[-71.06174,42.353662],[-71.06172,42.353677],[-71.06174,42.353691],[-71.061905,42.353714],[-71.061924,42.3537]]],[[[-71.061898,42.349926],[-71.061753,42.349895],[-71.061735,42.349908],[-71.06188,42.349939],[-71.061898,42.349926]]],[[[-71.061892,42.35],[-71.061747,42.349969],[-71.061729,42.349982],[-71.061874,42.350013],[-71.061892,42.35]]],[[[-71.061868,42.350044],[-71.061723,42.350013],[-71.061705,42.350026],[-71.06185,42.350057],[-71.061868,42.350044]]],[[[-71.061851,42.348312],[-71.061823,42.348281],[-71.061217,42.348196],[-71.061187,42.34821],[-71.061194,42.348237],[-71.061268,42.348251],[-71.06127,42.348275],[-71.0613,42.348297],[-71.06159,42.348338],[-71.061629,42.348326],[-71.061806,42.348346],[-71.061838,42.348336],[-71.061851,42.348312]]],[[[-71.061838,42.35008],[-71.061693,42.350049],[-71.061675,42.350062],[-71.06182,42.350093],[-71.061838,42.35008]]],[[[-71.061828,42.353783],[-71.061683,42.353752],[-71.061665,42.353765],[-71.06181,42.353796],[-71.061828,42.353783]]],[[[-71.061825,42.353653],[-71.061746,42.35363],[-71.061755,42.353593],[-71.061729,42.353574],[-71.061623,42.353559],[-71.06161,42.353537],[-71.061464,42.353516],[-71.061446,42.35353],[-71.061464,42.353543],[-71.061449,42.35359],[-71.061475,42.35361],[-71.061806,42.353667],[-71.061825,42.353653]]],[[[-71.061824,42.350155],[-71.061688,42.350125],[-71.06167,42.350139],[-71.061806,42.350168],[-71.061824,42.350155]]],[[[-71.061798,42.3502],[-71.061653,42.350169],[-71.061635,42.350182],[-71.06178,42.350213],[-71.061798,42.3502]]],[[[-71.061789,42.350292],[-71.061765,42.350265],[-71.061528,42.350232],[-71.061492,42.35025],[-71.061501,42.350281],[-71.061462,42.350281],[-71.061434,42.350312],[-71.061462,42.350343],[-71.06172,42.35038],[-71.061762,42.350359],[-71.061752,42.350322],[-71.061789,42.350292]]],[[[-71.06177,42.348421],[-71.061625,42.34839],[-71.061607,42.348403],[-71.061752,42.348434],[-71.06177,42.348421]]],[[[-71.061766,42.349666],[-71.061736,42.349633],[-71.061515,42.349602],[-71.061544,42.349582],[-71.061533,42.349543],[-71.061447,42.349525],[-71.06142,42.349501],[-71.061185,42.349468],[-71.06114,42.34949],[-71.06115,42.349529],[-71.061236,42.349547],[-71.061264,42.349571],[-71.061485,42.349602],[-71.061452,42.349636],[-71.061482,42.349669],[-71.061717,42.349702],[-71.061751,42.349691],[-71.061766,42.349666]]],[[[-71.061747,42.353738],[-71.061602,42.353707],[-71.061584,42.35372],[-71.061729,42.353751],[-71.061747,42.353738]]],[[[-71.061692,42.348648],[-71.061666,42.348619],[-71.061419,42.348584],[-71.061389,42.348594],[-71.061376,42.348616],[-71.061262,42.348605],[-71.061234,42.348636],[-71.061262,42.348667],[-71.06152,42.348704],[-71.061552,42.348694],[-71.061565,42.34867],[-71.061666,42.348677],[-71.061692,42.348648]]],[[[-71.06161,42.348837],[-71.061465,42.348806],[-71.061447,42.348819],[-71.061229,42.34879],[-71.061199,42.3488],[-71.061186,42.348822],[-71.061212,42.34885],[-71.06146,42.348885],[-71.06149,42.348876],[-71.061499,42.348842],[-71.061592,42.34885],[-71.06161,42.348837]]],[[[-71.061608,42.3485],[-71.061463,42.348469],[-71.061445,42.348482],[-71.06159,42.348513],[-71.061608,42.3485]]],[[[-71.061597,42.348184],[-71.06147,42.348155],[-71.061467,42.348133],[-71.061434,42.348108],[-71.061122,42.348064],[-71.061078,42.348077],[-71.06106,42.34811],[-71.061098,42.348152],[-71.06141,42.348196],[-71.061454,42.348182],[-71.061579,42.348197],[-71.061597,42.348184]]],[[[-71.061493,42.35095],[-71.06147,42.350933],[-71.061295,42.350909],[-71.061273,42.350926],[-71.061295,42.350942],[-71.06147,42.350967],[-71.061493,42.35095]]],[[[-71.061438,42.349255],[-71.061348,42.349231],[-71.061331,42.349208],[-71.061127,42.349179],[-71.061097,42.349201],[-71.061115,42.349221],[-71.061267,42.349247],[-71.06142,42.349268],[-71.061438,42.349255]]],[[[-71.061418,42.351122],[-71.061273,42.351091],[-71.061255,42.351104],[-71.0614,42.351135],[-71.061418,42.351122]]],[[[-71.061399,42.349052],[-71.06138,42.349038],[-71.061215,42.349014],[-71.061195,42.349029],[-71.061215,42.349043],[-71.06138,42.349066],[-71.061399,42.349052]]],[[[-71.061397,42.35118],[-71.061252,42.351149],[-71.061234,42.351162],[-71.061379,42.351193],[-71.061397,42.35118]]],[[[-71.061371,42.35124],[-71.061226,42.351209],[-71.061208,42.351222],[-71.061353,42.351253],[-71.061371,42.35124]]],[[[-71.061368,42.34943],[-71.061223,42.349399],[-71.061205,42.349412],[-71.06135,42.349443],[-71.061368,42.34943]]],[[[-71.061352,42.351289],[-71.061207,42.351258],[-71.061189,42.351271],[-71.061334,42.351302],[-71.061352,42.351289]]],[[[-71.061282,42.34963],[-71.061127,42.349597],[-71.061109,42.349611],[-71.061264,42.349643],[-71.061282,42.34963]]],[[[-71.061261,42.349678],[-71.061106,42.349645],[-71.061088,42.349659],[-71.061243,42.349691],[-71.061261,42.349678]]],[[[-71.061244,42.35337],[-71.061185,42.353351],[-71.061177,42.353332],[-71.061136,42.353326],[-71.061127,42.353308],[-71.060993,42.353289],[-71.060975,42.353302],[-71.061027,42.35332],[-71.061036,42.353339],[-71.061083,42.353345],[-71.061092,42.353365],[-71.061226,42.353383],[-71.061244,42.35337]]],[[[-71.061238,42.354774],[-71.061093,42.354743],[-71.061075,42.354756],[-71.06122,42.354787],[-71.061238,42.354774]]],[[[-71.061222,42.34983],[-71.061196,42.349801],[-71.060949,42.349766],[-71.060919,42.349776],[-71.060906,42.349798],[-71.060932,42.349826],[-71.06118,42.349861],[-71.06121,42.349852],[-71.061222,42.34983]]],[[[-71.061188,42.354916],[-71.061043,42.354885],[-71.061025,42.354898],[-71.06117,42.354929],[-71.061188,42.354916]]],[[[-71.061156,42.35003],[-71.061124,42.349995],[-71.060844,42.349955],[-71.060807,42.349966],[-71.060792,42.349994],[-71.060824,42.350029],[-71.061104,42.350068],[-71.061141,42.350057],[-71.061156,42.35003]]],[[[-71.061048,42.353275],[-71.060884,42.353241],[-71.060866,42.353255],[-71.06103,42.353288],[-71.061048,42.353275]]],[[[-71.061038,42.34849],[-71.060893,42.348459],[-71.060875,42.348472],[-71.06102,42.348503],[-71.061038,42.34849]]],[[[-71.061032,42.348602],[-71.061,42.348567],[-71.06072,42.348527],[-71.060683,42.348538],[-71.060668,42.348566],[-71.0607,42.348601],[-71.06098,42.34864],[-71.061017,42.348629],[-71.061032,42.348602]]],[[[-71.061005,42.348717],[-71.060971,42.348679],[-71.060681,42.348639],[-71.060642,42.34865],[-71.060626,42.348679],[-71.06066,42.348717],[-71.06095,42.348758],[-71.060989,42.348746],[-71.061005,42.348717]]],[[[-71.060988,42.353363],[-71.060914,42.353342],[-71.060922,42.353325],[-71.060858,42.35331],[-71.060851,42.35329],[-71.060717,42.353271],[-71.060699,42.353284],[-71.060754,42.353303],[-71.060761,42.353323],[-71.060834,42.353334],[-71.060836,42.353358],[-71.06097,42.353376],[-71.060988,42.353363]]],[[[-71.060942,42.348827],[-71.060916,42.348798],[-71.060669,42.348763],[-71.060639,42.348773],[-71.060626,42.348795],[-71.060652,42.348823],[-71.0609,42.348858],[-71.06093,42.348849],[-71.060942,42.348827]]],[[[-71.060938,42.35322],[-71.060793,42.353189],[-71.060775,42.353202],[-71.06092,42.353233],[-71.060938,42.35322]]],[[[-71.060847,42.349174],[-71.060803,42.349125],[-71.060459,42.349077],[-71.060409,42.349092],[-71.060388,42.34913],[-71.060432,42.349178],[-71.060776,42.349227],[-71.060827,42.349211],[-71.060847,42.349174]]],[[[-71.060733,42.34939],[-71.060703,42.349357],[-71.060443,42.349311],[-71.060425,42.349324],[-71.060423,42.349373],[-71.060396,42.349384],[-71.060406,42.349402],[-71.060684,42.349426],[-71.060718,42.349415],[-71.060733,42.34939]]],[[[-71.060695,42.349506],[-71.060665,42.349473],[-71.060393,42.34942],[-71.060347,42.349471],[-71.060377,42.349504],[-71.060646,42.349542],[-71.06068,42.349531],[-71.060695,42.349506]]],[[[-71.060628,42.34926],[-71.060483,42.349229],[-71.060465,42.349242],[-71.06061,42.349273],[-71.060628,42.34926]]],[[[-71.060609,42.34967],[-71.060579,42.349637],[-71.06031,42.349599],[-71.060275,42.34961],[-71.060261,42.349635],[-71.060291,42.349668],[-71.06056,42.349706],[-71.060594,42.349695],[-71.060609,42.34967]]],[[[-71.060608,42.3493],[-71.060463,42.349269],[-71.060445,42.349282],[-71.06059,42.349313],[-71.060608,42.3493]]],[[[-71.060598,42.35304],[-71.060453,42.353009],[-71.060435,42.353022],[-71.06058,42.353053],[-71.060598,42.35304]]],[[[-71.060582,42.349792],[-71.06055,42.349757],[-71.06027,42.349717],[-71.060233,42.349728],[-71.060218,42.349756],[-71.06025,42.349791],[-71.06053,42.34983],[-71.060567,42.349819],[-71.060582,42.349792]]],[[[-71.060518,42.352997],[-71.060467,42.352979],[-71.060457,42.352962],[-71.060313,42.352941],[-71.060295,42.352955],[-71.060356,42.352974],[-71.060366,42.352992],[-71.0605,42.35301],[-71.060518,42.352997]]],[[[-71.060508,42.353283],[-71.060353,42.35325],[-71.060335,42.353264],[-71.06049,42.353296],[-71.060508,42.353283]]],[[[-71.060504,42.35315],[-71.060359,42.353119],[-71.060341,42.353132],[-71.060486,42.353163],[-71.060504,42.35315]]],[[[-71.060504,42.3496],[-71.060359,42.349569],[-71.060341,42.349582],[-71.060486,42.349613],[-71.060504,42.3496]]],[[[-71.060504,42.349556],[-71.060359,42.349525],[-71.060341,42.349538],[-71.060486,42.349569],[-71.060504,42.349556]]],[[[-71.060428,42.3531],[-71.060367,42.35308],[-71.060374,42.35307],[-71.060356,42.353057],[-71.060229,42.353039],[-71.060211,42.353052],[-71.060272,42.353072],[-71.060265,42.353082],[-71.060283,42.353096],[-71.06041,42.353113],[-71.060428,42.3531]]],[[[-71.060419,42.353405],[-71.060413,42.35337],[-71.060273,42.353349],[-71.060143,42.353347],[-71.060119,42.353374],[-71.060143,42.353401],[-71.06038,42.353434],[-71.060419,42.353405]]],[[[-71.060388,42.349884],[-71.060233,42.349851],[-71.060215,42.349865],[-71.06037,42.349897],[-71.060388,42.349884]]],[[[-71.060358,42.353447],[-71.060213,42.353416],[-71.060195,42.353429],[-71.06034,42.35346],[-71.060358,42.353447]]],[[[-71.060318,42.350037],[-71.060173,42.350006],[-71.060155,42.350019],[-71.0603,42.35005],[-71.060318,42.350037]]],[[[-71.060314,42.35015],[-71.060285,42.350118],[-71.060297,42.35011],[-71.060287,42.350093],[-71.060153,42.350074],[-71.06014,42.350096],[-71.06003,42.350086],[-71.06,42.35012],[-71.06003,42.350153],[-71.060265,42.350186],[-71.060299,42.350175],[-71.060314,42.35015]]],[[[-71.060174,42.34947],[-71.06015,42.349443],[-71.059913,42.34941],[-71.059874,42.349439],[-71.059898,42.349466],[-71.060135,42.349499],[-71.060174,42.34947]]],[[[-71.060158,42.352962],[-71.060013,42.352931],[-71.059995,42.352944],[-71.06014,42.352975],[-71.060158,42.352962]]],[[[-71.060119,42.349556],[-71.060101,42.349536],[-71.059897,42.349507],[-71.059867,42.349529],[-71.059885,42.349549],[-71.06009,42.349578],[-71.060119,42.349556]]],[[[-71.060105,42.35341],[-71.060077,42.353379],[-71.059819,42.353343],[-71.059787,42.353353],[-71.059774,42.353376],[-71.059802,42.353407],[-71.06006,42.353444],[-71.060092,42.353434],[-71.060105,42.35341]]],[[[-71.060086,42.349644],[-71.060064,42.34962],[-71.059838,42.349588],[-71.059802,42.349614],[-71.059824,42.349639],[-71.06005,42.34967],[-71.060086,42.349644]]],[[[-71.059972,42.351044],[-71.059946,42.351015],[-71.059699,42.35098],[-71.059669,42.35099],[-71.059656,42.351012],[-71.059682,42.35104],[-71.05993,42.351075],[-71.05996,42.351066],[-71.059972,42.351044]]],[[[-71.059901,42.351135],[-71.059875,42.351116],[-71.059691,42.35109],[-71.059667,42.351102],[-71.059691,42.351128],[-71.059875,42.351154],[-71.059901,42.351135]]],[[[-71.059858,42.3533],[-71.05981,42.353282],[-71.059822,42.35326],[-71.059796,42.353231],[-71.059549,42.353196],[-71.059519,42.353206],[-71.059506,42.353228],[-71.059532,42.353256],[-71.059695,42.353279],[-71.059713,42.353296],[-71.05984,42.353313],[-71.059858,42.3533]]],[[[-71.059758,42.352753],[-71.059677,42.352725],[-71.059479,42.352697],[-71.059461,42.352711],[-71.059596,42.352746],[-71.05974,42.352766],[-71.059758,42.352753]]],[[[-71.059669,42.354954],[-71.05962,42.35493],[-71.059613,42.354903],[-71.059562,42.354868],[-71.059347,42.354838],[-71.059317,42.354852],[-71.059324,42.354879],[-71.059375,42.354914],[-71.059419,42.35492],[-71.059435,42.354947],[-71.05964,42.354976],[-71.059669,42.354954]]],[[[-71.059649,42.35171],[-71.059619,42.351677],[-71.059383,42.351644],[-71.059349,42.351654],[-71.059335,42.35168],[-71.059189,42.351663],[-71.059167,42.35168],[-71.059189,42.351696],[-71.0596,42.351746],[-71.059634,42.351735],[-71.059649,42.35171]]],[[[-71.059589,42.352783],[-71.059559,42.35275],[-71.059323,42.352717],[-71.059289,42.352727],[-71.059275,42.352753],[-71.059305,42.352786],[-71.05954,42.352819],[-71.059574,42.352808],[-71.059589,42.352783]]],[[[-71.059562,42.3516],[-71.059542,42.351578],[-71.059327,42.351548],[-71.059297,42.351562],[-71.059304,42.351589],[-71.059236,42.351584],[-71.059222,42.351609],[-71.05943,42.351646],[-71.059454,42.351634],[-71.059446,42.351612],[-71.05953,42.351624],[-71.059562,42.3516]]],[[[-71.059518,42.351097],[-71.059373,42.351066],[-71.059355,42.351079],[-71.0595,42.35111],[-71.059518,42.351097]]],[[[-71.059482,42.354813],[-71.059473,42.354796],[-71.059428,42.354786],[-71.059413,42.354738],[-71.059378,42.354709],[-71.059152,42.354677],[-71.059119,42.354693],[-71.059126,42.354722],[-71.059171,42.354732],[-71.059174,42.354763],[-71.059219,42.354773],[-71.059235,42.354807],[-71.05945,42.354837],[-71.059482,42.354813]]],[[[-71.059478,42.35117],[-71.059333,42.351139],[-71.059315,42.351152],[-71.05946,42.351183],[-71.059478,42.35117]]],[[[-71.059428,42.3531],[-71.059283,42.353069],[-71.059265,42.353082],[-71.05941,42.353113],[-71.059428,42.3531]]],[[[-71.059418,42.35301],[-71.059273,42.352979],[-71.059255,42.352992],[-71.0594,42.353023],[-71.059418,42.35301]]],[[[-71.059323,42.35178],[-71.0593,42.351763],[-71.059125,42.351739],[-71.059103,42.351756],[-71.059125,42.351772],[-71.0593,42.351797],[-71.059323,42.35178]]],[[[-71.059219,42.35129],[-71.059204,42.351265],[-71.059148,42.351251],[-71.059188,42.35124],[-71.059129,42.351197],[-71.05886,42.351159],[-71.058825,42.35117],[-71.058811,42.351195],[-71.058825,42.35122],[-71.058881,42.351234],[-71.058875,42.351269],[-71.058899,42.351287],[-71.058855,42.351297],[-71.058841,42.351322],[-71.058871,42.351355],[-71.059159,42.35139],[-71.059189,42.351357],[-71.05916,42.351325],[-71.059204,42.351315],[-71.059219,42.35129]]],[[[-71.059184,42.353294],[-71.059039,42.353263],[-71.058719,42.353237],[-71.058613,42.353237],[-71.058595,42.35325],[-71.05874,42.353281],[-71.059166,42.353307],[-71.059184,42.353294]]],[[[-71.059098,42.35146],[-71.058953,42.351429],[-71.058935,42.351442],[-71.05908,42.351473],[-71.059098,42.35146]]],[[[-71.059092,42.354385],[-71.05906,42.354361],[-71.058857,42.354333],[-71.058827,42.354347],[-71.058834,42.354374],[-71.058857,42.354381],[-71.05906,42.354409],[-71.059092,42.354385]]],[[[-71.059066,42.351517],[-71.05904,42.351498],[-71.058856,42.351472],[-71.058832,42.351484],[-71.058856,42.35151],[-71.05904,42.351536],[-71.059066,42.351517]]],[[[-71.059018,42.354332],[-71.058873,42.354301],[-71.058855,42.354314],[-71.059,42.354345],[-71.059018,42.354332]]],[[[-71.059006,42.351604],[-71.058984,42.35158],[-71.058758,42.351548],[-71.058722,42.351574],[-71.058744,42.351599],[-71.05897,42.35163],[-71.059006,42.351604]]],[[[-71.058959,42.35429],[-71.05894,42.354276],[-71.058775,42.354252],[-71.058755,42.354267],[-71.058775,42.354281],[-71.05894,42.354304],[-71.058959,42.35429]]],[[[-71.058948,42.351646],[-71.058784,42.351612],[-71.058766,42.351626],[-71.05893,42.351659],[-71.058948,42.351646]]],[[[-71.058922,42.35169],[-71.05889,42.351666],[-71.058687,42.351638],[-71.058657,42.351652],[-71.058664,42.351679],[-71.058687,42.351686],[-71.05889,42.351714],[-71.058922,42.35169]]],[[[-71.058886,42.351738],[-71.058864,42.351714],[-71.058638,42.351682],[-71.058605,42.351698],[-71.058612,42.351727],[-71.058574,42.351726],[-71.058552,42.35175],[-71.058574,42.351775],[-71.0588,42.351806],[-71.058833,42.35179],[-71.058825,42.351761],[-71.058864,42.351762],[-71.058886,42.351738]]],[[[-71.058778,42.351826],[-71.05876,42.351813],[-71.058494,42.351785],[-71.058455,42.351814],[-71.058479,42.351841],[-71.058716,42.351874],[-71.058744,42.351865],[-71.058778,42.351826]]],[[[-71.058692,42.351906],[-71.058672,42.351884],[-71.058457,42.351854],[-71.058427,42.351868],[-71.058424,42.351899],[-71.058437,42.351921],[-71.05862,42.351947],[-71.058683,42.351923],[-71.058692,42.351906]]],[[[-71.058598,42.351967],[-71.058453,42.351936],[-71.05824,42.351922],[-71.058206,42.351959],[-71.05822,42.35201],[-71.058182,42.352009],[-71.058154,42.35204],[-71.058167,42.352064],[-71.058233,42.352091],[-71.05837,42.35211],[-71.058457,42.352105],[-71.058482,42.352087],[-71.058482,42.352061],[-71.058569,42.352026],[-71.058598,42.351967]]],[[[-71.058568,42.35253],[-71.05855,42.352517],[-71.058363,42.352493],[-71.058345,42.352505],[-71.058123,42.352481],[-71.058105,42.352494],[-71.058123,42.352508],[-71.05841,42.352541],[-71.058428,42.352529],[-71.05855,42.352543],[-71.058568,42.35253]]],[[[-71.058499,42.35248],[-71.05848,42.352466],[-71.058315,42.352442],[-71.058133,42.352436],[-71.058115,42.352449],[-71.05826,42.35248],[-71.05848,42.352494],[-71.058499,42.35248]]],[[[-71.058288,42.35091],[-71.0582,42.350874],[-71.058073,42.350856],[-71.058055,42.350869],[-71.058143,42.350906],[-71.05827,42.350923],[-71.058288,42.35091]]],[[[-71.058038,42.352665],[-71.057893,42.352634],[-71.057875,42.352647],[-71.05802,42.352678],[-71.058038,42.352665]]],[[[-71.058032,42.352768],[-71.057887,42.352737],[-71.057869,42.35275],[-71.058014,42.352781],[-71.058032,42.352768]]],[[[-71.058008,42.352905],[-71.057863,42.352874],[-71.057845,42.352887],[-71.05799,42.352918],[-71.058008,42.352905]]],[[[-71.057803,42.350693],[-71.057747,42.350665],[-71.057613,42.350646],[-71.057595,42.350659],[-71.057651,42.350688],[-71.057785,42.350706],[-71.057803,42.350693]]],[[[-71.05775,42.352226],[-71.057724,42.352207],[-71.057622,42.352193],[-71.057605,42.35217],[-71.057536,42.35216],[-71.05751,42.352141],[-71.057369,42.352112],[-71.057351,42.35209],[-71.057146,42.352061],[-71.057117,42.352083],[-71.057135,42.352103],[-71.05722,42.352115],[-71.057246,42.352133],[-71.057372,42.35216],[-71.057389,42.352183],[-71.057514,42.3522],[-71.05754,42.352219],[-71.057724,42.352245],[-71.05775,42.352226]]],[[[-71.057414,42.350403],[-71.057269,42.350372],[-71.057251,42.350385],[-71.057396,42.350416],[-71.057414,42.350403]]],[[[-71.057398,42.350494],[-71.057253,42.350463],[-71.057235,42.350476],[-71.05738,42.350507],[-71.057398,42.350494]]],[[[-71.057348,42.351707],[-71.057193,42.351674],[-71.057175,42.351688],[-71.05733,42.35172],[-71.057348,42.351707]]],[[[-71.057338,42.35175],[-71.057193,42.351719],[-71.057175,42.351732],[-71.05732,42.351763],[-71.057338,42.35175]]],[[[-71.057309,42.351897],[-71.057164,42.351866],[-71.057146,42.351879],[-71.057291,42.35191],[-71.057309,42.351897]]],[[[-71.057298,42.351955],[-71.057162,42.351925],[-71.057144,42.351939],[-71.05728,42.351968],[-71.057298,42.351955]]],[[[-71.057298,42.350925],[-71.057134,42.350891],[-71.057116,42.350905],[-71.05728,42.350938],[-71.057298,42.350925]]],[[[-71.057268,42.351063],[-71.057104,42.351029],[-71.057086,42.351043],[-71.05725,42.351076],[-71.057268,42.351063]]],[[[-71.057208,42.35141],[-71.057063,42.351379],[-71.057045,42.351392],[-71.05719,42.351423],[-71.057208,42.35141]]],[[[-71.057198,42.35055],[-71.056949,42.350502],[-71.056931,42.350515],[-71.05718,42.350563],[-71.057198,42.35055]]],[[[-71.057147,42.350632],[-71.057002,42.350601],[-71.056984,42.350614],[-71.057129,42.350645],[-71.057147,42.350632]]],[[[-71.057038,42.34984],[-71.056893,42.349809],[-71.056875,42.349822],[-71.05702,42.349853],[-71.057038,42.34984]]],[[[-71.057022,42.349903],[-71.057002,42.349881],[-71.056789,42.349851],[-71.056772,42.349818],[-71.056557,42.349788],[-71.056527,42.349802],[-71.056545,42.349834],[-71.056758,42.349864],[-71.056775,42.349897],[-71.05699,42.349927],[-71.057022,42.349903]]],[[[-71.056868,42.352028],[-71.056746,42.352],[-71.056737,42.351982],[-71.056584,42.35196],[-71.056566,42.351974],[-71.056678,42.352],[-71.056687,42.352019],[-71.05685,42.352041],[-71.056868,42.352028]]],[[[-71.056834,42.35023],[-71.056689,42.350199],[-71.056671,42.350212],[-71.056816,42.350243],[-71.056834,42.35023]]],[[[-71.056829,42.34976],[-71.056805,42.349733],[-71.056568,42.3497],[-71.056529,42.349729],[-71.056553,42.349756],[-71.05679,42.349789],[-71.056829,42.34976]]],[[[-71.056798,42.350307],[-71.056653,42.350276],[-71.056635,42.350289],[-71.05678,42.35032],[-71.056798,42.350307]]],[[[-71.056774,42.349915],[-71.056744,42.349882],[-71.056509,42.349849],[-71.056474,42.349859],[-71.05646,42.349885],[-71.05649,42.349918],[-71.056725,42.349951],[-71.056759,42.34994],[-71.056774,42.349915]]],[[[-71.056729,42.350006],[-71.056699,42.349973],[-71.056464,42.34994],[-71.056429,42.34995],[-71.056415,42.349976],[-71.056445,42.350009],[-71.05668,42.350042],[-71.056714,42.350031],[-71.056729,42.350006]]],[[[-71.056659,42.350094],[-71.056641,42.350074],[-71.056437,42.350045],[-71.056407,42.350067],[-71.056425,42.350087],[-71.05663,42.350116],[-71.056659,42.350094]]],[[[-71.056643,42.350613],[-71.056469,42.350578],[-71.056451,42.350591],[-71.056625,42.350626],[-71.056643,42.350613]]],[[[-71.056626,42.353203],[-71.056618,42.353189],[-71.05655,42.353177],[-71.056554,42.353155],[-71.056469,42.353141],[-71.056483,42.353133],[-71.056472,42.353114],[-71.056386,42.353102],[-71.056386,42.353078],[-71.056246,42.353056],[-71.056237,42.353038],[-71.056103,42.353019],[-71.056085,42.353032],[-71.056177,42.353056],[-71.056179,42.353077],[-71.056285,42.353095],[-71.056286,42.353114],[-71.05637,42.353128],[-71.056357,42.353147],[-71.056404,42.35316],[-71.056392,42.353185],[-71.056406,42.353195],[-71.0566,42.353222],[-71.056626,42.353203]]],[[[-71.056622,42.350185],[-71.05659,42.350161],[-71.056387,42.350133],[-71.056357,42.350147],[-71.056364,42.350174],[-71.056387,42.350181],[-71.05659,42.350209],[-71.056622,42.350185]]],[[[-71.056608,42.35068],[-71.056434,42.350645],[-71.056416,42.350658],[-71.05659,42.350693],[-71.056608,42.35068]]],[[[-71.056559,42.350834],[-71.056529,42.350801],[-71.056293,42.350768],[-71.056259,42.350778],[-71.056245,42.350804],[-71.056275,42.350837],[-71.05651,42.35087],[-71.056544,42.350859],[-71.056559,42.350834]]],[[[-71.056468,42.35192],[-71.056377,42.351888],[-71.056252,42.35187],[-71.056234,42.351884],[-71.056287,42.351911],[-71.05645,42.351933],[-71.056468,42.35192]]],[[[-71.056428,42.35103],[-71.056283,42.350999],[-71.056265,42.351012],[-71.05641,42.351043],[-71.056428,42.35103]]],[[[-71.056398,42.351097],[-71.056224,42.351062],[-71.056206,42.351075],[-71.05638,42.35111],[-71.056398,42.351097]]],[[[-71.056364,42.351176],[-71.056219,42.351145],[-71.056201,42.351158],[-71.056346,42.351189],[-71.056364,42.351176]]],[[[-71.056338,42.35493],[-71.056164,42.354895],[-71.056146,42.354908],[-71.05632,42.354943],[-71.056338,42.35493]]],[[[-71.056328,42.354836],[-71.056154,42.354801],[-71.056136,42.354814],[-71.05631,42.354849],[-71.056328,42.354836]]],[[[-71.056309,42.35475],[-71.05629,42.354736],[-71.056125,42.354712],[-71.056105,42.354727],[-71.056125,42.354741],[-71.05629,42.354764],[-71.056309,42.35475]]],[[[-71.056306,42.35467],[-71.05628,42.354651],[-71.056096,42.354625],[-71.056072,42.354637],[-71.056096,42.354663],[-71.05628,42.354689],[-71.056306,42.35467]]],[[[-71.056258,42.351376],[-71.056103,42.351343],[-71.056085,42.351357],[-71.05624,42.351389],[-71.056258,42.351376]]],[[[-71.056256,42.350842],[-71.056082,42.350807],[-71.056064,42.35082],[-71.056238,42.350855],[-71.056256,42.350842]]],[[[-71.056239,42.351411],[-71.056084,42.351378],[-71.056066,42.351392],[-71.056221,42.351424],[-71.056239,42.351411]]],[[[-71.056226,42.350933],[-71.056052,42.350898],[-71.056034,42.350911],[-71.056208,42.350946],[-71.056226,42.350933]]],[[[-71.056208,42.35145],[-71.056053,42.351417],[-71.056035,42.351431],[-71.05619,42.351463],[-71.056208,42.35145]]],[[[-71.056186,42.351036],[-71.056012,42.351001],[-71.055994,42.351014],[-71.056168,42.351049],[-71.056186,42.351036]]],[[[-71.056148,42.351145],[-71.055974,42.35111],[-71.055956,42.351123],[-71.05613,42.351158],[-71.056148,42.351145]]],[[[-71.056078,42.35171],[-71.055923,42.351677],[-71.055905,42.351691],[-71.05606,42.351723],[-71.056078,42.35171]]],[[[-71.055977,42.351355],[-71.055803,42.35132],[-71.055785,42.351333],[-71.055959,42.351368],[-71.055977,42.351355]]],[[[-71.055953,42.351412],[-71.055779,42.351377],[-71.055761,42.35139],[-71.055935,42.351425],[-71.055953,42.351412]]],[[[-71.05592,42.351482],[-71.055746,42.351447],[-71.055728,42.35146],[-71.055902,42.351495],[-71.05592,42.351482]]],[[[-71.055888,42.351561],[-71.055714,42.351526],[-71.055696,42.351539],[-71.05587,42.351574],[-71.055888,42.351561]]],[[[-71.055869,42.352226],[-71.055839,42.352193],[-71.055603,42.35216],[-71.055569,42.35217],[-71.055559,42.352209],[-71.055521,42.352246],[-71.055551,42.352279],[-71.055786,42.352312],[-71.05582,42.352301],[-71.055831,42.352262],[-71.055869,42.352226]]],[[[-71.055859,42.351622],[-71.055685,42.351587],[-71.055667,42.3516],[-71.055841,42.351635],[-71.055859,42.351622]]],[[[-71.055808,42.351727],[-71.055634,42.351692],[-71.055616,42.351705],[-71.05579,42.35174],[-71.055808,42.351727]]],[[[-71.055788,42.353336],[-71.055756,42.353312],[-71.055553,42.353284],[-71.055523,42.353298],[-71.05553,42.353325],[-71.055553,42.353332],[-71.055756,42.35336],[-71.055788,42.353336]]],[[[-71.055788,42.351776],[-71.055614,42.351741],[-71.055596,42.351754],[-71.05577,42.351789],[-71.055788,42.351776]]],[[[-71.055724,42.353394],[-71.055706,42.353374],[-71.055501,42.353345],[-71.055472,42.353367],[-71.05549,42.353387],[-71.055695,42.353416],[-71.055724,42.353394]]],[[[-71.055645,42.35343],[-71.055626,42.353416],[-71.055461,42.353392],[-71.055441,42.353407],[-71.055461,42.353421],[-71.055626,42.353444],[-71.055645,42.35343]]],[[[-71.055558,42.353497],[-71.055384,42.353462],[-71.055366,42.353475],[-71.05554,42.35351],[-71.055558,42.353497]]],[[[-71.055498,42.35353],[-71.055343,42.353497],[-71.055325,42.353511],[-71.05548,42.353543],[-71.055498,42.35353]]],[[[-71.055262,42.353653],[-71.055117,42.353622],[-71.055099,42.353635],[-71.055016,42.353623],[-71.054996,42.35363],[-71.054995,42.353659],[-71.054973,42.353676],[-71.054995,42.353692],[-71.05517,42.353717],[-71.055186,42.353712],[-71.055188,42.353691],[-71.055231,42.353687],[-71.055262,42.353653]]]]},"properties":{"kind":"tree"}}]}