{"type":"FeatureCollection","features":[{"type":"Feature","geometry":{"type":"MultiPolygon","coordinates":[[[[-71.06703,42.351826],[-71.067007,42.351692],[-71.066747,42.351106],[-71.065982,42.350901],[-71.065959,42.350666],[-71.065835,42.350633],[-71.065953,42.350615],[-71.06593,42.350327],[-71.065573,42.350232],[-71.06547,42.350238],[-71.064857,42.350074],[-71.065341,42.3502],[-71.065528,42.350227],[-71.065916,42.350219],[-71.065881,42.34989],[-71.065776,42.349769],[-71.065672,42.349741],[-71.065692,42.349648],[-71.065904,42.349705],[-71.065981,42.349681],[-71.065985,42.349667],[-71.066009,42.349673],[-71.066095,42.349646],[-71.066009,42.349494],[-71.066043,42.349503],[-71.066107,42.349483],[-71.066051,42.349385],[-71.065602,42.349265],[-71.06554,42.349285],[-71.065591,42.349378],[-71.064829,42.349201],[-71.064819,42.349181],[-71.06492,42.349208],[-71.065182,42.349085],[-71.065279,42.349075],[-71.06533,42.348887],[-71.065323,42.348802],[-71.065279,42.348688],[-71.064667,42.34853],[-71.064016,42.348458],[-71.064011,42.348476],[-71.063945,42.348464],[-71.063149,42.34825],[-71.063229,42.348263],[-71.063253,42.34818],[-71.063238,42.348159],[-71.063365,42.348193],[-71.063986,42.348286],[-71.06402,42.348291],[-71.064024,42.348275],[-71.06444,42.348386],[-71.064805,42.348442],[-71.064851,42.348357],[-71.064911,42.348426],[-71.065094,42.348475],[-71.065342,42.348432],[-71.065917,42.348586],[-71.066455,42.348649],[-71.066483,42.348529],[-71.065927,42.34838],[-71.065995,42.348064],[-71.065521,42.347935],[-71.065529,42.347903],[-71.065491,42.347827],[-71.065315,42.347766],[-71.065319,42.347677],[-71.065257,42.347643],[-71.064568,42.347459],[-71.064205,42.347403],[-71.063814,42.347599],[-71.063727,42.347798],[-71.063638,42.347783],[-71.063628,42.347815],[-71.062668,42.347558],[-71.062548,42.347539],[-71.062483,42.347591],[-71.062313,42.347562],[-71.062254,42.347717],[-71.062336,42.347739],[-71.062314,42.347817],[-71.062173,42.347789],[-71.062148,42.347867],[-71.06181,42.347777],[-71.061866,42.34764],[-71.059664,42.347056],[-71.059518,42.347406],[-71.059507,42.347498],[-71.06131,42.347981],[-71.061221,42.348203],[-71.061052,42.348157],[-71.061068,42.348118],[-71.061011,42.348097],[-71.057811,42.347241],[-71.057349,42.347883],[-71.060339,42.348683],[-71.060335,42.348702],[-71.060402,42.348753],[-71.060656,42.348821],[-71.060632,42.348816],[-71.060627,42.34883],[-71.06032,42.348753],[-71.060301,42.348801],[-71.060349,42.348814],[-71.060342,42.348833],[-71.059516,42.348613],[-71.059236,42.348556],[-71.059164,42.348754],[-71.057121,42.348207],[-71.057024,42.348426],[-71.056268,42.348224],[-71.056683,42.347603],[-71.056673,42.347544],[-71.055908,42.347262],[-71.055039,42.34703],[-71.054039,42.348517],[-71.053869,42.348472],[-71.053432,42.34892],[-71.053399,42.34897],[-71.053388,42.349127],[-71.052973,42.349016],[-71.052003,42.350459],[-71.052584,42.350674],[-71.053666,42.350963],[-71.054104,42.351109],[-71.054079,42.351173],[-71.053596,42.351044],[-71.05318,42.350994],[-71.052454,42.351012],[-71.052405,42.35103],[-71.05049,42.350527],[-71.050201,42.350632],[-71.050124,42.350796],[-71.052286,42.351374],[-71.052282,42.351397],[-71.05292,42.351568],[-71.052908,42.35158],[-71.053242,42.351757],[-71.053238,42.351788],[-71.053042,42.351736],[-71.052943,42.351728],[-71.052932,42.351801],[-71.053052,42.351833],[-71.053032,42.351965],[-71.052923,42.351949],[-71.052911,42.352024],[-71.05451,42.352453],[-71.054492,42.352511],[-71.054602,42.352573],[-71.054982,42.35269],[-71.056858,42.353191],[-71.056847,42.353219],[-71.056861,42.353252],[-71.057018,42.35336],[-71.056607,42.35325],[-71.056242,42.353099],[-71.053028,42.352239],[-71.05296,42.352275],[-71.052105,42.352046],[-71.052016,42.35219],[-71.051663,42.352095],[-71.051451,42.35244],[-71.05215,42.352666],[-71.052086,42.352774],[-71.052345,42.352859],[-71.053253,42.353102],[-71.053365,42.353218],[-71.053345,42.353226],[-71.053349,42.353244],[-71.052587,42.35304],[-71.052495,42.353081],[-71.051843,42.352906],[-71.051733,42.352955],[-71.051496,42.352891],[-71.051382,42.352939],[-71.051427,42.352986],[-71.049129,42.352371],[-71.049054,42.352378],[-71.048787,42.352518],[-71.048669,42.352581],[-71.048633,42.352632],[-71.048662,42.352699],[-71.04891,42.352947],[-71.049844,42.353197],[-71.049882,42.353233],[-71.050011,42.353267],[-71.049957,42.353272],[-71.050063,42.35385],[-71.052197,42.354421],[-71.052221,42.354552],[-71.055688,42.355479],[-71.055803,42.355484],[-71.056258,42.35544],[-71.056364,42.355412],[-71.056301,42.355062],[-71.056566,42.355133],[-71.057349,42.355074],[-71.057329,42.354923],[-71.05689,42.354747],[-71.056073,42.354529],[-71.056149,42.354517],[-71.057952,42.354999],[-71.058129,42.355074],[-71.059228,42.355368],[-71.059593,42.35503],[-71.059865,42.355224],[-71.060491,42.355389],[-71.060823,42.355086],[-71.061373,42.355233],[-71.061545,42.355046],[-71.061508,42.355026],[-71.062184,42.355207],[-71.062309,42.355073],[-71.062691,42.355175],[-71.062743,42.355122],[-71.063118,42.355222],[-71.063162,42.355181],[-71.06318,42.355155],[-71.063146,42.355127],[-71.062679,42.354911],[-71.063211,42.355053],[-71.063255,42.355044],[-71.063852,42.353943],[-71.063862,42.353896],[-71.063451,42.353776],[-71.063522,42.353779],[-71.063547,42.353741],[-71.063892,42.353833],[-71.063998,42.353634],[-71.063657,42.353534],[-71.063683,42.353459],[-71.064052,42.353554],[-71.064097,42.353425],[-71.063393,42.353237],[-71.064146,42.353296],[-71.064309,42.35284],[-71.06418,42.352806],[-71.064309,42.352812],[-71.064353,42.352644],[-71.064373,42.352435],[-71.064339,42.352409],[-71.063791,42.352262],[-71.064449,42.352283],[-71.064484,42.352263],[-71.064683,42.352315],[-71.065885,42.352382],[-71.065888,42.352366],[-71.066063,42.352392],[-71.06608,42.35217],[-71.06627,42.352169],[-71.066295,42.351885],[-71.065935,42.351789],[-71.065939,42.351748],[-71.066847,42.351871],[-71.06703,42.351826]],[[-71.064484,42.349246],[-71.064448,42.349414],[-71.063741,42.349225],[-71.063772,42.349073],[-71.063738,42.349064],[-71.063745,42.349048],[-71.064484,42.349246]],[[-71.063314,42.350778],[-71.063155,42.35077],[-71.063138,42.350872],[-71.062683,42.350762],[-71.062951,42.350799],[-71.062989,42.350691],[-71.063314,42.350778]],[[-71.06246,42.347994],[-71.062431,42.347992],[-71.062433,42.347987],[-71.06246,42.347994]],[[-71.061841,42.347933],[-71.061755,42.347912],[-71.061755,42.34791],[-71.061841,42.347933]],[[-71.060737,42.349384],[-71.060723,42.349412],[-71.060526,42.349359],[-71.060538,42.34933],[-71.060737,42.349384]],[[-71.059407,42.350473],[-71.059393,42.350507],[-71.059402,42.350472],[-71.059407,42.350473]],[[-71.059162,42.349888],[-71.059105,42.350082],[-71.058452,42.349908],[-71.058028,42.349814],[-71.057993,42.349825],[-71.057229,42.34962],[-71.056825,42.349531],[-71.05682,42.349547],[-71.056696,42.349532],[-71.056752,42.349298],[-71.057853,42.349597],[-71.058297,42.349696],[-71.058312,42.349657],[-71.059162,42.349888]],[[-71.057425,42.35058],[-71.057244,42.35064],[-71.056358,42.350434],[-71.056414,42.35032],[-71.057425,42.35058]],[[-71.056936,42.348655],[-71.056807,42.348991],[-71.05623,42.348854],[-71.056199,42.348932],[-71.055855,42.34884],[-71.056124,42.348438],[-71.056936,42.348655]],[[-71.056579,42.35401],[-71.056547,42.354058],[-71.056125,42.353945],[-71.056111,42.353866],[-71.056579,42.35401]],[[-71.056171,42.348999],[-71.056158,42.349032],[-71.055792,42.348934],[-71.055812,42.348904],[-71.056171,42.348999]],[[-71.055951,42.350725],[-71.055929,42.350774],[-71.055651,42.350703],[-71.055847,42.350697],[-71.055951,42.350725]],[[-71.055367,42.350656],[-71.055236,42.350937],[-71.055292,42.35096],[-71.055133,42.350918],[-71.054967,42.350976],[-71.054544,42.350863],[-71.054787,42.3505],[-71.055367,42.350656]]],[[[-71.065565,42.354342],[-71.065534,42.354305],[-71.065083,42.354184],[-71.065043,42.354185],[-71.065007,42.354215],[-71.065012,42.354249],[-71.065042,42.354269],[-71.065487,42.354388],[-71.06554,42.354382],[-71.065565,42.354342]]],[[[-71.065421,42.352871],[-71.06506,42.352779],[-71.065043,42.352826],[-71.065069,42.352907],[-71.065378,42.352986],[-71.065421,42.352871]]],[[[-71.064727,42.352541],[-71.064483,42.352483],[-71.064448,42.352589],[-71.064692,42.352647],[-71.064727,42.352541]]],[[[-71.06461,42.353278],[-71.064363,42.353218],[-71.064329,42.353318],[-71.064576,42.35338],[-71.06461,42.353278]]],[[[-71.063935,42.354829],[-71.063699,42.354765],[-71.063676,42.354814],[-71.063912,42.354877],[-71.063935,42.354829]]]]},"properties":{"kind":"building"}},{"type":"Feature","geometry":{"type":"MultiPolygon","coordinates":[[[[-71.066058,42.353451],[-71.066047,42.35341],[-71.065968,42.353351],[-71.065575,42.353246],[-71.065611,42.353236],[-71.065824,42.353289],[-71.06586,42.353283],[-71.065911,42.353246],[-71.065911,42.353192],[-71.06586,42.353155],[-71.065886,42.353126],[-71.065981,42.353102],[-71.066007,42.353073],[-71.066016,42.353039],[-71.065995,42.352992],[-71.066039,42.352955],[-71.066048,42.352923],[-71.066021,42.352832],[-71.065942,42.352773],[-71.065649,42.352695],[-71.065665,42.35266],[-71.065645,42.35262],[-71.065976,42.352648],[-71.066016,42.352618],[-71.066022,42.352597],[-71.066,42.352558],[-71.065359,42.352385],[-71.065313,42.352397],[-71.0651,42.352361],[-71.065047,42.352377],[-71.065025,42.352416],[-71.064619,42.352312],[-71.064545,42.352334],[-71.064519,42.352373],[-71.064341,42.352325],[-71.064267,42.352325],[-71.064214,42.352364],[-71.064207,42.352392],[-71.064235,42.352443],[-71.064801,42.352601],[-71.064764,42.352632],[-71.064621,42.352611],[-71.064585,42.352651],[-71.064602,42.352681],[-71.064656,42.3527],[-71.064633,42.352717],[-71.064633,42.352745],[-71.064527,42.352722],[-71.064461,42.352755],[-71.064461,42.352795],[-71.064476,42.352813],[-71.064646,42.352863],[-71.064623,42.352884],[-71.063963,42.352712],[-71.063871,42.352712],[-71.063832,42.352731],[-71.063806,42.35276],[-71.063768,42.352872],[-71.063779,42.352913],[-71.063811,42.352948],[-71.064134,42.353045],[-71.064163,42.353093],[-71.064199,42.353111],[-71.063883,42.353034],[-71.063804,42.353058],[-71.063781,42.353084],[-71.063781,42.353147],[-71.06384,42.353191],[-71.064218,42.353292],[-71.064347,42.353374],[-71.064907,42.353524],[-71.064924,42.353558],[-71.065025,42.35359],[-71.065006,42.353622],[-71.065018,42.353647],[-71.06482,42.353594],[-71.064746,42.353605],[-71.064726,42.353641],[-71.064746,42.353676],[-71.064901,42.353723],[-71.064901,42.353753],[-71.064681,42.353711],[-71.064648,42.353736],[-71.064648,42.35377],[-71.06472,42.353805],[-71.064716,42.353839],[-71.064412,42.353753],[-71.064444,42.353728],[-71.064444,42.353692],[-71.064483,42.35364],[-71.064443,42.353596],[-71.063906,42.353452],[-71.063835,42.353462],[-71.063821,42.353515],[-71.063782,42.353566],[-71.063822,42.353611],[-71.063776,42.353629],[-71.063756,42.35366],[-71.063664,42.353652],[-71.063618,42.353686],[-71.063621,42.353801],[-71.063716,42.353848],[-71.063623,42.35387],[-71.063524,42.353845],[-71.063494,42.35386],[-71.063501,42.353886],[-71.063592,42.353913],[-71.063597,42.353939],[-71.063632,42.353968],[-71.06359,42.35396],[-71.063538,42.353975],[-71.063385,42.353941],[-71.063282,42.353973],[-71.06325,42.354008],[-71.063239,42.354049],[-71.06325,42.35409],[-71.063329,42.354149],[-71.063424,42.354174],[-71.063356,42.35419],[-71.063335,42.354221],[-71.063159,42.35418],[-71.063103,42.354188],[-71.063024,42.354247],[-71.063013,42.354288],[-71.063024,42.354329],[-71.063056,42.354364],[-71.063103,42.354388],[-71.063701,42.354548],[-71.063671,42.354583],[-71.063238,42.354474],[-71.063179,42.354492],[-71.063154,42.354536],[-71.063167,42.354567],[-71.063095,42.35457],[-71.063084,42.354609],[-71.063192,42.354671],[-71.063797,42.354833],[-71.063882,42.354821],[-71.063901,42.354766],[-71.063946,42.354742],[-71.063976,42.35475],[-71.063961,42.354788],[-71.063969,42.354817],[-71.064025,42.354858],[-71.064807,42.355063],[-71.064847,42.355057],[-71.064903,42.355015],[-71.064911,42.354986],[-71.06488,42.354932],[-71.064372,42.354788],[-71.064354,42.354744],[-71.064267,42.354715],[-71.064264,42.354702],[-71.0644,42.354736],[-71.064451,42.354711],[-71.064496,42.354723],[-71.064475,42.35473],[-71.064484,42.354748],[-71.064714,42.354809],[-71.064738,42.354802],[-71.064729,42.354785],[-71.064928,42.354836],[-71.064979,42.354811],[-71.065513,42.354927],[-71.065607,42.354927],[-71.065952,42.355019],[-71.066004,42.355019],[-71.066041,42.354991],[-71.066046,42.354972],[-71.066026,42.354936],[-71.065682,42.354839],[-71.065647,42.354779],[-71.065607,42.354759],[-71.065348,42.354686],[-71.065301,42.354642],[-71.06495,42.354519],[-71.064973,42.354498],[-71.065049,42.35449],[-71.065062,42.354441],[-71.065029,42.354416],[-71.064743,42.354339],[-71.064764,42.354303],[-71.065735,42.354564],[-71.065785,42.354557],[-71.065855,42.354505],[-71.065865,42.354468],[-71.065827,42.3544],[-71.065095,42.354195],[-71.065095,42.354162],[-71.065063,42.354139],[-71.064739,42.354053],[-71.064775,42.354039],[-71.064794,42.354008],[-71.065168,42.354104],[-71.065212,42.354104],[-71.065244,42.354081],[-71.065244,42.354047],[-71.065156,42.354009],[-71.065158,42.353979],[-71.065315,42.354018],[-71.065361,42.354004],[-71.065375,42.353952],[-71.065419,42.353993],[-71.065621,42.354048],[-71.065611,42.354068],[-71.065623,42.354077],[-71.065956,42.354162],[-71.065968,42.35414],[-71.065899,42.354115],[-71.065938,42.354081],[-71.066009,42.354081],[-71.06602,42.354061],[-71.066009,42.354041],[-71.065744,42.353967],[-71.065764,42.353939],[-71.065749,42.353914],[-71.065599,42.35387],[-71.065568,42.353831],[-71.065416,42.35379],[-71.0654,42.353757],[-71.065567,42.353799],[-71.065621,42.353773],[-71.065608,42.353725],[-71.065527,42.353699],[-71.06555,42.353665],[-71.065532,42.353633],[-71.065472,42.353612],[-71.065551,42.353584],[-71.065583,42.353549],[-71.065586,42.353479],[-71.065912,42.353559],[-71.066015,42.353527],[-71.066047,42.353492],[-71.066058,42.353451]],[[-71.064753,42.354178],[-71.064733,42.354208],[-71.064603,42.354173],[-71.064625,42.354149],[-71.064753,42.354178]],[[-71.064511,42.354007],[-71.064487,42.354025],[-71.064367,42.353992],[-71.064388,42.353974],[-71.064511,42.354007]],[[-71.064402,42.354637],[-71.064391,42.354649],[-71.064366,42.354643],[-71.064366,42.354628],[-71.064402,42.354637]],[[-71.064383,42.354165],[-71.064383,42.354166],[-71.064297,42.354143],[-71.064383,42.354165]]],[[[-71.06583,42.348038],[-71.06579,42.347994],[-71.065253,42.34785],[-71.065182,42.34786],[-71.065163,42.347894],[-71.065203,42.347939],[-71.06574,42.348082],[-71.06579,42.348082],[-71.06583,42.348038]]],[[[-71.06579,42.34818],[-71.065756,42.348142],[-71.06527,42.348012],[-71.06521,42.348021],[-71.065194,42.34805],[-71.065228,42.348088],[-71.065714,42.348218],[-71.065756,42.348218],[-71.06579,42.34818]]],[[[-71.065738,42.348446],[-71.065702,42.348406],[-71.065517,42.348357],[-71.065552,42.348316],[-71.065514,42.348274],[-71.064994,42.348135],[-71.064946,42.348135],[-71.064913,42.34816],[-71.064913,42.348194],[-71.064946,42.348219],[-71.065151,42.348274],[-71.065119,42.348312],[-71.065136,42.348342],[-71.065129,42.348374],[-71.065451,42.348462],[-71.065469,42.348462],[-71.065481,42.34844],[-71.06568,42.348489],[-71.065721,42.348477],[-71.065738,42.348446]]],[[[-71.065728,42.348293],[-71.065487,42.348219],[-71.065464,42.348226],[-71.065474,42.348244],[-71.065703,42.348305],[-71.065728,42.348293]]],[[[-71.065598,42.348957],[-71.065375,42.348888],[-71.065351,42.348905],[-71.06499,42.348813],[-71.064951,42.348819],[-71.064941,42.348838],[-71.064963,42.348862],[-71.065346,42.348964],[-71.065393,42.34895],[-71.065376,42.348917],[-71.065573,42.348969],[-71.065598,42.348957]]],[[[-71.065588,42.351223],[-71.065313,42.35114],[-71.065289,42.351147],[-71.065299,42.351165],[-71.065563,42.351235],[-71.065588,42.351223]]],[[[-71.065562,42.349094],[-71.064897,42.348916],[-71.064844,42.348924],[-71.06483,42.348949],[-71.06486,42.348982],[-71.065311,42.349103],[-71.065349,42.349103],[-71.065379,42.34907],[-71.065537,42.349106],[-71.065562,42.349094]]],[[[-71.065559,42.349236],[-71.065529,42.349203],[-71.065138,42.349098],[-71.065085,42.349106],[-71.065071,42.349132],[-71.065101,42.349165],[-71.065491,42.349269],[-71.065529,42.349269],[-71.065559,42.349236]]],[[[-71.065433,42.34879],[-71.065403,42.348757],[-71.065012,42.348652],[-71.064959,42.34866],[-71.064945,42.348686],[-71.064975,42.348719],[-71.065365,42.348823],[-71.065403,42.348823],[-71.065433,42.34879]]],[[[-71.065368,42.35121],[-71.06511,42.351132],[-71.065087,42.351149],[-71.065004,42.351143],[-71.065013,42.351161],[-71.065243,42.351222],[-71.065267,42.351205],[-71.065343,42.351222],[-71.065368,42.35121]]],[[[-71.065176,42.35072],[-71.065168,42.350706],[-71.064828,42.350614],[-71.064794,42.350624],[-71.064808,42.350649],[-71.06514,42.350738],[-71.065176,42.35072]]],[[[-71.065151,42.350784],[-71.065143,42.35077],[-71.064803,42.350678],[-71.064769,42.350688],[-71.064783,42.350713],[-71.065115,42.350802],[-71.065151,42.350784]]],[[[-71.065129,42.350853],[-71.06482,42.35076],[-71.064794,42.350768],[-71.064805,42.350787],[-71.065103,42.350866],[-71.065129,42.350853]]],[[[-71.064944,42.35131],[-71.064686,42.351232],[-71.064663,42.351239],[-71.064672,42.351257],[-71.064919,42.351322],[-71.064944,42.35131]]],[[[-71.064857,42.348456],[-71.064616,42.348382],[-71.064593,42.348389],[-71.064603,42.348407],[-71.064832,42.348468],[-71.064857,42.348456]]],[[[-71.064732,42.353536],[-71.064724,42.353508],[-71.06467,42.353467],[-71.064082,42.35331],[-71.064083,42.35329],[-71.063796,42.353212],[-71.063614,42.353168],[-71.063584,42.353177],[-71.063596,42.353199],[-71.063871,42.353273],[-71.063813,42.353314],[-71.063612,42.353294],[-71.063622,42.353311],[-71.06381,42.353362],[-71.063867,42.353411],[-71.064631,42.35361],[-71.064702,42.353589],[-71.064732,42.353536]]],[[[-71.064624,42.351826],[-71.064383,42.351752],[-71.06436,42.351759],[-71.064369,42.351777],[-71.064599,42.351838],[-71.064624,42.351826]]],[[[-71.064621,42.348425],[-71.06438,42.348351],[-71.064172,42.348332],[-71.064182,42.34835],[-71.064411,42.348411],[-71.064435,42.348404],[-71.064596,42.348437],[-71.064621,42.348425]]],[[[-71.064568,42.352055],[-71.06431,42.351977],[-71.064287,42.351984],[-71.064296,42.352002],[-71.064543,42.352067],[-71.064568,42.352055]]],[[[-71.064564,42.352104],[-71.064255,42.352011],[-71.064229,42.352019],[-71.06424,42.352038],[-71.064538,42.352117],[-71.064564,42.352104]]],[[[-71.064548,42.35216],[-71.064307,42.352086],[-71.064284,42.352093],[-71.064293,42.352111],[-71.064523,42.352172],[-71.064548,42.35216]]],[[[-71.064238,42.350925],[-71.063997,42.350851],[-71.063974,42.350858],[-71.063548,42.350769],[-71.063506,42.350776],[-71.063498,42.350807],[-71.063377,42.350778],[-71.063383,42.350765],[-71.063365,42.350745],[-71.063016,42.350652],[-71.062889,42.350644],[-71.062879,42.350662],[-71.063285,42.350769],[-71.06284,42.350672],[-71.062814,42.35068],[-71.062825,42.350699],[-71.063018,42.350755],[-71.06351,42.350882],[-71.063675,42.350907],[-71.063698,42.3509],[-71.063705,42.350874],[-71.063934,42.350932],[-71.06405,42.350938],[-71.064146,42.35092],[-71.064227,42.350937],[-71.064238,42.350925]]],[[[-71.064209,42.34872],[-71.06388,42.34862],[-71.06385,42.348629],[-71.06386,42.34865],[-71.063606,42.348582],[-71.06358,42.34859],[-71.063591,42.348609],[-71.063889,42.348688],[-71.063914,42.348681],[-71.063906,42.348663],[-71.064177,42.348736],[-71.064209,42.34872]]],[[[-71.064168,42.34884],[-71.063886,42.348755],[-71.063886,42.348731],[-71.063564,42.348643],[-71.063534,42.348652],[-71.063546,42.348674],[-71.063855,42.348757],[-71.063862,42.348777],[-71.064143,42.348852],[-71.064168,42.34884]]],[[[-71.063879,42.34887],[-71.06357,42.348777],[-71.063544,42.348785],[-71.063555,42.348804],[-71.063853,42.348883],[-71.063879,42.34887]]],[[[-71.063873,42.348793],[-71.063632,42.348719],[-71.063609,42.348726],[-71.063619,42.348744],[-71.063848,42.348805],[-71.063873,42.348793]]],[[[-71.063821,42.349148],[-71.06358,42.349074],[-71.063557,42.349081],[-71.063567,42.349099],[-71.063796,42.34916],[-71.063821,42.349148]]],[[[-71.063808,42.348427],[-71.063567,42.348353],[-71.063454,42.348343],[-71.063464,42.348361],[-71.063693,42.348422],[-71.063783,42.348439],[-71.063808,42.348427]]],[[[-71.063768,42.349293],[-71.063527,42.349219],[-71.063504,42.349226],[-71.063514,42.349244],[-71.063743,42.349305],[-71.063768,42.349293]]],[[[-71.063755,42.349335],[-71.063514,42.349261],[-71.063491,42.349268],[-71.063501,42.349286],[-71.06373,42.349347],[-71.063755,42.349335]]],[[[-71.063689,42.34976],[-71.06338,42.349667],[-71.063354,42.349675],[-71.063365,42.349694],[-71.063663,42.349773],[-71.063689,42.34976]]],[[[-71.063632,42.349854],[-71.06334,42.349766],[-71.063316,42.349774],[-71.063326,42.349791],[-71.063607,42.349866],[-71.063632,42.349854]]],[[[-71.063579,42.34995],[-71.06327,42.349857],[-71.063244,42.349865],[-71.063255,42.349884],[-71.063553,42.349963],[-71.063579,42.34995]]],[[[-71.063548,42.35],[-71.063256,42.349912],[-71.063232,42.34992],[-71.063242,42.349937],[-71.063523,42.350012],[-71.063548,42.35]]],[[[-71.063509,42.3548],[-71.063479,42.354767],[-71.063088,42.354662],[-71.063035,42.35467],[-71.063021,42.354696],[-71.063051,42.354729],[-71.063441,42.354833],[-71.063479,42.354833],[-71.063509,42.3548]]],[[[-71.063458,42.350418],[-71.063166,42.35033],[-71.063142,42.350338],[-71.063152,42.350355],[-71.063433,42.35043],[-71.063458,42.350418]]],[[[-71.063458,42.35018],[-71.063183,42.350097],[-71.063159,42.350104],[-71.063169,42.350122],[-71.063433,42.350192],[-71.063458,42.35018]]],[[[-71.063434,42.350487],[-71.063324,42.350448],[-71.063317,42.350428],[-71.06307,42.350362],[-71.063047,42.350369],[-71.063056,42.350387],[-71.063138,42.350408],[-71.063145,42.350429],[-71.063409,42.350499],[-71.063434,42.350487]]],[[[-71.063428,42.350246],[-71.063153,42.350163],[-71.063129,42.35017],[-71.063139,42.350188],[-71.063403,42.350258],[-71.063428,42.350246]]],[[[-71.063403,42.35055],[-71.063145,42.350472],[-71.062974,42.35046],[-71.062984,42.350478],[-71.063248,42.350548],[-71.063378,42.350562],[-71.063403,42.35055]]],[[[-71.063403,42.35028],[-71.063128,42.350197],[-71.063104,42.350204],[-71.063114,42.350222],[-71.063378,42.350292],[-71.063403,42.35028]]],[[[-71.063369,42.350704],[-71.06306,42.350611],[-71.062951,42.350615],[-71.062961,42.350633],[-71.063173,42.350689],[-71.063197,42.350682],[-71.063343,42.350717],[-71.063369,42.350704]]],[[[-71.063368,42.35061],[-71.06311,42.350532],[-71.062956,42.350494],[-71.062932,42.350502],[-71.062942,42.350519],[-71.063223,42.350594],[-71.063343,42.350622],[-71.063368,42.35061]]],[[[-71.063298,42.350483],[-71.063023,42.3504],[-71.062999,42.350407],[-71.063009,42.350425],[-71.063273,42.350495],[-71.063298,42.350483]]],[[[-71.063228,42.35063],[-71.062936,42.350542],[-71.062912,42.35055],[-71.062922,42.350567],[-71.063203,42.350642],[-71.063228,42.35063]]],[[[-71.063144,42.352238],[-71.062886,42.35216],[-71.062863,42.352167],[-71.062871,42.352184],[-71.062647,42.352137],[-71.062567,42.352144],[-71.062576,42.352162],[-71.062958,42.352265],[-71.062982,42.352248],[-71.06292,42.352227],[-71.063058,42.352262],[-71.063082,42.352255],[-71.063074,42.352238],[-71.063133,42.35225],[-71.063144,42.352238]]],[[[-71.062829,42.353302],[-71.06252,42.353209],[-71.062404,42.353215],[-71.062416,42.353237],[-71.062731,42.353322],[-71.062817,42.353315],[-71.062829,42.353302]]],[[[-71.062829,42.353214],[-71.06252,42.353121],[-71.062428,42.353122],[-71.062439,42.353141],[-71.062737,42.35322],[-71.062817,42.353227],[-71.062829,42.353214]]],[[[-71.062559,42.348354],[-71.062541,42.348334],[-71.062192,42.348241],[-71.062152,42.348261],[-71.06217,42.348281],[-71.062519,42.348374],[-71.062559,42.348354]]],[[[-71.062496,42.349373],[-71.062484,42.349351],[-71.062392,42.349323],[-71.062366,42.349294],[-71.061949,42.349183],[-71.061893,42.349199],[-71.061903,42.349233],[-71.061994,42.349261],[-71.06202,42.34929],[-71.062438,42.349402],[-71.06247,42.349402],[-71.062496,42.349373]]],[[[-71.062463,42.348557],[-71.062134,42.348457],[-71.062104,42.348466],[-71.062116,42.348488],[-71.062431,42.348573],[-71.062463,42.348557]]],[[[-71.062409,42.348373],[-71.062385,42.348346],[-71.061984,42.348239],[-71.061942,42.348246],[-71.061931,42.348266],[-71.061955,42.348293],[-71.062355,42.3484],[-71.062385,42.3484],[-71.062409,42.348373]]],[[[-71.062039,42.353752],[-71.061919,42.35371],[-71.061919,42.35369],[-71.061821,42.353662],[-71.06182,42.353643],[-71.061753,42.353623],[-71.061755,42.353593],[-71.061729,42.353574],[-71.061353,42.353467],[-71.061301,42.353469],[-71.061274,42.353489],[-71.061274,42.353516],[-71.061301,42.353536],[-71.061591,42.353613],[-71.0616,42.353634],[-71.061708,42.353663],[-71.061708,42.353683],[-71.062013,42.353765],[-71.062039,42.353752]]],[[[-71.062006,42.349306],[-71.061765,42.349232],[-71.061742,42.349239],[-71.061752,42.349257],[-71.061981,42.349318],[-71.062006,42.349306]]],[[[-71.061988,42.35386],[-71.061823,42.353792],[-71.061823,42.353773],[-71.061738,42.353749],[-71.061736,42.353726],[-71.061506,42.353664],[-71.061483,42.353671],[-71.061492,42.353689],[-71.061571,42.35371],[-71.061564,42.353727],[-71.061578,42.353756],[-71.061963,42.353872],[-71.061988,42.35386]]],[[[-71.061951,42.349438],[-71.06171,42.349364],[-71.061687,42.349371],[-71.061696,42.349389],[-71.061926,42.34945],[-71.061951,42.349438]]],[[[-71.061941,42.349548],[-71.061911,42.349515],[-71.06152,42.34941],[-71.061467,42.349418],[-71.061453,42.349444],[-71.061483,42.349477],[-71.061873,42.349581],[-71.061911,42.349581],[-71.061941,42.349548]]],[[[-71.061928,42.34988],[-71.061687,42.349806],[-71.061664,42.349813],[-71.061673,42.349831],[-71.061903,42.349892],[-71.061928,42.34988]]],[[[-71.061898,42.349926],[-71.061657,42.349852],[-71.061634,42.349859],[-71.061643,42.349877],[-71.061873,42.349938],[-71.061898,42.349926]]],[[[-71.061892,42.35],[-71.061651,42.349926],[-71.061628,42.349933],[-71.061637,42.349951],[-71.061867,42.350012],[-71.061892,42.35]]],[[[-71.061868,42.350044],[-71.061627,42.34997],[-71.061604,42.349977],[-71.061613,42.349995],[-71.061843,42.350056],[-71.061868,42.350044]]],[[[-71.061851,42.348312],[-71.061823,42.348281],[-71.061454,42.348182],[-71.061466,42.348168],[-71.061572,42.348196],[-71.061596,42.348189],[-71.061586,42.348172],[-71.061469,42.34814],[-71.061434,42.348108],[-71.060914,42.347969],[-71.060866,42.347969],[-71.060833,42.347994],[-71.060833,42.348028],[-71.060866,42.348053],[-71.061334,42.348178],[-71.061125,42.348129],[-71.061031,42.348133],[-71.061024,42.348159],[-71.061083,42.348205],[-71.06159,42.348338],[-71.061641,42.348313],[-71.061806,42.348346],[-71.061838,42.348336],[-71.061851,42.348312]]],[[[-71.061838,42.35008],[-71.061597,42.350006],[-71.061574,42.350013],[-71.061583,42.350031],[-71.061813,42.350092],[-71.061838,42.35008]]],[[[-71.061824,42.350155],[-71.061601,42.350086],[-71.061577,42.350093],[-71.061587,42.350111],[-71.061799,42.350167],[-71.061824,42.350155]]],[[[-71.061798,42.3502],[-71.061557,42.350126],[-71.061534,42.350133],[-71.061543,42.350151],[-71.061773,42.350212],[-71.061798,42.3502]]],[[[-71.061789,42.350292],[-71.061765,42.350265],[-71.06135,42.350156],[-71.061314,42.350174],[-71.06132,42.350204],[-71.061268,42.350199],[-71.06124,42.35023],[-71.061268,42.350261],[-71.06172,42.35038],[-71.061762,42.350359],[-71.061752,42.350322],[-71.061789,42.350292]]],[[[-71.06177,42.348421],[-71.061529,42.348347],[-71.061506,42.348354],[-71.061516,42.348372],[-71.061745,42.348433],[-71.06177,42.348421]]],[[[-71.061766,42.349666],[-71.061736,42.349633],[-71.061544,42.349582],[-71.061533,42.349543],[-71.06142,42.349501],[-71.061029,42.349396],[-71.060992,42.349396],[-71.060965,42.349416],[-71.060976,42.349455],[-71.061281,42.349548],[-71.061281,42.349575],[-71.061308,42.349595],[-71.061698,42.349699],[-71.061736,42.349699],[-71.061766,42.349666]]],[[[-71.061692,42.348648],[-71.061666,42.348619],[-71.061232,42.348505],[-71.061203,42.348514],[-71.061193,42.348547],[-71.061085,42.34852],[-71.061053,42.34853],[-71.06104,42.348554],[-71.061068,42.348585],[-71.06152,42.348704],[-71.061552,42.348694],[-71.061562,42.348658],[-71.06165,42.348679],[-71.06168,42.34867],[-71.061692,42.348648]]],[[[-71.06161,42.348837],[-71.061369,42.348763],[-71.061346,42.34877],[-71.061356,42.348788],[-71.061585,42.348849],[-71.06161,42.348837]]],[[[-71.061608,42.3485],[-71.061367,42.348426],[-71.061344,42.348433],[-71.061354,42.348451],[-71.061583,42.348512],[-71.061608,42.3485]]],[[[-71.061502,42.348854],[-71.061476,42.348825],[-71.061059,42.348714],[-71.061013,42.34872],[-71.061,42.348742],[-71.061026,42.348771],[-71.061444,42.348883],[-71.061476,42.348883],[-71.061502,42.348854]]],[[[-71.061493,42.35095],[-71.061164,42.35085],[-71.061134,42.350859],[-71.061146,42.350881],[-71.061461,42.350966],[-71.061493,42.35095]]],[[[-71.061438,42.349255],[-71.061331,42.349208],[-71.060982,42.349115],[-71.060942,42.349135],[-71.06096,42.349155],[-71.061309,42.349248],[-71.061413,42.349267],[-71.061438,42.349255]]],[[[-71.061418,42.351122],[-71.061177,42.351048],[-71.061154,42.351055],[-71.061163,42.351073],[-71.061393,42.351134],[-71.061418,42.351122]]],[[[-71.061399,42.349052],[-71.06109,42.348959],[-71.061064,42.348967],[-71.061075,42.348986],[-71.061373,42.349065],[-71.061399,42.349052]]],[[[-71.061397,42.35118],[-71.061156,42.351106],[-71.061133,42.351113],[-71.061142,42.351131],[-71.061372,42.351192],[-71.061397,42.35118]]],[[[-71.061371,42.35124],[-71.06113,42.351166],[-71.061107,42.351173],[-71.061116,42.351191],[-71.061346,42.351252],[-71.061371,42.35124]]],[[[-71.061368,42.34943],[-71.061127,42.349356],[-71.061104,42.349363],[-71.061113,42.349381],[-71.061343,42.349442],[-71.061368,42.34943]]],[[[-71.061352,42.351289],[-71.061111,42.351215],[-71.061088,42.351222],[-71.061097,42.35124],[-71.061327,42.351301],[-71.061352,42.351289]]],[[[-71.061282,42.34963],[-71.061024,42.349552],[-71.061001,42.349559],[-71.06101,42.349577],[-71.061257,42.349642],[-71.061282,42.34963]]],[[[-71.061261,42.349678],[-71.061003,42.3496],[-71.06098,42.349607],[-71.060989,42.349625],[-71.061236,42.34969],[-71.061261,42.349678]]],[[[-71.061244,42.35337],[-71.061133,42.35331],[-71.061042,42.353285],[-71.061043,42.353265],[-71.060925,42.353233],[-71.060937,42.353225],[-71.060927,42.353208],[-71.060697,42.353146],[-71.060674,42.353153],[-71.060683,42.353171],[-71.060761,42.353192],[-71.060749,42.353199],[-71.060759,42.353217],[-71.060878,42.353249],[-71.060878,42.353268],[-71.060984,42.353318],[-71.061219,42.353382],[-71.061244,42.35337]]],[[[-71.061238,42.354774],[-71.060997,42.3547],[-71.060974,42.354707],[-71.060983,42.354725],[-71.061213,42.354786],[-71.061238,42.354774]]],[[[-71.061222,42.34983],[-71.061196,42.349801],[-71.060779,42.34969],[-71.060733,42.349696],[-71.06072,42.349718],[-71.060746,42.349747],[-71.061164,42.349859],[-71.061196,42.349859],[-71.061222,42.34983]]],[[[-71.061188,42.354916],[-71.060947,42.354842],[-71.060924,42.354849],[-71.060933,42.354867],[-71.061163,42.354928],[-71.061188,42.354916]]],[[[-71.061156,42.35003],[-71.061124,42.349995],[-71.060655,42.349869],[-71.060598,42.349878],[-71.060583,42.349905],[-71.060615,42.34994],[-71.061084,42.350065],[-71.061124,42.350065],[-71.061156,42.35003]]],[[[-71.061038,42.34849],[-71.060797,42.348416],[-71.060774,42.348423],[-71.060784,42.348441],[-71.061013,42.348502],[-71.061038,42.34849]]],[[[-71.061032,42.348602],[-71.061,42.348567],[-71.060531,42.348441],[-71.060474,42.34845],[-71.060459,42.348477],[-71.060491,42.348512],[-71.06096,42.348637],[-71.061,42.348637],[-71.061032,42.348602]]],[[[-71.061005,42.348717],[-71.060971,42.348679],[-71.060485,42.348549],[-71.060425,42.348558],[-71.060409,42.348587],[-71.060443,42.348625],[-71.060929,42.348755],[-71.060971,42.348755],[-71.061005,42.348717]]],[[[-71.060988,42.353363],[-71.060857,42.353292],[-71.060621,42.353228],[-71.060598,42.353235],[-71.060645,42.353274],[-71.060724,42.353296],[-71.060733,42.353314],[-71.060963,42.353375],[-71.060988,42.353363]]],[[[-71.060942,42.348827],[-71.060916,42.348798],[-71.060499,42.348687],[-71.060453,42.348693],[-71.06044,42.348715],[-71.060466,42.348744],[-71.060884,42.348856],[-71.060916,42.348856],[-71.060942,42.348827]]],[[[-71.060847,42.349174],[-71.060803,42.349125],[-71.060232,42.348972],[-71.060154,42.348984],[-71.060133,42.349021],[-71.060177,42.34907],[-71.060749,42.349223],[-71.060803,42.349223],[-71.060847,42.349174]]],[[[-71.060733,42.34939],[-71.060703,42.349357],[-71.060312,42.349252],[-71.060259,42.34926],[-71.060245,42.349286],[-71.060275,42.349319],[-71.060665,42.349423],[-71.060703,42.349423],[-71.060733,42.34939]]],[[[-71.060695,42.349506],[-71.060665,42.349473],[-71.060213,42.349352],[-71.06016,42.34936],[-71.060146,42.349385],[-71.060176,42.349418],[-71.060513,42.349515],[-71.060646,42.349542],[-71.06068,42.349531],[-71.060695,42.349506]]],[[[-71.060628,42.34926],[-71.060387,42.349186],[-71.060364,42.349193],[-71.060374,42.349211],[-71.060603,42.349272],[-71.060628,42.34926]]],[[[-71.060609,42.34967],[-71.060579,42.349637],[-71.06049,42.349613],[-71.060503,42.349605],[-71.060493,42.349588],[-71.060263,42.349526],[-71.06024,42.349544],[-71.060108,42.349513],[-71.060074,42.349524],[-71.059741,42.349441],[-71.059712,42.349463],[-71.05973,42.349483],[-71.060541,42.349703],[-71.060579,42.349703],[-71.060609,42.34967]]],[[[-71.060608,42.3493],[-71.060367,42.349226],[-71.060344,42.349233],[-71.060354,42.349251],[-71.060583,42.349312],[-71.060608,42.3493]]],[[[-71.060598,42.35304],[-71.060511,42.353007],[-71.060513,42.352987],[-71.060463,42.352964],[-71.06021,42.352896],[-71.060187,42.352903],[-71.060196,42.352921],[-71.060339,42.352968],[-71.060338,42.352988],[-71.060573,42.353052],[-71.060598,42.35304]]],[[[-71.060582,42.349792],[-71.06055,42.349757],[-71.05968,42.349517],[-71.059641,42.349523],[-71.059631,42.349542],[-71.059653,42.349566],[-71.060011,42.349661],[-71.060041,42.349702],[-71.06051,42.349827],[-71.06055,42.349827],[-71.060582,42.349792]]],[[[-71.060558,42.349407],[-71.060317,42.349333],[-71.060294,42.34934],[-71.060303,42.349358],[-71.060533,42.349419],[-71.060558,42.349407]]],[[[-71.060508,42.353283],[-71.06025,42.353205],[-71.060227,42.353212],[-71.060236,42.35323],[-71.060483,42.353295],[-71.060508,42.353283]]],[[[-71.060504,42.35315],[-71.060263,42.353076],[-71.06024,42.353083],[-71.060249,42.353101],[-71.060479,42.353162],[-71.060504,42.35315]]],[[[-71.060504,42.349556],[-71.060263,42.349482],[-71.06024,42.349489],[-71.060249,42.349507],[-71.060479,42.349568],[-71.060504,42.349556]]],[[[-71.060428,42.3531],[-71.060372,42.353076],[-71.060363,42.353058],[-71.060133,42.352996],[-71.06011,42.353003],[-71.060173,42.353051],[-71.060403,42.353112],[-71.060428,42.3531]]],[[[-71.060419,42.353405],[-71.060413,42.35337],[-71.060177,42.353306],[-71.060154,42.353313],[-71.05998,42.353269],[-71.059941,42.353298],[-71.059965,42.353325],[-71.060365,42.353432],[-71.060395,42.353432],[-71.060419,42.353405]]],[[[-71.060388,42.349884],[-71.06013,42.349806],[-71.060107,42.349813],[-71.060116,42.349831],[-71.060363,42.349896],[-71.060388,42.349884]]],[[[-71.060358,42.353447],[-71.060117,42.353373],[-71.060077,42.353379],[-71.059643,42.353263],[-71.059593,42.35327],[-71.05958,42.353294],[-71.059608,42.353325],[-71.060043,42.353441],[-71.060092,42.353434],[-71.060102,42.353397],[-71.060333,42.353459],[-71.060358,42.353447]]],[[[-71.060318,42.350037],[-71.060077,42.349963],[-71.060054,42.34997],[-71.060063,42.349988],[-71.060293,42.350049],[-71.060318,42.350037]]],[[[-71.060314,42.35015],[-71.060285,42.350118],[-71.060297,42.35011],[-71.060287,42.350093],[-71.060057,42.350031],[-71.060034,42.350049],[-71.059874,42.35001],[-71.05984,42.35002],[-71.059826,42.350046],[-71.059856,42.350079],[-71.060246,42.350183],[-71.060284,42.350183],[-71.060314,42.35015]]],[[[-71.060174,42.34947],[-71.06015,42.349443],[-71.059749,42.349336],[-71.059707,42.349343],[-71.059696,42.349363],[-71.05972,42.34939],[-71.06012,42.349497],[-71.06015,42.349497],[-71.060174,42.34947]]],[[[-71.060158,42.352962],[-71.059917,42.352888],[-71.059894,42.352895],[-71.059903,42.352913],[-71.060133,42.352974],[-71.060158,42.352962]]],[[[-71.059972,42.351044],[-71.059946,42.351015],[-71.059529,42.350904],[-71.059483,42.35091],[-71.05947,42.350932],[-71.059496,42.350961],[-71.059914,42.351073],[-71.059946,42.351073],[-71.059972,42.351044]]],[[[-71.059901,42.351135],[-71.059893,42.351121],[-71.059553,42.351029],[-71.059519,42.351039],[-71.059533,42.351064],[-71.059865,42.351153],[-71.059901,42.351135]]],[[[-71.059858,42.3533],[-71.059813,42.353278],[-71.059819,42.353248],[-71.059796,42.353231],[-71.059379,42.35312],[-71.059323,42.353136],[-71.059323,42.35316],[-71.059346,42.353177],[-71.059833,42.353312],[-71.059858,42.3533]]],[[[-71.059758,42.352753],[-71.0595,42.352675],[-71.059353,42.352659],[-71.059362,42.352677],[-71.059609,42.352742],[-71.059733,42.352765],[-71.059758,42.352753]]],[[[-71.059669,42.354954],[-71.059573,42.354873],[-71.059444,42.354836],[-71.059473,42.35483],[-71.05948,42.354804],[-71.05943,42.354782],[-71.059413,42.354738],[-71.059378,42.354709],[-71.058994,42.354606],[-71.058948,42.35462],[-71.058955,42.354649],[-71.059005,42.354665],[-71.059011,42.354693],[-71.059053,42.354707],[-71.059061,42.354732],[-71.05919,42.354769],[-71.059161,42.354775],[-71.059154,42.354801],[-71.05928,42.354881],[-71.059629,42.354974],[-71.059669,42.354954]]],[[[-71.059649,42.35171],[-71.059619,42.351677],[-71.059454,42.351633],[-71.05944,42.351609],[-71.059108,42.351521],[-71.059074,42.351531],[-71.059088,42.351556],[-71.059176,42.351579],[-71.059161,42.351606],[-71.059191,42.351639],[-71.059581,42.351743],[-71.059619,42.351743],[-71.059649,42.35171]]],[[[-71.059589,42.352783],[-71.059559,42.35275],[-71.059168,42.352645],[-71.059115,42.352653],[-71.059101,42.352679],[-71.059131,42.352712],[-71.059521,42.352816],[-71.059559,42.352816],[-71.059589,42.352783]]],[[[-71.059562,42.3516],[-71.059542,42.351578],[-71.059176,42.35148],[-71.059134,42.351493],[-71.059151,42.351524],[-71.059518,42.351622],[-71.059542,42.351622],[-71.059562,42.3516]]],[[[-71.059518,42.351097],[-71.059277,42.351023],[-71.059254,42.35103],[-71.059263,42.351048],[-71.059493,42.351109],[-71.059518,42.351097]]],[[[-71.059478,42.35117],[-71.059237,42.351096],[-71.059214,42.351103],[-71.059223,42.351121],[-71.059453,42.351182],[-71.059478,42.35117]]],[[[-71.059428,42.3531],[-71.059187,42.353026],[-71.059164,42.353033],[-71.059173,42.353051],[-71.059403,42.353112],[-71.059428,42.3531]]],[[[-71.059418,42.35301],[-71.059177,42.352936],[-71.059154,42.352943],[-71.059163,42.352961],[-71.059393,42.353022],[-71.059418,42.35301]]],[[[-71.059387,42.351704],[-71.059058,42.351604],[-71.059028,42.351613],[-71.05904,42.351635],[-71.059355,42.35172],[-71.059387,42.351704]]],[[[-71.059323,42.35178],[-71.058994,42.35168],[-71.058964,42.351689],[-71.058976,42.351711],[-71.059291,42.351796],[-71.059323,42.35178]]],[[[-71.059219,42.35129],[-71.059204,42.351265],[-71.059174,42.351253],[-71.059187,42.351235],[-71.059129,42.351197],[-71.058677,42.351076],[-71.05864,42.351076],[-71.058613,42.351095],[-71.058613,42.351123],[-71.058676,42.351152],[-71.058673,42.351183],[-71.058698,42.351202],[-71.058643,42.351222],[-71.058643,42.35125],[-71.05867,42.351269],[-71.05914,42.351393],[-71.059185,42.351371],[-71.059185,42.351343],[-71.05916,42.351325],[-71.059204,42.351315],[-71.059219,42.35129]]],[[[-71.059184,42.353294],[-71.058943,42.35322],[-71.058734,42.353216],[-71.058623,42.353194],[-71.0586,42.353201],[-71.058608,42.353218],[-71.058517,42.353194],[-71.058494,42.353201],[-71.058503,42.353219],[-71.058733,42.35328],[-71.058757,42.353273],[-71.058748,42.353256],[-71.058973,42.353295],[-71.059173,42.353306],[-71.059184,42.353294]]],[[[-71.059098,42.35146],[-71.058857,42.351386],[-71.058834,42.351393],[-71.058843,42.351411],[-71.059073,42.351472],[-71.059098,42.35146]]],[[[-71.059092,42.354385],[-71.059072,42.354363],[-71.059005,42.354345],[-71.059017,42.354337],[-71.059007,42.35432],[-71.058947,42.354303],[-71.058958,42.354296],[-71.058947,42.354277],[-71.05865,42.354197],[-71.058624,42.354205],[-71.058635,42.354224],[-71.058764,42.354258],[-71.058754,42.354276],[-71.058671,42.35427],[-71.058664,42.354296],[-71.058681,42.354309],[-71.059048,42.354407],[-71.059072,42.354407],[-71.059092,42.354385]]],[[[-71.059066,42.351517],[-71.059058,42.351503],[-71.058718,42.351411],[-71.058684,42.351421],[-71.058698,42.351446],[-71.05903,42.351535],[-71.059066,42.351517]]],[[[-71.059006,42.351604],[-71.058984,42.35158],[-71.0586,42.351477],[-71.058561,42.351483],[-71.058551,42.351502],[-71.058573,42.351526],[-71.058956,42.351628],[-71.058984,42.351628],[-71.059006,42.351604]]],[[[-71.058948,42.351646],[-71.058673,42.351563],[-71.058649,42.35157],[-71.058659,42.351588],[-71.058923,42.351658],[-71.058948,42.351646]]],[[[-71.058922,42.35169],[-71.058902,42.351668],[-71.058536,42.35157],[-71.058494,42.351583],[-71.058511,42.351614],[-71.058878,42.351712],[-71.058902,42.351712],[-71.058922,42.35169]]],[[[-71.058886,42.351738],[-71.058864,42.351714],[-71.058467,42.351609],[-71.058434,42.351625],[-71.058441,42.351654],[-71.058403,42.351653],[-71.058381,42.351678],[-71.058403,42.351702],[-71.0588,42.351806],[-71.058833,42.35179],[-71.058825,42.351761],[-71.058864,42.351762],[-71.058886,42.351738]]],[[[-71.058778,42.351826],[-71.05852,42.351748],[-71.058497,42.351755],[-71.05833,42.351711],[-71.058288,42.351718],[-71.058277,42.351738],[-71.058301,42.351765],[-71.058701,42.351872],[-71.058744,42.351865],[-71.058778,42.351826]]],[[[-71.058692,42.351906],[-71.058672,42.351884],[-71.058306,42.351786],[-71.058264,42.351799],[-71.058264,42.351817],[-71.058291,42.351833],[-71.058289,42.351858],[-71.058611,42.351946],[-71.058672,42.351928],[-71.058692,42.351906]]],[[[-71.058598,42.351967],[-71.058357,42.351893],[-71.058334,42.3519],[-71.058044,42.351826],[-71.058005,42.351838],[-71.057989,42.351867],[-71.058005,42.351896],[-71.058033,42.351907],[-71.058033,42.35193],[-71.057988,42.351927],[-71.05796,42.351958],[-71.057988,42.351989],[-71.05811,42.352022],[-71.05811,42.352041],[-71.058363,42.352109],[-71.058472,42.352098],[-71.058482,42.352061],[-71.058569,42.352026],[-71.058598,42.351967]]],[[[-71.058568,42.35253],[-71.058388,42.352472],[-71.058487,42.352493],[-71.058498,42.352486],[-71.058487,42.352467],[-71.05819,42.352387],[-71.058133,42.352396],[-71.058124,42.352414],[-71.058037,42.352393],[-71.058014,42.3524],[-71.058023,42.352418],[-71.058151,42.352452],[-71.058004,42.352445],[-71.058013,42.352463],[-71.058243,42.352524],[-71.058403,42.35254],[-71.058427,42.352523],[-71.058543,42.352542],[-71.058568,42.35253]]],[[[-71.058288,42.35091],[-71.058207,42.350875],[-71.057977,42.350813],[-71.057954,42.35082],[-71.057963,42.350838],[-71.058033,42.350861],[-71.058263,42.350922],[-71.058288,42.35091]]],[[[-71.058038,42.352665],[-71.057797,42.352591],[-71.057774,42.352598],[-71.057783,42.352616],[-71.058013,42.352677],[-71.058038,42.352665]]],[[[-71.058032,42.352768],[-71.057791,42.352694],[-71.057768,42.352701],[-71.057777,42.352719],[-71.058007,42.35278],[-71.058032,42.352768]]],[[[-71.058008,42.352905],[-71.057767,42.352831],[-71.057744,42.352838],[-71.057753,42.352856],[-71.057983,42.352917],[-71.058008,42.352905]]],[[[-71.057803,42.350693],[-71.057747,42.350665],[-71.057517,42.350603],[-71.057494,42.35061],[-71.057548,42.350644],[-71.057778,42.350705],[-71.057803,42.350693]]],[[[-71.05775,42.352226],[-71.057742,42.352212],[-71.057351,42.35209],[-71.057002,42.351997],[-71.056962,42.352017],[-71.05698,42.352037],[-71.057234,42.352117],[-71.057583,42.35221],[-71.057724,42.352245],[-71.05775,42.352226]]],[[[-71.057414,42.350403],[-71.057173,42.350329],[-71.05715,42.350336],[-71.057159,42.350354],[-71.057389,42.350415],[-71.057414,42.350403]]],[[[-71.057398,42.350494],[-71.057157,42.35042],[-71.057134,42.350427],[-71.057143,42.350445],[-71.057373,42.350506],[-71.057398,42.350494]]],[[[-71.057348,42.351707],[-71.05709,42.351629],[-71.057067,42.351636],[-71.057076,42.351654],[-71.057323,42.351719],[-71.057348,42.351707]]],[[[-71.057338,42.35175],[-71.057097,42.351676],[-71.057074,42.351683],[-71.057083,42.351701],[-71.057313,42.351762],[-71.057338,42.35175]]],[[[-71.057309,42.351897],[-71.057068,42.351823],[-71.057045,42.35183],[-71.057054,42.351848],[-71.057284,42.351909],[-71.057309,42.351897]]],[[[-71.057298,42.351955],[-71.057075,42.351886],[-71.057051,42.351893],[-71.057061,42.351911],[-71.057273,42.351967],[-71.057298,42.351955]]],[[[-71.057298,42.350925],[-71.057023,42.350842],[-71.056999,42.350849],[-71.057009,42.350867],[-71.057273,42.350937],[-71.057298,42.350925]]],[[[-71.057268,42.351063],[-71.056993,42.35098],[-71.056969,42.350987],[-71.056979,42.351005],[-71.057243,42.351075],[-71.057268,42.351063]]],[[[-71.057208,42.35141],[-71.056967,42.351336],[-71.056944,42.351343],[-71.056953,42.351361],[-71.057183,42.351422],[-71.057208,42.35141]]],[[[-71.057198,42.35055],[-71.056957,42.350476],[-71.05683,42.350466],[-71.056839,42.350484],[-71.057069,42.350545],[-71.057173,42.350562],[-71.057198,42.35055]]],[[[-71.057147,42.350632],[-71.056906,42.350558],[-71.056883,42.350565],[-71.056892,42.350583],[-71.057122,42.350644],[-71.057147,42.350632]]],[[[-71.057038,42.34984],[-71.056824,42.349773],[-71.056826,42.349749],[-71.056805,42.349733],[-71.056404,42.349626],[-71.056354,42.349642],[-71.056354,42.349664],[-71.056375,42.34968],[-71.057013,42.349852],[-71.057038,42.34984]]],[[[-71.057022,42.349903],[-71.057002,42.349881],[-71.056406,42.34972],[-71.056364,42.349733],[-71.056381,42.349764],[-71.056978,42.349925],[-71.057002,42.349925],[-71.057022,42.349903]]],[[[-71.056868,42.352028],[-71.056176,42.351832],[-71.056141,42.351838],[-71.056151,42.351856],[-71.056843,42.35204],[-71.056868,42.352028]]],[[[-71.056834,42.35023],[-71.056236,42.350065],[-71.056194,42.350078],[-71.056211,42.350109],[-71.056578,42.350207],[-71.05662,42.350194],[-71.056809,42.350242],[-71.056834,42.35023]]],[[[-71.056798,42.350307],[-71.056557,42.350233],[-71.056534,42.35024],[-71.056543,42.350258],[-71.056773,42.350319],[-71.056798,42.350307]]],[[[-71.056774,42.349915],[-71.056744,42.349882],[-71.056353,42.349777],[-71.0563,42.349785],[-71.056286,42.349811],[-71.056316,42.349844],[-71.056706,42.349948],[-71.056744,42.349948],[-71.056774,42.349915]]],[[[-71.056729,42.350006],[-71.056699,42.349973],[-71.056308,42.349868],[-71.056255,42.349876],[-71.056241,42.349902],[-71.056271,42.349935],[-71.056661,42.350039],[-71.056699,42.350039],[-71.056729,42.350006]]],[[[-71.056659,42.350094],[-71.056641,42.350074],[-71.056292,42.349981],[-71.056252,42.350001],[-71.05627,42.350021],[-71.056619,42.350114],[-71.056659,42.350094]]],[[[-71.056643,42.350613],[-71.056351,42.350525],[-71.056327,42.350533],[-71.056337,42.35055],[-71.056618,42.350625],[-71.056643,42.350613]]],[[[-71.056626,42.353203],[-71.056386,42.353078],[-71.056007,42.352976],[-71.055984,42.352983],[-71.055993,42.353001],[-71.056226,42.353078],[-71.05625,42.353128],[-71.05659,42.353221],[-71.056626,42.353203]]],[[[-71.056608,42.35068],[-71.056316,42.350592],[-71.056292,42.3506],[-71.056302,42.350617],[-71.056583,42.350692],[-71.056608,42.35068]]],[[[-71.056559,42.350834],[-71.056529,42.350801],[-71.056138,42.350696],[-71.056085,42.350704],[-71.056071,42.35073],[-71.056101,42.350763],[-71.056491,42.350867],[-71.056529,42.350867],[-71.056559,42.350834]]],[[[-71.056428,42.35103],[-71.056187,42.350956],[-71.056164,42.350963],[-71.056173,42.350981],[-71.056403,42.351042],[-71.056428,42.35103]]],[[[-71.056398,42.351097],[-71.056175,42.351024],[-71.055894,42.350948],[-71.05587,42.350956],[-71.05588,42.350973],[-71.056092,42.351034],[-71.056373,42.351109],[-71.056398,42.351097]]],[[[-71.056364,42.351176],[-71.056123,42.351102],[-71.0561,42.35112],[-71.055856,42.351057],[-71.055832,42.351065],[-71.055842,42.351082],[-71.056123,42.351157],[-71.056147,42.35114],[-71.056339,42.351188],[-71.056364,42.351176]]],[[[-71.056338,42.35493],[-71.056046,42.354842],[-71.056022,42.35485],[-71.056032,42.354867],[-71.056313,42.354942],[-71.056338,42.35493]]],[[[-71.056328,42.354836],[-71.056036,42.354748],[-71.056012,42.354756],[-71.056022,42.354773],[-71.056303,42.354848],[-71.056328,42.354836]]],[[[-71.056309,42.35475],[-71.056,42.354657],[-71.055974,42.354665],[-71.055985,42.354684],[-71.056283,42.354763],[-71.056309,42.35475]]],[[[-71.056306,42.35467],[-71.056298,42.354656],[-71.055958,42.354564],[-71.055924,42.354574],[-71.055938,42.354599],[-71.05627,42.354688],[-71.056306,42.35467]]],[[[-71.056258,42.351376],[-71.056,42.351298],[-71.055977,42.351305],[-71.055986,42.351323],[-71.056233,42.351388],[-71.056258,42.351376]]],[[[-71.056256,42.350842],[-71.055964,42.350754],[-71.05594,42.350762],[-71.05595,42.350779],[-71.056231,42.350854],[-71.056256,42.350842]]],[[[-71.056239,42.351411],[-71.055981,42.351333],[-71.055958,42.35134],[-71.055685,42.351267],[-71.055661,42.351275],[-71.055671,42.351292],[-71.055952,42.351367],[-71.055976,42.35136],[-71.056214,42.351423],[-71.056239,42.351411]]],[[[-71.056226,42.350933],[-71.055934,42.350845],[-71.05591,42.350853],[-71.05592,42.35087],[-71.056201,42.350945],[-71.056226,42.350933]]],[[[-71.056208,42.35145],[-71.05595,42.351372],[-71.055927,42.351379],[-71.055936,42.351397],[-71.056183,42.351462],[-71.056208,42.35145]]],[[[-71.056078,42.35171],[-71.05582,42.351632],[-71.055797,42.351639],[-71.055806,42.351657],[-71.056053,42.351722],[-71.056078,42.35171]]],[[[-71.055953,42.351412],[-71.055661,42.351324],[-71.055637,42.351332],[-71.055647,42.351349],[-71.055928,42.351424],[-71.055953,42.351412]]],[[[-71.05592,42.351482],[-71.055628,42.351394],[-71.055604,42.351402],[-71.055614,42.351419],[-71.055895,42.351494],[-71.05592,42.351482]]],[[[-71.055888,42.351561],[-71.055596,42.351473],[-71.055572,42.351481],[-71.055582,42.351498],[-71.055863,42.351573],[-71.055888,42.351561]]],[[[-71.055869,42.352226],[-71.055839,42.352193],[-71.055429,42.352086],[-71.055395,42.352096],[-71.055384,42.352135],[-71.055347,42.352172],[-71.055377,42.352205],[-71.055786,42.352312],[-71.05582,42.352301],[-71.055831,42.352262],[-71.055869,42.352226]]],[[[-71.055859,42.351622],[-71.055567,42.351534],[-71.055543,42.351542],[-71.055553,42.351559],[-71.055834,42.351634],[-71.055859,42.351622]]],[[[-71.055808,42.351727],[-71.055516,42.351639],[-71.055492,42.351647],[-71.055502,42.351664],[-71.055783,42.351739],[-71.055808,42.351727]]],[[[-71.055788,42.353336],[-71.055768,42.353314],[-71.055402,42.353216],[-71.05536,42.353229],[-71.055377,42.35326],[-71.055744,42.353358],[-71.055768,42.353358],[-71.055788,42.353336]]],[[[-71.055788,42.351776],[-71.055496,42.351688],[-71.055472,42.351696],[-71.055482,42.351713],[-71.055763,42.351788],[-71.055788,42.351776]]],[[[-71.055724,42.353394],[-71.055706,42.353374],[-71.055357,42.353281],[-71.055317,42.353301],[-71.055335,42.353321],[-71.055684,42.353414],[-71.055724,42.353394]]],[[[-71.055645,42.35343],[-71.055336,42.353337],[-71.05531,42.353345],[-71.055321,42.353364],[-71.055619,42.353443],[-71.055645,42.35343]]],[[[-71.055558,42.353497],[-71.055266,42.353409],[-71.055242,42.353417],[-71.055252,42.353434],[-71.055533,42.353509],[-71.055558,42.353497]]],[[[-71.055498,42.35353],[-71.05524,42.353452],[-71.055217,42.353459],[-71.055226,42.353477],[-71.055473,42.353542],[-71.055498,42.35353]]],[[[-71.055262,42.353653],[-71.055021,42.353579],[-71.054998,42.353586],[-71.054861,42.353557],[-71.054832,42.353579],[-71.05485,42.353599],[-71.054832,42.353616],[-71.054839,42.353628],[-71.055161,42.353716],[-71.055231,42.353687],[-71.055262,42.353653]]]]},"properties":{"kind":"tree"}}]}