{"type":"FeatureCollection","features":[{"type":"Feature","geometry":{"type":"MultiPolygon","coordinates":[[[[-71.06703,42.351826],[-71.067007,42.351692],[-71.066747,42.351106],[-71.065977,42.350846],[-71.065959,42.350666],[-71.065853,42.35063],[-71.065953,42.350615],[-71.06593,42.350327],[-71.065645,42.350231],[-71.065916,42.350219],[-71.065881,42.34989],[-71.065776,42.349769],[-71.065674,42.349734],[-71.065695,42.349634],[-71.065904,42.349705],[-71.065981,42.349681],[-71.065986,42.349665],[-71.066009,42.349673],[-71.066095,42.349646],[-71.066007,42.349491],[-71.066043,42.349503],[-71.066107,42.349483],[-71.066051,42.349385],[-71.065335,42.349143],[-71.065273,42.349163],[-71.065326,42.34926],[-71.065009,42.349167],[-71.065182,42.349085],[-71.065279,42.349075],[-71.06533,42.348887],[-71.065323,42.348802],[-71.065279,42.348688],[-71.064762,42.348513],[-71.064475,42.348442],[-71.06369,42.348354],[-71.063665,42.348364],[-71.06324,42.348225],[-71.063253,42.34818],[-71.06323,42.348148],[-71.062895,42.348035],[-71.063365,42.348193],[-71.06402,42.348291],[-71.064032,42.348248],[-71.06444,42.348386],[-71.064805,42.348442],[-71.06484,42.348389],[-71.065094,42.348475],[-71.065412,42.348415],[-71.065917,42.348586],[-71.066455,42.348649],[-71.066483,42.348529],[-71.065935,42.348344],[-71.065995,42.348064],[-71.065529,42.347905],[-71.065483,42.347819],[-71.065318,42.347763],[-71.065319,42.347677],[-71.065257,42.347643],[-71.06416,42.347272],[-71.063797,42.347216],[-71.063673,42.347278],[-71.0632,42.347118],[-71.063042,42.3471],[-71.063005,42.347275],[-71.062853,42.347223],[-71.062764,42.347213],[-71.062746,42.347305],[-71.062981,42.347385],[-71.062964,42.347467],[-71.062828,42.347443],[-71.062816,42.347497],[-71.061496,42.347052],[-71.061335,42.347027],[-71.061171,42.347098],[-71.060951,42.347023],[-71.060859,42.347009],[-71.060841,42.347072],[-71.061079,42.347153],[-71.061054,42.347243],[-71.062604,42.347766],[-71.06225,42.347681],[-71.062223,42.347749],[-71.061865,42.347642],[-71.058603,42.346538],[-71.058449,42.346502],[-71.058303,42.346852],[-71.058292,42.346944],[-71.060294,42.34762],[-71.060274,42.347692],[-71.060626,42.347821],[-71.060617,42.347853],[-71.060649,42.347975],[-71.055914,42.346376],[-71.055452,42.347018],[-71.059521,42.348392],[-71.059534,42.348446],[-71.058058,42.347948],[-71.057778,42.347891],[-71.057676,42.34817],[-71.056557,42.347792],[-71.056683,42.347603],[-71.056673,42.347544],[-71.055908,42.347262],[-71.054524,42.346795],[-71.054116,42.347403],[-71.053935,42.347363],[-71.053851,42.347572],[-71.053974,42.347614],[-71.053742,42.347958],[-71.052725,42.347614],[-71.052646,42.347626],[-71.052633,42.347647],[-71.052649,42.347674],[-71.053695,42.348029],[-71.05353,42.348274],[-71.053161,42.348149],[-71.052724,42.348597],[-71.052691,42.348647],[-71.05268,42.348813],[-71.052099,42.348617],[-71.051129,42.35006],[-71.05171,42.350275],[-71.052873,42.350668],[-71.052642,42.350673],[-71.052608,42.350681],[-71.052521,42.350747],[-71.052463,42.35074],[-71.051264,42.350335],[-71.050678,42.350188],[-71.050389,42.350293],[-71.050312,42.350457],[-71.05185,42.350977],[-71.051629,42.351074],[-71.051571,42.351138],[-71.051568,42.351191],[-71.051593,42.351236],[-71.051725,42.351319],[-71.056233,42.352849],[-71.056208,42.352913],[-71.056002,42.352844],[-71.055879,42.352867],[-71.055483,42.352733],[-71.055413,42.352799],[-71.051761,42.351565],[-71.051753,42.351577],[-71.051125,42.351371],[-71.050992,42.351443],[-71.050707,42.351346],[-71.050602,42.351405],[-71.050892,42.351522],[-71.050914,42.351604],[-71.051292,42.35176],[-71.051581,42.351858],[-71.051566,42.351881],[-71.051491,42.35188],[-71.051376,42.351933],[-71.051343,42.351992],[-71.051378,42.352202],[-71.051727,42.35232],[-71.051749,42.352364],[-71.051961,42.352438],[-71.051928,42.352474],[-71.051942,42.352488],[-71.051831,42.352536],[-71.051834,42.352548],[-71.050579,42.352124],[-71.050492,42.352163],[-71.050403,42.352132],[-71.050167,42.352236],[-71.050291,42.352358],[-71.050339,42.352375],[-71.0493,42.35203],[-71.049242,42.352039],[-71.048857,42.352242],[-71.048821,42.352293],[-71.04883,42.352337],[-71.049085,42.352602],[-71.050041,42.352927],[-71.050165,42.353614],[-71.055688,42.355479],[-71.055803,42.355484],[-71.056258,42.35544],[-71.056364,42.355412],[-71.056297,42.355042],[-71.056566,42.355133],[-71.057349,42.355074],[-71.057329,42.354923],[-71.05689,42.354747],[-71.056189,42.35451],[-71.056231,42.354504],[-71.056208,42.354422],[-71.057914,42.354998],[-71.058143,42.355002],[-71.059228,42.355368],[-71.059546,42.355073],[-71.060491,42.355389],[-71.060853,42.355057],[-71.061373,42.355233],[-71.061545,42.355046],[-71.061254,42.354893],[-71.062184,42.355207],[-71.062328,42.355052],[-71.062691,42.355175],[-71.062762,42.355102],[-71.063118,42.355222],[-71.063177,42.355145],[-71.062916,42.355012],[-71.062633,42.354893],[-71.062484,42.354808],[-71.063211,42.355053],[-71.063255,42.355044],[-71.063852,42.353943],[-71.063862,42.353896],[-71.063514,42.353779],[-71.06355,42.353737],[-71.063892,42.353833],[-71.063998,42.353634],[-71.063664,42.353521],[-71.063685,42.353451],[-71.064052,42.353554],[-71.064097,42.353425],[-71.063584,42.353252],[-71.064146,42.353296],[-71.064309,42.35284],[-71.064212,42.352807],[-71.064309,42.352812],[-71.064362,42.352548],[-71.064692,42.352647],[-71.064727,42.352541],[-71.064442,42.352445],[-71.064377,42.352435],[-71.064371,42.352453],[-71.064373,42.352435],[-71.064339,42.352409],[-71.063915,42.352266],[-71.064449,42.352283],[-71.064488,42.352249],[-71.064683,42.352315],[-71.065885,42.352382],[-71.06589,42.352361],[-71.065967,42.352387],[-71.066063,42.352392],[-71.06608,42.35217],[-71.06627,42.352169],[-71.066295,42.351885],[-71.065937,42.351764],[-71.065939,42.351748],[-71.066847,42.351871],[-71.06703,42.351826]],[[-71.063865,42.349025],[-71.063845,42.349117],[-71.063769,42.349091],[-71.063772,42.349073],[-71.063739,42.349062],[-71.063772,42.348993],[-71.063865,42.349025]],[[-71.057938,42.349616],[-71.057928,42.349659],[-71.057425,42.349538],[-71.057374,42.349554],[-71.05674,42.349347],[-71.05677,42.349221],[-71.057938,42.349616]],[[-71.055984,42.34891],[-71.055977,42.348929],[-71.055829,42.348879],[-71.055841,42.348862],[-71.055984,42.34891]]],[[[-71.065565,42.354342],[-71.065534,42.354305],[-71.064823,42.354065],[-71.064783,42.354066],[-71.064747,42.354096],[-71.064747,42.354121],[-71.06477,42.354145],[-71.065487,42.354388],[-71.06554,42.354382],[-71.065565,42.354342]]],[[[-71.065421,42.352871],[-71.064974,42.352725],[-71.064916,42.352713],[-71.064899,42.35276],[-71.064925,42.352841],[-71.065378,42.352986],[-71.065421,42.352871]]],[[[-71.06461,42.353278],[-71.064257,42.35317],[-71.064223,42.35327],[-71.064576,42.35338],[-71.06461,42.353278]]],[[[-71.063935,42.354829],[-71.063598,42.354719],[-71.063575,42.354768],[-71.063912,42.354877],[-71.063935,42.354829]]]]},"properties":{"kind":"building"}},{"type":"Feature","geometry":{"type":"MultiPolygon","coordinates":[[[[-71.066058,42.353451],[-71.066047,42.35341],[-71.066015,42.353375],[-71.065617,42.353233],[-71.065824,42.353289],[-71.065891,42.353268],[-71.065918,42.353219],[-71.065911,42.353192],[-71.06586,42.353155],[-71.065886,42.353126],[-71.065981,42.353102],[-71.066007,42.353073],[-71.066016,42.353039],[-71.065995,42.352992],[-71.066039,42.352955],[-71.066048,42.352923],[-71.066021,42.352832],[-71.065989,42.352797],[-71.06566,42.352678],[-71.065644,42.352619],[-71.065812,42.352644],[-71.065863,42.352629],[-71.065976,42.352648],[-71.066016,42.352618],[-71.066022,42.352597],[-71.066,42.352558],[-71.065038,42.35223],[-71.064959,42.35224],[-71.064751,42.352201],[-71.064698,42.352218],[-71.064682,42.352235],[-71.064681,42.352273],[-71.064218,42.352117],[-71.064139,42.352117],[-71.064105,42.352134],[-71.064075,42.352186],[-71.063921,42.352134],[-71.063847,42.352134],[-71.063794,42.352173],[-71.063787,42.3522],[-71.063815,42.352251],[-71.064348,42.352436],[-71.064337,42.352468],[-71.064304,42.352484],[-71.064286,42.352515],[-71.064304,42.352545],[-71.064363,42.352568],[-71.064352,42.352595],[-71.064285,42.352596],[-71.064188,42.352568],[-71.064137,42.352583],[-71.064117,42.352621],[-71.064122,42.352641],[-71.064235,42.352707],[-71.064173,42.352724],[-71.063473,42.352488],[-71.063381,42.352488],[-71.063342,42.352507],[-71.063258,42.352593],[-71.063247,42.352634],[-71.063258,42.352676],[-71.06329,42.352711],[-71.063677,42.352849],[-71.063703,42.352883],[-71.063808,42.35293],[-71.063775,42.352935],[-71.063422,42.352824],[-71.063344,42.352848],[-71.06332,42.352874],[-71.06332,42.352937],[-71.06338,42.352981],[-71.063967,42.353179],[-71.064009,42.35322],[-71.06472,42.35346],[-71.064707,42.353486],[-71.063514,42.353077],[-71.06341,42.353083],[-71.063383,42.353118],[-71.063383,42.353174],[-71.06345,42.353233],[-71.064609,42.353607],[-71.064643,42.353643],[-71.064902,42.353731],[-71.063562,42.353303],[-71.063502,42.353333],[-71.063502,42.353369],[-71.063464,42.353421],[-71.063478,42.35345],[-71.063417,42.353466],[-71.063397,42.353496],[-71.063317,42.353475],[-71.063257,42.353493],[-71.063239,42.353513],[-71.063233,42.353537],[-71.063257,42.353581],[-71.063246,42.35361],[-71.063262,42.353644],[-71.063218,42.35368],[-71.063218,42.353741],[-71.063228,42.353771],[-71.063272,42.353804],[-71.063765,42.35397],[-71.063269,42.353805],[-71.063212,42.353805],[-71.06292,42.353712],[-71.062808,42.353712],[-71.062761,42.353735],[-71.062729,42.35377],[-71.062718,42.353811],[-71.062729,42.353853],[-71.062761,42.353888],[-71.062808,42.353911],[-71.06365,42.354195],[-71.063075,42.354009],[-71.063013,42.354009],[-71.062969,42.354041],[-71.062638,42.353942],[-71.062535,42.353974],[-71.062503,42.354009],[-71.062492,42.35405],[-71.062503,42.354092],[-71.062535,42.354127],[-71.062582,42.35415],[-71.063387,42.354422],[-71.063328,42.354453],[-71.062859,42.354301],[-71.062799,42.354319],[-71.062775,42.354363],[-71.06281,42.354412],[-71.062785,42.354454],[-71.062807,42.354495],[-71.063797,42.354833],[-71.063882,42.354821],[-71.063901,42.354766],[-71.064767,42.355057],[-71.064847,42.355057],[-71.064903,42.355015],[-71.064911,42.354986],[-71.06488,42.354932],[-71.06436,42.354751],[-71.064263,42.354697],[-71.064379,42.354733],[-71.064439,42.354724],[-71.064714,42.354809],[-71.064738,42.354802],[-71.064728,42.354785],[-71.064454,42.354692],[-71.064451,42.354679],[-71.064907,42.354833],[-71.064967,42.354824],[-71.06498,42.354782],[-71.06528,42.354882],[-71.065354,42.354874],[-71.06556,42.354934],[-71.065637,42.354912],[-71.065952,42.355019],[-71.066004,42.355019],[-71.066041,42.354991],[-71.066046,42.354972],[-71.066026,42.354936],[-71.065676,42.354815],[-71.065607,42.354759],[-71.064959,42.354514],[-71.064974,42.354497],[-71.065049,42.35449],[-71.065062,42.354441],[-71.065029,42.354416],[-71.064757,42.354324],[-71.06476,42.354288],[-71.064903,42.354332],[-71.064951,42.354309],[-71.065685,42.354557],[-71.065785,42.354557],[-71.065855,42.354505],[-71.065865,42.354468],[-71.065827,42.3544],[-71.064775,42.354039],[-71.064794,42.354006],[-71.064885,42.354015],[-71.06519,42.354107],[-71.065231,42.354095],[-71.065248,42.354064],[-71.065231,42.354033],[-71.065157,42.354005],[-71.065156,42.353973],[-71.065315,42.354018],[-71.065361,42.354004],[-71.065375,42.353952],[-71.065429,42.353965],[-71.065429,42.353989],[-71.065938,42.354162],[-71.065956,42.354162],[-71.065968,42.35414],[-71.065908,42.354114],[-71.065938,42.354081],[-71.066009,42.354081],[-71.066017,42.35405],[-71.065759,42.353954],[-71.065749,42.353914],[-71.065413,42.353778],[-71.065374,42.353742],[-71.064729,42.353525],[-71.065567,42.353799],[-71.065608,42.353787],[-71.065621,42.353739],[-71.065532,42.353697],[-71.065545,42.353648],[-71.065478,42.353612],[-71.065551,42.353584],[-71.065583,42.353549],[-71.065594,42.353508],[-71.065572,42.353455],[-71.065912,42.353559],[-71.066015,42.353527],[-71.066047,42.353492],[-71.066058,42.353451]]],[[[-71.06583,42.348038],[-71.06579,42.347994],[-71.064934,42.347705],[-71.064885,42.347705],[-71.06485,42.347731],[-71.06485,42.347767],[-71.064885,42.347793],[-71.06574,42.348082],[-71.06579,42.348082],[-71.06583,42.348038]]],[[[-71.06579,42.34818],[-71.065756,42.348142],[-71.064982,42.347881],[-71.06494,42.347881],[-71.06491,42.347903],[-71.06491,42.347934],[-71.06494,42.347956],[-71.065714,42.348218],[-71.065756,42.348218],[-71.06579,42.34818]]],[[[-71.065738,42.348446],[-71.065702,42.348406],[-71.065533,42.348349],[-71.065552,42.348316],[-71.065514,42.348274],[-71.064685,42.347994],[-71.064638,42.347994],[-71.064605,42.348019],[-71.064618,42.348069],[-71.064837,42.348146],[-71.064825,42.348192],[-71.064857,42.348215],[-71.065658,42.348486],[-71.065702,42.348486],[-71.065738,42.348446]]],[[[-71.065728,42.348293],[-71.065351,42.348157],[-71.065328,42.348164],[-71.065337,42.348182],[-71.065703,42.348305],[-71.065728,42.348293]]],[[[-71.065598,42.348957],[-71.065249,42.34883],[-71.065225,42.348838],[-71.065235,42.348855],[-71.065573,42.348969],[-71.065598,42.348957]]],[[[-71.065588,42.351223],[-71.065157,42.351069],[-71.065133,42.351076],[-71.065143,42.351094],[-71.065563,42.351235],[-71.065588,42.351223]]],[[[-71.065562,42.349094],[-71.065213,42.348967],[-71.065189,42.348975],[-71.064629,42.348794],[-71.064592,42.348794],[-71.064566,42.348813],[-71.064566,42.348841],[-71.064592,42.34886],[-71.065311,42.349103],[-71.065364,42.349095],[-71.065375,42.349056],[-71.065537,42.349106],[-71.065562,42.349094]]],[[[-71.065559,42.349236],[-71.065529,42.349203],[-71.064906,42.348993],[-71.064869,42.348993],[-71.064843,42.349012],[-71.064843,42.34904],[-71.064869,42.349059],[-71.065491,42.349269],[-71.065529,42.349269],[-71.065559,42.349236]]],[[[-71.065483,42.348446],[-71.064967,42.348261],[-71.064937,42.34827],[-71.06495,42.348292],[-71.065451,42.348462],[-71.065483,42.348446]]],[[[-71.065433,42.34879],[-71.065403,42.348757],[-71.06478,42.348547],[-71.064743,42.348547],[-71.064717,42.348566],[-71.064717,42.348594],[-71.064743,42.348613],[-71.065365,42.348823],[-71.065403,42.348823],[-71.065433,42.34879]]],[[[-71.065396,42.34894],[-71.065374,42.348916],[-71.064763,42.34871],[-71.064716,42.348724],[-71.064736,42.348758],[-71.065346,42.348964],[-71.065374,42.348964],[-71.065396,42.34894]]],[[[-71.065368,42.35121],[-71.064964,42.351065],[-71.06494,42.351072],[-71.06495,42.35109],[-71.065343,42.351222],[-71.065368,42.35121]]],[[[-71.065268,42.35121],[-71.064891,42.351074],[-71.064868,42.351081],[-71.064877,42.351099],[-71.065243,42.351222],[-71.065268,42.35121]]],[[[-71.065176,42.35072],[-71.065168,42.350706],[-71.064631,42.350524],[-71.064597,42.350534],[-71.064611,42.350559],[-71.06514,42.350738],[-71.065176,42.35072]]],[[[-71.065151,42.350784],[-71.065143,42.35077],[-71.064606,42.350588],[-71.064572,42.350598],[-71.064586,42.350623],[-71.065115,42.350802],[-71.065151,42.350784]]],[[[-71.065129,42.350853],[-71.064643,42.35068],[-71.064618,42.350687],[-71.064628,42.350706],[-71.065103,42.350866],[-71.065129,42.350853]]],[[[-71.064944,42.35131],[-71.06454,42.351165],[-71.064516,42.351172],[-71.064526,42.35119],[-71.064919,42.351322],[-71.064944,42.35131]]],[[[-71.064857,42.348456],[-71.06448,42.34832],[-71.064457,42.348327],[-71.064466,42.348345],[-71.064832,42.348468],[-71.064857,42.348456]]],[[[-71.064624,42.351826],[-71.064247,42.35169],[-71.064224,42.351697],[-71.064233,42.351715],[-71.064599,42.351838],[-71.064624,42.351826]]],[[[-71.064621,42.348425],[-71.064244,42.348289],[-71.064221,42.348296],[-71.06423,42.348314],[-71.064596,42.348437],[-71.064621,42.348425]]],[[[-71.064568,42.352055],[-71.064164,42.35191],[-71.06414,42.351917],[-71.06415,42.351935],[-71.064543,42.352067],[-71.064568,42.352055]]],[[[-71.064564,42.352104],[-71.064078,42.351931],[-71.064053,42.351938],[-71.064063,42.351957],[-71.064538,42.352117],[-71.064564,42.352104]]],[[[-71.064548,42.35216],[-71.064171,42.352024],[-71.064148,42.352031],[-71.064157,42.352049],[-71.064523,42.352172],[-71.064548,42.35216]]],[[[-71.064436,42.348399],[-71.064059,42.348263],[-71.064036,42.34827],[-71.064045,42.348288],[-71.064411,42.348411],[-71.064436,42.348399]]],[[[-71.064238,42.350925],[-71.063861,42.350789],[-71.063748,42.350785],[-71.063479,42.350695],[-71.063444,42.3507],[-71.063215,42.350643],[-71.063227,42.350635],[-71.063217,42.350618],[-71.06277,42.350467],[-71.062746,42.350484],[-71.06287,42.35053],[-71.062858,42.350538],[-71.062867,42.350556],[-71.062787,42.350557],[-71.062769,42.350577],[-71.062733,42.350573],[-71.062723,42.35059],[-71.062826,42.350629],[-71.062663,42.350592],[-71.062638,42.350599],[-71.062648,42.350618],[-71.063123,42.350778],[-71.06351,42.350882],[-71.063675,42.350907],[-71.063705,42.350892],[-71.063687,42.350861],[-71.063192,42.350687],[-71.063193,42.350667],[-71.063258,42.350689],[-71.063281,42.350714],[-71.063919,42.35093],[-71.06397,42.350914],[-71.06405,42.350938],[-71.064082,42.350913],[-71.064213,42.350937],[-71.064238,42.350925]]],[[[-71.064209,42.34872],[-71.063693,42.348535],[-71.063663,42.348544],[-71.063676,42.348566],[-71.064177,42.348736],[-71.064209,42.34872]]],[[[-71.064168,42.34884],[-71.063377,42.348558],[-71.063347,42.348567],[-71.06336,42.348589],[-71.064143,42.348852],[-71.064168,42.34884]]],[[[-71.063915,42.348675],[-71.063429,42.348502],[-71.063404,42.348509],[-71.063414,42.348528],[-71.063889,42.348688],[-71.063915,42.348675]]],[[[-71.063879,42.34887],[-71.063393,42.348697],[-71.063368,42.348704],[-71.063378,42.348723],[-71.063853,42.348883],[-71.063879,42.34887]]],[[[-71.063873,42.348793],[-71.063496,42.348657],[-71.063473,42.348664],[-71.063482,42.348682],[-71.063848,42.348805],[-71.063873,42.348793]]],[[[-71.063821,42.349148],[-71.063444,42.349012],[-71.063421,42.349019],[-71.06343,42.349037],[-71.063796,42.34916],[-71.063821,42.349148]]],[[[-71.063808,42.348427],[-71.063431,42.348291],[-71.063318,42.348281],[-71.063327,42.348299],[-71.063693,42.348422],[-71.063783,42.348439],[-71.063808,42.348427]]],[[[-71.063768,42.349293],[-71.063391,42.349157],[-71.063368,42.349164],[-71.063377,42.349182],[-71.063743,42.349305],[-71.063768,42.349293]]],[[[-71.063755,42.349335],[-71.063378,42.349199],[-71.063355,42.349206],[-71.063364,42.349224],[-71.06373,42.349347],[-71.063755,42.349335]]],[[[-71.063689,42.34976],[-71.063203,42.349587],[-71.063178,42.349594],[-71.063188,42.349613],[-71.063663,42.349773],[-71.063689,42.34976]]],[[[-71.063632,42.349854],[-71.063174,42.349691],[-71.06315,42.349698],[-71.06316,42.349715],[-71.063607,42.349866],[-71.063632,42.349854]]],[[[-71.063579,42.34995],[-71.063093,42.349777],[-71.063068,42.349784],[-71.063078,42.349803],[-71.063553,42.349963],[-71.063579,42.34995]]],[[[-71.063548,42.35],[-71.06309,42.349837],[-71.063066,42.349844],[-71.063076,42.349861],[-71.063523,42.350012],[-71.063548,42.35]]],[[[-71.063509,42.3548],[-71.063479,42.354767],[-71.062856,42.354557],[-71.062819,42.354557],[-71.062793,42.354576],[-71.062793,42.354604],[-71.062819,42.354623],[-71.063441,42.354833],[-71.063479,42.354833],[-71.063509,42.3548]]],[[[-71.063458,42.350418],[-71.063,42.350255],[-71.062976,42.350262],[-71.062986,42.350279],[-71.063433,42.35043],[-71.063458,42.350418]]],[[[-71.063458,42.35018],[-71.063027,42.350026],[-71.063003,42.350033],[-71.063013,42.350051],[-71.063433,42.350192],[-71.063458,42.35018]]],[[[-71.063434,42.350487],[-71.063323,42.35043],[-71.062924,42.350295],[-71.0629,42.350302],[-71.062983,42.350355],[-71.063409,42.350499],[-71.063434,42.350487]]],[[[-71.063428,42.350246],[-71.062997,42.350092],[-71.062973,42.350099],[-71.062983,42.350117],[-71.063403,42.350258],[-71.063428,42.350246]]],[[[-71.063403,42.35055],[-71.062999,42.350405],[-71.062975,42.350412],[-71.062985,42.35043],[-71.063378,42.350562],[-71.063403,42.35055]]],[[[-71.063403,42.35028],[-71.062972,42.350126],[-71.062948,42.350133],[-71.062958,42.350151],[-71.063378,42.350292],[-71.063403,42.35028]]],[[[-71.063368,42.35061],[-71.062964,42.350465],[-71.06279,42.350419],[-71.062766,42.350426],[-71.062776,42.350443],[-71.063223,42.350594],[-71.063343,42.350622],[-71.063368,42.35061]]],[[[-71.063298,42.350483],[-71.062867,42.350329],[-71.062843,42.350336],[-71.062853,42.350354],[-71.063273,42.350495],[-71.063298,42.350483]]],[[[-71.063273,42.350536],[-71.062842,42.350382],[-71.062818,42.350389],[-71.062828,42.350407],[-71.063248,42.350548],[-71.063273,42.350536]]],[[[-71.063144,42.352238],[-71.06274,42.352093],[-71.062716,42.3521],[-71.062726,42.352118],[-71.063119,42.35225],[-71.063144,42.352238]]],[[[-71.063083,42.35225],[-71.062679,42.352105],[-71.062655,42.352112],[-71.062491,42.352066],[-71.06242,42.352077],[-71.06243,42.352095],[-71.062958,42.352265],[-71.062982,42.352248],[-71.062921,42.352223],[-71.063058,42.352262],[-71.063083,42.35225]]],[[[-71.062829,42.353302],[-71.062343,42.353129],[-71.062217,42.35313],[-71.06223,42.353152],[-71.062731,42.353322],[-71.062762,42.353301],[-71.062803,42.353315],[-71.062829,42.353302]]],[[[-71.062829,42.353214],[-71.062343,42.353041],[-71.062252,42.353041],[-71.062262,42.35306],[-71.062737,42.35322],[-71.062817,42.353227],[-71.062829,42.353214]]],[[[-71.062559,42.348354],[-71.062541,42.348334],[-71.061985,42.348146],[-71.061945,42.348166],[-71.061963,42.348186],[-71.062519,42.348374],[-71.062559,42.348354]]],[[[-71.062496,42.349373],[-71.062484,42.349351],[-71.062391,42.349317],[-71.062366,42.349294],[-71.061701,42.34907],[-71.061646,42.349087],[-71.061655,42.349121],[-71.061748,42.349154],[-71.061773,42.349177],[-71.062438,42.349402],[-71.06247,42.349402],[-71.062496,42.349373]]],[[[-71.062463,42.348557],[-71.061947,42.348372],[-71.061917,42.348381],[-71.06193,42.348403],[-71.062431,42.348573],[-71.062463,42.348557]]],[[[-71.062409,42.348373],[-71.062385,42.348346],[-71.061747,42.348131],[-71.061696,42.348147],[-71.061696,42.348169],[-71.061717,42.348184],[-71.062355,42.3484],[-71.062385,42.3484],[-71.062409,42.348373]]],[[[-71.062039,42.353752],[-71.061755,42.35362],[-71.061755,42.353593],[-71.061729,42.353574],[-71.061106,42.353364],[-71.061069,42.353364],[-71.061043,42.353383],[-71.061043,42.353411],[-71.061069,42.35343],[-71.061527,42.353588],[-71.061532,42.353602],[-71.062013,42.353765],[-71.062039,42.353752]]],[[[-71.062006,42.349306],[-71.061629,42.34917],[-71.061606,42.349177],[-71.061615,42.349195],[-71.061981,42.349318],[-71.062006,42.349306]]],[[[-71.061988,42.35386],[-71.061744,42.353746],[-71.061736,42.353726],[-71.06137,42.353602],[-71.061347,42.353609],[-71.061356,42.353627],[-71.06143,42.353652],[-71.061402,42.353655],[-71.061402,42.353675],[-71.061963,42.353872],[-71.061988,42.35386]]],[[[-71.061951,42.349438],[-71.061574,42.349302],[-71.061551,42.349309],[-71.06156,42.349327],[-71.061926,42.34945],[-71.061951,42.349438]]],[[[-71.061941,42.349548],[-71.061911,42.349515],[-71.061288,42.349305],[-71.061251,42.349305],[-71.061225,42.349324],[-71.061225,42.349352],[-71.061251,42.349371],[-71.061873,42.349581],[-71.061911,42.349581],[-71.061941,42.349548]]],[[[-71.061928,42.34988],[-71.061551,42.349744],[-71.061528,42.349751],[-71.061537,42.349769],[-71.061903,42.349892],[-71.061928,42.34988]]],[[[-71.061898,42.349926],[-71.061521,42.34979],[-71.061498,42.349797],[-71.061507,42.349815],[-71.061873,42.349938],[-71.061898,42.349926]]],[[[-71.061892,42.35],[-71.061515,42.349864],[-71.061492,42.349871],[-71.061501,42.349889],[-71.061867,42.350012],[-71.061892,42.35]]],[[[-71.061868,42.350044],[-71.061491,42.349908],[-71.061468,42.349915],[-71.061477,42.349933],[-71.061843,42.350056],[-71.061868,42.350044]]],[[[-71.061851,42.348312],[-71.061823,42.348281],[-71.061574,42.348197],[-71.061596,42.348179],[-71.061434,42.348108],[-71.060605,42.347828],[-71.060558,42.347828],[-71.060525,42.347853],[-71.060538,42.347903],[-71.060807,42.347996],[-71.060777,42.348007],[-71.060761,42.348036],[-71.060795,42.348073],[-71.061569,42.348335],[-71.061611,42.348335],[-71.061645,42.348297],[-71.061806,42.348346],[-71.061838,42.348336],[-71.061851,42.348312]]],[[[-71.061838,42.35008],[-71.061461,42.349944],[-71.061438,42.349951],[-71.061447,42.349969],[-71.061813,42.350092],[-71.061838,42.35008]]],[[[-71.061824,42.350155],[-71.061475,42.350028],[-71.061451,42.350036],[-71.061461,42.350053],[-71.061799,42.350167],[-71.061824,42.350155]]],[[[-71.061798,42.3502],[-71.061421,42.350064],[-71.061398,42.350071],[-71.061407,42.350089],[-71.061773,42.350212],[-71.061798,42.3502]]],[[[-71.061789,42.350292],[-71.061765,42.350265],[-71.061142,42.350055],[-71.061156,42.35003],[-71.061141,42.350003],[-71.060576,42.349809],[-71.060578,42.349777],[-71.06055,42.349757],[-71.059803,42.349504],[-71.059747,42.349513],[-71.059453,42.349414],[-71.059406,42.349428],[-71.059426,42.349462],[-71.060312,42.349761],[-71.060309,42.349793],[-71.060337,42.349813],[-71.061078,42.350063],[-71.061076,42.350088],[-71.061028,42.350079],[-71.060986,42.350099],[-71.060986,42.350125],[-71.06101,42.350143],[-71.061703,42.350377],[-71.061752,42.35037],[-71.061765,42.350346],[-71.061752,42.350322],[-71.061789,42.350292]]],[[[-71.06177,42.348421],[-71.061393,42.348285],[-71.06137,42.348292],[-71.061379,42.34831],[-71.061745,42.348433],[-71.06177,42.348421]]],[[[-71.061766,42.349666],[-71.061736,42.349633],[-71.061547,42.349569],[-71.061518,42.349535],[-71.060797,42.349291],[-71.06076,42.349291],[-71.060734,42.34931],[-71.060744,42.349349],[-71.061046,42.349455],[-71.061076,42.349489],[-71.061698,42.349699],[-71.061736,42.349699],[-71.061766,42.349666]]],[[[-71.061692,42.348648],[-71.061666,42.348619],[-71.061001,42.348395],[-71.060955,42.348401],[-71.060946,42.348435],[-71.060661,42.348354],[-71.060638,42.348361],[-71.060647,42.348379],[-71.060785,42.348426],[-71.060786,42.348449],[-71.06081,42.348467],[-71.061503,42.348701],[-71.061552,42.348694],[-71.061562,42.348657],[-71.06165,42.348679],[-71.06168,42.34867],[-71.061692,42.348648]]],[[[-71.06161,42.348837],[-71.061233,42.348701],[-71.06121,42.348708],[-71.061219,42.348726],[-71.061585,42.348849],[-71.06161,42.348837]]],[[[-71.061608,42.3485],[-71.061231,42.348364],[-71.061208,42.348371],[-71.061217,42.348389],[-71.061583,42.348512],[-71.061608,42.3485]]],[[[-71.061502,42.348854],[-71.061476,42.348825],[-71.060811,42.348601],[-71.060765,42.348607],[-71.060197,42.348418],[-71.060155,42.348418],[-71.060125,42.34844],[-71.060125,42.348471],[-71.060155,42.348493],[-71.060929,42.348755],[-71.060971,42.348755],[-71.061,42.348733],[-71.061444,42.348883],[-71.061476,42.348883],[-71.061502,42.348854]]],[[[-71.061493,42.35095],[-71.060977,42.350765],[-71.060947,42.350774],[-71.06096,42.350796],[-71.061461,42.350966],[-71.061493,42.35095]]],[[[-71.061438,42.349255],[-71.060775,42.34902],[-71.060735,42.34904],[-71.060753,42.34906],[-71.061309,42.349248],[-71.061341,42.349243],[-71.061413,42.349267],[-71.061438,42.349255]]],[[[-71.061418,42.351122],[-71.061041,42.350986],[-71.061018,42.350993],[-71.061027,42.351011],[-71.061393,42.351134],[-71.061418,42.351122]]],[[[-71.061399,42.349052],[-71.060913,42.348879],[-71.060888,42.348886],[-71.060898,42.348905],[-71.061373,42.349065],[-71.061399,42.349052]]],[[[-71.061397,42.35118],[-71.06102,42.351044],[-71.060997,42.351051],[-71.061006,42.351069],[-71.061372,42.351192],[-71.061397,42.35118]]],[[[-71.061371,42.35124],[-71.060994,42.351104],[-71.060971,42.351111],[-71.06098,42.351129],[-71.061346,42.351252],[-71.061371,42.35124]]],[[[-71.061368,42.34943],[-71.060991,42.349294],[-71.060968,42.349301],[-71.060977,42.349319],[-71.061343,42.349442],[-71.061368,42.34943]]],[[[-71.061352,42.351289],[-71.060975,42.351153],[-71.060952,42.35116],[-71.060961,42.351178],[-71.061327,42.351301],[-71.061352,42.351289]]],[[[-71.061282,42.34963],[-71.060878,42.349485],[-71.060854,42.349492],[-71.060864,42.34951],[-71.061257,42.349642],[-71.061282,42.34963]]],[[[-71.061261,42.349678],[-71.060857,42.349533],[-71.060833,42.34954],[-71.060843,42.349558],[-71.061236,42.34969],[-71.061261,42.349678]]],[[[-71.061244,42.35337],[-71.061047,42.35328],[-71.061037,42.353263],[-71.060934,42.353228],[-71.060927,42.353208],[-71.060561,42.353084],[-71.060538,42.353091],[-71.060547,42.353109],[-71.060596,42.353125],[-71.060603,42.353146],[-71.060738,42.353191],[-71.060747,42.353209],[-71.060853,42.353259],[-71.061219,42.353382],[-71.061244,42.35337]]],[[[-71.061238,42.354774],[-71.060861,42.354638],[-71.060838,42.354645],[-71.060847,42.354663],[-71.061213,42.354786],[-71.061238,42.354774]]],[[[-71.061222,42.34983],[-71.061196,42.349801],[-71.060531,42.349577],[-71.060485,42.349583],[-71.060172,42.349479],[-71.060173,42.349465],[-71.060479,42.349568],[-71.060503,42.349561],[-71.060493,42.349544],[-71.060127,42.34942],[-71.060104,42.349427],[-71.059512,42.349228],[-71.059461,42.349244],[-71.059461,42.349266],[-71.059482,42.349281],[-71.059819,42.349395],[-71.059792,42.349427],[-71.059534,42.349347],[-71.059505,42.349368],[-71.059513,42.349383],[-71.060079,42.349576],[-71.060118,42.34956],[-71.060541,42.349703],[-71.060579,42.349703],[-71.060608,42.349671],[-71.061164,42.349859],[-71.061196,42.349859],[-71.061222,42.34983]]],[[[-71.061188,42.354916],[-71.060811,42.35478],[-71.060788,42.354787],[-71.060797,42.354805],[-71.061163,42.354928],[-71.061188,42.354916]]],[[[-71.061032,42.348602],[-71.061,42.348567],[-71.060253,42.348314],[-71.060213,42.348314],[-71.060185,42.348335],[-71.060185,42.348365],[-71.060213,42.348385],[-71.06096,42.348637],[-71.061,42.348637],[-71.061032,42.348602]]],[[[-71.060988,42.353363],[-71.060851,42.35329],[-71.060485,42.353166],[-71.060462,42.353173],[-71.060471,42.353191],[-71.060592,42.353249],[-71.060963,42.353375],[-71.060988,42.353363]]],[[[-71.060942,42.348827],[-71.060916,42.348798],[-71.060251,42.348574],[-71.060196,42.348591],[-71.060196,42.348614],[-71.060219,42.348631],[-71.060884,42.348856],[-71.060916,42.348856],[-71.060942,42.348827]]],[[[-71.060847,42.349174],[-71.060803,42.349125],[-71.059893,42.348818],[-71.059839,42.348818],[-71.0598,42.348847],[-71.0598,42.348887],[-71.059839,42.348916],[-71.060749,42.349223],[-71.060803,42.349223],[-71.060847,42.349174]]],[[[-71.060733,42.34939],[-71.060703,42.349357],[-71.06008,42.349147],[-71.060043,42.349147],[-71.060017,42.349166],[-71.060017,42.349194],[-71.060043,42.349213],[-71.060665,42.349423],[-71.060703,42.349423],[-71.060733,42.34939]]],[[[-71.060695,42.349506],[-71.060665,42.349473],[-71.059945,42.34923],[-71.059908,42.34923],[-71.059882,42.349249],[-71.059882,42.349277],[-71.059908,42.349296],[-71.060513,42.349515],[-71.060537,42.349509],[-71.060646,42.349542],[-71.06068,42.349531],[-71.060695,42.349506]]],[[[-71.060628,42.34926],[-71.060251,42.349124],[-71.060228,42.349131],[-71.060237,42.349149],[-71.060603,42.349272],[-71.060628,42.34926]]],[[[-71.060608,42.3493],[-71.060231,42.349164],[-71.060208,42.349171],[-71.060217,42.349189],[-71.060583,42.349312],[-71.060608,42.3493]]],[[[-71.060598,42.35304],[-71.060457,42.352962],[-71.060064,42.352829],[-71.06004,42.352836],[-71.06005,42.352854],[-71.060199,42.35291],[-71.060207,42.352929],[-71.060573,42.353052],[-71.060598,42.35304]]],[[[-71.060558,42.349407],[-71.060181,42.349271],[-71.060158,42.349278],[-71.060167,42.349296],[-71.060533,42.349419],[-71.060558,42.349407]]],[[[-71.060508,42.353283],[-71.060104,42.353138],[-71.06008,42.353145],[-71.06009,42.353163],[-71.060483,42.353295],[-71.060508,42.353283]]],[[[-71.060504,42.35315],[-71.060418,42.353112],[-71.060427,42.353095],[-71.060369,42.35306],[-71.059997,42.352934],[-71.059974,42.352941],[-71.060032,42.352986],[-71.060113,42.353014],[-71.060113,42.353039],[-71.060479,42.353162],[-71.060504,42.35315]]],[[[-71.060419,42.353405],[-71.060413,42.35337],[-71.060041,42.353244],[-71.060018,42.353251],[-71.059742,42.353161],[-71.059706,42.353179],[-71.059706,42.353201],[-71.059426,42.353106],[-71.059417,42.353088],[-71.059051,42.352964],[-71.059028,42.352971],[-71.059037,42.352989],[-71.059095,42.353008],[-71.059073,42.353035],[-71.059085,42.353058],[-71.059346,42.353148],[-71.059322,42.353176],[-71.05935,42.353207],[-71.060043,42.353441],[-71.060092,42.353434],[-71.060105,42.35341],[-71.060092,42.353386],[-71.059857,42.353305],[-71.059815,42.353277],[-71.059819,42.353248],[-71.060365,42.353432],[-71.060395,42.353432],[-71.060419,42.353405]]],[[[-71.060388,42.349884],[-71.059984,42.349739],[-71.05996,42.349746],[-71.05997,42.349764],[-71.060363,42.349896],[-71.060388,42.349884]]],[[[-71.060358,42.353447],[-71.059981,42.353311],[-71.059958,42.353318],[-71.059967,42.353336],[-71.060333,42.353459],[-71.060358,42.353447]]],[[[-71.060318,42.350037],[-71.059941,42.349901],[-71.059918,42.349908],[-71.059927,42.349926],[-71.060293,42.350049],[-71.060318,42.350037]]],[[[-71.060314,42.35015],[-71.060285,42.350118],[-71.060297,42.35011],[-71.060287,42.350093],[-71.059921,42.349969],[-71.059898,42.349976],[-71.059643,42.349904],[-71.059598,42.349926],[-71.059598,42.349954],[-71.059624,42.349973],[-71.060246,42.350183],[-71.060284,42.350183],[-71.060314,42.35015]]],[[[-71.060158,42.352962],[-71.059781,42.352826],[-71.059758,42.352833],[-71.059767,42.352851],[-71.060133,42.352974],[-71.060158,42.352962]]],[[[-71.059972,42.351044],[-71.059946,42.351015],[-71.059281,42.350791],[-71.059226,42.350808],[-71.059226,42.350831],[-71.059249,42.350848],[-71.059914,42.351073],[-71.059946,42.351073],[-71.059972,42.351044]]],[[[-71.059901,42.351135],[-71.059893,42.351121],[-71.059356,42.350939],[-71.059322,42.350949],[-71.059336,42.350974],[-71.059865,42.351153],[-71.059901,42.351135]]],[[[-71.059758,42.352753],[-71.059354,42.352608],[-71.059206,42.352592],[-71.059216,42.35261],[-71.059609,42.352742],[-71.059733,42.352765],[-71.059758,42.352753]]],[[[-71.059669,42.354954],[-71.059573,42.354873],[-71.059464,42.354835],[-71.05948,42.354804],[-71.059431,42.35478],[-71.059413,42.354738],[-71.059378,42.354709],[-71.058767,42.354503],[-71.05872,42.354517],[-71.058728,42.354545],[-71.058787,42.354567],[-71.058794,42.354594],[-71.058836,42.35461],[-71.058844,42.354633],[-71.058953,42.354672],[-71.058937,42.354684],[-71.058944,42.35471],[-71.059073,42.354786],[-71.059629,42.354974],[-71.059669,42.354954]]],[[[-71.059649,42.35171],[-71.059619,42.351677],[-71.058911,42.351431],[-71.058877,42.351441],[-71.058521,42.351321],[-71.058487,42.351331],[-71.058501,42.351356],[-71.058929,42.351501],[-71.058959,42.351533],[-71.059518,42.351723],[-71.0596,42.351746],[-71.059634,42.351735],[-71.059649,42.35171]]],[[[-71.059589,42.352783],[-71.059559,42.35275],[-71.058936,42.35254],[-71.058899,42.35254],[-71.058873,42.352559],[-71.058873,42.352587],[-71.058899,42.352606],[-71.059521,42.352816],[-71.059559,42.352816],[-71.059589,42.352783]]],[[[-71.059562,42.3516],[-71.059542,42.351578],[-71.058959,42.351381],[-71.058924,42.351386],[-71.058721,42.351324],[-71.058698,42.351331],[-71.058707,42.351349],[-71.059518,42.351622],[-71.059542,42.351622],[-71.059562,42.3516]]],[[[-71.059518,42.351097],[-71.059141,42.350961],[-71.059118,42.350968],[-71.059127,42.350986],[-71.059493,42.351109],[-71.059518,42.351097]]],[[[-71.059478,42.35117],[-71.059101,42.351034],[-71.059078,42.351041],[-71.059087,42.351059],[-71.059453,42.351182],[-71.059478,42.35117]]],[[[-71.059418,42.35301],[-71.059041,42.352874],[-71.059018,42.352881],[-71.059027,42.352899],[-71.059393,42.353022],[-71.059418,42.35301]]],[[[-71.059387,42.351704],[-71.058871,42.351519],[-71.058841,42.351528],[-71.058373,42.351374],[-71.058326,42.351388],[-71.058346,42.351422],[-71.058956,42.351628],[-71.058984,42.351628],[-71.059006,42.351604],[-71.059355,42.35172],[-71.059387,42.351704]]],[[[-71.059323,42.35178],[-71.058937,42.351634],[-71.058517,42.351492],[-71.058493,42.351499],[-71.058503,42.351517],[-71.058776,42.351609],[-71.058782,42.351623],[-71.059291,42.351796],[-71.059323,42.35178]]],[[[-71.059219,42.35129],[-71.059176,42.351253],[-71.059187,42.351235],[-71.059129,42.351197],[-71.058409,42.350954],[-71.058372,42.350954],[-71.058346,42.350973],[-71.058346,42.351001],[-71.058407,42.351032],[-71.058406,42.351061],[-71.05843,42.35108],[-71.058376,42.3511],[-71.058376,42.351128],[-71.058402,42.351147],[-71.059121,42.35139],[-71.059174,42.351382],[-71.059189,42.351357],[-71.05916,42.351325],[-71.059204,42.351315],[-71.059219,42.35129]]],[[[-71.059184,42.353294],[-71.058807,42.353158],[-71.058783,42.353175],[-71.058711,42.353151],[-71.058688,42.353169],[-71.058621,42.353147],[-71.058598,42.353154],[-71.058607,42.353172],[-71.058973,42.353295],[-71.058997,42.353278],[-71.059063,42.353299],[-71.059087,42.353282],[-71.059159,42.353306],[-71.059184,42.353294]]],[[[-71.059092,42.354385],[-71.059083,42.354368],[-71.059011,42.354342],[-71.059013,42.354322],[-71.058952,42.354301],[-71.058954,42.35428],[-71.058473,42.354117],[-71.058448,42.354124],[-71.058458,42.354143],[-71.058622,42.354199],[-71.058616,42.354209],[-71.058477,42.354164],[-71.058447,42.354179],[-71.058464,42.35421],[-71.059048,42.354407],[-71.059072,42.354407],[-71.059092,42.354385]]],[[[-71.058922,42.35169],[-71.058902,42.351668],[-71.058319,42.351471],[-71.058277,42.351484],[-71.058294,42.351515],[-71.058878,42.351712],[-71.058902,42.351712],[-71.058922,42.35169]]],[[[-71.058886,42.351738],[-71.058864,42.351714],[-71.058253,42.351508],[-71.058206,42.351522],[-71.058226,42.351556],[-71.058836,42.351762],[-71.058864,42.351762],[-71.058886,42.351738]]],[[[-71.058864,42.353268],[-71.058487,42.353132],[-71.058464,42.353139],[-71.058473,42.353157],[-71.058839,42.35328],[-71.058864,42.353268]]],[[[-71.058836,42.35178],[-71.058814,42.351756],[-71.058203,42.35155],[-71.058156,42.351564],[-71.058176,42.351598],[-71.058786,42.351804],[-71.058814,42.351804],[-71.058836,42.35178]]],[[[-71.058778,42.351826],[-71.058374,42.351681],[-71.05835,42.351688],[-71.058093,42.351603],[-71.058042,42.351619],[-71.058042,42.351641],[-71.058063,42.351656],[-71.058701,42.351872],[-71.058744,42.351865],[-71.058778,42.351826]]],[[[-71.058758,42.353268],[-71.058381,42.353132],[-71.058358,42.353139],[-71.058367,42.353157],[-71.058733,42.35328],[-71.058758,42.353268]]],[[[-71.058692,42.351906],[-71.058672,42.351884],[-71.058089,42.351687],[-71.058047,42.3517],[-71.058054,42.351726],[-71.058108,42.351746],[-71.058097,42.351767],[-71.05811,42.351776],[-71.058611,42.351946],[-71.058642,42.351926],[-71.058672,42.351928],[-71.058692,42.351906]]],[[[-71.058598,42.351967],[-71.058221,42.351831],[-71.058198,42.351838],[-71.057777,42.351698],[-71.057717,42.351707],[-71.057701,42.351736],[-71.057717,42.351765],[-71.057788,42.351791],[-71.057786,42.351816],[-71.057716,42.351817],[-71.057702,42.35184],[-71.057716,42.351864],[-71.05797,42.351952],[-71.05797,42.351977],[-71.058363,42.352109],[-71.058472,42.352098],[-71.058482,42.352061],[-71.058569,42.352026],[-71.058598,42.351967]]],[[[-71.058568,42.35253],[-71.058486,42.352494],[-71.058498,42.352486],[-71.058487,42.352467],[-71.058013,42.352307],[-71.057988,42.352314],[-71.057998,42.352333],[-71.057988,42.352352],[-71.058107,42.352396],[-71.057901,42.352331],[-71.057878,42.352338],[-71.057887,42.352356],[-71.05797,42.352384],[-71.057877,42.352376],[-71.057877,42.352401],[-71.058243,42.352524],[-71.058427,42.352533],[-71.058417,42.352516],[-71.058278,42.352469],[-71.058483,42.352536],[-71.058557,42.352542],[-71.058568,42.35253]]],[[[-71.058288,42.35091],[-71.057841,42.350751],[-71.057818,42.350758],[-71.057827,42.350776],[-71.058263,42.350922],[-71.058288,42.35091]]],[[[-71.058038,42.352665],[-71.057661,42.352529],[-71.057638,42.352536],[-71.057647,42.352554],[-71.058013,42.352677],[-71.058038,42.352665]]],[[[-71.058032,42.352768],[-71.057655,42.352632],[-71.057632,42.352639],[-71.057641,42.352657],[-71.058007,42.35278],[-71.058032,42.352768]]],[[[-71.058008,42.352905],[-71.057631,42.352769],[-71.057608,42.352776],[-71.057617,42.352794],[-71.057983,42.352917],[-71.058008,42.352905]]],[[[-71.057803,42.350693],[-71.057381,42.350541],[-71.057358,42.350548],[-71.057367,42.350566],[-71.057778,42.350705],[-71.057803,42.350693]]],[[[-71.05775,42.352226],[-71.057742,42.352212],[-71.057205,42.35203],[-71.056795,42.351902],[-71.056755,42.351922],[-71.056773,42.351942],[-71.057583,42.35221],[-71.057724,42.352245],[-71.05775,42.352226]]],[[[-71.057414,42.350403],[-71.057037,42.350267],[-71.057014,42.350274],[-71.057023,42.350292],[-71.057389,42.350415],[-71.057414,42.350403]]],[[[-71.057398,42.350494],[-71.057021,42.350358],[-71.056998,42.350365],[-71.057007,42.350383],[-71.057373,42.350506],[-71.057398,42.350494]]],[[[-71.057348,42.351707],[-71.056944,42.351562],[-71.05692,42.351569],[-71.05693,42.351587],[-71.057323,42.351719],[-71.057348,42.351707]]],[[[-71.057338,42.35175],[-71.056961,42.351614],[-71.056938,42.351621],[-71.056947,42.351639],[-71.057313,42.351762],[-71.057338,42.35175]]],[[[-71.057309,42.351897],[-71.056932,42.351761],[-71.056909,42.351768],[-71.056918,42.351786],[-71.057284,42.351909],[-71.057309,42.351897]]],[[[-71.057298,42.351955],[-71.056949,42.351828],[-71.056925,42.351836],[-71.056935,42.351853],[-71.057273,42.351967],[-71.057298,42.351955]]],[[[-71.057298,42.350925],[-71.056867,42.350771],[-71.056843,42.350778],[-71.056853,42.350796],[-71.057273,42.350937],[-71.057298,42.350925]]],[[[-71.057268,42.351063],[-71.056837,42.350909],[-71.056813,42.350916],[-71.056823,42.350934],[-71.057243,42.351075],[-71.057268,42.351063]]],[[[-71.057208,42.35141],[-71.056831,42.351274],[-71.056808,42.351281],[-71.056817,42.351299],[-71.057183,42.351422],[-71.057208,42.35141]]],[[[-71.057198,42.35055],[-71.056821,42.350414],[-71.056694,42.350404],[-71.056703,42.350422],[-71.057069,42.350545],[-71.057093,42.350538],[-71.057173,42.350562],[-71.057198,42.35055]]],[[[-71.057147,42.350632],[-71.05677,42.350496],[-71.056747,42.350503],[-71.056756,42.350521],[-71.057122,42.350644],[-71.057147,42.350632]]],[[[-71.057038,42.34984],[-71.056829,42.349761],[-71.056805,42.349733],[-71.056167,42.349518],[-71.056116,42.349534],[-71.056116,42.349556],[-71.056137,42.349571],[-71.056775,42.349787],[-71.057013,42.349852],[-71.057038,42.34984]]],[[[-71.057022,42.349903],[-71.057002,42.349881],[-71.056419,42.349684],[-71.056189,42.349621],[-71.056147,42.349634],[-71.056164,42.349665],[-71.056748,42.349862],[-71.056978,42.349925],[-71.057002,42.349925],[-71.057022,42.349903]]],[[[-71.056868,42.352028],[-71.05641,42.351865],[-71.056317,42.35184],[-71.056293,42.351847],[-71.05601,42.351757],[-71.055986,42.351764],[-71.056025,42.351798],[-71.056363,42.351912],[-71.056443,42.351932],[-71.056467,42.351925],[-71.056843,42.35204],[-71.056868,42.352028]]],[[[-71.056834,42.35023],[-71.056457,42.350094],[-71.056434,42.350101],[-71.056019,42.349966],[-71.055977,42.349979],[-71.055994,42.35001],[-71.056578,42.350207],[-71.056613,42.350202],[-71.056621,42.350179],[-71.056809,42.350242],[-71.056834,42.35023]]],[[[-71.056798,42.350307],[-71.056421,42.350171],[-71.056398,42.350178],[-71.056407,42.350196],[-71.056773,42.350319],[-71.056798,42.350307]]],[[[-71.056774,42.349915],[-71.056744,42.349882],[-71.056121,42.349672],[-71.056084,42.349672],[-71.056058,42.349691],[-71.056058,42.349719],[-71.056084,42.349738],[-71.056706,42.349948],[-71.056744,42.349948],[-71.056774,42.349915]]],[[[-71.056729,42.350006],[-71.056699,42.349973],[-71.056076,42.349763],[-71.056039,42.349763],[-71.056013,42.349782],[-71.056013,42.34981],[-71.056039,42.349829],[-71.056661,42.350039],[-71.056699,42.350039],[-71.056729,42.350006]]],[[[-71.056659,42.350094],[-71.056641,42.350074],[-71.056085,42.349886],[-71.056045,42.349906],[-71.056063,42.349926],[-71.056619,42.350114],[-71.056659,42.350094]]],[[[-71.056643,42.350613],[-71.056185,42.35045],[-71.056161,42.350457],[-71.056171,42.350474],[-71.056618,42.350625],[-71.056643,42.350613]]],[[[-71.056626,42.353203],[-71.056386,42.353078],[-71.055877,42.352905],[-71.055847,42.352914],[-71.055852,42.352936],[-71.056047,42.353003],[-71.056053,42.353038],[-71.05659,42.353221],[-71.056626,42.353203]]],[[[-71.056608,42.35068],[-71.05615,42.350517],[-71.056126,42.350524],[-71.056136,42.350541],[-71.056583,42.350692],[-71.056608,42.35068]]],[[[-71.056559,42.350834],[-71.056529,42.350801],[-71.055906,42.350591],[-71.055869,42.350591],[-71.055843,42.35061],[-71.055843,42.350638],[-71.055869,42.350657],[-71.056491,42.350867],[-71.056529,42.350867],[-71.056559,42.350834]]],[[[-71.056428,42.35103],[-71.056205,42.350946],[-71.056221,42.350943],[-71.056221,42.350923],[-71.055768,42.35077],[-71.055744,42.350777],[-71.055754,42.350794],[-71.056047,42.350893],[-71.056032,42.350897],[-71.056032,42.350916],[-71.056403,42.351042],[-71.056428,42.35103]]],[[[-71.056398,42.351097],[-71.05594,42.350934],[-71.055728,42.350873],[-71.055704,42.35088],[-71.055714,42.350897],[-71.056161,42.351048],[-71.056373,42.351109],[-71.056398,42.351097]]],[[[-71.056364,42.351176],[-71.055987,42.35104],[-71.055964,42.351047],[-71.055973,42.351065],[-71.056339,42.351188],[-71.056364,42.351176]]],[[[-71.056338,42.35493],[-71.05588,42.354767],[-71.055856,42.354774],[-71.055866,42.354791],[-71.056313,42.354942],[-71.056338,42.35493]]],[[[-71.056328,42.354836],[-71.05587,42.354673],[-71.055846,42.35468],[-71.055856,42.354697],[-71.056303,42.354848],[-71.056328,42.354836]]],[[[-71.056309,42.35475],[-71.055823,42.354577],[-71.055798,42.354584],[-71.055808,42.354603],[-71.056283,42.354763],[-71.056309,42.35475]]],[[[-71.056306,42.35467],[-71.056298,42.354656],[-71.055761,42.354474],[-71.055727,42.354484],[-71.055741,42.354509],[-71.05627,42.354688],[-71.056306,42.35467]]],[[[-71.056258,42.351376],[-71.055854,42.351231],[-71.05583,42.351238],[-71.05584,42.351256],[-71.056233,42.351388],[-71.056258,42.351376]]],[[[-71.056256,42.350842],[-71.055798,42.350679],[-71.055774,42.350686],[-71.055784,42.350703],[-71.056231,42.350854],[-71.056256,42.350842]]],[[[-71.056239,42.351411],[-71.055835,42.351266],[-71.055811,42.351273],[-71.055821,42.351291],[-71.056214,42.351423],[-71.056239,42.351411]]],[[[-71.056208,42.35145],[-71.055974,42.351362],[-71.055966,42.351343],[-71.055519,42.351192],[-71.055495,42.351199],[-71.055505,42.351216],[-71.055782,42.35131],[-71.05579,42.35133],[-71.056183,42.351462],[-71.056208,42.35145]]],[[[-71.056148,42.351145],[-71.05569,42.350982],[-71.055666,42.350989],[-71.055676,42.351006],[-71.056123,42.351157],[-71.056148,42.351145]]],[[[-71.056078,42.35171],[-71.055858,42.351627],[-71.055848,42.35161],[-71.055401,42.351459],[-71.055377,42.351466],[-71.055387,42.351483],[-71.05565,42.351572],[-71.05566,42.35159],[-71.056053,42.351722],[-71.056078,42.35171]]],[[[-71.055953,42.351412],[-71.055495,42.351249],[-71.055471,42.351256],[-71.055481,42.351273],[-71.055928,42.351424],[-71.055953,42.351412]]],[[[-71.05592,42.351482],[-71.055462,42.351319],[-71.055438,42.351326],[-71.055448,42.351343],[-71.055895,42.351494],[-71.05592,42.351482]]],[[[-71.055888,42.351561],[-71.05543,42.351398],[-71.055406,42.351405],[-71.055416,42.351422],[-71.055863,42.351573],[-71.055888,42.351561]]],[[[-71.055869,42.352226],[-71.055839,42.352193],[-71.055216,42.351983],[-71.055163,42.35199],[-71.055153,42.35203],[-71.055115,42.352066],[-71.055145,42.352099],[-71.055767,42.352309],[-71.05582,42.352301],[-71.055831,42.352262],[-71.055869,42.352226]]],[[[-71.055808,42.351727],[-71.05535,42.351564],[-71.055326,42.351571],[-71.055336,42.351588],[-71.055783,42.351739],[-71.055808,42.351727]]],[[[-71.055788,42.353336],[-71.055768,42.353314],[-71.055185,42.353117],[-71.055143,42.35313],[-71.05516,42.353161],[-71.055744,42.353358],[-71.055768,42.353358],[-71.055788,42.353336]]],[[[-71.055788,42.351776],[-71.05533,42.351613],[-71.055306,42.35162],[-71.055316,42.351637],[-71.055763,42.351788],[-71.055788,42.351776]]],[[[-71.055724,42.353394],[-71.055706,42.353374],[-71.05515,42.353186],[-71.05511,42.353206],[-71.055128,42.353226],[-71.055684,42.353414],[-71.055724,42.353394]]],[[[-71.055645,42.35343],[-71.055159,42.353257],[-71.055134,42.353264],[-71.055144,42.353283],[-71.055619,42.353443],[-71.055645,42.35343]]],[[[-71.055558,42.353497],[-71.0551,42.353334],[-71.055076,42.353341],[-71.055086,42.353358],[-71.055533,42.353509],[-71.055558,42.353497]]],[[[-71.055498,42.35353],[-71.055094,42.353385],[-71.05507,42.353392],[-71.05508,42.35341],[-71.055473,42.353542],[-71.055498,42.35353]]],[[[-71.055262,42.353653],[-71.054885,42.353517],[-71.054862,42.353524],[-71.054654,42.353463],[-71.054625,42.353484],[-71.054673,42.353515],[-71.054647,42.353524],[-71.05466,42.353546],[-71.055161,42.353716],[-71.055191,42.353706],[-71.055183,42.353687],[-71.055221,42.353692],[-71.055262,42.353653]]]]},"properties":{"kind":"tree"}}]}