{"type":"FeatureCollection","features":[{"type":"Feature","geometry":{"type":"Polygon","coordinates":[[[-71.06703,42.351826],[-71.067007,42.351692],[-71.066747,42.351106],[-71.065971,42.350783],[-71.065959,42.350666],[-71.065867,42.350628],[-71.065953,42.350615],[-71.06593,42.350327],[-71.065703,42.350233],[-71.065916,42.350219],[-71.065881,42.34989],[-71.065776,42.349769],[-71.065675,42.349727],[-71.065698,42.349619],[-71.065904,42.349705],[-71.065981,42.349681],[-71.065986,42.349664],[-71.066009,42.349673],[-71.066095,42.349646],[-71.066006,42.349489],[-71.065113,42.349118],[-71.066043,42.349503],[-71.066107,42.349483],[-71.066051,42.349385],[-71.065282,42.349065],[-71.06533,42.348887],[-71.065323,42.348802],[-71.065279,42.348688],[-71.064619,42.348413],[-71.064805,42.348442],[-71.064847,42.348372],[-71.065094,42.348475],[-71.065129,42.348475],[-71.065402,42.34842],[-71.065423,42.34841],[-71.065416,42.348378],[-71.065917,42.348586],[-71.066455,42.348649],[-71.066483,42.348529],[-71.065944,42.348305],[-71.065995,42.348064],[-71.065507,42.347859],[-71.065483,42.347819],[-71.065318,42.34775],[-71.065319,42.347677],[-71.065257,42.347643],[-71.062643,42.346556],[-71.06228,42.3465],[-71.062261,42.346509],[-71.060693,42.345857],[-71.060535,42.345839],[-71.06045,42.346239],[-71.060513,42.346266],[-71.060502,42.346317],[-71.061144,42.346601],[-71.061102,42.346594],[-71.061095,42.34662],[-71.05958,42.34599],[-71.059419,42.345965],[-71.059382,42.345981],[-71.058786,42.345733],[-71.058666,42.345714],[-71.058581,42.345784],[-71.058553,42.34588],[-71.058596,42.345972],[-71.061572,42.34721],[-71.061147,42.347164],[-71.061129,42.347229],[-71.059949,42.346739],[-71.05986,42.346764],[-71.058643,42.346258],[-71.058483,42.346233],[-71.056564,42.345435],[-71.05641,42.345399],[-71.056264,42.345749],[-71.056253,42.345841],[-71.058211,42.346655],[-71.058259,42.346835],[-71.057818,42.346766],[-71.055709,42.345892],[-71.055247,42.346534],[-71.056392,42.34701],[-71.056261,42.34737],[-71.053377,42.346173],[-71.052612,42.345891],[-71.051632,42.347349],[-71.050859,42.347027],[-71.050533,42.346907],[-71.050096,42.347355],[-71.050063,42.347405],[-71.050052,42.347553],[-71.049724,42.347416],[-71.049145,42.347205],[-71.048174,42.348648],[-71.049965,42.349393],[-71.049176,42.349574],[-71.049004,42.349749],[-71.04953,42.350027],[-71.053565,42.351705],[-71.053448,42.351814],[-71.052251,42.351317],[-71.051992,42.351229],[-71.051942,42.35131],[-71.050939,42.350894],[-71.050695,42.35102],[-71.050723,42.351125],[-71.051245,42.351342],[-71.051225,42.351351],[-71.050849,42.351195],[-71.050525,42.35137],[-71.050559,42.351406],[-71.050286,42.351292],[-71.050118,42.351384],[-71.050073,42.351433],[-71.050257,42.351622],[-71.050609,42.351768],[-71.050441,42.351842],[-71.050286,42.351778],[-71.050264,42.351788],[-71.050108,42.351879],[-71.050197,42.351961],[-71.049586,42.351707],[-71.04949,42.351697],[-71.049075,42.351917],[-71.049052,42.351957],[-71.049061,42.352001],[-71.049292,42.352244],[-71.049552,42.352365],[-71.049472,42.352438],[-71.049677,42.352634],[-71.050318,42.3529],[-71.050385,42.353274],[-71.055688,42.355479],[-71.055803,42.355484],[-71.056258,42.35544],[-71.056364,42.355412],[-71.056293,42.35502],[-71.056566,42.355133],[-71.057349,42.355074],[-71.057329,42.354923],[-71.056219,42.354461],[-71.056174,42.354303],[-71.056463,42.354421],[-71.056511,42.354416],[-71.057914,42.354998],[-71.05828,42.355017],[-71.058336,42.354997],[-71.059228,42.355368],[-71.0596,42.355023],[-71.060481,42.355389],[-71.060883,42.355029],[-71.061373,42.355233],[-71.061545,42.355046],[-71.061099,42.354829],[-71.061143,42.354774],[-71.062184,42.355207],[-71.06234,42.35504],[-71.062691,42.355175],[-71.062781,42.355082],[-71.063118,42.355222],[-71.063177,42.355145],[-71.061975,42.354566],[-71.061986,42.354554],[-71.061899,42.354507],[-71.063211,42.355053],[-71.063255,42.355044],[-71.063445,42.354693],[-71.063912,42.354877],[-71.063935,42.354829],[-71.063475,42.354638],[-71.063852,42.353943],[-71.063862,42.353896],[-71.063535,42.35376],[-71.063557,42.353723],[-71.063892,42.353833],[-71.063945,42.353748],[-71.065474,42.354384],[-71.065527,42.354387],[-71.065563,42.354357],[-71.065563,42.354332],[-71.065534,42.354305],[-71.06399,42.353663],[-71.063998,42.353634],[-71.063674,42.353499],[-71.063686,42.353443],[-71.063796,42.353489],[-71.064052,42.353554],[-71.064097,42.353425],[-71.063703,42.353261],[-71.064146,42.353296],[-71.064173,42.353227],[-71.064508,42.353366],[-71.064576,42.35338],[-71.06461,42.353278],[-71.064216,42.353114],[-71.064309,42.35284],[-71.064232,42.352808],[-71.064309,42.352812],[-71.064353,42.352644],[-71.064364,42.352528],[-71.064391,42.352589],[-71.065312,42.352972],[-71.065378,42.352986],[-71.065421,42.352871],[-71.064715,42.352577],[-71.064727,42.352541],[-71.064057,42.352262],[-71.064109,42.352263],[-71.064112,42.35225],[-71.064172,42.352275],[-71.064449,42.352283],[-71.064484,42.352263],[-71.064491,42.352235],[-71.064683,42.352315],[-71.065885,42.352382],[-71.065891,42.352355],[-71.065967,42.352387],[-71.066063,42.352392],[-71.06608,42.35217],[-71.06627,42.352169],[-71.066295,42.351885],[-71.065979,42.351754],[-71.066847,42.351871],[-71.06703,42.351826]],[[-71.056479,42.348615],[-71.056108,42.348463],[-71.056109,42.348461],[-71.056479,42.348615]]]},"properties":{"kind":"building"}},{"type":"Feature","geometry":{"type":"MultiPolygon","coordinates":[[[[-71.066058,42.353451],[-71.066047,42.35341],[-71.066015,42.353375],[-71.065813,42.353287],[-71.06586,42.353283],[-71.065911,42.353246],[-71.065911,42.353192],[-71.06586,42.353155],[-71.065886,42.353126],[-71.065942,42.353121],[-71.066007,42.353073],[-71.066016,42.353039],[-71.065995,42.352992],[-71.066039,42.352955],[-71.066048,42.352923],[-71.066021,42.352832],[-71.065942,42.352773],[-71.065664,42.352658],[-71.065642,42.352617],[-71.065688,42.352628],[-71.06573,42.352618],[-71.065812,42.352644],[-71.065865,42.352628],[-71.065918,42.352648],[-71.065976,42.352648],[-71.066016,42.352618],[-71.066022,42.352597],[-71.066,42.352558],[-71.063743,42.351618],[-71.063661,42.351629],[-71.063608,42.35161],[-71.063538,42.351616],[-71.063484,42.351594],[-71.063427,42.351594],[-71.063386,42.351623],[-71.063398,42.351679],[-71.062544,42.351339],[-71.062471,42.351362],[-71.062432,42.351426],[-71.062362,42.351397],[-71.062288,42.351397],[-71.062235,42.351436],[-71.062228,42.351464],[-71.062256,42.351515],[-71.062658,42.351684],[-71.062635,42.351733],[-71.062677,42.351815],[-71.062614,42.351841],[-71.062591,42.351865],[-71.062588,42.351911],[-71.062488,42.351904],[-71.062439,42.351937],[-71.062197,42.351836],[-71.062173,42.351844],[-71.06165,42.351627],[-71.061402,42.35162],[-71.061323,42.351679],[-71.061311,42.35172],[-71.061323,42.351761],[-71.061354,42.351796],[-71.061955,42.35205],[-71.061878,42.352074],[-71.061755,42.352022],[-71.06167,42.352022],[-71.061611,42.352067],[-71.061602,42.352098],[-71.061635,42.352155],[-71.065545,42.353796],[-71.065608,42.353787],[-71.065621,42.353739],[-71.065535,42.353694],[-71.065545,42.353648],[-71.065483,42.353611],[-71.065551,42.353584],[-71.065583,42.353549],[-71.065594,42.353508],[-71.065583,42.353467],[-71.065551,42.353432],[-71.065386,42.353359],[-71.065856,42.353551],[-71.065912,42.353559],[-71.066015,42.353527],[-71.066047,42.353492],[-71.066058,42.353451]]],[[[-71.066046,42.354972],[-71.066004,42.354925],[-71.064987,42.354501],[-71.065029,42.3545],[-71.065062,42.354475],[-71.065049,42.354426],[-71.064763,42.354306],[-71.06475,42.354274],[-71.064903,42.354332],[-71.064951,42.354309],[-71.06494,42.354267],[-71.064628,42.354136],[-71.064633,42.354119],[-71.065685,42.354557],[-71.065785,42.354557],[-71.065827,42.354536],[-71.065865,42.354468],[-71.065855,42.354431],[-71.065785,42.354379],[-71.064896,42.35401],[-71.064911,42.354002],[-71.065168,42.354104],[-71.065231,42.354095],[-71.065244,42.354047],[-71.065158,42.354002],[-71.065142,42.353957],[-71.064464,42.353674],[-71.06529,42.354014],[-71.06534,42.354014],[-71.06538,42.35397],[-71.065361,42.353936],[-71.065284,42.353902],[-71.065287,42.353892],[-71.065938,42.354162],[-71.065956,42.354162],[-71.065968,42.35414],[-71.065912,42.354112],[-71.065938,42.354081],[-71.066009,42.354081],[-71.06602,42.354061],[-71.066009,42.354041],[-71.065763,42.353938],[-71.065749,42.353914],[-71.065374,42.353742],[-71.063271,42.352868],[-71.063226,42.352867],[-71.061918,42.352323],[-71.061841,42.352323],[-71.061786,42.352363],[-71.061786,42.35242],[-71.061808,42.352444],[-71.063219,42.353034],[-71.062907,42.352907],[-71.062817,42.35291],[-71.06238,42.352744],[-71.062334,42.352758],[-71.06232,42.352811],[-71.062287,42.352843],[-71.062194,42.352813],[-71.062109,42.352823],[-71.062064,42.352865],[-71.061941,42.352814],[-71.061885,42.352813],[-71.061687,42.352731],[-71.061606,42.352724],[-71.061596,42.352742],[-71.061833,42.352845],[-71.061824,42.352872],[-71.061687,42.352819],[-71.061662,42.352837],[-71.061553,42.352793],[-71.061524,42.352803],[-71.061536,42.352825],[-71.061598,42.35285],[-71.061546,42.35289],[-71.061537,42.352921],[-71.061569,42.352977],[-71.061852,42.353097],[-71.061857,42.353123],[-71.061901,42.353156],[-71.062468,42.353392],[-71.061974,42.353193],[-71.06193,42.353191],[-71.060984,42.352797],[-71.060873,42.352797],[-71.060794,42.352856],[-71.060782,42.352897],[-71.060794,42.352938],[-71.060825,42.352973],[-71.062263,42.353575],[-71.062258,42.353592],[-71.061704,42.353361],[-71.061642,42.353361],[-71.061604,42.353388],[-71.060758,42.353036],[-71.060647,42.353036],[-71.060592,42.353068],[-71.060056,42.352845],[-71.060016,42.352849],[-71.060016,42.352868],[-71.060224,42.352955],[-71.060183,42.352977],[-71.060154,42.352971],[-71.060147,42.35295],[-71.059667,42.35275],[-71.059747,42.352765],[-71.059747,42.352741],[-71.058811,42.352351],[-71.058663,42.352336],[-71.058673,42.352353],[-71.059253,42.352594],[-71.059262,42.352612],[-71.059471,42.352699],[-71.059468,42.352712],[-71.058076,42.352133],[-71.058039,42.352133],[-71.058013,42.352153],[-71.058013,42.35218],[-71.058039,42.3522],[-71.059521,42.352816],[-71.059574,42.352808],[-71.059586,42.352773],[-71.059608,42.3528],[-71.060092,42.353013],[-71.061915,42.353763],[-71.061888,42.353808],[-71.061742,42.353728],[-71.060865,42.353363],[-71.060841,42.353371],[-71.060767,42.353342],[-71.060742,42.353349],[-71.060752,42.353368],[-71.061412,42.353643],[-71.061373,42.353674],[-71.061373,42.353721],[-71.06148,42.353781],[-71.061451,42.353825],[-71.061474,42.353865],[-71.061989,42.354081],[-71.062019,42.354117],[-71.063501,42.354733],[-71.063539,42.354733],[-71.063827,42.354838],[-71.063882,42.354821],[-71.063901,42.354766],[-71.063938,42.354751],[-71.063959,42.354721],[-71.064767,42.355057],[-71.064807,42.355063],[-71.06488,42.35504],[-71.064911,42.354986],[-71.06488,42.354932],[-71.064411,42.354734],[-71.064451,42.354711],[-71.064714,42.354809],[-71.064738,42.354802],[-71.064728,42.354785],[-71.064368,42.354635],[-71.064353,42.354608],[-71.064181,42.354535],[-71.064907,42.354833],[-71.064949,42.354833],[-71.064979,42.354811],[-71.064967,42.354766],[-71.06446,42.354554],[-71.06528,42.354882],[-71.065362,42.35487],[-71.06556,42.354934],[-71.065607,42.354927],[-71.065657,42.354896],[-71.065978,42.355022],[-71.066026,42.355008],[-71.066046,42.354972]]],[[[-71.06583,42.348038],[-71.06579,42.347994],[-71.063752,42.347146],[-71.063702,42.347146],[-71.063667,42.347172],[-71.063667,42.347209],[-71.063702,42.347235],[-71.06574,42.348082],[-71.06579,42.348082],[-71.06583,42.348038]]],[[[-71.06579,42.34818],[-71.065756,42.348142],[-71.063912,42.347376],[-71.06387,42.347376],[-71.06384,42.347398],[-71.06384,42.347429],[-71.06387,42.347451],[-71.065714,42.348218],[-71.065756,42.348218],[-71.06579,42.34818]]],[[[-71.065738,42.348446],[-71.065721,42.348415],[-71.065542,42.348339],[-71.065547,42.348299],[-71.065514,42.348274],[-71.06354,42.347453],[-71.063493,42.347453],[-71.06346,42.347478],[-71.063473,42.347528],[-71.063721,42.347632],[-71.063718,42.347669],[-71.063749,42.347692],[-71.065658,42.348486],[-71.065702,42.348486],[-71.065738,42.348446]]],[[[-71.065728,42.348293],[-71.064846,42.347918],[-71.064822,42.347926],[-71.064832,42.347943],[-71.065703,42.348305],[-71.065728,42.348293]]],[[[-71.065598,42.348957],[-71.064781,42.348609],[-71.064757,42.348617],[-71.064767,42.348634],[-71.065573,42.348969],[-71.065598,42.348957]]],[[[-71.065588,42.351223],[-71.064576,42.350794],[-71.064553,42.350802],[-71.064562,42.350819],[-71.065563,42.351235],[-71.065588,42.351223]]],[[[-71.065562,42.349094],[-71.064745,42.348746],[-71.064721,42.348754],[-71.064731,42.348771],[-71.065537,42.349106],[-71.065562,42.349094]]],[[[-71.065559,42.349236],[-71.065529,42.349203],[-71.064046,42.348586],[-71.064009,42.348586],[-71.063983,42.348606],[-71.063,42.348207],[-71.06297,42.348217],[-71.062982,42.348239],[-71.065491,42.349269],[-71.065529,42.349269],[-71.065559,42.349236]]],[[[-71.065483,42.348446],[-71.064274,42.347933],[-71.064244,42.347943],[-71.064256,42.347965],[-71.065451,42.348462],[-71.065483,42.348446]]],[[[-71.065433,42.34879],[-71.065403,42.348757],[-71.063739,42.34805],[-71.063715,42.348068],[-71.063882,42.348141],[-71.063867,42.348148],[-71.063554,42.348024],[-71.06353,42.348032],[-71.06354,42.348049],[-71.063855,42.34818],[-71.063883,42.348207],[-71.065365,42.348823],[-71.065403,42.348823],[-71.065433,42.34879]]],[[[-71.065396,42.34894],[-71.065374,42.348916],[-71.063919,42.348311],[-71.063873,42.348325],[-71.063892,42.348359],[-71.065346,42.348964],[-71.065374,42.348964],[-71.065396,42.34894]]],[[[-71.065379,42.34907],[-71.065349,42.349037],[-71.063635,42.348324],[-71.063597,42.348324],[-71.062926,42.348052],[-71.062812,42.348043],[-71.062822,42.34806],[-71.063597,42.34839],[-71.065311,42.349103],[-71.065349,42.349103],[-71.065379,42.34907]]],[[[-71.065368,42.35121],[-71.064421,42.350808],[-71.064397,42.350816],[-71.064407,42.350833],[-71.065343,42.351222],[-71.065368,42.35121]]],[[[-71.065268,42.35121],[-71.064386,42.350835],[-71.064362,42.350843],[-71.064372,42.35086],[-71.065243,42.351222],[-71.065268,42.35121]]],[[[-71.065176,42.35072],[-71.0639,42.350178],[-71.063866,42.350189],[-71.06388,42.350214],[-71.06514,42.350738],[-71.065176,42.35072]]],[[[-71.065151,42.350784],[-71.063875,42.350242],[-71.063841,42.350253],[-71.063855,42.350278],[-71.065115,42.350802],[-71.065151,42.350784]]],[[[-71.065129,42.350853],[-71.063987,42.35037],[-71.063962,42.350377],[-71.063972,42.350396],[-71.065103,42.350866],[-71.065129,42.350853]]],[[[-71.064944,42.35131],[-71.064063,42.350936],[-71.064081,42.350909],[-71.064227,42.350937],[-71.064227,42.350913],[-71.063387,42.350563],[-71.063398,42.35054],[-71.063289,42.350495],[-71.063287,42.350471],[-71.062286,42.350054],[-71.062263,42.350072],[-71.062441,42.350149],[-71.062442,42.350173],[-71.063347,42.35055],[-71.063331,42.350563],[-71.063271,42.350542],[-71.063262,42.350524],[-71.062261,42.350107],[-71.062238,42.350125],[-71.063243,42.350546],[-71.062421,42.350208],[-71.062397,42.350216],[-71.062172,42.350126],[-71.062148,42.350144],[-71.062391,42.350249],[-71.062379,42.35026],[-71.062152,42.350174],[-71.062128,42.350182],[-71.062138,42.350199],[-71.062203,42.350227],[-71.062212,42.350247],[-71.063343,42.350717],[-71.063368,42.35071],[-71.063919,42.35093],[-71.06397,42.350914],[-71.063983,42.350933],[-71.064919,42.351322],[-71.064944,42.35131]]],[[[-71.064857,42.348456],[-71.063975,42.348081],[-71.063951,42.348089],[-71.063961,42.348106],[-71.064832,42.348468],[-71.064857,42.348456]]],[[[-71.064624,42.351826],[-71.063742,42.351451],[-71.063718,42.351459],[-71.063728,42.351476],[-71.064599,42.351838],[-71.064624,42.351826]]],[[[-71.064168,42.34884],[-71.063092,42.348384],[-71.063069,42.348391],[-71.062684,42.34823],[-71.062654,42.34824],[-71.062666,42.348262],[-71.063861,42.348759],[-71.063891,42.348749],[-71.064143,42.348852],[-71.064168,42.34884]]],[[[-71.063915,42.348675],[-71.062773,42.348192],[-71.062748,42.348199],[-71.062758,42.348218],[-71.063889,42.348688],[-71.063915,42.348675]]],[[[-71.063879,42.34887],[-71.062737,42.348387],[-71.062712,42.348394],[-71.062722,42.348413],[-71.063853,42.348883],[-71.063879,42.34887]]],[[[-71.063873,42.348793],[-71.062991,42.348418],[-71.062967,42.348426],[-71.062977,42.348443],[-71.063848,42.348805],[-71.063873,42.348793]]],[[[-71.063821,42.349148],[-71.062939,42.348773],[-71.062915,42.348781],[-71.062925,42.348798],[-71.063796,42.34916],[-71.063821,42.349148]]],[[[-71.063768,42.349293],[-71.062886,42.348918],[-71.062862,42.348926],[-71.062872,42.348943],[-71.063743,42.349305],[-71.063768,42.349293]]],[[[-71.063755,42.349335],[-71.062873,42.34896],[-71.062849,42.348968],[-71.062859,42.348985],[-71.06373,42.349347],[-71.063755,42.349335]]],[[[-71.063707,42.350883],[-71.063687,42.350861],[-71.062298,42.350283],[-71.06204,42.350194],[-71.062,42.350214],[-71.062018,42.350234],[-71.062241,42.350327],[-71.0621,42.350283],[-71.062076,42.350309],[-71.061992,42.350282],[-71.061982,42.3503],[-71.061992,42.350308],[-71.063123,42.350778],[-71.063148,42.35076],[-71.06335,42.350844],[-71.063384,42.350833],[-71.06351,42.350882],[-71.06361,42.350883],[-71.063675,42.350907],[-71.063707,42.350883]]],[[[-71.063689,42.34976],[-71.062547,42.349277],[-71.062522,42.349284],[-71.062532,42.349303],[-71.063663,42.349773],[-71.063689,42.34976]]],[[[-71.063632,42.349854],[-71.062556,42.349398],[-71.062532,42.349406],[-71.062542,42.349423],[-71.063607,42.349866],[-71.063632,42.349854]]],[[[-71.063579,42.34995],[-71.062437,42.349467],[-71.062412,42.349474],[-71.062422,42.349493],[-71.063553,42.349963],[-71.063579,42.34995]]],[[[-71.063548,42.35],[-71.062472,42.349544],[-71.062448,42.349552],[-71.062458,42.349569],[-71.063523,42.350012],[-71.063548,42.35]]],[[[-71.063509,42.3548],[-71.063479,42.354767],[-71.061996,42.35415],[-71.061959,42.35415],[-71.061933,42.35417],[-71.061933,42.354197],[-71.061959,42.354217],[-71.063441,42.354833],[-71.063479,42.354833],[-71.063509,42.3548]]],[[[-71.063458,42.350418],[-71.062382,42.349962],[-71.062358,42.34997],[-71.062368,42.349987],[-71.063433,42.35043],[-71.063458,42.350418]]],[[[-71.063458,42.35018],[-71.062446,42.349751],[-71.062423,42.349759],[-71.062432,42.349776],[-71.063433,42.350192],[-71.063458,42.35018]]],[[[-71.063434,42.350487],[-71.062381,42.350038],[-71.062357,42.350046],[-71.062408,42.350083],[-71.063409,42.350499],[-71.063434,42.350487]]],[[[-71.063428,42.350246],[-71.062416,42.349817],[-71.062393,42.349825],[-71.062402,42.349842],[-71.063403,42.350258],[-71.063428,42.350246]]],[[[-71.063403,42.35028],[-71.062391,42.349851],[-71.062368,42.349859],[-71.062377,42.349876],[-71.063378,42.350292],[-71.063403,42.35028]]],[[[-71.062559,42.348354],[-71.062541,42.348334],[-71.061216,42.347783],[-71.061176,42.347803],[-71.061194,42.347823],[-71.062519,42.348374],[-71.062559,42.348354]]],[[[-71.062496,42.349373],[-71.062484,42.349351],[-71.062366,42.349294],[-71.061002,42.348727],[-71.061001,42.348701],[-71.061444,42.348883],[-71.061476,42.348883],[-71.061502,42.348854],[-71.061476,42.348825],[-71.061011,42.348632],[-71.061027,42.348618],[-71.061585,42.348849],[-71.061609,42.348842],[-71.061599,42.348825],[-71.061,42.348567],[-71.059221,42.347827],[-71.059181,42.347827],[-71.059153,42.347848],[-71.059164,42.347889],[-71.059845,42.348174],[-71.059837,42.348207],[-71.059127,42.347913],[-71.059085,42.347913],[-71.059055,42.347935],[-71.059055,42.347966],[-71.059085,42.347988],[-71.060725,42.34867],[-71.060854,42.348743],[-71.062438,42.349402],[-71.06247,42.349402],[-71.062496,42.349373]]],[[[-71.062463,42.348557],[-71.061592,42.348174],[-71.05946,42.347287],[-71.059413,42.347287],[-71.05938,42.347312],[-71.059393,42.347362],[-71.059716,42.347497],[-71.059691,42.34753],[-71.059725,42.347568],[-71.060872,42.348047],[-71.060868,42.348068],[-71.061745,42.348433],[-71.061769,42.348416],[-71.061588,42.348337],[-71.061629,42.348326],[-71.061641,42.348282],[-71.061789,42.348343],[-71.061838,42.348336],[-71.062431,42.348573],[-71.062463,42.348557]]],[[[-71.062409,42.348373],[-71.062385,42.348346],[-71.060866,42.347715],[-71.060815,42.34773],[-71.060815,42.347752],[-71.060836,42.347768],[-71.062355,42.3484],[-71.062385,42.3484],[-71.062409,42.348373]]],[[[-71.062006,42.349306],[-71.06093,42.348849],[-71.060939,42.348815],[-71.060916,42.348798],[-71.059332,42.348139],[-71.059277,42.348156],[-71.059277,42.34818],[-71.0593,42.348197],[-71.060242,42.348595],[-71.061981,42.349318],[-71.062006,42.349306]]],[[[-71.061951,42.349438],[-71.061069,42.349063],[-71.061045,42.349081],[-71.060006,42.348657],[-71.059966,42.348677],[-71.059984,42.348697],[-71.061309,42.349248],[-71.061341,42.349243],[-71.061413,42.349267],[-71.061437,42.34925],[-71.061926,42.34945],[-71.061951,42.349438]]],[[[-71.061941,42.349548],[-71.061911,42.349515],[-71.060428,42.348898],[-71.060375,42.348906],[-71.060364,42.348942],[-71.058635,42.348224],[-71.058581,42.348224],[-71.058542,42.348252],[-71.058542,42.348293],[-71.058581,42.348321],[-71.059933,42.348884],[-71.0599,42.348884],[-71.059874,42.348904],[-71.059884,42.348943],[-71.059746,42.348885],[-71.059722,42.348893],[-71.059732,42.34891],[-71.060603,42.349272],[-71.060627,42.349255],[-71.061698,42.349699],[-71.061751,42.349691],[-71.061766,42.349666],[-71.061751,42.349641],[-71.060777,42.349227],[-71.060803,42.349223],[-71.061343,42.349442],[-71.061367,42.349435],[-71.061357,42.349418],[-71.060836,42.349201],[-71.060842,42.349154],[-71.061873,42.349581],[-71.061911,42.349581],[-71.061941,42.349548]]],[[[-71.061928,42.34988],[-71.061046,42.349505],[-71.061022,42.349513],[-71.060732,42.349393],[-71.060718,42.349365],[-71.060596,42.349313],[-71.060607,42.349305],[-71.060597,42.349288],[-71.059726,42.348925],[-71.059702,42.348933],[-71.05922,42.34874],[-71.059183,42.34874],[-71.059157,42.34876],[-71.059167,42.348799],[-71.060311,42.349276],[-71.06029,42.349284],[-71.059676,42.349032],[-71.059652,42.34905],[-71.058951,42.34876],[-71.058913,42.34876],[-71.058887,42.348779],[-71.058887,42.348807],[-71.058913,42.348826],[-71.059576,42.349102],[-71.059577,42.349126],[-71.060513,42.349515],[-71.060537,42.349508],[-71.060646,42.349542],[-71.060691,42.34952],[-71.06068,42.349481],[-71.060538,42.34942],[-71.060553,42.349417],[-71.061236,42.34969],[-71.06126,42.349683],[-71.061873,42.349938],[-71.061897,42.349931],[-71.061887,42.349914],[-71.061016,42.349551],[-71.060992,42.349558],[-71.060668,42.349424],[-71.060715,42.349417],[-71.061903,42.349892],[-71.061928,42.34988]]],[[[-71.061892,42.35],[-71.06101,42.349625],[-71.060986,42.349633],[-71.060996,42.34965],[-71.061867,42.350012],[-71.061892,42.35]]],[[[-71.061868,42.350044],[-71.060986,42.349669],[-71.060962,42.349677],[-71.060972,42.349694],[-71.061843,42.350056],[-71.061868,42.350044]]],[[[-71.061838,42.35008],[-71.059612,42.349142],[-71.059557,42.349159],[-71.059557,42.349183],[-71.05958,42.3492],[-71.061164,42.349859],[-71.061217,42.349844],[-71.061813,42.350092],[-71.061838,42.35008]]],[[[-71.061824,42.350155],[-71.061007,42.349807],[-71.060983,42.349815],[-71.060993,42.349832],[-71.061799,42.350167],[-71.061824,42.350155]]],[[[-71.061798,42.3502],[-71.060916,42.349825],[-71.060892,42.349833],[-71.060902,42.34985],[-71.061773,42.350212],[-71.061798,42.3502]]],[[[-71.061789,42.350292],[-71.061765,42.350265],[-71.060109,42.349572],[-71.060117,42.349548],[-71.060101,42.349536],[-71.058776,42.348985],[-71.058744,42.34899],[-71.05874,42.349015],[-71.058714,42.349025],[-71.058699,42.349052],[-71.058609,42.349015],[-71.058562,42.349029],[-71.058582,42.349063],[-71.061703,42.350377],[-71.061752,42.35037],[-71.061765,42.350346],[-71.061752,42.350322],[-71.061789,42.350292]]],[[[-71.061692,42.348648],[-71.061666,42.348619],[-71.060082,42.34796],[-71.060027,42.347977],[-71.060027,42.348001],[-71.06005,42.348018],[-71.061634,42.348677],[-71.061666,42.348677],[-71.061692,42.348648]]],[[[-71.061608,42.3485],[-71.060726,42.348125],[-71.060702,42.348133],[-71.060712,42.34815],[-71.061583,42.348512],[-71.061608,42.3485]]],[[[-71.061565,42.34867],[-71.061537,42.348639],[-71.059888,42.347953],[-71.059854,42.347953],[-71.059829,42.347971],[-71.059829,42.347997],[-71.059854,42.348015],[-71.061503,42.348701],[-71.061537,42.348701],[-71.061565,42.34867]]],[[[-71.061493,42.35095],[-71.060284,42.350437],[-71.060254,42.350447],[-71.060266,42.350469],[-71.061461,42.350966],[-71.061493,42.35095]]],[[[-71.061418,42.351122],[-71.060536,42.350747],[-71.060512,42.350755],[-71.060522,42.350772],[-71.061393,42.351134],[-71.061418,42.351122]]],[[[-71.061397,42.35118],[-71.060515,42.350805],[-71.060491,42.350813],[-71.060501,42.35083],[-71.061372,42.351192],[-71.061397,42.35118]]],[[[-71.061371,42.35124],[-71.060489,42.350865],[-71.060465,42.350873],[-71.060475,42.35089],[-71.061346,42.351252],[-71.061371,42.35124]]],[[[-71.061352,42.351289],[-71.06047,42.350914],[-71.060446,42.350922],[-71.060456,42.350939],[-71.061327,42.351301],[-71.061352,42.351289]]],[[[-71.061238,42.354774],[-71.060356,42.354399],[-71.060332,42.354407],[-71.060342,42.354424],[-71.061213,42.354786],[-71.061238,42.354774]]],[[[-71.061188,42.354916],[-71.060306,42.354541],[-71.060282,42.354549],[-71.060292,42.354566],[-71.061163,42.354928],[-71.061188,42.354916]]],[[[-71.060609,42.34967],[-71.060594,42.349645],[-71.060503,42.349605],[-71.060493,42.349588],[-71.05863,42.348812],[-71.05858,42.348827],[-71.058588,42.348858],[-71.0588,42.348948],[-71.058801,42.348971],[-71.058827,42.34899],[-71.060541,42.349703],[-71.060579,42.349703],[-71.060609,42.34967]]],[[[-71.060598,42.35304],[-71.060457,42.352962],[-71.059521,42.352572],[-71.059497,42.35258],[-71.059507,42.352597],[-71.059696,42.352687],[-71.060573,42.353052],[-71.060598,42.35304]]],[[[-71.060508,42.353283],[-71.059561,42.352881],[-71.059537,42.352889],[-71.059547,42.352906],[-71.060483,42.353295],[-71.060508,42.353283]]],[[[-71.060419,42.353405],[-71.060413,42.35337],[-71.059536,42.353005],[-71.059513,42.353012],[-71.058875,42.352747],[-71.058833,42.352753],[-71.058536,42.352635],[-71.058512,42.352643],[-71.058522,42.35266],[-71.058846,42.3528],[-71.060365,42.353432],[-71.060395,42.353432],[-71.060419,42.353405]]],[[[-71.060388,42.349884],[-71.059441,42.349482],[-71.059417,42.34949],[-71.059427,42.349507],[-71.060363,42.349896],[-71.060388,42.349884]]],[[[-71.060358,42.353447],[-71.059476,42.353072],[-71.059452,42.35308],[-71.058212,42.352572],[-71.058157,42.352589],[-71.058166,42.352623],[-71.058371,42.352709],[-71.058369,42.352737],[-71.058393,42.352755],[-71.060043,42.353441],[-71.060092,42.353434],[-71.060105,42.35341],[-71.060092,42.353386],[-71.059819,42.353272],[-71.059819,42.353248],[-71.060333,42.353459],[-71.060358,42.353447]]],[[[-71.060318,42.350037],[-71.059436,42.349662],[-71.059412,42.34967],[-71.059422,42.349687],[-71.060293,42.350049],[-71.060318,42.350037]]],[[[-71.060314,42.35015],[-71.060285,42.350118],[-71.060297,42.35011],[-71.060287,42.350093],[-71.059416,42.34973],[-71.059392,42.349738],[-71.058801,42.3495],[-71.058764,42.3495],[-71.058738,42.34952],[-71.058738,42.349547],[-71.058764,42.349567],[-71.060246,42.350183],[-71.060284,42.350183],[-71.060314,42.35015]]],[[[-71.059972,42.351044],[-71.059946,42.351015],[-71.058362,42.350356],[-71.058307,42.350373],[-71.058307,42.350397],[-71.05833,42.350414],[-71.059914,42.351073],[-71.059946,42.351073],[-71.059972,42.351044]]],[[[-71.059901,42.351135],[-71.058625,42.350593],[-71.058591,42.350604],[-71.058605,42.350629],[-71.059865,42.351153],[-71.059901,42.351135]]],[[[-71.059669,42.354954],[-71.059573,42.354873],[-71.059472,42.35483],[-71.05948,42.354804],[-71.059431,42.354778],[-71.059378,42.354709],[-71.057923,42.354104],[-71.057876,42.354118],[-71.057884,42.354147],[-71.05798,42.354188],[-71.05798,42.354205],[-71.058029,42.354231],[-71.058037,42.354252],[-71.058138,42.354295],[-71.05813,42.354321],[-71.058177,42.354359],[-71.058304,42.354423],[-71.059629,42.354974],[-71.059669,42.354954]]],[[[-71.059649,42.35171],[-71.059619,42.351677],[-71.058216,42.351085],[-71.058118,42.351058],[-71.058083,42.351068],[-71.058069,42.351092],[-71.05779,42.350975],[-71.057756,42.350986],[-71.05777,42.351011],[-71.059518,42.351723],[-71.0596,42.351746],[-71.059634,42.351735],[-71.059649,42.35171]]],[[[-71.059562,42.3516],[-71.059542,42.351578],[-71.058153,42.351],[-71.05811,42.351013],[-71.058128,42.351044],[-71.059518,42.351622],[-71.059542,42.351622],[-71.059562,42.3516]]],[[[-71.059518,42.351097],[-71.058636,42.350722],[-71.058612,42.35073],[-71.058622,42.350747],[-71.059493,42.351109],[-71.059518,42.351097]]],[[[-71.059478,42.35117],[-71.058596,42.350795],[-71.058572,42.350803],[-71.058582,42.35082],[-71.059453,42.351182],[-71.059478,42.35117]]],[[[-71.059387,42.351704],[-71.058178,42.351191],[-71.058148,42.351201],[-71.05816,42.351223],[-71.059355,42.35172],[-71.059387,42.351704]]],[[[-71.059323,42.35178],[-71.058982,42.351629],[-71.059006,42.351604],[-71.058984,42.35158],[-71.057529,42.350975],[-71.057482,42.350989],[-71.057502,42.351023],[-71.058093,42.351269],[-71.057936,42.351217],[-71.057913,42.351225],[-71.057922,42.351242],[-71.058923,42.351658],[-71.058946,42.351652],[-71.059291,42.351796],[-71.059323,42.35178]]],[[[-71.059219,42.35129],[-71.059178,42.351252],[-71.059187,42.351235],[-71.059129,42.351197],[-71.056814,42.350243],[-71.056829,42.35024],[-71.056829,42.35022],[-71.055952,42.349855],[-71.055928,42.349873],[-71.056511,42.350119],[-71.055213,42.349585],[-71.05517,42.349598],[-71.055188,42.349629],[-71.056578,42.350207],[-71.05662,42.350194],[-71.056921,42.350318],[-71.056876,42.350302],[-71.056852,42.35031],[-71.056862,42.350327],[-71.057316,42.350516],[-71.057316,42.350534],[-71.057408,42.350573],[-71.057436,42.35061],[-71.057392,42.350619],[-71.057377,42.350644],[-71.057407,42.350677],[-71.059121,42.35139],[-71.059174,42.351382],[-71.059189,42.351357],[-71.05916,42.351325],[-71.059204,42.351315],[-71.059219,42.35129]]],[[[-71.059184,42.353294],[-71.058302,42.352919],[-71.058278,42.352927],[-71.058288,42.352944],[-71.059159,42.353306],[-71.059184,42.353294]]],[[[-71.059092,42.354385],[-71.058956,42.354298],[-71.058947,42.354277],[-71.057817,42.353807],[-71.057792,42.353825],[-71.058114,42.353963],[-71.057683,42.353785],[-71.05764,42.353798],[-71.057658,42.353829],[-71.059048,42.354407],[-71.059072,42.354407],[-71.059092,42.354385]]],[[[-71.059088,42.353287],[-71.058206,42.352912],[-71.058182,42.35292],[-71.058192,42.352937],[-71.059063,42.353299],[-71.059088,42.353287]]],[[[-71.058998,42.353283],[-71.058116,42.352908],[-71.058092,42.352916],[-71.058102,42.352933],[-71.058973,42.353295],[-71.058998,42.353283]]],[[[-71.058922,42.35169],[-71.058902,42.351668],[-71.057513,42.35109],[-71.05747,42.351103],[-71.057488,42.351134],[-71.058878,42.351712],[-71.058902,42.351712],[-71.058922,42.35169]]],[[[-71.058886,42.351738],[-71.058864,42.351714],[-71.057409,42.351109],[-71.057362,42.351123],[-71.057382,42.351157],[-71.058836,42.351762],[-71.058864,42.351762],[-71.058886,42.351738]]],[[[-71.058864,42.353268],[-71.057126,42.35253],[-71.057102,42.352538],[-71.057112,42.352555],[-71.058839,42.35328],[-71.058864,42.353268]]],[[[-71.058836,42.35178],[-71.058814,42.351756],[-71.057359,42.351151],[-71.057312,42.351165],[-71.057332,42.351199],[-71.058786,42.351804],[-71.058814,42.351804],[-71.058836,42.35178]]],[[[-71.058778,42.351826],[-71.057831,42.351424],[-71.057807,42.351432],[-71.057211,42.351187],[-71.057161,42.351202],[-71.057161,42.351224],[-71.057182,42.35124],[-71.058701,42.351872],[-71.058744,42.351865],[-71.058778,42.351826]]],[[[-71.058758,42.353268],[-71.057876,42.352893],[-71.057852,42.352901],[-71.057862,42.352918],[-71.058733,42.35328],[-71.058758,42.353268]]],[[[-71.058692,42.351906],[-71.058672,42.351884],[-71.057283,42.351306],[-71.05724,42.351319],[-71.057247,42.351345],[-71.057419,42.351417],[-71.057402,42.351433],[-71.057409,42.351445],[-71.058611,42.351946],[-71.058642,42.351926],[-71.058672,42.351928],[-71.058692,42.351906]]],[[[-71.058598,42.351967],[-71.057716,42.351592],[-71.057692,42.3516],[-71.056326,42.351035],[-71.056302,42.351043],[-71.055322,42.350641],[-71.055298,42.350649],[-71.05511,42.35058],[-71.055086,42.350588],[-71.055096,42.350605],[-71.056161,42.351048],[-71.056185,42.351041],[-71.056373,42.351109],[-71.056397,42.351102],[-71.056649,42.351201],[-71.056631,42.35123],[-71.056647,42.351259],[-71.056872,42.351354],[-71.056866,42.351381],[-71.056808,42.351357],[-71.056759,42.351364],[-71.056745,42.351388],[-71.056759,42.351412],[-71.057436,42.351695],[-71.057421,42.351698],[-71.057421,42.351717],[-71.058363,42.352109],[-71.058387,42.352092],[-71.05844,42.352108],[-71.058472,42.352098],[-71.058482,42.352061],[-71.058569,42.352026],[-71.058598,42.351967]]],[[[-71.058568,42.35253],[-71.058493,42.352491],[-71.058494,42.35247],[-71.057357,42.351997],[-71.057332,42.352015],[-71.057667,42.352158],[-71.057506,42.352095],[-71.057482,42.352103],[-71.056474,42.351684],[-71.05617,42.351597],[-71.056026,42.351539],[-71.055986,42.351559],[-71.056004,42.351579],[-71.057372,42.352138],[-71.057372,42.352162],[-71.058243,42.352524],[-71.058427,42.352533],[-71.058417,42.352516],[-71.057745,42.352236],[-71.058483,42.352536],[-71.058557,42.352542],[-71.058568,42.35253]],[[-71.057442,42.35216],[-71.057436,42.352158],[-71.05744,42.352158],[-71.057442,42.35216]]],[[[-71.058038,42.352665],[-71.057156,42.35229],[-71.057132,42.352298],[-71.057142,42.352315],[-71.058013,42.352677],[-71.058038,42.352665]]],[[[-71.058032,42.352768],[-71.05715,42.352393],[-71.057126,42.352401],[-71.057136,42.352418],[-71.058007,42.35278],[-71.058032,42.352768]]],[[[-71.057414,42.350403],[-71.055316,42.349523],[-71.055276,42.349543],[-71.055294,42.349563],[-71.056619,42.350114],[-71.056651,42.350109],[-71.057389,42.350415],[-71.057414,42.350403]]],[[[-71.057348,42.351707],[-71.056401,42.351305],[-71.056377,42.351313],[-71.056387,42.35133],[-71.057323,42.351719],[-71.057348,42.351707]]],[[[-71.057338,42.35175],[-71.056456,42.351375],[-71.056432,42.351383],[-71.056442,42.3514],[-71.057313,42.351762],[-71.057338,42.35175]]],[[[-71.057309,42.351897],[-71.056427,42.351522],[-71.056403,42.35153],[-71.056413,42.351547],[-71.057284,42.351909],[-71.057309,42.351897]]],[[[-71.057298,42.351955],[-71.056481,42.351607],[-71.056457,42.351615],[-71.056467,42.351632],[-71.057273,42.351967],[-71.057298,42.351955]]],[[[-71.057298,42.350925],[-71.056286,42.350496],[-71.056263,42.350504],[-71.056272,42.350521],[-71.057273,42.350937],[-71.057298,42.350925]]],[[[-71.057268,42.351063],[-71.056256,42.350634],[-71.056233,42.350642],[-71.056242,42.350659],[-71.057243,42.351075],[-71.057268,42.351063]]],[[[-71.057198,42.35055],[-71.056316,42.350175],[-71.056188,42.350166],[-71.056198,42.350183],[-71.057069,42.350545],[-71.057093,42.350538],[-71.057173,42.350562],[-71.057198,42.35055]]],[[[-71.057147,42.350632],[-71.056265,42.350257],[-71.056241,42.350265],[-71.056251,42.350282],[-71.057122,42.350644],[-71.057147,42.350632]]],[[[-71.057038,42.34984],[-71.055285,42.349102],[-71.055235,42.349117],[-71.055235,42.349139],[-71.055256,42.349155],[-71.055612,42.349303],[-71.05557,42.349316],[-71.05537,42.349238],[-71.05534,42.349253],[-71.055358,42.349284],[-71.056748,42.349862],[-71.05679,42.349849],[-71.05699,42.349927],[-71.05702,42.349912],[-71.057013,42.349886],[-71.056776,42.349787],[-71.056818,42.34978],[-71.057013,42.349852],[-71.057038,42.34984]]],[[[-71.056868,42.352028],[-71.055791,42.351572],[-71.054783,42.351166],[-71.054759,42.351174],[-71.054769,42.351191],[-71.056723,42.352006],[-71.056746,42.352],[-71.056843,42.35204],[-71.056868,42.352028]]],[[[-71.056798,42.350307],[-71.055916,42.349932],[-71.055892,42.34994],[-71.055902,42.349957],[-71.056773,42.350319],[-71.056798,42.350307]]],[[[-71.056774,42.349915],[-71.056744,42.349882],[-71.055261,42.349265],[-71.055224,42.349265],[-71.055198,42.349285],[-71.055198,42.349312],[-71.055224,42.349332],[-71.056706,42.349948],[-71.056744,42.349948],[-71.056774,42.349915]]],[[[-71.056729,42.350006],[-71.056699,42.349973],[-71.055216,42.349356],[-71.055179,42.349356],[-71.055153,42.349376],[-71.055153,42.349403],[-71.055179,42.349423],[-71.056661,42.350039],[-71.056699,42.350039],[-71.056729,42.350006]]],[[[-71.056643,42.350613],[-71.055567,42.350157],[-71.055543,42.350165],[-71.055553,42.350182],[-71.056618,42.350625],[-71.056643,42.350613]]],[[[-71.056626,42.353203],[-71.056472,42.353114],[-71.055183,42.352577],[-71.055154,42.352587],[-71.055166,42.352609],[-71.055317,42.352671],[-71.05533,42.352697],[-71.05659,42.353221],[-71.056626,42.353203]]],[[[-71.056608,42.35068],[-71.055532,42.350224],[-71.055508,42.350232],[-71.055518,42.350249],[-71.056583,42.350692],[-71.056608,42.35068]]],[[[-71.056559,42.350834],[-71.056529,42.350801],[-71.055046,42.350184],[-71.055009,42.350184],[-71.054983,42.350204],[-71.054983,42.350231],[-71.055009,42.350251],[-71.056491,42.350867],[-71.056529,42.350867],[-71.056559,42.350834]]],[[[-71.056468,42.35192],[-71.055391,42.351464],[-71.055368,42.351472],[-71.055378,42.351489],[-71.055547,42.35156],[-71.055557,42.351577],[-71.056363,42.351912],[-71.056443,42.351932],[-71.056468,42.35192]]],[[[-71.056428,42.35103],[-71.056225,42.350938],[-71.056221,42.350923],[-71.05515,42.350477],[-71.055126,42.350485],[-71.055136,42.350502],[-71.055522,42.350663],[-71.055526,42.350677],[-71.056403,42.351042],[-71.056428,42.35103]]],[[[-71.056364,42.351176],[-71.055482,42.350801],[-71.055458,42.350809],[-71.055468,42.350826],[-71.056339,42.351188],[-71.056364,42.351176]]],[[[-71.056338,42.35493],[-71.055261,42.354474],[-71.055238,42.354482],[-71.055247,42.354499],[-71.056313,42.354942],[-71.056338,42.35493]]],[[[-71.056328,42.354836],[-71.055251,42.35438],[-71.055228,42.354388],[-71.055237,42.354405],[-71.056303,42.354848],[-71.056328,42.354836]]],[[[-71.056309,42.35475],[-71.055167,42.354267],[-71.055142,42.354274],[-71.055152,42.354293],[-71.056283,42.354763],[-71.056309,42.35475]]],[[[-71.056306,42.35467],[-71.05503,42.354128],[-71.054996,42.354139],[-71.05501,42.354164],[-71.05627,42.354688],[-71.056306,42.35467]]],[[[-71.056258,42.351376],[-71.055311,42.350974],[-71.055287,42.350982],[-71.055297,42.350999],[-71.056233,42.351388],[-71.056258,42.351376]]],[[[-71.056256,42.350842],[-71.05518,42.350386],[-71.055156,42.350394],[-71.055166,42.350411],[-71.056231,42.350854],[-71.056256,42.350842]]],[[[-71.056239,42.351411],[-71.055292,42.351009],[-71.055268,42.351017],[-71.055278,42.351034],[-71.056214,42.351423],[-71.056239,42.351411]]],[[[-71.056208,42.35145],[-71.054901,42.350899],[-71.054877,42.350907],[-71.054887,42.350924],[-71.056183,42.351462],[-71.056208,42.35145]]],[[[-71.056148,42.351145],[-71.055072,42.350689],[-71.055048,42.350697],[-71.055058,42.350714],[-71.056123,42.351157],[-71.056148,42.351145]]],[[[-71.055953,42.351412],[-71.054877,42.350956],[-71.054853,42.350964],[-71.054863,42.350981],[-71.055928,42.351424],[-71.055953,42.351412]]],[[[-71.05592,42.351482],[-71.054844,42.351026],[-71.05482,42.351034],[-71.05483,42.351051],[-71.055895,42.351494],[-71.05592,42.351482]]],[[[-71.055888,42.351561],[-71.054812,42.351105],[-71.054788,42.351113],[-71.054798,42.35113],[-71.055863,42.351573],[-71.055888,42.351561]]],[[[-71.055869,42.352226],[-71.055839,42.352193],[-71.054356,42.351576],[-71.054303,42.351584],[-71.054293,42.351623],[-71.054259,42.351646],[-71.054259,42.351673],[-71.054285,42.351693],[-71.055767,42.352309],[-71.05582,42.352301],[-71.055831,42.352262],[-71.055869,42.352226]]],[[[-71.055808,42.351727],[-71.054731,42.351271],[-71.054708,42.351279],[-71.054718,42.351296],[-71.055783,42.351739],[-71.055808,42.351727]]],[[[-71.055788,42.353336],[-71.055768,42.353314],[-71.054379,42.352736],[-71.054336,42.352749],[-71.054354,42.35278],[-71.055744,42.353358],[-71.055768,42.353358],[-71.055788,42.353336]]],[[[-71.055788,42.351776],[-71.054711,42.35132],[-71.054688,42.351328],[-71.054698,42.351345],[-71.055763,42.351788],[-71.055788,42.351776]]],[[[-71.055724,42.353394],[-71.055706,42.353374],[-71.054381,42.352823],[-71.054341,42.352843],[-71.054359,42.352863],[-71.055684,42.353414],[-71.055724,42.353394]]],[[[-71.055645,42.35343],[-71.054503,42.352947],[-71.054478,42.352954],[-71.054488,42.352973],[-71.055619,42.353443],[-71.055645,42.35343]]],[[[-71.055558,42.353497],[-71.054481,42.353041],[-71.054458,42.353049],[-71.054467,42.353066],[-71.055533,42.353509],[-71.055558,42.353497]]],[[[-71.055498,42.35353],[-71.054551,42.353128],[-71.054527,42.353136],[-71.054537,42.353153],[-71.055473,42.353542],[-71.055498,42.35353]]],[[[-71.055262,42.353653],[-71.05438,42.353278],[-71.054356,42.353286],[-71.053896,42.353101],[-71.053856,42.353121],[-71.053874,42.353141],[-71.055199,42.353692],[-71.055231,42.353687],[-71.055262,42.353653]]],[[[-71.055193,42.3537],[-71.053983,42.353187],[-71.053954,42.353197],[-71.053966,42.353219],[-71.055161,42.353716],[-71.055193,42.3537]]]]},"properties":{"kind":"tree"}}]}