{"type":"FeatureCollection","features":[{"type":"Feature","geometry":{"type":"Polygon","coordinates":[[[-71.073112,42.351943],[-71.073089,42.351809],[-71.072829,42.351223],[-71.06888,42.351147],[-71.068469,42.351077],[-71.071858,42.351142],[-71.072073,42.351112],[-71.072041,42.350783],[-71.070983,42.350763],[-71.070946,42.350745],[-71.071626,42.350754],[-71.07178,42.350706],[-71.072032,42.350698],[-71.072014,42.350478],[-71.071666,42.350472],[-71.071555,42.350444],[-71.071065,42.350435],[-71.071083,42.350365],[-71.070996,42.350335],[-71.071796,42.35035],[-71.071998,42.350336],[-71.071963,42.350007],[-71.071858,42.349886],[-71.071749,42.349884],[-71.071763,42.349818],[-71.071986,42.349822],[-71.072063,42.349798],[-71.072074,42.349761],[-71.072025,42.349599],[-71.071702,42.349562],[-71.069781,42.349525],[-71.069753,42.349477],[-71.069778,42.349459],[-71.069805,42.34939],[-71.070735,42.349408],[-71.070901,42.349323],[-71.071002,42.349325],[-71.071264,42.349202],[-71.071036,42.348937],[-71.07098,42.348924],[-71.069935,42.348904],[-71.069989,42.348717],[-71.072537,42.348766],[-71.072565,42.348646],[-71.071992,42.348579],[-71.072077,42.348181],[-71.071919,42.348161],[-71.070518,42.348134],[-71.070812,42.34799],[-71.070978,42.347873],[-71.070979,42.347786],[-71.070917,42.347752],[-71.070554,42.347696],[-71.064894,42.347587],[-71.064743,42.347663],[-71.062648,42.347622],[-71.06199,42.347379],[-71.055908,42.347262],[-71.054533,42.349309],[-71.054522,42.349411],[-71.054447,42.34941],[-71.053477,42.350853],[-71.054337,42.351171],[-71.056418,42.351211],[-71.056401,42.351249],[-71.056619,42.351337],[-71.056294,42.351331],[-71.05618,42.351558],[-71.055498,42.351545],[-71.054479,42.351779],[-71.054307,42.351954],[-71.054833,42.352232],[-71.054993,42.352283],[-71.055161,42.352308],[-71.055848,42.352321],[-71.055909,42.352342],[-71.055876,42.352367],[-71.056034,42.352612],[-71.056061,42.352617],[-71.056195,42.35262],[-71.056276,42.352641],[-71.058045,42.352675],[-71.058035,42.35274],[-71.057668,42.352733],[-71.057532,42.352761],[-71.05731,42.352888],[-71.057145,42.352955],[-71.0571,42.353025],[-71.057106,42.353073],[-71.057135,42.353113],[-71.056237,42.353097],[-71.055998,42.353225],[-71.056017,42.353296],[-71.055897,42.353294],[-71.055573,42.353469],[-71.0556,42.353497],[-71.055407,42.353604],[-71.055342,42.353603],[-71.054915,42.353838],[-71.054979,42.353902],[-71.054776,42.353908],[-71.054378,42.354122],[-71.054355,42.354162],[-71.054364,42.354206],[-71.054619,42.354471],[-71.054669,42.354485],[-71.054942,42.35449],[-71.054775,42.354643],[-71.05498,42.354839],[-71.055575,42.35485],[-71.055688,42.355479],[-71.061886,42.355601],[-71.062341,42.355557],[-71.062447,42.355529],[-71.062429,42.35543],[-71.06554,42.355487],[-71.065738,42.355317],[-71.067456,42.35535],[-71.067493,42.355309],[-71.069201,42.355339],[-71.06926,42.355262],[-71.069072,42.355166],[-71.069338,42.355161],[-71.069935,42.35406],[-71.069945,42.354013],[-71.069725,42.353946],[-71.069975,42.35395],[-71.070081,42.353751],[-71.069851,42.353681],[-71.069725,42.353679],[-71.069734,42.353664],[-71.070078,42.35367],[-71.070123,42.353541],[-71.069863,42.353491],[-71.06976,42.353489],[-71.069734,42.353469],[-71.068486,42.353436],[-71.068496,42.35338],[-71.070229,42.353413],[-71.070392,42.352957],[-71.069919,42.352935],[-71.06992,42.35292],[-71.070392,42.352929],[-71.070436,42.352761],[-71.070456,42.352552],[-71.070422,42.352526],[-71.069788,42.352501],[-71.068462,42.352476],[-71.068564,42.352467],[-71.068587,42.352441],[-71.072146,42.352509],[-71.072162,42.352287],[-71.072004,42.352281],[-71.072014,42.352211],[-71.071982,42.352208],[-71.072011,42.351971],[-71.072929,42.351988],[-71.073112,42.351943]],[[-71.063388,42.348107],[-71.063385,42.348121],[-71.062667,42.348107],[-71.062658,42.348129],[-71.062494,42.348126],[-71.062518,42.34809],[-71.063388,42.348107]]]},"properties":{"kind":"building"}},{"type":"Feature","geometry":{"type":"MultiPolygon","coordinates":[[[[-71.072141,42.353568],[-71.07213,42.353527],[-71.072051,42.353469],[-71.071485,42.353451],[-71.071489,42.353403],[-71.071602,42.353398],[-71.071662,42.353354],[-71.071662,42.353291],[-71.071619,42.353255],[-71.071657,42.353239],[-71.071979,42.353245],[-71.072064,42.353219],[-71.072099,42.353156],[-71.072078,42.353109],[-71.072121,42.353073],[-71.07213,42.35304],[-71.072103,42.352949],[-71.072072,42.352914],[-71.071969,42.352882],[-71.070883,42.352862],[-71.070842,42.352829],[-71.07111,42.352834],[-71.071174,42.352814],[-71.071198,42.352776],[-71.071483,42.352775],[-71.071517,42.352759],[-71.071547,42.352704],[-71.071517,42.35265],[-71.071444,42.352628],[-71.065012,42.352509],[-71.064943,42.35253],[-71.064915,42.352581],[-71.064943,42.352632],[-71.064975,42.352647],[-71.065485,42.352666],[-71.06551,42.352708],[-71.065539,42.352722],[-71.065661,42.352729],[-71.065627,42.352751],[-71.065124,42.352745],[-71.065088,42.352785],[-71.065105,42.352816],[-71.065081,42.352852],[-71.065094,42.352876],[-71.065047,42.352891],[-71.065027,42.352928],[-71.064745,42.352926],[-71.06466,42.352952],[-71.064625,42.353015],[-71.064656,42.353073],[-71.064658,42.353148],[-71.064757,42.353231],[-71.062744,42.353193],[-71.062725,42.353207],[-71.06281,42.353228],[-71.064586,42.353263],[-71.06392,42.353251],[-71.063897,42.353268],[-71.06392,42.353285],[-71.064052,42.353298],[-71.064057,42.35331],[-71.05978,42.353229],[-71.05975,42.353238],[-71.059741,42.353272],[-71.059351,42.353264],[-71.059352,42.353248],[-71.059328,42.353236],[-71.0566,42.353184],[-71.056576,42.353196],[-71.0566,42.353222],[-71.058723,42.353263],[-71.058733,42.35328],[-71.059166,42.353307],[-71.061153,42.353348],[-71.06097,42.35335],[-71.060952,42.353363],[-71.06097,42.353376],[-71.061217,42.353381],[-71.0604,42.353367],[-71.060365,42.353378],[-71.06006,42.353376],[-71.060028,42.353386],[-71.060015,42.35341],[-71.060043,42.353441],[-71.060322,42.353449],[-71.060333,42.353459],[-71.06363,42.353512],[-71.063706,42.35348],[-71.063706,42.353457],[-71.06367,42.35344],[-71.062293,42.353404],[-71.063112,42.35342],[-71.063124,42.353397],[-71.063064,42.353392],[-71.063072,42.353375],[-71.063018,42.353366],[-71.063024,42.353356],[-71.06321,42.353357],[-71.063249,42.353338],[-71.06456,42.353358],[-71.064574,42.353373],[-71.06391,42.353361],[-71.063892,42.353374],[-71.063958,42.353399],[-71.06403,42.353404],[-71.065067,42.353424],[-71.064919,42.353429],[-71.06488,42.353458],[-71.064592,42.353467],[-71.064538,42.353508],[-71.06453,42.353536],[-71.064538,42.353564],[-71.064573,42.353595],[-71.064418,42.353592],[-71.064358,42.353622],[-71.06171,42.353571],[-71.061676,42.353582],[-71.061661,42.353607],[-71.061691,42.35364],[-71.061791,42.353645],[-71.061799,42.353666],[-71.064253,42.353715],[-71.064324,42.353693],[-71.064324,42.353728],[-71.061905,42.353686],[-71.061886,42.3537],[-71.061905,42.353714],[-71.063964,42.353754],[-71.063973,42.353772],[-71.06428,42.353779],[-71.061729,42.353725],[-71.061711,42.353738],[-71.061729,42.353751],[-71.062013,42.353765],[-71.064363,42.353818],[-71.064304,42.353823],[-71.064259,42.353856],[-71.06189,42.353811],[-71.061871,42.353825],[-71.06189,42.353839],[-71.064253,42.353885],[-71.064238,42.353945],[-71.06389,42.353943],[-71.06386,42.353958],[-71.06386,42.353976],[-71.06389,42.353991],[-71.06455,42.354009],[-71.064602,42.354029],[-71.064264,42.354028],[-71.06422,42.35406],[-71.06422,42.354106],[-71.06378,42.354102],[-71.063766,42.354127],[-71.06379,42.354139],[-71.064114,42.354145],[-71.064109,42.354193],[-71.064148,42.354222],[-71.064088,42.354236],[-71.064069,42.35427],[-71.064088,42.354304],[-71.064127,42.354317],[-71.064143,42.354341],[-71.064036,42.354339],[-71.063979,42.354357],[-71.063955,42.354399],[-71.063968,42.35443],[-71.063903,42.354482],[-71.063892,42.354523],[-71.063903,42.354564],[-71.063982,42.354623],[-71.064264,42.354635],[-71.064268,42.35465],[-71.063878,42.354645],[-71.063818,42.354663],[-71.063501,42.354667],[-71.063471,42.3547],[-71.063501,42.354733],[-71.063771,42.354741],[-71.063752,42.35477],[-71.063441,42.354767],[-71.063411,42.3548],[-71.063426,42.354825],[-71.06346,42.354836],[-71.065258,42.354871],[-71.065309,42.354886],[-71.065456,42.354889],[-71.065504,42.354923],[-71.064767,42.354915],[-71.064711,42.354957],[-71.064711,42.355015],[-71.064767,42.355057],[-71.064807,42.355063],[-71.07089,42.35518],[-71.070929,42.355174],[-71.070986,42.355133],[-71.070986,42.355074],[-71.07094,42.355038],[-71.07169,42.355045],[-71.07173,42.355025],[-71.071766,42.35496],[-71.071757,42.354926],[-71.07169,42.354876],[-71.070427,42.354846],[-71.070506,42.354815],[-71.070525,42.354794],[-71.070532,42.354768],[-71.070506,42.35472],[-71.070441,42.354701],[-71.070242,42.354697],[-71.070264,42.354651],[-71.071818,42.354681],[-71.071867,42.354674],[-71.071938,42.354622],[-71.071938,42.354549],[-71.071867,42.354497],[-71.070463,42.354463],[-71.070493,42.354401],[-71.070482,42.35436],[-71.070423,42.354312],[-71.070609,42.354316],[-71.070684,42.354292],[-71.070716,42.354236],[-71.070684,42.35418],[-71.070609,42.354157],[-71.069645,42.354139],[-71.069635,42.354128],[-71.07001,42.354135],[-71.070072,42.354116],[-71.070097,42.35407],[-71.070091,42.354045],[-71.070043,42.35401],[-71.069759,42.353995],[-71.069747,42.353931],[-71.069901,42.353927],[-71.06995,42.353912],[-71.069969,42.353877],[-71.069927,42.35383],[-71.069754,42.353824],[-71.069699,42.353793],[-71.068856,42.353776],[-71.06976,42.353793],[-71.069817,42.353765],[-71.069817,42.35373],[-71.069794,42.35371],[-71.071531,42.353733],[-71.071587,42.353725],[-71.071663,42.35367],[-71.072051,42.353668],[-71.072098,42.353645],[-71.07213,42.35361],[-71.072141,42.353568]]],[[[-71.070242,42.348123],[-71.070223,42.348089],[-71.070178,42.348075],[-71.065765,42.34799],[-71.065719,42.348004],[-71.0657,42.348038],[-71.065719,42.348072],[-71.065765,42.348086],[-71.070178,42.348171],[-71.070223,42.348157],[-71.070242,42.348123]]],[[[-71.06987,42.348526],[-71.069853,42.348495],[-71.069812,42.348483],[-71.065612,42.348407],[-71.065632,42.34839],[-71.065634,42.348364],[-71.069786,42.348441],[-71.069824,42.348398],[-71.069806,42.348366],[-71.069762,42.348353],[-71.065706,42.348275],[-71.065739,42.34825],[-71.065741,42.348221],[-71.069726,42.348298],[-71.069765,42.348286],[-71.069781,42.348257],[-71.069765,42.348228],[-71.069726,42.348216],[-71.065735,42.348139],[-71.065696,42.348151],[-71.06568,42.34818],[-71.06141,42.348104],[-71.061366,42.348118],[-71.061348,42.34815],[-71.061366,42.348182],[-71.06141,42.348196],[-71.065466,42.348274],[-71.065433,42.348299],[-71.065432,42.34833],[-71.06446,42.348312],[-71.064452,42.348289],[-71.064429,42.348282],[-71.06142,42.348224],[-71.06139,42.348239],[-71.061408,42.34827],[-71.061545,42.348274],[-71.061539,42.348313],[-71.061569,42.348335],[-71.06234,42.348356],[-71.062334,42.348384],[-71.06237,42.348402],[-71.06568,42.348489],[-71.069812,42.348569],[-71.069853,42.348556],[-71.06987,42.348526]]],[[[-71.069089,42.349142],[-71.069075,42.349116],[-71.069041,42.349106],[-71.06533,42.349034],[-71.065296,42.349045],[-71.065281,42.34907],[-71.065296,42.349095],[-71.06533,42.349106],[-71.069041,42.349178],[-71.069075,42.349167],[-71.069089,42.349142]]],[[[-71.068768,42.349298],[-71.068754,42.349273],[-71.068719,42.349262],[-71.060776,42.349121],[-71.060725,42.349137],[-71.060705,42.349174],[-71.060749,42.349223],[-71.061293,42.349237],[-71.061405,42.349262],[-71.06061,42.349247],[-71.060597,42.34927],[-71.061972,42.3493],[-71.061971,42.349311],[-71.06059,42.349287],[-71.060577,42.34931],[-71.06242,42.349356],[-71.06057,42.349329],[-71.060557,42.349352],[-71.060664,42.349357],[-71.060635,42.34939],[-71.06054,42.349394],[-71.060522,42.349407],[-71.06054,42.34942],[-71.06135,42.349443],[-71.063818,42.349488],[-71.063912,42.349485],[-71.063938,42.349466],[-71.063938,42.349438],[-71.065884,42.34947],[-71.065923,42.349451],[-71.065914,42.349417],[-71.065814,42.349407],[-71.065819,42.349377],[-71.06578,42.349358],[-71.062513,42.349295],[-71.063586,42.34931],[-71.063604,42.349297],[-71.063733,42.349296],[-71.065635,42.349343],[-71.065648,42.34932],[-71.065497,42.349313],[-71.065539,42.349273],[-71.068719,42.349334],[-71.068754,42.349323],[-71.068768,42.349298]]],[[[-71.068642,42.348852],[-71.068628,42.348827],[-71.068593,42.348816],[-71.06679,42.348781],[-71.066789,42.348758],[-71.066773,42.348753],[-71.065128,42.348721],[-71.065122,42.348713],[-71.066343,42.348737],[-71.066362,42.348722],[-71.066343,42.348708],[-71.064882,42.348679],[-71.064868,42.348649],[-71.064831,42.348638],[-71.06098,42.348564],[-71.060943,42.348575],[-71.060928,42.348602],[-71.06096,42.348637],[-71.061484,42.34865],[-71.061478,42.348683],[-71.06095,42.348676],[-71.060911,42.348688],[-71.060895,42.348717],[-71.060911,42.348746],[-71.06095,42.348758],[-71.064941,42.348835],[-71.068593,42.348888],[-71.068628,42.348877],[-71.068642,42.348852]],[[-71.065343,42.348808],[-71.064994,42.348802],[-71.064993,42.348781],[-71.065336,42.348788],[-71.065343,42.348808]]],[[[-71.068545,42.349001],[-71.068509,42.348974],[-71.06536,42.348914],[-71.065324,42.34894],[-71.06536,42.348966],[-71.068509,42.349027],[-71.068545,42.349001]]],[[[-71.067904,42.350773],[-71.067878,42.350753],[-71.06515,42.350701],[-71.065125,42.350724],[-71.064938,42.35072],[-71.064925,42.350697],[-71.06318,42.350664],[-71.063167,42.350687],[-71.063337,42.350694],[-71.063336,42.350714],[-71.06316,42.350714],[-71.063147,42.350737],[-71.063349,42.350744],[-71.06313,42.350751],[-71.063111,42.350765],[-71.06313,42.350779],[-71.063354,42.350787],[-71.066222,42.350842],[-71.06625,42.350825],[-71.067853,42.350856],[-71.067877,42.350844],[-71.067853,42.350817],[-71.065339,42.350759],[-71.065797,42.350766],[-71.065816,42.350752],[-71.067878,42.350792],[-71.067904,42.350773]]],[[[-71.067755,42.351265],[-71.067736,42.351251],[-71.067383,42.351237],[-71.06535,42.351197],[-71.06525,42.351197],[-71.065232,42.35121],[-71.06525,42.351223],[-71.065563,42.351235],[-71.067736,42.351278],[-71.067755,42.351265]]],[[[-71.067577,42.3509],[-71.067557,42.350886],[-71.06511,42.350839],[-71.06336,42.350807],[-71.063336,42.350819],[-71.06335,42.350844],[-71.063507,42.350848],[-71.063496,42.350871],[-71.06351,42.350882],[-71.063675,42.350907],[-71.063897,42.350911],[-71.063919,42.35093],[-71.06405,42.350938],[-71.067059,42.350996],[-71.067223,42.350995],[-71.067262,42.350966],[-71.067223,42.350938],[-71.066101,42.350895],[-71.067557,42.350915],[-71.067577,42.3509]]],[[[-71.067434,42.348146],[-71.067415,42.348133],[-71.06553,42.348097],[-71.065512,42.34811],[-71.06553,42.348123],[-71.067415,42.34816],[-71.067434,42.348146]]],[[[-71.067012,42.352151],[-71.066992,42.352137],[-71.064545,42.35209],[-71.064526,42.352104],[-71.064545,42.352118],[-71.066992,42.352166],[-71.067012,42.352151]]],[[[-71.06697,42.351349],[-71.066952,42.351336],[-71.064926,42.351297],[-71.064908,42.35131],[-71.064926,42.351323],[-71.066952,42.351363],[-71.06697,42.351349]]],[[[-71.066594,42.352094],[-71.066576,42.352081],[-71.06455,42.352042],[-71.064532,42.352055],[-71.06455,42.352068],[-71.066576,42.352108],[-71.066594,42.352094]]],[[[-71.06651,42.351862],[-71.066491,42.351849],[-71.064606,42.351813],[-71.064588,42.351826],[-71.064606,42.351839],[-71.066491,42.351876],[-71.06651,42.351862]]],[[[-71.066475,42.348885],[-71.066457,42.348871],[-71.06415,42.348827],[-71.064132,42.34884],[-71.06415,42.348853],[-71.066457,42.348898],[-71.066475,42.348885]]],[[[-71.066434,42.352196],[-71.066415,42.352183],[-71.06453,42.352147],[-71.064512,42.35216],[-71.06453,42.352173],[-71.066415,42.35221],[-71.066434,42.352196]]],[[[-71.066326,42.348917],[-71.066307,42.348903],[-71.0609,42.348796],[-71.06087,42.348805],[-71.060858,42.348827],[-71.06087,42.348849],[-71.0609,42.348858],[-71.061423,42.348868],[-71.06146,42.348885],[-71.06489,42.348951],[-71.06492,42.348942],[-71.064929,42.348908],[-71.066307,42.348932],[-71.066326,42.348917]]],[[[-71.066136,42.349807],[-71.066117,42.349793],[-71.064313,42.349758],[-71.064945,42.349761],[-71.064975,42.349728],[-71.064961,42.349703],[-71.064926,42.349692],[-71.062389,42.349638],[-71.062371,42.349623],[-71.060486,42.349587],[-71.060468,42.3496],[-71.060486,42.349613],[-71.061246,42.349628],[-71.061251,42.34964],[-71.06005,42.349618],[-71.060014,42.349644],[-71.06005,42.34967],[-71.060514,42.349679],[-71.06056,42.349706],[-71.066117,42.349822],[-71.066136,42.349807]]],[[[-71.066026,42.349997],[-71.066007,42.349983],[-71.062414,42.349923],[-71.062396,42.34991],[-71.06037,42.349871],[-71.060352,42.349884],[-71.06037,42.349897],[-71.061862,42.349926],[-71.06188,42.349939],[-71.066007,42.350012],[-71.066026,42.349997]]],[[[-71.065939,42.349899],[-71.065921,42.349885],[-71.06443,42.349856],[-71.064381,42.349828],[-71.06053,42.349754],[-71.060493,42.349765],[-71.060478,42.349792],[-71.060493,42.349819],[-71.06053,42.34983],[-71.061893,42.349875],[-71.061903,42.349892],[-71.063795,42.34993],[-71.063814,42.349916],[-71.06461,42.349927],[-71.06464,42.349918],[-71.064652,42.349896],[-71.065921,42.349912],[-71.065939,42.349899]]],[[[-71.065855,42.350045],[-71.065837,42.350031],[-71.06353,42.349987],[-71.063512,42.35],[-71.06353,42.350013],[-71.065837,42.350058],[-71.065855,42.350045]]],[[[-71.065765,42.350463],[-71.065747,42.350449],[-71.065318,42.350441],[-71.065336,42.350415],[-71.065308,42.350384],[-71.065065,42.350377],[-71.065075,42.350344],[-71.065039,42.350327],[-71.06175,42.350263],[-71.061722,42.350272],[-71.061711,42.350292],[-71.061722,42.350312],[-71.061688,42.350322],[-71.061675,42.350346],[-71.061688,42.35037],[-71.06172,42.35038],[-71.063424,42.350412],[-71.063423,42.350423],[-71.063297,42.35043],[-71.06331,42.350453],[-71.065336,42.350493],[-71.065349,42.35047],[-71.065747,42.350476],[-71.065765,42.350463]]],[[[-71.065707,42.349184],[-71.065688,42.349171],[-71.063803,42.349135],[-71.063785,42.349148],[-71.063803,42.349161],[-71.065688,42.349198],[-71.065707,42.349184]]],[[[-71.065624,42.350222],[-71.065606,42.350208],[-71.06218,42.350149],[-71.062172,42.350129],[-71.06028,42.350092],[-71.060216,42.35015],[-71.060231,42.350175],[-71.060265,42.350186],[-71.065576,42.350301],[-71.065594,42.350288],[-71.065576,42.350274],[-71.063683,42.350238],[-71.063665,42.350223],[-71.063521,42.35022],[-71.06352,42.350202],[-71.065606,42.350235],[-71.065624,42.350222]]],[[[-71.0656,42.350529],[-71.065582,42.350515],[-71.06328,42.35047],[-71.063262,42.350483],[-71.06328,42.350496],[-71.065582,42.350542],[-71.0656,42.350529]]],[[[-71.065569,42.350322],[-71.065551,42.350308],[-71.063385,42.350267],[-71.063367,42.35028],[-71.063385,42.350293],[-71.065551,42.350335],[-71.065569,42.350322]]],[[[-71.065555,42.350627],[-71.065537,42.350613],[-71.06323,42.350569],[-71.063217,42.350592],[-71.063343,42.350598],[-71.063333,42.350615],[-71.06321,42.350617],[-71.063192,42.35063],[-71.06321,42.350643],[-71.065517,42.350688],[-71.06553,42.350665],[-71.065389,42.350659],[-71.065389,42.35064],[-71.065537,42.35064],[-71.065555,42.350627]]],[[[-71.065439,42.350578],[-71.065421,42.350564],[-71.063255,42.350523],[-71.063237,42.350536],[-71.063378,42.350562],[-71.065411,42.350603],[-71.065439,42.350578]]],[[[-71.06517,42.352277],[-71.06507,42.352248],[-71.064856,42.352241],[-71.06283,42.352202],[-71.062812,42.352215],[-71.06283,42.352228],[-71.063064,42.352237],[-71.062952,42.352243],[-71.062965,42.352266],[-71.064991,42.352306],[-71.065091,42.352303],[-71.06517,42.352277]]],[[[-71.06515,42.34961],[-71.065136,42.349585],[-71.065101,42.349574],[-71.063461,42.349524],[-71.063424,42.349505],[-71.06053,42.34944],[-71.060135,42.349441],[-71.060096,42.34947],[-71.060135,42.349499],[-71.060503,42.349506],[-71.060601,42.349518],[-71.060646,42.349542],[-71.061363,42.349556],[-71.06009,42.349534],[-71.060061,42.349556],[-71.06009,42.349578],[-71.064708,42.349666],[-71.064753,42.349644],[-71.065101,42.349646],[-71.065136,42.349635],[-71.06515,42.34961]]],[[[-71.06505,42.348607],[-71.065027,42.34859],[-71.06244,42.34854],[-71.062417,42.348557],[-71.06244,42.348574],[-71.065027,42.348624],[-71.06505,42.348607]]],[[[-71.065007,42.350104],[-71.064992,42.350077],[-71.064955,42.350066],[-71.063775,42.350043],[-71.063766,42.350024],[-71.061874,42.349987],[-71.061856,42.35],[-71.061104,42.349992],[-71.061067,42.350003],[-71.061052,42.35003],[-71.0603,42.350024],[-71.060282,42.350037],[-71.0603,42.35005],[-71.061802,42.350082],[-71.061813,42.350092],[-71.063705,42.35013],[-71.064955,42.350143],[-71.064992,42.350131],[-71.065007,42.350104]]],[[[-71.06408,42.351],[-71.064057,42.350983],[-71.06147,42.350933],[-71.061447,42.35095],[-71.06147,42.350967],[-71.064057,42.351017],[-71.06408,42.351]]],[[[-71.063874,42.353896],[-71.063856,42.353883],[-71.06197,42.353847],[-71.061952,42.35386],[-71.06197,42.353873],[-71.063856,42.35391],[-71.063874,42.353896]]],[[[-71.063846,42.349099],[-71.063827,42.349085],[-71.06138,42.349038],[-71.061361,42.349052],[-71.06138,42.349066],[-71.063827,42.349114],[-71.063846,42.349099]]],[[[-71.063795,42.353592],[-71.063776,42.353578],[-71.06161,42.353537],[-71.061592,42.35355],[-71.06161,42.353563],[-71.063776,42.353605],[-71.063795,42.353592]]],[[[-71.063714,42.353819],[-71.063696,42.353806],[-71.06181,42.35377],[-71.061792,42.353783],[-71.06181,42.353796],[-71.063696,42.353833],[-71.063714,42.353819]]],[[[-71.063656,42.348457],[-71.063637,42.348444],[-71.061752,42.348408],[-71.061734,42.348421],[-71.061752,42.348434],[-71.063637,42.348471],[-71.063656,42.348457]]],[[[-71.063494,42.348536],[-71.063475,42.348523],[-71.06159,42.348487],[-71.06102,42.348477],[-71.061002,42.34849],[-71.06102,42.348503],[-71.062905,42.34854],[-71.063475,42.34855],[-71.063494,42.348536]]],[[[-71.063402,42.35111],[-71.06339,42.351088],[-71.06336,42.351079],[-71.05993,42.351013],[-71.0599,42.351022],[-71.059888,42.351044],[-71.0599,42.351066],[-71.05993,42.351075],[-71.06336,42.351141],[-71.06339,42.351132],[-71.063402,42.35111]]],[[[-71.063304,42.351158],[-71.063285,42.351145],[-71.0614,42.351109],[-71.0595,42.351084],[-71.059482,42.351097],[-71.0595,42.35111],[-71.059865,42.351118],[-71.059851,42.351142],[-71.059875,42.351154],[-71.063264,42.35123],[-71.063283,42.351216],[-71.063264,42.351203],[-71.062628,42.351191],[-71.062603,42.351168],[-71.061394,42.351145],[-71.063285,42.351172],[-71.063304,42.351158]]],[[[-71.063257,42.351276],[-71.063238,42.351263],[-71.05911,42.351194],[-71.059076,42.351205],[-71.059061,42.35123],[-71.059076,42.351255],[-71.059134,42.351266],[-71.059121,42.35129],[-71.059147,42.351321],[-71.059106,42.351332],[-71.059091,42.351357],[-71.059106,42.351382],[-71.05914,42.351393],[-71.062851,42.351465],[-71.062896,42.351442],[-71.062896,42.351415],[-71.062874,42.351397],[-71.062926,42.351375],[-71.062915,42.351336],[-71.063219,42.351339],[-71.063238,42.351325],[-71.063219,42.351312],[-71.062868,42.351305],[-71.062866,42.351288],[-71.063238,42.35129],[-71.063257,42.351276]]],[[[-71.063124,42.35481],[-71.063106,42.354797],[-71.062547,42.354786],[-71.062513,42.354767],[-71.059364,42.354707],[-71.059328,42.354733],[-71.059339,42.354752],[-71.059375,42.35476],[-71.059377,42.354791],[-71.059425,42.354798],[-71.059427,42.35483],[-71.05945,42.354837],[-71.062459,42.354895],[-71.062482,42.354888],[-71.062489,42.354862],[-71.062434,42.354847],[-71.062435,42.354819],[-71.063106,42.354824],[-71.063124,42.35481]]],[[[-71.063074,42.354952],[-71.063056,42.354939],[-71.062559,42.354924],[-71.05955,42.354866],[-71.05952,42.354881],[-71.059527,42.354907],[-71.059578,42.354942],[-71.059614,42.354944],[-71.059619,42.354969],[-71.05964,42.354976],[-71.062508,42.355031],[-71.062538,42.355009],[-71.062622,42.354995],[-71.062622,42.354961],[-71.063056,42.354966],[-71.063074,42.354952]]],[[[-71.062858,42.351772],[-71.062844,42.351747],[-71.062809,42.351736],[-71.05889,42.351666],[-71.05886,42.351681],[-71.058878,42.351712],[-71.058825,42.351719],[-71.05733,42.351694],[-71.057312,42.351707],[-71.05733,42.35172],[-71.058818,42.351749],[-71.058775,42.351761],[-71.05606,42.351697],[-71.056042,42.35171],[-71.05579,42.351714],[-71.055772,42.351727],[-71.05579,42.35174],[-71.058768,42.351791],[-71.0588,42.351806],[-71.061949,42.351867],[-71.062035,42.351799],[-71.062809,42.351808],[-71.062844,42.351797],[-71.062858,42.351772]]],[[[-71.062824,42.353256],[-71.062805,42.353243],[-71.06092,42.353207],[-71.060902,42.35322],[-71.06092,42.353233],[-71.062805,42.35327],[-71.062824,42.353256]]],[[[-71.062798,42.352845],[-71.062784,42.35282],[-71.062749,42.352809],[-71.061784,42.35279],[-71.061642,42.352756],[-71.059616,42.352717],[-71.059603,42.35274],[-71.059655,42.352744],[-71.059521,42.35275],[-71.059491,42.352783],[-71.058014,42.352755],[-71.057996,42.352768],[-71.058014,42.352781],[-71.05954,42.352819],[-71.062749,42.352881],[-71.062784,42.35287],[-71.062798,42.352845]]],[[[-71.062577,42.352074],[-71.062561,42.352045],[-71.062522,42.352033],[-71.058132,42.351939],[-71.058132,42.351929],[-71.058599,42.351936],[-71.061207,42.351997],[-71.06123,42.35198],[-71.061681,42.351986],[-71.061699,42.351955],[-71.061669,42.35194],[-71.05866,42.351882],[-71.058628,42.351909],[-71.057291,42.351884],[-71.057273,42.351897],[-71.05637,42.351887],[-71.056357,42.35191],[-71.056433,42.351915],[-71.056443,42.351932],[-71.057264,42.351949],[-71.057273,42.351967],[-71.058476,42.351992],[-71.05846,42.352008],[-71.05673,42.351981],[-71.056712,42.351994],[-71.05673,42.352007],[-71.05844,42.35204],[-71.05685,42.352015],[-71.056832,42.352028],[-71.05685,42.352041],[-71.058395,42.352071],[-71.058397,42.352084],[-71.058357,42.352087],[-71.058357,42.352107],[-71.05734,42.352088],[-71.057311,42.35211],[-71.057329,42.35213],[-71.057406,42.352133],[-71.05742,42.352158],[-71.057568,42.35218],[-71.057583,42.35221],[-71.057705,42.352214],[-71.057698,42.352226],[-71.05582,42.35219],[-71.055786,42.352201],[-71.055775,42.35224],[-71.055737,42.352276],[-71.055752,42.352301],[-71.055786,42.352312],[-71.058995,42.352374],[-71.05904,42.352352],[-71.05904,42.352324],[-71.059074,42.352302],[-71.059074,42.352274],[-71.060452,42.352298],[-71.060476,42.352286],[-71.060492,42.352245],[-71.060473,42.352225],[-71.060262,42.35222],[-71.060248,42.352195],[-71.060184,42.352192],[-71.060229,42.352181],[-71.060229,42.35215],[-71.06201,42.352176],[-71.062042,42.352167],[-71.062052,42.35213],[-71.062028,42.352112],[-71.061959,42.352108],[-71.062522,42.352115],[-71.062561,42.352103],[-71.062577,42.352074]]],[[[-71.062571,42.351658],[-71.062539,42.351634],[-71.05953,42.351576],[-71.05897,42.351578],[-71.058934,42.351604],[-71.058956,42.351628],[-71.05941,42.351639],[-71.05893,42.351633],[-71.058912,42.351646],[-71.05893,42.351659],[-71.061096,42.351701],[-71.061109,42.351679],[-71.062158,42.351699],[-71.062183,42.351675],[-71.062539,42.351682],[-71.062571,42.351658]]],[[[-71.062494,42.353013],[-71.062476,42.353],[-71.062025,42.352985],[-71.06014,42.352949],[-71.060122,42.352962],[-71.06014,42.352975],[-71.060435,42.352981],[-71.060486,42.352988],[-71.060493,42.353009],[-71.062385,42.353047],[-71.062494,42.353013]]],[[[-71.062484,42.353076],[-71.062465,42.353063],[-71.061292,42.353034],[-71.0594,42.352997],[-71.059382,42.35301],[-71.0594,42.353023],[-71.060573,42.353052],[-71.062465,42.35309],[-71.062484,42.353076]]],[[[-71.06239,42.353186],[-71.062371,42.353173],[-71.060486,42.353137],[-71.060468,42.35315],[-71.060486,42.353163],[-71.062371,42.3532],[-71.06239,42.353186]]],[[[-71.062314,42.353136],[-71.062295,42.353123],[-71.06041,42.353087],[-71.060392,42.3531],[-71.05941,42.353087],[-71.059392,42.3531],[-71.05941,42.353113],[-71.061295,42.35315],[-71.061314,42.353136],[-71.062295,42.35315],[-71.062314,42.353136]]],[[[-71.06226,42.353106],[-71.062241,42.353093],[-71.060356,42.353057],[-71.060338,42.35307],[-71.060356,42.353083],[-71.062241,42.35312],[-71.06226,42.353106]]],[[[-71.062101,42.354443],[-71.062069,42.354419],[-71.05906,42.354361],[-71.05903,42.354376],[-71.059037,42.354402],[-71.05906,42.354409],[-71.062069,42.354467],[-71.062101,42.354443]]],[[[-71.062044,42.351908],[-71.062006,42.35188],[-71.05876,42.351813],[-71.058701,42.351818],[-71.058677,42.351845],[-71.058716,42.351874],[-71.062006,42.351937],[-71.062044,42.351908]]],[[[-71.061794,42.35157],[-71.061768,42.35155],[-71.05904,42.351498],[-71.059016,42.35151],[-71.05904,42.351536],[-71.061768,42.351589],[-71.061794,42.35157]]],[[[-71.061407,42.354337],[-71.061387,42.354323],[-71.05894,42.354276],[-71.058921,42.35429],[-71.05894,42.354304],[-71.061387,42.354352],[-71.061407,42.354337]]],[[[-71.061364,42.351206],[-71.061345,42.351193],[-71.05946,42.351157],[-71.059442,42.35117],[-71.05946,42.351183],[-71.061345,42.35122],[-71.061364,42.351206]]],[[[-71.060984,42.351496],[-71.060965,42.351483],[-71.058283,42.351418],[-71.058273,42.351387],[-71.055959,42.351342],[-71.055941,42.351355],[-71.055959,42.351368],[-71.056222,42.351374],[-71.05624,42.351389],[-71.057172,42.351407],[-71.055935,42.351399],[-71.055917,42.351412],[-71.055935,42.351425],[-71.058242,42.35147],[-71.058264,42.351445],[-71.060965,42.35151],[-71.060984,42.351496]]],[[[-71.060947,42.352527],[-71.060927,42.352513],[-71.060152,42.352491],[-71.05826,42.352454],[-71.058242,42.352467],[-71.05826,42.35248],[-71.058473,42.352493],[-71.060927,42.352542],[-71.060947,42.352527]]],[[[-71.060904,42.354368],[-71.060886,42.354355],[-71.059,42.354319],[-71.058982,42.354332],[-71.059,42.354345],[-71.060886,42.354382],[-71.060904,42.354368]]],[[[-71.060454,42.352567],[-71.060435,42.352553],[-71.060142,42.352536],[-71.05825,42.352499],[-71.058232,42.352512],[-71.05825,42.352525],[-71.058403,42.35254],[-71.060436,42.352581],[-71.060454,42.352567]]],[[[-71.060174,42.350946],[-71.060099,42.350932],[-71.060092,42.350911],[-71.059766,42.350904],[-71.059754,42.350871],[-71.059719,42.35086],[-71.05651,42.350798],[-71.056476,42.350809],[-71.056462,42.350833],[-71.056238,42.350829],[-71.05622,42.350842],[-71.056238,42.350855],[-71.05651,42.35087],[-71.058254,42.350904],[-71.058263,42.350922],[-71.060155,42.35096],[-71.060174,42.350946]]],[[[-71.060118,42.349823],[-71.060079,42.349795],[-71.05679,42.349731],[-71.056751,42.34976],[-71.05679,42.349789],[-71.060079,42.349852],[-71.060118,42.349823]]],[[[-71.060031,42.349961],[-71.059999,42.349937],[-71.05699,42.349879],[-71.056725,42.349879],[-71.056691,42.34989],[-71.056676,42.349915],[-71.056691,42.34994],[-71.056725,42.349951],[-71.059934,42.350013],[-71.060022,42.349978],[-71.060031,42.349961]]],[[[-71.059938,42.350068],[-71.059924,42.350043],[-71.059889,42.350032],[-71.05668,42.34997],[-71.056646,42.349981],[-71.056631,42.350006],[-71.056646,42.350031],[-71.05668,42.350042],[-71.059889,42.350104],[-71.059924,42.350093],[-71.059938,42.350068]]],[[[-71.059924,42.352701],[-71.059905,42.352688],[-71.05802,42.352652],[-71.058002,42.352665],[-71.05802,42.352678],[-71.059905,42.352715],[-71.059924,42.352701]]],[[[-71.059894,42.352941],[-71.059875,42.352928],[-71.05799,42.352892],[-71.057972,42.352905],[-71.05799,42.352918],[-71.059875,42.352955],[-71.059894,42.352941]]],[[[-71.059801,42.349898],[-71.059769,42.349874],[-71.05676,42.349816],[-71.05673,42.349831],[-71.056737,42.349857],[-71.05676,42.349864],[-71.059769,42.349922],[-71.059801,42.349898]]],[[[-71.059689,42.350729],[-71.059625,42.3507],[-71.05774,42.350664],[-71.057727,42.350687],[-71.05659,42.350667],[-71.056572,42.35068],[-71.05659,42.350693],[-71.058897,42.350738],[-71.05967,42.350743],[-71.059689,42.350729]]],[[[-71.059631,42.350243],[-71.059599,42.350219],[-71.05659,42.350161],[-71.05656,42.350176],[-71.056567,42.350202],[-71.05659,42.350209],[-71.059599,42.350267],[-71.059631,42.350243]]],[[[-71.059527,42.350149],[-71.059498,42.350128],[-71.05663,42.350072],[-71.056601,42.350094],[-71.05663,42.350116],[-71.059498,42.350171],[-71.059527,42.350149]]],[[[-71.059464,42.350967],[-71.059446,42.350953],[-71.05728,42.350912],[-71.057262,42.350925],[-71.05728,42.350938],[-71.059446,42.35098],[-71.059464,42.350967]]],[[[-71.059434,42.351105],[-71.059416,42.351091],[-71.05849,42.351073],[-71.058302,42.351054],[-71.05641,42.351017],[-71.056168,42.351023],[-71.05615,42.351036],[-71.056168,42.351049],[-71.05725,42.351076],[-71.059416,42.351118],[-71.059434,42.351105]]],[[[-71.0593,42.350439],[-71.059281,42.350426],[-71.057396,42.35039],[-71.057378,42.350403],[-71.057396,42.350416],[-71.059281,42.350453],[-71.0593,42.350439]]],[[[-71.059284,42.35053],[-71.059265,42.350517],[-71.05738,42.350481],[-71.057362,42.350494],[-71.05738,42.350507],[-71.059265,42.350544],[-71.059284,42.35053]]],[[[-71.059084,42.350586],[-71.059065,42.350573],[-71.058979,42.350571],[-71.058961,42.350556],[-71.057076,42.35052],[-71.057058,42.350533],[-71.057076,42.350546],[-71.057162,42.350548],[-71.05718,42.350563],[-71.059065,42.3506],[-71.059084,42.350586]]],[[[-71.059034,42.354723],[-71.059008,42.354703],[-71.05628,42.354651],[-71.056256,42.354663],[-71.05628,42.354689],[-71.059008,42.354742],[-71.059034,42.354723]]],[[[-71.059033,42.350668],[-71.058939,42.350645],[-71.056625,42.3506],[-71.056607,42.350613],[-71.056625,42.350626],[-71.057122,42.350644],[-71.059014,42.350682],[-71.059033,42.350668]]],[[[-71.059007,42.353212],[-71.058987,42.353198],[-71.05654,42.353151],[-71.056521,42.353165],[-71.05654,42.353179],[-71.058987,42.353227],[-71.059007,42.353212]]],[[[-71.05898,42.35314],[-71.058958,42.353123],[-71.05637,42.353073],[-71.056347,42.35309],[-71.05637,42.353107],[-71.058958,42.353157],[-71.05898,42.35314]]],[[[-71.058932,42.353174],[-71.058912,42.35316],[-71.056465,42.353113],[-71.056446,42.353127],[-71.056465,42.353141],[-71.058912,42.353189],[-71.058932,42.353174]]],[[[-71.058797,42.353394],[-71.058765,42.35337],[-71.055756,42.353312],[-71.055726,42.353327],[-71.055733,42.353353],[-71.055756,42.35336],[-71.058765,42.353418],[-71.058797,42.353394]]],[[[-71.058757,42.354797],[-71.058737,42.354783],[-71.05629,42.354736],[-71.056271,42.35475],[-71.05629,42.354764],[-71.058737,42.354812],[-71.058757,42.354797]]],[[[-71.05872,42.350266],[-71.058701,42.350253],[-71.056816,42.350217],[-71.056798,42.35023],[-71.056816,42.350243],[-71.058701,42.35028],[-71.05872,42.350266]]],[[[-71.058705,42.351142],[-71.058687,42.351128],[-71.05638,42.351084],[-71.056362,42.351097],[-71.05638,42.35111],[-71.058687,42.351155],[-71.058705,42.351142]]],[[[-71.058684,42.350343],[-71.058665,42.35033],[-71.05678,42.350294],[-71.056762,42.350307],[-71.05678,42.35032],[-71.058665,42.350357],[-71.058684,42.350343]]],[[[-71.058645,42.354975],[-71.058627,42.354961],[-71.05632,42.354917],[-71.056302,42.35493],[-71.05632,42.354943],[-71.058627,42.354988],[-71.058645,42.354975]]],[[[-71.058635,42.354881],[-71.058617,42.354867],[-71.05631,42.354823],[-71.056292,42.354836],[-71.05631,42.354849],[-71.058617,42.354894],[-71.058635,42.354881]]],[[[-71.058593,42.353449],[-71.058563,42.353428],[-71.055695,42.353372],[-71.055666,42.353394],[-71.055695,42.353416],[-71.058563,42.353471],[-71.058593,42.353449]]],[[[-71.058533,42.350978],[-71.058515,42.350964],[-71.056208,42.35092],[-71.05619,42.350933],[-71.056208,42.350946],[-71.058515,42.350991],[-71.058533,42.350978]]],[[[-71.058455,42.35119],[-71.058437,42.351176],[-71.05613,42.351132],[-71.056112,42.351145],[-71.05613,42.351158],[-71.056345,42.351163],[-71.056328,42.351176],[-71.056346,42.351189],[-71.058231,42.351226],[-71.05825,42.351212],[-71.058233,42.351199],[-71.058437,42.351203],[-71.058455,42.35119]]],[[[-71.058234,42.351489],[-71.058216,42.351476],[-71.05619,42.351437],[-71.056172,42.35145],[-71.05619,42.351463],[-71.058216,42.351503],[-71.058234,42.351489]]],[[[-71.058227,42.351527],[-71.058209,42.351513],[-71.055902,42.351469],[-71.055884,42.351482],[-71.055902,42.351495],[-71.058209,42.35154],[-71.058227,42.351527]]],[[[-71.058195,42.351606],[-71.058177,42.351592],[-71.05587,42.351548],[-71.055852,42.351561],[-71.05587,42.351574],[-71.058177,42.351619],[-71.058195,42.351606]]],[[[-71.058166,42.351667],[-71.058148,42.351653],[-71.055841,42.351609],[-71.055823,42.351622],[-71.055841,42.351635],[-71.058148,42.35168],[-71.058166,42.351667]]],[[[-71.058134,42.353086],[-71.058115,42.353073],[-71.05623,42.353037],[-71.056212,42.35305],[-71.05623,42.353063],[-71.058115,42.3531],[-71.058134,42.353086]]],[[[-71.058108,42.353727],[-71.058078,42.353706],[-71.055244,42.35364],[-71.055189,42.353657],[-71.055186,42.353683],[-71.055147,42.3537],[-71.05517,42.353717],[-71.057758,42.353767],[-71.05778,42.35375],[-71.058078,42.353749],[-71.058108,42.353727]]],[[[-71.058095,42.351821],[-71.058077,42.351807],[-71.05577,42.351763],[-71.055752,42.351776],[-71.05577,42.351789],[-71.058077,42.351834],[-71.058095,42.351821]]],[[[-71.058093,42.353477],[-71.058073,42.353463],[-71.055626,42.353416],[-71.055607,42.35343],[-71.055626,42.353444],[-71.058073,42.353492],[-71.058093,42.353477]]],[[[-71.057865,42.353542],[-71.057847,42.353528],[-71.05554,42.353484],[-71.055522,42.353497],[-71.05554,42.35351],[-71.057847,42.353555],[-71.057865,42.353542]]],[[[-71.057524,42.353569],[-71.057506,42.353556],[-71.05548,42.353517],[-71.055462,42.35353],[-71.05548,42.353543],[-71.057506,42.353583],[-71.057524,42.353569]]]]},"properties":{"kind":"tree"}}]}