{"type":"FeatureCollection","features":[{"type":"Feature","geometry":{"type":"Polygon","coordinates":[[[-71.071714,42.351483],[-71.071682,42.351154],[-71.069812,42.350994],[-71.069804,42.350909],[-71.069599,42.350881],[-71.069662,42.350645],[-71.069409,42.350558],[-71.070199,42.350625],[-71.070587,42.350617],[-71.070557,42.350333],[-71.071079,42.350377],[-71.071118,42.350324],[-71.071059,42.350257],[-71.070483,42.350208],[-71.070447,42.350167],[-71.067963,42.349955],[-71.067903,42.349898],[-71.068499,42.349949],[-71.068511,42.349902],[-71.067841,42.349839],[-71.067866,42.349733],[-71.068077,42.349751],[-71.068126,42.349707],[-71.068949,42.349777],[-71.068958,42.349745],[-71.068494,42.349701],[-71.068505,42.349657],[-71.068158,42.349625],[-71.068198,42.34945],[-71.067687,42.34937],[-71.067815,42.349309],[-71.067727,42.349207],[-71.067949,42.349226],[-71.068051,42.348831],[-71.067562,42.348781],[-71.067242,42.348721],[-71.067081,42.348708],[-71.069176,42.348881],[-71.069193,42.348814],[-71.069649,42.348852],[-71.069659,42.348781],[-71.06949,42.348766],[-71.069505,42.34871],[-71.069427,42.348698],[-71.069437,42.348651],[-71.06974,42.348677],[-71.069758,42.348585],[-71.069457,42.348557],[-71.069498,42.348362],[-71.066345,42.348087],[-71.066527,42.347998],[-71.066693,42.347881],[-71.066694,42.347794],[-71.066632,42.34776],[-71.066269,42.347704],[-71.064894,42.347587],[-71.064503,42.347783],[-71.064478,42.34784],[-71.061712,42.347604],[-71.061566,42.347954],[-71.061555,42.348046],[-71.061674,42.348074],[-71.062647,42.348157],[-71.06264,42.348175],[-71.062914,42.348215],[-71.061907,42.348129],[-71.06189,42.348172],[-71.061011,42.348097],[-71.060549,42.348739],[-71.060786,42.348796],[-71.061115,42.348824],[-71.061095,42.348902],[-71.057833,42.348624],[-71.058417,42.347751],[-71.058407,42.347692],[-71.057642,42.34741],[-71.055908,42.347262],[-71.054533,42.349309],[-71.054521,42.349416],[-71.054447,42.34941],[-71.053477,42.350853],[-71.054337,42.351171],[-71.055119,42.351238],[-71.055169,42.351163],[-71.056459,42.351273],[-71.056685,42.351364],[-71.056294,42.351331],[-71.056158,42.351601],[-71.055498,42.351545],[-71.054479,42.351779],[-71.054307,42.351954],[-71.054833,42.352232],[-71.054993,42.352283],[-71.055877,42.352369],[-71.056034,42.352612],[-71.057556,42.35275],[-71.05731,42.352888],[-71.057163,42.352943],[-71.05712,42.352979],[-71.0571,42.353025],[-71.057112,42.353085],[-71.057149,42.353124],[-71.057251,42.353183],[-71.056237,42.353097],[-71.055998,42.353225],[-71.056019,42.353304],[-71.055897,42.353294],[-71.055573,42.353469],[-71.055601,42.353498],[-71.055403,42.353608],[-71.055342,42.353603],[-71.054915,42.353838],[-71.054989,42.353912],[-71.054834,42.353899],[-71.054776,42.353908],[-71.054391,42.354111],[-71.054359,42.354149],[-71.054364,42.354206],[-71.054619,42.354471],[-71.054924,42.354507],[-71.054775,42.354643],[-71.05498,42.354839],[-71.055582,42.35489],[-71.055688,42.355479],[-71.061848,42.355999],[-71.062303,42.355955],[-71.062409,42.355927],[-71.062355,42.355626],[-71.062611,42.355648],[-71.062736,42.355639],[-71.065274,42.355855],[-71.06552,42.355641],[-71.065583,42.355563],[-71.065416,42.355418],[-71.065485,42.355351],[-71.065434,42.355315],[-71.065499,42.355248],[-71.066932,42.35537],[-71.066976,42.355361],[-71.067102,42.355129],[-71.069381,42.355323],[-71.069416,42.355227],[-71.069435,42.355229],[-71.069724,42.354693],[-71.069706,42.354688],[-71.069731,42.354679],[-71.06975,42.354644],[-71.069505,42.354571],[-71.06865,42.354498],[-71.068738,42.354359],[-71.068748,42.354312],[-71.068495,42.354234],[-71.06704,42.35411],[-71.068863,42.354256],[-71.068916,42.354171],[-71.069088,42.35417],[-71.069127,42.353917],[-71.067085,42.353743],[-71.067099,42.353678],[-71.067051,42.353642],[-71.067019,42.353639],[-71.06702,42.353552],[-71.065403,42.353415],[-71.066739,42.353517],[-71.066763,42.353455],[-71.068324,42.353576],[-71.068401,42.35347],[-71.069218,42.35354],[-71.069272,42.353443],[-71.06929,42.353132],[-71.069204,42.353045],[-71.068108,42.352952],[-71.068127,42.352755],[-71.068093,42.352729],[-71.064816,42.35245],[-71.06478,42.35242],[-71.067768,42.352675],[-71.068217,42.352656],[-71.068233,42.352617],[-71.068956,42.352671],[-71.069631,42.352701],[-71.069678,42.352413],[-71.069618,42.352408],[-71.069639,42.352299],[-71.069624,42.352158],[-71.070285,42.352214],[-71.070393,42.35221],[-71.070391,42.352173],[-71.070432,42.352176],[-71.070615,42.352131],[-71.070592,42.351997],[-71.07034,42.351428],[-71.071499,42.351513],[-71.071714,42.351483]],[[-71.066628,42.35112],[-71.065473,42.351256],[-71.064919,42.351209],[-71.064445,42.351125],[-71.064159,42.351101],[-71.064173,42.351068],[-71.063659,42.350941],[-71.062633,42.350853],[-71.06259,42.35081],[-71.063136,42.350857],[-71.063149,42.350831],[-71.066628,42.35112]],[[-71.065514,42.351764],[-71.063311,42.351581],[-71.065191,42.351723],[-71.065475,42.351747],[-71.065514,42.351764]],[[-71.064486,42.348393],[-71.06321,42.348284],[-71.063229,42.348263],[-71.064153,42.348342],[-71.064222,42.348342],[-71.064232,42.348309],[-71.064456,42.348328],[-71.06444,42.348386],[-71.064486,42.348393]],[[-71.062891,42.351566],[-71.062885,42.351598],[-71.062206,42.351541],[-71.06221,42.35152],[-71.062128,42.351501],[-71.062891,42.351566]],[[-71.061951,42.350929],[-71.061816,42.350917],[-71.061697,42.350884],[-71.061951,42.350929]],[[-71.060795,42.35135],[-71.060692,42.351342],[-71.060697,42.351328],[-71.060795,42.35135]],[[-71.060299,42.349112],[-71.060133,42.349519],[-71.0593,42.349448],[-71.05882,42.349342],[-71.057753,42.349248],[-71.057772,42.349114],[-71.057558,42.349035],[-71.057683,42.348848],[-71.057988,42.348915],[-71.060299,42.349112]],[[-71.06001,42.349842],[-71.059982,42.34991],[-71.059778,42.349892],[-71.059807,42.349825],[-71.06001,42.349842]],[[-71.059147,42.349768],[-71.059118,42.349836],[-71.058518,42.349785],[-71.058907,42.349811],[-71.058939,42.349751],[-71.059147,42.349768]]]},"properties":{"kind":"building"}},{"type":"Feature","geometry":{"type":"MultiPolygon","coordinates":[[[[-71.067813,42.3536],[-71.067802,42.353559],[-71.067723,42.353501],[-71.067165,42.35345],[-71.067146,42.353401],[-71.067239,42.353401],[-71.06727,42.353386],[-71.067298,42.353337],[-71.06729,42.35331],[-71.067239,42.353272],[-71.067131,42.353261],[-71.067162,42.353236],[-71.067594,42.353262],[-71.067659,42.353214],[-71.067669,42.35318],[-71.067645,42.35313],[-71.067744,42.353099],[-71.067776,42.353064],[-71.067787,42.353022],[-71.067776,42.352981],[-71.067697,42.352923],[-71.067005,42.35286],[-71.066967,42.352834],[-71.067003,42.3528],[-71.067003,42.352749],[-71.067122,42.352752],[-71.067174,42.352736],[-71.067196,42.352697],[-71.06715,42.352646],[-71.065688,42.352518],[-71.065636,42.352534],[-71.065361,42.35251],[-71.065288,42.352533],[-71.064975,42.352515],[-71.064922,42.352553],[-71.064915,42.352581],[-71.064943,42.352632],[-71.064975,42.352647],[-71.065498,42.352694],[-71.065539,42.352722],[-71.065651,42.352734],[-71.065613,42.352781],[-71.065124,42.352745],[-71.065088,42.352785],[-71.065105,42.352816],[-71.065081,42.352852],[-71.065094,42.352876],[-71.065032,42.352908],[-71.065032,42.352948],[-71.064745,42.352926],[-71.06466,42.352952],[-71.064625,42.353015],[-71.064656,42.353073],[-71.064658,42.353148],[-71.064778,42.353243],[-71.064911,42.353256],[-71.064659,42.353241],[-71.064581,42.353265],[-71.064553,42.353305],[-71.063904,42.353256],[-71.063904,42.35328],[-71.064063,42.353312],[-71.064558,42.353355],[-71.064617,42.353398],[-71.06493,42.353428],[-71.064895,42.353441],[-71.064875,42.353478],[-71.064631,42.353462],[-71.06456,42.353483],[-71.06453,42.353536],[-71.064538,42.353564],[-71.06456,42.353589],[-71.064628,42.35361],[-71.064393,42.353596],[-71.064358,42.353622],[-71.064358,42.353658],[-71.064324,42.353692],[-71.064332,42.353737],[-71.064296,42.353748],[-71.064281,42.353772],[-71.063967,42.35375],[-71.06398,42.353773],[-71.064291,42.3538],[-71.064362,42.35382],[-71.064304,42.353823],[-71.064258,42.353857],[-71.064244,42.353968],[-71.06389,42.353943],[-71.06386,42.353958],[-71.063878,42.353989],[-71.064284,42.354025],[-71.06422,42.35406],[-71.064214,42.354083],[-71.064234,42.354122],[-71.064131,42.35413],[-71.06379,42.354101],[-71.063766,42.354113],[-71.06378,42.354138],[-71.064105,42.354166],[-71.064109,42.354193],[-71.064148,42.354222],[-71.064088,42.354236],[-71.064069,42.35427],[-71.064088,42.354304],[-71.064127,42.354317],[-71.06415,42.354349],[-71.064036,42.354339],[-71.063961,42.354376],[-71.063968,42.35443],[-71.063903,42.354482],[-71.063892,42.354523],[-71.063903,42.354564],[-71.063935,42.354599],[-71.063982,42.354623],[-71.064269,42.354651],[-71.064296,42.35467],[-71.064352,42.354676],[-71.063878,42.354645],[-71.063818,42.354663],[-71.0638,42.354683],[-71.06352,42.354664],[-71.063475,42.354686],[-71.063486,42.354725],[-71.063757,42.354756],[-71.063749,42.35478],[-71.06346,42.354764],[-71.063415,42.354786],[-71.063415,42.354814],[-71.06346,42.354836],[-71.06424,42.354902],[-71.064285,42.35488],[-71.064763,42.354917],[-71.064711,42.354957],[-71.064703,42.354986],[-71.064734,42.35504],[-71.064767,42.355057],[-71.066289,42.355189],[-71.066329,42.355183],[-71.066385,42.355142],[-71.066393,42.355112],[-71.066362,42.355058],[-71.067085,42.355117],[-71.067133,42.355102],[-71.067152,42.35507],[-71.067294,42.355071],[-71.067334,42.355051],[-71.06737,42.354987],[-71.06736,42.354952],[-71.067294,42.354903],[-71.066589,42.35484],[-71.066588,42.35478],[-71.066544,42.354747],[-71.066411,42.354713],[-71.066138,42.35469],[-71.066124,42.35465],[-71.066256,42.354651],[-71.06631,42.354613],[-71.06749,42.354713],[-71.067539,42.354706],[-71.06761,42.354654],[-71.06762,42.354617],[-71.067582,42.35455],[-71.06749,42.354522],[-71.066158,42.354408],[-71.066122,42.354357],[-71.066075,42.354334],[-71.065427,42.354275],[-71.066042,42.354327],[-71.066083,42.354321],[-71.066141,42.354278],[-71.066141,42.354218],[-71.066103,42.354185],[-71.066576,42.354216],[-71.066599,42.3542],[-71.066576,42.354183],[-71.066251,42.354155],[-71.066791,42.354194],[-71.066836,42.354172],[-71.066836,42.354144],[-71.066795,42.354103],[-71.066606,42.354085],[-71.066611,42.354053],[-71.066662,42.35403],[-71.066651,42.35399],[-71.066522,42.353972],[-71.066536,42.353946],[-71.066508,42.353913],[-71.066523,42.353883],[-71.066593,42.353881],[-71.06663,42.353842],[-71.066612,42.353811],[-71.066546,42.353796],[-71.066583,42.353771],[-71.06657,42.353721],[-71.066174,42.353678],[-71.067203,42.353765],[-71.067306,42.353734],[-71.067343,42.353681],[-71.067667,42.353708],[-71.067723,42.3537],[-71.06777,42.353677],[-71.067802,42.353642],[-71.067813,42.3536]],[[-71.065927,42.355005],[-71.065074,42.354932],[-71.065108,42.354905],[-71.065444,42.354931],[-71.065492,42.354917],[-71.065912,42.354964],[-71.065927,42.355005]],[[-71.065394,42.353844],[-71.065358,42.353853],[-71.065353,42.35384],[-71.065394,42.353844]],[[-71.065147,42.354093],[-71.064638,42.354049],[-71.06467,42.354036],[-71.064724,42.354055],[-71.065147,42.354093]]],[[[-71.066902,42.348129],[-71.066883,42.348095],[-71.066837,42.348081],[-71.065765,42.34799],[-71.065719,42.348004],[-71.0657,42.348038],[-71.065719,42.348072],[-71.065765,42.348086],[-71.066837,42.348177],[-71.066883,42.348163],[-71.066902,42.348129]]],[[[-71.06676,42.348263],[-71.066744,42.348234],[-71.066705,42.348222],[-71.065995,42.348161],[-71.065995,42.348137],[-71.06553,42.348097],[-71.065512,42.34811],[-71.06553,42.348123],[-71.065728,42.34814],[-71.065696,42.348151],[-71.06568,42.34818],[-71.065696,42.348209],[-71.065735,42.348221],[-71.066705,42.348303],[-71.066744,42.348291],[-71.06676,42.348263]]],[[[-71.066742,42.348532],[-71.066725,42.348501],[-71.066684,42.348488],[-71.06568,42.348403],[-71.065639,42.348415],[-71.065622,42.348443],[-71.06546,42.348429],[-71.065437,42.348446],[-71.06546,42.348463],[-71.06568,42.348489],[-71.066684,42.348575],[-71.066725,42.348562],[-71.066742,42.348532]]],[[[-71.06659,42.348404],[-71.066572,42.348372],[-71.066528,42.348359],[-71.06571,42.34828],[-71.06549,42.34827],[-71.065446,42.348284],[-71.065428,42.348316],[-71.065446,42.348348],[-71.06549,42.348362],[-71.066528,42.34845],[-71.066572,42.348437],[-71.06659,42.348404]]],[[[-71.066339,42.349302],[-71.066324,42.349277],[-71.06629,42.349266],[-71.06551,42.3492],[-71.065476,42.349211],[-71.065461,42.349236],[-71.065476,42.349261],[-71.06551,42.349272],[-71.06629,42.349338],[-71.066324,42.349328],[-71.066339,42.349302]]],[[[-71.06628,42.349147],[-71.066266,42.349121],[-71.066232,42.349111],[-71.06533,42.349034],[-71.065296,42.349045],[-71.065281,42.34907],[-71.065296,42.349095],[-71.06533,42.349106],[-71.066232,42.349183],[-71.066266,42.349172],[-71.06628,42.349147]]],[[[-71.066213,42.348856],[-71.066198,42.348831],[-71.066164,42.34882],[-71.065384,42.348754],[-71.06535,42.348765],[-71.065335,42.34879],[-71.06535,42.348815],[-71.065384,42.348826],[-71.066164,42.348892],[-71.066198,42.348882],[-71.066213,42.348856]]],[[[-71.066161,42.349005],[-71.066125,42.348979],[-71.06536,42.348914],[-71.065324,42.34894],[-71.06536,42.348966],[-71.066125,42.349032],[-71.066161,42.349005]]],[[[-71.066115,42.351268],[-71.066096,42.351254],[-71.06557,42.35121],[-71.06525,42.351197],[-71.065232,42.35121],[-71.06525,42.351223],[-71.065708,42.351263],[-71.066096,42.351281],[-71.066115,42.351268]]],[[[-71.065839,42.350776],[-71.065813,42.350757],[-71.06515,42.350701],[-71.065126,42.350713],[-71.06515,42.350739],[-71.065813,42.350796],[-71.065839,42.350776]]],[[[-71.065814,42.35084],[-71.065788,42.350821],[-71.065125,42.350765],[-71.065101,42.350777],[-71.065125,42.350803],[-71.065788,42.35086],[-71.065814,42.35084]]],[[[-71.065724,42.350904],[-71.065705,42.350889],[-71.06511,42.350839],[-71.065091,42.350853],[-71.06511,42.350867],[-71.065705,42.350918],[-71.065724,42.350904]]],[[[-71.065437,42.351352],[-71.065418,42.351338],[-71.064926,42.351297],[-71.064908,42.35131],[-71.064926,42.351323],[-71.065418,42.351365],[-71.065437,42.351352]]],[[[-71.065315,42.348495],[-71.065297,42.348482],[-71.065079,42.348463],[-71.064883,42.348426],[-71.064418,42.348386],[-71.0644,42.348399],[-71.064418,42.348412],[-71.064832,42.348468],[-71.065297,42.348509],[-71.065315,42.348495]]],[[[-71.065159,42.352155],[-71.06514,42.35214],[-71.064545,42.35209],[-71.064526,42.352104],[-71.064545,42.352118],[-71.06514,42.352169],[-71.065159,42.352155]]],[[[-71.065082,42.351865],[-71.065064,42.351852],[-71.064606,42.351813],[-71.064588,42.351826],[-71.064606,42.351839],[-71.065064,42.351879],[-71.065082,42.351865]]],[[[-71.065061,42.352097],[-71.065042,42.352083],[-71.06455,42.352042],[-71.064532,42.352055],[-71.06455,42.352068],[-71.065042,42.35211],[-71.065061,42.352097]]],[[[-71.065006,42.352199],[-71.064988,42.352186],[-71.06453,42.352147],[-71.064512,42.35216],[-71.06453,42.352173],[-71.064988,42.352213],[-71.065006,42.352199]]],[[[-71.064837,42.348774],[-71.064815,42.348757],[-71.064509,42.348731],[-71.064498,42.348712],[-71.063896,42.348661],[-71.063877,42.348675],[-71.063896,42.348689],[-71.064166,42.348712],[-71.064177,42.348736],[-71.064815,42.34879],[-71.064837,42.348774]]],[[[-71.064814,42.350976],[-71.064794,42.350954],[-71.064733,42.350942],[-71.064048,42.350884],[-71.064023,42.350863],[-71.06336,42.350807],[-71.063336,42.350819],[-71.06335,42.350844],[-71.063496,42.350857],[-71.06351,42.350882],[-71.063675,42.350907],[-71.064733,42.351],[-71.064794,42.350998],[-71.064814,42.350976]]],[[[-71.064729,42.348888],[-71.064711,42.348874],[-71.064326,42.348842],[-71.064313,42.348819],[-71.063855,42.34878],[-71.063837,42.348793],[-71.063855,42.348806],[-71.064137,42.348831],[-71.06415,42.348853],[-71.064711,42.348901],[-71.064729,42.348888]]],[[[-71.064644,42.353441],[-71.064625,42.353426],[-71.064471,42.353408],[-71.06391,42.353361],[-71.063892,42.353374],[-71.063958,42.353399],[-71.064625,42.353455],[-71.064644,42.353441]]],[[[-71.064521,42.348797],[-71.064499,42.34878],[-71.06387,42.348726],[-71.063847,42.348743],[-71.06387,42.34876],[-71.064499,42.348813],[-71.064521,42.348797]]],[[[-71.064474,42.348921],[-71.064455,42.348906],[-71.06386,42.348856],[-71.063841,42.34887],[-71.06386,42.348884],[-71.064455,42.348935],[-71.064474,42.348921]]],[[[-71.064284,42.349811],[-71.064265,42.349796],[-71.06367,42.349746],[-71.063651,42.34976],[-71.06367,42.349774],[-71.064265,42.349825],[-71.064284,42.349811]]],[[[-71.064279,42.349187],[-71.064261,42.349174],[-71.063803,42.349135],[-71.063785,42.349148],[-71.063803,42.349161],[-71.064261,42.349201],[-71.064279,42.349187]]],[[[-71.064266,42.348466],[-71.064165,42.348437],[-71.0637,42.348397],[-71.063682,42.34841],[-71.063783,42.348439],[-71.064248,42.34848],[-71.064266,42.348466]]],[[[-71.064226,42.349332],[-71.064208,42.349319],[-71.06375,42.34928],[-71.063732,42.349293],[-71.06375,42.349306],[-71.064208,42.349346],[-71.064226,42.349332]]],[[[-71.064213,42.349374],[-71.064195,42.349361],[-71.063737,42.349322],[-71.063719,42.349335],[-71.063737,42.349348],[-71.064195,42.349388],[-71.064213,42.349374]]],[[[-71.064193,42.349902],[-71.064175,42.349888],[-71.063614,42.349841],[-71.063596,42.349854],[-71.063614,42.349867],[-71.064175,42.349915],[-71.064193,42.349902]]],[[[-71.064174,42.350001],[-71.064155,42.349986],[-71.06356,42.349936],[-71.063541,42.34995],[-71.06356,42.349964],[-71.064155,42.350015],[-71.064174,42.350001]]],[[[-71.064109,42.350048],[-71.064091,42.350034],[-71.06353,42.349987],[-71.063512,42.35],[-71.06353,42.350013],[-71.064091,42.350061],[-71.064109,42.350048]]],[[[-71.06408,42.350824],[-71.064062,42.350804],[-71.063704,42.350773],[-71.063686,42.350758],[-71.06316,42.350714],[-71.063147,42.350737],[-71.063329,42.350755],[-71.063325,42.350765],[-71.06313,42.350751],[-71.063111,42.350765],[-71.06313,42.350779],[-71.063725,42.35083],[-71.064051,42.350846],[-71.06408,42.350824]]],[[[-71.064019,42.350466],[-71.064001,42.350452],[-71.06344,42.350405],[-71.063422,42.350418],[-71.06344,42.350431],[-71.064001,42.350479],[-71.064019,42.350466]]],[[[-71.063985,42.350225],[-71.063966,42.350211],[-71.06344,42.350167],[-71.063422,42.35018],[-71.06344,42.350193],[-71.063966,42.350238],[-71.063985,42.350225]]],[[[-71.063964,42.350755],[-71.063945,42.35074],[-71.063622,42.350713],[-71.063604,42.3507],[-71.06318,42.350664],[-71.063162,42.350677],[-71.06318,42.35069],[-71.063331,42.350703],[-71.06335,42.350718],[-71.063945,42.350769],[-71.063964,42.350755]]],[[[-71.063961,42.350532],[-71.063942,42.350518],[-71.063416,42.350474],[-71.06328,42.35047],[-71.063262,42.350483],[-71.06328,42.350496],[-71.063806,42.350541],[-71.063942,42.350545],[-71.063961,42.350532]]],[[[-71.063955,42.350291],[-71.063936,42.350277],[-71.06341,42.350233],[-71.063392,42.350246],[-71.06341,42.350259],[-71.063936,42.350304],[-71.063955,42.350291]]],[[[-71.06393,42.350325],[-71.063911,42.350311],[-71.063385,42.350267],[-71.063367,42.35028],[-71.063385,42.350293],[-71.063911,42.350338],[-71.06393,42.350325]]],[[[-71.063896,42.350592],[-71.063781,42.350567],[-71.063255,42.350523],[-71.063237,42.350536],[-71.063255,42.350549],[-71.063877,42.350605],[-71.063896,42.350592]]],[[[-71.063861,42.350652],[-71.063807,42.350635],[-71.063798,42.350617],[-71.06323,42.350569],[-71.063212,42.350582],[-71.063334,42.350604],[-71.063343,42.350622],[-71.063842,42.350665],[-71.063861,42.350652]]],[[[-71.063821,42.350482],[-71.063802,42.350468],[-71.06331,42.350427],[-71.063292,42.35044],[-71.06331,42.350453],[-71.063802,42.350495],[-71.063821,42.350482]]],[[[-71.063789,42.350678],[-71.063771,42.350664],[-71.06321,42.350617],[-71.063192,42.35063],[-71.06321,42.350643],[-71.063771,42.350691],[-71.063789,42.350678]]],[[[-71.063637,42.35228],[-71.063618,42.352266],[-71.062904,42.352207],[-71.06283,42.352202],[-71.062812,42.352215],[-71.06283,42.352228],[-71.062963,42.35224],[-71.062947,42.352253],[-71.062965,42.352266],[-71.063457,42.352308],[-71.063557,42.352305],[-71.063637,42.35228]]],[[[-71.063424,42.353353],[-71.063405,42.353338],[-71.06281,42.353288],[-71.06274,42.353289],[-71.062717,42.353306],[-71.06274,42.353323],[-71.063369,42.353376],[-71.063424,42.353353]]],[[[-71.063424,42.353265],[-71.063405,42.35325],[-71.062744,42.353193],[-71.062725,42.353207],[-71.062744,42.353221],[-71.063405,42.353279],[-71.063424,42.353265]]],[[[-71.06333,42.349444],[-71.063304,42.349415],[-71.063221,42.349407],[-71.063222,42.349382],[-71.063183,42.349363],[-71.06235,42.349292],[-71.062311,42.349311],[-71.062043,42.349297],[-71.062038,42.349272],[-71.061986,42.349263],[-71.061967,42.349234],[-71.061917,42.349218],[-71.060776,42.349121],[-71.060725,42.349137],[-71.060705,42.349174],[-71.060725,42.349211],[-71.060776,42.349227],[-71.061917,42.349324],[-71.061967,42.349308],[-71.062416,42.34936],[-71.062415,42.349385],[-71.062454,42.349404],[-71.063287,42.349475],[-71.063317,42.349466],[-71.06333,42.349444]]],[[[-71.063256,42.348413],[-71.063227,42.348392],[-71.062183,42.348307],[-71.062151,42.348286],[-71.06142,42.348224],[-71.06139,42.348239],[-71.061408,42.34827],[-71.061539,42.348282],[-71.061551,42.348326],[-71.06159,42.348338],[-71.063169,42.34847],[-71.063256,42.348413]]],[[[-71.063091,42.348611],[-71.063069,42.348594],[-71.06244,42.34854],[-71.062417,42.348557],[-71.06244,42.348574],[-71.063069,42.348627],[-71.063091,42.348611]]],[[[-71.062721,42.349614],[-71.062706,42.349589],[-71.062672,42.349578],[-71.061892,42.349512],[-71.061847,42.349534],[-71.061401,42.349498],[-71.061367,42.349509],[-71.061353,42.34953],[-71.061036,42.349503],[-71.061029,42.349482],[-71.06053,42.34944],[-71.060517,42.349463],[-71.060624,42.349474],[-71.060135,42.349441],[-71.060096,42.34947],[-71.060135,42.349499],[-71.062279,42.34967],[-71.062313,42.34966],[-71.062324,42.349621],[-71.062672,42.34965],[-71.062706,42.34964],[-71.062721,42.349614]]],[[[-71.062634,42.353803],[-71.062615,42.353788],[-71.06202,42.353738],[-71.061729,42.353725],[-71.061711,42.353738],[-71.061729,42.353751],[-71.062187,42.353791],[-71.062615,42.353817],[-71.062634,42.353803]]],[[[-71.062633,42.35042],[-71.06262,42.350396],[-71.062568,42.350385],[-71.062588,42.35036],[-71.062564,42.350334],[-71.06175,42.350263],[-71.061722,42.350272],[-71.061711,42.350292],[-71.061722,42.350312],[-71.061688,42.350322],[-71.061675,42.350346],[-71.061688,42.35037],[-71.06172,42.35038],[-71.062588,42.350453],[-71.06262,42.350444],[-71.062633,42.35042]]],[[[-71.062546,42.349732],[-71.062531,42.349707],[-71.062497,42.349696],[-71.061717,42.34963],[-71.061673,42.349651],[-71.061264,42.349617],[-71.061246,42.34963],[-71.061264,42.349643],[-71.061672,42.349678],[-71.061717,42.349702],[-71.062497,42.349768],[-71.062531,42.349758],[-71.062546,42.349732]]],[[[-71.062539,42.353673],[-71.062509,42.35364],[-71.062141,42.353608],[-71.062153,42.3536],[-71.062143,42.353582],[-71.06161,42.353537],[-71.061592,42.35355],[-71.061706,42.353572],[-71.061665,42.353593],[-71.061676,42.353632],[-71.061787,42.35365],[-71.061806,42.353667],[-71.062401,42.353718],[-71.06242,42.353704],[-71.062509,42.353707],[-71.062539,42.353673]]],[[[-71.062526,42.348719],[-71.062513,42.348697],[-71.062483,42.348688],[-71.06098,42.348564],[-71.060943,42.348575],[-71.060928,42.348602],[-71.060943,42.348629],[-71.06098,42.34864],[-71.061478,42.348683],[-71.06152,42.348704],[-71.062388,42.348777],[-71.06242,42.348768],[-71.062432,42.348746],[-71.0625,42.348748],[-71.062526,42.348719]]],[[[-71.062519,42.353751],[-71.0625,42.353736],[-71.061905,42.353686],[-71.061886,42.3537],[-71.061905,42.353714],[-71.0625,42.353765],[-71.062519,42.353751]]],[[[-71.06251,42.348238],[-71.062492,42.348206],[-71.062448,42.348193],[-71.06141,42.348104],[-71.061366,42.348118],[-71.061348,42.34815],[-71.061366,42.348182],[-71.06141,42.348196],[-71.062448,42.348284],[-71.062492,42.348271],[-71.06251,42.348238]]],[[[-71.062504,42.353876],[-71.062485,42.353861],[-71.06189,42.353811],[-71.061871,42.353825],[-71.06189,42.353839],[-71.062485,42.35389],[-71.062504,42.353876]]],[[[-71.062446,42.353899],[-71.062428,42.353886],[-71.06197,42.353847],[-71.061952,42.35386],[-71.06197,42.353873],[-71.062428,42.353913],[-71.062446,42.353899]]],[[[-71.062409,42.349477],[-71.062391,42.349464],[-71.061933,42.349425],[-71.061915,42.349438],[-71.061933,42.349451],[-71.062391,42.349491],[-71.062409,42.349477]]],[[[-71.062386,42.349919],[-71.062368,42.349906],[-71.062013,42.34987],[-71.06053,42.349754],[-71.060493,42.349765],[-71.060478,42.349792],[-71.060493,42.349819],[-71.06053,42.34983],[-71.061466,42.34991],[-71.061511,42.349889],[-71.062338,42.349979],[-71.062356,42.349965],[-71.062338,42.349952],[-71.062038,42.349926],[-71.062052,42.349913],[-71.062368,42.349933],[-71.062386,42.349919]]],[[[-71.06235,42.350039],[-71.062332,42.350026],[-71.061874,42.349987],[-71.061856,42.35],[-71.061874,42.350013],[-71.062332,42.350053],[-71.06235,42.350039]]],[[[-71.062336,42.348925],[-71.062323,42.348903],[-71.062293,42.348894],[-71.061592,42.348824],[-71.06146,42.348823],[-71.061423,42.34884],[-71.0609,42.348796],[-71.06087,42.348805],[-71.060858,42.348827],[-71.06087,42.348849],[-71.0609,42.348858],[-71.061733,42.348929],[-71.061771,42.348912],[-71.062293,42.348956],[-71.062323,42.348947],[-71.062336,42.348925]]],[[[-71.062326,42.350083],[-71.062308,42.35007],[-71.06185,42.350031],[-71.061837,42.350054],[-71.061104,42.349992],[-71.061067,42.350003],[-71.061052,42.35003],[-71.061067,42.350057],[-71.061104,42.350068],[-71.06204,42.350148],[-71.062088,42.350124],[-71.062278,42.350133],[-71.062296,42.350119],[-71.062062,42.350076],[-71.062308,42.350097],[-71.062326,42.350083]]],[[[-71.062286,42.353822],[-71.062268,42.353809],[-71.06181,42.35377],[-71.061792,42.353783],[-71.06181,42.353796],[-71.062268,42.353836],[-71.062286,42.353822]]],[[[-71.062256,42.350239],[-71.062238,42.350226],[-71.06178,42.350187],[-71.061762,42.3502],[-71.06178,42.350213],[-71.062238,42.350253],[-71.062256,42.350239]]],[[[-71.062248,42.350191],[-71.06223,42.350178],[-71.061806,42.350142],[-71.061788,42.350155],[-71.061806,42.350168],[-71.06223,42.350205],[-71.062248,42.350191]]],[[[-71.062228,42.34846],[-71.06221,42.348447],[-71.061752,42.348408],[-71.061734,42.348421],[-71.061752,42.348434],[-71.06221,42.348474],[-71.062228,42.34846]]],[[[-71.062122,42.351004],[-71.062099,42.350987],[-71.06147,42.350933],[-71.061447,42.35095],[-71.06147,42.350967],[-71.062099,42.35102],[-71.062122,42.351004]]],[[[-71.062066,42.348539],[-71.062048,42.348526],[-71.06159,42.348487],[-71.061572,42.3485],[-71.06159,42.348513],[-71.062048,42.348553],[-71.062066,42.348539]]],[[[-71.061994,42.349103],[-71.061975,42.349088],[-71.06138,42.349038],[-71.061361,42.349052],[-71.06138,42.349066],[-71.061975,42.349117],[-71.061994,42.349103]]],[[[-71.061975,42.3488],[-71.061959,42.348771],[-71.06192,42.348759],[-71.06095,42.348676],[-71.060911,42.348688],[-71.060895,42.348717],[-71.060911,42.348746],[-71.06095,42.348758],[-71.06192,42.34884],[-71.061959,42.348828],[-71.061975,42.3488]]],[[[-71.061876,42.351161],[-71.061858,42.351148],[-71.0614,42.351109],[-71.061382,42.351122],[-71.0614,42.351135],[-71.061858,42.351175],[-71.061876,42.351161]]],[[[-71.061855,42.351219],[-71.061837,42.351206],[-71.061379,42.351167],[-71.061361,42.35118],[-71.061379,42.351193],[-71.061837,42.351233],[-71.061855,42.351219]]],[[[-71.061829,42.351279],[-71.061811,42.351266],[-71.061353,42.351227],[-71.061335,42.35124],[-71.061353,42.351253],[-71.061811,42.351293],[-71.061829,42.351279]]],[[[-71.061826,42.349469],[-71.061808,42.349456],[-71.061045,42.349385],[-71.061028,42.349368],[-71.06057,42.349329],[-71.060557,42.349352],[-71.060654,42.349363],[-71.060639,42.349402],[-71.06054,42.349394],[-71.060522,42.349407],[-71.06054,42.34942],[-71.061464,42.349492],[-71.061498,42.349482],[-71.061512,42.349457],[-71.061808,42.349483],[-71.061826,42.349469]]],[[[-71.06181,42.351328],[-71.061792,42.351315],[-71.061334,42.351276],[-71.061316,42.351289],[-71.061334,42.351302],[-71.061792,42.351342],[-71.06181,42.351328]]],[[[-71.061754,42.34972],[-71.061735,42.349706],[-71.061243,42.349665],[-71.061225,42.349678],[-71.061243,42.349691],[-71.061735,42.349733],[-71.061754,42.34972]]],[[[-71.061702,42.353409],[-71.061642,42.353392],[-71.061641,42.353373],[-71.061593,42.353367],[-71.061585,42.353347],[-71.06112,42.353307],[-71.06049,42.35327],[-71.060472,42.353283],[-71.05978,42.353229],[-71.05975,42.353238],[-71.059738,42.35326],[-71.05975,42.353282],[-71.059823,42.353295],[-71.059833,42.353312],[-71.060298,42.353353],[-71.060316,42.353339],[-71.060614,42.353362],[-71.060653,42.353343],[-71.060644,42.35331],[-71.061208,42.353369],[-71.06097,42.35335],[-71.060952,42.353363],[-71.06097,42.353376],[-71.061428,42.353416],[-71.061446,42.353402],[-71.061684,42.353423],[-71.061702,42.353409]]],[[[-71.061696,42.354813],[-71.061678,42.3548],[-71.06122,42.354761],[-71.061202,42.354774],[-71.06122,42.354787],[-71.061678,42.354827],[-71.061696,42.354813]]],[[[-71.061646,42.354955],[-71.061628,42.354942],[-71.06117,42.354903],[-71.061152,42.354916],[-71.06117,42.354929],[-71.061628,42.354969],[-71.061646,42.354955]]],[[[-71.061575,42.35332],[-71.061556,42.353306],[-71.06103,42.353262],[-71.061012,42.353275],[-71.06103,42.353288],[-71.061556,42.353333],[-71.061575,42.35332]]],[[[-71.06151,42.349747],[-71.061496,42.349721],[-71.061462,42.349711],[-71.06047,42.349627],[-71.060452,42.34964],[-71.060469,42.349653],[-71.06005,42.349618],[-71.060014,42.349644],[-71.06005,42.34967],[-71.061462,42.349783],[-71.061496,42.349772],[-71.06151,42.349747]]],[[[-71.061496,42.348529],[-71.061478,42.348516],[-71.06102,42.348477],[-71.061002,42.34849],[-71.06102,42.348503],[-71.061478,42.348543],[-71.061496,42.348529]]],[[[-71.061396,42.353259],[-71.061378,42.353246],[-71.06092,42.353207],[-71.060902,42.35322],[-71.06092,42.353233],[-71.061378,42.353273],[-71.061396,42.353259]]],[[[-71.061218,42.353473],[-71.061179,42.353444],[-71.0604,42.353367],[-71.060344,42.353394],[-71.06006,42.353376],[-71.060028,42.353386],[-71.060015,42.35341],[-71.060028,42.353434],[-71.06006,42.353444],[-71.060928,42.353517],[-71.06096,42.353508],[-71.060973,42.353484],[-71.061179,42.353502],[-71.061218,42.353473]]],[[[-71.061094,42.350216],[-71.061063,42.350183],[-71.060748,42.350155],[-71.060756,42.350144],[-71.060738,42.350131],[-71.06028,42.350092],[-71.060216,42.35015],[-71.060231,42.350175],[-71.060265,42.350186],[-71.061045,42.350252],[-71.061079,42.350242],[-71.061094,42.350216]]],[[[-71.061086,42.349299],[-71.061068,42.349286],[-71.06061,42.349247],[-71.060592,42.34926],[-71.06061,42.349273],[-71.061068,42.349313],[-71.061086,42.349299]]],[[[-71.061066,42.349339],[-71.061048,42.349326],[-71.06059,42.349287],[-71.060572,42.3493],[-71.06059,42.349313],[-71.061048,42.349353],[-71.061066,42.349339]]],[[[-71.061056,42.353079],[-71.061038,42.353066],[-71.06058,42.353027],[-71.060562,42.35304],[-71.06058,42.353053],[-71.061038,42.353093],[-71.061056,42.353079]]],[[[-71.060976,42.353036],[-71.060949,42.353003],[-71.06045,42.352961],[-71.060432,42.352973],[-71.06014,42.352949],[-71.060122,42.352962],[-71.06014,42.352975],[-71.0605,42.35301],[-71.060958,42.35305],[-71.060976,42.353036]]],[[[-71.060962,42.353189],[-71.060944,42.353176],[-71.060486,42.353137],[-71.060468,42.35315],[-71.060486,42.353163],[-71.060944,42.353203],[-71.060962,42.353189]]],[[[-71.060962,42.349639],[-71.060944,42.349626],[-71.060816,42.349615],[-71.060808,42.3496],[-71.060944,42.349609],[-71.060962,42.349595],[-71.060944,42.349582],[-71.060486,42.349543],[-71.060473,42.349566],[-71.06009,42.349534],[-71.060061,42.349556],[-71.06009,42.349578],[-71.060944,42.349653],[-71.060962,42.349639]]],[[[-71.060886,42.353139],[-71.060821,42.353122],[-71.060831,42.353114],[-71.060821,42.353097],[-71.060356,42.353057],[-71.060338,42.35307],[-71.060403,42.353088],[-71.060393,42.353095],[-71.060403,42.353112],[-71.060868,42.353153],[-71.060886,42.353139]]],[[[-71.060881,42.349926],[-71.060862,42.349912],[-71.06037,42.349871],[-71.060352,42.349884],[-71.06037,42.349897],[-71.060862,42.349939],[-71.060881,42.349926]]],[[[-71.060806,42.351115],[-71.060793,42.351093],[-71.060763,42.351084],[-71.05993,42.351013],[-71.0599,42.351022],[-71.059888,42.351044],[-71.0599,42.351066],[-71.05993,42.351075],[-71.060763,42.351146],[-71.060793,42.351137],[-71.060806,42.351115]]],[[[-71.060776,42.350076],[-71.060758,42.350063],[-71.0603,42.350024],[-71.060282,42.350037],[-71.0603,42.35005],[-71.060758,42.35009],[-71.060776,42.350076]]],[[[-71.060564,42.351191],[-71.060538,42.351172],[-71.0595,42.351084],[-71.059482,42.351097],[-71.0595,42.35111],[-71.059851,42.35114],[-71.059875,42.351154],[-71.060538,42.351211],[-71.060564,42.351191]]],[[[-71.060429,42.351776],[-71.060414,42.351751],[-71.06038,42.35174],[-71.059761,42.351688],[-71.060093,42.351703],[-71.060117,42.351676],[-71.060274,42.351684],[-71.060291,42.351671],[-71.060274,42.35164],[-71.059711,42.351591],[-71.059729,42.351573],[-71.059703,42.351554],[-71.05904,42.351498],[-71.059016,42.35151],[-71.05903,42.351535],[-71.059522,42.351577],[-71.0595,42.351591],[-71.0595,42.351609],[-71.05941,42.351615],[-71.05897,42.351578],[-71.058937,42.351594],[-71.058945,42.351623],[-71.059572,42.351682],[-71.059511,42.3517],[-71.059473,42.351696],[-71.059463,42.351678],[-71.05893,42.351633],[-71.058912,42.351646],[-71.05893,42.351659],[-71.059345,42.351695],[-71.05889,42.351666],[-71.05886,42.351681],[-71.058867,42.351707],[-71.05889,42.351714],[-71.059621,42.351776],[-71.059653,42.351751],[-71.06038,42.351812],[-71.060414,42.351802],[-71.060429,42.351776]]],[[[-71.060369,42.352849],[-71.060339,42.352816],[-71.060241,42.352807],[-71.060239,42.352782],[-71.060169,42.352766],[-71.059616,42.352717],[-71.059603,42.35274],[-71.059728,42.352763],[-71.05954,42.352747],[-71.059506,42.352758],[-71.059491,42.352783],[-71.059506,42.352808],[-71.05954,42.352819],[-71.06032,42.352885],[-71.060354,42.352875],[-71.060369,42.352849]]],[[[-71.060366,42.355013],[-71.060344,42.354965],[-71.060294,42.35493],[-71.05955,42.354866],[-71.05952,42.354881],[-71.059527,42.354907],[-71.059578,42.354942],[-71.059613,42.354946],[-71.059629,42.354974],[-71.060337,42.355035],[-71.060366,42.355013]]],[[[-71.060214,42.354875],[-71.060194,42.354853],[-71.060158,42.354849],[-71.060165,42.354798],[-71.060143,42.354774],[-71.059364,42.354707],[-71.059328,42.354733],[-71.059339,42.354752],[-71.059374,42.35476],[-71.059377,42.354791],[-71.059423,42.3548],[-71.059418,42.354813],[-71.059438,42.354835],[-71.060181,42.354899],[-71.060214,42.354875]]],[[[-71.06012,42.351367],[-71.060106,42.351341],[-71.060049,42.351329],[-71.060057,42.351293],[-71.060012,42.351271],[-71.05911,42.351194],[-71.059076,42.351205],[-71.059061,42.35123],[-71.059076,42.351255],[-71.059133,42.351268],[-71.059125,42.351304],[-71.059148,42.351322],[-71.059106,42.351332],[-71.059091,42.351357],[-71.059106,42.351382],[-71.05914,42.351393],[-71.060042,42.35147],[-71.060087,42.351448],[-71.060087,42.35142],[-71.060063,42.351402],[-71.060106,42.351392],[-71.06012,42.351367]]],[[[-71.059952,42.351834],[-71.059929,42.351817],[-71.059648,42.351793],[-71.059615,42.351777],[-71.05885,42.351712],[-71.058817,42.351728],[-71.058824,42.351756],[-71.058786,42.351756],[-71.058764,42.35178],[-71.0588,42.351806],[-71.059565,42.351872],[-71.059598,42.351855],[-71.059591,42.351828],[-71.059929,42.35185],[-71.059952,42.351834]]],[[[-71.059936,42.351209],[-71.059918,42.351196],[-71.05946,42.351157],[-71.059442,42.35117],[-71.05946,42.351183],[-71.059918,42.351223],[-71.059936,42.351209]]],[[[-71.059886,42.353139],[-71.059868,42.353126],[-71.05941,42.353087],[-71.059392,42.3531],[-71.05941,42.353113],[-71.059868,42.353153],[-71.059886,42.353139]]],[[[-71.059876,42.353049],[-71.059858,42.353036],[-71.0594,42.352997],[-71.059382,42.35301],[-71.0594,42.353023],[-71.059858,42.353063],[-71.059876,42.353049]]],[[[-71.059824,42.354447],[-71.059791,42.354423],[-71.05906,42.354361],[-71.05903,42.354376],[-71.059037,42.354402],[-71.05906,42.354409],[-71.059791,42.354471],[-71.059824,42.354447]]],[[[-71.059642,42.353333],[-71.059624,42.35332],[-71.058846,42.353255],[-71.05874,42.353255],[-71.058722,42.353268],[-71.05874,42.353281],[-71.059198,42.353321],[-71.059624,42.353347],[-71.059642,42.353333]]],[[[-71.059556,42.351499],[-71.059538,42.351486],[-71.05908,42.351447],[-71.059062,42.35146],[-71.05908,42.351473],[-71.059538,42.351513],[-71.059556,42.351499]]],[[[-71.059555,42.35208],[-71.059539,42.352051],[-71.0595,42.352039],[-71.05858,42.351954],[-71.058491,42.351968],[-71.058451,42.352018],[-71.058451,42.352041],[-71.058397,42.35205],[-71.058398,42.352086],[-71.058352,42.352097],[-71.05837,42.35211],[-71.059308,42.352181],[-71.05935,42.352161],[-71.059363,42.352113],[-71.059521,42.352117],[-71.059555,42.35208]]],[[[-71.059554,42.351913],[-71.059515,42.351884],[-71.05876,42.351813],[-71.058701,42.351818],[-71.058677,42.351845],[-71.058716,42.351874],[-71.059515,42.351942],[-71.059554,42.351913]]],[[[-71.059554,42.354341],[-71.059535,42.354326],[-71.05894,42.354276],[-71.058921,42.35429],[-71.05894,42.354304],[-71.059535,42.354355],[-71.059554,42.354341]]],[[[-71.059476,42.354371],[-71.059458,42.354358],[-71.059,42.354319],[-71.058982,42.354332],[-71.059,42.354345],[-71.059458,42.354385],[-71.059476,42.354371]]],[[[-71.059424,42.351968],[-71.059391,42.351944],[-71.05866,42.351882],[-71.058599,42.351924],[-71.058611,42.351946],[-71.059249,42.352],[-71.059272,42.351984],[-71.059404,42.35199],[-71.059424,42.351968]]],[[[-71.059094,42.352531],[-71.059075,42.352516],[-71.05837,42.352457],[-71.05826,42.352454],[-71.058242,42.352467],[-71.05826,42.35248],[-71.058718,42.35252],[-71.059075,42.352545],[-71.059094,42.352531]]],[[[-71.059026,42.352569],[-71.059008,42.352556],[-71.05849,42.352511],[-71.05825,42.352499],[-71.058232,42.352512],[-71.05825,42.352525],[-71.058902,42.352583],[-71.059008,42.352583],[-71.059026,42.352569]]],[[[-71.058746,42.350949],[-71.058675,42.350931],[-71.058665,42.350914],[-71.0582,42.350874],[-71.058182,42.350887],[-71.058253,42.350905],[-71.058263,42.350922],[-71.058728,42.350963],[-71.058746,42.350949]]],[[[-71.058496,42.352704],[-71.058478,42.352691],[-71.05802,42.352652],[-71.058002,42.352665],[-71.05802,42.352678],[-71.058478,42.352718],[-71.058496,42.352704]]],[[[-71.05849,42.352807],[-71.058472,42.352794],[-71.058014,42.352755],[-71.057996,42.352768],[-71.058014,42.352781],[-71.058472,42.352821],[-71.05849,42.352807]]],[[[-71.058466,42.352944],[-71.058448,42.352931],[-71.05799,42.352892],[-71.057972,42.352905],[-71.05799,42.352918],[-71.058448,42.352958],[-71.058466,42.352944]]],[[[-71.058413,42.352282],[-71.058387,42.352263],[-71.058318,42.352257],[-71.058302,42.352229],[-71.058198,42.35222],[-71.058183,42.352199],[-71.058065,42.352175],[-71.058048,42.352149],[-71.05734,42.352088],[-71.057311,42.35211],[-71.057329,42.35213],[-71.057405,42.352137],[-71.05742,42.352158],[-71.057566,42.352184],[-71.057583,42.35221],[-71.0577,42.352221],[-71.057714,42.352244],[-71.058387,42.352302],[-71.058413,42.352282]]],[[[-71.058261,42.350732],[-71.058198,42.350703],[-71.05774,42.350664],[-71.057722,42.350677],[-71.057785,42.350706],[-71.058243,42.350746],[-71.058261,42.350732]]],[[[-71.057872,42.350442],[-71.057854,42.350429],[-71.057396,42.35039],[-71.057378,42.350403],[-71.057396,42.350416],[-71.057854,42.350456],[-71.057872,42.350442]]],[[[-71.057856,42.350533],[-71.057838,42.35052],[-71.05738,42.350481],[-71.057362,42.350494],[-71.05738,42.350507],[-71.057838,42.350547],[-71.057856,42.350533]]],[[[-71.057841,42.351749],[-71.057822,42.351735],[-71.05733,42.351694],[-71.057312,42.351707],[-71.05733,42.35172],[-71.057822,42.351762],[-71.057841,42.351749]]],[[[-71.057825,42.35097],[-71.057806,42.350956],[-71.057333,42.350916],[-71.057335,42.350887],[-71.05729,42.350864],[-71.05651,42.350798],[-71.056465,42.35082],[-71.056465,42.350848],[-71.056238,42.350829],[-71.05622,42.350842],[-71.056238,42.350855],[-71.056799,42.350903],[-71.057806,42.350983],[-71.057825,42.35097]]],[[[-71.057796,42.351789],[-71.057778,42.351776],[-71.05732,42.351737],[-71.057302,42.35175],[-71.05732,42.351763],[-71.057778,42.351803],[-71.057796,42.351789]]],[[[-71.057795,42.351108],[-71.057776,42.351094],[-71.05725,42.35105],[-71.057232,42.351063],[-71.05725,42.351076],[-71.057776,42.351121],[-71.057795,42.351108]]],[[[-71.057767,42.351936],[-71.057749,42.351923],[-71.057291,42.351884],[-71.057273,42.351897],[-71.057291,42.35191],[-71.057749,42.35195],[-71.057767,42.351936]]],[[[-71.057754,42.349965],[-71.057734,42.349943],[-71.057507,42.349923],[-71.057521,42.349893],[-71.057485,42.349867],[-71.05702,42.349827],[-71.056748,42.349818],[-71.05673,42.349849],[-71.056748,42.349862],[-71.056975,42.349882],[-71.05696,42.349894],[-71.056725,42.349879],[-71.056691,42.34989],[-71.056676,42.349915],[-71.056691,42.34994],[-71.056725,42.349951],[-71.057505,42.350017],[-71.057539,42.350007],[-71.057554,42.349981],[-71.057721,42.349989],[-71.057754,42.349965]]],[[[-71.057722,42.351991],[-71.057704,42.351978],[-71.05728,42.351942],[-71.057262,42.351955],[-71.05728,42.351968],[-71.057704,42.352005],[-71.057722,42.351991]]],[[[-71.057666,42.351449],[-71.057648,42.351436],[-71.05719,42.351397],[-71.057172,42.35141],[-71.05719,42.351423],[-71.057648,42.351463],[-71.057666,42.351449]]],[[[-71.057656,42.350589],[-71.057541,42.35056],[-71.057076,42.35052],[-71.057058,42.350533],[-71.057173,42.350562],[-71.057638,42.350603],[-71.057656,42.350589]]],[[[-71.057628,42.349828],[-71.057589,42.349799],[-71.05679,42.349731],[-71.056751,42.34976],[-71.05679,42.349789],[-71.057589,42.349857],[-71.057628,42.349828]]],[[[-71.057605,42.350671],[-71.057587,42.350658],[-71.057129,42.350619],[-71.057116,42.350641],[-71.056625,42.3506],[-71.056607,42.350613],[-71.056625,42.350626],[-71.057186,42.350674],[-71.057199,42.350651],[-71.057587,42.350685],[-71.057605,42.350671]]],[[[-71.057509,42.350072],[-71.057494,42.350047],[-71.05746,42.350036],[-71.05668,42.34997],[-71.056646,42.349981],[-71.056631,42.350006],[-71.056646,42.350031],[-71.05668,42.350042],[-71.05746,42.350108],[-71.057494,42.350098],[-71.057509,42.350072]]],[[[-71.057429,42.352076],[-71.057411,42.352062],[-71.057266,42.35205],[-71.057275,42.352039],[-71.057256,42.352025],[-71.05673,42.351981],[-71.056712,42.351994],[-71.05673,42.352007],[-71.05684,42.352017],[-71.056832,42.352028],[-71.05685,42.352041],[-71.057411,42.352089],[-71.057429,42.352076]]],[[[-71.057356,42.350153],[-71.057327,42.350132],[-71.05663,42.350072],[-71.056601,42.350094],[-71.05663,42.350116],[-71.057327,42.350175],[-71.057356,42.350153]]],[[[-71.057354,42.350247],[-71.057321,42.350223],[-71.05659,42.350161],[-71.05656,42.350176],[-71.056578,42.350207],[-71.056799,42.350227],[-71.056816,42.350243],[-71.057274,42.350283],[-71.057334,42.350269],[-71.057354,42.350247]]],[[[-71.057289,42.353259],[-71.057263,42.35324],[-71.057137,42.35323],[-71.057154,42.353216],[-71.057135,42.353201],[-71.05654,42.353151],[-71.056521,42.353165],[-71.056597,42.353184],[-71.056574,42.353203],[-71.0566,42.353222],[-71.057263,42.353279],[-71.057289,42.353259]]],[[[-71.057256,42.350346],[-71.057238,42.350333],[-71.05678,42.350294],[-71.056762,42.350307],[-71.05678,42.35032],[-71.057238,42.35036],[-71.057256,42.350346]]],[[[-71.057169,42.350728],[-71.057151,42.350714],[-71.05659,42.350667],[-71.056572,42.35068],[-71.05659,42.350693],[-71.057151,42.350741],[-71.057169,42.350728]]],[[[-71.057079,42.353178],[-71.057008,42.353159],[-71.05702,42.353137],[-71.057007,42.353128],[-71.056696,42.353101],[-71.056695,42.353077],[-71.05623,42.353037],[-71.056212,42.35305],[-71.05623,42.353063],[-71.056361,42.353075],[-71.056349,42.353096],[-71.056361,42.353106],[-71.056457,42.353114],[-71.056447,42.353133],[-71.056458,42.35314],[-71.05706,42.353192],[-71.057079,42.353178]]],[[[-71.057029,42.351968],[-71.057011,42.351954],[-71.056812,42.351937],[-71.056794,42.351923],[-71.05637,42.351887],[-71.056352,42.3519],[-71.05645,42.351933],[-71.057011,42.351981],[-71.057029,42.351968]]],[[[-71.056969,42.354726],[-71.056943,42.354707],[-71.05628,42.354651],[-71.056256,42.354663],[-71.05628,42.354689],[-71.056943,42.354746],[-71.056969,42.354726]]],[[[-71.056959,42.351145],[-71.056941,42.351131],[-71.05638,42.351084],[-71.056362,42.351097],[-71.05638,42.35111],[-71.056941,42.351158],[-71.056959,42.351145]]],[[[-71.056904,42.354801],[-71.056885,42.354786],[-71.05629,42.354736],[-71.056271,42.35475],[-71.05629,42.354764],[-71.056885,42.354815],[-71.056904,42.354801]]],[[[-71.056899,42.354978],[-71.056881,42.354964],[-71.05632,42.354917],[-71.056302,42.35493],[-71.05632,42.354943],[-71.056881,42.354991],[-71.056899,42.354978]]],[[[-71.056889,42.354884],[-71.056871,42.35487],[-71.05631,42.354823],[-71.056292,42.354836],[-71.05631,42.354849],[-71.056871,42.354897],[-71.056889,42.354884]]],[[[-71.056886,42.351069],[-71.056868,42.351056],[-71.05641,42.351017],[-71.056397,42.35104],[-71.056168,42.351023],[-71.05615,42.351036],[-71.056168,42.351049],[-71.056729,42.351097],[-71.056741,42.351074],[-71.056868,42.351083],[-71.056886,42.351069]]],[[[-71.056822,42.351215],[-71.056691,42.351179],[-71.05613,42.351132],[-71.056112,42.351145],[-71.05613,42.351158],[-71.056328,42.351175],[-71.056346,42.351189],[-71.056804,42.351229],[-71.056822,42.351215]]],[[[-71.056787,42.350981],[-71.056769,42.350967],[-71.056208,42.35092],[-71.05619,42.350933],[-71.056208,42.350946],[-71.056769,42.350994],[-71.056787,42.350981]]],[[[-71.056751,42.351418],[-71.056732,42.351404],[-71.05624,42.351363],[-71.055959,42.351342],[-71.055941,42.351355],[-71.055959,42.351368],[-71.05652,42.351416],[-71.056732,42.351431],[-71.056751,42.351418]]],[[[-71.056732,42.351453],[-71.056713,42.351439],[-71.056221,42.351398],[-71.056208,42.351421],[-71.055935,42.351399],[-71.055917,42.351412],[-71.055935,42.351425],[-71.056173,42.351446],[-71.05619,42.351463],[-71.056682,42.351505],[-71.056695,42.351482],[-71.056513,42.351464],[-71.056508,42.35145],[-71.056713,42.351466],[-71.056732,42.351453]]],[[[-71.056649,42.352292],[-71.056634,42.352267],[-71.0566,42.352256],[-71.05582,42.35219],[-71.055786,42.352201],[-71.055775,42.35224],[-71.055737,42.352276],[-71.055752,42.352301],[-71.055786,42.352312],[-71.056566,42.352378],[-71.0566,42.352368],[-71.056611,42.352329],[-71.056649,42.352292]]],[[[-71.056571,42.351752],[-71.056552,42.351738],[-71.05606,42.351697],[-71.056042,42.35171],[-71.05606,42.351723],[-71.056552,42.351765],[-71.056571,42.351752]]],[[[-71.05652,42.353398],[-71.056487,42.353374],[-71.055756,42.353312],[-71.055726,42.353327],[-71.055733,42.353353],[-71.055756,42.35336],[-71.056487,42.353422],[-71.05652,42.353398]]],[[[-71.056481,42.35153],[-71.056463,42.351516],[-71.055902,42.351469],[-71.055884,42.351482],[-71.055902,42.351495],[-71.056463,42.351543],[-71.056481,42.35153]]],[[[-71.056449,42.351609],[-71.056431,42.351595],[-71.05587,42.351548],[-71.055852,42.351561],[-71.05587,42.351574],[-71.056431,42.351622],[-71.056449,42.351609]]],[[[-71.056421,42.353453],[-71.056392,42.353432],[-71.055695,42.353372],[-71.055666,42.353394],[-71.055695,42.353416],[-71.056392,42.353475],[-71.056421,42.353453]]],[[[-71.05642,42.35167],[-71.056402,42.351656],[-71.055841,42.351609],[-71.055823,42.351622],[-71.055841,42.351635],[-71.056402,42.351683],[-71.05642,42.35167]]],[[[-71.056369,42.351775],[-71.056351,42.351761],[-71.05579,42.351714],[-71.055772,42.351727],[-71.05579,42.35174],[-71.056351,42.351788],[-71.056369,42.351775]]],[[[-71.056349,42.351824],[-71.056331,42.35181],[-71.05577,42.351763],[-71.055752,42.351776],[-71.05577,42.351789],[-71.056331,42.351837],[-71.056349,42.351824]]],[[[-71.05624,42.353481],[-71.056221,42.353466],[-71.055626,42.353416],[-71.055607,42.35343],[-71.055626,42.353444],[-71.056221,42.353495],[-71.05624,42.353481]]],[[[-71.056119,42.353545],[-71.056101,42.353531],[-71.05554,42.353484],[-71.055522,42.353497],[-71.05554,42.35351],[-71.056101,42.353558],[-71.056119,42.353545]]],[[[-71.055991,42.353572],[-71.055972,42.353558],[-71.05548,42.353517],[-71.055462,42.35353],[-71.05548,42.353543],[-71.055972,42.353585],[-71.055991,42.353572]]],[[[-71.055936,42.353731],[-71.055918,42.353711],[-71.05572,42.353694],[-71.055702,42.353679],[-71.055244,42.35364],[-71.055189,42.353657],[-71.055187,42.353685],[-71.055147,42.3537],[-71.05517,42.353717],[-71.055799,42.35377],[-71.055822,42.353754],[-71.055918,42.353751],[-71.055936,42.353731]]]]},"properties":{"kind":"tree"}}]}