{"type":"FeatureCollection","features":[{"type":"Feature","geometry":{"type":"MultiPolygon","coordinates":[[[[-71.068358,42.35213],[-71.068335,42.351996],[-71.068107,42.351481],[-71.068079,42.351151],[-71.066678,42.35083],[-71.066687,42.350793],[-71.066843,42.350785],[-71.066825,42.350565],[-71.066196,42.350421],[-71.066194,42.350395],[-71.067071,42.350596],[-71.067258,42.350623],[-71.067646,42.350615],[-71.06762,42.350364],[-71.067687,42.350375],[-71.067726,42.350322],[-71.067667,42.350255],[-71.067564,42.350231],[-71.067506,42.350165],[-71.066429,42.349918],[-71.066448,42.349829],[-71.066496,42.34984],[-71.066573,42.349816],[-71.066584,42.349779],[-71.066567,42.349724],[-71.066607,42.34969],[-71.066616,42.349648],[-71.066385,42.349576],[-71.066439,42.349559],[-71.066383,42.349461],[-71.066051,42.349385],[-71.065989,42.349405],[-71.066039,42.349497],[-71.065737,42.349459],[-71.065809,42.349421],[-71.065799,42.349409],[-71.065895,42.349431],[-71.066157,42.349308],[-71.065929,42.349043],[-71.065565,42.34896],[-71.065563,42.348857],[-71.065519,42.348743],[-71.064992,42.348617],[-71.064341,42.348545],[-71.063945,42.348463],[-71.063232,42.348344],[-71.063253,42.348297],[-71.063571,42.348341],[-71.063578,42.348319],[-71.063634,42.348322],[-71.063658,42.34826],[-71.064457,42.348391],[-71.066012,42.348746],[-71.066377,42.348802],[-71.066406,42.348758],[-71.066492,42.348771],[-71.066506,42.348721],[-71.066925,42.348817],[-71.067463,42.34888],[-71.067491,42.34876],[-71.067221,42.348698],[-71.067228,42.348664],[-71.067322,42.348676],[-71.06734,42.348584],[-71.06725,42.348563],[-71.067293,42.348361],[-71.065995,42.348062],[-71.065837,42.348044],[-71.065762,42.348396],[-71.065516,42.34834],[-71.065495,42.348317],[-71.06561,42.348206],[-71.065619,42.348162],[-71.065566,42.348082],[-71.065714,42.347985],[-71.065721,42.347955],[-71.065827,42.347881],[-71.065828,42.347794],[-71.065766,42.34776],[-71.065257,42.347643],[-71.064894,42.347587],[-71.064503,42.347783],[-71.064404,42.34801],[-71.064088,42.347938],[-71.063968,42.347919],[-71.063939,42.347942],[-71.06346,42.347843],[-71.063411,42.348023],[-71.06337,42.348013],[-71.063381,42.347987],[-71.061712,42.347604],[-71.061566,42.347954],[-71.061555,42.348046],[-71.062032,42.348156],[-71.061907,42.348129],[-71.061843,42.348287],[-71.061011,42.348097],[-71.060549,42.348739],[-71.061102,42.348868],[-71.061094,42.348905],[-71.061161,42.348956],[-71.060878,42.348902],[-71.060775,42.349167],[-71.060321,42.349063],[-71.060204,42.349326],[-71.059994,42.349879],[-71.05972,42.349817],[-71.059756,42.349728],[-71.058738,42.349495],[-71.058755,42.349452],[-71.057926,42.349266],[-71.057859,42.349433],[-71.058003,42.349466],[-71.057962,42.349568],[-71.057872,42.349548],[-71.057853,42.349597],[-71.059214,42.349906],[-71.059219,42.349893],[-71.059434,42.349942],[-71.059445,42.349916],[-71.059662,42.349964],[-71.059695,42.34988],[-71.059968,42.349942],[-71.059925,42.350048],[-71.060391,42.35018],[-71.06038,42.350207],[-71.061232,42.350437],[-71.061681,42.35054],[-71.061673,42.350559],[-71.062184,42.350689],[-71.064248,42.351167],[-71.063934,42.351133],[-71.063929,42.35115],[-71.063049,42.351044],[-71.063034,42.351079],[-71.062621,42.351004],[-71.061784,42.350808],[-71.061647,42.350765],[-71.061649,42.350746],[-71.061374,42.350669],[-71.060722,42.35052],[-71.060727,42.350507],[-71.060256,42.350385],[-71.060224,42.350352],[-71.057473,42.349741],[-71.057625,42.349428],[-71.057441,42.349386],[-71.057449,42.349353],[-71.056596,42.349149],[-71.05634,42.349222],[-71.057325,42.34775],[-71.057315,42.347691],[-71.05655,42.347409],[-71.055908,42.347262],[-71.054533,42.349309],[-71.05452,42.349427],[-71.054447,42.34941],[-71.053477,42.350853],[-71.054337,42.351171],[-71.054627,42.351237],[-71.054649,42.351203],[-71.055148,42.351317],[-71.055431,42.350955],[-71.055595,42.350713],[-71.056226,42.350854],[-71.056577,42.35085],[-71.05656,42.350888],[-71.057019,42.351],[-71.056996,42.351052],[-71.056543,42.350948],[-71.056401,42.351249],[-71.056756,42.351393],[-71.056849,42.351414],[-71.056841,42.351433],[-71.056982,42.351489],[-71.056294,42.351331],[-71.056116,42.351686],[-71.055498,42.351545],[-71.054479,42.351779],[-71.054307,42.351954],[-71.054833,42.352232],[-71.054993,42.352283],[-71.055965,42.352505],[-71.056034,42.352612],[-71.057022,42.352838],[-71.057092,42.352828],[-71.057323,42.352881],[-71.057163,42.352943],[-71.05712,42.352979],[-71.057102,42.35306],[-71.057149,42.353124],[-71.057259,42.353188],[-71.058058,42.353371],[-71.05798,42.35339],[-71.057942,42.353487],[-71.056237,42.353097],[-71.055998,42.353225],[-71.056024,42.353323],[-71.055897,42.353294],[-71.055573,42.353469],[-71.055603,42.3535],[-71.055421,42.353589],[-71.055397,42.353615],[-71.055342,42.353603],[-71.054915,42.353838],[-71.055015,42.353939],[-71.054851,42.353901],[-71.054793,42.353902],[-71.054378,42.354122],[-71.054355,42.354162],[-71.054364,42.354206],[-71.054619,42.354471],[-71.054892,42.354536],[-71.054775,42.354643],[-71.05498,42.354839],[-71.055598,42.35498],[-71.055688,42.355479],[-71.058252,42.356066],[-71.058367,42.356071],[-71.058674,42.356041],[-71.061598,42.35671],[-71.06205,42.356666],[-71.061949,42.356087],[-71.061335,42.355947],[-71.06132,42.355836],[-71.061217,42.355795],[-71.062188,42.356017],[-71.062434,42.355803],[-71.062497,42.355725],[-71.062281,42.355541],[-71.062199,42.355497],[-71.061729,42.35539],[-71.061808,42.355333],[-71.062283,42.355441],[-71.062444,42.355266],[-71.062888,42.355368],[-71.063002,42.355246],[-71.063342,42.355324],[-71.063369,42.355296],[-71.063972,42.355417],[-71.064031,42.35534],[-71.06377,42.355208],[-71.06379,42.355187],[-71.064589,42.355368],[-71.064633,42.355359],[-71.064754,42.355137],[-71.065924,42.355405],[-71.065955,42.355407],[-71.06599,42.355309],[-71.066322,42.355385],[-71.066611,42.354849],[-71.066305,42.354762],[-71.066324,42.354728],[-71.066108,42.354659],[-71.065133,42.354436],[-71.065145,42.354416],[-71.065558,42.35451],[-71.065627,42.35442],[-71.065824,42.354464],[-71.065864,42.354456],[-71.065889,42.354421],[-71.067022,42.354679],[-71.067508,42.354677],[-71.067547,42.354424],[-71.064917,42.353822],[-71.064958,42.353676],[-71.06491,42.35364],[-71.06463,42.353576],[-71.064639,42.353549],[-71.064173,42.353442],[-71.064404,42.353461],[-71.064514,42.353486],[-71.065267,42.353543],[-71.067309,42.35401],[-71.067492,42.354013],[-71.068031,42.354137],[-71.068085,42.35404],[-71.067999,42.353641],[-71.066042,42.35319],[-71.066073,42.353057],[-71.065735,42.352979],[-71.065753,42.352866],[-71.065935,42.352883],[-71.066008,42.352619],[-71.066107,42.352642],[-71.066839,42.352723],[-71.066845,42.352687],[-71.066934,42.352691],[-71.06694,42.352654],[-71.067076,42.352685],[-71.067273,42.3527],[-71.06732,42.352412],[-71.066983,42.352335],[-71.066986,42.352313],[-71.067543,42.352402],[-71.067569,42.352309],[-71.067692,42.352214],[-71.067717,42.352129],[-71.067626,42.352108],[-71.068175,42.352175],[-71.068358,42.35213]],[[-71.065903,42.350329],[-71.065758,42.350337],[-71.065759,42.350361],[-71.065733,42.350363],[-71.065687,42.350288],[-71.065903,42.350329]],[[-71.065515,42.349488],[-71.065473,42.349686],[-71.065367,42.349662],[-71.065408,42.349464],[-71.065515,42.349488]],[[-71.0645,42.351184],[-71.064298,42.351172],[-71.064328,42.351144],[-71.0645,42.351184]],[[-71.06429,42.351718],[-71.064275,42.351786],[-71.064108,42.351747],[-71.064115,42.351716],[-71.063902,42.351665],[-71.063548,42.351622],[-71.063561,42.351573],[-71.063734,42.351593],[-71.06429,42.351718]],[[-71.063708,42.35142],[-71.063602,42.351405],[-71.063605,42.351396],[-71.063708,42.35142]],[[-71.063551,42.349001],[-71.063319,42.348936],[-71.063359,42.348839],[-71.063514,42.348862],[-71.063551,42.349001]],[[-71.06344,42.353343],[-71.06313,42.353324],[-71.063319,42.353316],[-71.06344,42.353343]],[[-71.062769,42.354835],[-71.062678,42.354814],[-71.062703,42.354787],[-71.062766,42.354801],[-71.062746,42.354823],[-71.062769,42.354835]],[[-71.062729,42.349393],[-71.06225,42.349288],[-71.062265,42.349251],[-71.062241,42.349245],[-71.06226,42.349199],[-71.062386,42.349253],[-71.062569,42.3493],[-71.062552,42.34932],[-71.062729,42.349393]],[[-71.06271,42.352487],[-71.062707,42.352487],[-71.062707,42.352487],[-71.06271,42.352487]],[[-71.062677,42.352511],[-71.062675,42.352543],[-71.062615,42.35253],[-71.062614,42.352519],[-71.062677,42.352511]],[[-71.062565,42.351123],[-71.061805,42.350949],[-71.061822,42.350904],[-71.062408,42.351037],[-71.062553,42.351077],[-71.062565,42.351123]],[[-71.062224,42.349287],[-71.062222,42.349288],[-71.062222,42.349287],[-71.062224,42.349287]],[[-71.062007,42.352229],[-71.061887,42.352201],[-71.061804,42.352207],[-71.061557,42.352156],[-71.061555,42.35213],[-71.061537,42.352126],[-71.061623,42.352115],[-71.061718,42.352136],[-71.061723,42.35216],[-71.062007,42.352229]],[[-71.061605,42.351536],[-71.061289,42.351543],[-71.061301,42.351604],[-71.059758,42.351262],[-71.059709,42.351391],[-71.059775,42.351838],[-71.059626,42.351804],[-71.059386,42.351848],[-71.059417,42.352056],[-71.059226,42.352012],[-71.059198,42.352022],[-71.059209,42.351987],[-71.059197,42.35197],[-71.057944,42.351695],[-71.05795,42.351664],[-71.05824,42.35173],[-71.059,42.35185],[-71.059006,42.351836],[-71.059181,42.351875],[-71.059369,42.351697],[-71.059483,42.35156],[-71.059613,42.351356],[-71.059661,42.351244],[-71.05719,42.350654],[-71.057197,42.350616],[-71.057038,42.350575],[-71.057079,42.350494],[-71.058721,42.350897],[-71.059896,42.351163],[-71.059951,42.351147],[-71.060128,42.350711],[-71.060165,42.350719],[-71.059972,42.351168],[-71.061605,42.351536]],[[-71.061526,42.35093],[-71.061466,42.351126],[-71.061029,42.351022],[-71.061073,42.35091],[-71.060969,42.350886],[-71.060999,42.350812],[-71.061526,42.35093]],[[-71.060299,42.352763],[-71.060289,42.352796],[-71.059318,42.352574],[-71.058902,42.352524],[-71.058384,42.352537],[-71.056668,42.352138],[-71.056761,42.351942],[-71.057699,42.352167],[-71.057928,42.35224],[-71.059026,42.352491],[-71.059046,42.352485],[-71.059069,42.352417],[-71.060191,42.352674],[-71.060197,42.35274],[-71.060299,42.352763]]],[[[-71.059778,42.349097],[-71.057613,42.348605],[-71.057529,42.348814],[-71.059695,42.349306],[-71.059778,42.349097]]]]},"properties":{"kind":"building"}},{"type":"Feature","geometry":{"type":"MultiPolygon","coordinates":[[[[-71.066708,42.3536],[-71.066697,42.353558],[-71.066618,42.3535],[-71.066134,42.353389],[-71.066153,42.353368],[-71.066299,42.3534],[-71.066371,42.3534],[-71.066401,42.353385],[-71.066429,42.353336],[-71.066401,42.353287],[-71.066325,42.353261],[-71.066357,42.353237],[-71.066508,42.353268],[-71.066554,42.353261],[-71.066619,42.353213],[-71.066628,42.353179],[-71.066596,42.353119],[-71.066671,42.353063],[-71.066682,42.353022],[-71.066671,42.35298],[-71.066639,42.352945],[-71.066592,42.352922],[-71.066139,42.352818],[-71.066163,42.352774],[-71.066137,42.352727],[-71.066411,42.352747],[-71.066451,42.352718],[-71.066457,42.352697],[-71.066435,42.352658],[-71.065947,42.352542],[-71.065905,42.352553],[-71.065688,42.352518],[-71.065635,42.352534],[-71.065615,42.352565],[-71.065361,42.35251],[-71.065288,42.352533],[-71.065265,42.352558],[-71.065049,42.352515],[-71.064975,42.352515],[-71.064922,42.352553],[-71.064915,42.352581],[-71.064943,42.352632],[-71.064975,42.352647],[-71.065536,42.352773],[-71.065634,42.352744],[-71.065612,42.352784],[-71.065525,42.352783],[-71.065477,42.352816],[-71.065168,42.352745],[-71.065105,42.352754],[-71.065088,42.352785],[-71.065105,42.352816],[-71.065081,42.352852],[-71.065094,42.352876],[-71.065032,42.352908],[-71.065032,42.352948],[-71.065071,42.352977],[-71.065207,42.353008],[-71.065185,42.353023],[-71.064745,42.352926],[-71.06466,42.352952],[-71.064625,42.353015],[-71.064656,42.353073],[-71.064658,42.353148],[-71.064758,42.353233],[-71.064925,42.353284],[-71.064659,42.353241],[-71.064617,42.353248],[-71.064557,42.353292],[-71.064557,42.353354],[-71.064617,42.353398],[-71.06488,42.353459],[-71.06488,42.353498],[-71.064909,42.353522],[-71.064631,42.353462],[-71.06456,42.353483],[-71.064538,42.353508],[-71.064538,42.353564],[-71.064592,42.353605],[-71.065167,42.353733],[-71.065206,42.353727],[-71.06526,42.353687],[-71.06526,42.35363],[-71.065215,42.353595],[-71.065447,42.353632],[-71.065426,42.353665],[-71.065444,42.353697],[-71.065532,42.353723],[-71.065513,42.353739],[-71.065513,42.353773],[-71.065348,42.353739],[-71.0653,42.353753],[-71.06528,42.353789],[-71.065285,42.353808],[-71.065322,42.353836],[-71.065388,42.353851],[-71.065387,42.353881],[-71.065225,42.353846],[-71.065181,42.35386],[-71.065168,42.353909],[-71.065259,42.353947],[-71.06525,42.35397],[-71.065216,42.353968],[-71.065048,42.353905],[-71.064795,42.353847],[-71.064841,42.353819],[-71.064841,42.353783],[-71.064875,42.353749],[-71.064875,42.353713],[-71.06484,42.353687],[-71.064393,42.353596],[-71.064358,42.353622],[-71.064358,42.353658],[-71.064324,42.353692],[-71.064332,42.353737],[-71.064296,42.353748],[-71.06428,42.353777],[-71.064296,42.353806],[-71.064333,42.353819],[-71.064258,42.353857],[-71.064258,42.353905],[-71.064238,42.353945],[-71.064262,42.353987],[-71.064288,42.354],[-71.064486,42.354046],[-71.06446,42.354058],[-71.064295,42.354023],[-71.064238,42.354041],[-71.064214,42.354083],[-71.064248,42.354131],[-71.064178,42.354117],[-71.064125,42.354133],[-71.064103,42.354172],[-71.064148,42.354222],[-71.064088,42.354236],[-71.064069,42.35427],[-71.064088,42.354304],[-71.064127,42.354318],[-71.064179,42.354369],[-71.064036,42.354339],[-71.063979,42.354357],[-71.063955,42.354399],[-71.063968,42.35443],[-71.063903,42.354482],[-71.063892,42.354523],[-71.063903,42.354564],[-71.063935,42.354599],[-71.063982,42.354623],[-71.064204,42.354673],[-71.064161,42.354697],[-71.063878,42.354645],[-71.063818,42.354663],[-71.0638,42.354683],[-71.063799,42.354726],[-71.06352,42.354664],[-71.063475,42.354686],[-71.063475,42.354714],[-71.063501,42.354733],[-71.063752,42.354791],[-71.063797,42.354833],[-71.064245,42.354936],[-71.064305,42.354936],[-71.06433,42.354923],[-71.064353,42.354882],[-71.064409,42.35486],[-71.064741,42.354928],[-71.064703,42.354986],[-71.064734,42.35504],[-71.064767,42.355057],[-71.065356,42.355188],[-71.065396,42.355182],[-71.065452,42.355141],[-71.06546,42.355112],[-71.065429,42.355057],[-71.064847,42.354915],[-71.064777,42.354914],[-71.064797,42.354878],[-71.064776,42.35484],[-71.064625,42.3548],[-71.064625,42.354789],[-71.065266,42.354915],[-71.065308,42.354915],[-71.065336,42.354895],[-71.066138,42.35507],[-71.066414,42.355112],[-71.066451,42.355085],[-71.066451,42.355047],[-71.066414,42.355019],[-71.066306,42.354994],[-71.066299,42.354951],[-71.066272,42.354922],[-71.065881,42.354821],[-71.06581,42.354795],[-71.065761,42.354747],[-71.065485,42.354673],[-71.065469,42.354648],[-71.065405,42.354628],[-71.065434,42.354602],[-71.065451,42.354546],[-71.065433,42.354514],[-71.065137,42.354441],[-71.065174,42.354397],[-71.06525,42.354412],[-71.065298,42.354388],[-71.065286,42.354346],[-71.065149,42.35431],[-71.065184,42.35428],[-71.065234,42.354272],[-71.065435,42.354304],[-71.065467,42.354281],[-71.065454,42.354234],[-71.065063,42.354139],[-71.065005,42.354146],[-71.064816,42.354103],[-71.064837,42.354093],[-71.065146,42.354151],[-71.065212,42.354119],[-71.065562,42.354192],[-71.065603,42.35418],[-71.06562,42.354149],[-71.065603,42.354119],[-71.065552,42.354102],[-71.065558,42.354082],[-71.065712,42.354109],[-71.065758,42.354095],[-71.065777,42.354061],[-71.065844,42.354069],[-71.065855,42.354106],[-71.06594,42.35413],[-71.065924,42.354146],[-71.065931,42.354158],[-71.066189,42.354215],[-71.066201,42.354193],[-71.066242,42.354191],[-71.066272,42.354157],[-71.066305,42.354149],[-71.066313,42.354118],[-71.066062,42.35405],[-71.066094,42.354029],[-71.066083,42.35399],[-71.065944,42.353954],[-71.065931,42.353918],[-71.065824,42.353889],[-71.065821,42.353864],[-71.065939,42.353884],[-71.06598,42.353872],[-71.065993,42.353825],[-71.065908,42.353789],[-71.06593,42.35377],[-71.06593,42.353736],[-71.066098,42.353765],[-71.066154,42.353756],[-71.066233,42.353698],[-71.066239,42.353638],[-71.066562,42.353708],[-71.066665,42.353676],[-71.066697,42.353641],[-71.066708,42.3536]],[[-71.065524,42.352915],[-71.06551,42.352917],[-71.065506,42.352912],[-71.065524,42.352915]],[[-71.065064,42.354784],[-71.064907,42.354757],[-71.064877,42.354779],[-71.064886,42.354821],[-71.064802,42.354802],[-71.064814,42.354777],[-71.064798,42.354748],[-71.064805,42.354732],[-71.064877,42.354727],[-71.065052,42.354765],[-71.065064,42.354784]],[[-71.064857,42.354277],[-71.064683,42.354255],[-71.064667,42.354234],[-71.064857,42.354277]]],[[[-71.066515,42.354617],[-71.066505,42.35458],[-71.066435,42.354528],[-71.065785,42.354379],[-71.065685,42.354379],[-71.065643,42.3544],[-71.065605,42.354468],[-71.065643,42.354536],[-71.065685,42.354557],[-71.066335,42.354705],[-71.066435,42.354705],[-71.066477,42.354685],[-71.066515,42.354617]]],[[[-71.066227,42.348129],[-71.066187,42.348085],[-71.06579,42.347994],[-71.065719,42.348004],[-71.0657,42.348038],[-71.06574,42.348082],[-71.066137,42.348173],[-71.066187,42.348173],[-71.066227,42.348129]]],[[[-71.066149,42.348262],[-71.066115,42.348225],[-71.065537,42.348098],[-71.065513,42.348105],[-71.065523,42.348122],[-71.065688,42.34816],[-71.065684,42.348196],[-71.065714,42.348218],[-71.066094,42.348303],[-71.066133,42.348291],[-71.066149,42.348262]]],[[[-71.06611,42.348531],[-71.066074,42.348491],[-71.065885,42.348448],[-71.065918,42.348436],[-71.065936,42.348404],[-71.065898,42.348362],[-71.06549,42.34827],[-71.065433,42.348299],[-71.065433,42.348333],[-71.065466,42.348358],[-71.065669,42.348404],[-71.065626,42.348429],[-71.065626,42.348463],[-71.065469,42.34843],[-71.065439,42.34844],[-71.065451,42.348462],[-71.066052,42.348574],[-71.066093,42.348562],[-71.06611,42.348531]]],[[[-71.065898,42.348332],[-71.065717,42.348281],[-71.065693,42.348288],[-71.065703,42.348305],[-71.065873,42.348344],[-71.065898,42.348332]]],[[[-71.065848,42.349302],[-71.065817,42.349269],[-71.065529,42.349203],[-71.065476,42.349211],[-71.065461,42.349236],[-71.065491,42.349269],[-71.06578,42.349335],[-71.065817,42.349335],[-71.065848,42.349302]]],[[[-71.065783,42.351268],[-71.065577,42.351211],[-71.065553,42.351218],[-71.065563,42.351235],[-71.065758,42.35128],[-71.065783,42.351268]]],[[[-71.065755,42.348993],[-71.065587,42.348945],[-71.065563,42.348952],[-71.06536,42.348914],[-71.065324,42.34894],[-71.065346,42.348964],[-71.065643,42.349031],[-71.065669,42.349023],[-71.065676,42.348995],[-71.065744,42.349005],[-71.065755,42.348993]]],[[[-71.065722,42.348856],[-71.065691,42.348823],[-71.065403,42.348757],[-71.06535,42.348765],[-71.065335,42.34879],[-71.065365,42.348823],[-71.065654,42.348889],[-71.065691,42.348889],[-71.065722,42.348856]]],[[[-71.065719,42.34913],[-71.06533,42.349034],[-71.065296,42.349045],[-71.065281,42.34907],[-71.065311,42.349103],[-71.065664,42.349182],[-71.065698,42.349172],[-71.065719,42.34913]]],[[[-71.065551,42.351252],[-71.065357,42.351198],[-71.065333,42.351215],[-71.065233,42.351205],[-71.065243,42.351222],[-71.065413,42.351261],[-71.065437,42.351244],[-71.065525,42.351264],[-71.065551,42.351252]]],[[[-71.065421,42.350776],[-71.065414,42.350763],[-71.06516,42.350702],[-71.065126,42.350713],[-71.06514,42.350738],[-71.065386,42.350794],[-71.065421,42.350776]]],[[[-71.065396,42.35084],[-71.065389,42.350827],[-71.065135,42.350766],[-71.065101,42.350777],[-71.065115,42.350802],[-71.065361,42.350858],[-71.065396,42.35084]]],[[[-71.06535,42.350903],[-71.065117,42.35084],[-71.065092,42.350847],[-71.065103,42.350866],[-71.065323,42.350917],[-71.06535,42.350903]]],[[[-71.065127,42.351352],[-71.064933,42.351298],[-71.064909,42.351305],[-71.064919,42.351322],[-71.065101,42.351364],[-71.065127,42.351352]]],[[[-71.065027,42.348495],[-71.064846,42.348444],[-71.064822,42.348451],[-71.064832,42.348468],[-71.065002,42.348507],[-71.065027,42.348495]]],[[[-71.064794,42.351865],[-71.064613,42.351814],[-71.064589,42.351821],[-71.064599,42.351838],[-71.064769,42.351877],[-71.064794,42.351865]]],[[[-71.064791,42.348464],[-71.06461,42.348413],[-71.064401,42.348394],[-71.064411,42.348411],[-71.064581,42.34845],[-71.064605,42.348443],[-71.064766,42.348476],[-71.064791,42.348464]]],[[[-71.064785,42.352154],[-71.064552,42.352091],[-71.064527,42.352098],[-71.064538,42.352117],[-71.064758,42.352168],[-71.064785,42.352154]]],[[[-71.064751,42.352097],[-71.064557,42.352043],[-71.064533,42.35205],[-71.064543,42.352067],[-71.064725,42.352109],[-71.064751,42.352097]]],[[[-71.064718,42.352199],[-71.064537,42.352148],[-71.064513,42.352155],[-71.064523,42.352172],[-71.064693,42.352211],[-71.064718,42.352199]]],[[[-71.064442,42.348773],[-71.064195,42.348704],[-71.064165,42.348714],[-71.064177,42.348736],[-71.06441,42.348789],[-71.064442,42.348773]]],[[[-71.064408,42.350964],[-71.064227,42.350913],[-71.063934,42.350874],[-71.063895,42.350903],[-71.063675,42.350859],[-71.063599,42.35086],[-71.063137,42.350752],[-71.063112,42.350759],[-71.063123,42.350778],[-71.063334,42.350827],[-71.063342,42.35084],[-71.063933,42.350967],[-71.063969,42.350962],[-71.063978,42.350943],[-71.064215,42.350997],[-71.064321,42.351],[-71.064344,42.350993],[-71.064351,42.350969],[-71.064397,42.350976],[-71.064408,42.350964]]],[[[-71.064376,42.348888],[-71.064157,42.348828],[-71.064133,42.348835],[-71.064143,42.348852],[-71.064351,42.3489],[-71.064376,42.348888]]],[[[-71.064296,42.353348],[-71.063929,42.353252],[-71.063899,42.353262],[-71.063911,42.353284],[-71.064144,42.353337],[-71.064271,42.35336],[-71.064296,42.353348]]],[[[-71.06427,42.35344],[-71.064037,42.353377],[-71.063893,42.353369],[-71.063903,42.353386],[-71.064178,42.35345],[-71.064258,42.353454],[-71.06427,42.35344]]],[[[-71.064206,42.353808],[-71.063987,42.353748],[-71.063963,42.353755],[-71.063973,42.353772],[-71.064181,42.35382],[-71.064206,42.353808]]],[[[-71.064193,42.354029],[-71.064173,42.354007],[-71.063902,42.353945],[-71.06386,42.353958],[-71.063878,42.353989],[-71.064148,42.354051],[-71.064173,42.354051],[-71.064193,42.354029]]],[[[-71.064136,42.348725],[-71.063903,42.348662],[-71.063878,42.348669],[-71.063889,42.348688],[-71.064109,42.348739],[-71.064136,42.348725]]],[[[-71.064126,42.348796],[-71.063879,42.348727],[-71.063849,42.348737],[-71.063861,42.348759],[-71.064094,42.348812],[-71.064126,42.348796]]],[[[-71.0641,42.34892],[-71.063867,42.348857],[-71.063842,42.348864],[-71.063853,42.348883],[-71.064073,42.348934],[-71.0641,42.34892]]],[[[-71.064061,42.354176],[-71.064054,42.354163],[-71.0638,42.354102],[-71.063766,42.354113],[-71.06378,42.354138],[-71.064026,42.354194],[-71.064061,42.354176]]],[[[-71.064043,42.348832],[-71.063862,42.348781],[-71.063838,42.348788],[-71.063848,42.348805],[-71.064018,42.348844],[-71.064043,42.348832]]],[[[-71.063991,42.349187],[-71.06381,42.349136],[-71.063786,42.349143],[-71.063796,42.34916],[-71.063966,42.349199],[-71.063991,42.349187]]],[[[-71.063978,42.348466],[-71.063797,42.348415],[-71.063683,42.348405],[-71.063693,42.348422],[-71.063863,42.348461],[-71.063953,42.348478],[-71.063978,42.348466]]],[[[-71.063938,42.349332],[-71.063757,42.349281],[-71.063733,42.349288],[-71.063743,42.349305],[-71.063913,42.349344],[-71.063938,42.349332]]],[[[-71.063925,42.349374],[-71.063744,42.349323],[-71.06372,42.34933],[-71.06373,42.349347],[-71.0639,42.349386],[-71.063925,42.349374]]],[[[-71.06391,42.34981],[-71.063677,42.349747],[-71.063652,42.349754],[-71.063663,42.349773],[-71.063883,42.349824],[-71.06391,42.34981]]],[[[-71.06384,42.349902],[-71.063621,42.349842],[-71.063597,42.349849],[-71.063607,42.349866],[-71.063815,42.349914],[-71.06384,42.349902]]],[[[-71.0638,42.35],[-71.063567,42.349937],[-71.063542,42.349944],[-71.063553,42.349963],[-71.063773,42.350014],[-71.0638,42.35]]],[[[-71.063798,42.354866],[-71.063768,42.354833],[-71.063479,42.354767],[-71.063426,42.354775],[-71.063411,42.3548],[-71.063441,42.354833],[-71.06373,42.354899],[-71.063768,42.354899],[-71.063798,42.354866]]],[[[-71.063756,42.350048],[-71.063537,42.349988],[-71.063513,42.349995],[-71.063523,42.350012],[-71.063731,42.35006],[-71.063756,42.350048]]],[[[-71.063666,42.350466],[-71.063447,42.350406],[-71.063423,42.350413],[-71.063433,42.35043],[-71.063641,42.350478],[-71.063666,42.350466]]],[[[-71.063653,42.350225],[-71.063447,42.350168],[-71.063423,42.350175],[-71.063433,42.350192],[-71.063628,42.350237],[-71.063653,42.350225]]],[[[-71.063641,42.350824],[-71.063623,42.350804],[-71.063365,42.350745],[-71.063143,42.350722],[-71.063153,42.350739],[-71.063601,42.350844],[-71.063641,42.350824]]],[[[-71.063629,42.350532],[-71.063502,42.350493],[-71.063505,42.350472],[-71.063317,42.350428],[-71.063293,42.350445],[-71.063406,42.350476],[-71.063403,42.350497],[-71.063287,42.350471],[-71.063263,42.350478],[-71.063273,42.350495],[-71.063468,42.35054],[-71.063492,42.350522],[-71.063604,42.350544],[-71.063629,42.350532]]],[[[-71.063623,42.350291],[-71.063417,42.350234],[-71.063393,42.350241],[-71.063403,42.350258],[-71.063598,42.350303],[-71.063623,42.350291]]],[[[-71.063598,42.350325],[-71.063392,42.350268],[-71.063368,42.350275],[-71.063378,42.350292],[-71.063573,42.350337],[-71.063598,42.350325]]],[[[-71.06359,42.350754],[-71.063357,42.350691],[-71.063163,42.350672],[-71.063173,42.350689],[-71.06333,42.350725],[-71.063563,42.350768],[-71.06359,42.350754]]],[[[-71.063586,42.350592],[-71.063392,42.350538],[-71.063238,42.350531],[-71.063248,42.350548],[-71.063443,42.350593],[-71.063574,42.350604],[-71.063586,42.350592]]],[[[-71.063551,42.350652],[-71.063237,42.35057],[-71.063213,42.350577],[-71.063223,42.350594],[-71.063525,42.350664],[-71.063551,42.350652]]],[[[-71.063436,42.350678],[-71.063217,42.350618],[-71.063193,42.350625],[-71.063203,42.350642],[-71.063411,42.35069],[-71.063436,42.350678]]],[[[-71.063327,42.35228],[-71.063133,42.352226],[-71.063109,42.352243],[-71.062911,42.352208],[-71.062813,42.35221],[-71.062823,42.352227],[-71.06314,42.352307],[-71.063164,42.35229],[-71.063254,42.352304],[-71.063264,42.352287],[-71.063315,42.352292],[-71.063327,42.35228]]],[[[-71.06305,42.353352],[-71.062817,42.353289],[-71.062719,42.3533],[-71.062731,42.353322],[-71.062964,42.353375],[-71.06305,42.353352]]],[[[-71.06305,42.353264],[-71.062817,42.353201],[-71.062726,42.353201],[-71.062737,42.35322],[-71.062957,42.353271],[-71.063038,42.353278],[-71.06305,42.353264]]],[[[-71.062817,42.348413],[-71.062799,42.348393],[-71.062541,42.348334],[-71.062501,42.348354],[-71.062519,42.348374],[-71.062777,42.348433],[-71.062817,42.348413]]],[[[-71.062805,42.349444],[-71.062779,42.349415],[-71.0627,42.349397],[-71.062675,42.349365],[-71.06235,42.349292],[-71.06232,42.349301],[-71.062308,42.349323],[-71.062334,42.349352],[-71.062413,42.34937],[-71.062438,42.349402],[-71.062763,42.349475],[-71.062793,42.349466],[-71.062805,42.349444]]],[[[-71.062705,42.348441],[-71.062681,42.348414],[-71.062385,42.348346],[-71.062342,42.348353],[-71.062331,42.348373],[-71.062355,42.3484],[-71.062651,42.348467],[-71.062681,42.348467],[-71.062705,42.348441]]],[[[-71.062696,42.34861],[-71.062449,42.348541],[-71.062419,42.348551],[-71.062431,42.348573],[-71.062664,42.348626],[-71.062696,42.34861]]],[[[-71.06226,42.353802],[-71.062134,42.353763],[-71.062143,42.353745],[-71.062133,42.353737],[-71.062037,42.353715],[-71.062048,42.353673],[-71.062018,42.35364],[-71.061617,42.353538],[-71.061593,42.353545],[-71.061603,42.353562],[-71.061679,42.35358],[-71.061661,42.353607],[-71.061676,42.353632],[-71.061894,42.353688],[-71.061891,42.35371],[-71.062011,42.353739],[-71.062002,42.353758],[-71.062013,42.353765],[-71.062233,42.353816],[-71.06226,42.353802]]],[[[-71.06223,42.349614],[-71.062199,42.349581],[-71.061911,42.349515],[-71.061858,42.349523],[-71.061843,42.349548],[-71.061873,42.349581],[-71.062162,42.349647],[-71.062199,42.349647],[-71.06223,42.349614]]],[[[-71.062176,42.349345],[-71.061995,42.349294],[-71.061971,42.349301],[-71.061981,42.349318],[-71.062151,42.349357],[-71.062176,42.349345]]],[[[-71.062173,42.348386],[-71.062145,42.348355],[-71.061823,42.348281],[-71.061856,42.348238],[-71.061818,42.348196],[-71.06141,42.348104],[-71.061353,42.348133],[-71.061353,42.348167],[-71.061386,42.348192],[-71.061786,42.348282],[-71.06142,42.348224],[-71.06139,42.348239],[-71.061397,42.348265],[-71.061536,42.348299],[-71.061569,42.348335],[-71.061949,42.34842],[-71.062,42.348395],[-71.062145,42.348417],[-71.062173,42.348386]]],[[[-71.062158,42.353899],[-71.062118,42.353862],[-71.06199,42.353833],[-71.061993,42.353812],[-71.061902,42.35379],[-71.061912,42.353767],[-71.061736,42.353726],[-71.061712,42.353733],[-71.061722,42.35375],[-71.061807,42.35377],[-71.061797,42.353793],[-71.06188,42.353813],[-71.061883,42.353838],[-71.061953,42.353855],[-71.061963,42.353872],[-71.062133,42.353911],[-71.062158,42.353899]]],[[[-71.062121,42.349477],[-71.06194,42.349426],[-71.061916,42.349433],[-71.061926,42.34945],[-71.062096,42.349489],[-71.062121,42.349477]]],[[[-71.062098,42.349919],[-71.061917,42.349868],[-71.061893,42.349875],[-71.061903,42.349892],[-71.062073,42.349931],[-71.062098,42.349919]]],[[[-71.062087,42.35042],[-71.062059,42.350389],[-71.062085,42.35036],[-71.062061,42.350333],[-71.061765,42.350265],[-71.061722,42.350272],[-71.061711,42.350292],[-71.061722,42.350312],[-71.061688,42.350322],[-71.061675,42.350346],[-71.061703,42.350377],[-71.062024,42.350451],[-71.062059,42.350451],[-71.062087,42.35042]]],[[[-71.062068,42.349965],[-71.061887,42.349914],[-71.061863,42.349921],[-71.061873,42.349938],[-71.062043,42.349977],[-71.062068,42.349965]]],[[[-71.062062,42.350039],[-71.061881,42.349988],[-71.061857,42.349995],[-71.061867,42.350012],[-71.062037,42.350051],[-71.062062,42.350039]]],[[[-71.062055,42.349732],[-71.062024,42.349699],[-71.061827,42.349654],[-71.061837,42.349634],[-71.061822,42.349609],[-71.061708,42.349567],[-71.061401,42.349498],[-71.061356,42.34952],[-71.061356,42.349548],[-71.061382,42.349567],[-71.061677,42.349646],[-71.061672,42.34968],[-71.061698,42.349699],[-71.062006,42.349768],[-71.06204,42.349758],[-71.062055,42.349732]]],[[[-71.062038,42.350083],[-71.061857,42.350032],[-71.061833,42.350039],[-71.061843,42.350056],[-71.062013,42.350095],[-71.062038,42.350083]]],[[[-71.062008,42.350119],[-71.061827,42.350068],[-71.061803,42.350075],[-71.061813,42.350092],[-71.061983,42.350131],[-71.062008,42.350119]]],[[[-71.062001,42.348719],[-71.061975,42.34869],[-71.06165,42.348617],[-71.06162,42.348626],[-71.061608,42.348648],[-71.061503,42.348639],[-71.061475,42.34867],[-71.061503,42.348701],[-71.061841,42.348777],[-71.061873,42.348767],[-71.061887,42.348744],[-71.061975,42.348747],[-71.062001,42.348719]]],[[[-71.061981,42.350191],[-71.061813,42.350143],[-71.061789,42.35015],[-71.061799,42.350167],[-71.061956,42.350203],[-71.061981,42.350191]]],[[[-71.061968,42.350239],[-71.061787,42.350188],[-71.061763,42.350195],[-71.061773,42.350212],[-71.061943,42.350251],[-71.061968,42.350239]]],[[[-71.06194,42.34846],[-71.061759,42.348409],[-71.061735,42.348416],[-71.061745,42.348433],[-71.061915,42.348472],[-71.06194,42.34846]]],[[[-71.061811,42.348925],[-71.061785,42.348896],[-71.061476,42.348825],[-71.06143,42.348832],[-71.061418,42.348854],[-71.061444,42.348883],[-71.061753,42.348953],[-71.061785,42.348953],[-71.061811,42.348925]]],[[[-71.06178,42.348876],[-71.061599,42.348825],[-71.061575,42.348832],[-71.061585,42.348849],[-71.061755,42.348888],[-71.06178,42.348876]]],[[[-71.061778,42.348539],[-71.061597,42.348488],[-71.061573,42.348495],[-71.061583,42.348512],[-71.061753,42.348551],[-71.061778,42.348539]]],[[[-71.061726,42.351003],[-71.061479,42.350934],[-71.061449,42.350944],[-71.061461,42.350966],[-71.061694,42.351019],[-71.061726,42.351003]]],[[[-71.061633,42.3493],[-71.061589,42.349267],[-71.061331,42.349208],[-71.061291,42.349228],[-71.061309,42.349248],[-71.061567,42.349307],[-71.061622,42.349312],[-71.061633,42.3493]]],[[[-71.06162,42.349102],[-71.061387,42.349039],[-71.061362,42.349046],[-71.061373,42.349065],[-71.061593,42.349116],[-71.06162,42.349102]]],[[[-71.061588,42.351161],[-71.061407,42.35111],[-71.061383,42.351117],[-71.061393,42.351134],[-71.061563,42.351173],[-71.061588,42.351161]]],[[[-71.061567,42.351219],[-71.061386,42.351168],[-71.061362,42.351175],[-71.061372,42.351192],[-71.061542,42.351231],[-71.061567,42.351219]]],[[[-71.061541,42.351279],[-71.06136,42.351228],[-71.061336,42.351235],[-71.061346,42.351252],[-71.061516,42.351291],[-71.061541,42.351279]]],[[[-71.061538,42.349469],[-71.061357,42.349418],[-71.061333,42.349425],[-71.061343,42.349442],[-71.061513,42.349481],[-71.061538,42.349469]]],[[[-71.061531,42.349901],[-71.061505,42.349872],[-71.061196,42.349801],[-71.06115,42.349808],[-71.061138,42.34983],[-71.061164,42.349859],[-71.061473,42.349929],[-71.061505,42.349929],[-71.061531,42.349901]]],[[[-71.061522,42.351328],[-71.061341,42.351277],[-71.061317,42.351284],[-71.061327,42.351301],[-71.061497,42.35134],[-71.061522,42.351328]]],[[[-71.061503,42.350109],[-71.061471,42.350074],[-71.061124,42.349995],[-71.061067,42.350003],[-71.061052,42.35003],[-71.061084,42.350065],[-71.061431,42.350145],[-71.061471,42.350145],[-71.061503,42.350109]]],[[[-71.061465,42.349672],[-71.061271,42.349618],[-71.061247,42.349625],[-71.061257,42.349642],[-71.061439,42.349684],[-71.061465,42.349672]]],[[[-71.061444,42.34972],[-71.06125,42.349666],[-71.061226,42.349673],[-71.061236,42.34969],[-71.061418,42.349732],[-71.061444,42.34972]]],[[[-71.061414,42.353409],[-71.061303,42.353349],[-71.061233,42.353332],[-71.061232,42.353307],[-71.061037,42.353263],[-71.061013,42.35327],[-71.061023,42.353287],[-71.061112,42.353308],[-71.061113,42.353332],[-71.061213,42.35338],[-71.061389,42.353421],[-71.061414,42.353409]]],[[[-71.061408,42.354813],[-71.061227,42.354762],[-71.061203,42.354769],[-71.061213,42.354786],[-71.061383,42.354825],[-71.061408,42.354813]]],[[[-71.061379,42.348681],[-71.061347,42.348646],[-71.061,42.348567],[-71.060943,42.348575],[-71.060928,42.348602],[-71.06096,42.348637],[-71.061307,42.348717],[-71.061347,42.348717],[-71.061379,42.348681]]],[[[-71.061364,42.348799],[-71.06133,42.348762],[-71.060971,42.348679],[-71.060911,42.348688],[-71.060895,42.348717],[-71.060929,42.348755],[-71.061288,42.348837],[-71.06133,42.348837],[-71.061364,42.348799]]],[[[-71.061358,42.354955],[-71.061177,42.354904],[-71.061153,42.354911],[-71.061163,42.354928],[-71.061333,42.354967],[-71.061358,42.354955]]],[[[-71.06127,42.349271],[-71.061226,42.349222],[-71.060803,42.349125],[-71.060725,42.349137],[-71.060705,42.349174],[-71.060749,42.349223],[-71.061171,42.349319],[-71.061226,42.349319],[-71.06127,42.349271]]],[[[-71.061251,42.348898],[-71.061225,42.348869],[-71.060916,42.348798],[-71.06087,42.348805],[-71.060858,42.348827],[-71.060884,42.348856],[-71.061193,42.348926],[-71.061225,42.348926],[-71.061251,42.348898]]],[[[-71.061208,42.348529],[-71.061027,42.348478],[-71.061003,42.348485],[-71.061013,42.348502],[-71.061183,42.348541],[-71.061208,42.348529]]],[[[-71.061158,42.353402],[-71.061027,42.353331],[-71.060851,42.35329],[-71.060827,42.353297],[-71.060837,42.353314],[-71.060955,42.353356],[-71.060963,42.353375],[-71.061133,42.353414],[-71.061158,42.353402]]],[[[-71.061108,42.353259],[-71.060927,42.353208],[-71.060903,42.353215],[-71.060913,42.353232],[-71.061083,42.353271],[-71.061108,42.353259]]],[[[-71.061029,42.349582],[-71.060999,42.349549],[-71.060537,42.349441],[-71.060513,42.349448],[-71.060523,42.349465],[-71.060608,42.349485],[-71.060597,42.349506],[-71.060513,42.349491],[-71.060513,42.349515],[-71.06098,42.349618],[-71.061014,42.349608],[-71.061029,42.349582]]],[[[-71.061022,42.349456],[-71.060991,42.349423],[-71.060577,42.34933],[-71.060553,42.349347],[-71.060642,42.349373],[-71.060639,42.349404],[-71.060659,42.34942],[-71.060547,42.349395],[-71.060523,42.349402],[-71.060533,42.349419],[-71.060703,42.349458],[-71.060727,42.349441],[-71.060973,42.349492],[-71.061007,42.349482],[-71.061022,42.349456]]],[[[-71.060943,42.349746],[-71.060913,42.349713],[-71.060579,42.349637],[-71.060453,42.349635],[-71.060463,42.349652],[-71.060513,42.349664],[-71.060541,42.349703],[-71.060875,42.34978],[-71.060913,42.34978],[-71.060943,42.349746]]],[[[-71.060929,42.349871],[-71.060897,42.349836],[-71.06055,42.349757],[-71.060493,42.349765],[-71.060478,42.349792],[-71.06051,42.349827],[-71.060857,42.349907],[-71.060897,42.349907],[-71.060929,42.349871]]],[[[-71.060798,42.349299],[-71.060617,42.349248],[-71.060593,42.349255],[-71.060603,42.349272],[-71.060773,42.349311],[-71.060798,42.349299]]],[[[-71.060778,42.349339],[-71.060597,42.349288],[-71.060573,42.349295],[-71.060583,42.349312],[-71.060753,42.349351],[-71.060778,42.349339]]],[[[-71.060768,42.353079],[-71.060677,42.353048],[-71.060687,42.353031],[-71.060645,42.353006],[-71.060457,42.352962],[-71.060433,42.352969],[-71.060487,42.353007],[-71.060573,42.353028],[-71.060573,42.353052],[-71.060743,42.353091],[-71.060768,42.353079]]],[[[-71.060715,42.353473],[-71.060691,42.353446],[-71.060407,42.353368],[-71.060352,42.353385],[-71.060341,42.353405],[-71.060365,42.353432],[-71.060661,42.353499],[-71.060691,42.353499],[-71.060715,42.353473]]],[[[-71.060691,42.353325],[-71.060497,42.353271],[-71.060473,42.353278],[-71.060483,42.353295],[-71.060665,42.353337],[-71.060691,42.353325]]],[[[-71.060674,42.353189],[-71.060493,42.353138],[-71.060469,42.353145],[-71.060479,42.353162],[-71.060649,42.353201],[-71.060674,42.353189]]],[[[-71.060674,42.349639],[-71.060493,42.349588],[-71.060469,42.349595],[-71.060479,42.349612],[-71.060649,42.349651],[-71.060674,42.349639]]],[[[-71.060674,42.349595],[-71.060493,42.349544],[-71.060469,42.349551],[-71.060479,42.349568],[-71.060649,42.349607],[-71.060674,42.349595]]],[[[-71.060603,42.350216],[-71.060572,42.350183],[-71.060457,42.350156],[-71.060467,42.350149],[-71.060457,42.350131],[-71.060287,42.350093],[-71.060231,42.350125],[-71.060216,42.35015],[-71.060246,42.350183],[-71.060535,42.350249],[-71.060572,42.350249],[-71.060603,42.350216]]],[[[-71.060598,42.353139],[-71.060541,42.353116],[-71.060533,42.353096],[-71.060363,42.353058],[-71.060339,42.353065],[-71.060349,42.353082],[-71.060395,42.353093],[-71.060403,42.353112],[-71.060573,42.353151],[-71.060598,42.353139]]],[[[-71.060571,42.349926],[-71.060377,42.349872],[-71.060353,42.349879],[-71.060363,42.349896],[-71.060545,42.349938],[-71.060571,42.349926]]],[[[-71.060528,42.353486],[-71.060077,42.353379],[-71.060028,42.353386],[-71.060015,42.35341],[-71.060043,42.353441],[-71.060364,42.353515],[-71.060399,42.353515],[-71.060427,42.353484],[-71.060503,42.353498],[-71.060528,42.353486]]],[[[-71.060488,42.350076],[-71.060307,42.350025],[-71.060283,42.350032],[-71.060293,42.350049],[-71.060463,42.350088],[-71.060488,42.350076]]],[[[-71.06047,42.349538],[-71.060446,42.349511],[-71.06015,42.349443],[-71.060107,42.34945],[-71.060096,42.34947],[-71.06012,42.349497],[-71.060416,42.349564],[-71.060446,42.349564],[-71.06047,42.349538]]],[[[-71.060377,42.349615],[-71.060359,42.349595],[-71.060101,42.349536],[-71.060061,42.349556],[-71.060079,42.349576],[-71.060337,42.349635],[-71.060377,42.349615]]],[[[-71.060369,42.349709],[-71.060347,42.349685],[-71.060064,42.34962],[-71.060025,42.349625],[-71.060014,42.349644],[-71.060036,42.349668],[-71.06032,42.349733],[-71.060347,42.349733],[-71.060369,42.349709]]],[[[-71.060328,42.353001],[-71.060147,42.35295],[-71.060123,42.352957],[-71.060133,42.352974],[-71.060303,42.353013],[-71.060328,42.353001]]],[[[-71.060281,42.351115],[-71.060255,42.351086],[-71.059946,42.351015],[-71.0599,42.351022],[-71.059888,42.351044],[-71.059914,42.351073],[-71.060223,42.351143],[-71.060255,42.351143],[-71.060281,42.351115]]],[[[-71.060146,42.351191],[-71.060139,42.351178],[-71.059885,42.351117],[-71.059851,42.351128],[-71.059865,42.351153],[-71.060111,42.351209],[-71.060146,42.351191]]],[[[-71.060131,42.353331],[-71.060105,42.353302],[-71.059796,42.353231],[-71.05975,42.353238],[-71.059738,42.35326],[-71.059764,42.353289],[-71.060003,42.353351],[-71.060105,42.353359],[-71.060131,42.353331]]],[[[-71.059941,42.352795],[-71.059677,42.352725],[-71.059599,42.352725],[-71.059609,42.352742],[-71.059791,42.352784],[-71.059915,42.352807],[-71.059941,42.352795]]],[[[-71.059938,42.351776],[-71.059907,42.351743],[-71.059696,42.351694],[-71.059694,42.35167],[-71.05943,42.351608],[-71.059406,42.35162],[-71.05942,42.351645],[-71.059575,42.35168],[-71.059555,42.351696],[-71.059518,42.351697],[-71.059507,42.351716],[-71.059373,42.351688],[-71.059343,42.351698],[-71.059355,42.35172],[-71.059588,42.351773],[-71.059606,42.351773],[-71.059618,42.351752],[-71.059889,42.351812],[-71.059923,42.351802],[-71.059938,42.351776]]],[[[-71.059927,42.355013],[-71.059833,42.35493],[-71.059562,42.354868],[-71.05952,42.354881],[-71.059527,42.354907],[-71.059612,42.35495],[-71.059629,42.354974],[-71.059898,42.355035],[-71.059927,42.355013]]],[[[-71.059878,42.352849],[-71.059847,42.352816],[-71.059559,42.35275],[-71.059506,42.352758],[-71.059491,42.352783],[-71.059521,42.352816],[-71.05981,42.352882],[-71.059847,42.352882],[-71.059878,42.352849]]],[[[-71.059833,42.351662],[-71.059813,42.35164],[-71.059542,42.351578],[-71.0595,42.351591],[-71.059518,42.351622],[-71.059788,42.351684],[-71.059813,42.351684],[-71.059833,42.351662]]],[[[-71.059753,42.354875],[-71.059744,42.354858],[-71.059701,42.354845],[-71.05968,42.354788],[-71.059661,42.354774],[-71.059378,42.354709],[-71.059331,42.354723],[-71.059339,42.354752],[-71.059372,42.354762],[-71.059377,42.354791],[-71.05942,42.354804],[-71.059438,42.354835],[-71.059721,42.354899],[-71.059753,42.354875]]],[[[-71.059688,42.351136],[-71.059507,42.351085],[-71.059483,42.351092],[-71.059493,42.351109],[-71.059663,42.351148],[-71.059688,42.351136]]],[[[-71.059648,42.351209],[-71.059467,42.351158],[-71.059443,42.351165],[-71.059453,42.351182],[-71.059623,42.351221],[-71.059648,42.351209]]],[[[-71.059598,42.353139],[-71.059417,42.353088],[-71.059393,42.353095],[-71.059403,42.353112],[-71.059573,42.353151],[-71.059598,42.353139]]],[[[-71.059588,42.353049],[-71.059407,42.352998],[-71.059383,42.353005],[-71.059393,42.353022],[-71.059563,42.353061],[-71.059588,42.353049]]],[[[-71.059556,42.351833],[-71.059309,42.351764],[-71.059279,42.351774],[-71.059291,42.351796],[-71.059524,42.351849],[-71.059556,42.351833]]],[[[-71.059553,42.351366],[-71.059538,42.351341],[-71.059485,42.351325],[-71.059489,42.351293],[-71.059463,42.351273],[-71.05911,42.351194],[-71.059065,42.351216],[-71.059065,42.351244],[-71.059129,42.351272],[-71.059125,42.351304],[-71.05915,42.351322],[-71.059095,42.351343],[-71.059095,42.351371],[-71.059121,42.35139],[-71.059474,42.351469],[-71.059519,42.351447],[-71.059519,42.35142],[-71.059494,42.351401],[-71.059538,42.351392],[-71.059553,42.351366]]],[[[-71.059363,42.354447],[-71.059343,42.354425],[-71.059072,42.354363],[-71.05903,42.354376],[-71.059048,42.354407],[-71.059318,42.354469],[-71.059343,42.354469],[-71.059363,42.354447]]],[[[-71.059354,42.353333],[-71.059173,42.353282],[-71.058963,42.353278],[-71.058853,42.353256],[-71.058829,42.353273],[-71.058723,42.353263],[-71.058733,42.35328],[-71.058903,42.353319],[-71.058927,42.353302],[-71.059143,42.353334],[-71.059343,42.353345],[-71.059354,42.353333]]],[[[-71.059311,42.351573],[-71.059304,42.35156],[-71.05905,42.351499],[-71.059016,42.35151],[-71.05903,42.351535],[-71.059276,42.351591],[-71.059311,42.351573]]],[[[-71.059289,42.351669],[-71.059267,42.351645],[-71.058984,42.35158],[-71.058945,42.351585],[-71.058934,42.351604],[-71.058956,42.351628],[-71.05924,42.351693],[-71.059267,42.351693],[-71.059289,42.351669]]],[[[-71.059268,42.351499],[-71.059087,42.351448],[-71.059063,42.351455],[-71.059073,42.351472],[-71.059243,42.351511],[-71.059268,42.351499]]],[[[-71.059193,42.351752],[-71.059173,42.35173],[-71.058902,42.351668],[-71.05886,42.351681],[-71.058878,42.351712],[-71.059148,42.351774],[-71.059173,42.351774],[-71.059193,42.351752]]],[[[-71.059188,42.354371],[-71.059161,42.354355],[-71.059174,42.35433],[-71.058947,42.354277],[-71.058922,42.354284],[-71.058933,42.354303],[-71.058999,42.354319],[-71.058987,42.354342],[-71.059163,42.354383],[-71.059188,42.354371]]],[[[-71.059169,42.351803],[-71.059147,42.351779],[-71.05885,42.351712],[-71.058817,42.351728],[-71.058825,42.351757],[-71.058786,42.351756],[-71.058764,42.35178],[-71.058786,42.351804],[-71.059083,42.351871],[-71.059116,42.351855],[-71.059109,42.351826],[-71.059147,42.351827],[-71.059169,42.351803]]],[[[-71.059143,42.351691],[-71.058937,42.351634],[-71.058913,42.351641],[-71.058923,42.351658],[-71.059118,42.351703],[-71.059143,42.351691]]],[[[-71.059051,42.351913],[-71.05904,42.351892],[-71.058955,42.351858],[-71.058767,42.351814],[-71.058701,42.351818],[-71.058677,42.351845],[-71.058701,42.351872],[-71.058997,42.351939],[-71.059027,42.351939],[-71.059051,42.351913]]],[[[-71.058963,42.351968],[-71.058943,42.351946],[-71.05866,42.351882],[-71.058637,42.351889],[-71.05863,42.351915],[-71.058599,42.351924],[-71.058611,42.351946],[-71.058844,42.351999],[-71.058943,42.35199],[-71.058963,42.351968]]],[[[-71.058944,42.352079],[-71.05891,42.352042],[-71.058573,42.351955],[-71.058491,42.351968],[-71.058451,42.352018],[-71.058451,42.352042],[-71.058397,42.35205],[-71.058398,42.352087],[-71.058363,42.352085],[-71.058353,42.352102],[-71.058545,42.352151],[-71.058569,42.352144],[-71.058761,42.352181],[-71.058793,42.352171],[-71.058803,42.352135],[-71.058838,42.352113],[-71.05891,42.352117],[-71.058944,42.352079]]],[[[-71.058738,42.352569],[-71.058557,42.352518],[-71.058708,42.352544],[-71.058718,42.352536],[-71.058708,42.352517],[-71.058487,42.352467],[-71.058253,42.352455],[-71.058253,42.352479],[-71.058408,42.352515],[-71.058233,42.352507],[-71.058243,42.352524],[-71.058413,42.352563],[-71.058585,42.352582],[-71.058727,42.352581],[-71.058738,42.352569]],[[-71.058487,42.352511],[-71.058472,42.352524],[-71.058432,42.352519],[-71.058448,42.352506],[-71.058487,42.352511]]],[[[-71.058458,42.350949],[-71.058377,42.350913],[-71.058207,42.350875],[-71.058183,42.350882],[-71.058193,42.350899],[-71.058263,42.350922],[-71.058433,42.350961],[-71.058458,42.350949]]],[[[-71.058208,42.352704],[-71.058027,42.352653],[-71.058003,42.35266],[-71.058013,42.352677],[-71.058183,42.352716],[-71.058208,42.352704]]],[[[-71.058202,42.352807],[-71.058021,42.352756],[-71.057997,42.352763],[-71.058007,42.35278],[-71.058177,42.352819],[-71.058202,42.352807]]],[[[-71.058178,42.352944],[-71.057997,42.352893],[-71.057973,42.3529],[-71.057983,42.352917],[-71.058153,42.352956],[-71.058178,42.352944]]],[[[-71.057995,42.352282],[-71.057988,42.352269],[-71.057609,42.352149],[-71.05734,42.352088],[-71.057311,42.35211],[-71.057329,42.35213],[-71.057714,42.352244],[-71.05797,42.352301],[-71.057995,42.352282]]],[[[-71.057973,42.350732],[-71.057917,42.350703],[-71.057747,42.350665],[-71.057723,42.350672],[-71.057778,42.350705],[-71.057948,42.350744],[-71.057973,42.350732]]],[[[-71.057584,42.350442],[-71.057403,42.350391],[-71.057379,42.350398],[-71.057389,42.350415],[-71.057559,42.350454],[-71.057584,42.350442]]],[[[-71.057568,42.350533],[-71.057387,42.350482],[-71.057363,42.350489],[-71.057373,42.350506],[-71.057543,42.350545],[-71.057568,42.350533]]],[[[-71.057531,42.351749],[-71.057337,42.351695],[-71.057313,42.351702],[-71.057323,42.351719],[-71.057505,42.351761],[-71.057531,42.351749]]],[[[-71.057508,42.351789],[-71.057327,42.351738],[-71.057303,42.351745],[-71.057313,42.351762],[-71.057483,42.351801],[-71.057508,42.351789]]],[[[-71.057493,42.35097],[-71.057287,42.350913],[-71.057263,42.35092],[-71.057273,42.350937],[-71.057468,42.350982],[-71.057493,42.35097]]],[[[-71.057479,42.351936],[-71.057298,42.351885],[-71.057274,42.351892],[-71.057284,42.351909],[-71.057454,42.351948],[-71.057479,42.351936]]],[[[-71.057463,42.351108],[-71.057257,42.351051],[-71.057233,42.351058],[-71.057243,42.351075],[-71.057438,42.35112],[-71.057463,42.351108]]],[[[-71.057455,42.351991],[-71.057287,42.351943],[-71.057263,42.35195],[-71.057273,42.351967],[-71.05743,42.352003],[-71.057455,42.351991]]],[[[-71.057378,42.351449],[-71.057197,42.351398],[-71.057173,42.351405],[-71.057183,42.351422],[-71.057353,42.351461],[-71.057378,42.351449]]],[[[-71.057368,42.350589],[-71.057187,42.350538],[-71.057059,42.350528],[-71.057069,42.350545],[-71.057239,42.350584],[-71.057343,42.350601],[-71.057368,42.350589]]],[[[-71.057317,42.350671],[-71.057136,42.35062],[-71.057112,42.350627],[-71.057122,42.350644],[-71.057292,42.350683],[-71.057317,42.350671]]],[[[-71.057293,42.349965],[-71.057273,42.349943],[-71.057043,42.34988],[-71.056772,42.349818],[-71.05673,42.349831],[-71.056748,42.349862],[-71.056978,42.349925],[-71.057261,42.349989],[-71.057293,42.349965]]],[[[-71.057208,42.349879],[-71.057114,42.349847],[-71.057122,42.349817],[-71.057101,42.349801],[-71.056805,42.349733],[-71.056754,42.349749],[-71.056754,42.349771],[-71.056775,42.349787],[-71.057183,42.349891],[-71.057208,42.349879]]],[[[-71.057076,42.352076],[-71.056932,42.352026],[-71.056737,42.351982],[-71.056713,42.351989],[-71.056723,42.352006],[-71.056843,42.35204],[-71.057051,42.352088],[-71.057076,42.352076]]],[[[-71.057063,42.349981],[-71.057032,42.349948],[-71.056744,42.349882],[-71.056691,42.34989],[-71.056676,42.349915],[-71.056706,42.349948],[-71.056995,42.350014],[-71.057032,42.350014],[-71.057063,42.349981]]],[[[-71.057018,42.350072],[-71.056987,42.350039],[-71.056699,42.349973],[-71.056646,42.349981],[-71.056631,42.350006],[-71.056661,42.350039],[-71.05695,42.350105],[-71.056987,42.350105],[-71.057018,42.350072]]],[[[-71.057004,42.350269],[-71.056602,42.350163],[-71.05656,42.350176],[-71.056578,42.350207],[-71.056848,42.350269],[-71.056993,42.350281],[-71.057004,42.350269]]],[[[-71.056968,42.350346],[-71.056787,42.350295],[-71.056763,42.350302],[-71.056773,42.350319],[-71.056943,42.350358],[-71.056968,42.350346]]],[[[-71.056917,42.350153],[-71.056899,42.350133],[-71.056641,42.350074],[-71.056601,42.350094],[-71.056619,42.350114],[-71.056877,42.350173],[-71.056917,42.350153]]],[[[-71.056871,42.353259],[-71.056864,42.353246],[-71.056776,42.353223],[-71.056768,42.353202],[-71.0567,42.353187],[-71.056699,42.353167],[-71.056624,42.353148],[-71.056612,42.353128],[-71.056237,42.353038],[-71.056213,42.353045],[-71.056223,42.353062],[-71.056525,42.353156],[-71.056526,42.353175],[-71.056582,42.35319],[-71.056582,42.353217],[-71.056836,42.353277],[-71.056871,42.353259]]],[[[-71.056851,42.350661],[-71.056632,42.350601],[-71.056608,42.350608],[-71.056618,42.350625],[-71.056826,42.350673],[-71.056851,42.350661]]],[[[-71.056848,42.3509],[-71.056817,42.350867],[-71.056529,42.350801],[-71.056476,42.350809],[-71.056461,42.350834],[-71.056491,42.350867],[-71.05678,42.350933],[-71.056817,42.350933],[-71.056848,42.3509]]],[[[-71.056816,42.350728],[-71.056597,42.350668],[-71.056573,42.350675],[-71.056583,42.350692],[-71.056791,42.35074],[-71.056816,42.350728]]],[[[-71.056676,42.351968],[-71.056377,42.351888],[-71.056353,42.351895],[-71.056363,42.351912],[-71.056651,42.35198],[-71.056676,42.351968]]],[[[-71.056606,42.351145],[-71.056389,42.351074],[-71.056175,42.351024],[-71.056151,42.351031],[-71.056161,42.351048],[-71.056362,42.351095],[-71.056367,42.351107],[-71.056581,42.351157],[-71.056606,42.351145]]],[[[-71.056598,42.351069],[-71.056417,42.351018],[-71.056393,42.351025],[-71.056403,42.351042],[-71.056573,42.351081],[-71.056598,42.351069]]],[[[-71.056551,42.354726],[-71.056544,42.354713],[-71.05629,42.354652],[-71.056256,42.354663],[-71.05627,42.354688],[-71.056516,42.354744],[-71.056551,42.354726]]],[[[-71.056546,42.354978],[-71.056327,42.354918],[-71.056303,42.354925],[-71.056313,42.354942],[-71.056521,42.35499],[-71.056546,42.354978]]],[[[-71.056536,42.354884],[-71.056317,42.354824],[-71.056293,42.354831],[-71.056303,42.354848],[-71.056511,42.354896],[-71.056536,42.354884]]],[[[-71.056534,42.351215],[-71.056353,42.351164],[-71.056113,42.35114],[-71.056123,42.351157],[-71.056331,42.351205],[-71.056354,42.351198],[-71.056509,42.351227],[-71.056534,42.351215]]],[[[-71.05653,42.3548],[-71.056297,42.354737],[-71.056272,42.354744],[-71.056283,42.354763],[-71.056503,42.354814],[-71.05653,42.3548]]],[[[-71.056464,42.35089],[-71.056245,42.35083],[-71.056221,42.350837],[-71.056231,42.350854],[-71.056439,42.350902],[-71.056464,42.35089]]],[[[-71.056441,42.351418],[-71.056247,42.351364],[-71.056223,42.351371],[-71.056233,42.351388],[-71.056415,42.35143],[-71.056441,42.351418]]],[[[-71.056434,42.350981],[-71.056215,42.350921],[-71.056191,42.350928],[-71.056201,42.350945],[-71.056409,42.350993],[-71.056434,42.350981]]],[[[-71.056422,42.351453],[-71.056228,42.351399],[-71.056204,42.351406],[-71.056214,42.351423],[-71.056396,42.351465],[-71.056422,42.351453]]],[[[-71.056391,42.351492],[-71.056197,42.351438],[-71.056173,42.351445],[-71.056183,42.351462],[-71.056365,42.351504],[-71.056391,42.351492]]],[[[-71.056261,42.351752],[-71.056067,42.351698],[-71.056043,42.351705],[-71.056053,42.351722],[-71.056235,42.351764],[-71.056261,42.351752]]],[[[-71.056185,42.351403],[-71.055966,42.351343],[-71.055942,42.35135],[-71.055952,42.351367],[-71.05616,42.351415],[-71.056185,42.351403]]],[[[-71.056161,42.35146],[-71.055942,42.3514],[-71.055918,42.351407],[-71.055928,42.351424],[-71.056136,42.351472],[-71.056161,42.35146]]],[[[-71.056158,42.352292],[-71.056127,42.352259],[-71.05582,42.35219],[-71.055786,42.352201],[-71.055775,42.35224],[-71.055737,42.352276],[-71.055767,42.352309],[-71.056075,42.352378],[-71.056109,42.352368],[-71.05612,42.352328],[-71.056158,42.352292]]],[[[-71.056128,42.35153],[-71.055909,42.35147],[-71.055885,42.351477],[-71.055895,42.351494],[-71.056103,42.351542],[-71.056128,42.35153]]],[[[-71.056096,42.351609],[-71.055877,42.351549],[-71.055853,42.351556],[-71.055863,42.351573],[-71.056071,42.351621],[-71.056096,42.351609]]],[[[-71.056067,42.35167],[-71.055848,42.35161],[-71.055824,42.351617],[-71.055834,42.351634],[-71.056042,42.351682],[-71.056067,42.35167]]],[[[-71.056059,42.353398],[-71.056039,42.353376],[-71.055768,42.353314],[-71.055726,42.353327],[-71.055744,42.353358],[-71.056014,42.35342],[-71.056039,42.35342],[-71.056059,42.353398]]],[[[-71.056016,42.351775],[-71.055797,42.351715],[-71.055773,42.351722],[-71.055783,42.351739],[-71.055991,42.351787],[-71.056016,42.351775]]],[[[-71.055996,42.351824],[-71.055777,42.351764],[-71.055753,42.351771],[-71.055763,42.351788],[-71.055971,42.351836],[-71.055996,42.351824]]],[[[-71.055982,42.353453],[-71.055964,42.353433],[-71.055706,42.353374],[-71.055666,42.353394],[-71.055684,42.353414],[-71.055942,42.353473],[-71.055982,42.353453]]],[[[-71.055866,42.35348],[-71.055633,42.353417],[-71.055608,42.353424],[-71.055619,42.353443],[-71.055839,42.353494],[-71.055866,42.35348]]],[[[-71.055766,42.353545],[-71.055547,42.353485],[-71.055523,42.353492],[-71.055533,42.353509],[-71.055741,42.353557],[-71.055766,42.353545]]],[[[-71.055681,42.353572],[-71.055487,42.353518],[-71.055463,42.353525],[-71.055473,42.353542],[-71.055655,42.353584],[-71.055681,42.353572]]],[[[-71.055497,42.353731],[-71.055479,42.353711],[-71.055428,42.353699],[-71.055421,42.353679],[-71.055251,42.353641],[-71.055189,42.353657],[-71.055189,42.353687],[-71.055149,42.353694],[-71.055161,42.353716],[-71.055394,42.353769],[-71.055412,42.353769],[-71.055424,42.353747],[-71.055479,42.353751],[-71.055497,42.353731]]]]},"properties":{"kind":"tree"}}]}