{"type":"FeatureCollection","features":[{"type":"Feature","geometry":{"type":"MultiPolygon","coordinates":[[[[-71.067999,42.352129],[-71.067976,42.351995],[-71.067716,42.351409],[-71.067525,42.35135],[-71.067505,42.35115],[-71.066231,42.350751],[-71.066235,42.350737],[-71.066415,42.350794],[-71.066601,42.350785],[-71.066585,42.35059],[-71.06679,42.350622],[-71.067178,42.350614],[-71.067152,42.350367],[-71.067186,42.350321],[-71.067038,42.350164],[-71.066226,42.34991],[-71.066246,42.349812],[-71.066336,42.34984],[-71.066413,42.349816],[-71.066424,42.349779],[-71.066396,42.349689],[-71.066405,42.349648],[-71.066382,42.349641],[-71.066375,42.349617],[-71.066289,42.349578],[-71.066349,42.349559],[-71.066293,42.349461],[-71.066051,42.349385],[-71.065989,42.349405],[-71.066041,42.3495],[-71.06562,42.349445],[-71.065521,42.349461],[-71.065468,42.34971],[-71.065169,42.349617],[-71.064943,42.349582],[-71.064968,42.349447],[-71.064717,42.349369],[-71.064741,42.349318],[-71.065364,42.349514],[-71.065545,42.349421],[-71.065526,42.349398],[-71.065631,42.349431],[-71.065893,42.349308],[-71.065665,42.349043],[-71.065493,42.348989],[-71.065505,42.348942],[-71.065498,42.348857],[-71.065454,42.348743],[-71.064992,42.348617],[-71.064341,42.348545],[-71.064334,42.348568],[-71.064291,42.348572],[-71.063945,42.348463],[-71.063623,42.348413],[-71.063619,42.348426],[-71.063476,42.348381],[-71.062848,42.348286],[-71.062865,42.348245],[-71.062978,42.348281],[-71.063178,42.348314],[-71.063479,42.348341],[-71.063503,42.348258],[-71.063482,42.34823],[-71.063684,42.348293],[-71.064339,42.348391],[-71.064358,42.348321],[-71.06445,42.34835],[-71.06444,42.348386],[-71.065587,42.348745],[-71.065952,42.348801],[-71.065977,42.348765],[-71.066016,42.348771],[-71.066033,42.348708],[-71.066003,42.348698],[-71.066023,42.34862],[-71.066652,42.348816],[-71.06719,42.348879],[-71.067218,42.348759],[-71.066937,42.348671],[-71.066955,42.348583],[-71.066898,42.348565],[-71.066942,42.34836],[-71.065995,42.348062],[-71.065837,42.348044],[-71.065752,42.348444],[-71.065816,42.348465],[-71.065812,42.348486],[-71.065519,42.348395],[-71.065451,42.348318],[-71.065574,42.348206],[-71.065574,42.348132],[-71.065524,42.348075],[-71.065662,42.347985],[-71.065671,42.347947],[-71.065651,42.347908],[-71.06569,42.34788],[-71.065691,42.347793],[-71.065629,42.347759],[-71.065257,42.347643],[-71.064894,42.347587],[-71.064503,42.347783],[-71.064394,42.348034],[-71.064088,42.347938],[-71.063968,42.347919],[-71.063883,42.347989],[-71.063856,42.347985],[-71.063829,42.348081],[-71.063857,42.34809],[-71.063888,42.348157],[-71.063805,42.348141],[-71.06386,42.347946],[-71.063606,42.347866],[-71.06346,42.347843],[-71.063408,42.348033],[-71.062961,42.347921],[-71.062939,42.347976],[-71.061866,42.34764],[-71.061712,42.347604],[-71.061566,42.347954],[-71.061555,42.348046],[-71.061897,42.348153],[-71.061818,42.34835],[-71.061011,42.348097],[-71.060549,42.348739],[-71.061104,42.348913],[-71.061161,42.348956],[-71.061134,42.34895],[-71.061127,42.348967],[-71.060878,42.348902],[-71.060761,42.349201],[-71.060321,42.349063],[-71.060204,42.349326],[-71.059941,42.35001],[-71.059423,42.349847],[-71.059456,42.34977],[-71.059383,42.349746],[-71.059391,42.349727],[-71.058649,42.349495],[-71.058666,42.349452],[-71.058424,42.349376],[-71.057926,42.349266],[-71.057859,42.349433],[-71.057999,42.349477],[-71.057962,42.349568],[-71.057872,42.349548],[-71.057853,42.349597],[-71.058612,42.349826],[-71.059297,42.349963],[-71.059312,42.349926],[-71.059382,42.349942],[-71.059392,42.34992],[-71.059927,42.350088],[-71.059965,42.350086],[-71.060231,42.350169],[-71.060271,42.350162],[-71.060386,42.350192],[-71.06038,42.350207],[-71.061623,42.350596],[-71.062071,42.350722],[-71.062081,42.350698],[-71.062215,42.350729],[-71.062678,42.350874],[-71.063189,42.351004],[-71.063197,42.350993],[-71.06352,42.351094],[-71.063049,42.351044],[-71.063031,42.351093],[-71.062859,42.351039],[-71.062298,42.350942],[-71.061619,42.35077],[-71.061597,42.350765],[-71.061591,42.350781],[-71.060472,42.350463],[-71.060425,42.350464],[-71.059471,42.35018],[-71.059047,42.350086],[-71.058996,42.350102],[-71.058776,42.350034],[-71.057874,42.34983],[-71.057832,42.34985],[-71.057505,42.349748],[-71.057262,42.349695],[-71.057392,42.349427],[-71.057259,42.349386],[-71.057266,42.349353],[-71.056596,42.349149],[-71.056124,42.349284],[-71.057152,42.34775],[-71.057142,42.347691],[-71.056377,42.347409],[-71.055908,42.347262],[-71.054533,42.349309],[-71.054519,42.349433],[-71.054447,42.34941],[-71.053477,42.350853],[-71.054337,42.351171],[-71.054853,42.351317],[-71.055136,42.350955],[-71.055355,42.350631],[-71.055454,42.350678],[-71.05601,42.350849],[-71.056579,42.350845],[-71.05656,42.350888],[-71.057007,42.351028],[-71.056992,42.35106],[-71.056543,42.350948],[-71.056401,42.351249],[-71.056846,42.351421],[-71.056841,42.351433],[-71.056945,42.351475],[-71.057354,42.351611],[-71.057345,42.351659],[-71.056294,42.351331],[-71.056099,42.351724],[-71.055498,42.351545],[-71.054479,42.351779],[-71.054307,42.351954],[-71.054833,42.352232],[-71.055748,42.352519],[-71.055916,42.352544],[-71.055981,42.35253],[-71.056034,42.352612],[-71.056755,42.352838],[-71.056836,42.352823],[-71.057188,42.352933],[-71.05712,42.352979],[-71.0571,42.353025],[-71.057106,42.353073],[-71.057149,42.353124],[-71.057259,42.353188],[-71.057972,42.353411],[-71.057933,42.353509],[-71.057947,42.353542],[-71.058194,42.353715],[-71.056237,42.353097],[-71.055998,42.353225],[-71.056026,42.35333],[-71.05607,42.353348],[-71.055897,42.353294],[-71.055573,42.353469],[-71.055605,42.353502],[-71.055589,42.353497],[-71.055421,42.353589],[-71.055393,42.353619],[-71.055342,42.353603],[-71.054915,42.353838],[-71.055034,42.353957],[-71.054851,42.353901],[-71.054776,42.353908],[-71.054391,42.354111],[-71.054355,42.354162],[-71.054364,42.354206],[-71.054619,42.354471],[-71.054874,42.354553],[-71.054775,42.354643],[-71.05498,42.354839],[-71.055608,42.355036],[-71.055688,42.355479],[-71.057558,42.356065],[-71.057673,42.35607],[-71.057913,42.356046],[-71.06058,42.356882],[-71.061032,42.356838],[-71.060931,42.356259],[-71.060099,42.355998],[-71.06026,42.355986],[-71.06024,42.355835],[-71.059801,42.355659],[-71.058257,42.355174],[-71.058273,42.35511],[-71.058584,42.355208],[-71.058823,42.355212],[-71.058986,42.355263],[-71.059228,42.355368],[-71.059821,42.355554],[-71.059844,42.355533],[-71.061387,42.356016],[-71.061633,42.355802],[-71.061696,42.355724],[-71.06148,42.35554],[-71.061398,42.355496],[-71.060971,42.355362],[-71.060982,42.355351],[-71.061267,42.35544],[-71.061444,42.355312],[-71.061459,42.35526],[-71.062037,42.355441],[-71.062209,42.355254],[-71.061918,42.355101],[-71.061669,42.355023],[-71.061704,42.35499],[-71.061848,42.355034],[-71.062184,42.355207],[-71.062697,42.355368],[-71.062835,42.35522],[-71.063166,42.355324],[-71.063185,42.355304],[-71.063348,42.355355],[-71.063393,42.355308],[-71.063741,42.355417],[-71.063803,42.35535],[-71.063501,42.355195],[-71.063509,42.355186],[-71.063426,42.355142],[-71.063165,42.355061],[-71.062871,42.354902],[-71.062497,42.354785],[-71.062547,42.35473],[-71.062501,42.354705],[-71.062759,42.354809],[-71.062746,42.354823],[-71.063211,42.355053],[-71.064216,42.355368],[-71.06426,42.355359],[-71.064376,42.355145],[-71.065215,42.355404],[-71.065246,42.355406],[-71.065281,42.355311],[-71.065529,42.355384],[-71.065818,42.354848],[-71.065558,42.354766],[-71.065596,42.354762],[-71.065615,42.354727],[-71.06559,42.354715],[-71.064751,42.354452],[-71.064769,42.35442],[-71.065068,42.354509],[-71.065116,42.354458],[-71.065814,42.354677],[-71.0663,42.354675],[-71.066339,42.354422],[-71.065324,42.354104],[-71.065341,42.354055],[-71.064579,42.353816],[-71.064618,42.353676],[-71.06457,42.35364],[-71.064472,42.353609],[-71.064493,42.353549],[-71.064351,42.353504],[-71.064541,42.353519],[-71.066103,42.354008],[-71.06632,42.354012],[-71.066717,42.354135],[-71.066771,42.354038],[-71.066685,42.353639],[-71.065318,42.353206],[-71.065322,42.353195],[-71.06557,42.353207],[-71.065605,42.353056],[-71.065509,42.353026],[-71.065552,42.352912],[-71.065377,42.35286],[-71.065387,42.352753],[-71.065353,42.352727],[-71.065088,42.352644],[-71.065099,42.352603],[-71.065219,42.35264],[-71.065951,42.352721],[-71.065965,42.352647],[-71.066546,42.352691],[-71.066554,42.352638],[-71.0667,42.352684],[-71.066897,42.352699],[-71.066944,42.352411],[-71.066658,42.352321],[-71.066798,42.352212],[-71.066807,42.352185],[-71.066892,42.352211],[-71.067,42.352207],[-71.066992,42.352064],[-71.067816,42.352174],[-71.067999,42.352129]],[[-71.065987,42.351196],[-71.065982,42.351196],[-71.065405,42.351015],[-71.065405,42.351013],[-71.065987,42.351196]],[[-71.065775,42.350336],[-71.065758,42.350337],[-71.065759,42.350361],[-71.065639,42.350369],[-71.065537,42.350337],[-71.06531,42.3503],[-71.065303,42.350324],[-71.065276,42.35028],[-71.065348,42.350291],[-71.06536,42.350249],[-71.065638,42.350293],[-71.065775,42.350336]],[[-71.065469,42.351256],[-71.06535,42.35125],[-71.065366,42.351224],[-71.065469,42.351256]],[[-71.064276,42.351784],[-71.064264,42.351841],[-71.064045,42.351772],[-71.064057,42.351716],[-71.064276,42.351784]],[[-71.063893,42.351664],[-71.063339,42.351598],[-71.063349,42.351561],[-71.063656,42.351593],[-71.063893,42.351664]],[[-71.063561,42.34904],[-71.063468,42.349025],[-71.062733,42.348806],[-71.062759,42.348742],[-71.062974,42.348809],[-71.063522,42.348893],[-71.063561,42.34904]],[[-71.063385,42.34812],[-71.063366,42.34819],[-71.06314,42.348118],[-71.063325,42.348165],[-71.063367,42.348116],[-71.063385,42.34812]],[[-71.063224,42.353335],[-71.063204,42.353334],[-71.063201,42.353406],[-71.062924,42.353319],[-71.063145,42.35331],[-71.063224,42.353335]],[[-71.063,42.349515],[-71.063,42.349531],[-71.062233,42.349284],[-71.062169,42.349306],[-71.062159,42.349328],[-71.062078,42.349302],[-71.062084,42.349288],[-71.062103,42.349292],[-71.06212,42.34925],[-71.062103,42.349245],[-71.06211,42.349228],[-71.062512,42.349337],[-71.062528,42.349298],[-71.062562,42.349308],[-71.062552,42.34932],[-71.063,42.349515]],[[-71.062881,42.351619],[-71.062861,42.351718],[-71.062704,42.351668],[-71.062706,42.351578],[-71.062881,42.351619]],[[-71.062713,42.350064],[-71.062673,42.350051],[-71.062675,42.350047],[-71.062713,42.350064]],[[-71.062684,42.35038],[-71.062682,42.350387],[-71.062458,42.350317],[-71.062461,42.35031],[-71.062684,42.35038]],[[-71.062676,42.352519],[-71.062674,42.352565],[-71.062504,42.352512],[-71.062549,42.352508],[-71.062544,42.352478],[-71.062676,42.352519]],[[-71.062566,42.351146],[-71.06227,42.351059],[-71.062158,42.351034],[-71.06216,42.351046],[-71.061685,42.350925],[-71.061695,42.3509],[-71.061684,42.350897],[-71.061689,42.350884],[-71.062122,42.351019],[-71.062563,42.351115],[-71.062566,42.351146]],[[-71.062462,42.349925],[-71.062445,42.349947],[-71.062274,42.349877],[-71.062462,42.349925]],[[-71.062396,42.350562],[-71.062363,42.350555],[-71.062364,42.350552],[-71.062396,42.350562]],[[-71.062083,42.352511],[-71.062055,42.352513],[-71.062034,42.352495],[-71.062083,42.352511]],[[-71.061847,42.352204],[-71.061723,42.352231],[-71.061733,42.352279],[-71.061438,42.352187],[-71.061434,42.35213],[-71.061412,42.352123],[-71.061519,42.352101],[-71.061847,42.352204]],[[-71.06178,42.351531],[-71.061716,42.351533],[-71.061723,42.351513],[-71.06178,42.351531]],[[-71.061527,42.350927],[-71.061462,42.35114],[-71.061227,42.351071],[-71.060917,42.351006],[-71.060955,42.35091],[-71.060879,42.350886],[-71.060914,42.350799],[-71.061184,42.350883],[-71.0614,42.35093],[-71.061527,42.350927]],[[-71.0614,42.351539],[-71.061289,42.351543],[-71.061306,42.351628],[-71.060999,42.351535],[-71.060388,42.351402],[-71.060369,42.351415],[-71.060225,42.351365],[-71.059758,42.351262],[-71.059709,42.351391],[-71.059777,42.351851],[-71.059626,42.351804],[-71.059386,42.351848],[-71.059419,42.352073],[-71.059226,42.352012],[-71.058965,42.352116],[-71.058906,42.352152],[-71.058835,42.352227],[-71.058911,42.351977],[-71.058255,42.351767],[-71.058765,42.35185],[-71.058778,42.351819],[-71.059012,42.351874],[-71.0592,42.351696],[-71.059314,42.351559],[-71.059444,42.351355],[-71.059492,42.351243],[-71.059038,42.351101],[-71.058629,42.35102],[-71.058104,42.350876],[-71.0581,42.350888],[-71.057547,42.350762],[-71.057279,42.35068],[-71.056851,42.350584],[-71.056915,42.350456],[-71.057501,42.35064],[-71.05811,42.350808],[-71.058635,42.350917],[-71.058638,42.350904],[-71.058736,42.350917],[-71.058741,42.350903],[-71.05927,42.351069],[-71.059692,42.351163],[-71.059747,42.351147],[-71.059936,42.35068],[-71.060158,42.350735],[-71.059972,42.351168],[-71.060371,42.351293],[-71.060837,42.351394],[-71.060843,42.351381],[-71.061211,42.351496],[-71.0614,42.351539]],[[-71.061398,42.349347],[-71.061381,42.349389],[-71.061257,42.349339],[-71.061269,42.349307],[-71.061398,42.349347]],[[-71.061149,42.34925],[-71.061148,42.349252],[-71.061147,42.349252],[-71.061149,42.34925]],[[-71.060717,42.351715],[-71.060668,42.3517],[-71.060662,42.351684],[-71.060712,42.3517],[-71.060717,42.351715]],[[-71.060605,42.352168],[-71.060504,42.352136],[-71.060511,42.352121],[-71.060596,42.352139],[-71.060605,42.352168]],[[-71.060309,42.352884],[-71.059318,42.352574],[-71.058902,42.352524],[-71.058176,42.352542],[-71.0581,42.352576],[-71.05699,42.352229],[-71.056413,42.352084],[-71.056503,42.351898],[-71.057086,42.35208],[-71.058396,42.352438],[-71.058405,42.352389],[-71.058741,42.352491],[-71.058793,42.352356],[-71.060281,42.352822],[-71.060268,42.352864],[-71.060309,42.352884]],[[-71.059433,42.354002],[-71.059383,42.354002],[-71.059415,42.353971],[-71.059433,42.354002]],[[-71.057883,42.351691],[-71.057736,42.351668],[-71.057741,42.351647],[-71.057883,42.351691]],[[-71.0577,42.354345],[-71.057664,42.354399],[-71.057421,42.354322],[-71.057413,42.35428],[-71.057154,42.354199],[-71.057148,42.35417],[-71.0577,42.354345]]],[[[-71.059317,42.349096],[-71.058071,42.348706],[-71.057613,42.348605],[-71.057529,42.348814],[-71.058775,42.349204],[-71.059234,42.349305],[-71.059317,42.349096]]]]},"properties":{"kind":"building"}},{"type":"Feature","geometry":{"type":"MultiPolygon","coordinates":[[[[-71.066532,42.353599],[-71.066521,42.353558],[-71.066442,42.3535],[-71.065999,42.353361],[-71.066002,42.35335],[-71.066197,42.353405],[-71.066263,42.353385],[-71.066284,42.353362],[-71.066284,42.353309],[-71.066198,42.353261],[-71.066227,42.353239],[-71.066342,42.353268],[-71.066427,42.353242],[-71.066463,42.353179],[-71.066432,42.353121],[-71.066495,42.353063],[-71.066506,42.353021],[-71.066495,42.35298],[-71.066416,42.352922],[-71.066022,42.352798],[-71.066021,42.352748],[-71.066002,42.352727],[-71.066129,42.352744],[-71.066178,42.352729],[-71.066293,42.352747],[-71.066333,42.352717],[-71.066339,42.352696],[-71.066317,42.352657],[-71.065947,42.352542],[-71.065898,42.352556],[-71.065688,42.352518],[-71.065635,42.352534],[-71.065616,42.352584],[-71.065361,42.35251],[-71.065288,42.352533],[-71.065259,42.35258],[-71.065049,42.352515],[-71.064975,42.352515],[-71.064943,42.35253],[-71.064915,42.352581],[-71.064922,42.352609],[-71.064975,42.352647],[-71.065357,42.352767],[-71.065431,42.352767],[-71.065463,42.352751],[-71.065489,42.35271],[-71.065625,42.352753],[-71.065612,42.352784],[-71.065562,42.352777],[-71.065493,42.352798],[-71.065465,42.352847],[-71.065168,42.352745],[-71.065105,42.352754],[-71.065088,42.352785],[-71.065105,42.352816],[-71.065081,42.352852],[-71.065094,42.352876],[-71.065047,42.352891],[-71.065027,42.352928],[-71.065047,42.352965],[-71.065193,42.353015],[-71.065172,42.353051],[-71.064791,42.352933],[-71.064699,42.352933],[-71.06466,42.352952],[-71.064625,42.353015],[-71.064656,42.353073],[-71.064658,42.353148],[-71.064758,42.353233],[-71.064931,42.353291],[-71.064835,42.353263],[-71.064769,42.353269],[-71.064659,42.353241],[-71.064581,42.353265],[-71.064549,42.353323],[-71.064581,42.353381],[-71.064875,42.353479],[-71.064919,42.353527],[-71.065227,42.353623],[-71.065301,42.353614],[-71.065429,42.353654],[-71.065444,42.353697],[-71.065525,42.353726],[-71.065509,42.353756],[-71.065526,42.353787],[-71.065838,42.353884],[-71.06588,42.353871],[-71.065897,42.353841],[-71.06588,42.35381],[-71.065811,42.353786],[-71.06583,42.353753],[-71.065922,42.353764],[-71.066025,42.353733],[-71.066057,42.353698],[-71.066068,42.353656],[-71.066057,42.353615],[-71.066386,42.353707],[-71.066489,42.353676],[-71.066521,42.353641],[-71.066532,42.353599]],[[-71.065524,42.352915],[-71.065463,42.35295],[-71.065462,42.352993],[-71.065389,42.352962],[-71.065419,42.352942],[-71.065419,42.352915],[-71.065471,42.352886],[-71.065524,42.352915]],[[-71.065393,42.353154],[-71.065375,42.353174],[-71.065311,42.353152],[-71.065304,42.353126],[-71.065393,42.353154]]],[[[-71.066345,42.355066],[-71.066325,42.35503],[-71.066134,42.354966],[-71.066103,42.354921],[-71.066063,42.354902],[-71.065682,42.354782],[-71.065637,42.354747],[-71.065293,42.354621],[-71.065343,42.354563],[-71.065343,42.354528],[-71.065309,42.354504],[-71.065051,42.354423],[-71.06506,42.354385],[-71.065156,42.354412],[-71.065193,42.3544],[-71.065208,42.354373],[-71.065176,42.354338],[-71.065023,42.35429],[-71.065038,42.354263],[-71.06511,42.354282],[-71.065154,42.354261],[-71.06529,42.354304],[-71.065354,42.354294],[-71.065371,42.354264],[-71.065354,42.354233],[-71.065071,42.354142],[-71.065102,42.354103],[-71.065484,42.354189],[-71.065515,42.354165],[-71.065515,42.354132],[-71.065446,42.354097],[-71.065446,42.354063],[-71.065605,42.354109],[-71.065665,42.354079],[-71.065665,42.354042],[-71.065563,42.353996],[-71.065549,42.353948],[-71.065625,42.35397],[-71.065619,42.354004],[-71.065645,42.354023],[-71.065841,42.354085],[-71.065855,42.354106],[-71.065932,42.354134],[-71.065931,42.354158],[-71.066108,42.354215],[-71.066138,42.354206],[-71.066181,42.354157],[-71.066225,42.354149],[-71.066236,42.354129],[-71.066225,42.354108],[-71.065998,42.354035],[-71.066007,42.354015],[-71.065993,42.35399],[-71.065852,42.353943],[-71.065838,42.353918],[-71.065713,42.353876],[-71.065673,42.353836],[-71.065374,42.353742],[-71.0653,42.353753],[-71.06528,42.353789],[-71.0653,42.353825],[-71.065386,42.353856],[-71.065399,42.353896],[-71.065225,42.353846],[-71.065168,42.353875],[-71.065181,42.353924],[-71.065256,42.353951],[-71.065255,42.353988],[-71.064928,42.353907],[-71.064712,42.353838],[-71.064734,42.353819],[-71.064734,42.353782],[-71.064768,42.353749],[-71.064754,42.353697],[-71.064418,42.353592],[-71.064358,42.353622],[-71.064358,42.353658],[-71.064319,42.35371],[-71.064332,42.353737],[-71.064284,42.353761],[-71.064284,42.353793],[-71.06433,42.35382],[-71.064258,42.353857],[-71.064258,42.353905],[-71.064238,42.353945],[-71.064262,42.353987],[-71.064288,42.354],[-71.064465,42.354056],[-71.064264,42.354028],[-71.06422,42.35406],[-71.06422,42.354106],[-71.064264,42.354138],[-71.0646,42.354244],[-71.064684,42.354254],[-71.064634,42.354283],[-71.064567,42.354262],[-71.064524,42.35422],[-71.064178,42.354117],[-71.064109,42.354151],[-71.064109,42.354193],[-71.064148,42.354222],[-71.064088,42.354236],[-71.064069,42.35427],[-71.064088,42.354304],[-71.064128,42.35432],[-71.064161,42.35436],[-71.064453,42.35446],[-71.064466,42.354506],[-71.064538,42.354532],[-71.064541,42.354554],[-71.064446,42.354528],[-71.064447,42.354481],[-71.064403,42.354449],[-71.064036,42.354339],[-71.063961,42.354376],[-71.063968,42.35443],[-71.063903,42.354482],[-71.063892,42.354523],[-71.063903,42.354564],[-71.063982,42.354623],[-71.064175,42.354683],[-71.064161,42.354728],[-71.063878,42.354645],[-71.063818,42.354663],[-71.0638,42.354683],[-71.063799,42.354727],[-71.063772,42.354739],[-71.06352,42.354664],[-71.063486,42.354675],[-71.063471,42.3547],[-71.063501,42.354733],[-71.063749,42.354799],[-71.063797,42.354833],[-71.064124,42.354935],[-71.064209,42.354923],[-71.064232,42.354882],[-71.064301,42.354839],[-71.064611,42.35493],[-71.064662,42.354915],[-71.064677,42.354898],[-71.064677,42.354857],[-71.064639,42.354829],[-71.064529,42.354794],[-71.064525,42.354779],[-71.064641,42.354815],[-71.064701,42.354806],[-71.064838,42.354848],[-71.064862,42.354841],[-71.064852,42.354823],[-71.064715,42.354784],[-71.064701,42.354748],[-71.064636,42.354725],[-71.064647,42.354713],[-71.064747,42.354739],[-71.064784,42.354727],[-71.064795,42.354685],[-71.064732,42.354654],[-71.064729,42.35463],[-71.064816,42.354653],[-71.064821,42.354687],[-71.06487,42.354723],[-71.065092,42.354802],[-71.064928,42.354754],[-71.064877,42.354779],[-71.064889,42.354824],[-71.065169,42.354915],[-71.065211,42.354915],[-71.065245,42.354877],[-71.065275,42.354879],[-71.065598,42.354981],[-71.065667,42.354975],[-71.065969,42.35507],[-71.066016,42.355077],[-71.066083,42.35506],[-71.066277,42.355116],[-71.066325,42.355101],[-71.066345,42.355066]],[[-71.065003,42.354147],[-71.064987,42.354162],[-71.064713,42.354092],[-71.06473,42.354073],[-71.065003,42.354147]],[[-71.064883,42.354416],[-71.06488,42.354417],[-71.06488,42.354415],[-71.064883,42.354416]]],[[[-71.066339,42.354616],[-71.066329,42.35458],[-71.066259,42.354528],[-71.065785,42.354379],[-71.065685,42.354379],[-71.065643,42.3544],[-71.065605,42.354468],[-71.065643,42.354536],[-71.065685,42.354557],[-71.066159,42.354705],[-71.066259,42.354705],[-71.066301,42.354684],[-71.066339,42.354616]]],[[[-71.06612,42.348129],[-71.06608,42.348084],[-71.06579,42.347994],[-71.065719,42.348004],[-71.0657,42.348038],[-71.06574,42.348082],[-71.06603,42.348173],[-71.06608,42.348173],[-71.06612,42.348129]]],[[[-71.066052,42.348262],[-71.066018,42.348224],[-71.065756,42.348142],[-71.065696,42.348151],[-71.06568,42.34818],[-71.065714,42.348218],[-71.065976,42.3483],[-71.066018,42.3483],[-71.066052,42.348262]]],[[[-71.06601,42.348531],[-71.065974,42.348491],[-71.065808,42.348439],[-71.065832,42.348404],[-71.065794,42.348362],[-71.065514,42.348274],[-71.065466,42.348274],[-71.065433,42.348299],[-71.065446,42.348348],[-71.065643,42.348413],[-71.065622,42.348446],[-71.065658,42.348486],[-71.065951,42.348574],[-71.065993,42.348561],[-71.06601,42.348531]]],[[[-71.065852,42.348332],[-71.065717,42.348281],[-71.065693,42.348288],[-71.065703,42.348305],[-71.065827,42.348344],[-71.065852,42.348332]]],[[[-71.065769,42.349302],[-71.065739,42.349269],[-71.065529,42.349203],[-71.065476,42.349211],[-71.065461,42.349236],[-71.065491,42.349269],[-71.065702,42.349335],[-71.065739,42.349335],[-71.065769,42.349302]]],[[[-71.06573,42.351268],[-71.065577,42.351211],[-71.065553,42.351218],[-71.065563,42.351235],[-71.065705,42.35128],[-71.06573,42.351268]]],[[[-71.065713,42.348993],[-71.065587,42.348945],[-71.065563,42.348952],[-71.065573,42.348969],[-71.065688,42.349005],[-71.065713,42.348993]]],[[[-71.065677,42.34913],[-71.065551,42.349082],[-71.065527,42.349089],[-71.065349,42.349037],[-71.065296,42.349045],[-71.065281,42.34907],[-71.065311,42.349103],[-71.065555,42.34918],[-71.065608,42.349172],[-71.065619,42.349133],[-71.065666,42.349142],[-71.065677,42.34913]]],[[[-71.065672,42.348149],[-71.065537,42.348098],[-71.065513,42.348105],[-71.065523,42.348122],[-71.065647,42.348161],[-71.065672,42.348149]]],[[[-71.065653,42.348499],[-71.065469,42.34843],[-71.065439,42.34844],[-71.065451,42.348462],[-71.065621,42.348515],[-71.065653,42.348499]]],[[[-71.065643,42.348856],[-71.065613,42.348823],[-71.065403,42.348757],[-71.06535,42.348765],[-71.065335,42.34879],[-71.065365,42.348823],[-71.065576,42.348889],[-71.065613,42.348889],[-71.065643,42.348856]]],[[[-71.065602,42.349005],[-71.06558,42.34898],[-71.065374,42.348916],[-71.065335,42.348921],[-71.065324,42.34894],[-71.065346,42.348964],[-71.065553,42.349029],[-71.06558,42.349029],[-71.065602,42.349005]]],[[[-71.065501,42.351252],[-71.065357,42.351198],[-71.065333,42.351205],[-71.065343,42.351222],[-71.065476,42.351264],[-71.065501,42.351252]]],[[[-71.065392,42.351249],[-71.065257,42.351198],[-71.065233,42.351205],[-71.065243,42.351222],[-71.065367,42.351261],[-71.065392,42.351249]]],[[[-71.065355,42.350776],[-71.06516,42.350702],[-71.065126,42.350713],[-71.06514,42.350738],[-71.065319,42.350794],[-71.065355,42.350776]]],[[[-71.06533,42.35084],[-71.065135,42.350766],[-71.065101,42.350777],[-71.065115,42.350802],[-71.065294,42.350858],[-71.06533,42.35084]]],[[[-71.065311,42.355111],[-71.065303,42.355082],[-71.065247,42.355041],[-71.064847,42.354915],[-71.064767,42.354915],[-71.064734,42.354932],[-71.064703,42.354986],[-71.064734,42.35504],[-71.064767,42.355057],[-71.065168,42.355182],[-71.065247,42.355182],[-71.065281,42.355166],[-71.065311,42.355111]]],[[[-71.06529,42.350903],[-71.065117,42.35084],[-71.065092,42.350847],[-71.065103,42.350866],[-71.065263,42.350917],[-71.06529,42.350903]]],[[[-71.065123,42.353658],[-71.065115,42.35363],[-71.065061,42.35359],[-71.06467,42.353467],[-71.064592,42.353467],[-71.06456,42.353483],[-71.06453,42.353536],[-71.06456,42.353589],[-71.064592,42.353605],[-71.064984,42.353727],[-71.065061,42.353727],[-71.065093,42.353711],[-71.065123,42.353658]]],[[[-71.065077,42.351352],[-71.064933,42.351298],[-71.064909,42.351305],[-71.064919,42.351322],[-71.065052,42.351364],[-71.065077,42.351352]]],[[[-71.064981,42.348495],[-71.064846,42.348444],[-71.064822,42.348451],[-71.064832,42.348468],[-71.064956,42.348507],[-71.064981,42.348495]]],[[[-71.064748,42.351865],[-71.064613,42.351814],[-71.064589,42.351821],[-71.064599,42.351838],[-71.064723,42.351877],[-71.064748,42.351865]]],[[[-71.064745,42.348464],[-71.06461,42.348413],[-71.064586,42.34842],[-71.064596,42.348437],[-71.06472,42.348476],[-71.064745,42.348464]]],[[[-71.064725,42.352154],[-71.064552,42.352091],[-71.064527,42.352098],[-71.064538,42.352117],[-71.064698,42.352168],[-71.064725,42.352154]]],[[[-71.064701,42.352097],[-71.064557,42.352043],[-71.064533,42.35205],[-71.064543,42.352067],[-71.064676,42.352109],[-71.064701,42.352097]]],[[[-71.064672,42.352199],[-71.064537,42.352148],[-71.064513,42.352155],[-71.064523,42.352172],[-71.064647,42.352211],[-71.064672,42.352199]]],[[[-71.06456,42.348438],[-71.064425,42.348387],[-71.064401,42.348394],[-71.064411,42.348411],[-71.064535,42.34845],[-71.06456,42.348438]]],[[[-71.064379,42.348773],[-71.064195,42.348704],[-71.064165,42.348714],[-71.064177,42.348736],[-71.064347,42.348789],[-71.064379,42.348773]]],[[[-71.064362,42.350964],[-71.064227,42.350913],[-71.064027,42.350897],[-71.063934,42.350874],[-71.063895,42.350903],[-71.063919,42.35093],[-71.06415,42.350999],[-71.064185,42.350982],[-71.06426,42.350998],[-71.064278,42.350985],[-71.064271,42.350959],[-71.064337,42.350976],[-71.064362,42.350964]]],[[[-71.06432,42.348887],[-71.064157,42.348828],[-71.064133,42.348835],[-71.064143,42.348852],[-71.064294,42.3489],[-71.06432,42.348887]]],[[[-71.06424,42.353347],[-71.064077,42.353288],[-71.063929,42.353252],[-71.063899,42.353262],[-71.063911,42.353284],[-71.064081,42.353337],[-71.064214,42.35336],[-71.06424,42.353347]]],[[[-71.06421,42.35344],[-71.064037,42.353377],[-71.063893,42.353369],[-71.063903,42.353386],[-71.064118,42.35345],[-71.064198,42.353454],[-71.06421,42.35344]]],[[[-71.06415,42.353807],[-71.063987,42.353748],[-71.063963,42.353755],[-71.063973,42.353772],[-71.064124,42.35382],[-71.06415,42.353807]]],[[[-71.06412,42.354029],[-71.0641,42.354007],[-71.063902,42.353945],[-71.06386,42.353958],[-71.063878,42.353989],[-71.064075,42.354051],[-71.0641,42.354051],[-71.06412,42.354029]]],[[[-71.064076,42.348725],[-71.063903,42.348662],[-71.063878,42.348669],[-71.063889,42.348688],[-71.064049,42.348739],[-71.064076,42.348725]]],[[[-71.064063,42.348796],[-71.063879,42.348727],[-71.063849,42.348737],[-71.063861,42.348759],[-71.064031,42.348812],[-71.064063,42.348796]]],[[[-71.06404,42.34892],[-71.063867,42.348857],[-71.063842,42.348864],[-71.063853,42.348883],[-71.064013,42.348934],[-71.06404,42.34892]]],[[[-71.063997,42.348832],[-71.063862,42.348781],[-71.063838,42.348788],[-71.063848,42.348805],[-71.063972,42.348844],[-71.063997,42.348832]]],[[[-71.063995,42.354176],[-71.0638,42.354102],[-71.063766,42.354113],[-71.06378,42.354138],[-71.063959,42.354194],[-71.063995,42.354176]]],[[[-71.063945,42.349187],[-71.06381,42.349136],[-71.063786,42.349143],[-71.063796,42.34916],[-71.06392,42.349199],[-71.063945,42.349187]]],[[[-71.063932,42.348466],[-71.063797,42.348415],[-71.063683,42.348405],[-71.063693,42.348422],[-71.063817,42.348461],[-71.063907,42.348478],[-71.063932,42.348466]]],[[[-71.063905,42.350945],[-71.063885,42.350923],[-71.063687,42.350861],[-71.063645,42.350874],[-71.06337,42.350808],[-71.063336,42.350819],[-71.06335,42.350844],[-71.063689,42.350938],[-71.063873,42.350969],[-71.063905,42.350945]]],[[[-71.063892,42.349332],[-71.063757,42.349281],[-71.063733,42.349288],[-71.063743,42.349305],[-71.063867,42.349344],[-71.063892,42.349332]]],[[[-71.063879,42.349374],[-71.063744,42.349323],[-71.06372,42.34933],[-71.06373,42.349347],[-71.063854,42.349386],[-71.063879,42.349374]]],[[[-71.06385,42.34981],[-71.063677,42.349747],[-71.063652,42.349754],[-71.063663,42.349773],[-71.063823,42.349824],[-71.06385,42.34981]]],[[[-71.063784,42.349901],[-71.063621,42.349842],[-71.063597,42.349849],[-71.063607,42.349866],[-71.063758,42.349914],[-71.063784,42.349901]]],[[[-71.06374,42.35],[-71.063567,42.349937],[-71.063542,42.349944],[-71.063553,42.349963],[-71.063713,42.350014],[-71.06374,42.35]]],[[[-71.063719,42.354866],[-71.063689,42.354833],[-71.063479,42.354767],[-71.063426,42.354775],[-71.063411,42.3548],[-71.063441,42.354833],[-71.063652,42.354899],[-71.063689,42.354899],[-71.063719,42.354866]]],[[[-71.0637,42.350047],[-71.063537,42.349988],[-71.063513,42.349995],[-71.063523,42.350012],[-71.063674,42.35006],[-71.0637,42.350047]]],[[[-71.06361,42.350465],[-71.063447,42.350406],[-71.063423,42.350413],[-71.063433,42.35043],[-71.063584,42.350478],[-71.06361,42.350465]]],[[[-71.0636,42.350225],[-71.063447,42.350168],[-71.063423,42.350175],[-71.063433,42.350192],[-71.063575,42.350237],[-71.0636,42.350225]]],[[[-71.063576,42.350532],[-71.06346,42.350486],[-71.063456,42.350472],[-71.063317,42.350428],[-71.063293,42.350435],[-71.063303,42.350452],[-71.063399,42.350483],[-71.063403,42.350497],[-71.063551,42.350544],[-71.063576,42.350532]]],[[[-71.063572,42.350824],[-71.063554,42.350804],[-71.063365,42.350745],[-71.063325,42.350765],[-71.063343,42.350785],[-71.063531,42.350844],[-71.063572,42.350824]]],[[[-71.06357,42.350291],[-71.063417,42.350234],[-71.063393,42.350241],[-71.063403,42.350258],[-71.063545,42.350303],[-71.06357,42.350291]]],[[[-71.063545,42.350325],[-71.063392,42.350268],[-71.063368,42.350275],[-71.063378,42.350292],[-71.06352,42.350337],[-71.063545,42.350325]]],[[[-71.063536,42.350592],[-71.063392,42.350538],[-71.063368,42.350555],[-71.063262,42.350524],[-71.063238,42.350531],[-71.063248,42.350548],[-71.06339,42.350593],[-71.063414,42.350575],[-71.063511,42.350604],[-71.063536,42.350592]]],[[[-71.06353,42.350754],[-71.063357,42.350691],[-71.063332,42.350698],[-71.063343,42.350717],[-71.063503,42.350768],[-71.06353,42.350754]]],[[[-71.063501,42.350652],[-71.063357,42.350598],[-71.063237,42.35057],[-71.063213,42.350577],[-71.063223,42.350594],[-71.063374,42.350642],[-71.063476,42.350664],[-71.063501,42.350652]]],[[[-71.06344,42.350528],[-71.063287,42.350471],[-71.063263,42.350478],[-71.063273,42.350495],[-71.063415,42.35054],[-71.06344,42.350528]]],[[[-71.06338,42.350677],[-71.063217,42.350618],[-71.063193,42.350625],[-71.063203,42.350642],[-71.063354,42.35069],[-71.06338,42.350677]]],[[[-71.06332,42.350772],[-71.063167,42.350715],[-71.063143,42.350722],[-71.063153,42.350739],[-71.063295,42.350784],[-71.06332,42.350772]]],[[[-71.063313,42.350713],[-71.063187,42.350665],[-71.063163,42.350672],[-71.063173,42.350689],[-71.063288,42.350725],[-71.063313,42.350713]]],[[[-71.06331,42.350815],[-71.063137,42.350752],[-71.063112,42.350759],[-71.063123,42.350778],[-71.063283,42.350829],[-71.06331,42.350815]]],[[[-71.063277,42.35228],[-71.063133,42.352226],[-71.063109,42.352233],[-71.063119,42.35225],[-71.063252,42.352292],[-71.063277,42.35228]]],[[[-71.063216,42.352292],[-71.063072,42.352238],[-71.063048,42.352245],[-71.062911,42.352208],[-71.062813,42.35221],[-71.062823,42.352227],[-71.063091,42.352307],[-71.063115,42.352289],[-71.063063,42.352269],[-71.063191,42.352304],[-71.063216,42.352292]]],[[[-71.06299,42.353352],[-71.062817,42.353289],[-71.062719,42.3533],[-71.062731,42.353322],[-71.062901,42.353375],[-71.06299,42.353352]]],[[[-71.06299,42.353264],[-71.062817,42.353201],[-71.062726,42.353201],[-71.062737,42.35322],[-71.062897,42.353271],[-71.062978,42.353278],[-71.06299,42.353264]]],[[[-71.062748,42.348413],[-71.062729,42.348393],[-71.062541,42.348334],[-71.062501,42.348354],[-71.062519,42.348374],[-71.062707,42.348433],[-71.062748,42.348413]]],[[[-71.062721,42.349444],[-71.062709,42.349421],[-71.062616,42.34939],[-71.062591,42.349365],[-71.062366,42.349294],[-71.062311,42.349311],[-71.06232,42.349345],[-71.062413,42.349377],[-71.062438,42.349402],[-71.062663,42.349472],[-71.062695,42.349472],[-71.062721,42.349444]]],[[[-71.062633,42.34861],[-71.062449,42.348541],[-71.062419,42.348551],[-71.062431,42.348573],[-71.062601,42.348626],[-71.062633,42.34861]]],[[[-71.062625,42.348441],[-71.062601,42.348414],[-71.062385,42.348346],[-71.062342,42.348353],[-71.062331,42.348373],[-71.062355,42.3484],[-71.062571,42.348467],[-71.062601,42.348467],[-71.062625,42.348441]]],[[[-71.0622,42.353802],[-71.061984,42.353709],[-71.061966,42.353659],[-71.061939,42.35364],[-71.061617,42.353538],[-71.061593,42.353545],[-71.061603,42.353562],[-71.061673,42.353584],[-71.061665,42.353621],[-71.061691,42.35364],[-71.062002,42.353746],[-71.062013,42.353765],[-71.062173,42.353816],[-71.0622,42.353802]]],[[[-71.062151,42.349614],[-71.062121,42.349581],[-71.061911,42.349515],[-71.061858,42.349523],[-71.061843,42.349548],[-71.061873,42.349581],[-71.062084,42.349647],[-71.062121,42.349647],[-71.062151,42.349614]]],[[[-71.06213,42.349345],[-71.061995,42.349294],[-71.061971,42.349301],[-71.061981,42.349318],[-71.062105,42.349357],[-71.06213,42.349345]]],[[[-71.062112,42.353899],[-71.062064,42.353865],[-71.061866,42.353786],[-71.061866,42.353767],[-71.061736,42.353726],[-71.061712,42.353733],[-71.061722,42.35375],[-71.061797,42.353774],[-71.061797,42.353793],[-71.061874,42.353818],[-71.061883,42.353838],[-71.061957,42.35387],[-71.062087,42.353911],[-71.062112,42.353899]]],[[[-71.062086,42.348385],[-71.062058,42.348354],[-71.061823,42.348281],[-71.061789,42.348281],[-71.061764,42.348299],[-71.061686,42.348283],[-71.061747,42.348255],[-71.061747,42.34822],[-71.061714,42.348196],[-71.061434,42.348108],[-71.061386,42.348108],[-71.061353,42.348133],[-71.061366,42.348182],[-71.061592,42.348257],[-71.061558,42.348265],[-71.06142,42.348224],[-71.06139,42.348239],[-71.061397,42.348265],[-71.061539,42.348311],[-71.061569,42.348335],[-71.061852,42.34842],[-71.061891,42.348408],[-71.061907,42.34838],[-71.06204,42.348419],[-71.062073,42.348409],[-71.062086,42.348385]]],[[[-71.062075,42.349477],[-71.06194,42.349426],[-71.061916,42.349433],[-71.061926,42.34945],[-71.06205,42.349489],[-71.062075,42.349477]]],[[[-71.062052,42.349919],[-71.061917,42.349868],[-71.061893,42.349875],[-71.061903,42.349892],[-71.062027,42.349931],[-71.062052,42.349919]]],[[[-71.062022,42.349965],[-71.061887,42.349914],[-71.061863,42.349921],[-71.061873,42.349938],[-71.061997,42.349977],[-71.062022,42.349965]]],[[[-71.062016,42.350039],[-71.061881,42.349988],[-71.061857,42.349995],[-71.061867,42.350012],[-71.061991,42.350051],[-71.062016,42.350039]]],[[[-71.062005,42.35036],[-71.061981,42.350333],[-71.06175,42.350263],[-71.061722,42.350272],[-71.061711,42.350292],[-71.061722,42.350312],[-71.061688,42.350322],[-71.061675,42.350346],[-71.061703,42.350377],[-71.061954,42.350453],[-71.061996,42.350432],[-71.061996,42.350407],[-71.061972,42.350388],[-71.062005,42.35036]]],[[[-71.061992,42.350083],[-71.061857,42.350032],[-71.061833,42.350039],[-71.061843,42.350056],[-71.061967,42.350095],[-71.061992,42.350083]]],[[[-71.061976,42.349732],[-71.061946,42.349699],[-71.061757,42.349639],[-71.061744,42.349609],[-71.06163,42.349567],[-71.06142,42.349501],[-71.061382,42.349501],[-71.061356,42.34952],[-71.061367,42.349559],[-71.06167,42.349661],[-71.061698,42.349699],[-71.061928,42.349768],[-71.061962,42.349757],[-71.061976,42.349732]]],[[[-71.061962,42.350119],[-71.061827,42.350068],[-71.061803,42.350075],[-71.061813,42.350092],[-71.061937,42.350131],[-71.061962,42.350119]]],[[[-71.061939,42.350191],[-71.061813,42.350143],[-71.061789,42.35015],[-71.061799,42.350167],[-71.061914,42.350203],[-71.061939,42.350191]]],[[[-71.061922,42.350239],[-71.061787,42.350188],[-71.061763,42.350195],[-71.061773,42.350212],[-71.061897,42.350251],[-71.061922,42.350239]]],[[[-71.061917,42.348719],[-71.061891,42.34869],[-71.06165,42.348617],[-71.061611,42.348636],[-71.061611,42.34866],[-71.06152,42.348636],[-71.061488,42.348646],[-71.061475,42.34867],[-71.061503,42.348701],[-71.061754,42.348777],[-71.061787,42.348767],[-71.061796,42.348731],[-71.061875,42.34875],[-71.061905,42.348741],[-71.061917,42.348719]]],[[[-71.061894,42.34846],[-71.061759,42.348409],[-71.061735,42.348416],[-71.061745,42.348433],[-71.061869,42.348472],[-71.061894,42.34846]]],[[[-71.061734,42.348876],[-71.061599,42.348825],[-71.061575,42.348832],[-71.061585,42.348849],[-71.061709,42.348888],[-71.061734,42.348876]]],[[[-71.061732,42.348539],[-71.061597,42.348488],[-71.061573,42.348495],[-71.061583,42.348512],[-71.061707,42.348551],[-71.061732,42.348539]]],[[[-71.061727,42.348925],[-71.061701,42.348896],[-71.061476,42.348825],[-71.06143,42.348832],[-71.061418,42.348854],[-71.061444,42.348883],[-71.061669,42.348953],[-71.061701,42.348953],[-71.061727,42.348925]]],[[[-71.061663,42.351003],[-71.061479,42.350934],[-71.061449,42.350944],[-71.061461,42.350966],[-71.061631,42.351019],[-71.061663,42.351003]]],[[[-71.06158,42.3493],[-71.061331,42.349208],[-71.061291,42.349228],[-71.061309,42.349248],[-71.061497,42.349307],[-71.061569,42.349312],[-71.06158,42.3493]]],[[[-71.06156,42.349102],[-71.061387,42.349039],[-71.061362,42.349046],[-71.061373,42.349065],[-71.061533,42.349116],[-71.06156,42.349102]]],[[[-71.061542,42.351161],[-71.061407,42.35111],[-71.061383,42.351117],[-71.061393,42.351134],[-71.061517,42.351173],[-71.061542,42.351161]]],[[[-71.061521,42.351219],[-71.061386,42.351168],[-71.061362,42.351175],[-71.061372,42.351192],[-71.061496,42.351231],[-71.061521,42.351219]]],[[[-71.061495,42.351279],[-71.06136,42.351228],[-71.061336,42.351235],[-71.061346,42.351252],[-71.06147,42.351291],[-71.061495,42.351279]]],[[[-71.061492,42.349469],[-71.061357,42.349418],[-71.061333,42.349425],[-71.061343,42.349442],[-71.061467,42.349481],[-71.061492,42.349469]]],[[[-71.061476,42.351328],[-71.061341,42.351277],[-71.061317,42.351284],[-71.061327,42.351301],[-71.061451,42.35134],[-71.061476,42.351328]]],[[[-71.061447,42.349901],[-71.061421,42.349872],[-71.061196,42.349801],[-71.06115,42.349808],[-71.061138,42.34983],[-71.061164,42.349859],[-71.061389,42.349929],[-71.061421,42.349929],[-71.061447,42.349901]]],[[[-71.061415,42.349672],[-71.061271,42.349618],[-71.061247,42.349625],[-71.061257,42.349642],[-71.06139,42.349684],[-71.061415,42.349672]]],[[[-71.061409,42.350109],[-71.061377,42.350074],[-71.061124,42.349995],[-71.061067,42.350003],[-71.061052,42.35003],[-71.061084,42.350065],[-71.061337,42.350145],[-71.061377,42.350145],[-71.061409,42.350109]]],[[[-71.061394,42.34972],[-71.06125,42.349666],[-71.061226,42.349673],[-71.061236,42.34969],[-71.061369,42.349732],[-71.061394,42.34972]]],[[[-71.061368,42.353409],[-71.061187,42.353326],[-71.061179,42.353307],[-71.061056,42.353269],[-71.061057,42.353249],[-71.060927,42.353208],[-71.060903,42.353215],[-71.060913,42.353232],[-71.061018,42.353265],[-71.061017,42.353285],[-71.061105,42.353313],[-71.061113,42.353332],[-71.061213,42.35338],[-71.061343,42.353421],[-71.061368,42.353409]]],[[[-71.061362,42.354813],[-71.061227,42.354762],[-71.061203,42.354769],[-71.061213,42.354786],[-71.061337,42.354825],[-71.061362,42.354813]]],[[[-71.061312,42.354955],[-71.061177,42.354904],[-71.061153,42.354911],[-71.061163,42.354928],[-71.061287,42.354967],[-71.061312,42.354955]]],[[[-71.061285,42.348681],[-71.061253,42.348646],[-71.061,42.348567],[-71.060943,42.348575],[-71.060928,42.348602],[-71.06096,42.348637],[-71.061213,42.348717],[-71.061253,42.348717],[-71.061285,42.348681]]],[[[-71.061267,42.348799],[-71.061233,42.348761],[-71.060971,42.348679],[-71.060911,42.348688],[-71.060895,42.348717],[-71.060929,42.348755],[-71.061191,42.348837],[-71.061233,42.348837],[-71.061267,42.348799]]],[[[-71.061167,42.348898],[-71.061141,42.348869],[-71.060916,42.348798],[-71.06087,42.348805],[-71.060858,42.348827],[-71.060884,42.348856],[-71.061109,42.348926],[-71.061141,42.348926],[-71.061167,42.348898]]],[[[-71.061162,42.348529],[-71.061027,42.348478],[-71.061003,42.348485],[-71.061013,42.348502],[-71.061137,42.348541],[-71.061162,42.348529]]],[[[-71.061156,42.349271],[-71.061111,42.349222],[-71.060803,42.349125],[-71.060725,42.349137],[-71.060705,42.349174],[-71.060749,42.349223],[-71.061057,42.349319],[-71.061111,42.349319],[-71.061156,42.349271]]],[[[-71.061112,42.353402],[-71.060981,42.353331],[-71.060851,42.35329],[-71.060827,42.353297],[-71.060837,42.353314],[-71.060957,42.353373],[-71.061087,42.353414],[-71.061112,42.353402]]],[[[-71.060943,42.349456],[-71.060913,42.349423],[-71.060703,42.349357],[-71.060577,42.34933],[-71.060553,42.349337],[-71.060563,42.349354],[-71.060639,42.349378],[-71.060639,42.349404],[-71.060665,42.349423],[-71.060876,42.349489],[-71.060913,42.349489],[-71.060943,42.349456]]],[[[-71.060938,42.349582],[-71.060908,42.349549],[-71.060665,42.349473],[-71.060537,42.349441],[-71.060513,42.349448],[-71.060523,42.349465],[-71.060603,42.34949],[-71.060597,42.349506],[-71.060513,42.349491],[-71.060513,42.349515],[-71.060871,42.349616],[-71.060908,42.349616],[-71.060938,42.349582]]],[[[-71.060852,42.349746],[-71.060822,42.349713],[-71.06062,42.34965],[-71.060623,42.349629],[-71.060493,42.349588],[-71.060469,42.349605],[-71.060552,42.349635],[-71.060453,42.349635],[-71.060541,42.349703],[-71.060785,42.34978],[-71.060822,42.34978],[-71.060852,42.349746]]],[[[-71.060835,42.349871],[-71.060803,42.349836],[-71.06055,42.349757],[-71.060493,42.349765],[-71.060478,42.349792],[-71.06051,42.349827],[-71.060763,42.349907],[-71.060803,42.349907],[-71.060835,42.349871]]],[[[-71.060752,42.349299],[-71.060617,42.349248],[-71.060593,42.349255],[-71.060603,42.349272],[-71.060727,42.349311],[-71.060752,42.349299]]],[[[-71.060732,42.349339],[-71.060597,42.349288],[-71.060573,42.349295],[-71.060583,42.349312],[-71.060707,42.349351],[-71.060732,42.349339]]],[[[-71.060722,42.353079],[-71.060638,42.353044],[-71.060641,42.353031],[-71.06059,42.353003],[-71.060457,42.352962],[-71.060433,42.352969],[-71.060443,42.352986],[-71.060566,42.353032],[-71.060573,42.353052],[-71.060697,42.353091],[-71.060722,42.353079]]],[[[-71.060682,42.349446],[-71.060547,42.349395],[-71.060523,42.349402],[-71.060533,42.349419],[-71.060657,42.349458],[-71.060682,42.349446]]],[[[-71.060641,42.353325],[-71.060497,42.353271],[-71.060473,42.353278],[-71.060483,42.353295],[-71.060616,42.353337],[-71.060641,42.353325]]],[[[-71.060635,42.353473],[-71.060624,42.353452],[-71.060541,42.353424],[-71.060531,42.353406],[-71.060407,42.353368],[-71.060352,42.353385],[-71.060341,42.353405],[-71.060365,42.353432],[-71.060581,42.353499],[-71.060611,42.353499],[-71.060635,42.353473]]],[[[-71.060628,42.353189],[-71.060538,42.353152],[-71.060551,42.353134],[-71.060493,42.353099],[-71.060363,42.353058],[-71.060339,42.353065],[-71.060397,42.35311],[-71.060482,42.353137],[-71.060469,42.353145],[-71.060479,42.353162],[-71.060603,42.353201],[-71.060628,42.353189]]],[[[-71.060628,42.349595],[-71.060493,42.349544],[-71.060469,42.349551],[-71.060479,42.349568],[-71.060603,42.349607],[-71.060628,42.349595]]],[[[-71.060524,42.350216],[-71.06051,42.350191],[-71.06041,42.350156],[-71.060421,42.350149],[-71.060411,42.350131],[-71.060287,42.350093],[-71.060231,42.350125],[-71.060216,42.35015],[-71.060246,42.350183],[-71.060457,42.350249],[-71.060494,42.350249],[-71.060524,42.350216]]],[[[-71.060521,42.349926],[-71.060377,42.349872],[-71.060353,42.349879],[-71.060363,42.349896],[-71.060496,42.349938],[-71.060521,42.349926]]],[[[-71.060482,42.353486],[-71.060347,42.353435],[-71.060323,42.353442],[-71.060333,42.353459],[-71.060457,42.353498],[-71.060482,42.353486]]],[[[-71.060442,42.350076],[-71.060307,42.350025],[-71.060283,42.350032],[-71.060293,42.350049],[-71.060417,42.350088],[-71.060442,42.350076]]],[[[-71.06039,42.349538],[-71.060366,42.349511],[-71.06015,42.349443],[-71.060107,42.34945],[-71.060096,42.34947],[-71.06012,42.349497],[-71.060336,42.349564],[-71.060366,42.349564],[-71.06039,42.349538]]],[[[-71.06034,42.353483],[-71.060312,42.353452],[-71.060077,42.353379],[-71.060028,42.353386],[-71.060015,42.35341],[-71.060043,42.353441],[-71.060277,42.353514],[-71.060312,42.353514],[-71.06034,42.353483]]],[[[-71.060308,42.349615],[-71.060289,42.349595],[-71.060101,42.349536],[-71.060061,42.349556],[-71.060079,42.349576],[-71.060267,42.349635],[-71.060308,42.349615]]],[[[-71.060292,42.349709],[-71.06027,42.349684],[-71.060064,42.34962],[-71.060025,42.349625],[-71.060014,42.349644],[-71.060036,42.349668],[-71.060243,42.349733],[-71.06027,42.349733],[-71.060292,42.349709]]],[[[-71.060282,42.353001],[-71.060147,42.35295],[-71.060123,42.352957],[-71.060133,42.352974],[-71.060257,42.353013],[-71.060282,42.353001]]],[[[-71.060197,42.351115],[-71.060171,42.351086],[-71.059946,42.351015],[-71.0599,42.351022],[-71.059888,42.351044],[-71.059914,42.351073],[-71.060139,42.351143],[-71.060171,42.351143],[-71.060197,42.351115]]],[[[-71.06008,42.351191],[-71.059885,42.351117],[-71.059851,42.351128],[-71.059865,42.351153],[-71.060044,42.351209],[-71.06008,42.351191]]],[[[-71.060047,42.353331],[-71.060021,42.353302],[-71.059796,42.353231],[-71.05975,42.353238],[-71.059738,42.35326],[-71.059764,42.353289],[-71.059989,42.353359],[-71.060021,42.353359],[-71.060047,42.353331]]],[[[-71.059891,42.352795],[-71.059747,42.352741],[-71.059599,42.352725],[-71.059609,42.352742],[-71.059742,42.352784],[-71.059866,42.352807],[-71.059891,42.352795]]],[[[-71.059859,42.351776],[-71.059829,42.351743],[-71.059627,42.35167],[-71.05944,42.351609],[-71.059406,42.35162],[-71.05942,42.351645],[-71.059562,42.351689],[-71.059553,42.351703],[-71.059507,42.351704],[-71.059518,42.351723],[-71.059792,42.351809],[-71.059829,42.351809],[-71.059859,42.351776]]],[[[-71.059858,42.355013],[-71.059771,42.354935],[-71.059657,42.354897],[-71.059678,42.354866],[-71.059628,42.354843],[-71.059596,42.354779],[-71.059378,42.354709],[-71.059331,42.354723],[-71.059331,42.354743],[-71.059371,42.354764],[-71.059377,42.354791],[-71.059419,42.354806],[-71.059427,42.35483],[-71.05954,42.354867],[-71.05952,42.354899],[-71.059619,42.354969],[-71.059817,42.355033],[-71.059858,42.355013]]],[[[-71.059799,42.352849],[-71.059769,42.352816],[-71.059559,42.35275],[-71.059506,42.352758],[-71.059491,42.352783],[-71.059521,42.352816],[-71.059732,42.352882],[-71.059769,42.352882],[-71.059799,42.352849]]],[[[-71.05976,42.351662],[-71.05974,42.35164],[-71.059542,42.351578],[-71.0595,42.351591],[-71.059518,42.351622],[-71.059715,42.351684],[-71.05974,42.351684],[-71.05976,42.351662]]],[[[-71.059642,42.351136],[-71.059507,42.351085],[-71.059483,42.351092],[-71.059493,42.351109],[-71.059617,42.351148],[-71.059642,42.351136]]],[[[-71.059602,42.351209],[-71.059467,42.351158],[-71.059443,42.351165],[-71.059453,42.351182],[-71.059577,42.351221],[-71.059602,42.351209]]],[[[-71.059557,42.351757],[-71.059373,42.351688],[-71.059343,42.351698],[-71.059355,42.35172],[-71.059525,42.351773],[-71.059557,42.351757]]],[[[-71.059552,42.353139],[-71.059417,42.353088],[-71.059393,42.353095],[-71.059403,42.353112],[-71.059527,42.353151],[-71.059552,42.353139]]],[[[-71.059542,42.353049],[-71.059407,42.352998],[-71.059383,42.353005],[-71.059393,42.353022],[-71.059517,42.353061],[-71.059542,42.353049]]],[[[-71.059493,42.351833],[-71.059309,42.351764],[-71.059279,42.351774],[-71.059291,42.351796],[-71.059461,42.351849],[-71.059493,42.351833]]],[[[-71.059462,42.351366],[-71.059448,42.351341],[-71.059397,42.351322],[-71.059399,42.351293],[-71.059372,42.351273],[-71.059129,42.351197],[-71.059091,42.351197],[-71.059065,42.351216],[-71.059065,42.351244],[-71.059127,42.351274],[-71.059125,42.351304],[-71.05915,42.351322],[-71.059095,42.351343],[-71.059095,42.351371],[-71.059121,42.35139],[-71.059384,42.351469],[-71.059429,42.351447],[-71.059429,42.35142],[-71.059404,42.351401],[-71.059448,42.351392],[-71.059462,42.351366]]],[[[-71.059308,42.353333],[-71.059173,42.353282],[-71.058973,42.353271],[-71.058963,42.353288],[-71.058853,42.353256],[-71.058829,42.353263],[-71.058839,42.35328],[-71.058963,42.353319],[-71.058987,42.353302],[-71.059097,42.353334],[-71.059297,42.353345],[-71.059308,42.353333]]],[[[-71.05929,42.354447],[-71.05927,42.354425],[-71.059133,42.354382],[-71.059142,42.354371],[-71.059111,42.354352],[-71.059114,42.35433],[-71.058947,42.354277],[-71.058922,42.354284],[-71.058933,42.354303],[-71.05899,42.354321],[-71.058987,42.354342],[-71.05905,42.354362],[-71.05903,42.354376],[-71.059048,42.354407],[-71.059245,42.354469],[-71.05927,42.354469],[-71.05929,42.354447]]],[[[-71.059245,42.351573],[-71.05905,42.351499],[-71.059016,42.35151],[-71.05903,42.351535],[-71.059209,42.351591],[-71.059245,42.351573]]],[[[-71.059222,42.351499],[-71.059087,42.351448],[-71.059063,42.351455],[-71.059073,42.351472],[-71.059197,42.351511],[-71.059222,42.351499]]],[[[-71.059212,42.351669],[-71.05919,42.351644],[-71.058984,42.35158],[-71.058945,42.351585],[-71.058934,42.351604],[-71.058956,42.351628],[-71.059163,42.351693],[-71.05919,42.351693],[-71.059212,42.351669]]],[[[-71.05912,42.351752],[-71.0591,42.35173],[-71.058902,42.351668],[-71.05886,42.351681],[-71.058878,42.351712],[-71.059075,42.351774],[-71.0591,42.351774],[-71.05912,42.351752]]],[[[-71.059092,42.351803],[-71.05907,42.351778],[-71.058864,42.351714],[-71.058825,42.351719],[-71.058814,42.351738],[-71.058836,42.351762],[-71.059043,42.351827],[-71.05907,42.351827],[-71.059092,42.351803]]],[[[-71.05909,42.351691],[-71.058937,42.351634],[-71.058913,42.351641],[-71.058923,42.351658],[-71.059065,42.351703],[-71.05909,42.351691]]],[[[-71.059042,42.351845],[-71.05902,42.35182],[-71.058814,42.351756],[-71.058775,42.351761],[-71.058764,42.35178],[-71.058786,42.351804],[-71.058993,42.351869],[-71.05902,42.351869],[-71.059042,42.351845]]],[[[-71.058971,42.351913],[-71.0589,42.351855],[-71.058767,42.351814],[-71.058701,42.351818],[-71.058677,42.351845],[-71.058701,42.351872],[-71.058917,42.351939],[-71.058947,42.351939],[-71.058971,42.351913]]],[[[-71.05889,42.351968],[-71.05887,42.351946],[-71.05866,42.351882],[-71.058597,42.35193],[-71.058781,42.351999],[-71.058812,42.35198],[-71.05887,42.35199],[-71.05889,42.351968]]],[[[-71.058882,42.353307],[-71.058747,42.353256],[-71.058723,42.353263],[-71.058733,42.35328],[-71.058857,42.353319],[-71.058882,42.353307]]],[[[-71.058847,42.352079],[-71.058831,42.35205],[-71.05872,42.352012],[-71.058711,42.351993],[-71.058587,42.351955],[-71.05853,42.351956],[-71.058491,42.351968],[-71.058451,42.352018],[-71.058451,42.352042],[-71.058397,42.35205],[-71.058398,42.352087],[-71.058363,42.352085],[-71.058353,42.352102],[-71.058496,42.352151],[-71.05852,42.352144],[-71.058674,42.352181],[-71.058707,42.352171],[-71.058716,42.352135],[-71.058754,42.352112],[-71.058813,42.352117],[-71.058847,42.352079]]],[[[-71.058692,42.352569],[-71.058643,42.352544],[-71.058654,42.35252],[-71.058487,42.352467],[-71.058353,42.352465],[-71.058363,42.352482],[-71.058474,42.352517],[-71.058482,42.352536],[-71.058417,42.352516],[-71.058233,42.352507],[-71.058243,42.352524],[-71.058367,42.352563],[-71.058471,42.352564],[-71.058536,42.352582],[-71.05856,42.352575],[-71.058551,42.352558],[-71.058667,42.352581],[-71.058692,42.352569]],[[-71.058548,42.352517],[-71.058509,42.352515],[-71.058511,42.352505],[-71.058548,42.352517]]],[[[-71.058412,42.350949],[-71.058207,42.350875],[-71.058183,42.350882],[-71.058193,42.350899],[-71.058387,42.350961],[-71.058412,42.350949]]],[[[-71.058402,42.352506],[-71.058267,42.352455],[-71.058243,42.352462],[-71.058253,42.352479],[-71.058377,42.352518],[-71.058402,42.352506]]],[[[-71.058162,42.352704],[-71.058027,42.352653],[-71.058003,42.35266],[-71.058013,42.352677],[-71.058137,42.352716],[-71.058162,42.352704]]],[[[-71.058156,42.352807],[-71.058021,42.352756],[-71.057997,42.352763],[-71.058007,42.35278],[-71.058131,42.352819],[-71.058156,42.352807]]],[[[-71.058132,42.352944],[-71.057997,42.352893],[-71.057973,42.3529],[-71.057983,42.352917],[-71.058107,42.352956],[-71.058132,42.352944]]],[[[-71.057929,42.352282],[-71.057921,42.352269],[-71.057351,42.35209],[-71.057311,42.35211],[-71.057329,42.35213],[-71.057771,42.352269],[-71.057903,42.352301],[-71.057929,42.352282]]],[[[-71.057927,42.350732],[-71.057747,42.350665],[-71.057723,42.350672],[-71.057733,42.350689],[-71.057902,42.350744],[-71.057927,42.350732]]],[[[-71.057538,42.350442],[-71.057403,42.350391],[-71.057379,42.350398],[-71.057389,42.350415],[-71.057513,42.350454],[-71.057538,42.350442]]],[[[-71.057522,42.350533],[-71.057387,42.350482],[-71.057363,42.350489],[-71.057373,42.350506],[-71.057497,42.350545],[-71.057522,42.350533]]],[[[-71.057481,42.351749],[-71.057337,42.351695],[-71.057313,42.351702],[-71.057323,42.351719],[-71.057456,42.351761],[-71.057481,42.351749]]],[[[-71.057462,42.351789],[-71.057327,42.351738],[-71.057303,42.351745],[-71.057313,42.351762],[-71.057437,42.351801],[-71.057462,42.351789]]],[[[-71.05744,42.35097],[-71.057287,42.350913],[-71.057263,42.35092],[-71.057273,42.350937],[-71.057415,42.350982],[-71.05744,42.35097]]],[[[-71.057433,42.351936],[-71.057298,42.351885],[-71.057274,42.351892],[-71.057284,42.351909],[-71.057408,42.351948],[-71.057433,42.351936]]],[[[-71.057413,42.351991],[-71.057287,42.351943],[-71.057263,42.35195],[-71.057273,42.351967],[-71.057388,42.352003],[-71.057413,42.351991]]],[[[-71.05741,42.351108],[-71.057257,42.351051],[-71.057233,42.351058],[-71.057243,42.351075],[-71.057385,42.35112],[-71.05741,42.351108]]],[[[-71.057332,42.351449],[-71.057197,42.351398],[-71.057173,42.351405],[-71.057183,42.351422],[-71.057307,42.351461],[-71.057332,42.351449]]],[[[-71.057322,42.350589],[-71.057187,42.350538],[-71.057059,42.350528],[-71.057069,42.350545],[-71.057193,42.350584],[-71.057217,42.350577],[-71.057297,42.350601],[-71.057322,42.350589]]],[[[-71.057271,42.350671],[-71.057136,42.35062],[-71.057112,42.350627],[-71.057122,42.350644],[-71.057246,42.350683],[-71.057271,42.350671]]],[[[-71.05722,42.349965],[-71.0572,42.349943],[-71.056772,42.349818],[-71.05673,42.349831],[-71.056748,42.349862],[-71.057175,42.349987],[-71.0572,42.349987],[-71.05722,42.349965]]],[[[-71.057162,42.349879],[-71.057044,42.349833],[-71.057021,42.349801],[-71.056805,42.349733],[-71.056754,42.349749],[-71.056754,42.349771],[-71.056775,42.349787],[-71.057137,42.349891],[-71.057162,42.349879]]],[[[-71.05702,42.352075],[-71.056737,42.351982],[-71.056713,42.351989],[-71.056723,42.352006],[-71.056994,42.352088],[-71.05702,42.352075]]],[[[-71.056984,42.349981],[-71.056954,42.349948],[-71.056744,42.349882],[-71.056691,42.34989],[-71.056676,42.349915],[-71.056706,42.349948],[-71.056917,42.350014],[-71.056954,42.350014],[-71.056984,42.349981]]],[[[-71.056958,42.350269],[-71.056823,42.350218],[-71.056799,42.350225],[-71.056602,42.350163],[-71.05656,42.350176],[-71.056578,42.350207],[-71.056775,42.350269],[-71.056811,42.350264],[-71.05682,42.350246],[-71.056933,42.350281],[-71.056958,42.350269]]],[[[-71.056939,42.350072],[-71.056909,42.350039],[-71.056699,42.349973],[-71.056646,42.349981],[-71.056631,42.350006],[-71.056661,42.350039],[-71.056872,42.350105],[-71.056909,42.350105],[-71.056939,42.350072]]],[[[-71.056922,42.350346],[-71.056787,42.350295],[-71.056763,42.350302],[-71.056773,42.350319],[-71.056897,42.350358],[-71.056922,42.350346]]],[[[-71.056848,42.350153],[-71.056829,42.350133],[-71.056641,42.350074],[-71.056601,42.350094],[-71.056619,42.350114],[-71.056807,42.350173],[-71.056848,42.350153]]],[[[-71.056805,42.353259],[-71.056556,42.353131],[-71.056237,42.353038],[-71.056213,42.353045],[-71.056223,42.353062],[-71.056522,42.35316],[-71.056533,42.353178],[-71.056579,42.353193],[-71.056582,42.353217],[-71.056769,42.353277],[-71.056805,42.353259]]],[[[-71.056795,42.35066],[-71.056632,42.350601],[-71.056608,42.350608],[-71.056618,42.350625],[-71.056769,42.350673],[-71.056795,42.35066]]],[[[-71.056769,42.3509],[-71.056739,42.350867],[-71.056529,42.350801],[-71.056476,42.350809],[-71.056461,42.350834],[-71.056491,42.350867],[-71.056702,42.350933],[-71.056739,42.350933],[-71.056769,42.3509]]],[[[-71.05676,42.350727],[-71.056597,42.350668],[-71.056573,42.350675],[-71.056583,42.350692],[-71.056734,42.35074],[-71.05676,42.350727]]],[[[-71.05662,42.351967],[-71.056457,42.351908],[-71.056377,42.351888],[-71.056353,42.351895],[-71.056363,42.351912],[-71.056478,42.351948],[-71.056594,42.35198],[-71.05662,42.351967]]],[[[-71.056552,42.351069],[-71.056417,42.351018],[-71.056393,42.351025],[-71.056403,42.351042],[-71.056527,42.351081],[-71.056552,42.351069]]],[[[-71.05655,42.351144],[-71.056387,42.351085],[-71.056363,42.351092],[-71.056373,42.351109],[-71.056524,42.351157],[-71.05655,42.351144]]],[[[-71.05649,42.354977],[-71.056327,42.354918],[-71.056303,42.354925],[-71.056313,42.354942],[-71.056464,42.35499],[-71.05649,42.354977]]],[[[-71.056488,42.351215],[-71.056353,42.351164],[-71.056329,42.351171],[-71.056339,42.351188],[-71.056463,42.351227],[-71.056488,42.351215]]],[[[-71.056485,42.354726],[-71.05629,42.354652],[-71.056256,42.354663],[-71.05627,42.354688],[-71.056449,42.354744],[-71.056485,42.354726]]],[[[-71.05648,42.354883],[-71.056317,42.354824],[-71.056293,42.354831],[-71.056303,42.354848],[-71.056454,42.354896],[-71.05648,42.354883]]],[[[-71.05647,42.3548],[-71.056297,42.354737],[-71.056272,42.354744],[-71.056283,42.354763],[-71.056443,42.354814],[-71.05647,42.3548]]],[[[-71.056408,42.350889],[-71.056245,42.35083],[-71.056221,42.350837],[-71.056231,42.350854],[-71.056382,42.350902],[-71.056408,42.350889]]],[[[-71.056391,42.351418],[-71.056247,42.351364],[-71.056223,42.351371],[-71.056233,42.351388],[-71.056366,42.35143],[-71.056391,42.351418]]],[[[-71.056378,42.35098],[-71.056215,42.350921],[-71.056191,42.350928],[-71.056201,42.350945],[-71.056352,42.350993],[-71.056378,42.35098]]],[[[-71.056372,42.351453],[-71.056228,42.351399],[-71.056204,42.351406],[-71.056214,42.351423],[-71.056347,42.351465],[-71.056372,42.351453]]],[[[-71.056341,42.351492],[-71.056197,42.351438],[-71.056173,42.351445],[-71.056183,42.351462],[-71.056316,42.351504],[-71.056341,42.351492]]],[[[-71.056338,42.351083],[-71.056175,42.351024],[-71.056151,42.351031],[-71.056161,42.351048],[-71.056312,42.351096],[-71.056338,42.351083]]],[[[-71.0563,42.351192],[-71.056137,42.351133],[-71.056113,42.35114],[-71.056123,42.351157],[-71.056274,42.351205],[-71.0563,42.351192]]],[[[-71.056211,42.351752],[-71.056067,42.351698],[-71.056043,42.351705],[-71.056053,42.351722],[-71.056186,42.351764],[-71.056211,42.351752]]],[[[-71.056129,42.351402],[-71.055966,42.351343],[-71.055942,42.35135],[-71.055952,42.351367],[-71.056103,42.351415],[-71.056129,42.351402]]],[[[-71.056105,42.351459],[-71.055942,42.3514],[-71.055918,42.351407],[-71.055928,42.351424],[-71.056079,42.351472],[-71.056105,42.351459]]],[[[-71.056079,42.352292],[-71.056049,42.352259],[-71.05582,42.35219],[-71.055786,42.352201],[-71.055775,42.35224],[-71.055737,42.352276],[-71.055767,42.352309],[-71.055997,42.352378],[-71.056031,42.352367],[-71.056042,42.352328],[-71.056079,42.352292]]],[[[-71.056072,42.351529],[-71.055909,42.35147],[-71.055885,42.351477],[-71.055895,42.351494],[-71.056046,42.351542],[-71.056072,42.351529]]],[[[-71.05604,42.351608],[-71.055877,42.351549],[-71.055853,42.351556],[-71.055863,42.351573],[-71.056014,42.351621],[-71.05604,42.351608]]],[[[-71.056011,42.351669],[-71.055848,42.35161],[-71.055824,42.351617],[-71.055834,42.351634],[-71.055985,42.351682],[-71.056011,42.351669]]],[[[-71.055986,42.353398],[-71.055966,42.353376],[-71.055768,42.353314],[-71.055726,42.353327],[-71.055744,42.353358],[-71.055941,42.35342],[-71.055966,42.35342],[-71.055986,42.353398]]],[[[-71.05596,42.351774],[-71.055797,42.351715],[-71.055773,42.351722],[-71.055783,42.351739],[-71.055934,42.351787],[-71.05596,42.351774]]],[[[-71.05594,42.351823],[-71.055777,42.351764],[-71.055753,42.351771],[-71.055763,42.351788],[-71.055914,42.351836],[-71.05594,42.351823]]],[[[-71.055913,42.353453],[-71.055895,42.353433],[-71.055706,42.353374],[-71.055666,42.353394],[-71.055684,42.353414],[-71.055872,42.353473],[-71.055913,42.353453]]],[[[-71.055806,42.35348],[-71.055633,42.353417],[-71.055608,42.353424],[-71.055619,42.353443],[-71.055779,42.353494],[-71.055806,42.35348]]],[[[-71.05571,42.353544],[-71.055547,42.353485],[-71.055523,42.353492],[-71.055533,42.353509],[-71.055684,42.353557],[-71.05571,42.353544]]],[[[-71.055631,42.353572],[-71.055487,42.353518],[-71.055463,42.353525],[-71.055473,42.353542],[-71.055606,42.353584],[-71.055631,42.353572]]],[[[-71.055428,42.353731],[-71.05538,42.353702],[-71.055381,42.353682],[-71.055251,42.353641],[-71.055189,42.353657],[-71.055189,42.353687],[-71.055149,42.353694],[-71.055161,42.353716],[-71.055331,42.353769],[-71.055349,42.353769],[-71.055361,42.353747],[-71.05541,42.353751],[-71.055428,42.353731]]]]},"properties":{"kind":"tree"}}]}