{"type":"FeatureCollection","features":[{"type":"Feature","geometry":{"type":"MultiPolygon","coordinates":[[[[-71.067764,42.352129],[-71.067741,42.351995],[-71.067481,42.351409],[-71.067143,42.351269],[-71.067131,42.35115],[-71.066267,42.350793],[-71.066444,42.350785],[-71.06643,42.350614],[-71.066671,42.350628],[-71.066873,42.350614],[-71.066838,42.350285],[-71.066733,42.350164],[-71.066094,42.3499],[-71.066116,42.349793],[-71.066231,42.34984],[-71.066308,42.349816],[-71.066319,42.349779],[-71.066308,42.349744],[-71.066322,42.34974],[-71.06627,42.349617],[-71.066233,42.349583],[-71.066006,42.349489],[-71.06562,42.349445],[-71.065521,42.349461],[-71.065462,42.349738],[-71.065169,42.349617],[-71.064661,42.349539],[-71.064678,42.349447],[-71.064481,42.349366],[-71.064551,42.349222],[-71.064653,42.349291],[-71.065192,42.349514],[-71.065373,42.349421],[-71.065353,42.349398],[-71.065459,42.349431],[-71.065721,42.349308],[-71.065493,42.349043],[-71.065442,42.349021],[-71.065463,42.348942],[-71.065456,42.348857],[-71.065419,42.348762],[-71.065674,42.348801],[-71.065711,42.348746],[-71.065745,42.34862],[-71.065751,42.348554],[-71.065506,42.348452],[-71.065519,42.348428],[-71.065424,42.348321],[-71.06555,42.348206],[-71.06555,42.348132],[-71.065496,42.348071],[-71.065627,42.347985],[-71.065636,42.347947],[-71.0656,42.347874],[-71.065601,42.347793],[-71.065257,42.347643],[-71.064894,42.347587],[-71.064503,42.347783],[-71.064385,42.34806],[-71.064088,42.347938],[-71.063968,42.347919],[-71.063883,42.347989],[-71.063856,42.347985],[-71.063829,42.348081],[-71.063858,42.348093],[-71.063888,42.348157],[-71.063746,42.348132],[-71.063799,42.347946],[-71.063606,42.347866],[-71.06346,42.347843],[-71.063406,42.348042],[-71.063301,42.347999],[-71.062961,42.347921],[-71.062932,42.347994],[-71.062735,42.347939],[-71.062689,42.348052],[-71.062678,42.348049],[-71.062703,42.347986],[-71.061866,42.34764],[-71.061712,42.347604],[-71.061566,42.347954],[-71.061555,42.348046],[-71.061885,42.348182],[-71.061791,42.348416],[-71.061011,42.348097],[-71.060549,42.348739],[-71.061031,42.348938],[-71.060878,42.348902],[-71.060748,42.349235],[-71.060321,42.349063],[-71.060204,42.349326],[-71.059925,42.350048],[-71.061233,42.350588],[-71.061534,42.350682],[-71.061544,42.350658],[-71.06177,42.350722],[-71.061789,42.350675],[-71.062088,42.350743],[-71.062093,42.350732],[-71.062435,42.350873],[-71.062946,42.351003],[-71.06296,42.350985],[-71.063119,42.351051],[-71.063049,42.351044],[-71.063027,42.351108],[-71.062859,42.351039],[-71.062298,42.350942],[-71.06229,42.350966],[-71.062092,42.350886],[-71.061597,42.350765],[-71.061578,42.350812],[-71.061295,42.350688],[-71.060899,42.350587],[-71.060893,42.3506],[-71.060747,42.35054],[-71.060472,42.350463],[-71.060395,42.350464],[-71.060389,42.35048],[-71.060116,42.350367],[-71.059867,42.350296],[-71.059851,42.350337],[-71.059471,42.35018],[-71.059047,42.350086],[-71.058996,42.350102],[-71.058988,42.350122],[-71.058776,42.350034],[-71.058372,42.349945],[-71.058368,42.349957],[-71.058289,42.349924],[-71.057874,42.34983],[-71.057797,42.349869],[-71.057505,42.349748],[-71.057133,42.349667],[-71.05695,42.350087],[-71.057041,42.349806],[-71.057077,42.349761],[-71.057239,42.349427],[-71.05714,42.349386],[-71.057148,42.349353],[-71.056775,42.349199],[-71.056596,42.349149],[-71.055984,42.349324],[-71.057038,42.34775],[-71.057028,42.347691],[-71.055908,42.347262],[-71.054533,42.349309],[-71.054519,42.349436],[-71.054447,42.34941],[-71.053477,42.350853],[-71.05408,42.351102],[-71.054661,42.351317],[-71.054944,42.350955],[-71.055227,42.350534],[-71.055387,42.35065],[-71.055843,42.350837],[-71.05601,42.350857],[-71.056585,42.350832],[-71.05656,42.350888],[-71.056935,42.351043],[-71.056543,42.350948],[-71.056401,42.351249],[-71.057348,42.351643],[-71.057329,42.351744],[-71.056525,42.351411],[-71.056294,42.351331],[-71.056087,42.351748],[-71.055768,42.35162],[-71.055498,42.351545],[-71.054479,42.351779],[-71.054307,42.351954],[-71.054833,42.352232],[-71.055405,42.352468],[-71.055565,42.352519],[-71.055733,42.352544],[-71.05591,42.352504],[-71.055947,42.352477],[-71.056034,42.352612],[-71.05658,42.352837],[-71.056666,42.352821],[-71.057107,42.353003],[-71.057106,42.353073],[-71.057149,42.353124],[-71.057259,42.353188],[-71.057948,42.353472],[-71.057933,42.353509],[-71.057947,42.353542],[-71.058482,42.353905],[-71.057554,42.353522],[-71.057295,42.353434],[-71.057246,42.353513],[-71.056242,42.353099],[-71.055998,42.353225],[-71.056026,42.35333],[-71.056549,42.353546],[-71.056521,42.353559],[-71.056528,42.35357],[-71.056476,42.353587],[-71.056441,42.353518],[-71.055897,42.353294],[-71.055573,42.353469],[-71.055607,42.353504],[-71.055589,42.353497],[-71.055421,42.353589],[-71.05539,42.353623],[-71.055342,42.353603],[-71.054915,42.353838],[-71.055058,42.353982],[-71.054889,42.353912],[-71.054793,42.353902],[-71.054391,42.354111],[-71.054355,42.354162],[-71.054364,42.354206],[-71.054619,42.354471],[-71.054856,42.354569],[-71.054775,42.354643],[-71.05498,42.354839],[-71.05562,42.355103],[-71.055688,42.355479],[-71.057106,42.356064],[-71.057221,42.356069],[-71.05741,42.356051],[-71.05942,42.35688],[-71.059872,42.356836],[-71.059771,42.356257],[-71.05918,42.356013],[-71.059556,42.355985],[-71.059536,42.355834],[-71.057329,42.354923],[-71.056918,42.354749],[-71.056931,42.354743],[-71.056924,42.354731],[-71.057193,42.354841],[-71.057264,42.354821],[-71.057499,42.354918],[-71.057588,42.354892],[-71.057629,42.354909],[-71.057707,42.354887],[-71.057692,42.354809],[-71.057637,42.354786],[-71.057748,42.354767],[-71.057735,42.354659],[-71.058045,42.354784],[-71.05787,42.354957],[-71.057867,42.35498],[-71.058422,42.355207],[-71.058661,42.355211],[-71.058973,42.35534],[-71.0591,42.355355],[-71.059155,42.355336],[-71.060865,42.356015],[-71.061111,42.355801],[-71.061174,42.355723],[-71.060958,42.355539],[-71.060786,42.355458],[-71.06087,42.355381],[-71.061012,42.35544],[-71.061092,42.355382],[-71.061127,42.355396],[-71.061325,42.355212],[-71.061876,42.355441],[-71.062048,42.355254],[-71.061757,42.355101],[-71.06154,42.355011],[-71.061563,42.35499],[-71.061691,42.355042],[-71.061753,42.354985],[-71.062184,42.355207],[-71.062573,42.355368],[-71.062728,42.355201],[-71.063164,42.355355],[-71.063242,42.355273],[-71.06359,42.355417],[-71.063652,42.35535],[-71.063388,42.355207],[-71.063018,42.35505],[-71.062743,42.354902],[-71.062434,42.354774],[-71.062395,42.354747],[-71.062411,42.35473],[-71.06217,42.354601],[-71.062212,42.354554],[-71.062288,42.35459],[-71.062278,42.3546],[-71.062752,42.354816],[-71.063211,42.355053],[-71.063973,42.355367],[-71.064017,42.355358],[-71.064122,42.355165],[-71.064564,42.355347],[-71.064753,42.355403],[-71.064784,42.355405],[-71.064815,42.355325],[-71.065011,42.355383],[-71.0653,42.354847],[-71.065113,42.35477],[-71.065153,42.354726],[-71.065034,42.354676],[-71.065512,42.354674],[-71.065551,42.354421],[-71.064958,42.354176],[-71.065016,42.354054],[-71.06437,42.353788],[-71.064395,42.353675],[-71.064362,42.35365],[-71.064373,42.353618],[-71.065316,42.354007],[-71.065533,42.354011],[-71.065859,42.354133],[-71.065913,42.354036],[-71.065827,42.353637],[-71.065036,42.353305],[-71.065073,42.353197],[-71.065265,42.353206],[-71.0653,42.353055],[-71.065113,42.352978],[-71.065142,42.352752],[-71.064991,42.352678],[-71.065372,42.35272],[-71.065393,42.352608],[-71.065455,42.352633],[-71.066293,42.35269],[-71.066303,42.352621],[-71.066455,42.352684],[-71.066652,42.352699],[-71.066699,42.352411],[-71.066421,42.352296],[-71.066423,42.352281],[-71.06654,42.35228],[-71.066549,42.352195],[-71.066588,42.352211],[-71.066696,42.352207],[-71.066688,42.352053],[-71.067581,42.352174],[-71.067764,42.352129]],[[-71.065831,42.351214],[-71.065771,42.351221],[-71.065165,42.350971],[-71.065186,42.350948],[-71.065831,42.351214]],[[-71.065735,42.350363],[-71.065625,42.35037],[-71.065537,42.350337],[-71.06531,42.3503],[-71.065291,42.350368],[-71.065102,42.35029],[-71.065125,42.350238],[-71.065573,42.350309],[-71.065576,42.350297],[-71.065735,42.350363]],[[-71.065153,42.35124],[-71.064967,42.35123],[-71.064948,42.351302],[-71.064927,42.351293],[-71.064999,42.351176],[-71.065153,42.35124]],[[-71.065011,42.348622],[-71.064341,42.348545],[-71.064334,42.348568],[-71.064286,42.348574],[-71.064269,42.348597],[-71.063945,42.348463],[-71.063623,42.348413],[-71.063616,42.348439],[-71.063476,42.348381],[-71.063076,42.34832],[-71.063095,42.348302],[-71.063418,42.348341],[-71.063442,42.348258],[-71.063419,42.348226],[-71.06327,42.348165],[-71.063312,42.348116],[-71.063382,42.348132],[-71.063365,42.348193],[-71.063607,42.348293],[-71.064262,42.348391],[-71.064277,42.348333],[-71.065011,42.348622]],[[-71.06426,42.351858],[-71.06425,42.351904],[-71.064001,42.351801],[-71.064011,42.351756],[-71.06426,42.351858]],[[-71.064183,42.350231],[-71.064037,42.350466],[-71.064022,42.35046],[-71.064068,42.350298],[-71.064102,42.350303],[-71.064111,42.350273],[-71.064078,42.350259],[-71.064098,42.350189],[-71.064183,42.350231]],[[-71.063748,42.351647],[-71.063203,42.351582],[-71.063208,42.351547],[-71.063605,42.351593],[-71.063748,42.351647]],[[-71.063561,42.34904],[-71.063303,42.349],[-71.063042,42.348892],[-71.062425,42.348727],[-71.062236,42.349176],[-71.063,42.349521],[-71.063006,42.349556],[-71.063061,42.349628],[-71.062233,42.349284],[-71.062169,42.349306],[-71.06216,42.349346],[-71.0621,42.349322],[-71.062376,42.348658],[-71.062304,42.348628],[-71.062358,42.34864],[-71.062384,42.348578],[-71.062467,42.348597],[-71.062448,42.348644],[-71.062847,42.348809],[-71.063527,42.348913],[-71.063561,42.34904]],[[-71.06347,42.354034],[-71.063436,42.35407],[-71.063438,42.35402],[-71.06347,42.354034]],[[-71.063202,42.353376],[-71.063199,42.35345],[-71.063082,42.353402],[-71.062995,42.353399],[-71.062794,42.353316],[-71.063011,42.353297],[-71.063202,42.353376]],[[-71.063187,42.348141],[-71.063177,42.348169],[-71.06311,42.348159],[-71.063067,42.348118],[-71.063123,42.348131],[-71.063129,42.348117],[-71.063187,42.348141]],[[-71.062876,42.351642],[-71.062857,42.351738],[-71.062591,42.351633],[-71.062461,42.351606],[-71.062461,42.351581],[-71.06258,42.351577],[-71.062579,42.351565],[-71.062659,42.351598],[-71.062876,42.351642]],[[-71.062816,42.348281],[-71.062604,42.34825],[-71.062577,42.348317],[-71.062602,42.348233],[-71.062816,42.348281]],[[-71.062815,42.350107],[-71.062807,42.350133],[-71.062775,42.350146],[-71.062146,42.349886],[-71.061995,42.349851],[-71.061874,42.349801],[-71.06177,42.349671],[-71.062815,42.350107]],[[-71.062675,42.352553],[-71.062673,42.352591],[-71.062441,42.352495],[-71.062437,42.352467],[-71.062643,42.352552],[-71.062675,42.352553]],[[-71.062566,42.351146],[-71.062508,42.351128],[-71.062519,42.351101],[-71.062565,42.35112],[-71.062566,42.351146]],[[-71.06232,42.353825],[-71.062247,42.353912],[-71.062224,42.353903],[-71.061715,42.353688],[-71.061696,42.353555],[-71.060449,42.353041],[-71.060736,42.353091],[-71.060816,42.353124],[-71.061277,42.35336],[-71.061718,42.353542],[-71.06232,42.353825]],[[-71.062309,42.352492],[-71.062299,42.352493],[-71.062298,42.352487],[-71.062309,42.352492]],[[-71.062018,42.352516],[-71.061825,42.352533],[-71.06177,42.352488],[-71.061816,42.352483],[-71.061806,42.352429],[-71.062018,42.352516]],[[-71.061837,42.350957],[-71.061607,42.350908],[-71.0616,42.350896],[-71.061613,42.350865],[-71.061837,42.350957]],[[-71.061832,42.352205],[-71.061723,42.352231],[-71.061748,42.352351],[-71.061625,42.3523],[-71.06155,42.352307],[-71.061362,42.352225],[-71.061354,42.352129],[-71.061332,42.35212],[-71.061462,42.35209],[-71.061739,42.352204],[-71.061832,42.352205]],[[-71.061689,42.351534],[-71.06157,42.351537],[-71.061587,42.351491],[-71.061689,42.351534]],[[-71.061521,42.350946],[-71.061462,42.35114],[-71.061448,42.351138],[-71.06144,42.351159],[-71.061227,42.351071],[-71.060845,42.350993],[-71.060877,42.35091],[-71.06082,42.350886],[-71.060861,42.350785],[-71.061101,42.350883],[-71.061317,42.35093],[-71.061424,42.350918],[-71.061521,42.350946]],[[-71.061389,42.349369],[-71.061373,42.34941],[-71.061197,42.349338],[-71.061212,42.349296],[-71.061389,42.349369]],[[-71.061312,42.351657],[-71.061041,42.351545],[-71.060388,42.351402],[-71.060369,42.351415],[-71.06038,42.351451],[-71.060346,42.351436],[-71.060332,42.351411],[-71.060225,42.351365],[-71.059758,42.351262],[-71.059709,42.351391],[-71.059779,42.351867],[-71.059626,42.351804],[-71.059386,42.351848],[-71.059423,42.352093],[-71.059226,42.352012],[-71.059026,42.352083],[-71.058873,42.352183],[-71.058814,42.352257],[-71.058775,42.35235],[-71.059318,42.352574],[-71.058902,42.352524],[-71.058176,42.352542],[-71.058071,42.352594],[-71.058039,42.352716],[-71.058023,42.35271],[-71.058044,42.352663],[-71.057,42.352232],[-71.05625,42.352043],[-71.056333,42.35187],[-71.056842,42.35208],[-71.057266,42.35219],[-71.057502,42.352287],[-71.058077,42.352437],[-71.058093,42.352351],[-71.058548,42.352491],[-71.058718,42.351977],[-71.058284,42.351795],[-71.058302,42.351798],[-71.058307,42.351783],[-71.058384,42.351814],[-71.058612,42.351849],[-71.058632,42.3518],[-71.058706,42.351831],[-71.058902,42.351874],[-71.05909,42.351696],[-71.059204,42.351559],[-71.059334,42.351355],[-71.059382,42.351243],[-71.059038,42.351101],[-71.058633,42.351011],[-71.058622,42.351039],[-71.058414,42.350953],[-71.058104,42.350876],[-71.058099,42.350892],[-71.057558,42.350757],[-71.057527,42.350772],[-71.05732,42.350691],[-71.05694,42.350597],[-71.056785,42.350613],[-71.056729,42.35059],[-71.056832,42.350372],[-71.056878,42.350421],[-71.056873,42.350442],[-71.057349,42.350639],[-71.057487,42.350673],[-71.057813,42.350808],[-71.057902,42.350817],[-71.057962,42.35079],[-71.05814,42.350857],[-71.05829,42.350893],[-71.058308,42.35087],[-71.058496,42.350916],[-71.058502,42.350897],[-71.058595,42.35092],[-71.058604,42.3509],[-71.058669,42.350917],[-71.058686,42.350872],[-71.059137,42.351069],[-71.059559,42.351163],[-71.059614,42.351147],[-71.059817,42.350646],[-71.059954,42.350702],[-71.060154,42.350746],[-71.059972,42.351168],[-71.060274,42.351293],[-71.060748,42.351394],[-71.060759,42.351369],[-71.061064,42.351495],[-71.06129,42.351547],[-71.061312,42.351657]],[[-71.06117,42.34912],[-71.061153,42.349156],[-71.061162,42.349117],[-71.06117,42.34912]],[[-71.061161,42.349219],[-71.061143,42.349264],[-71.061099,42.349246],[-71.061128,42.349201],[-71.061161,42.349219]],[[-71.060641,42.351698],[-71.060586,42.351708],[-71.060572,42.35167],[-71.060641,42.351698]],[[-71.060609,42.35218],[-71.060508,42.352138],[-71.060595,42.352133],[-71.060609,42.35218]],[[-71.060479,42.352139],[-71.060388,42.352154],[-71.060384,42.352132],[-71.060388,42.352114],[-71.060479,42.352139]],[[-71.060292,42.355254],[-71.060082,42.355168],[-71.060047,42.355135],[-71.060292,42.355254]],[[-71.060144,42.352391],[-71.060093,42.35237],[-71.060079,42.352278],[-71.060125,42.35227],[-71.060144,42.352391]],[[-71.059442,42.354007],[-71.059414,42.353996],[-71.05924,42.354028],[-71.059221,42.354019],[-71.059294,42.35395],[-71.059285,42.353939],[-71.059442,42.354007]],[[-71.057686,42.35166],[-71.057601,42.351647],[-71.057605,42.351627],[-71.057686,42.35166]],[[-71.057654,42.354415],[-71.057617,42.35447],[-71.056897,42.354173],[-71.056891,42.354141],[-71.057562,42.354418],[-71.057654,42.354415]]],[[[-71.06704,42.348759],[-71.066697,42.348617],[-71.066704,42.348583],[-71.066668,42.348568],[-71.066712,42.34836],[-71.065995,42.348062],[-71.065837,42.348044],[-71.065752,42.348444],[-71.065815,42.348471],[-71.065804,42.348522],[-71.065911,42.348566],[-71.065917,42.348586],[-71.066474,42.348816],[-71.066572,42.348839],[-71.067012,42.348879],[-71.06704,42.348759]]],[[[-71.066291,42.349559],[-71.066235,42.349461],[-71.066051,42.349385],[-71.065989,42.349405],[-71.066043,42.349503],[-71.066227,42.349579],[-71.066291,42.349559]]],[[[-71.065744,42.354421],[-71.065713,42.354379],[-71.065521,42.354301],[-71.065469,42.354307],[-71.065445,42.354332],[-71.065445,42.354357],[-71.065468,42.354381],[-71.065666,42.354462],[-71.065719,42.354456],[-71.065744,42.354421]]],[[[-71.06552,42.352912],[-71.065303,42.352844],[-71.065286,42.352891],[-71.065312,42.352972],[-71.065477,42.353027],[-71.06552,42.352912]]],[[[-71.0598,42.35014],[-71.059784,42.350113],[-71.059352,42.349934],[-71.059423,42.34977],[-71.05924,42.349701],[-71.059179,42.349693],[-71.059117,42.349837],[-71.059153,42.349727],[-71.05859,42.349495],[-71.058607,42.349452],[-71.058424,42.349376],[-71.057926,42.349266],[-71.057859,42.349433],[-71.057994,42.349489],[-71.057962,42.349568],[-71.057872,42.349548],[-71.057853,42.349597],[-71.058031,42.349653],[-71.05845,42.349826],[-71.059059,42.349963],[-71.059076,42.34992],[-71.059479,42.350086],[-71.059529,42.350079],[-71.05974,42.350166],[-71.059777,42.350165],[-71.0598,42.35014]]],[[[-71.059015,42.349096],[-71.058071,42.348706],[-71.057613,42.348605],[-71.057529,42.348814],[-71.058473,42.349204],[-71.058932,42.349305],[-71.059015,42.349096]]]]},"properties":{"kind":"building"}},{"type":"Feature","geometry":{"type":"MultiPolygon","coordinates":[[[[-71.066417,42.353599],[-71.066406,42.353558],[-71.066375,42.353523],[-71.066094,42.353403],[-71.066173,42.353385],[-71.066201,42.353336],[-71.066173,42.353286],[-71.066115,42.35326],[-71.066141,42.353241],[-71.066234,42.353267],[-71.06628,42.353261],[-71.066345,42.353213],[-71.066355,42.353179],[-71.066326,42.353123],[-71.066363,42.353089],[-71.066391,42.353021],[-71.06638,42.35298],[-71.066349,42.352945],[-71.065942,42.352773],[-71.065914,42.352726],[-71.06597,42.352717],[-71.066053,42.352743],[-71.066105,42.352727],[-71.066188,42.352751],[-71.06624,42.352735],[-71.066262,42.352696],[-71.06624,42.352657],[-71.065976,42.352546],[-71.065894,42.352558],[-71.065841,42.352538],[-71.065771,42.352544],[-71.065717,42.352522],[-71.065659,42.352522],[-71.065619,42.352552],[-71.065631,42.352607],[-71.065361,42.35251],[-71.065288,42.352533],[-71.065265,42.352558],[-71.065261,42.352602],[-71.065049,42.352515],[-71.064975,42.352515],[-71.064943,42.35253],[-71.064915,42.352581],[-71.064943,42.352632],[-71.065264,42.352767],[-71.065301,42.352772],[-71.06537,42.352751],[-71.065391,42.352728],[-71.065396,42.352689],[-71.065613,42.352778],[-71.065525,42.352783],[-71.065472,42.352821],[-71.065472,42.352877],[-71.065524,42.352915],[-71.065481,42.352931],[-71.065463,42.35295],[-71.065463,42.352996],[-71.065431,42.353012],[-71.065327,42.352962],[-71.06536,42.352942],[-71.06536,42.352914],[-71.065406,42.352886],[-71.065393,42.352839],[-71.065168,42.352745],[-71.065124,42.352745],[-71.065092,42.352768],[-71.065105,42.352816],[-71.065081,42.352852],[-71.065094,42.352876],[-71.065032,42.352908],[-71.065032,42.352948],[-71.065184,42.353024],[-71.065172,42.353051],[-71.065192,42.353087],[-71.065381,42.353167],[-71.065367,42.353202],[-71.065197,42.353131],[-71.065168,42.353092],[-71.065129,42.353073],[-71.064791,42.352933],[-71.064699,42.352933],[-71.06466,42.352952],[-71.064625,42.353015],[-71.064656,42.353073],[-71.064658,42.353148],[-71.064758,42.353233],[-71.064823,42.353261],[-71.064762,42.353273],[-71.064701,42.353248],[-71.064617,42.353248],[-71.064557,42.353292],[-71.064549,42.353323],[-71.064581,42.353381],[-71.065152,42.353623],[-71.06523,42.353612],[-71.065435,42.353687],[-71.065521,42.353731],[-71.065509,42.353756],[-71.065526,42.353787],[-71.06575,42.353881],[-71.065795,42.353881],[-71.065831,42.353841],[-71.065814,42.35381],[-71.065748,42.353781],[-71.065761,42.353757],[-71.065863,42.353756],[-71.065911,42.353733],[-71.065942,42.353698],[-71.065953,42.353656],[-71.065942,42.353615],[-71.065911,42.35358],[-71.065745,42.353508],[-71.065768,42.353459],[-71.065809,42.353527],[-71.066215,42.353699],[-71.066327,42.353699],[-71.066375,42.353676],[-71.066406,42.353641],[-71.066417,42.353599]],[[-71.065945,42.353348],[-71.065912,42.353343],[-71.065917,42.353336],[-71.065945,42.353348]],[[-71.065776,42.353415],[-71.065768,42.353443],[-71.06576,42.353412],[-71.065776,42.353415]],[[-71.06514,42.353386],[-71.065109,42.353395],[-71.065092,42.353371],[-71.065004,42.353333],[-71.06514,42.353386]]],[[[-71.066273,42.355066],[-71.066231,42.355019],[-71.065219,42.354613],[-71.065275,42.354563],[-71.065261,42.354513],[-71.065029,42.354416],[-71.064986,42.354415],[-71.064978,42.354368],[-71.065095,42.354411],[-71.065131,42.3544],[-71.065143,42.354358],[-71.064939,42.354265],[-71.064944,42.354247],[-71.065051,42.354282],[-71.065096,42.35426],[-71.065247,42.354307],[-71.065288,42.354294],[-71.065301,42.354247],[-71.065063,42.354139],[-71.065019,42.354139],[-71.064983,42.354177],[-71.064893,42.35414],[-71.064985,42.354147],[-71.065029,42.3541],[-71.065109,42.354125],[-71.065166,42.354107],[-71.065396,42.354192],[-71.065437,42.354179],[-71.06545,42.354132],[-71.065378,42.354092],[-71.065361,42.354048],[-71.065121,42.353947],[-71.065071,42.353947],[-71.06504,42.353968],[-71.064656,42.353828],[-71.064664,42.353782],[-71.064702,42.353731],[-71.064662,42.353686],[-71.064443,42.353596],[-71.064393,42.353596],[-71.064358,42.353622],[-71.064358,42.353658],[-71.064319,42.35371],[-71.064332,42.353737],[-71.064296,42.353748],[-71.06428,42.353777],[-71.064296,42.353806],[-71.064327,42.35382],[-71.064258,42.353857],[-71.064258,42.353905],[-71.064238,42.353945],[-71.064262,42.353987],[-71.064447,42.354066],[-71.06444,42.354075],[-71.064326,42.354028],[-71.064264,42.354028],[-71.06422,42.35406],[-71.06422,42.354106],[-71.064264,42.354138],[-71.064518,42.354243],[-71.064594,42.354237],[-71.064657,42.354263],[-71.064628,42.354303],[-71.064488,42.354254],[-71.064447,42.35422],[-71.064207,42.354121],[-71.064149,42.354121],[-71.064103,42.354172],[-71.064148,42.354222],[-71.064088,42.354236],[-71.064069,42.35427],[-71.064088,42.354304],[-71.064128,42.354322],[-71.064161,42.35436],[-71.064451,42.354484],[-71.064466,42.354506],[-71.064537,42.354536],[-71.064573,42.354577],[-71.064778,42.354662],[-71.064815,42.354663],[-71.064841,42.354709],[-71.06487,42.354723],[-71.065392,42.354939],[-71.06555,42.354985],[-71.065602,42.354969],[-71.065905,42.355077],[-71.065953,42.35507],[-71.066002,42.355039],[-71.066205,42.355116],[-71.066253,42.355101],[-71.066273,42.355066]],[[-71.064858,42.354605],[-71.064855,42.354606],[-71.064852,42.354602],[-71.064858,42.354605]],[[-71.064849,42.354137],[-71.064825,42.354152],[-71.064644,42.354078],[-71.064653,42.354056],[-71.064849,42.354137]]],[[[-71.066224,42.354616],[-71.066186,42.354548],[-71.065785,42.354379],[-71.065685,42.354379],[-71.065615,42.354431],[-71.065615,42.354505],[-71.065643,42.354536],[-71.066045,42.354705],[-71.066144,42.354705],[-71.066186,42.354684],[-71.066224,42.354616]]],[[[-71.066184,42.354129],[-71.066172,42.354108],[-71.065996,42.354034],[-71.065953,42.354041],[-71.065942,42.354061],[-71.065912,42.354049],[-71.065945,42.354029],[-71.065934,42.35399],[-71.065374,42.353742],[-71.065322,42.353742],[-71.065285,42.35377],[-71.065285,42.353808],[-71.065384,42.353861],[-71.065399,42.353896],[-71.065616,42.353987],[-71.06563,42.354015],[-71.065928,42.354138],[-71.065938,42.354162],[-71.066067,42.354215],[-71.066097,42.354206],[-71.066122,42.354157],[-71.06616,42.354155],[-71.066184,42.354129]]],[[[-71.066049,42.348129],[-71.06603,42.348095],[-71.06579,42.347994],[-71.06574,42.347994],[-71.065705,42.34802],[-71.065719,42.348072],[-71.06596,42.348173],[-71.066009,42.348173],[-71.066049,42.348129]]],[[[-71.065989,42.348262],[-71.065973,42.348233],[-71.065756,42.348142],[-71.065714,42.348142],[-71.065684,42.348164],[-71.065696,42.348209],[-71.065913,42.3483],[-71.065955,42.3483],[-71.065989,42.348262]]],[[[-71.065944,42.348531],[-71.065927,42.3485],[-71.065754,42.348427],[-71.06576,42.348386],[-71.065726,42.348362],[-71.065514,42.348274],[-71.065466,42.348274],[-71.065433,42.348299],[-71.065446,42.348348],[-71.06563,42.348425],[-71.065626,42.348463],[-71.065658,42.348486],[-71.065863,42.348571],[-71.065908,42.348571],[-71.065944,42.348531]]],[[[-71.065822,42.348332],[-71.065717,42.348281],[-71.065693,42.348288],[-71.065703,42.348305],[-71.065797,42.348344],[-71.065822,42.348332]]],[[[-71.065718,42.349302],[-71.065704,42.349276],[-71.065529,42.349203],[-71.065491,42.349203],[-71.065465,42.349222],[-71.065476,42.349261],[-71.065651,42.349335],[-71.065688,42.349335],[-71.065718,42.349302]]],[[[-71.065696,42.351267],[-71.065577,42.351211],[-71.065553,42.351218],[-71.065563,42.351235],[-71.065671,42.35128],[-71.065696,42.351267]]],[[[-71.065685,42.348993],[-71.065587,42.348945],[-71.065563,42.348952],[-71.065573,42.348969],[-71.06566,42.349005],[-71.065685,42.348993]]],[[[-71.065649,42.34913],[-71.065551,42.349082],[-71.065527,42.349089],[-71.065537,42.349106],[-71.065624,42.349142],[-71.065649,42.34913]]],[[[-71.065642,42.348149],[-71.065537,42.348098],[-71.065513,42.348105],[-71.065523,42.348122],[-71.065617,42.348161],[-71.065642,42.348149]]],[[[-71.065612,42.348499],[-71.065469,42.34843],[-71.065439,42.34844],[-71.065451,42.348462],[-71.06558,42.348515],[-71.065612,42.348499]]],[[[-71.065599,42.354061],[-71.06558,42.354027],[-71.065496,42.35399],[-71.065495,42.353962],[-71.065461,42.353938],[-71.065249,42.35385],[-71.065201,42.35385],[-71.065168,42.353875],[-71.065168,42.353909],[-71.065254,42.353956],[-71.065255,42.353988],[-71.06529,42.354014],[-71.06551,42.354105],[-71.065559,42.354105],[-71.065599,42.354061]]],[[[-71.065592,42.348856],[-71.065578,42.34883],[-71.065403,42.348757],[-71.065365,42.348757],[-71.065339,42.348776],[-71.06535,42.348815],[-71.065525,42.348889],[-71.065562,42.348889],[-71.065592,42.348856]]],[[[-71.065563,42.349146],[-71.065549,42.349121],[-71.065349,42.349037],[-71.065311,42.349037],[-71.065285,42.349056],[-71.065296,42.349095],[-71.065496,42.349179],[-71.065533,42.349179],[-71.065563,42.349146]]],[[[-71.065552,42.349005],[-71.065542,42.348986],[-71.065374,42.348916],[-71.065327,42.34893],[-71.065335,42.348959],[-71.065503,42.349029],[-71.06553,42.349029],[-71.065552,42.349005]]],[[[-71.065469,42.351252],[-71.065357,42.351198],[-71.065333,42.351205],[-71.065343,42.351222],[-71.065444,42.351264],[-71.065469,42.351252]]],[[[-71.065362,42.351249],[-71.065257,42.351198],[-71.065233,42.351205],[-71.065243,42.351222],[-71.065337,42.351261],[-71.065362,42.351249]]],[[[-71.065312,42.350776],[-71.06516,42.350702],[-71.065126,42.350713],[-71.06514,42.350738],[-71.065276,42.350794],[-71.065312,42.350776]]],[[[-71.065287,42.35084],[-71.065135,42.350766],[-71.065101,42.350777],[-71.065115,42.350802],[-71.065251,42.350858],[-71.065287,42.35084]]],[[[-71.065251,42.350903],[-71.065117,42.35084],[-71.065092,42.350847],[-71.065103,42.350866],[-71.065224,42.350917],[-71.065251,42.350903]]],[[[-71.065214,42.355111],[-71.065184,42.355057],[-71.064847,42.354915],[-71.064767,42.354915],[-71.064711,42.354957],[-71.064711,42.355015],[-71.064734,42.35504],[-71.065071,42.355182],[-71.06515,42.355182],[-71.065184,42.355165],[-71.065214,42.355111]]],[[[-71.065182,42.354877],[-71.065166,42.354848],[-71.064949,42.354757],[-71.064907,42.354757],[-71.064877,42.354779],[-71.064889,42.354824],[-71.065106,42.354915],[-71.065148,42.354915],[-71.065182,42.354877]]],[[[-71.065045,42.351352],[-71.064933,42.351298],[-71.064909,42.351305],[-71.064919,42.351322],[-71.06502,42.351364],[-71.065045,42.351352]]],[[[-71.065028,42.353658],[-71.064999,42.353606],[-71.06467,42.353467],[-71.064592,42.353467],[-71.064538,42.353508],[-71.064538,42.353564],[-71.06456,42.353589],[-71.064889,42.353727],[-71.064966,42.353727],[-71.064999,42.353711],[-71.065028,42.353658]]],[[[-71.064951,42.348495],[-71.064846,42.348444],[-71.064822,42.348451],[-71.064832,42.348468],[-71.064926,42.348507],[-71.064951,42.348495]]],[[[-71.064833,42.354836],[-71.064728,42.354785],[-71.064704,42.354792],[-71.064714,42.354809],[-71.064808,42.354848],[-71.064833,42.354836]]],[[[-71.064738,42.3547],[-71.064722,42.354673],[-71.064667,42.354649],[-71.064651,42.354616],[-71.064426,42.354522],[-71.064363,42.354531],[-71.064372,42.354504],[-71.064348,42.354462],[-71.064067,42.354344],[-71.063979,42.354357],[-71.063955,42.354399],[-71.063968,42.35443],[-71.063903,42.354482],[-71.063892,42.354523],[-71.063903,42.354564],[-71.063935,42.354599],[-71.064162,42.354697],[-71.064161,42.354729],[-71.064235,42.354769],[-71.064252,42.354818],[-71.064509,42.354926],[-71.064587,42.354915],[-71.064603,42.354898],[-71.064603,42.354857],[-71.064454,42.354771],[-71.064578,42.354815],[-71.06462,42.354815],[-71.06465,42.354793],[-71.06465,42.354761],[-71.06456,42.354714],[-71.064544,42.354687],[-71.064686,42.354738],[-71.064722,42.354727],[-71.064738,42.3547]]],[[[-71.064718,42.351865],[-71.064613,42.351814],[-71.064589,42.351821],[-71.064599,42.351838],[-71.064693,42.351877],[-71.064718,42.351865]]],[[[-71.064715,42.348464],[-71.06461,42.348413],[-71.064586,42.34842],[-71.064596,42.348437],[-71.06469,42.348476],[-71.064715,42.348464]]],[[[-71.064686,42.352154],[-71.064552,42.352091],[-71.064527,42.352098],[-71.064538,42.352117],[-71.064659,42.352168],[-71.064686,42.352154]]],[[[-71.064669,42.352097],[-71.064557,42.352043],[-71.064533,42.35205],[-71.064543,42.352067],[-71.064644,42.352109],[-71.064669,42.352097]]],[[[-71.064642,42.352199],[-71.064537,42.352148],[-71.064513,42.352155],[-71.064523,42.352172],[-71.064617,42.352211],[-71.064642,42.352199]]],[[[-71.06453,42.348438],[-71.064425,42.348387],[-71.064401,42.348394],[-71.064411,42.348411],[-71.064505,42.34845],[-71.06453,42.348438]]],[[[-71.064338,42.348773],[-71.064195,42.348704],[-71.064165,42.348714],[-71.064177,42.348736],[-71.064306,42.348789],[-71.064338,42.348773]]],[[[-71.064332,42.350964],[-71.064227,42.350913],[-71.064113,42.350909],[-71.06405,42.35089],[-71.06402,42.350905],[-71.063934,42.350874],[-71.063895,42.350903],[-71.063919,42.35093],[-71.064098,42.350999],[-71.064134,42.350982],[-71.064212,42.350998],[-71.064241,42.350958],[-71.064307,42.350976],[-71.064332,42.350964]]],[[[-71.064283,42.348887],[-71.064157,42.348828],[-71.064133,42.348835],[-71.064143,42.348852],[-71.064258,42.3489],[-71.064283,42.348887]]],[[[-71.064224,42.354815],[-71.064217,42.354791],[-71.064172,42.354757],[-71.063878,42.354645],[-71.063818,42.354663],[-71.0638,42.354683],[-71.063799,42.354727],[-71.063772,42.354739],[-71.063749,42.35478],[-71.063772,42.354821],[-71.063797,42.354833],[-71.064075,42.35494],[-71.06413,42.354923],[-71.064152,42.354882],[-71.064217,42.354839],[-71.064224,42.354815]]],[[[-71.064203,42.353347],[-71.064077,42.353288],[-71.063929,42.353252],[-71.063899,42.353262],[-71.063911,42.353284],[-71.06404,42.353337],[-71.064069,42.353329],[-71.064178,42.35336],[-71.064203,42.353347]]],[[[-71.064171,42.35344],[-71.064037,42.353377],[-71.063893,42.353369],[-71.063903,42.353386],[-71.064018,42.353434],[-71.064144,42.353454],[-71.064171,42.35344]]],[[[-71.064113,42.353807],[-71.063987,42.353748],[-71.063963,42.353755],[-71.063973,42.353772],[-71.064088,42.35382],[-71.064113,42.353807]]],[[[-71.064072,42.354029],[-71.064063,42.354012],[-71.063902,42.353945],[-71.06386,42.353958],[-71.063867,42.353984],[-71.064027,42.354051],[-71.064052,42.354051],[-71.064072,42.354029]]],[[[-71.064037,42.348725],[-71.063903,42.348662],[-71.063878,42.348669],[-71.063889,42.348688],[-71.06401,42.348739],[-71.064037,42.348725]]],[[[-71.064022,42.348796],[-71.063879,42.348727],[-71.063849,42.348737],[-71.063861,42.348759],[-71.06399,42.348812],[-71.064022,42.348796]]],[[[-71.064001,42.34892],[-71.063867,42.348857],[-71.063842,42.348864],[-71.063853,42.348883],[-71.063974,42.348934],[-71.064001,42.34892]]],[[[-71.063967,42.348832],[-71.063862,42.348781],[-71.063838,42.348788],[-71.063848,42.348805],[-71.063942,42.348844],[-71.063967,42.348832]]],[[[-71.063952,42.354176],[-71.0638,42.354102],[-71.063766,42.354113],[-71.06378,42.354138],[-71.063916,42.354194],[-71.063952,42.354176]]],[[[-71.063915,42.349187],[-71.06381,42.349136],[-71.063786,42.349143],[-71.063796,42.34916],[-71.06389,42.349199],[-71.063915,42.349187]]],[[[-71.063902,42.348466],[-71.063797,42.348415],[-71.063683,42.348405],[-71.063693,42.348422],[-71.063787,42.348461],[-71.063811,42.348454],[-71.063877,42.348478],[-71.063902,42.348466]]],[[[-71.063862,42.349332],[-71.063757,42.349281],[-71.063733,42.349288],[-71.063743,42.349305],[-71.063837,42.349344],[-71.063862,42.349332]]],[[[-71.063857,42.350945],[-71.063848,42.350928],[-71.063687,42.350861],[-71.063645,42.350874],[-71.06352,42.350845],[-71.063496,42.350857],[-71.06337,42.350808],[-71.063336,42.350819],[-71.06335,42.350844],[-71.063486,42.3509],[-71.06352,42.350889],[-71.063646,42.350938],[-71.063739,42.350937],[-71.063825,42.350969],[-71.063857,42.350945]]],[[[-71.063849,42.349374],[-71.063744,42.349323],[-71.06372,42.34933],[-71.06373,42.349347],[-71.063824,42.349386],[-71.063849,42.349374]]],[[[-71.063811,42.34981],[-71.063677,42.349747],[-71.063652,42.349754],[-71.063663,42.349773],[-71.063784,42.349824],[-71.063811,42.34981]]],[[[-71.063747,42.349901],[-71.063621,42.349842],[-71.063597,42.349849],[-71.063607,42.349866],[-71.063722,42.349914],[-71.063747,42.349901]]],[[[-71.063728,42.354766],[-71.063714,42.35474],[-71.063539,42.354667],[-71.063501,42.354667],[-71.063475,42.354686],[-71.063486,42.354725],[-71.063661,42.354799],[-71.063698,42.354799],[-71.063728,42.354766]]],[[[-71.063701,42.35],[-71.063567,42.349937],[-71.063542,42.349944],[-71.063553,42.349963],[-71.063674,42.350014],[-71.063701,42.35]]],[[[-71.063668,42.354866],[-71.063654,42.35484],[-71.063479,42.354767],[-71.063441,42.354767],[-71.063415,42.354786],[-71.063426,42.354825],[-71.063601,42.354899],[-71.063638,42.354899],[-71.063668,42.354866]]],[[[-71.063663,42.350047],[-71.063537,42.349988],[-71.063513,42.349995],[-71.063523,42.350012],[-71.063638,42.35006],[-71.063663,42.350047]]],[[[-71.063573,42.350465],[-71.063447,42.350406],[-71.063423,42.350413],[-71.063433,42.35043],[-71.063548,42.350478],[-71.063573,42.350465]]],[[[-71.063566,42.350224],[-71.063447,42.350168],[-71.063423,42.350175],[-71.063433,42.350192],[-71.063541,42.350237],[-71.063566,42.350224]]],[[[-71.063542,42.350531],[-71.063317,42.350428],[-71.063293,42.350435],[-71.063303,42.350452],[-71.063517,42.350544],[-71.063542,42.350531]]],[[[-71.063536,42.35029],[-71.063417,42.350234],[-71.063393,42.350241],[-71.063403,42.350258],[-71.063511,42.350303],[-71.063536,42.35029]]],[[[-71.063526,42.350824],[-71.063365,42.350745],[-71.063325,42.350765],[-71.063486,42.350844],[-71.063526,42.350824]]],[[[-71.063511,42.350324],[-71.063392,42.350268],[-71.063368,42.350275],[-71.063378,42.350292],[-71.063486,42.350337],[-71.063511,42.350324]]],[[[-71.063504,42.350592],[-71.063396,42.350539],[-71.063395,42.350515],[-71.063287,42.350471],[-71.063263,42.350478],[-71.063273,42.350495],[-71.063377,42.350538],[-71.063378,42.350562],[-71.063479,42.350604],[-71.063504,42.350592]]],[[[-71.063491,42.350754],[-71.063357,42.350691],[-71.063332,42.350698],[-71.063343,42.350717],[-71.063464,42.350768],[-71.063491,42.350754]]],[[[-71.063469,42.350652],[-71.063357,42.350598],[-71.063333,42.350605],[-71.063237,42.35057],[-71.063213,42.350577],[-71.063223,42.350594],[-71.063338,42.350642],[-71.063362,42.350635],[-71.063444,42.350664],[-71.063469,42.350652]]],[[[-71.063381,42.35058],[-71.063262,42.350524],[-71.063238,42.350531],[-71.063248,42.350548],[-71.063356,42.350593],[-71.063381,42.35058]]],[[[-71.063343,42.350677],[-71.063217,42.350618],[-71.063193,42.350625],[-71.063203,42.350642],[-71.063318,42.35069],[-71.063343,42.350677]]],[[[-71.063286,42.350771],[-71.063167,42.350715],[-71.063143,42.350722],[-71.063153,42.350739],[-71.063261,42.350784],[-71.063286,42.350771]]],[[[-71.063285,42.350713],[-71.063187,42.350665],[-71.063163,42.350672],[-71.063173,42.350689],[-71.06326,42.350725],[-71.063285,42.350713]]],[[[-71.063271,42.350815],[-71.063137,42.350752],[-71.063112,42.350759],[-71.063123,42.350778],[-71.063244,42.350829],[-71.063271,42.350815]]],[[[-71.063245,42.35228],[-71.063133,42.352226],[-71.063109,42.352233],[-71.063119,42.35225],[-71.06322,42.352292],[-71.063245,42.35228]]],[[[-71.063184,42.352292],[-71.063072,42.352238],[-71.063048,42.352245],[-71.063058,42.352262],[-71.063159,42.352304],[-71.063184,42.352292]]],[[[-71.063084,42.352295],[-71.062911,42.352208],[-71.062813,42.35221],[-71.062823,42.352227],[-71.062924,42.352269],[-71.062948,42.352262],[-71.063059,42.352307],[-71.063084,42.352295]]],[[[-71.062951,42.353352],[-71.062817,42.353289],[-71.062792,42.353308],[-71.062749,42.35329],[-71.062719,42.3533],[-71.062731,42.353322],[-71.06286,42.353375],[-71.062877,42.353375],[-71.06289,42.353353],[-71.062939,42.353366],[-71.062951,42.353352]]],[[[-71.062951,42.353264],[-71.062817,42.353201],[-71.062726,42.353201],[-71.062737,42.35322],[-71.062858,42.353271],[-71.062939,42.353278],[-71.062951,42.353264]]],[[[-71.062702,42.348413],[-71.062541,42.348334],[-71.062501,42.348354],[-71.062662,42.348433],[-71.062702,42.348413]]],[[[-71.062667,42.349443],[-71.062655,42.349421],[-71.062366,42.349294],[-71.062311,42.349311],[-71.06232,42.349345],[-71.062609,42.349472],[-71.062641,42.349472],[-71.062667,42.349443]]],[[[-71.062592,42.34861],[-71.062449,42.348541],[-71.062419,42.348551],[-71.062431,42.348573],[-71.06256,42.348626],[-71.062592,42.34861]]],[[[-71.062573,42.348441],[-71.062561,42.34842],[-71.062385,42.348346],[-71.062334,42.348362],[-71.062342,42.348393],[-71.062519,42.348467],[-71.062549,42.348467],[-71.062573,42.348441]]],[[[-71.062161,42.353802],[-71.061947,42.353701],[-71.061888,42.35364],[-71.061617,42.353538],[-71.061593,42.353545],[-71.061603,42.353562],[-71.061668,42.353589],[-71.061665,42.353621],[-71.061691,42.35364],[-71.061851,42.353706],[-71.061888,42.353706],[-71.062134,42.353816],[-71.062161,42.353802]]],[[[-71.0621,42.349614],[-71.062086,42.349588],[-71.061911,42.349515],[-71.061873,42.349515],[-71.061847,42.349534],[-71.061858,42.349573],[-71.062033,42.349647],[-71.06207,42.349647],[-71.0621,42.349614]]],[[[-71.0621,42.349345],[-71.061995,42.349294],[-71.061971,42.349301],[-71.061981,42.349318],[-71.062075,42.349357],[-71.0621,42.349345]]],[[[-71.062082,42.353899],[-71.061836,42.353767],[-71.061736,42.353726],[-71.061712,42.353733],[-71.061876,42.353835],[-71.062057,42.353911],[-71.062082,42.353899]]],[[[-71.062045,42.349477],[-71.06194,42.349426],[-71.061916,42.349433],[-71.061926,42.34945],[-71.06202,42.349489],[-71.062045,42.349477]]],[[[-71.062029,42.348385],[-71.062016,42.348362],[-71.061823,42.348281],[-71.061774,42.348288],[-71.061763,42.348322],[-71.061653,42.348277],[-71.061704,42.348223],[-71.061434,42.348108],[-71.061386,42.348108],[-71.061353,42.348133],[-71.061366,42.348182],[-71.06156,42.348264],[-71.061547,42.348273],[-71.06142,42.348224],[-71.06139,42.348239],[-71.061397,42.348265],[-71.061747,42.348408],[-71.061735,42.348416],[-71.061745,42.348433],[-71.061839,42.348472],[-71.061863,42.348455],[-71.061785,42.348419],[-71.061828,42.348408],[-71.06184,42.348364],[-71.061984,42.348419],[-71.062016,42.348409],[-71.062029,42.348385]]],[[[-71.062022,42.349919],[-71.061917,42.349868],[-71.061893,42.349875],[-71.061903,42.349892],[-71.061997,42.349931],[-71.062022,42.349919]]],[[[-71.061992,42.349965],[-71.061887,42.349914],[-71.061863,42.349921],[-71.061873,42.349938],[-71.061967,42.349977],[-71.061992,42.349965]]],[[[-71.061986,42.350039],[-71.061881,42.349988],[-71.061857,42.349995],[-71.061867,42.350012],[-71.061961,42.350051],[-71.061986,42.350039]]],[[[-71.061962,42.350083],[-71.061857,42.350032],[-71.061833,42.350039],[-71.061843,42.350056],[-71.061937,42.350095],[-71.061962,42.350083]]],[[[-71.061953,42.35036],[-71.061929,42.350333],[-71.06175,42.350263],[-71.061722,42.350272],[-71.061711,42.350292],[-71.061722,42.350312],[-71.061688,42.350322],[-71.061675,42.350346],[-71.061703,42.350377],[-71.061898,42.350453],[-71.06194,42.350432],[-71.06194,42.350406],[-71.061915,42.350388],[-71.061953,42.35036]]],[[[-71.061932,42.350119],[-71.061827,42.350068],[-71.061803,42.350075],[-71.061813,42.350092],[-71.061907,42.350131],[-71.061932,42.350119]]],[[[-71.061925,42.349732],[-71.061895,42.349699],[-71.061707,42.349632],[-71.061693,42.349608],[-71.061518,42.349535],[-71.061401,42.349498],[-71.061356,42.34952],[-71.061356,42.349548],[-71.061382,42.349567],[-71.061669,42.349668],[-71.061683,42.349691],[-71.061858,42.349765],[-71.061895,42.349765],[-71.061925,42.349732]]],[[[-71.061911,42.350191],[-71.061813,42.350143],[-71.061789,42.35015],[-71.061799,42.350167],[-71.061886,42.350203],[-71.061911,42.350191]]],[[[-71.061892,42.350239],[-71.061787,42.350188],[-71.061763,42.350195],[-71.061773,42.350212],[-71.061867,42.350251],[-71.061892,42.350239]]],[[[-71.061863,42.348718],[-71.061851,42.348696],[-71.061666,42.348619],[-71.061611,42.348636],[-71.06162,42.34867],[-71.061805,42.348747],[-71.061837,42.348747],[-71.061863,42.348718]]],[[[-71.061743,42.348743],[-71.06173,42.34872],[-71.061537,42.348639],[-71.061503,42.348639],[-71.061478,42.348657],[-71.061488,42.348694],[-71.06168,42.348774],[-71.061715,42.348774],[-71.061743,42.348743]]],[[[-71.061704,42.348876],[-71.061599,42.348825],[-71.061575,42.348832],[-71.061585,42.348849],[-71.061679,42.348888],[-71.061704,42.348876]]],[[[-71.061702,42.348539],[-71.061597,42.348488],[-71.061573,42.348495],[-71.061583,42.348512],[-71.061677,42.348551],[-71.061702,42.348539]]],[[[-71.061673,42.348924],[-71.061661,42.348902],[-71.061476,42.348825],[-71.061421,42.348842],[-71.06143,42.348876],[-71.061615,42.348953],[-71.061647,42.348953],[-71.061673,42.348924]]],[[[-71.061622,42.351003],[-71.061479,42.350934],[-71.061449,42.350944],[-71.061461,42.350966],[-71.06159,42.351019],[-71.061622,42.351003]]],[[[-71.061546,42.349299],[-71.061331,42.349208],[-71.061291,42.349228],[-71.061452,42.349307],[-71.061535,42.349312],[-71.061546,42.349299]]],[[[-71.061521,42.349102],[-71.061387,42.349039],[-71.061362,42.349046],[-71.061373,42.349065],[-71.061494,42.349116],[-71.061521,42.349102]]],[[[-71.061512,42.351161],[-71.061407,42.35111],[-71.061383,42.351117],[-71.061393,42.351134],[-71.061487,42.351173],[-71.061512,42.351161]]],[[[-71.061491,42.351219],[-71.061386,42.351168],[-71.061362,42.351175],[-71.061372,42.351192],[-71.061466,42.351231],[-71.061491,42.351219]]],[[[-71.061465,42.351279],[-71.06136,42.351228],[-71.061336,42.351235],[-71.061346,42.351252],[-71.06144,42.351291],[-71.061465,42.351279]]],[[[-71.061462,42.349469],[-71.061357,42.349418],[-71.061333,42.349425],[-71.061343,42.349442],[-71.061437,42.349481],[-71.061462,42.349469]]],[[[-71.061446,42.351328],[-71.061341,42.351277],[-71.061317,42.351284],[-71.061327,42.351301],[-71.061421,42.35134],[-71.061446,42.351328]]],[[[-71.061393,42.3499],[-71.061381,42.349878],[-71.061196,42.349801],[-71.061141,42.349818],[-71.06115,42.349852],[-71.061335,42.349929],[-71.061367,42.349929],[-71.061393,42.3499]]],[[[-71.061383,42.349672],[-71.061271,42.349618],[-71.061247,42.349625],[-71.061257,42.349642],[-71.061358,42.349684],[-71.061383,42.349672]]],[[[-71.061362,42.34972],[-71.06125,42.349666],[-71.061226,42.349673],[-71.061236,42.34969],[-71.061337,42.349732],[-71.061362,42.34972]]],[[[-71.061348,42.350109],[-71.061332,42.350082],[-71.061124,42.349995],[-71.061084,42.349995],[-71.061056,42.350015],[-71.061067,42.350057],[-71.061276,42.350145],[-71.061316,42.350145],[-71.061348,42.350109]]],[[[-71.061338,42.353409],[-71.061021,42.353246],[-71.060927,42.353208],[-71.060903,42.353215],[-71.060913,42.353232],[-71.061219,42.353382],[-71.061313,42.353421],[-71.061338,42.353409]]],[[[-71.061332,42.354813],[-71.061227,42.354762],[-71.061203,42.354769],[-71.061213,42.354786],[-71.061307,42.354825],[-71.061332,42.354813]]],[[[-71.061282,42.354955],[-71.061177,42.354904],[-71.061153,42.354911],[-71.061163,42.354928],[-71.061257,42.354967],[-71.061282,42.354955]]],[[[-71.061224,42.348681],[-71.061208,42.348654],[-71.061,42.348567],[-71.06096,42.348567],[-71.060932,42.348587],[-71.060943,42.348629],[-71.061152,42.348717],[-71.061192,42.348717],[-71.061224,42.348681]]],[[[-71.061204,42.348799],[-71.061188,42.34877],[-71.060971,42.348679],[-71.060929,42.348679],[-71.060899,42.348701],[-71.060911,42.348746],[-71.061128,42.348837],[-71.06117,42.348837],[-71.061204,42.348799]]],[[[-71.061132,42.348529],[-71.061027,42.348478],[-71.061003,42.348485],[-71.061013,42.348502],[-71.061107,42.348541],[-71.061132,42.348529]]],[[[-71.061113,42.348897],[-71.061101,42.348875],[-71.060916,42.348798],[-71.060861,42.348815],[-71.06087,42.348849],[-71.061055,42.348926],[-71.061087,42.348926],[-71.061113,42.348897]]],[[[-71.061082,42.353402],[-71.060851,42.35329],[-71.060827,42.353297],[-71.060837,42.353314],[-71.061057,42.353414],[-71.061082,42.353402]]],[[[-71.061081,42.34927],[-71.06106,42.349233],[-71.060803,42.349125],[-71.060749,42.349125],[-71.06071,42.349154],[-71.06071,42.349194],[-71.060725,42.349211],[-71.060982,42.349319],[-71.061037,42.349319],[-71.061081,42.34927]]],[[[-71.060892,42.349456],[-71.060878,42.34943],[-71.060703,42.349357],[-71.060655,42.349362],[-71.060577,42.34933],[-71.060553,42.349337],[-71.060563,42.349354],[-71.060637,42.349385],[-71.06065,42.349415],[-71.060825,42.349489],[-71.060862,42.349489],[-71.060892,42.349456]]],[[[-71.060879,42.349582],[-71.060865,42.349557],[-71.060665,42.349473],[-71.060537,42.349441],[-71.060513,42.349448],[-71.060523,42.349465],[-71.0606,42.349497],[-71.060601,42.34952],[-71.060527,42.349491],[-71.060503,42.349508],[-71.060614,42.349557],[-71.060638,42.34955],[-71.060831,42.349618],[-71.060865,42.349608],[-71.060879,42.349582]]],[[[-71.060793,42.349746],[-71.060779,42.349721],[-71.060493,42.349588],[-71.060469,42.349605],[-71.06054,42.349638],[-71.060453,42.349635],[-71.060526,42.349695],[-71.060726,42.349779],[-71.060763,42.349779],[-71.060793,42.349746]]],[[[-71.060774,42.349871],[-71.060758,42.349844],[-71.06055,42.349757],[-71.06051,42.349757],[-71.060482,42.349777],[-71.060493,42.349819],[-71.060702,42.349907],[-71.060742,42.349907],[-71.060774,42.349871]]],[[[-71.060722,42.349299],[-71.060617,42.349248],[-71.060593,42.349255],[-71.060603,42.349272],[-71.060697,42.349311],[-71.060722,42.349299]]],[[[-71.060702,42.349339],[-71.060597,42.349288],[-71.060573,42.349295],[-71.060583,42.349312],[-71.060677,42.349351],[-71.060702,42.349339]]],[[[-71.060692,42.353079],[-71.060558,42.353003],[-71.060457,42.352962],[-71.060433,42.352969],[-71.060567,42.35305],[-71.060667,42.353091],[-71.060692,42.353079]]],[[[-71.060652,42.349446],[-71.060547,42.349395],[-71.060523,42.349402],[-71.060533,42.349419],[-71.060627,42.349458],[-71.060652,42.349446]]],[[[-71.060609,42.353325],[-71.060497,42.353271],[-71.060473,42.353278],[-71.060483,42.353295],[-71.060584,42.353337],[-71.060609,42.353325]]],[[[-71.060598,42.353189],[-71.060517,42.353148],[-71.060517,42.353129],[-71.060463,42.353099],[-71.060363,42.353058],[-71.060339,42.353065],[-71.060349,42.353082],[-71.060472,42.353141],[-71.060473,42.35316],[-71.060573,42.353201],[-71.060598,42.353189]]],[[[-71.060598,42.349595],[-71.060493,42.349544],[-71.060469,42.349551],[-71.060479,42.349568],[-71.060573,42.349607],[-71.060598,42.349595]]],[[[-71.060583,42.353473],[-71.060501,42.353406],[-71.060407,42.353368],[-71.060344,42.353394],[-71.060352,42.353425],[-71.060529,42.353499],[-71.060559,42.353499],[-71.060583,42.353473]]],[[[-71.060489,42.349926],[-71.060377,42.349872],[-71.060353,42.349879],[-71.060363,42.349896],[-71.060464,42.349938],[-71.060489,42.349926]]],[[[-71.060473,42.350216],[-71.060459,42.35019],[-71.06038,42.350156],[-71.060391,42.350149],[-71.060381,42.350131],[-71.060287,42.350093],[-71.06022,42.350136],[-71.060231,42.350175],[-71.060406,42.350249],[-71.060443,42.350249],[-71.060473,42.350216]]],[[[-71.060452,42.353486],[-71.060347,42.353435],[-71.060323,42.353442],[-71.060333,42.353459],[-71.060427,42.353498],[-71.060452,42.353486]]],[[[-71.060412,42.350076],[-71.060307,42.350025],[-71.060283,42.350032],[-71.060293,42.350049],[-71.060387,42.350088],[-71.060412,42.350076]]],[[[-71.060338,42.349538],[-71.060326,42.349517],[-71.06015,42.349443],[-71.060099,42.349459],[-71.060107,42.34949],[-71.060284,42.349564],[-71.060314,42.349564],[-71.060338,42.349538]]],[[[-71.060283,42.353483],[-71.06027,42.35346],[-71.060077,42.353379],[-71.060043,42.353379],[-71.060018,42.353397],[-71.060028,42.353434],[-71.06022,42.353514],[-71.060255,42.353514],[-71.060283,42.353483]]],[[[-71.060262,42.349615],[-71.060101,42.349536],[-71.060061,42.349556],[-71.060222,42.349635],[-71.060262,42.349615]]],[[[-71.060252,42.353001],[-71.060147,42.35295],[-71.060123,42.352957],[-71.060133,42.352974],[-71.060227,42.353013],[-71.060252,42.353001]]],[[[-71.060242,42.349709],[-71.060232,42.34969],[-71.060064,42.34962],[-71.060017,42.349634],[-71.060025,42.349663],[-71.060193,42.349733],[-71.06022,42.349733],[-71.060242,42.349709]]],[[[-71.060143,42.351114],[-71.060131,42.351092],[-71.059946,42.351015],[-71.059891,42.351032],[-71.0599,42.351066],[-71.060085,42.351143],[-71.060117,42.351143],[-71.060143,42.351114]]],[[[-71.060037,42.351191],[-71.059885,42.351117],[-71.059851,42.351128],[-71.059865,42.351153],[-71.060001,42.351209],[-71.060037,42.351191]]],[[[-71.059993,42.35333],[-71.059981,42.353308],[-71.059796,42.353231],[-71.059741,42.353248],[-71.05975,42.353282],[-71.059935,42.353359],[-71.059967,42.353359],[-71.059993,42.35333]]],[[[-71.059859,42.352795],[-71.059747,42.352741],[-71.059599,42.352725],[-71.059609,42.352742],[-71.05971,42.352784],[-71.059834,42.352807],[-71.059859,42.352795]]],[[[-71.059812,42.355013],[-71.059723,42.354935],[-71.059622,42.354892],[-71.05963,42.354866],[-71.059581,42.35484],[-71.059546,42.354779],[-71.059378,42.354709],[-71.059331,42.354723],[-71.059331,42.354743],[-71.05937,42.354765],[-71.059377,42.354791],[-71.059419,42.354809],[-71.059427,42.35483],[-71.059528,42.354873],[-71.059527,42.354907],[-71.059619,42.354969],[-71.059772,42.355033],[-71.059812,42.355013]]],[[[-71.059808,42.351776],[-71.059794,42.35175],[-71.059619,42.351677],[-71.05944,42.351609],[-71.059406,42.35162],[-71.05942,42.351645],[-71.059554,42.3517],[-71.059518,42.351697],[-71.059507,42.351716],[-71.059518,42.351723],[-71.059639,42.351774],[-71.05976,42.351812],[-71.059794,42.351801],[-71.059808,42.351776]]],[[[-71.059748,42.352849],[-71.059734,42.352823],[-71.059559,42.35275],[-71.059521,42.35275],[-71.059495,42.352769],[-71.059506,42.352808],[-71.059681,42.352882],[-71.059718,42.352882],[-71.059748,42.352849]]],[[[-71.059712,42.351662],[-71.059703,42.351645],[-71.059542,42.351578],[-71.0595,42.351591],[-71.059507,42.351617],[-71.059667,42.351684],[-71.059692,42.351684],[-71.059712,42.351662]]],[[[-71.059612,42.351136],[-71.059507,42.351085],[-71.059483,42.351092],[-71.059493,42.351109],[-71.059587,42.351148],[-71.059612,42.351136]]],[[[-71.059572,42.351209],[-71.059467,42.351158],[-71.059443,42.351165],[-71.059453,42.351182],[-71.059547,42.351221],[-71.059572,42.351209]]],[[[-71.059522,42.353139],[-71.059417,42.353088],[-71.059393,42.353095],[-71.059403,42.353112],[-71.059497,42.353151],[-71.059522,42.353139]]],[[[-71.059516,42.351757],[-71.059373,42.351688],[-71.059343,42.351698],[-71.059355,42.35172],[-71.059484,42.351773],[-71.059516,42.351757]]],[[[-71.059512,42.353049],[-71.059407,42.352998],[-71.059383,42.353005],[-71.059393,42.353022],[-71.059487,42.353061],[-71.059512,42.353049]]],[[[-71.059452,42.351833],[-71.059309,42.351764],[-71.059279,42.351774],[-71.059291,42.351796],[-71.05942,42.351849],[-71.059452,42.351833]]],[[[-71.059403,42.351366],[-71.059389,42.351341],[-71.05934,42.351319],[-71.05934,42.351292],[-71.059313,42.351273],[-71.059129,42.351197],[-71.059091,42.351197],[-71.059065,42.351216],[-71.059065,42.351244],[-71.059125,42.351277],[-71.059125,42.351304],[-71.05915,42.351322],[-71.059095,42.351343],[-71.059095,42.351371],[-71.059121,42.35139],[-71.059325,42.351469],[-71.05937,42.351447],[-71.05937,42.351419],[-71.059345,42.351401],[-71.059389,42.351392],[-71.059403,42.351366]]],[[[-71.059278,42.353333],[-71.059173,42.353282],[-71.059149,42.353289],[-71.059159,42.353306],[-71.059253,42.353345],[-71.059278,42.353333]]],[[[-71.059242,42.354447],[-71.059233,42.35443],[-71.059109,42.354378],[-71.059069,42.354327],[-71.058947,42.354277],[-71.058922,42.354284],[-71.058993,42.354344],[-71.059043,42.354365],[-71.05903,42.354376],[-71.059037,42.354402],[-71.059197,42.354469],[-71.059222,42.354469],[-71.059242,42.354447]]],[[[-71.059202,42.351573],[-71.05905,42.351499],[-71.059016,42.35151],[-71.05903,42.351535],[-71.059166,42.351591],[-71.059202,42.351573]]],[[[-71.059192,42.351499],[-71.059087,42.351448],[-71.059063,42.351455],[-71.059073,42.351472],[-71.059167,42.351511],[-71.059192,42.351499]]],[[[-71.059182,42.353326],[-71.059077,42.353275],[-71.059053,42.353282],[-71.059063,42.353299],[-71.059157,42.353338],[-71.059182,42.353326]]],[[[-71.059162,42.351669],[-71.059152,42.35165],[-71.058984,42.35158],[-71.058937,42.351594],[-71.058945,42.351623],[-71.059113,42.351693],[-71.05914,42.351693],[-71.059162,42.351669]]],[[[-71.059092,42.353322],[-71.058987,42.353271],[-71.058963,42.353278],[-71.058973,42.353295],[-71.059067,42.353334],[-71.059092,42.353322]]],[[[-71.059072,42.351752],[-71.059063,42.351735],[-71.058902,42.351668],[-71.05886,42.351681],[-71.058867,42.351707],[-71.059027,42.351774],[-71.059052,42.351774],[-71.059072,42.351752]]],[[[-71.059056,42.35169],[-71.058937,42.351634],[-71.058913,42.351641],[-71.058923,42.351658],[-71.059031,42.351703],[-71.059056,42.35169]]],[[[-71.059042,42.351803],[-71.059032,42.351784],[-71.058864,42.351714],[-71.058817,42.351728],[-71.058825,42.351757],[-71.058993,42.351827],[-71.05902,42.351827],[-71.059042,42.351803]]],[[[-71.058992,42.351845],[-71.058982,42.351826],[-71.058814,42.351756],[-71.058767,42.35177],[-71.058775,42.351799],[-71.058943,42.351869],[-71.05897,42.351869],[-71.058992,42.351845]]],[[[-71.058958,42.353307],[-71.058853,42.353256],[-71.058829,42.353263],[-71.058839,42.35328],[-71.058933,42.353319],[-71.058958,42.353307]]],[[[-71.058919,42.351913],[-71.058873,42.351877],[-71.058874,42.351858],[-71.058767,42.351814],[-71.058701,42.351818],[-71.05868,42.351834],[-71.058688,42.351865],[-71.058865,42.351939],[-71.058895,42.351939],[-71.058919,42.351913]]],[[[-71.058852,42.353307],[-71.058747,42.353256],[-71.058723,42.353263],[-71.058733,42.35328],[-71.058827,42.353319],[-71.058852,42.353307]]],[[[-71.058842,42.351968],[-71.058833,42.351951],[-71.058672,42.351884],[-71.058637,42.351889],[-71.05863,42.351915],[-71.058597,42.35193],[-71.05874,42.351999],[-71.05877,42.351979],[-71.058822,42.35199],[-71.058842,42.351968]]],[[[-71.058784,42.352079],[-71.058768,42.35205],[-71.058687,42.352015],[-71.058687,42.351996],[-71.058587,42.351955],[-71.05853,42.351956],[-71.058491,42.351968],[-71.058451,42.352018],[-71.058451,42.352042],[-71.058397,42.35205],[-71.058407,42.352097],[-71.058363,42.352085],[-71.058353,42.352102],[-71.058464,42.352151],[-71.058488,42.352133],[-71.058618,42.352181],[-71.05865,42.352171],[-71.05866,42.352134],[-71.058699,42.352113],[-71.05875,42.352117],[-71.058784,42.352079]]],[[[-71.058662,42.352569],[-71.058614,42.352541],[-71.058616,42.35252],[-71.058487,42.352467],[-71.058462,42.352486],[-71.058538,42.35252],[-71.058483,42.352512],[-71.058377,42.352458],[-71.058353,42.352465],[-71.058363,42.352482],[-71.058577,42.352575],[-71.058651,42.352581],[-71.058662,42.352569]]],[[[-71.058529,42.35257],[-71.058417,42.352516],[-71.058362,42.352518],[-71.058361,42.352493],[-71.058267,42.352455],[-71.058243,42.352462],[-71.058253,42.352479],[-71.058322,42.352508],[-71.058243,42.3525],[-71.058233,42.352517],[-71.058337,42.352563],[-71.058441,42.352564],[-71.058504,42.352582],[-71.058529,42.35257]]],[[[-71.058382,42.350949],[-71.058277,42.350898],[-71.058207,42.350875],[-71.058183,42.350882],[-71.058193,42.350899],[-71.058287,42.350938],[-71.058357,42.350961],[-71.058382,42.350949]]],[[[-71.058132,42.352704],[-71.058027,42.352653],[-71.058003,42.35266],[-71.058013,42.352677],[-71.058107,42.352716],[-71.058132,42.352704]]],[[[-71.058126,42.352807],[-71.058021,42.352756],[-71.057997,42.352763],[-71.058007,42.35278],[-71.058101,42.352819],[-71.058126,42.352807]]],[[[-71.058102,42.352944],[-71.057997,42.352893],[-71.057973,42.3529],[-71.057983,42.352917],[-71.058077,42.352956],[-71.058102,42.352944]]],[[[-71.057897,42.350732],[-71.057747,42.350665],[-71.057723,42.350672],[-71.057733,42.350689],[-71.057872,42.350744],[-71.057897,42.350732]]],[[[-71.057886,42.352282],[-71.057734,42.352208],[-71.057351,42.35209],[-71.057311,42.35211],[-71.057472,42.352189],[-71.057726,42.352269],[-71.057757,42.352264],[-71.05786,42.352301],[-71.057886,42.352282]]],[[[-71.057508,42.350442],[-71.057403,42.350391],[-71.057379,42.350398],[-71.057389,42.350415],[-71.057483,42.350454],[-71.057508,42.350442]]],[[[-71.057492,42.350533],[-71.057387,42.350482],[-71.057363,42.350489],[-71.057373,42.350506],[-71.057467,42.350545],[-71.057492,42.350533]]],[[[-71.057449,42.351749],[-71.057337,42.351695],[-71.057313,42.351702],[-71.057323,42.351719],[-71.057424,42.351761],[-71.057449,42.351749]]],[[[-71.057432,42.351789],[-71.057327,42.351738],[-71.057303,42.351745],[-71.057313,42.351762],[-71.057407,42.351801],[-71.057432,42.351789]]],[[[-71.057406,42.350969],[-71.057287,42.350913],[-71.057263,42.35092],[-71.057273,42.350937],[-71.057381,42.350982],[-71.057406,42.350969]]],[[[-71.057403,42.351936],[-71.057298,42.351885],[-71.057274,42.351892],[-71.057284,42.351909],[-71.057378,42.351948],[-71.057403,42.351936]]],[[[-71.057385,42.351991],[-71.057287,42.351943],[-71.057263,42.35195],[-71.057273,42.351967],[-71.05736,42.352003],[-71.057385,42.351991]]],[[[-71.057376,42.351107],[-71.057257,42.351051],[-71.057233,42.351058],[-71.057243,42.351075],[-71.057351,42.35112],[-71.057376,42.351107]]],[[[-71.057302,42.351449],[-71.057197,42.351398],[-71.057173,42.351405],[-71.057183,42.351422],[-71.057277,42.351461],[-71.057302,42.351449]]],[[[-71.057292,42.350589],[-71.057187,42.350538],[-71.057059,42.350528],[-71.057069,42.350545],[-71.057163,42.350584],[-71.057187,42.350577],[-71.057267,42.350601],[-71.057292,42.350589]]],[[[-71.057241,42.350671],[-71.057136,42.35062],[-71.057112,42.350627],[-71.057122,42.350644],[-71.057216,42.350683],[-71.057241,42.350671]]],[[[-71.057172,42.349965],[-71.057163,42.349948],[-71.057002,42.349881],[-71.05696,42.349894],[-71.056967,42.34992],[-71.057127,42.349987],[-71.057152,42.349987],[-71.057172,42.349965]]],[[[-71.057132,42.349879],[-71.057027,42.349828],[-71.057003,42.349835],[-71.057013,42.349852],[-71.057107,42.349891],[-71.057132,42.349879]]],[[[-71.056993,42.349828],[-71.056981,42.349807],[-71.056805,42.349733],[-71.056754,42.349749],[-71.056762,42.34978],[-71.056939,42.349854],[-71.056969,42.349854],[-71.056993,42.349828]]],[[[-71.056983,42.352075],[-71.056857,42.352016],[-71.056834,42.352022],[-71.056737,42.351982],[-71.056713,42.351989],[-71.056723,42.352006],[-71.056831,42.352051],[-71.056854,42.352045],[-71.056958,42.352088],[-71.056983,42.352075]]],[[[-71.056942,42.349902],[-71.056933,42.349885],[-71.056772,42.349818],[-71.05673,42.349831],[-71.056737,42.349857],[-71.056897,42.349924],[-71.056922,42.349924],[-71.056942,42.349902]]],[[[-71.056933,42.349981],[-71.056919,42.349955],[-71.056744,42.349882],[-71.056706,42.349882],[-71.05668,42.349901],[-71.056691,42.34994],[-71.056866,42.350014],[-71.056903,42.350014],[-71.056933,42.349981]]],[[[-71.056928,42.350269],[-71.056823,42.350218],[-71.056799,42.350225],[-71.056809,42.350242],[-71.056903,42.350281],[-71.056928,42.350269]]],[[[-71.056892,42.350346],[-71.056787,42.350295],[-71.056763,42.350302],[-71.056773,42.350319],[-71.056867,42.350358],[-71.056892,42.350346]]],[[[-71.056888,42.350072],[-71.056874,42.350046],[-71.056699,42.349973],[-71.056661,42.349973],[-71.056635,42.349992],[-71.056646,42.350031],[-71.056821,42.350105],[-71.056858,42.350105],[-71.056888,42.350072]]],[[[-71.056802,42.350153],[-71.056641,42.350074],[-71.056601,42.350094],[-71.056762,42.350173],[-71.056802,42.350153]]],[[[-71.056772,42.350247],[-71.056763,42.35023],[-71.056602,42.350163],[-71.05656,42.350176],[-71.056567,42.350202],[-71.056727,42.350269],[-71.056752,42.350269],[-71.056772,42.350247]]],[[[-71.056762,42.353259],[-71.056601,42.353167],[-71.056379,42.353074],[-71.056349,42.353084],[-71.056361,42.353106],[-71.056576,42.353196],[-71.05659,42.353221],[-71.056726,42.353277],[-71.056762,42.353259]]],[[[-71.056758,42.35066],[-71.056632,42.350601],[-71.056608,42.350608],[-71.056618,42.350625],[-71.056733,42.350673],[-71.056758,42.35066]]],[[[-71.056723,42.350727],[-71.056597,42.350668],[-71.056573,42.350675],[-71.056583,42.350692],[-71.056698,42.35074],[-71.056723,42.350727]]],[[[-71.056718,42.3509],[-71.056704,42.350874],[-71.056529,42.350801],[-71.056491,42.350801],[-71.056465,42.35082],[-71.056476,42.350859],[-71.056651,42.350933],[-71.056688,42.350933],[-71.056718,42.3509]]],[[[-71.056583,42.351967],[-71.056457,42.351908],[-71.056377,42.351888],[-71.056353,42.351895],[-71.056363,42.351912],[-71.05645,42.351948],[-71.056558,42.35198],[-71.056583,42.351967]]],[[[-71.056522,42.351069],[-71.056417,42.351018],[-71.056393,42.351025],[-71.056403,42.351042],[-71.056497,42.351081],[-71.056522,42.351069]]],[[[-71.056513,42.351144],[-71.056387,42.351085],[-71.056363,42.351092],[-71.056373,42.351109],[-71.056488,42.351157],[-71.056513,42.351144]]],[[[-71.056458,42.351215],[-71.056353,42.351164],[-71.056329,42.351171],[-71.056339,42.351188],[-71.056433,42.351227],[-71.056458,42.351215]]],[[[-71.056453,42.354977],[-71.056327,42.354918],[-71.056303,42.354925],[-71.056313,42.354942],[-71.056428,42.35499],[-71.056453,42.354977]]],[[[-71.056443,42.354883],[-71.056317,42.354824],[-71.056293,42.354831],[-71.056303,42.354848],[-71.056418,42.354896],[-71.056443,42.354883]]],[[[-71.056442,42.354726],[-71.05629,42.354652],[-71.056256,42.354663],[-71.05627,42.354688],[-71.056406,42.354744],[-71.056442,42.354726]]],[[[-71.056431,42.3548],[-71.056297,42.354737],[-71.056272,42.354744],[-71.056283,42.354763],[-71.056404,42.354814],[-71.056431,42.3548]]],[[[-71.056371,42.350889],[-71.056245,42.35083],[-71.056221,42.350837],[-71.056231,42.350854],[-71.056346,42.350902],[-71.056371,42.350889]]],[[[-71.056359,42.351418],[-71.056247,42.351364],[-71.056223,42.351371],[-71.056233,42.351388],[-71.056334,42.35143],[-71.056359,42.351418]]],[[[-71.056342,42.353089],[-71.056237,42.353038],[-71.056213,42.353045],[-71.056223,42.353062],[-71.056317,42.353101],[-71.056342,42.353089]]],[[[-71.056341,42.35098],[-71.056215,42.350921],[-71.056191,42.350928],[-71.056201,42.350945],[-71.056316,42.350993],[-71.056341,42.35098]]],[[[-71.05634,42.351453],[-71.056228,42.351399],[-71.056204,42.351406],[-71.056214,42.351423],[-71.056315,42.351465],[-71.05634,42.351453]]],[[[-71.056309,42.351492],[-71.056197,42.351438],[-71.056173,42.351445],[-71.056183,42.351462],[-71.056284,42.351504],[-71.056309,42.351492]]],[[[-71.056301,42.351083],[-71.056175,42.351024],[-71.056151,42.351031],[-71.056161,42.351048],[-71.056276,42.351096],[-71.056301,42.351083]]],[[[-71.056263,42.351192],[-71.056137,42.351133],[-71.056113,42.35114],[-71.056123,42.351157],[-71.056238,42.351205],[-71.056263,42.351192]]],[[[-71.056179,42.351752],[-71.056067,42.351698],[-71.056043,42.351705],[-71.056053,42.351722],[-71.056154,42.351764],[-71.056179,42.351752]]],[[[-71.056092,42.351402],[-71.055966,42.351343],[-71.055942,42.35135],[-71.055952,42.351367],[-71.056067,42.351415],[-71.056092,42.351402]]],[[[-71.056068,42.351459],[-71.055942,42.3514],[-71.055918,42.351407],[-71.055928,42.351424],[-71.056043,42.351472],[-71.056068,42.351459]]],[[[-71.056035,42.351529],[-71.055909,42.35147],[-71.055885,42.351477],[-71.055895,42.351494],[-71.05601,42.351542],[-71.056035,42.351529]]],[[[-71.056028,42.352292],[-71.055998,42.352259],[-71.05582,42.35219],[-71.055786,42.352201],[-71.055775,42.35224],[-71.055737,42.352276],[-71.055767,42.352309],[-71.055946,42.352378],[-71.05598,42.352367],[-71.055991,42.352328],[-71.056028,42.352292]]],[[[-71.056003,42.351608],[-71.055877,42.351549],[-71.055853,42.351556],[-71.055863,42.351573],[-71.055978,42.351621],[-71.056003,42.351608]]],[[[-71.055974,42.351669],[-71.055848,42.35161],[-71.055824,42.351617],[-71.055834,42.351634],[-71.055949,42.351682],[-71.055974,42.351669]]],[[[-71.055938,42.353398],[-71.055929,42.353381],[-71.055768,42.353314],[-71.055726,42.353327],[-71.055733,42.353353],[-71.055893,42.35342],[-71.055918,42.35342],[-71.055938,42.353398]]],[[[-71.055923,42.351774],[-71.055797,42.351715],[-71.055773,42.351722],[-71.055783,42.351739],[-71.055898,42.351787],[-71.055923,42.351774]]],[[[-71.055903,42.351823],[-71.055777,42.351764],[-71.055753,42.351771],[-71.055763,42.351788],[-71.055878,42.351836],[-71.055903,42.351823]]],[[[-71.055867,42.353453],[-71.055706,42.353374],[-71.055666,42.353394],[-71.055827,42.353473],[-71.055867,42.353453]]],[[[-71.055767,42.35348],[-71.055633,42.353417],[-71.055608,42.353424],[-71.055619,42.353443],[-71.05574,42.353494],[-71.055767,42.35348]]],[[[-71.055673,42.353544],[-71.055547,42.353485],[-71.055523,42.353492],[-71.055533,42.353509],[-71.055648,42.353557],[-71.055673,42.353544]]],[[[-71.055599,42.353572],[-71.055487,42.353518],[-71.055463,42.353525],[-71.055473,42.353542],[-71.055574,42.353584],[-71.055599,42.353572]]],[[[-71.055382,42.353731],[-71.055346,42.353704],[-71.055345,42.353679],[-71.055251,42.353641],[-71.055199,42.353652],[-71.055181,42.353672],[-71.055342,42.353751],[-71.055382,42.353731]]],[[[-71.055322,42.353753],[-71.055179,42.353684],[-71.055149,42.353694],[-71.055161,42.353716],[-71.05529,42.353769],[-71.055322,42.353753]]]]},"properties":{"kind":"tree"}}]}