{"type":"FeatureCollection","features":[{"type":"Feature","geometry":{"type":"MultiPolygon","coordinates":[[[[-71.067594,42.352129],[-71.067571,42.351995],[-71.067311,42.351409],[-71.066192,42.350791],[-71.066329,42.350785],[-71.066316,42.350623],[-71.066651,42.350613],[-71.066616,42.350284],[-71.066511,42.350163],[-71.065999,42.349889],[-71.066024,42.34977],[-71.066155,42.34984],[-71.066232,42.349816],[-71.066235,42.34975],[-71.066269,42.349739],[-71.06618,42.349582],[-71.066006,42.349489],[-71.06562,42.349445],[-71.065521,42.349461],[-71.065455,42.34977],[-71.065169,42.349617],[-71.064457,42.349507],[-71.064469,42.349447],[-71.064311,42.349362],[-71.064381,42.349218],[-71.064412,42.349223],[-71.064433,42.349141],[-71.064653,42.349291],[-71.065067,42.349513],[-71.065248,42.34942],[-71.065229,42.349398],[-71.065334,42.34943],[-71.065596,42.349307],[-71.065396,42.349075],[-71.065432,42.348942],[-71.065425,42.348857],[-71.065399,42.348789],[-71.065473,42.3488],[-71.065512,42.348742],[-71.065544,42.348619],[-71.06555,42.348553],[-71.0654,42.348473],[-71.065473,42.348458],[-71.065498,42.348428],[-71.065404,42.348323],[-71.065533,42.348206],[-71.065533,42.348132],[-71.065476,42.348068],[-71.065603,42.347985],[-71.065612,42.347947],[-71.065574,42.347871],[-71.065535,42.347847],[-71.065535,42.347793],[-71.065257,42.347643],[-71.064894,42.347587],[-71.064503,42.347783],[-71.064376,42.348092],[-71.064113,42.347947],[-71.063968,42.347919],[-71.063883,42.347989],[-71.063856,42.347985],[-71.063829,42.348081],[-71.06386,42.348098],[-71.063888,42.348157],[-71.063703,42.348126],[-71.063754,42.347946],[-71.063606,42.347866],[-71.06346,42.347843],[-71.063403,42.348054],[-71.063301,42.347999],[-71.062961,42.347921],[-71.062929,42.348],[-71.063056,42.348068],[-71.062855,42.347962],[-71.062735,42.347939],[-71.062689,42.348052],[-71.062862,42.348149],[-71.062863,42.348177],[-71.061866,42.34764],[-71.061712,42.347604],[-71.061566,42.347954],[-71.061555,42.348046],[-71.061872,42.348216],[-71.061783,42.348436],[-71.06164,42.348359],[-71.061499,42.348327],[-71.061312,42.348227],[-71.061241,42.348211],[-71.061011,42.348097],[-71.060549,42.348739],[-71.060874,42.348913],[-71.060744,42.349244],[-71.061034,42.349383],[-71.061359,42.349515],[-71.061369,42.349501],[-71.062109,42.349877],[-71.061969,42.349845],[-71.061963,42.349861],[-71.061778,42.349762],[-71.061307,42.349568],[-71.060443,42.349109],[-71.060321,42.349063],[-71.060204,42.349326],[-71.059925,42.350048],[-71.06093,42.350587],[-71.061062,42.350629],[-71.060899,42.350587],[-71.060886,42.350615],[-71.060747,42.35054],[-71.060472,42.350463],[-71.060395,42.350464],[-71.060381,42.350499],[-71.060396,42.350516],[-71.060374,42.350511],[-71.060116,42.350367],[-71.059867,42.350296],[-71.059794,42.350499],[-71.059833,42.35052],[-71.059789,42.350634],[-71.059916,42.350702],[-71.060146,42.350752],[-71.060151,42.350738],[-71.059972,42.351168],[-71.060204,42.351293],[-71.060683,42.351394],[-71.0607,42.351356],[-71.060959,42.351495],[-71.061295,42.351572],[-71.061319,42.351694],[-71.061041,42.351545],[-71.060388,42.351402],[-71.060369,42.351415],[-71.060393,42.35149],[-71.06033,42.351456],[-71.06031,42.351411],[-71.060234,42.351369],[-71.059758,42.351262],[-71.059709,42.351391],[-71.059786,42.35189],[-71.059626,42.351804],[-71.059386,42.351848],[-71.059426,42.35212],[-71.059226,42.352012],[-71.059026,42.352083],[-71.058906,42.352152],[-71.058801,42.352281],[-71.058775,42.35235],[-71.059156,42.352555],[-71.058902,42.352524],[-71.058142,42.35255],[-71.058055,42.352616],[-71.058015,42.352857],[-71.057774,42.352728],[-71.057802,42.352662],[-71.057,42.352232],[-71.056202,42.352031],[-71.056107,42.352066],[-71.056208,42.351856],[-71.055768,42.35162],[-71.055498,42.351545],[-71.054479,42.351779],[-71.054307,42.351954],[-71.055273,42.352468],[-71.055433,42.352519],[-71.055601,42.352544],[-71.055656,42.352532],[-71.055778,42.352504],[-71.055898,42.352414],[-71.056034,42.352612],[-71.056454,42.352837],[-71.056481,42.352842],[-71.056543,42.35282],[-71.056949,42.353037],[-71.057078,42.353071],[-71.057103,42.353064],[-71.057135,42.353113],[-71.057259,42.353188],[-71.058045,42.35361],[-71.05861,42.353988],[-71.058721,42.354047],[-71.058709,42.354058],[-71.058939,42.354231],[-71.059409,42.354488],[-71.05937,42.354557],[-71.059157,42.354444],[-71.059185,42.354397],[-71.057554,42.353522],[-71.057295,42.353434],[-71.057229,42.35354],[-71.056948,42.353395],[-71.056898,42.353402],[-71.056638,42.353263],[-71.056242,42.353099],[-71.055998,42.353225],[-71.056026,42.35333],[-71.056491,42.35358],[-71.056374,42.353634],[-71.056315,42.353518],[-71.055897,42.353294],[-71.055573,42.353469],[-71.055612,42.353509],[-71.055589,42.353497],[-71.055421,42.353589],[-71.055386,42.353627],[-71.055342,42.353603],[-71.054915,42.353838],[-71.055103,42.354027],[-71.054889,42.353912],[-71.054793,42.353902],[-71.054391,42.354111],[-71.054359,42.354149],[-71.054358,42.354189],[-71.054619,42.354471],[-71.054836,42.354587],[-71.054775,42.354643],[-71.05498,42.354839],[-71.055584,42.355163],[-71.055627,42.355145],[-71.055688,42.355479],[-71.056777,42.356063],[-71.057041,42.356054],[-71.058578,42.356878],[-71.05903,42.356834],[-71.058929,42.356255],[-71.0585,42.356025],[-71.059045,42.355984],[-71.059025,42.355833],[-71.057259,42.354895],[-71.057291,42.354886],[-71.057276,42.354808],[-71.057263,42.354801],[-71.05753,42.354767],[-71.057491,42.354511],[-71.057317,42.354417],[-71.057358,42.354412],[-71.05746,42.354452],[-71.057575,42.354437],[-71.057658,42.354407],[-71.057546,42.354581],[-71.057904,42.354773],[-71.05802,42.354809],[-71.05787,42.354957],[-71.057867,42.35498],[-71.058257,42.355189],[-71.058304,42.355207],[-71.058543,42.355211],[-71.058783,42.35534],[-71.05891,42.355355],[-71.058973,42.355333],[-71.059002,42.355305],[-71.059484,42.355515],[-71.060194,42.355895],[-71.060486,42.356014],[-71.060732,42.3558],[-71.060795,42.355722],[-71.060579,42.355538],[-71.059952,42.355202],[-71.059983,42.355173],[-71.059965,42.355152],[-71.059644,42.354908],[-71.05969,42.354834],[-71.060128,42.355172],[-71.060674,42.355493],[-71.060777,42.355413],[-71.060827,42.35544],[-71.060945,42.355354],[-71.061024,42.355396],[-71.061256,42.355181],[-71.06176,42.35544],[-71.061932,42.355253],[-71.061453,42.354997],[-71.061556,42.355042],[-71.061664,42.354944],[-71.062483,42.355367],[-71.062648,42.35519],[-71.062777,42.355259],[-71.062804,42.355236],[-71.063031,42.355355],[-71.063143,42.355238],[-71.063481,42.355417],[-71.063543,42.35535],[-71.063146,42.355127],[-71.062313,42.35473],[-71.062044,42.354585],[-71.062106,42.354526],[-71.063797,42.355367],[-71.063841,42.355358],[-71.063933,42.355188],[-71.064229,42.355347],[-71.064418,42.355403],[-71.064449,42.355405],[-71.064477,42.355336],[-71.064636,42.355382],[-71.064925,42.354846],[-71.06478,42.354769],[-71.064818,42.354726],[-71.06472,42.354674],[-71.06494,42.354673],[-71.064979,42.35442],[-71.06466,42.354248],[-71.064674,42.354253],[-71.064697,42.354222],[-71.06478,42.354054],[-71.064217,42.353751],[-71.064222,42.353729],[-71.064746,42.354006],[-71.064963,42.35401],[-71.065133,42.354101],[-71.065237,42.354132],[-71.065291,42.354035],[-71.065205,42.353636],[-71.06488,42.353453],[-71.064897,42.353407],[-71.064688,42.353295],[-71.064862,42.353305],[-71.064893,42.353199],[-71.065044,42.353206],[-71.065079,42.353055],[-71.064935,42.352978],[-71.064964,42.352752],[-71.064909,42.352715],[-71.064953,42.35272],[-71.064974,42.352607],[-71.065057,42.352609],[-71.065092,42.352589],[-71.065105,42.352541],[-71.065276,42.352633],[-71.066109,42.35269],[-71.066122,42.3526],[-71.066278,42.352683],[-71.066475,42.352698],[-71.066522,42.35241],[-71.066302,42.352289],[-71.066477,42.35228],[-71.066499,42.35205],[-71.067411,42.352174],[-71.067594,42.352129]],[[-71.065704,42.351229],[-71.065598,42.351241],[-71.065094,42.350971],[-71.065132,42.350865],[-71.065147,42.350873],[-71.065139,42.350903],[-71.065158,42.350936],[-71.065704,42.351229]],[[-71.065654,42.350368],[-71.06531,42.3503],[-71.065282,42.350399],[-71.065004,42.35025],[-71.065007,42.350239],[-71.06545,42.350308],[-71.065462,42.350265],[-71.065654,42.350368]],[[-71.064964,42.35124],[-71.064943,42.351324],[-71.064745,42.351218],[-71.064691,42.35121],[-71.064733,42.351141],[-71.064731,42.351115],[-71.064964,42.35124]],[[-71.064824,42.348592],[-71.064341,42.348545],[-71.064334,42.348568],[-71.064275,42.348582],[-71.064257,42.34863],[-71.063945,42.348463],[-71.063623,42.348413],[-71.063611,42.348454],[-71.063476,42.348381],[-71.062939,42.3483],[-71.062958,42.348298],[-71.062966,42.348266],[-71.06303,42.3483],[-71.063255,42.348338],[-71.063374,42.348341],[-71.063398,42.348258],[-71.063375,42.348226],[-71.06324,42.348153],[-71.063272,42.348116],[-71.063379,42.34814],[-71.063365,42.348193],[-71.063551,42.348293],[-71.064206,42.348391],[-71.064217,42.348348],[-71.064344,42.348416],[-71.064463,42.348433],[-71.064471,42.348403],[-71.064824,42.348592]],[[-71.064461,42.349095],[-71.064443,42.349103],[-71.064445,42.349092],[-71.064461,42.349095]],[[-71.064241,42.351947],[-71.064235,42.351978],[-71.063967,42.351835],[-71.063974,42.351803],[-71.064241,42.351947]],[[-71.06418,42.350236],[-71.06403,42.350478],[-71.063915,42.350416],[-71.063834,42.350404],[-71.063876,42.350294],[-71.063933,42.350302],[-71.063942,42.350272],[-71.063898,42.350249],[-71.063956,42.350043],[-71.064091,42.350184],[-71.06418,42.350236]],[[-71.063663,42.351637],[-71.063104,42.35157],[-71.063109,42.351539],[-71.063567,42.351593],[-71.063663,42.351637]],[[-71.063561,42.34904],[-71.063218,42.348986],[-71.063042,42.348892],[-71.062425,42.348727],[-71.062236,42.349176],[-71.062659,42.349401],[-71.062752,42.349427],[-71.063003,42.349547],[-71.063061,42.349628],[-71.062592,42.349443],[-71.062574,42.349455],[-71.062233,42.349284],[-71.062169,42.349306],[-71.062155,42.349337],[-71.062162,42.34937],[-71.061951,42.349264],[-71.061947,42.349245],[-71.061999,42.349121],[-71.062066,42.349135],[-71.062183,42.348884],[-71.062016,42.348795],[-71.062091,42.348586],[-71.062325,42.34864],[-71.062349,42.348583],[-71.062445,42.348604],[-71.062552,42.348329],[-71.062402,42.348249],[-71.062412,42.348225],[-71.062597,42.348267],[-71.062448,42.348644],[-71.062755,42.348808],[-71.063531,42.348927],[-71.063561,42.34904]],[[-71.063201,42.353409],[-71.063199,42.353465],[-71.063082,42.353402],[-71.062853,42.353395],[-71.062702,42.353314],[-71.062856,42.353307],[-71.062892,42.35327],[-71.063119,42.353392],[-71.063201,42.353409]],[[-71.063181,42.348155],[-71.063177,42.348169],[-71.06306,42.348151],[-71.063015,42.348118],[-71.06307,42.348131],[-71.063082,42.348102],[-71.063181,42.348155]],[[-71.063028,42.351105],[-71.063011,42.351121],[-71.062859,42.351039],[-71.062298,42.350942],[-71.062284,42.350985],[-71.062111,42.350892],[-71.061597,42.350765],[-71.061565,42.350845],[-71.061732,42.350935],[-71.061545,42.350895],[-71.061557,42.35084],[-71.061496,42.350796],[-71.061295,42.350688],[-71.061235,42.350673],[-71.06125,42.350636],[-71.061552,42.350721],[-71.061578,42.350657],[-71.061949,42.350743],[-71.061961,42.350714],[-71.062258,42.350873],[-71.062769,42.351003],[-71.062789,42.350978],[-71.063028,42.351105]],[[-71.062872,42.351664],[-71.062853,42.351758],[-71.062591,42.351633],[-71.062343,42.351581],[-71.062471,42.351577],[-71.062468,42.35155],[-71.062557,42.351598],[-71.062872,42.351664]],[[-71.062796,42.350138],[-71.062747,42.350157],[-71.06258,42.35007],[-71.0626,42.350033],[-71.062796,42.350138]],[[-71.062519,42.351131],[-71.062421,42.3511],[-71.062429,42.351083],[-71.062519,42.351131]],[[-71.062293,42.353857],[-71.062173,42.353994],[-71.06071,42.353273],[-71.060668,42.353298],[-71.060266,42.353076],[-71.060565,42.353129],[-71.060577,42.353124],[-71.060563,42.353022],[-71.061871,42.353679],[-71.061894,42.353646],[-71.062293,42.353857]],[[-71.062254,42.352496],[-71.062212,42.3525],[-71.062206,42.352471],[-71.062254,42.352496]],[[-71.062218,42.354874],[-71.062217,42.354875],[-71.062215,42.354874],[-71.062218,42.354874]],[[-71.062184,42.348384],[-71.062165,42.348433],[-71.062154,42.34843],[-71.062175,42.348378],[-71.062184,42.348384]],[[-71.061967,42.352521],[-71.061658,42.352547],[-71.061601,42.3525],[-71.061776,42.352483],[-71.061763,42.352411],[-71.061967,42.352521]],[[-71.06181,42.352207],[-71.061723,42.352231],[-71.061752,42.352368],[-71.061625,42.3523],[-71.061514,42.352311],[-71.061454,42.352351],[-71.061459,42.352384],[-71.061309,42.352273],[-71.061297,42.352129],[-71.061276,42.352118],[-71.061403,42.352085],[-71.0614,42.352065],[-71.061659,42.352204],[-71.06181,42.352207]],[[-71.061621,42.351535],[-71.061465,42.351537],[-71.061493,42.351467],[-71.061621,42.351535]],[[-71.061516,42.350959],[-71.061462,42.35114],[-71.061448,42.351138],[-71.061431,42.35118],[-71.061227,42.351071],[-71.060792,42.350983],[-71.060821,42.35091],[-71.060777,42.350886],[-71.060817,42.350787],[-71.060921,42.350819],[-71.06104,42.350883],[-71.061256,42.35093],[-71.061369,42.350917],[-71.061516,42.350959]],[[-71.061384,42.349383],[-71.061367,42.349423],[-71.061158,42.349322],[-71.061168,42.349292],[-71.061065,42.349237],[-71.06108,42.349201],[-71.061155,42.349218],[-71.061142,42.349267],[-71.061384,42.349383]],[[-71.061164,42.349128],[-71.061145,42.349177],[-71.061101,42.349153],[-71.061117,42.349109],[-71.061164,42.349128]],[[-71.060614,42.352196],[-71.0605,42.352135],[-71.060316,42.352167],[-71.060314,42.352228],[-71.060299,42.352105],[-71.060362,42.352139],[-71.06054,42.352131],[-71.060589,42.352115],[-71.060614,42.352196]],[[-71.060605,42.351705],[-71.060527,42.351717],[-71.060504,42.35165],[-71.060605,42.351705]],[[-71.060414,42.352641],[-71.060083,42.352472],[-71.06008,42.352456],[-71.060006,42.352416],[-71.059984,42.352275],[-71.060038,42.352266],[-71.060033,42.352236],[-71.060126,42.352271],[-71.060161,42.352505],[-71.060414,42.352641]],[[-71.060257,42.351834],[-71.060254,42.351834],[-71.06025,42.35181],[-71.060257,42.351834]],[[-71.059512,42.354696],[-71.059448,42.354662],[-71.059454,42.354652],[-71.059512,42.354696]],[[-71.059262,42.354024],[-71.059181,42.354038],[-71.059127,42.35401],[-71.059167,42.353973],[-71.059262,42.354024]],[[-71.05672,42.354115],[-71.056704,42.354116],[-71.056702,42.354104],[-71.05672,42.354115]]],[[[-71.066911,42.348759],[-71.066507,42.348542],[-71.066546,42.34836],[-71.065995,42.348062],[-71.065837,42.348044],[-71.065752,42.348444],[-71.065814,42.348478],[-71.065804,42.348522],[-71.066394,42.348839],[-71.06649,42.34885],[-71.066493,42.348833],[-71.066883,42.348879],[-71.066911,42.348759]]],[[[-71.066248,42.349559],[-71.066192,42.349461],[-71.066051,42.349385],[-71.065989,42.349405],[-71.066043,42.349503],[-71.066184,42.349579],[-71.066248,42.349559]]],[[[-71.065703,42.354421],[-71.065683,42.354385],[-71.065534,42.354305],[-71.065487,42.354301],[-71.065445,42.354332],[-71.065458,42.354374],[-71.065618,42.35446],[-71.065678,42.354456],[-71.065703,42.354421]]],[[[-71.065497,42.352912],[-71.065421,42.352871],[-71.065303,42.352844],[-71.065286,42.352891],[-71.065312,42.352972],[-71.065388,42.353013],[-71.065454,42.353027],[-71.065497,42.352912]]],[[[-71.059825,42.350387],[-71.059791,42.350352],[-71.059471,42.35018],[-71.059414,42.350167],[-71.059446,42.350145],[-71.059435,42.350114],[-71.058933,42.349844],[-71.05898,42.349726],[-71.058548,42.349494],[-71.058565,42.349451],[-71.058424,42.349376],[-71.057926,42.349266],[-71.057859,42.349433],[-71.057989,42.349503],[-71.057962,42.349568],[-71.057872,42.349548],[-71.057853,42.349597],[-71.057921,42.349633],[-71.058011,42.349653],[-71.058333,42.349826],[-71.058886,42.349962],[-71.058893,42.349945],[-71.05915,42.350083],[-71.05918,42.350089],[-71.059213,42.350072],[-71.059375,42.350159],[-71.059047,42.350086],[-71.058996,42.350102],[-71.058979,42.350143],[-71.058776,42.350034],[-71.058372,42.349945],[-71.058366,42.349965],[-71.058289,42.349924],[-71.057874,42.34983],[-71.057764,42.349887],[-71.057505,42.349748],[-71.057133,42.349667],[-71.05695,42.350087],[-71.056922,42.350095],[-71.056797,42.350339],[-71.056828,42.350356],[-71.056878,42.350421],[-71.056873,42.350442],[-71.057239,42.350639],[-71.057323,42.35066],[-71.05753,42.350771],[-71.057522,42.350799],[-71.05732,42.350691],[-71.05694,42.350597],[-71.056735,42.350624],[-71.056678,42.350643],[-71.056666,42.350669],[-71.056676,42.350615],[-71.05664,42.350596],[-71.05672,42.350435],[-71.056921,42.349936],[-71.056964,42.349766],[-71.057128,42.349427],[-71.057053,42.349387],[-71.057061,42.349353],[-71.056775,42.349199],[-71.056596,42.349149],[-71.055882,42.349353],[-71.056956,42.347749],[-71.056946,42.34769],[-71.056673,42.347544],[-71.055908,42.347262],[-71.054533,42.349309],[-71.054519,42.349436],[-71.054447,42.34941],[-71.053477,42.350853],[-71.05394,42.351101],[-71.054521,42.351316],[-71.054804,42.350954],[-71.055135,42.350462],[-71.055367,42.350639],[-71.055673,42.350804],[-71.055791,42.350846],[-71.055923,42.350857],[-71.05644,42.350843],[-71.056524,42.350827],[-71.056542,42.350791],[-71.056602,42.350794],[-71.05656,42.350888],[-71.056778,42.351005],[-71.056543,42.350948],[-71.056401,42.351249],[-71.056767,42.351445],[-71.057342,42.351677],[-71.057323,42.351778],[-71.056525,42.351411],[-71.056294,42.351331],[-71.056079,42.351765],[-71.056666,42.35208],[-71.05709,42.35219],[-71.05727,42.352287],[-71.057845,42.352437],[-71.057867,42.352324],[-71.058408,42.35249],[-71.05858,42.351986],[-71.058281,42.351816],[-71.0585,42.351849],[-71.058529,42.351779],[-71.058627,42.351831],[-71.058823,42.351874],[-71.059011,42.351696],[-71.059125,42.351559],[-71.059255,42.351355],[-71.059303,42.351243],[-71.059038,42.351101],[-71.058633,42.351011],[-71.058613,42.35106],[-71.058414,42.350953],[-71.058155,42.350889],[-71.058177,42.350863],[-71.058396,42.350916],[-71.058404,42.350891],[-71.058515,42.35092],[-71.058527,42.350893],[-71.05862,42.350916],[-71.058635,42.350879],[-71.058724,42.350899],[-71.059041,42.351069],[-71.059463,42.351163],[-71.059518,42.351147],[-71.059825,42.350387]],[[-71.058875,42.3504],[-71.058843,42.35048],[-71.058807,42.35046],[-71.058835,42.350391],[-71.058875,42.3504]],[[-71.058102,42.350881],[-71.058097,42.350897],[-71.058052,42.350873],[-71.057734,42.350799],[-71.057758,42.35078],[-71.057801,42.350781],[-71.058102,42.350881]],[[-71.057585,42.351644],[-71.057504,42.351631],[-71.057509,42.351603],[-71.057585,42.351644]]],[[[-71.059399,42.34977],[-71.059318,42.349726],[-71.059179,42.349693],[-71.059105,42.349866],[-71.059186,42.349909],[-71.059325,42.349942],[-71.059399,42.34977]]],[[[-71.058797,42.349095],[-71.058071,42.348706],[-71.057613,42.348605],[-71.057529,42.348814],[-71.058255,42.349203],[-71.058447,42.349246],[-71.058714,42.349304],[-71.058797,42.349095]]]]},"properties":{"kind":"building"}},{"type":"Feature","geometry":{"type":"MultiPolygon","coordinates":[[[[-71.066334,42.353599],[-71.066323,42.353558],[-71.066291,42.353523],[-71.066065,42.353401],[-71.066108,42.353385],[-71.066135,42.353335],[-71.066108,42.353286],[-71.066056,42.353259],[-71.066077,42.353244],[-71.066156,42.353267],[-71.066241,42.353241],[-71.066276,42.353179],[-71.066248,42.353124],[-71.066288,42.353089],[-71.066308,42.353021],[-71.066297,42.35298],[-71.066265,42.352945],[-71.065942,42.352773],[-71.065875,42.352767],[-71.06585,42.352726],[-71.06592,42.352714],[-71.065968,42.352739],[-71.06605,42.352727],[-71.066132,42.352751],[-71.066201,42.352717],[-71.066206,42.352696],[-71.066185,42.352657],[-71.065976,42.352546],[-71.065894,42.352558],[-71.065841,42.352538],[-71.065765,42.352547],[-71.065717,42.352522],[-71.065659,42.352522],[-71.065619,42.352552],[-71.065613,42.352573],[-71.065634,42.35261],[-71.065552,42.352596],[-71.065401,42.352516],[-71.065361,42.35251],[-71.065288,42.352533],[-71.065265,42.352558],[-71.065257,42.352587],[-71.065287,42.352641],[-71.065049,42.352515],[-71.064975,42.352515],[-71.064922,42.352553],[-71.064922,42.352609],[-71.064943,42.352632],[-71.065149,42.352742],[-71.065092,42.352768],[-71.065105,42.352816],[-71.065081,42.352852],[-71.065094,42.352876],[-71.065032,42.352908],[-71.065032,42.352948],[-71.065176,42.353034],[-71.065192,42.353087],[-71.065366,42.35318],[-71.065373,42.353229],[-71.065182,42.353125],[-71.065148,42.353125],[-71.065123,42.353143],[-71.06509,42.353092],[-71.064791,42.352933],[-71.064699,42.352933],[-71.064634,42.352981],[-71.064625,42.353015],[-71.064656,42.353073],[-71.064658,42.353148],[-71.064807,42.353259],[-71.064757,42.353275],[-71.064659,42.353241],[-71.064581,42.353265],[-71.064549,42.353323],[-71.064581,42.353381],[-71.064861,42.353529],[-71.064927,42.353532],[-71.065098,42.353623],[-71.065153,42.353623],[-71.06519,42.353596],[-71.065386,42.3537],[-71.065456,42.353703],[-71.065516,42.353736],[-71.065509,42.353756],[-71.065526,42.353787],[-71.065703,42.353881],[-71.065747,42.353881],[-71.065783,42.353841],[-71.065766,42.35381],[-71.065703,42.353776],[-71.065711,42.353762],[-71.06578,42.353756],[-71.065827,42.353732],[-71.065859,42.353697],[-71.06587,42.353656],[-71.065859,42.353615],[-71.065827,42.35358],[-71.065672,42.353497],[-71.065687,42.353451],[-71.065676,42.35341],[-71.065721,42.353417],[-71.065786,42.3534],[-71.065766,42.353451],[-71.065777,42.353492],[-71.065809,42.353527],[-71.066132,42.353699],[-71.066244,42.353699],[-71.066291,42.353675],[-71.066323,42.35364],[-71.066334,42.353599]],[[-71.0659,42.353345],[-71.065822,42.353368],[-71.065862,42.353324],[-71.0659,42.353345]],[[-71.065613,42.352789],[-71.065608,42.352787],[-71.065612,42.352786],[-71.065613,42.352789]],[[-71.065547,42.352779],[-71.065472,42.352821],[-71.065472,42.352877],[-71.065522,42.352915],[-71.065463,42.35295],[-71.065463,42.352996],[-71.065408,42.353037],[-71.065403,42.353077],[-71.065375,42.353062],[-71.065397,42.353047],[-71.065388,42.353015],[-71.065289,42.352962],[-71.065317,42.352942],[-71.065317,42.352914],[-71.065358,42.352886],[-71.065358,42.352853],[-71.065215,42.352769],[-71.065272,42.352767],[-71.065324,42.352728],[-71.065332,42.3527],[-71.065304,42.35265],[-71.065547,42.352779]],[[-71.065112,42.353393],[-71.065054,42.353438],[-71.065046,42.353467],[-71.065021,42.353454],[-71.065054,42.353429],[-71.065054,42.353388],[-71.064969,42.353334],[-71.065112,42.353393]]],[[[-71.06622,42.355065],[-71.0662,42.35503],[-71.066004,42.354925],[-71.06593,42.354936],[-71.065607,42.354759],[-71.06553,42.354756],[-71.065301,42.354642],[-71.065168,42.354604],[-71.065225,42.354563],[-71.065212,42.354513],[-71.065029,42.354416],[-71.06493,42.354419],[-71.064938,42.354396],[-71.064918,42.354361],[-71.064825,42.354311],[-71.064852,42.35429],[-71.064866,42.354321],[-71.06503,42.354408],[-71.065087,42.3544],[-71.065098,42.354358],[-71.064923,42.354259],[-71.064866,42.354267],[-71.064856,42.354209],[-71.064989,42.354279],[-71.065027,42.354279],[-71.065057,42.354246],[-71.065199,42.354307],[-71.065253,42.35428],[-71.06524,42.354233],[-71.065063,42.354139],[-71.065,42.354148],[-71.064986,42.35419],[-71.064911,42.35415],[-71.064954,42.354136],[-71.064975,42.354098],[-71.065019,42.35412],[-71.065081,42.35412],[-71.065107,42.354107],[-71.06513,42.354068],[-71.065149,42.354095],[-71.065326,42.354189],[-71.065389,42.354179],[-71.065402,42.354132],[-71.065329,42.354086],[-71.065311,42.354048],[-71.065121,42.353947],[-71.065071,42.353947],[-71.065033,42.353983],[-71.064737,42.353847],[-71.064678,42.353847],[-71.064614,42.353813],[-71.064613,42.353782],[-71.064652,42.353731],[-71.064633,42.353697],[-71.064443,42.353596],[-71.064393,42.353596],[-71.064358,42.353622],[-71.064358,42.353658],[-71.064319,42.35371],[-71.064332,42.353737],[-71.064296,42.353748],[-71.06428,42.353777],[-71.064323,42.353821],[-71.064258,42.353857],[-71.064258,42.353905],[-71.064238,42.353945],[-71.064262,42.353987],[-71.064435,42.35408],[-71.064295,42.354023],[-71.06422,42.35406],[-71.06422,42.354106],[-71.06446,42.354243],[-71.064548,42.35423],[-71.06464,42.354277],[-71.064633,42.354322],[-71.064709,42.354371],[-71.064666,42.354375],[-71.064231,42.354133],[-71.064178,42.354117],[-71.064109,42.354151],[-71.064109,42.354193],[-71.064147,42.354223],[-71.064088,42.354236],[-71.064069,42.35427],[-71.064088,42.354304],[-71.064161,42.35436],[-71.064484,42.354532],[-71.064526,42.354538],[-71.064554,42.354568],[-71.064731,42.354662],[-71.064794,42.354652],[-71.064807,42.354605],[-71.064836,42.354619],[-71.064814,42.354661],[-71.064821,42.354687],[-71.064926,42.354754],[-71.064877,42.354779],[-71.064877,42.354811],[-71.06506,42.354915],[-71.06512,42.354906],[-71.065136,42.354877],[-71.065105,42.35484],[-71.065147,42.354837],[-71.065338,42.354939],[-71.065387,42.35494],[-71.065465,42.354981],[-71.065522,42.354981],[-71.06556,42.354954],[-71.065778,42.35507],[-71.065873,42.35507],[-71.065939,42.35502],[-71.066152,42.355116],[-71.0662,42.355101],[-71.06622,42.355065]],[[-71.065127,42.354694],[-71.06512,42.354694],[-71.065009,42.354635],[-71.065127,42.354694]],[[-71.064845,42.354138],[-71.064821,42.354156],[-71.06482,42.35418],[-71.064602,42.354063],[-71.064592,42.354035],[-71.064787,42.354137],[-71.064845,42.354138]]],[[[-71.066146,42.354128],[-71.066134,42.354108],[-71.065996,42.354034],[-71.065953,42.354041],[-71.065942,42.354061],[-71.065889,42.354045],[-71.065906,42.354015],[-71.065891,42.35399],[-71.065374,42.353742],[-71.065322,42.353742],[-71.065285,42.35377],[-71.065285,42.353808],[-71.065384,42.35387],[-71.065399,42.353896],[-71.06557,42.353987],[-71.065612,42.353987],[-71.06563,42.354015],[-71.065787,42.354099],[-71.06584,42.354092],[-71.06603,42.354211],[-71.066062,42.354211],[-71.06608,42.354157],[-71.066122,42.354155],[-71.066146,42.354128]],[[-71.065866,42.35405],[-71.065855,42.354056],[-71.065849,42.35405],[-71.065866,42.35405]]],[[[-71.066141,42.354616],[-71.066103,42.354548],[-71.065785,42.354379],[-71.065685,42.354379],[-71.065615,42.354431],[-71.065615,42.354505],[-71.065643,42.354536],[-71.065961,42.354705],[-71.066061,42.354705],[-71.066103,42.354684],[-71.066141,42.354616]]],[[[-71.065999,42.348129],[-71.06598,42.348095],[-71.06579,42.347994],[-71.06574,42.347994],[-71.065705,42.34802],[-71.065719,42.348072],[-71.065909,42.348173],[-71.065959,42.348173],[-71.065999,42.348129]]],[[[-71.065943,42.348262],[-71.065927,42.348233],[-71.065756,42.348142],[-71.065714,42.348142],[-71.065684,42.348164],[-71.065696,42.348209],[-71.065867,42.3483],[-71.065909,42.3483],[-71.065943,42.348262]]],[[[-71.065896,42.348531],[-71.065879,42.3485],[-71.065721,42.348415],[-71.065697,42.348371],[-71.065534,42.348284],[-71.065466,42.348274],[-71.065433,42.348299],[-71.065446,42.348348],[-71.065623,42.348442],[-71.065639,42.348477],[-71.065797,42.348561],[-71.06586,42.348571],[-71.065896,42.348531]]],[[[-71.0658,42.348332],[-71.065723,42.348283],[-71.065692,42.348293],[-71.065769,42.348341],[-71.0658,42.348332]]],[[[-71.065681,42.349302],[-71.065667,42.349276],[-71.065529,42.349203],[-71.065491,42.349203],[-71.065465,42.349222],[-71.065476,42.349261],[-71.065614,42.349335],[-71.065651,42.349335],[-71.065681,42.349302]]],[[[-71.065671,42.351267],[-71.065583,42.351213],[-71.065552,42.351223],[-71.06564,42.351277],[-71.065671,42.351267]]],[[[-71.065665,42.348993],[-71.065593,42.348947],[-71.065562,42.348957],[-71.065634,42.349002],[-71.065665,42.348993]]],[[[-71.065629,42.34913],[-71.065557,42.349084],[-71.065526,42.349094],[-71.065598,42.349139],[-71.065629,42.34913]]],[[[-71.06562,42.348149],[-71.065543,42.3481],[-71.065512,42.34811],[-71.065589,42.348158],[-71.06562,42.348149]]],[[[-71.065582,42.348499],[-71.065476,42.348434],[-71.065437,42.348446],[-71.065543,42.348511],[-71.065582,42.348499]]],[[[-71.065555,42.348856],[-71.065541,42.34883],[-71.065403,42.348757],[-71.065365,42.348757],[-71.065339,42.348776],[-71.06535,42.348815],[-71.065488,42.348889],[-71.065525,42.348889],[-71.065555,42.348856]]],[[[-71.065549,42.354061],[-71.06553,42.354027],[-71.065449,42.353983],[-71.065432,42.353947],[-71.065249,42.35385],[-71.065201,42.35385],[-71.065168,42.353875],[-71.065168,42.353909],[-71.065252,42.353962],[-71.065269,42.354004],[-71.065459,42.354105],[-71.065509,42.354105],[-71.065549,42.354061]]],[[[-71.065521,42.349146],[-71.065506,42.349121],[-71.065349,42.349037],[-71.065311,42.349037],[-71.065285,42.349056],[-71.065296,42.349095],[-71.065453,42.349179],[-71.065491,42.349179],[-71.065521,42.349146]]],[[[-71.065516,42.349005],[-71.065506,42.348986],[-71.065374,42.348916],[-71.065327,42.34893],[-71.065335,42.348959],[-71.065467,42.349029],[-71.065494,42.349029],[-71.065516,42.349005]]],[[[-71.065446,42.351252],[-71.065363,42.3512],[-71.065332,42.35121],[-71.065415,42.351261],[-71.065446,42.351252]]],[[[-71.06534,42.351249],[-71.065263,42.3512],[-71.065232,42.35121],[-71.065309,42.351258],[-71.06534,42.351249]]],[[[-71.06528,42.350776],[-71.065168,42.350706],[-71.065126,42.350713],[-71.065126,42.350727],[-71.065236,42.35079],[-71.065264,42.350794],[-71.06528,42.350776]]],[[[-71.065255,42.35084],[-71.065143,42.35077],[-71.065101,42.350777],[-71.065101,42.350791],[-71.065211,42.350854],[-71.065239,42.350858],[-71.065255,42.35084]]],[[[-71.065223,42.350903],[-71.065124,42.350843],[-71.065091,42.350853],[-71.06519,42.350913],[-71.065223,42.350903]]],[[[-71.065144,42.355111],[-71.065114,42.355057],[-71.064847,42.354915],[-71.064767,42.354915],[-71.064711,42.354957],[-71.064711,42.355015],[-71.064734,42.35504],[-71.065,42.355182],[-71.06508,42.355182],[-71.065114,42.355165],[-71.065144,42.355111]]],[[[-71.065022,42.351352],[-71.064939,42.3513],[-71.064908,42.35131],[-71.064991,42.351361],[-71.065022,42.351352]]],[[[-71.064959,42.353658],[-71.06493,42.353606],[-71.06467,42.353467],[-71.064592,42.353467],[-71.064538,42.353508],[-71.064538,42.353564],[-71.06456,42.353589],[-71.06482,42.353727],[-71.064897,42.353727],[-71.06493,42.353711],[-71.064959,42.353658]]],[[[-71.064929,42.348495],[-71.064852,42.348446],[-71.064821,42.348456],[-71.064898,42.348504],[-71.064929,42.348495]]],[[[-71.064811,42.354836],[-71.064734,42.354787],[-71.064703,42.354797],[-71.06478,42.354845],[-71.064811,42.354836]]],[[[-71.064696,42.351865],[-71.064619,42.351816],[-71.064588,42.351826],[-71.064665,42.351874],[-71.064696,42.351865]]],[[[-71.064693,42.348464],[-71.064616,42.348415],[-71.064585,42.348425],[-71.064662,42.348473],[-71.064693,42.348464]]],[[[-71.064693,42.3547],[-71.064603,42.354616],[-71.064426,42.354522],[-71.064382,42.354522],[-71.064347,42.354557],[-71.064301,42.354533],[-71.064313,42.354504],[-71.064289,42.354462],[-71.064067,42.354344],[-71.063979,42.354357],[-71.063955,42.354399],[-71.063968,42.35443],[-71.063903,42.354482],[-71.063892,42.354523],[-71.063903,42.354564],[-71.063935,42.354599],[-71.064159,42.354719],[-71.064233,42.354774],[-71.064252,42.354818],[-71.064455,42.354926],[-71.064533,42.354915],[-71.064549,42.354898],[-71.064549,42.354857],[-71.064392,42.35476],[-71.064411,42.354751],[-71.064553,42.354818],[-71.064592,42.354806],[-71.064608,42.354777],[-71.064592,42.354748],[-71.064458,42.354665],[-71.064453,42.354643],[-71.064621,42.354735],[-71.064661,42.354735],[-71.064693,42.3547]]],[[[-71.064658,42.352154],[-71.064559,42.352094],[-71.064526,42.352104],[-71.064625,42.352164],[-71.064658,42.352154]]],[[[-71.064646,42.352097],[-71.064563,42.352045],[-71.064532,42.352055],[-71.064615,42.352106],[-71.064646,42.352097]]],[[[-71.06462,42.352199],[-71.064543,42.35215],[-71.064512,42.35216],[-71.064589,42.352208],[-71.06462,42.352199]]],[[[-71.064508,42.348438],[-71.064431,42.348389],[-71.0644,42.348399],[-71.064477,42.348447],[-71.064508,42.348438]]],[[[-71.06431,42.350964],[-71.064233,42.350915],[-71.064202,42.350925],[-71.064279,42.350973],[-71.06431,42.350964]]],[[[-71.064308,42.348773],[-71.064202,42.348708],[-71.064163,42.34872],[-71.064269,42.348785],[-71.064308,42.348773]]],[[[-71.064256,42.348887],[-71.064163,42.34883],[-71.064132,42.34884],[-71.064225,42.348897],[-71.064256,42.348887]]],[[[-71.06422,42.350953],[-71.06413,42.350901],[-71.064112,42.350914],[-71.06405,42.35089],[-71.06402,42.350905],[-71.063934,42.350874],[-71.063895,42.350903],[-71.063906,42.350923],[-71.064045,42.350997],[-71.064075,42.350997],[-71.064099,42.35097],[-71.064178,42.350998],[-71.06422,42.350953]]],[[[-71.064176,42.353347],[-71.06407,42.353287],[-71.06392,42.353251],[-71.063897,42.353268],[-71.064019,42.353338],[-71.064041,42.353324],[-71.064158,42.353361],[-71.064176,42.353347]]],[[[-71.064163,42.354815],[-71.064139,42.354771],[-71.063878,42.354645],[-71.063818,42.354663],[-71.0638,42.354683],[-71.063799,42.354727],[-71.063772,42.354739],[-71.063749,42.35478],[-71.063772,42.354821],[-71.064017,42.35494],[-71.064072,42.354923],[-71.064095,42.354882],[-71.064157,42.354839],[-71.064163,42.354815]]],[[[-71.064143,42.35344],[-71.06403,42.353376],[-71.064011,42.35339],[-71.06391,42.353361],[-71.063892,42.353374],[-71.063998,42.353435],[-71.064059,42.353451],[-71.064078,42.353436],[-71.064124,42.353455],[-71.064143,42.35344]]],[[[-71.064086,42.353807],[-71.063993,42.35375],[-71.063962,42.35376],[-71.064055,42.353817],[-71.064086,42.353807]]],[[[-71.064038,42.354029],[-71.063902,42.353945],[-71.06386,42.353958],[-71.063867,42.353984],[-71.063993,42.354051],[-71.064018,42.354051],[-71.064038,42.354029]]],[[[-71.064009,42.348725],[-71.06391,42.348665],[-71.063877,42.348675],[-71.063976,42.348735],[-71.064009,42.348725]]],[[[-71.063992,42.348796],[-71.063886,42.348731],[-71.063847,42.348743],[-71.063953,42.348808],[-71.063992,42.348796]]],[[[-71.063973,42.34892],[-71.063874,42.34886],[-71.063841,42.34887],[-71.06394,42.34893],[-71.063973,42.34892]]],[[[-71.063945,42.348832],[-71.063868,42.348783],[-71.063837,42.348793],[-71.063914,42.348841],[-71.063945,42.348832]]],[[[-71.06392,42.354176],[-71.063808,42.354106],[-71.063766,42.354113],[-71.063766,42.354127],[-71.063876,42.35419],[-71.063904,42.354194],[-71.06392,42.354176]]],[[[-71.063893,42.349187],[-71.063816,42.349138],[-71.063785,42.349148],[-71.063862,42.349196],[-71.063893,42.349187]]],[[[-71.06388,42.348466],[-71.06379,42.348414],[-71.063772,42.348427],[-71.0637,42.348397],[-71.063682,42.34841],[-71.063772,42.348462],[-71.06379,42.348449],[-71.063862,42.348479],[-71.06388,42.348466]]],[[[-71.06384,42.349332],[-71.063763,42.349283],[-71.063732,42.349293],[-71.063809,42.349341],[-71.06384,42.349332]]],[[[-71.063827,42.349374],[-71.06375,42.349325],[-71.063719,42.349335],[-71.063796,42.349383],[-71.063827,42.349374]]],[[[-71.063823,42.350945],[-71.063687,42.350861],[-71.063652,42.350866],[-71.063643,42.350884],[-71.06352,42.350845],[-71.063496,42.350857],[-71.063496,42.350871],[-71.063624,42.350939],[-71.063648,42.350928],[-71.063689,42.350946],[-71.063711,42.350932],[-71.06379,42.350969],[-71.063823,42.350945]]],[[[-71.063783,42.34981],[-71.063684,42.34975],[-71.063651,42.34976],[-71.06375,42.34982],[-71.063783,42.34981]]],[[[-71.06372,42.349901],[-71.063627,42.349844],[-71.063596,42.349854],[-71.063689,42.349911],[-71.06372,42.349901]]],[[[-71.063691,42.354766],[-71.063677,42.35474],[-71.063539,42.354667],[-71.063501,42.354667],[-71.063475,42.354686],[-71.063486,42.354725],[-71.063624,42.354799],[-71.063661,42.354799],[-71.063691,42.354766]]],[[[-71.063673,42.35],[-71.063574,42.34994],[-71.063541,42.34995],[-71.06364,42.35001],[-71.063673,42.35]]],[[[-71.063636,42.350047],[-71.063543,42.34999],[-71.063512,42.35],[-71.063605,42.350057],[-71.063636,42.350047]]],[[[-71.063631,42.354866],[-71.063617,42.35484],[-71.063479,42.354767],[-71.063441,42.354767],[-71.063415,42.354786],[-71.063426,42.354825],[-71.063564,42.354899],[-71.063601,42.354899],[-71.063631,42.354866]]],[[[-71.063546,42.350465],[-71.063453,42.350408],[-71.063422,42.350418],[-71.063515,42.350475],[-71.063546,42.350465]]],[[[-71.063541,42.350224],[-71.063453,42.35017],[-71.063422,42.35018],[-71.06351,42.350234],[-71.063541,42.350224]]],[[[-71.063517,42.350531],[-71.063323,42.35043],[-71.063292,42.35044],[-71.063486,42.350541],[-71.063517,42.350531]]],[[[-71.063511,42.35029],[-71.063423,42.350236],[-71.063392,42.350246],[-71.06348,42.3503],[-71.063511,42.35029]]],[[[-71.063493,42.350824],[-71.063365,42.350745],[-71.063325,42.350765],[-71.063453,42.350844],[-71.063493,42.350824]]],[[[-71.06349,42.350882],[-71.063378,42.350812],[-71.063336,42.350819],[-71.063336,42.350833],[-71.063446,42.350896],[-71.063474,42.3509],[-71.06349,42.350882]]],[[[-71.063486,42.350324],[-71.063398,42.35027],[-71.063367,42.35028],[-71.063455,42.350334],[-71.063486,42.350324]]],[[[-71.063481,42.350592],[-71.063398,42.35054],[-71.063367,42.35055],[-71.06345,42.350601],[-71.063481,42.350592]]],[[[-71.063463,42.350754],[-71.063364,42.350694],[-71.063331,42.350704],[-71.06343,42.350764],[-71.063463,42.350754]]],[[[-71.063446,42.350652],[-71.063363,42.3506],[-71.063332,42.35061],[-71.063415,42.350661],[-71.063446,42.350652]]],[[[-71.063381,42.350527],[-71.063293,42.350473],[-71.063262,42.350483],[-71.06335,42.350537],[-71.063381,42.350527]]],[[[-71.063356,42.35058],[-71.063268,42.350526],[-71.063237,42.350536],[-71.063325,42.35059],[-71.063356,42.35058]]],[[[-71.063336,42.350629],[-71.063243,42.350572],[-71.063212,42.350582],[-71.063305,42.350639],[-71.063336,42.350629]]],[[[-71.063316,42.350677],[-71.063223,42.35062],[-71.063192,42.35063],[-71.063285,42.350687],[-71.063316,42.350677]]],[[[-71.063265,42.350713],[-71.063193,42.350667],[-71.063162,42.350677],[-71.063234,42.350722],[-71.063265,42.350713]]],[[[-71.063261,42.350771],[-71.063173,42.350717],[-71.063142,42.350727],[-71.06323,42.350781],[-71.063261,42.350771]]],[[[-71.063243,42.350815],[-71.063144,42.350755],[-71.063111,42.350765],[-71.06321,42.350825],[-71.063243,42.350815]]],[[[-71.063222,42.35228],[-71.063139,42.352228],[-71.063108,42.352238],[-71.063191,42.352289],[-71.063222,42.35228]]],[[[-71.063161,42.352292],[-71.063078,42.35224],[-71.063047,42.35225],[-71.06313,42.352301],[-71.063161,42.352292]]],[[[-71.063061,42.352295],[-71.062917,42.35221],[-71.062886,42.35222],[-71.06303,42.352304],[-71.063061,42.352295]]],[[[-71.062926,42.352257],[-71.062843,42.352205],[-71.062812,42.352215],[-71.062895,42.352266],[-71.062926,42.352257]]],[[[-71.062923,42.353352],[-71.062824,42.353292],[-71.062791,42.353302],[-71.06289,42.353362],[-71.062923,42.353352]]],[[[-71.062923,42.353264],[-71.06281,42.3532],[-71.062791,42.353214],[-71.062744,42.353193],[-71.062725,42.353207],[-71.062838,42.353272],[-71.062857,42.353257],[-71.062904,42.353279],[-71.062923,42.353264]]],[[[-71.062862,42.353359],[-71.062756,42.353294],[-71.062717,42.353306],[-71.062823,42.353371],[-71.062862,42.353359]]],[[[-71.062669,42.348413],[-71.062541,42.348334],[-71.062501,42.348354],[-71.062629,42.348433],[-71.062669,42.348413]]],[[[-71.062627,42.349443],[-71.062615,42.349421],[-71.062366,42.349294],[-71.062311,42.349311],[-71.06232,42.349345],[-71.062569,42.349472],[-71.062601,42.349472],[-71.062627,42.349443]]],[[[-71.062562,42.34861],[-71.062456,42.348545],[-71.062417,42.348557],[-71.062523,42.348622],[-71.062562,42.34861]]],[[[-71.062535,42.34844],[-71.062523,42.34842],[-71.062385,42.348346],[-71.062334,42.348362],[-71.062342,42.348393],[-71.062481,42.348467],[-71.062511,42.348467],[-71.062535,42.34844]]],[[[-71.062133,42.353802],[-71.061881,42.353676],[-71.061867,42.353647],[-71.061729,42.353574],[-71.061691,42.353574],[-71.06161,42.353537],[-71.061592,42.35355],[-71.061664,42.353596],[-71.061676,42.353632],[-71.061814,42.353706],[-71.061862,42.353701],[-71.062114,42.353817],[-71.062133,42.353802]]],[[[-71.062078,42.349345],[-71.062001,42.349296],[-71.06197,42.349306],[-71.062047,42.349354],[-71.062078,42.349345]]],[[[-71.062063,42.349614],[-71.062049,42.349588],[-71.061911,42.349515],[-71.061873,42.349515],[-71.061847,42.349534],[-71.061858,42.349573],[-71.061996,42.349647],[-71.062033,42.349647],[-71.062063,42.349614]]],[[[-71.06206,42.353899],[-71.061742,42.353728],[-71.061711,42.353738],[-71.06197,42.353885],[-71.062042,42.353912],[-71.06206,42.353899]]],[[[-71.062023,42.349477],[-71.061946,42.349428],[-71.061915,42.349438],[-71.061992,42.349486],[-71.062023,42.349477]]],[[[-71.062,42.349919],[-71.061923,42.34987],[-71.061892,42.34988],[-71.061969,42.349928],[-71.062,42.349919]]],[[[-71.061988,42.348385],[-71.061975,42.348362],[-71.061823,42.348281],[-71.061789,42.348281],[-71.061764,42.348299],[-71.061774,42.348336],[-71.061925,42.348416],[-71.06196,42.348416],[-71.061988,42.348385]]],[[[-71.06197,42.349965],[-71.061893,42.349916],[-71.061862,42.349926],[-71.061939,42.349974],[-71.06197,42.349965]]],[[[-71.061964,42.350039],[-71.061887,42.34999],[-71.061856,42.35],[-71.061933,42.350048],[-71.061964,42.350039]]],[[[-71.06194,42.350083],[-71.061863,42.350034],[-71.061832,42.350044],[-71.061909,42.350092],[-71.06194,42.350083]]],[[[-71.061915,42.350359],[-71.061903,42.350339],[-71.06175,42.350263],[-71.061722,42.350272],[-71.061711,42.350292],[-71.061722,42.350312],[-71.061688,42.350322],[-71.061675,42.350346],[-71.061688,42.35037],[-71.061857,42.350453],[-71.061898,42.350432],[-71.061898,42.350406],[-71.061875,42.350388],[-71.061915,42.350359]]],[[[-71.06191,42.350119],[-71.061833,42.35007],[-71.061802,42.35008],[-71.061879,42.350128],[-71.06191,42.350119]]],[[[-71.061891,42.350191],[-71.061819,42.350145],[-71.061788,42.350155],[-71.06186,42.3502],[-71.061891,42.350191]]],[[[-71.061888,42.349732],[-71.061874,42.349706],[-71.061736,42.349633],[-71.061698,42.349633],[-71.061672,42.349652],[-71.061683,42.349691],[-71.061821,42.349765],[-71.061858,42.349765],[-71.061888,42.349732]]],[[[-71.06187,42.350239],[-71.061793,42.35019],[-71.061762,42.3502],[-71.061839,42.350248],[-71.06187,42.350239]]],[[[-71.061842,42.34846],[-71.061769,42.348414],[-71.061798,42.348379],[-71.061782,42.34835],[-71.061629,42.348268],[-71.061635,42.348238],[-71.061675,42.348238],[-71.061675,42.348219],[-71.061434,42.348108],[-71.061386,42.348108],[-71.061353,42.348133],[-71.061366,42.348182],[-71.061543,42.348277],[-71.06142,42.348224],[-71.06139,42.348239],[-71.061397,42.348265],[-71.061734,42.348418],[-71.061811,42.348469],[-71.061842,42.34846]]],[[[-71.061823,42.348718],[-71.061811,42.348696],[-71.061666,42.348619],[-71.061611,42.348636],[-71.06162,42.34867],[-71.061765,42.348747],[-71.061797,42.348747],[-71.061823,42.348718]]],[[[-71.061702,42.348743],[-71.061689,42.34872],[-71.061537,42.348639],[-71.061503,42.348639],[-71.061478,42.348657],[-71.061488,42.348694],[-71.061639,42.348774],[-71.061674,42.348774],[-71.061702,42.348743]]],[[[-71.061682,42.348876],[-71.061605,42.348827],[-71.061574,42.348837],[-71.061651,42.348885],[-71.061682,42.348876]]],[[[-71.06168,42.348539],[-71.061603,42.34849],[-71.061572,42.3485],[-71.061649,42.348548],[-71.06168,42.348539]]],[[[-71.06167,42.349634],[-71.061656,42.349608],[-71.061518,42.349535],[-71.061401,42.349498],[-71.061356,42.34952],[-71.061367,42.349559],[-71.061505,42.349633],[-71.061622,42.34967],[-71.061656,42.349659],[-71.06167,42.349634]]],[[[-71.061633,42.348924],[-71.061621,42.348902],[-71.061476,42.348825],[-71.061421,42.348842],[-71.06143,42.348876],[-71.061575,42.348953],[-71.061607,42.348953],[-71.061633,42.348924]]],[[[-71.061592,42.351003],[-71.061486,42.350938],[-71.061447,42.35095],[-71.061553,42.351015],[-71.061592,42.351003]]],[[[-71.061521,42.349299],[-71.061433,42.349245],[-71.061331,42.349208],[-71.061291,42.349228],[-71.061419,42.349307],[-71.061458,42.349292],[-71.061503,42.349313],[-71.061521,42.349299]]],[[[-71.061493,42.349102],[-71.061394,42.349042],[-71.061361,42.349052],[-71.06146,42.349112],[-71.061493,42.349102]]],[[[-71.06149,42.351161],[-71.061413,42.351112],[-71.061382,42.351122],[-71.061459,42.35117],[-71.06149,42.351161]]],[[[-71.061469,42.351219],[-71.061392,42.35117],[-71.061361,42.35118],[-71.061438,42.351228],[-71.061469,42.351219]]],[[[-71.061443,42.351279],[-71.061366,42.35123],[-71.061335,42.35124],[-71.061412,42.351288],[-71.061443,42.351279]]],[[[-71.06144,42.349469],[-71.061363,42.34942],[-71.061332,42.34943],[-71.061409,42.349478],[-71.06144,42.349469]]],[[[-71.061424,42.351328],[-71.061347,42.351279],[-71.061316,42.351289],[-71.061393,42.351337],[-71.061424,42.351328]]],[[[-71.06136,42.349672],[-71.061277,42.34962],[-71.061246,42.34963],[-71.061329,42.349681],[-71.06136,42.349672]]],[[[-71.061353,42.3499],[-71.061341,42.349878],[-71.061196,42.349801],[-71.061141,42.349818],[-71.06115,42.349852],[-71.061295,42.349929],[-71.061327,42.349929],[-71.061353,42.3499]]],[[[-71.061339,42.34972],[-71.061256,42.349668],[-71.061225,42.349678],[-71.061308,42.349729],[-71.061339,42.34972]]],[[[-71.061316,42.353409],[-71.061043,42.353265],[-71.061012,42.353275],[-71.061285,42.353418],[-71.061316,42.353409]]],[[[-71.06131,42.354813],[-71.061233,42.354764],[-71.061202,42.354774],[-71.061279,42.354822],[-71.06131,42.354813]]],[[[-71.061303,42.350109],[-71.061288,42.350082],[-71.061124,42.349995],[-71.061084,42.349995],[-71.061056,42.350015],[-71.061067,42.350057],[-71.061231,42.350144],[-71.061271,42.350144],[-71.061303,42.350109]]],[[[-71.06126,42.354955],[-71.061183,42.354906],[-71.061152,42.354916],[-71.061229,42.354964],[-71.06126,42.354955]]],[[[-71.061179,42.348681],[-71.061164,42.348654],[-71.061,42.348567],[-71.06096,42.348567],[-71.060932,42.348587],[-71.060943,42.348629],[-71.061107,42.348716],[-71.061147,42.348716],[-71.061179,42.348681]]],[[[-71.061158,42.348799],[-71.061142,42.34877],[-71.060971,42.348679],[-71.060929,42.348679],[-71.060899,42.348701],[-71.060911,42.348746],[-71.061082,42.348837],[-71.061124,42.348837],[-71.061158,42.348799]]],[[[-71.06111,42.348529],[-71.061033,42.34848],[-71.061002,42.34849],[-71.061079,42.348538],[-71.06111,42.348529]]],[[[-71.061073,42.348897],[-71.061061,42.348875],[-71.060916,42.348798],[-71.060861,42.348815],[-71.06087,42.348849],[-71.061015,42.348926],[-71.061047,42.348926],[-71.061073,42.348897]]],[[[-71.06106,42.353402],[-71.060857,42.353292],[-71.060826,42.353302],[-71.061029,42.353411],[-71.06106,42.353402]]],[[[-71.061027,42.34927],[-71.061006,42.349233],[-71.060803,42.349125],[-71.060749,42.349125],[-71.06071,42.349154],[-71.06071,42.349194],[-71.060725,42.349211],[-71.060928,42.349319],[-71.060983,42.349319],[-71.061027,42.34927]]],[[[-71.06101,42.353259],[-71.060933,42.35321],[-71.060902,42.35322],[-71.060979,42.353268],[-71.06101,42.353259]]],[[[-71.060855,42.349456],[-71.060841,42.34943],[-71.060703,42.349357],[-71.06065,42.349365],[-71.06057,42.349329],[-71.060552,42.349342],[-71.06065,42.349415],[-71.060788,42.349489],[-71.060825,42.349489],[-71.060855,42.349456]]],[[[-71.060837,42.349582],[-71.060822,42.349557],[-71.060665,42.349473],[-71.060612,42.34948],[-71.06053,42.34944],[-71.060512,42.349453],[-71.060595,42.349504],[-71.060612,42.349531],[-71.060769,42.349615],[-71.060807,42.349615],[-71.060837,42.349582]]],[[[-71.060751,42.349746],[-71.060736,42.349721],[-71.060499,42.34959],[-71.060468,42.3496],[-71.060532,42.349641],[-71.06052,42.34965],[-71.06047,42.349627],[-71.060457,42.34965],[-71.060667,42.349772],[-71.060721,42.349779],[-71.060751,42.349746]]],[[[-71.060729,42.349871],[-71.060714,42.349844],[-71.06055,42.349757],[-71.06051,42.349757],[-71.060482,42.349777],[-71.060493,42.349819],[-71.060657,42.349906],[-71.060697,42.349906],[-71.060729,42.349871]]],[[[-71.0607,42.349299],[-71.060623,42.34925],[-71.060592,42.34926],[-71.060669,42.349308],[-71.0607,42.349299]]],[[[-71.06068,42.349339],[-71.060603,42.34929],[-71.060572,42.3493],[-71.060649,42.349348],[-71.06068,42.349339]]],[[[-71.06067,42.353079],[-71.060463,42.352964],[-71.060432,42.352974],[-71.060639,42.353088],[-71.06067,42.353079]]],[[[-71.06063,42.349446],[-71.060553,42.349397],[-71.060522,42.349407],[-71.060599,42.349455],[-71.06063,42.349446]]],[[[-71.060616,42.349545],[-71.060533,42.349493],[-71.060502,42.349503],[-71.060585,42.349554],[-71.060616,42.349545]]],[[[-71.060586,42.353325],[-71.060503,42.353273],[-71.060472,42.353283],[-71.060555,42.353334],[-71.060586,42.353325]]],[[[-71.060576,42.353189],[-71.060369,42.35306],[-71.060338,42.35307],[-71.060545,42.353198],[-71.060576,42.353189]]],[[[-71.060576,42.349595],[-71.060499,42.349546],[-71.060468,42.349556],[-71.060545,42.349604],[-71.060576,42.349595]]],[[[-71.060545,42.353472],[-71.060486,42.353427],[-71.060489,42.353414],[-71.060413,42.35337],[-71.060344,42.353394],[-71.060352,42.353425],[-71.060491,42.353499],[-71.060521,42.353499],[-71.060545,42.353472]]],[[[-71.060466,42.349926],[-71.060383,42.349874],[-71.060352,42.349884],[-71.060435,42.349935],[-71.060466,42.349926]]],[[[-71.060436,42.350216],[-71.060422,42.35019],[-71.060358,42.350156],[-71.060369,42.350139],[-71.060293,42.350095],[-71.060267,42.350095],[-71.060267,42.350114],[-71.06022,42.350136],[-71.060231,42.350175],[-71.060369,42.350249],[-71.060406,42.350249],[-71.060436,42.350216]]],[[[-71.06043,42.353486],[-71.060353,42.353437],[-71.060322,42.353447],[-71.060399,42.353495],[-71.06043,42.353486]]],[[[-71.06039,42.350076],[-71.060313,42.350027],[-71.060282,42.350037],[-71.060359,42.350085],[-71.06039,42.350076]]],[[[-71.0603,42.349537],[-71.060288,42.349517],[-71.06015,42.349443],[-71.060099,42.349459],[-71.060107,42.34949],[-71.060246,42.349564],[-71.060276,42.349564],[-71.0603,42.349537]]],[[[-71.060242,42.353483],[-71.060229,42.35346],[-71.060077,42.353379],[-71.060043,42.353379],[-71.060018,42.353397],[-71.060028,42.353434],[-71.060179,42.353514],[-71.060214,42.353514],[-71.060242,42.353483]]],[[[-71.06023,42.353001],[-71.060153,42.352952],[-71.060122,42.352962],[-71.060199,42.35301],[-71.06023,42.353001]]],[[[-71.060229,42.349615],[-71.060101,42.349536],[-71.060061,42.349556],[-71.060189,42.349635],[-71.060229,42.349615]]],[[[-71.060206,42.349709],[-71.060196,42.34969],[-71.060064,42.34962],[-71.060017,42.349634],[-71.060025,42.349663],[-71.060157,42.349733],[-71.060184,42.349733],[-71.060206,42.349709]]],[[[-71.060103,42.351114],[-71.060091,42.351092],[-71.059946,42.351015],[-71.059891,42.351032],[-71.0599,42.351066],[-71.060045,42.351143],[-71.060077,42.351143],[-71.060103,42.351114]]],[[[-71.060005,42.351191],[-71.059893,42.351121],[-71.059851,42.351128],[-71.059851,42.351142],[-71.059961,42.351205],[-71.059989,42.351209],[-71.060005,42.351191]]],[[[-71.059953,42.35333],[-71.059941,42.353308],[-71.059796,42.353231],[-71.059741,42.353248],[-71.05975,42.353282],[-71.059895,42.353359],[-71.059927,42.353359],[-71.059953,42.35333]]],[[[-71.059836,42.352795],[-71.05974,42.35274],[-71.059616,42.352717],[-71.059598,42.35273],[-71.059693,42.352785],[-71.059817,42.352808],[-71.059836,42.352795]]],[[[-71.059779,42.355013],[-71.059688,42.354935],[-71.059595,42.354885],[-71.059588,42.354858],[-71.059517,42.354808],[-71.05951,42.354779],[-71.059378,42.354709],[-71.059331,42.354723],[-71.059331,42.354743],[-71.059369,42.354768],[-71.059377,42.354791],[-71.059521,42.35488],[-71.059527,42.354907],[-71.059567,42.354937],[-71.059739,42.355033],[-71.059779,42.355013]]],[[[-71.059771,42.351776],[-71.059757,42.35175],[-71.059634,42.351685],[-71.059675,42.351671],[-71.059668,42.351645],[-71.059542,42.351578],[-71.059507,42.351583],[-71.0595,42.351609],[-71.059618,42.351677],[-71.059581,42.351677],[-71.059552,42.351707],[-71.059541,42.351701],[-71.05956,42.351683],[-71.059553,42.351669],[-71.059448,42.351613],[-71.059406,42.35162],[-71.059406,42.351634],[-71.059516,42.351697],[-71.059507,42.351716],[-71.059605,42.35177],[-71.059723,42.351812],[-71.059757,42.351801],[-71.059771,42.351776]]],[[[-71.059711,42.352849],[-71.059697,42.352823],[-71.059559,42.35275],[-71.059521,42.35275],[-71.059495,42.352769],[-71.059506,42.352808],[-71.059644,42.352882],[-71.059681,42.352882],[-71.059711,42.352849]]],[[[-71.05959,42.351136],[-71.059513,42.351087],[-71.059482,42.351097],[-71.059559,42.351145],[-71.05959,42.351136]]],[[[-71.05955,42.351209],[-71.059473,42.35116],[-71.059442,42.35117],[-71.059519,42.351218],[-71.05955,42.351209]]],[[[-71.0595,42.353139],[-71.059423,42.35309],[-71.059392,42.3531],[-71.059469,42.353148],[-71.0595,42.353139]]],[[[-71.05949,42.353049],[-71.059413,42.353],[-71.059382,42.35301],[-71.059459,42.353058],[-71.05949,42.353049]]],[[[-71.059486,42.351757],[-71.05938,42.351692],[-71.059341,42.351704],[-71.059447,42.351769],[-71.059486,42.351757]]],[[[-71.059422,42.351833],[-71.059316,42.351768],[-71.059277,42.35178],[-71.059383,42.351845],[-71.059422,42.351833]]],[[[-71.059361,42.351366],[-71.059346,42.351341],[-71.059298,42.351315],[-71.059286,42.351281],[-71.059144,42.351205],[-71.059091,42.351197],[-71.059065,42.351216],[-71.059065,42.351244],[-71.059124,42.351281],[-71.059125,42.351304],[-71.059148,42.351322],[-71.059106,42.351332],[-71.059095,42.351371],[-71.059247,42.351459],[-71.059282,42.351469],[-71.059316,42.351459],[-71.059331,42.351433],[-71.059304,42.351401],[-71.059346,42.351392],[-71.059361,42.351366]]],[[[-71.059256,42.353333],[-71.059179,42.353284],[-71.059148,42.353294],[-71.059225,42.353342],[-71.059256,42.353333]]],[[[-71.059208,42.354447],[-71.059047,42.35433],[-71.058954,42.35428],[-71.058926,42.35428],[-71.058926,42.3543],[-71.059037,42.354368],[-71.059037,42.354402],[-71.059163,42.354469],[-71.059188,42.354469],[-71.059208,42.354447]]],[[[-71.05917,42.351499],[-71.059093,42.35145],[-71.059062,42.35146],[-71.059139,42.351508],[-71.05917,42.351499]]],[[[-71.05917,42.351573],[-71.059058,42.351503],[-71.059016,42.35151],[-71.059016,42.351524],[-71.059126,42.351587],[-71.059154,42.351591],[-71.05917,42.351573]]],[[[-71.05916,42.353326],[-71.059083,42.353277],[-71.059052,42.353287],[-71.059129,42.353335],[-71.05916,42.353326]]],[[[-71.059126,42.351669],[-71.059116,42.35165],[-71.058984,42.35158],[-71.058937,42.351594],[-71.058945,42.351623],[-71.059077,42.351693],[-71.059104,42.351693],[-71.059126,42.351669]]],[[[-71.05907,42.353322],[-71.058993,42.353273],[-71.058962,42.353283],[-71.059039,42.353331],[-71.05907,42.353322]]],[[[-71.059038,42.351752],[-71.058902,42.351668],[-71.05886,42.351681],[-71.058867,42.351707],[-71.058993,42.351774],[-71.059018,42.351774],[-71.059038,42.351752]]],[[[-71.059031,42.35169],[-71.058943,42.351636],[-71.058912,42.351646],[-71.059,42.3517],[-71.059031,42.35169]]],[[[-71.059006,42.351803],[-71.058996,42.351784],[-71.058864,42.351714],[-71.058817,42.351728],[-71.058825,42.351757],[-71.058957,42.351827],[-71.058984,42.351827],[-71.059006,42.351803]]],[[[-71.058956,42.351845],[-71.058946,42.351826],[-71.058814,42.351756],[-71.058767,42.35177],[-71.058775,42.351799],[-71.058907,42.351869],[-71.058934,42.351869],[-71.058956,42.351845]]],[[[-71.058936,42.353307],[-71.058859,42.353258],[-71.058828,42.353268],[-71.058905,42.353316],[-71.058936,42.353307]]],[[[-71.058881,42.351912],[-71.058846,42.351879],[-71.058854,42.351862],[-71.058773,42.351816],[-71.058701,42.351818],[-71.05868,42.351834],[-71.058688,42.351865],[-71.058827,42.351939],[-71.058857,42.351939],[-71.058881,42.351912]]],[[[-71.05883,42.353307],[-71.058753,42.353258],[-71.058722,42.353268],[-71.058799,42.353316],[-71.05883,42.353307]]],[[[-71.058808,42.351968],[-71.058672,42.351884],[-71.058637,42.351889],[-71.05863,42.351915],[-71.058597,42.35193],[-71.058719,42.352],[-71.058742,42.351983],[-71.058788,42.35199],[-71.058808,42.351968]]],[[[-71.058738,42.352079],[-71.058722,42.35205],[-71.058661,42.352017],[-71.058669,42.352001],[-71.05858,42.351954],[-71.058491,42.351968],[-71.058451,42.352018],[-71.058451,42.352042],[-71.058392,42.35206],[-71.058408,42.352098],[-71.058577,42.352181],[-71.058609,42.352171],[-71.058618,42.352134],[-71.058658,42.352115],[-71.058704,42.352117],[-71.058738,42.352079]]],[[[-71.05864,42.352569],[-71.058494,42.35247],[-71.058461,42.35248],[-71.058533,42.352526],[-71.05849,42.352511],[-71.058477,42.352534],[-71.058549,42.352572],[-71.05858,42.352563],[-71.058622,42.352582],[-71.05864,42.352569]]],[[[-71.058506,42.35257],[-71.058423,42.352518],[-71.058392,42.352528],[-71.058475,42.352579],[-71.058506,42.35257]]],[[[-71.058466,42.352139],[-71.058383,42.352087],[-71.058352,42.352097],[-71.058435,42.352148],[-71.058466,42.352139]]],[[[-71.05846,42.352509],[-71.058383,42.35246],[-71.058352,42.35247],[-71.058429,42.352518],[-71.05846,42.352509]]],[[[-71.05842,42.352559],[-71.058273,42.352457],[-71.058242,42.352467],[-71.058389,42.352568],[-71.05842,42.352559]]],[[[-71.05836,42.350949],[-71.058283,42.3509],[-71.0582,42.350874],[-71.058182,42.350887],[-71.058259,42.350935],[-71.058342,42.350962],[-71.05836,42.350949]]],[[[-71.05834,42.352551],[-71.058263,42.352502],[-71.058232,42.352512],[-71.058309,42.35256],[-71.05834,42.352551]]],[[[-71.05811,42.352704],[-71.058033,42.352655],[-71.058002,42.352665],[-71.058079,42.352713],[-71.05811,42.352704]]],[[[-71.058104,42.352807],[-71.058027,42.352758],[-71.057996,42.352768],[-71.058073,42.352816],[-71.058104,42.352807]]],[[[-71.05808,42.352944],[-71.058003,42.352895],[-71.057972,42.352905],[-71.058049,42.352953],[-71.05808,42.352944]]],[[[-71.057875,42.350732],[-71.057798,42.350683],[-71.05774,42.350664],[-71.057722,42.350677],[-71.057799,42.350725],[-71.057857,42.350745],[-71.057875,42.350732]]],[[[-71.057854,42.352282],[-71.057742,42.352212],[-71.0577,42.352219],[-71.057605,42.35217],[-71.05751,42.352141],[-71.05749,42.352149],[-71.057351,42.35209],[-71.057311,42.35211],[-71.057439,42.352189],[-71.057534,42.352215],[-71.057555,42.352207],[-71.057693,42.352269],[-71.057732,42.352253],[-71.057828,42.352301],[-71.057854,42.352282]]],[[[-71.057486,42.350442],[-71.057409,42.350393],[-71.057378,42.350403],[-71.057455,42.350451],[-71.057486,42.350442]]],[[[-71.05747,42.350533],[-71.057393,42.350484],[-71.057362,42.350494],[-71.057439,42.350542],[-71.05747,42.350533]]],[[[-71.057426,42.351749],[-71.057343,42.351697],[-71.057312,42.351707],[-71.057395,42.351758],[-71.057426,42.351749]]],[[[-71.05741,42.351789],[-71.057333,42.35174],[-71.057302,42.35175],[-71.057379,42.351798],[-71.05741,42.351789]]],[[[-71.057381,42.351936],[-71.057304,42.351887],[-71.057273,42.351897],[-71.05735,42.351945],[-71.057381,42.351936]]],[[[-71.057381,42.350969],[-71.057293,42.350915],[-71.057262,42.350925],[-71.05735,42.350979],[-71.057381,42.350969]]],[[[-71.057365,42.351991],[-71.057293,42.351945],[-71.057262,42.351955],[-71.057334,42.352],[-71.057365,42.351991]]],[[[-71.057351,42.351107],[-71.057263,42.351053],[-71.057232,42.351063],[-71.05732,42.351117],[-71.057351,42.351107]]],[[[-71.05728,42.351449],[-71.057203,42.3514],[-71.057172,42.35141],[-71.057249,42.351458],[-71.05728,42.351449]]],[[[-71.05727,42.350589],[-71.057193,42.35054],[-71.057162,42.35055],[-71.057239,42.350598],[-71.05727,42.350589]]],[[[-71.057219,42.350671],[-71.057142,42.350622],[-71.057111,42.350632],[-71.057188,42.35068],[-71.057219,42.350671]]],[[[-71.057166,42.350572],[-71.057089,42.350523],[-71.057058,42.350533],[-71.057135,42.350581],[-71.057166,42.350572]]],[[[-71.057138,42.349965],[-71.057002,42.349881],[-71.05696,42.349894],[-71.056967,42.34992],[-71.057093,42.349987],[-71.057117,42.349987],[-71.057138,42.349965]]],[[[-71.05711,42.349879],[-71.057033,42.34983],[-71.057002,42.34984],[-71.057079,42.349888],[-71.05711,42.349879]]],[[[-71.056956,42.352075],[-71.056863,42.352018],[-71.056832,42.352028],[-71.056925,42.352085],[-71.056956,42.352075]]],[[[-71.056955,42.349827],[-71.056943,42.349807],[-71.056805,42.349733],[-71.056754,42.349749],[-71.056762,42.34978],[-71.056901,42.349854],[-71.056931,42.349854],[-71.056955,42.349827]]],[[[-71.056908,42.349902],[-71.056772,42.349818],[-71.05673,42.349831],[-71.056737,42.349857],[-71.056863,42.349924],[-71.056887,42.349924],[-71.056908,42.349902]]],[[[-71.056906,42.350269],[-71.056829,42.35022],[-71.056798,42.35023],[-71.056875,42.350278],[-71.056906,42.350269]]],[[[-71.056896,42.349981],[-71.056882,42.349955],[-71.056744,42.349882],[-71.056706,42.349882],[-71.05668,42.349901],[-71.056691,42.34994],[-71.056829,42.350014],[-71.056866,42.350014],[-71.056896,42.349981]]],[[[-71.05687,42.350346],[-71.056793,42.350297],[-71.056762,42.350307],[-71.056839,42.350355],[-71.05687,42.350346]]],[[[-71.056851,42.350072],[-71.056837,42.350046],[-71.056699,42.349973],[-71.056661,42.349973],[-71.056635,42.349992],[-71.056646,42.350031],[-71.056784,42.350105],[-71.056821,42.350105],[-71.056851,42.350072]]],[[[-71.056831,42.352038],[-71.056743,42.351984],[-71.056712,42.351994],[-71.0568,42.352048],[-71.056831,42.352038]]],[[[-71.056769,42.350153],[-71.056641,42.350074],[-71.056601,42.350094],[-71.056729,42.350173],[-71.056769,42.350153]]],[[[-71.056738,42.350247],[-71.056602,42.350163],[-71.05656,42.350176],[-71.056567,42.350202],[-71.056693,42.350269],[-71.056718,42.350269],[-71.056738,42.350247]]],[[[-71.056731,42.35066],[-71.056638,42.350603],[-71.056607,42.350613],[-71.0567,42.35067],[-71.056731,42.35066]]],[[[-71.05673,42.353259],[-71.056479,42.353117],[-71.05637,42.353073],[-71.056347,42.35309],[-71.056453,42.353155],[-71.056485,42.353155],[-71.056575,42.353201],[-71.056686,42.353273],[-71.056714,42.353277],[-71.05673,42.353259]]],[[[-71.056696,42.350727],[-71.056603,42.35067],[-71.056572,42.35068],[-71.056665,42.350737],[-71.056696,42.350727]]],[[[-71.056681,42.3509],[-71.056667,42.350874],[-71.056529,42.350801],[-71.056491,42.350801],[-71.056465,42.35082],[-71.056476,42.350859],[-71.056614,42.350933],[-71.056651,42.350933],[-71.056681,42.3509]]],[[[-71.056556,42.351967],[-71.056463,42.35191],[-71.05637,42.351887],[-71.056352,42.3519],[-71.056424,42.351945],[-71.056538,42.351981],[-71.056556,42.351967]]],[[[-71.0565,42.351069],[-71.056423,42.35102],[-71.056392,42.35103],[-71.056469,42.351078],[-71.0565,42.351069]]],[[[-71.056486,42.351144],[-71.056393,42.351087],[-71.056362,42.351097],[-71.056455,42.351154],[-71.056486,42.351144]]],[[[-71.056436,42.351215],[-71.056359,42.351166],[-71.056328,42.351176],[-71.056405,42.351224],[-71.056436,42.351215]]],[[[-71.056426,42.354977],[-71.056333,42.35492],[-71.056302,42.35493],[-71.056395,42.354987],[-71.056426,42.354977]]],[[[-71.056416,42.354883],[-71.056323,42.354826],[-71.056292,42.354836],[-71.056385,42.354893],[-71.056416,42.354883]]],[[[-71.05641,42.354726],[-71.056298,42.354656],[-71.056256,42.354663],[-71.056256,42.354677],[-71.056366,42.35474],[-71.056394,42.354744],[-71.05641,42.354726]]],[[[-71.056403,42.3548],[-71.056304,42.35474],[-71.056271,42.35475],[-71.05637,42.35481],[-71.056403,42.3548]]],[[[-71.056344,42.350889],[-71.056251,42.350832],[-71.05622,42.350842],[-71.056313,42.350899],[-71.056344,42.350889]]],[[[-71.056336,42.351418],[-71.056253,42.351366],[-71.056222,42.351376],[-71.056305,42.351427],[-71.056336,42.351418]]],[[[-71.05632,42.353089],[-71.056243,42.35304],[-71.056212,42.35305],[-71.056289,42.353098],[-71.05632,42.353089]]],[[[-71.056317,42.351453],[-71.056234,42.351401],[-71.056203,42.351411],[-71.056286,42.351462],[-71.056317,42.351453]]],[[[-71.056314,42.35098],[-71.056221,42.350923],[-71.05619,42.350933],[-71.056283,42.35099],[-71.056314,42.35098]]],[[[-71.056286,42.351492],[-71.056203,42.35144],[-71.056172,42.35145],[-71.056255,42.351501],[-71.056286,42.351492]]],[[[-71.056274,42.351083],[-71.056181,42.351026],[-71.05615,42.351036],[-71.056243,42.351093],[-71.056274,42.351083]]],[[[-71.056236,42.351192],[-71.056143,42.351135],[-71.056112,42.351145],[-71.056205,42.351202],[-71.056236,42.351192]]],[[[-71.056156,42.351752],[-71.056073,42.3517],[-71.056042,42.35171],[-71.056125,42.351761],[-71.056156,42.351752]]],[[[-71.056065,42.351402],[-71.055972,42.351345],[-71.055941,42.351355],[-71.056034,42.351412],[-71.056065,42.351402]]],[[[-71.056041,42.351459],[-71.055948,42.351402],[-71.055917,42.351412],[-71.05601,42.351469],[-71.056041,42.351459]]],[[[-71.056008,42.351529],[-71.055915,42.351472],[-71.055884,42.351482],[-71.055977,42.351539],[-71.056008,42.351529]]],[[[-71.055991,42.352292],[-71.055977,42.352266],[-71.05582,42.35219],[-71.055786,42.352201],[-71.055775,42.35224],[-71.055737,42.352276],[-71.055752,42.352301],[-71.055909,42.352378],[-71.055943,42.352367],[-71.055954,42.352328],[-71.055991,42.352292]]],[[[-71.055976,42.351608],[-71.055883,42.351551],[-71.055852,42.351561],[-71.055945,42.351618],[-71.055976,42.351608]]],[[[-71.055947,42.351669],[-71.055854,42.351612],[-71.055823,42.351622],[-71.055916,42.351679],[-71.055947,42.351669]]],[[[-71.055904,42.353398],[-71.055768,42.353314],[-71.055726,42.353327],[-71.055733,42.353353],[-71.055859,42.35342],[-71.055884,42.35342],[-71.055904,42.353398]]],[[[-71.055896,42.351774],[-71.055803,42.351717],[-71.055772,42.351727],[-71.055865,42.351784],[-71.055896,42.351774]]],[[[-71.055876,42.351823],[-71.055783,42.351766],[-71.055752,42.351776],[-71.055845,42.351833],[-71.055876,42.351823]]],[[[-71.055834,42.353453],[-71.055706,42.353374],[-71.055666,42.353394],[-71.055794,42.353473],[-71.055834,42.353453]]],[[[-71.055739,42.35348],[-71.05564,42.35342],[-71.055607,42.35343],[-71.055706,42.35349],[-71.055739,42.35348]]],[[[-71.055646,42.353544],[-71.055553,42.353487],[-71.055522,42.353497],[-71.055615,42.353554],[-71.055646,42.353544]]],[[[-71.055576,42.353572],[-71.055493,42.35352],[-71.055462,42.35353],[-71.055545,42.353581],[-71.055576,42.353572]]],[[[-71.055349,42.353731],[-71.05532,42.353705],[-71.055333,42.353687],[-71.055257,42.353643],[-71.055199,42.353652],[-71.055181,42.353672],[-71.055309,42.353751],[-71.055349,42.353731]]],[[[-71.055292,42.353753],[-71.055186,42.353688],[-71.055147,42.3537],[-71.055253,42.353765],[-71.055292,42.353753]]]]},"properties":{"kind":"tree"}}]}