{"type":"FeatureCollection","features":[{"type":"Feature","geometry":{"type":"MultiPolygon","coordinates":[[[[-71.067461,42.352129],[-71.067438,42.351995],[-71.067178,42.351409],[-71.066747,42.351106],[-71.06661,42.351122],[-71.066135,42.350789],[-71.06624,42.350784],[-71.066227,42.350626],[-71.066478,42.350613],[-71.066443,42.350284],[-71.066338,42.350163],[-71.065927,42.349875],[-71.065955,42.34974],[-71.066096,42.34984],[-71.066173,42.349816],[-71.066177,42.349755],[-71.066228,42.349739],[-71.066139,42.349582],[-71.066006,42.349489],[-71.06562,42.349445],[-71.065521,42.349461],[-71.065446,42.349811],[-71.065169,42.349617],[-71.064416,42.349501],[-71.064395,42.349572],[-71.064284,42.349555],[-71.064305,42.349446],[-71.064179,42.349358],[-71.064245,42.349221],[-71.064256,42.349222],[-71.064295,42.349074],[-71.064454,42.349098],[-71.064404,42.349122],[-71.06497,42.349513],[-71.065151,42.34942],[-71.065131,42.349397],[-71.065237,42.34943],[-71.065499,42.349307],[-71.065347,42.349131],[-71.065408,42.348942],[-71.065401,42.348857],[-71.065357,42.348743],[-71.065393,42.348553],[-71.065302,42.348489],[-71.065477,42.348448],[-71.065481,42.348428],[-71.065389,42.348324],[-71.065519,42.348206],[-71.065519,42.348132],[-71.065461,42.348066],[-71.065583,42.347985],[-71.065592,42.347947],[-71.065554,42.347871],[-71.065484,42.34782],[-71.065485,42.347793],[-71.065257,42.347643],[-71.064894,42.347587],[-71.064503,42.347783],[-71.064365,42.348132],[-71.064113,42.347947],[-71.063968,42.347919],[-71.063883,42.347989],[-71.063856,42.347985],[-71.063829,42.348081],[-71.063862,42.348104],[-71.063888,42.348157],[-71.06367,42.34812],[-71.063719,42.347945],[-71.063606,42.347866],[-71.06346,42.347843],[-71.063399,42.348068],[-71.063301,42.347999],[-71.062961,42.347921],[-71.062929,42.348],[-71.063152,42.348156],[-71.06318,42.348161],[-71.06301,42.348144],[-71.062974,42.348119],[-71.063028,42.348131],[-71.063044,42.348094],[-71.062855,42.347962],[-71.062735,42.347939],[-71.062689,42.348052],[-71.062821,42.348149],[-71.062867,42.348159],[-71.062859,42.348189],[-71.062777,42.348131],[-71.062667,42.348107],[-71.062446,42.347953],[-71.062227,42.347893],[-71.061866,42.34764],[-71.061712,42.347604],[-71.061566,42.347954],[-71.061555,42.348046],[-71.061855,42.348257],[-71.061776,42.348454],[-71.06164,42.348359],[-71.061434,42.348312],[-71.061312,42.348227],[-71.061184,42.348198],[-71.061068,42.348118],[-71.061011,42.348097],[-71.060549,42.348739],[-71.060857,42.348955],[-71.060744,42.349244],[-71.060861,42.349326],[-71.061321,42.349515],[-71.061348,42.349474],[-71.061347,42.349489],[-71.061605,42.34967],[-71.061818,42.349764],[-71.061961,42.349864],[-71.061953,42.349885],[-71.061778,42.349762],[-71.061307,42.349568],[-71.061254,42.3497],[-71.061212,42.349648],[-71.060443,42.349109],[-71.060321,42.349063],[-71.060204,42.349326],[-71.059925,42.350048],[-71.060547,42.350484],[-71.060472,42.350463],[-71.060395,42.350464],[-71.060381,42.350499],[-71.060397,42.350517],[-71.060296,42.350493],[-71.060116,42.350367],[-71.059867,42.350296],[-71.059794,42.350499],[-71.059832,42.350526],[-71.059789,42.350634],[-71.059886,42.350702],[-71.060152,42.350751],[-71.059972,42.351168],[-71.06015,42.351293],[-71.060633,42.351394],[-71.060656,42.351339],[-71.060877,42.351494],[-71.061298,42.351589],[-71.06133,42.351747],[-71.061041,42.351545],[-71.060388,42.351402],[-71.060369,42.351415],[-71.060427,42.351596],[-71.060363,42.351551],[-71.060369,42.351519],[-71.060323,42.351486],[-71.060302,42.351422],[-71.060234,42.351369],[-71.059758,42.351262],[-71.059709,42.351391],[-71.059791,42.35192],[-71.059626,42.351804],[-71.059386,42.351848],[-71.059432,42.352156],[-71.059226,42.352012],[-71.059026,42.352083],[-71.058906,42.352152],[-71.058801,42.352281],[-71.058775,42.35235],[-71.059048,42.352542],[-71.058902,42.352524],[-71.058142,42.35255],[-71.058055,42.352616],[-71.058004,42.352925],[-71.057742,42.352755],[-71.057668,42.352733],[-71.057578,42.352745],[-71.057613,42.352662],[-71.057,42.352232],[-71.056202,42.352031],[-71.055981,42.352112],[-71.056104,42.351856],[-71.055768,42.35162],[-71.055498,42.351545],[-71.054479,42.351779],[-71.054307,42.351954],[-71.054643,42.35219],[-71.055169,42.352468],[-71.055329,42.352519],[-71.055497,42.352544],[-71.055674,42.352504],[-71.055794,42.352414],[-71.055859,42.352335],[-71.055889,42.352356],[-71.055876,42.352367],[-71.056034,42.352612],[-71.056355,42.352837],[-71.056382,42.352842],[-71.056448,42.352818],[-71.05676,42.353037],[-71.056903,42.353067],[-71.057549,42.35352],[-71.057295,42.353434],[-71.057207,42.353576],[-71.056948,42.353395],[-71.056856,42.353413],[-71.056638,42.353263],[-71.056242,42.353099],[-71.055998,42.353225],[-71.056026,42.35333],[-71.056425,42.35361],[-71.056319,42.353664],[-71.056311,42.353704],[-71.056217,42.353518],[-71.055897,42.353294],[-71.055573,42.353469],[-71.055617,42.353515],[-71.055589,42.353497],[-71.055421,42.353589],[-71.055382,42.353631],[-71.055342,42.353603],[-71.054915,42.353838],[-71.055156,42.35408],[-71.055372,42.354233],[-71.055358,42.354239],[-71.054903,42.35392],[-71.054834,42.353899],[-71.054776,42.353908],[-71.054391,42.354111],[-71.054359,42.354149],[-71.054358,42.354189],[-71.054595,42.354449],[-71.054814,42.354608],[-71.054775,42.354643],[-71.05498,42.354839],[-71.055442,42.355163],[-71.055544,42.35512],[-71.055634,42.355183],[-71.055688,42.355479],[-71.056521,42.356063],[-71.056751,42.356057],[-71.057921,42.356877],[-71.058373,42.356833],[-71.058272,42.356254],[-71.057959,42.356035],[-71.058646,42.355983],[-71.058626,42.355832],[-71.057329,42.354923],[-71.057038,42.354806],[-71.05736,42.354767],[-71.057321,42.354511],[-71.057235,42.35445],[-71.057342,42.354436],[-71.057452,42.354397],[-71.057508,42.354333],[-71.057531,42.35434],[-71.057648,42.354423],[-71.057546,42.354581],[-71.05782,42.354773],[-71.058003,42.354825],[-71.05787,42.354957],[-71.057867,42.35498],[-71.058165,42.355189],[-71.058212,42.355207],[-71.058451,42.355211],[-71.058635,42.35534],[-71.058762,42.355355],[-71.058825,42.355333],[-71.058874,42.355285],[-71.059278,42.35546],[-71.059898,42.355895],[-71.060091,42.355983],[-71.06019,42.356014],[-71.060436,42.3558],[-71.060499,42.355722],[-71.060283,42.355538],[-71.059842,42.355229],[-71.059902,42.355173],[-71.059884,42.355152],[-71.059181,42.354636],[-71.059201,42.354617],[-71.059187,42.354604],[-71.05852,42.354135],[-71.05806,42.353838],[-71.058014,42.353836],[-71.05796,42.353807],[-71.058254,42.353881],[-71.058312,42.353922],[-71.058411,42.353931],[-71.058413,42.35392],[-71.058532,42.35395],[-71.059373,42.354532],[-71.059372,42.35457],[-71.059396,42.354607],[-71.060128,42.355172],[-71.06041,42.35537],[-71.060431,42.355354],[-71.060629,42.355493],[-71.060842,42.355324],[-71.060945,42.355396],[-71.06119,42.355167],[-71.061356,42.355283],[-71.061669,42.35544],[-71.061841,42.355253],[-71.061483,42.355013],[-71.061574,42.35493],[-71.061816,42.355099],[-71.062092,42.355242],[-71.062115,42.355217],[-71.062413,42.355367],[-71.06258,42.355188],[-71.062413,42.355072],[-71.062704,42.355259],[-71.062735,42.355232],[-71.062928,42.355355],[-71.06305,42.355227],[-71.063395,42.355416],[-71.063457,42.355349],[-71.063146,42.355127],[-71.062729,42.354937],[-71.062343,42.354737],[-71.062326,42.354756],[-71.062209,42.354674],[-71.061986,42.354554],[-71.062016,42.354512],[-71.062215,42.354652],[-71.062697,42.354877],[-71.062709,42.354864],[-71.062741,42.354869],[-71.062925,42.354965],[-71.062935,42.354955],[-71.063194,42.355137],[-71.063659,42.355367],[-71.063703,42.355358],[-71.063779,42.355218],[-71.063967,42.355347],[-71.064156,42.355403],[-71.064187,42.355405],[-71.064213,42.355344],[-71.064343,42.355382],[-71.064632,42.354846],[-71.06452,42.354767],[-71.064556,42.354726],[-71.06448,42.354672],[-71.064494,42.354672],[-71.064533,42.354419],[-71.06444,42.354354],[-71.06445,42.354308],[-71.064283,42.354191],[-71.06449,42.354252],[-71.064593,42.354066],[-71.064647,42.354101],[-71.064751,42.354132],[-71.064805,42.354035],[-71.064719,42.353636],[-71.064635,42.353572],[-71.064711,42.353493],[-71.064742,42.353407],[-71.064643,42.353338],[-71.064653,42.353308],[-71.064642,42.3533],[-71.064722,42.353304],[-71.064753,42.3532],[-71.064871,42.353206],[-71.064906,42.353055],[-71.064796,42.352978],[-71.064825,42.352752],[-71.064718,42.352674],[-71.064735,42.352677],[-71.064759,42.352605],[-71.064914,42.352609],[-71.064949,42.352589],[-71.064968,42.352515],[-71.065137,42.352633],[-71.065965,42.35269],[-71.06598,42.352586],[-71.066139,42.352683],[-71.066336,42.352698],[-71.066383,42.35241],[-71.066375,42.352377],[-71.066238,42.352281],[-71.066428,42.35228],[-71.066449,42.352062],[-71.067278,42.352174],[-71.067461,42.352129]],[[-71.065594,42.351242],[-71.065443,42.351255],[-71.065039,42.350972],[-71.065062,42.350902],[-71.065171,42.350978],[-71.065231,42.350987],[-71.065594,42.351242]],[[-71.065536,42.350337],[-71.065354,42.350307],[-71.065377,42.350225],[-71.065536,42.350337]],[[-71.06531,42.350301],[-71.065271,42.350437],[-71.06501,42.350255],[-71.06531,42.350301]],[[-71.064966,42.351722],[-71.064798,42.35161],[-71.06484,42.351615],[-71.064914,42.351336],[-71.064745,42.351218],[-71.064502,42.351183],[-71.064477,42.351202],[-71.064509,42.351141],[-71.064501,42.351047],[-71.064575,42.351072],[-71.064941,42.351329],[-71.064851,42.351641],[-71.064966,42.351722]],[[-71.064719,42.348582],[-71.064341,42.348545],[-71.064334,42.348568],[-71.064275,42.348582],[-71.064241,42.348671],[-71.063945,42.348463],[-71.063623,42.348413],[-71.063606,42.348472],[-71.063476,42.348381],[-71.062912,42.348296],[-71.062923,42.348254],[-71.062988,42.3483],[-71.063213,42.348338],[-71.06334,42.348341],[-71.063364,42.348258],[-71.063341,42.348226],[-71.063215,42.348146],[-71.063241,42.348116],[-71.063378,42.348146],[-71.063365,42.348193],[-71.063507,42.348293],[-71.064162,42.348391],[-71.064169,42.348367],[-71.064239,42.348416],[-71.064358,42.348433],[-71.064373,42.348379],[-71.064446,42.34839],[-71.064719,42.348582]],[[-71.064175,42.350244],[-71.064022,42.350491],[-71.063915,42.350416],[-71.06371,42.350387],[-71.063754,42.350295],[-71.063801,42.350302],[-71.06381,42.350272],[-71.063776,42.350249],[-71.063835,42.350044],[-71.063879,42.350044],[-71.063902,42.349971],[-71.064091,42.350184],[-71.064175,42.350244]],[[-71.064099,42.351975],[-71.064073,42.351973],[-71.063972,42.351903],[-71.063973,42.351888],[-71.064099,42.351975]],[[-71.063908,42.351146],[-71.063828,42.351131],[-71.06384,42.351097],[-71.063908,42.351146]],[[-71.063606,42.35163],[-71.063027,42.351561],[-71.063031,42.351533],[-71.063538,42.351593],[-71.063606,42.35163]],[[-71.063561,42.34904],[-71.063165,42.348978],[-71.063042,42.348892],[-71.062821,42.34883],[-71.063534,42.348938],[-71.063561,42.34904]],[[-71.063201,42.353416],[-71.063198,42.353483],[-71.063089,42.353407],[-71.063201,42.353416]],[[-71.063061,42.349628],[-71.062592,42.349443],[-71.062574,42.349455],[-71.062333,42.349347],[-71.062233,42.349284],[-71.062169,42.349306],[-71.062152,42.349394],[-71.061975,42.34927],[-71.061895,42.349245],[-71.061946,42.349124],[-71.061998,42.349135],[-71.062115,42.348884],[-71.061969,42.348782],[-71.062049,42.348583],[-71.062299,42.34864],[-71.062322,42.348587],[-71.062402,42.348604],[-71.062509,42.348329],[-71.062393,42.348248],[-71.062587,42.348292],[-71.062448,42.348644],[-71.062643,42.348781],[-71.062425,42.348727],[-71.062236,42.349176],[-71.062455,42.34933],[-71.062605,42.349407],[-71.06267,42.349427],[-71.06269,42.349417],[-71.062845,42.349491],[-71.063032,42.349591],[-71.063061,42.349628]],[[-71.063049,42.353401],[-71.062746,42.353392],[-71.062632,42.353312],[-71.062747,42.353307],[-71.062782,42.35328],[-71.062784,42.353228],[-71.063049,42.353401]],[[-71.062868,42.351681],[-71.062848,42.351783],[-71.062678,42.351664],[-71.062331,42.351578],[-71.062386,42.351577],[-71.06238,42.351531],[-71.062486,42.351601],[-71.062868,42.351681]],[[-71.062746,42.350161],[-71.062741,42.350177],[-71.06256,42.350059],[-71.062441,42.350009],[-71.062462,42.349962],[-71.062746,42.350161]],[[-71.062731,42.35102],[-71.062298,42.350942],[-71.062278,42.351002],[-71.062416,42.351099],[-71.062353,42.35108],[-71.062359,42.351066],[-71.062111,42.350892],[-71.061597,42.350765],[-71.061565,42.350845],[-71.061676,42.350923],[-71.061545,42.350895],[-71.061462,42.35114],[-71.061448,42.351138],[-71.061421,42.351207],[-71.061227,42.351071],[-71.060769,42.350979],[-71.060741,42.351025],[-71.060777,42.35091],[-71.060744,42.350886],[-71.060776,42.350807],[-71.060934,42.350842],[-71.060993,42.350883],[-71.061209,42.35093],[-71.061327,42.350916],[-71.061478,42.350957],[-71.06151,42.35084],[-71.061316,42.350703],[-71.061382,42.350721],[-71.061414,42.350642],[-71.061839,42.350743],[-71.061862,42.350691],[-71.062121,42.350873],[-71.062632,42.351003],[-71.062658,42.350969],[-71.062731,42.35102]],[[-71.062523,42.349841],[-71.062503,42.349868],[-71.062513,42.349846],[-71.062523,42.349841]],[[-71.062243,42.353916],[-71.06216,42.354008],[-71.062033,42.353919],[-71.061484,42.353652],[-71.061316,42.353581],[-71.061305,42.353593],[-71.061155,42.35349],[-71.06071,42.353273],[-71.060695,42.353272],[-71.060543,42.353433],[-71.060531,42.353424],[-71.060605,42.353344],[-71.060272,42.353099],[-71.060218,42.352755],[-71.060287,42.352803],[-71.060268,42.352864],[-71.060523,42.353042],[-71.060954,42.353254],[-71.060966,42.35324],[-71.061264,42.353449],[-71.061731,42.353678],[-71.061764,42.353623],[-71.062037,42.353815],[-71.062243,42.353916]],[[-71.062223,42.354868],[-71.062217,42.354875],[-71.062204,42.354871],[-71.062223,42.354868]],[[-71.062207,42.3525],[-71.062145,42.352506],[-71.062131,42.352447],[-71.062207,42.3525]],[[-71.06218,42.348394],[-71.062165,42.348433],[-71.062114,42.348421],[-71.062119,42.348408],[-71.062166,42.348419],[-71.06218,42.348394]],[[-71.061924,42.352524],[-71.061527,42.352558],[-71.06127,42.352346],[-71.061252,42.352129],[-71.061234,42.352117],[-71.061331,42.352085],[-71.061322,42.352019],[-71.061383,42.352007],[-71.061394,42.352062],[-71.061596,42.352204],[-71.061751,42.352196],[-71.06175,42.352179],[-71.061794,42.35221],[-71.061723,42.352231],[-71.061761,42.35241],[-71.061924,42.352524]],[[-71.061566,42.351537],[-71.061382,42.35154],[-71.061423,42.351436],[-71.061566,42.351537]],[[-71.061385,42.349977],[-71.061316,42.350019],[-71.061251,42.350005],[-71.06129,42.349911],[-71.061385,42.349977]],[[-71.061379,42.349394],[-71.061361,42.349439],[-71.061244,42.349357],[-71.061127,42.34931],[-71.061133,42.349292],[-71.061034,42.349223],[-71.061043,42.349201],[-71.061117,42.349218],[-71.061126,42.349194],[-71.061063,42.34915],[-71.061079,42.349111],[-71.061151,42.349161],[-71.061161,42.349219],[-71.061142,42.349267],[-71.061292,42.349372],[-71.061379,42.349394]],[[-71.060622,42.352221],[-71.0605,42.352135],[-71.060316,42.352167],[-71.060313,42.352234],[-71.060276,42.352208],[-71.060243,42.352211],[-71.060229,42.352093],[-71.060294,42.352139],[-71.060472,42.352131],[-71.060583,42.352095],[-71.060622,42.352221]],[[-71.060572,42.35171],[-71.060482,42.351725],[-71.060446,42.351622],[-71.060572,42.35171]],[[-71.060354,42.35264],[-71.060188,42.352643],[-71.060192,42.352689],[-71.060011,42.352562],[-71.059994,42.352456],[-71.059932,42.352412],[-71.05991,42.352273],[-71.05995,42.352266],[-71.059941,42.352207],[-71.060033,42.352272],[-71.060125,42.352265],[-71.060161,42.352505],[-71.060354,42.35264]],[[-71.060257,42.351834],[-71.060187,42.351844],[-71.060181,42.351803],[-71.060219,42.351799],[-71.060194,42.35165],[-71.060257,42.351834]],[[-71.056974,42.354781],[-71.056936,42.354765],[-71.056933,42.354752],[-71.056974,42.354781]],[[-71.056647,42.354122],[-71.056563,42.35413],[-71.056556,42.35409],[-71.056276,42.353894],[-71.056339,42.353866],[-71.056362,42.353922],[-71.056647,42.354122]],[[-71.056519,42.354869],[-71.056451,42.354822],[-71.056509,42.354813],[-71.056519,42.354869]],[[-71.055824,42.354012],[-71.055705,42.354065],[-71.055815,42.354009],[-71.055808,42.354001],[-71.055824,42.354012]]],[[[-71.06681,42.348759],[-71.066483,42.348529],[-71.066383,42.348517],[-71.066417,42.34836],[-71.065995,42.348062],[-71.065837,42.348044],[-71.065752,42.348444],[-71.065812,42.348487],[-71.065804,42.348522],[-71.066255,42.348838],[-71.066351,42.348849],[-71.066355,42.348829],[-71.066782,42.348879],[-71.06681,42.348759]]],[[[-71.066215,42.349559],[-71.066159,42.349461],[-71.066051,42.349385],[-71.065989,42.349405],[-71.066043,42.349503],[-71.066151,42.349579],[-71.066215,42.349559]]],[[[-71.06567,42.354421],[-71.065659,42.354392],[-71.065534,42.354305],[-71.065487,42.354301],[-71.065445,42.354332],[-71.065458,42.354374],[-71.065579,42.354458],[-71.065645,42.354456],[-71.06567,42.354421]]],[[[-71.065479,42.352912],[-71.065421,42.352871],[-71.065303,42.352844],[-71.065286,42.352891],[-71.065312,42.352972],[-71.06537,42.353013],[-71.065436,42.353027],[-71.065479,42.352912]]],[[[-71.061745,42.352483],[-71.061725,42.35237],[-71.061625,42.3523],[-71.061514,42.352311],[-71.061454,42.352351],[-71.061467,42.35243],[-71.061567,42.3525],[-71.061745,42.352483]]],[[[-71.05975,42.350387],[-71.059471,42.35018],[-71.059155,42.35011],[-71.058793,42.349856],[-71.058845,42.349726],[-71.058515,42.349494],[-71.058532,42.349451],[-71.058424,42.349376],[-71.057926,42.349266],[-71.057859,42.349433],[-71.057985,42.349512],[-71.057962,42.349568],[-71.057872,42.349548],[-71.057853,42.349597],[-71.057905,42.349633],[-71.057995,42.349653],[-71.058241,42.349826],[-71.058348,42.34985],[-71.058397,42.349884],[-71.058716,42.349954],[-71.058911,42.350087],[-71.058964,42.350066],[-71.059013,42.350097],[-71.058996,42.350102],[-71.058969,42.350169],[-71.058776,42.350034],[-71.058372,42.349945],[-71.058317,42.350137],[-71.058358,42.349972],[-71.058289,42.349924],[-71.057874,42.34983],[-71.057729,42.349905],[-71.057505,42.349748],[-71.057133,42.349667],[-71.05695,42.350087],[-71.056922,42.350095],[-71.056797,42.350339],[-71.056877,42.350421],[-71.056873,42.350442],[-71.057153,42.350639],[-71.05723,42.350668],[-71.05694,42.350597],[-71.056815,42.350607],[-71.056678,42.350643],[-71.05656,42.350888],[-71.0567,42.350986],[-71.056543,42.350948],[-71.056401,42.351249],[-71.056681,42.351445],[-71.057337,42.351704],[-71.057317,42.35181],[-71.057141,42.351687],[-71.057059,42.351648],[-71.056525,42.351411],[-71.056294,42.351331],[-71.056079,42.351765],[-71.056527,42.352079],[-71.056951,42.352189],[-71.05709,42.352286],[-71.057665,42.352436],[-71.05769,42.352303],[-71.058298,42.35249],[-71.05847,42.351986],[-71.058253,42.351824],[-71.058413,42.351849],[-71.058453,42.351753],[-71.058564,42.351831],[-71.05876,42.351874],[-71.058948,42.351696],[-71.059062,42.351559],[-71.059192,42.351355],[-71.05924,42.351243],[-71.059038,42.351101],[-71.058633,42.351011],[-71.058603,42.351086],[-71.058414,42.350953],[-71.058104,42.350876],[-71.058095,42.350903],[-71.058058,42.350877],[-71.058074,42.350857],[-71.058318,42.350916],[-71.058328,42.350882],[-71.058452,42.35092],[-71.058467,42.350887],[-71.058582,42.350916],[-71.058595,42.350884],[-71.05869,42.350905],[-71.058704,42.350878],[-71.058966,42.351069],[-71.059388,42.351163],[-71.059443,42.351147],[-71.05975,42.350387]],[[-71.058866,42.350423],[-71.058833,42.350505],[-71.058768,42.35046],[-71.05879,42.350406],[-71.058866,42.350423]],[[-71.057852,42.350827],[-71.057741,42.350801],[-71.057763,42.350764],[-71.057852,42.350827]],[[-71.057523,42.351634],[-71.057427,42.351619],[-71.057436,42.351574],[-71.057523,42.351634]],[[-71.057518,42.350817],[-71.057516,42.350828],[-71.057502,42.350818],[-71.057518,42.350817]]],[[[-71.05938,42.34977],[-71.059318,42.349726],[-71.059179,42.349693],[-71.059105,42.349866],[-71.059167,42.349909],[-71.059306,42.349942],[-71.05938,42.34977]]],[[[-71.058626,42.349095],[-71.058071,42.348706],[-71.057613,42.348605],[-71.057529,42.348814],[-71.058084,42.349203],[-71.058543,42.349304],[-71.058626,42.349095]]],[[[-71.057042,42.349427],[-71.056986,42.349388],[-71.056994,42.349352],[-71.056775,42.349199],[-71.056596,42.349149],[-71.055802,42.349376],[-71.056892,42.347749],[-71.056882,42.34769],[-71.056673,42.347544],[-71.055908,42.347262],[-71.054533,42.349309],[-71.054519,42.349436],[-71.054447,42.34941],[-71.053477,42.350853],[-71.053831,42.351101],[-71.054412,42.351316],[-71.054695,42.350954],[-71.055063,42.350406],[-71.055577,42.350786],[-71.055689,42.350836],[-71.055856,42.350856],[-71.056373,42.350842],[-71.056457,42.350826],[-71.056472,42.350796],[-71.056544,42.350782],[-71.056562,42.350745],[-71.056585,42.350615],[-71.056568,42.350604],[-71.056653,42.350434],[-71.056854,42.349935],[-71.056914,42.34969],[-71.057042,42.349427]]]]},"properties":{"kind":"building"}},{"type":"Feature","geometry":{"type":"MultiPolygon","coordinates":[[[[-71.066269,42.353599],[-71.066258,42.353558],[-71.066226,42.353523],[-71.066041,42.353392],[-71.066077,42.353362],[-71.066084,42.353335],[-71.066077,42.353309],[-71.066014,42.353256],[-71.066141,42.35326],[-71.066206,42.353212],[-71.066215,42.353178],[-71.066188,42.353124],[-71.06623,42.353089],[-71.066243,42.353021],[-71.066232,42.35298],[-71.065989,42.352797],[-71.065942,42.352773],[-71.06583,42.352773],[-71.065784,42.352715],[-71.065829,42.352727],[-71.06588,42.352712],[-71.065953,42.352743],[-71.066013,42.352719],[-71.066088,42.352751],[-71.066141,42.352735],[-71.066157,42.352717],[-71.066157,42.352675],[-71.065976,42.352546],[-71.065918,42.352546],[-71.065887,42.352566],[-71.065841,42.352538],[-71.065762,42.352549],[-71.065717,42.352522],[-71.065659,42.352522],[-71.065619,42.352552],[-71.065613,42.352573],[-71.065634,42.35261],[-71.065539,42.352598],[-71.065401,42.352516],[-71.065321,42.352516],[-71.065288,42.352533],[-71.065257,42.352587],[-71.065288,42.352641],[-71.065466,42.352766],[-71.065518,42.352786],[-71.065472,42.352821],[-71.065465,42.352849],[-71.065472,42.352877],[-71.065516,42.352916],[-71.065463,42.35295],[-71.065463,42.352996],[-71.065408,42.353037],[-71.0654,42.353066],[-71.065418,42.353107],[-71.065351,42.35306],[-71.06537,42.353035],[-71.065359,42.353015],[-71.065272,42.352954],[-71.065283,42.352914],[-71.065321,42.352886],[-71.065321,42.352853],[-71.065207,42.352769],[-71.065272,42.352728],[-71.065272,42.352673],[-71.065049,42.352515],[-71.064975,42.352515],[-71.064922,42.352553],[-71.064922,42.352609],[-71.064943,42.352632],[-71.065113,42.352751],[-71.065088,42.352785],[-71.065105,42.352816],[-71.065081,42.352852],[-71.065094,42.352876],[-71.065032,42.352908],[-71.065032,42.352948],[-71.065172,42.353053],[-71.065192,42.353087],[-71.065325,42.35318],[-71.06537,42.353194],[-71.065373,42.35323],[-71.065165,42.353122],[-71.065133,42.353132],[-71.06512,42.353156],[-71.065184,42.353216],[-71.065162,42.353227],[-71.06514,42.353216],[-71.065062,42.353147],[-71.065029,42.353092],[-71.064791,42.352933],[-71.064699,42.352933],[-71.064634,42.352981],[-71.064625,42.353015],[-71.064656,42.353073],[-71.064658,42.353148],[-71.064798,42.353261],[-71.064757,42.353275],[-71.064659,42.353241],[-71.064581,42.353265],[-71.064549,42.353323],[-71.064581,42.353381],[-71.064767,42.353511],[-71.064846,42.353535],[-71.064904,42.353521],[-71.065056,42.353623],[-71.065111,42.353623],[-71.065149,42.353594],[-71.065324,42.353699],[-71.065371,42.353706],[-71.065438,42.35369],[-71.065512,42.353744],[-71.065526,42.353787],[-71.065665,42.353881],[-71.06571,42.353881],[-71.065746,42.353841],[-71.065729,42.35381],[-71.06567,42.353769],[-71.065762,42.353732],[-71.065794,42.353697],[-71.065805,42.353656],[-71.065794,42.353615],[-71.065762,42.35358],[-71.065615,42.353477],[-71.065611,42.35341],[-71.065706,42.353411],[-71.065742,42.353393],[-71.065816,42.353309],[-71.065873,42.353349],[-71.065809,42.353375],[-71.065777,42.35341],[-71.065766,42.353451],[-71.065777,42.353492],[-71.06602,42.353675],[-71.066123,42.353707],[-71.066179,42.353699],[-71.066226,42.353675],[-71.066258,42.35364],[-71.066269,42.353599]],[[-71.065613,42.352789],[-71.065584,42.35278],[-71.065601,42.352772],[-71.065613,42.352789]],[[-71.065442,42.353129],[-71.065437,42.353129],[-71.065434,42.353122],[-71.065442,42.353129]],[[-71.065088,42.353405],[-71.065054,42.353438],[-71.065045,42.353473],[-71.064999,42.353442],[-71.065017,42.353408],[-71.064979,42.353359],[-71.065025,42.35336],[-71.065088,42.353405]]],[[[-71.066179,42.355065],[-71.066159,42.35503],[-71.066004,42.354925],[-71.065952,42.354925],[-71.065915,42.354953],[-71.065915,42.354991],[-71.06593,42.355008],[-71.066085,42.355112],[-71.066137,42.355112],[-71.066179,42.355065]]],[[[-71.066116,42.354128],[-71.065996,42.354034],[-71.065953,42.354041],[-71.065942,42.354061],[-71.06587,42.354048],[-71.06584,42.354081],[-71.065855,42.354106],[-71.066023,42.354216],[-71.066045,42.354199],[-71.066043,42.354144],[-71.066092,42.354155],[-71.066116,42.354128]]],[[[-71.066076,42.354616],[-71.066038,42.354548],[-71.065785,42.354379],[-71.065685,42.354379],[-71.065615,42.354431],[-71.065615,42.354505],[-71.065643,42.354536],[-71.065896,42.354705],[-71.065996,42.354705],[-71.066038,42.354684],[-71.066076,42.354616]]],[[[-71.065959,42.348128],[-71.06594,42.348095],[-71.06579,42.347994],[-71.06574,42.347994],[-71.065705,42.34802],[-71.065719,42.348072],[-71.065869,42.348173],[-71.065919,42.348173],[-71.065959,42.348128]]],[[[-71.065907,42.348262],[-71.065891,42.348233],[-71.065756,42.348142],[-71.065714,42.348142],[-71.065684,42.348164],[-71.065696,42.348209],[-71.065831,42.348299],[-71.065873,42.348299],[-71.065907,42.348262]]],[[[-71.065886,42.354985],[-71.06585,42.354921],[-71.065647,42.354779],[-71.065607,42.354759],[-71.065517,42.354758],[-71.065444,42.354711],[-71.065406,42.354709],[-71.065301,42.354642],[-71.065232,42.354615],[-71.065172,42.354615],[-71.065129,42.354591],[-71.065187,42.354563],[-71.065174,42.354513],[-71.065029,42.354416],[-71.064961,42.354426],[-71.064899,42.354414],[-71.064877,42.354361],[-71.064788,42.354298],[-71.064816,42.354247],[-71.064784,42.354191],[-71.064602,42.354063],[-71.064548,42.354043],[-71.064562,42.354019],[-71.064738,42.354136],[-71.064831,42.354145],[-71.064821,42.354184],[-71.064921,42.354258],[-71.064866,42.354267],[-71.064855,42.354309],[-71.064979,42.3544],[-71.065016,42.354411],[-71.065052,42.3544],[-71.065068,42.354373],[-71.065052,42.354346],[-71.064958,42.35428],[-71.065009,42.354272],[-71.065023,42.354246],[-71.065009,42.354221],[-71.0649,42.354145],[-71.064933,42.354098],[-71.064973,42.35412],[-71.065035,42.35412],[-71.065079,42.354088],[-71.06508,42.354046],[-71.06527,42.354179],[-71.065311,42.354192],[-71.065365,42.354165],[-71.065352,42.354118],[-71.065121,42.353947],[-71.06505,42.353957],[-71.065035,42.354004],[-71.064885,42.353905],[-71.064826,42.353904],[-71.064737,42.353847],[-71.064677,42.353847],[-71.064577,42.353798],[-71.064573,42.353782],[-71.064607,42.353749],[-71.064607,42.353712],[-71.064464,42.353606],[-71.064393,42.353596],[-71.064358,42.353622],[-71.064358,42.353658],[-71.064319,42.35371],[-71.064332,42.353737],[-71.064296,42.353748],[-71.06428,42.353777],[-71.064318,42.353821],[-71.064258,42.353857],[-71.064258,42.353905],[-71.064238,42.353945],[-71.064262,42.353987],[-71.064317,42.354026],[-71.064238,42.354041],[-71.064214,42.354083],[-71.064238,42.354125],[-71.064326,42.354187],[-71.064207,42.354121],[-71.064149,42.354121],[-71.064103,42.354172],[-71.064143,42.354223],[-71.064088,42.354236],[-71.064069,42.35427],[-71.064088,42.354304],[-71.064161,42.35436],[-71.064396,42.35452],[-71.06435,42.354545],[-71.064363,42.354593],[-71.064484,42.354677],[-71.064607,42.354738],[-71.064643,42.354727],[-71.064655,42.354685],[-71.064453,42.354537],[-71.064508,42.354535],[-71.064693,42.354662],[-71.064757,42.354652],[-71.064771,42.354608],[-71.06482,42.35464],[-71.064821,42.354687],[-71.064841,42.354709],[-71.06491,42.354757],[-71.064877,42.354779],[-71.064877,42.354811],[-71.065024,42.354914],[-71.065084,42.354906],[-71.0651,42.354877],[-71.065073,42.354841],[-71.065121,42.354827],[-71.065296,42.354939],[-71.065351,42.354939],[-71.06545,42.354985],[-71.065519,42.354951],[-71.065676,42.35505],[-71.065763,42.355076],[-71.06585,42.35505],[-71.065886,42.354985]],[[-71.065101,42.354697],[-71.065092,42.3547],[-71.064973,42.354616],[-71.065101,42.354697]],[[-71.064694,42.354371],[-71.064663,42.354375],[-71.064616,42.354356],[-71.064586,42.354364],[-71.064419,42.354244],[-71.064476,42.354243],[-71.064513,42.354219],[-71.064629,42.3543],[-71.064648,42.354339],[-71.064694,42.354371]],[[-71.064604,42.354483],[-71.064602,42.354482],[-71.064602,42.354482],[-71.064604,42.354483]]],[[[-71.065872,42.354015],[-71.065858,42.35399],[-71.065749,42.353914],[-71.065687,42.35391],[-71.065568,42.353831],[-71.065515,42.353837],[-71.065374,42.353742],[-71.065322,42.353742],[-71.065285,42.35377],[-71.065285,42.353808],[-71.0653,42.353825],[-71.065516,42.353978],[-71.065555,42.35399],[-71.065606,42.353964],[-71.065623,42.353972],[-71.065615,42.35399],[-71.06563,42.354015],[-71.065754,42.354099],[-71.065807,42.354092],[-71.065817,42.354052],[-71.065858,42.354041],[-71.065872,42.354015]]],[[[-71.065859,42.348531],[-71.065842,42.3485],[-71.065721,42.348415],[-71.06568,42.348403],[-71.065659,42.348371],[-71.065534,42.348284],[-71.065466,42.348274],[-71.065433,42.348299],[-71.065446,42.348348],[-71.065571,42.348436],[-71.065615,42.348449],[-71.06576,42.348561],[-71.065823,42.348571],[-71.065859,42.348531]]],[[[-71.065783,42.348332],[-71.065723,42.348283],[-71.065692,42.348293],[-71.065752,42.348341],[-71.065783,42.348332]]],[[[-71.065653,42.349302],[-71.065638,42.349276],[-71.065529,42.349203],[-71.065491,42.349203],[-71.065465,42.349222],[-71.065476,42.349261],[-71.065585,42.349335],[-71.065622,42.349335],[-71.065653,42.349302]]],[[[-71.065652,42.351267],[-71.065583,42.351213],[-71.065552,42.351223],[-71.06562,42.351277],[-71.065652,42.351267]]],[[[-71.065649,42.348993],[-71.065593,42.348947],[-71.065562,42.348957],[-71.065618,42.349002],[-71.065649,42.348993]]],[[[-71.065613,42.34913],[-71.065557,42.349084],[-71.065526,42.349094],[-71.065582,42.349139],[-71.065613,42.34913]]],[[[-71.065603,42.348149],[-71.065543,42.3481],[-71.065512,42.34811],[-71.065572,42.348158],[-71.065603,42.348149]]],[[[-71.065558,42.348499],[-71.065476,42.348434],[-71.065437,42.348446],[-71.06552,42.348511],[-71.065558,42.348499]]],[[[-71.065527,42.348856],[-71.065512,42.34883],[-71.065403,42.348757],[-71.065365,42.348757],[-71.065339,42.348776],[-71.06535,42.348815],[-71.065459,42.348889],[-71.065496,42.348889],[-71.065527,42.348856]]],[[[-71.065509,42.35406],[-71.06549,42.354027],[-71.065269,42.35386],[-71.065201,42.35385],[-71.065168,42.353875],[-71.065181,42.353924],[-71.065398,42.354094],[-71.065469,42.354105],[-71.065509,42.35406]]],[[[-71.065488,42.349005],[-71.065374,42.348916],[-71.065327,42.34893],[-71.065335,42.348959],[-71.065438,42.349029],[-71.065466,42.349029],[-71.065488,42.349005]]],[[[-71.065487,42.349146],[-71.065473,42.349121],[-71.065349,42.349037],[-71.065311,42.349037],[-71.065285,42.349056],[-71.065296,42.349095],[-71.06542,42.349179],[-71.065457,42.349179],[-71.065487,42.349146]]],[[[-71.065427,42.351252],[-71.065363,42.3512],[-71.065332,42.35121],[-71.065396,42.351261],[-71.065427,42.351252]]],[[[-71.065323,42.351249],[-71.065263,42.3512],[-71.065232,42.35121],[-71.065292,42.351258],[-71.065323,42.351249]]],[[[-71.065256,42.350776],[-71.065168,42.350706],[-71.065126,42.350713],[-71.065126,42.350727],[-71.065211,42.350789],[-71.06524,42.350794],[-71.065256,42.350776]]],[[[-71.065231,42.35084],[-71.065143,42.35077],[-71.065101,42.350777],[-71.065101,42.350791],[-71.065186,42.350853],[-71.065215,42.350858],[-71.065231,42.35084]]],[[[-71.06522,42.354264],[-71.065203,42.354233],[-71.065063,42.354139],[-71.065019,42.354139],[-71.064987,42.354162],[-71.065,42.35421],[-71.065139,42.354304],[-71.065184,42.354304],[-71.06522,42.354264]]],[[[-71.065201,42.350903],[-71.065124,42.350843],[-71.065091,42.350853],[-71.065168,42.350913],[-71.065201,42.350903]]],[[[-71.065089,42.355111],[-71.065059,42.355057],[-71.064847,42.354915],[-71.064767,42.354915],[-71.064711,42.354957],[-71.064711,42.355015],[-71.064734,42.35504],[-71.064946,42.355182],[-71.065025,42.355182],[-71.065059,42.355165],[-71.065089,42.355111]]],[[[-71.065003,42.351352],[-71.064939,42.3513],[-71.064908,42.35131],[-71.064972,42.351361],[-71.065003,42.351352]]],[[[-71.064912,42.348495],[-71.064852,42.348446],[-71.064821,42.348456],[-71.064881,42.348504],[-71.064912,42.348495]]],[[[-71.064906,42.353658],[-71.064876,42.353606],[-71.06467,42.353467],[-71.064592,42.353467],[-71.064538,42.353508],[-71.064538,42.353564],[-71.06456,42.353589],[-71.064767,42.353727],[-71.064844,42.353727],[-71.064876,42.353711],[-71.064906,42.353658]]],[[[-71.064794,42.354836],[-71.064734,42.354787],[-71.064703,42.354797],[-71.064763,42.354845],[-71.064794,42.354836]]],[[[-71.064679,42.351865],[-71.064619,42.351816],[-71.064588,42.351826],[-71.064648,42.351874],[-71.064679,42.351865]]],[[[-71.064676,42.348464],[-71.064616,42.348415],[-71.064585,42.348425],[-71.064645,42.348473],[-71.064676,42.348464]]],[[[-71.064636,42.352154],[-71.064559,42.352094],[-71.064526,42.352104],[-71.064603,42.352164],[-71.064636,42.352154]]],[[[-71.064627,42.352097],[-71.064563,42.352045],[-71.064532,42.352055],[-71.064596,42.352106],[-71.064627,42.352097]]],[[[-71.064603,42.352199],[-71.064543,42.35215],[-71.064512,42.35216],[-71.064572,42.352208],[-71.064603,42.352199]]],[[[-71.064572,42.354777],[-71.064556,42.354748],[-71.064259,42.354529],[-71.064267,42.354504],[-71.064243,42.354461],[-71.064067,42.354344],[-71.063979,42.354357],[-71.063955,42.354399],[-71.063968,42.35443],[-71.063903,42.354482],[-71.063892,42.354523],[-71.063903,42.354564],[-71.063935,42.354599],[-71.064146,42.354747],[-71.06422,42.354775],[-71.064252,42.354818],[-71.064413,42.354926],[-71.064468,42.354926],[-71.064512,42.354877],[-71.064491,42.35484],[-71.064355,42.354745],[-71.064369,42.354729],[-71.064496,42.354814],[-71.064538,42.354814],[-71.064572,42.354777]]],[[[-71.064491,42.348438],[-71.064431,42.348389],[-71.0644,42.348399],[-71.06446,42.348447],[-71.064491,42.348438]]],[[[-71.064293,42.350964],[-71.064233,42.350915],[-71.064202,42.350925],[-71.064262,42.350973],[-71.064293,42.350964]]],[[[-71.064284,42.348773],[-71.064202,42.348708],[-71.064163,42.34872],[-71.064246,42.348785],[-71.064284,42.348773]]],[[[-71.064236,42.348887],[-71.064163,42.34883],[-71.064132,42.34884],[-71.064205,42.348897],[-71.064236,42.348887]]],[[[-71.064203,42.350953],[-71.064143,42.350904],[-71.064112,42.350914],[-71.064172,42.350962],[-71.064203,42.350953]]],[[[-71.06417,42.350976],[-71.064062,42.350892],[-71.064027,42.350897],[-71.06402,42.350923],[-71.063949,42.350876],[-71.063898,42.350892],[-71.063906,42.350923],[-71.064015,42.350997],[-71.064058,42.350991],[-71.064066,42.350959],[-71.064126,42.350998],[-71.06415,42.350998],[-71.06417,42.350976]]],[[[-71.064156,42.353347],[-71.064083,42.35329],[-71.064052,42.3533],[-71.063995,42.35327],[-71.063977,42.353283],[-71.06392,42.353251],[-71.063897,42.353268],[-71.06398,42.353333],[-71.064018,42.353321],[-71.064062,42.353344],[-71.064081,42.35333],[-71.064137,42.353361],[-71.064156,42.353347]]],[[[-71.064121,42.35344],[-71.064044,42.35338],[-71.064011,42.35339],[-71.064088,42.35345],[-71.064121,42.35344]]],[[[-71.064116,42.354815],[-71.064091,42.354771],[-71.063938,42.354663],[-71.063878,42.354645],[-71.063818,42.354663],[-71.0638,42.354683],[-71.063799,42.354727],[-71.063772,42.354739],[-71.063749,42.35478],[-71.063772,42.354821],[-71.063917,42.354923],[-71.063972,42.35494],[-71.064028,42.354923],[-71.06405,42.354882],[-71.06411,42.354839],[-71.064116,42.354815]]],[[[-71.064066,42.353807],[-71.063993,42.35375],[-71.063962,42.35376],[-71.064035,42.353817],[-71.064066,42.353807]]],[[[-71.064056,42.353436],[-71.063979,42.353376],[-71.06391,42.353361],[-71.063892,42.353374],[-71.063965,42.353431],[-71.064037,42.353451],[-71.064056,42.353436]]],[[[-71.06401,42.354029],[-71.063902,42.353945],[-71.06386,42.353958],[-71.063867,42.353984],[-71.063966,42.354051],[-71.06399,42.354051],[-71.06401,42.354029]]],[[[-71.063987,42.348725],[-71.06391,42.348665],[-71.063877,42.348675],[-71.063954,42.348735],[-71.063987,42.348725]]],[[[-71.063968,42.348796],[-71.063886,42.348731],[-71.063847,42.348743],[-71.06393,42.348808],[-71.063968,42.348796]]],[[[-71.063951,42.34892],[-71.063874,42.34886],[-71.063841,42.34887],[-71.063918,42.34893],[-71.063951,42.34892]]],[[[-71.063928,42.348832],[-71.063868,42.348783],[-71.063837,42.348793],[-71.063897,42.348841],[-71.063928,42.348832]]],[[[-71.063896,42.354176],[-71.063808,42.354106],[-71.063766,42.354113],[-71.063766,42.354127],[-71.063851,42.354189],[-71.06388,42.354194],[-71.063896,42.354176]]],[[[-71.063876,42.349187],[-71.063816,42.349138],[-71.063785,42.349148],[-71.063845,42.349196],[-71.063876,42.349187]]],[[[-71.063863,42.348466],[-71.063803,42.348417],[-71.063772,42.348427],[-71.063832,42.348475],[-71.063863,42.348466]]],[[[-71.063823,42.349332],[-71.063763,42.349283],[-71.063732,42.349293],[-71.063792,42.349341],[-71.063823,42.349332]]],[[[-71.06381,42.349374],[-71.06375,42.349325],[-71.063719,42.349335],[-71.063779,42.349383],[-71.06381,42.349374]]],[[[-71.063795,42.350945],[-71.063687,42.350861],[-71.063652,42.350866],[-71.063645,42.350891],[-71.06359,42.350859],[-71.06352,42.350845],[-71.063496,42.350857],[-71.063496,42.350871],[-71.0636,42.350939],[-71.063624,42.350927],[-71.063666,42.350946],[-71.063688,42.350929],[-71.063763,42.350969],[-71.063795,42.350945]]],[[[-71.063773,42.348449],[-71.063713,42.3484],[-71.063682,42.34841],[-71.063742,42.348458],[-71.063773,42.348449]]],[[[-71.063761,42.34981],[-71.063684,42.34975],[-71.063651,42.34976],[-71.063728,42.34982],[-71.063761,42.34981]]],[[[-71.0637,42.349901],[-71.063627,42.349844],[-71.063596,42.349854],[-71.063669,42.349911],[-71.0637,42.349901]]],[[[-71.063663,42.354766],[-71.063648,42.35474],[-71.063539,42.354667],[-71.063501,42.354667],[-71.063475,42.354686],[-71.063486,42.354725],[-71.063595,42.354799],[-71.063632,42.354799],[-71.063663,42.354766]]],[[[-71.063651,42.35],[-71.063574,42.34994],[-71.063541,42.34995],[-71.063618,42.35001],[-71.063651,42.35]]],[[[-71.063616,42.350047],[-71.063543,42.34999],[-71.063512,42.35],[-71.063585,42.350057],[-71.063616,42.350047]]],[[[-71.063603,42.354866],[-71.063588,42.35484],[-71.063479,42.354767],[-71.063441,42.354767],[-71.063415,42.354786],[-71.063426,42.354825],[-71.063535,42.354899],[-71.063572,42.354899],[-71.063603,42.354866]]],[[[-71.063526,42.350465],[-71.063453,42.350408],[-71.063422,42.350418],[-71.063495,42.350475],[-71.063526,42.350465]]],[[[-71.063522,42.350224],[-71.063453,42.35017],[-71.063422,42.35018],[-71.06349,42.350234],[-71.063522,42.350224]]],[[[-71.063498,42.350531],[-71.063429,42.350477],[-71.063398,42.350487],[-71.063466,42.350541],[-71.063498,42.350531]]],[[[-71.063492,42.35029],[-71.063423,42.350236],[-71.063392,42.350246],[-71.06346,42.3503],[-71.063492,42.35029]]],[[[-71.063467,42.350824],[-71.063365,42.350745],[-71.063325,42.350765],[-71.063427,42.350844],[-71.063467,42.350824]]],[[[-71.063467,42.350324],[-71.063398,42.35027],[-71.063367,42.35028],[-71.063435,42.350334],[-71.063467,42.350324]]],[[[-71.063466,42.350882],[-71.063378,42.350812],[-71.063336,42.350819],[-71.063336,42.350833],[-71.063421,42.350895],[-71.06345,42.3509],[-71.063466,42.350882]]],[[[-71.063462,42.350592],[-71.063398,42.35054],[-71.063367,42.35055],[-71.063431,42.350601],[-71.063462,42.350592]]],[[[-71.063441,42.350754],[-71.063364,42.350694],[-71.063331,42.350704],[-71.063408,42.350764],[-71.063441,42.350754]]],[[[-71.063427,42.350652],[-71.063363,42.3506],[-71.063332,42.35061],[-71.063396,42.350661],[-71.063427,42.350652]]],[[[-71.063387,42.350482],[-71.063323,42.35043],[-71.063292,42.35044],[-71.063356,42.350491],[-71.063387,42.350482]]],[[[-71.063362,42.350527],[-71.063293,42.350473],[-71.063262,42.350483],[-71.06333,42.350537],[-71.063362,42.350527]]],[[[-71.063337,42.35058],[-71.063268,42.350526],[-71.063237,42.350536],[-71.063305,42.35059],[-71.063337,42.35058]]],[[[-71.063316,42.350629],[-71.063243,42.350572],[-71.063212,42.350582],[-71.063285,42.350639],[-71.063316,42.350629]]],[[[-71.063296,42.350677],[-71.063223,42.35062],[-71.063192,42.35063],[-71.063265,42.350687],[-71.063296,42.350677]]],[[[-71.063249,42.350713],[-71.063193,42.350667],[-71.063162,42.350677],[-71.063218,42.350722],[-71.063249,42.350713]]],[[[-71.063242,42.350771],[-71.063173,42.350717],[-71.063142,42.350727],[-71.06321,42.350781],[-71.063242,42.350771]]],[[[-71.063221,42.350815],[-71.063144,42.350755],[-71.063111,42.350765],[-71.063188,42.350825],[-71.063221,42.350815]]],[[[-71.063203,42.35228],[-71.063139,42.352228],[-71.063108,42.352238],[-71.063172,42.352289],[-71.063203,42.35228]]],[[[-71.063142,42.352292],[-71.063078,42.35224],[-71.063047,42.35225],[-71.063111,42.352301],[-71.063142,42.352292]]],[[[-71.063042,42.352295],[-71.062917,42.35221],[-71.062886,42.35222],[-71.063011,42.352304],[-71.063042,42.352295]]],[[[-71.062907,42.352257],[-71.062843,42.352205],[-71.062812,42.352215],[-71.062876,42.352266],[-71.062907,42.352257]]],[[[-71.062901,42.353352],[-71.062824,42.353292],[-71.062791,42.353302],[-71.062868,42.353362],[-71.062901,42.353352]]],[[[-71.062901,42.353264],[-71.062824,42.353204],[-71.062796,42.353204],[-71.062795,42.353223],[-71.062744,42.353193],[-71.062725,42.353207],[-71.062802,42.353267],[-71.062829,42.353267],[-71.06283,42.353248],[-71.062882,42.353279],[-71.062901,42.353264]]],[[[-71.062838,42.353359],[-71.062756,42.353294],[-71.062717,42.353306],[-71.0628,42.353371],[-71.062838,42.353359]]],[[[-71.062643,42.348413],[-71.062541,42.348334],[-71.062501,42.348354],[-71.062603,42.348433],[-71.062643,42.348413]]],[[[-71.062597,42.349443],[-71.062484,42.349351],[-71.062441,42.349344],[-71.062366,42.349294],[-71.062311,42.349311],[-71.06232,42.349345],[-71.06242,42.349415],[-71.062463,42.349423],[-71.062538,42.349472],[-71.06257,42.349472],[-71.062597,42.349443]]],[[[-71.062538,42.34861],[-71.062456,42.348545],[-71.062417,42.348557],[-71.0625,42.348622],[-71.062538,42.34861]]],[[[-71.062505,42.34844],[-71.062385,42.348346],[-71.062334,42.348362],[-71.062342,42.348393],[-71.062451,42.348467],[-71.062481,42.348467],[-71.062505,42.34844]]],[[[-71.062111,42.353802],[-71.062034,42.353742],[-71.062001,42.353752],[-71.062078,42.353812],[-71.062111,42.353802]]],[[[-71.062061,42.349345],[-71.062001,42.349296],[-71.06197,42.349306],[-71.06203,42.349354],[-71.062061,42.349345]]],[[[-71.062043,42.353899],[-71.061983,42.35385],[-71.061879,42.353813],[-71.061742,42.353728],[-71.061711,42.353738],[-71.061948,42.353885],[-71.062025,42.353912],[-71.062043,42.353899]]],[[[-71.062035,42.349614],[-71.06202,42.349588],[-71.061911,42.349515],[-71.061873,42.349515],[-71.061847,42.349534],[-71.061858,42.349573],[-71.061967,42.349647],[-71.062004,42.349647],[-71.062035,42.349614]]],[[[-71.062006,42.349477],[-71.061946,42.349428],[-71.061915,42.349438],[-71.061975,42.349486],[-71.062006,42.349477]]],[[[-71.061996,42.35375],[-71.061744,42.353582],[-71.061679,42.35358],[-71.06161,42.353537],[-71.061592,42.35355],[-71.061769,42.353698],[-71.061891,42.353713],[-71.061977,42.353765],[-71.061996,42.35375]]],[[[-71.061983,42.349919],[-71.061923,42.34987],[-71.061892,42.34988],[-71.061952,42.349928],[-71.061983,42.349919]]],[[[-71.061956,42.348385],[-71.061942,42.348361],[-71.061823,42.348281],[-71.061789,42.348281],[-71.061764,42.348299],[-71.061774,42.348336],[-71.061893,42.348416],[-71.061928,42.348416],[-71.061956,42.348385]]],[[[-71.061953,42.349965],[-71.061893,42.349916],[-71.061862,42.349926],[-71.061922,42.349974],[-71.061953,42.349965]]],[[[-71.061947,42.350039],[-71.061887,42.34999],[-71.061856,42.35],[-71.061916,42.350048],[-71.061947,42.350039]]],[[[-71.061923,42.350083],[-71.061863,42.350034],[-71.061832,42.350044],[-71.061892,42.350092],[-71.061923,42.350083]]],[[[-71.061893,42.350119],[-71.061833,42.35007],[-71.061802,42.35008],[-71.061862,42.350128],[-71.061893,42.350119]]],[[[-71.061885,42.350359],[-71.06175,42.350263],[-71.061722,42.350272],[-71.061711,42.350292],[-71.061722,42.350312],[-71.061688,42.350322],[-71.061675,42.350346],[-71.061688,42.35037],[-71.061824,42.350453],[-71.061866,42.350432],[-71.061866,42.350406],[-71.061846,42.350388],[-71.061885,42.350359]]],[[[-71.061875,42.350191],[-71.061819,42.350145],[-71.061788,42.350155],[-71.061844,42.3502],[-71.061875,42.350191]]],[[[-71.06186,42.349732],[-71.061845,42.349706],[-71.061736,42.349633],[-71.061698,42.349633],[-71.061672,42.349652],[-71.061683,42.349691],[-71.061792,42.349765],[-71.061829,42.349765],[-71.06186,42.349732]]],[[[-71.061853,42.350239],[-71.061793,42.35019],[-71.061762,42.3502],[-71.061822,42.350248],[-71.061853,42.350239]]],[[[-71.061825,42.34846],[-71.061765,42.348411],[-71.061734,42.348421],[-71.061794,42.348469],[-71.061825,42.34846]]],[[[-71.061793,42.348718],[-71.061666,42.348619],[-71.061611,42.348636],[-71.06162,42.34867],[-71.061734,42.348747],[-71.061766,42.348747],[-71.061793,42.348718]]],[[[-71.061762,42.348379],[-71.061746,42.34835],[-71.061591,42.348256],[-71.061597,42.348238],[-71.061579,42.348205],[-71.061454,42.348118],[-71.061386,42.348108],[-71.061353,42.348133],[-71.061353,42.348167],[-71.061427,42.348225],[-71.061397,42.348231],[-71.06139,42.348257],[-71.061485,42.348327],[-71.061508,42.348334],[-71.061538,42.348319],[-71.061686,42.348416],[-71.061728,42.348416],[-71.061762,42.348379]],[[-71.061539,42.348283],[-71.061535,42.348297],[-71.061513,42.34828],[-71.061539,42.348283]]],[[[-71.06167,42.348743],[-71.061656,42.348719],[-71.061537,42.348639],[-71.061503,42.348639],[-71.061478,42.348657],[-71.061488,42.348694],[-71.061607,42.348774],[-71.061642,42.348774],[-71.06167,42.348743]]],[[[-71.061665,42.348876],[-71.061605,42.348827],[-71.061574,42.348837],[-71.061634,42.348885],[-71.061665,42.348876]]],[[[-71.061663,42.348539],[-71.061603,42.34849],[-71.061572,42.3485],[-71.061632,42.348548],[-71.061663,42.348539]]],[[[-71.061661,42.348228],[-71.061592,42.348174],[-71.061561,42.348184],[-71.061629,42.348238],[-71.061661,42.348228]]],[[[-71.061642,42.349634],[-71.061627,42.349608],[-71.061518,42.349535],[-71.06148,42.349535],[-71.061401,42.349498],[-71.061356,42.34952],[-71.061367,42.349559],[-71.061476,42.349633],[-71.061513,42.349633],[-71.061593,42.34967],[-71.061627,42.349659],[-71.061642,42.349634]]],[[[-71.061603,42.348924],[-71.061476,42.348825],[-71.061421,42.348842],[-71.06143,42.348876],[-71.061544,42.348953],[-71.061576,42.348953],[-71.061603,42.348924]]],[[[-71.061568,42.351003],[-71.061486,42.350938],[-71.061447,42.35095],[-71.06153,42.351015],[-71.061568,42.351003]]],[[[-71.061502,42.349299],[-71.061433,42.349245],[-71.061402,42.349255],[-71.061331,42.349208],[-71.061291,42.349228],[-71.061393,42.349307],[-71.061433,42.349287],[-71.061483,42.349313],[-71.061502,42.349299]]],[[[-71.061473,42.351161],[-71.061413,42.351112],[-71.061382,42.351122],[-71.061442,42.35117],[-71.061473,42.351161]]],[[[-71.061471,42.349102],[-71.061394,42.349042],[-71.061361,42.349052],[-71.061438,42.349112],[-71.061471,42.349102]]],[[[-71.061452,42.351219],[-71.061392,42.35117],[-71.061361,42.35118],[-71.061421,42.351228],[-71.061452,42.351219]]],[[[-71.061426,42.351279],[-71.061366,42.35123],[-71.061335,42.35124],[-71.061395,42.351288],[-71.061426,42.351279]]],[[[-71.061423,42.349469],[-71.061363,42.34942],[-71.061332,42.34943],[-71.061392,42.349478],[-71.061423,42.349469]]],[[[-71.061407,42.351328],[-71.061347,42.351279],[-71.061316,42.351289],[-71.061376,42.351337],[-71.061407,42.351328]]],[[[-71.061341,42.349672],[-71.061277,42.34962],[-71.061246,42.34963],[-71.06131,42.349681],[-71.061341,42.349672]]],[[[-71.061323,42.3499],[-71.061196,42.349801],[-71.061141,42.349818],[-71.06115,42.349852],[-71.061264,42.349929],[-71.061296,42.349929],[-71.061323,42.3499]]],[[[-71.06132,42.34972],[-71.061256,42.349668],[-71.061225,42.349678],[-71.061289,42.349729],[-71.06132,42.34972]]],[[[-71.061299,42.353409],[-71.061239,42.35336],[-71.061107,42.35331],[-71.061043,42.353265],[-71.061012,42.353275],[-71.06108,42.353329],[-71.061106,42.353329],[-71.061212,42.353392],[-71.061281,42.353422],[-71.061299,42.353409]]],[[[-71.061293,42.354813],[-71.061233,42.354764],[-71.061202,42.354774],[-71.061262,42.354822],[-71.061293,42.354813]]],[[[-71.061269,42.350109],[-71.061253,42.350082],[-71.061124,42.349995],[-71.061084,42.349995],[-71.061056,42.350015],[-71.061067,42.350057],[-71.061197,42.350144],[-71.061237,42.350144],[-71.061269,42.350109]]],[[[-71.061243,42.354955],[-71.061183,42.354906],[-71.061152,42.354916],[-71.061212,42.354964],[-71.061243,42.354955]]],[[[-71.061145,42.348681],[-71.061129,42.348654],[-71.061,42.348567],[-71.06096,42.348567],[-71.060932,42.348587],[-71.060943,42.348629],[-71.061073,42.348716],[-71.061112,42.348716],[-71.061145,42.348681]]],[[[-71.061122,42.348799],[-71.061106,42.34877],[-71.060971,42.348679],[-71.060929,42.348679],[-71.060899,42.348701],[-71.060911,42.348746],[-71.061046,42.348836],[-71.061088,42.348836],[-71.061122,42.348799]]],[[[-71.061093,42.348529],[-71.061033,42.34848],[-71.061002,42.34849],[-71.061062,42.348538],[-71.061093,42.348529]]],[[[-71.061043,42.353402],[-71.060983,42.353353],[-71.060857,42.353292],[-71.060826,42.353302],[-71.060886,42.35335],[-71.061012,42.353411],[-71.061043,42.353402]]],[[[-71.061043,42.348897],[-71.060916,42.348798],[-71.060861,42.348815],[-71.06087,42.348849],[-71.060984,42.348926],[-71.061016,42.348926],[-71.061043,42.348897]]],[[[-71.060993,42.353259],[-71.060933,42.35321],[-71.060902,42.35322],[-71.060962,42.353268],[-71.060993,42.353259]]],[[[-71.060985,42.34927],[-71.060964,42.349233],[-71.060803,42.349125],[-71.060749,42.349125],[-71.06071,42.349154],[-71.06071,42.349194],[-71.060725,42.349211],[-71.060886,42.349319],[-71.060941,42.349319],[-71.060985,42.34927]]],[[[-71.060827,42.349456],[-71.060812,42.34943],[-71.060703,42.349357],[-71.060665,42.349357],[-71.060641,42.349374],[-71.060583,42.349332],[-71.060552,42.349342],[-71.060759,42.349489],[-71.060796,42.349489],[-71.060827,42.349456]]],[[[-71.060803,42.349582],[-71.060789,42.349557],[-71.060665,42.349473],[-71.060605,42.349488],[-71.060543,42.349443],[-71.060512,42.349453],[-71.060736,42.349615],[-71.060773,42.349615],[-71.060803,42.349582]]],[[[-71.060717,42.349746],[-71.060703,42.349721],[-71.060594,42.349645],[-71.060499,42.34959],[-71.060473,42.34959],[-71.060473,42.34961],[-71.060525,42.349646],[-71.060517,42.349654],[-71.06047,42.349627],[-71.060457,42.34965],[-71.060634,42.349772],[-71.060687,42.349779],[-71.060717,42.349746]]],[[[-71.060695,42.349871],[-71.060679,42.349844],[-71.06055,42.349757],[-71.06051,42.349757],[-71.060482,42.349777],[-71.060493,42.349819],[-71.060623,42.349906],[-71.060663,42.349906],[-71.060695,42.349871]]],[[[-71.060683,42.349299],[-71.060623,42.34925],[-71.060592,42.34926],[-71.060652,42.349308],[-71.060683,42.349299]]],[[[-71.060663,42.349339],[-71.060603,42.34929],[-71.060572,42.3493],[-71.060632,42.349348],[-71.060663,42.349339]]],[[[-71.060653,42.353079],[-71.060513,42.352987],[-71.06045,42.352961],[-71.060432,42.352974],[-71.060496,42.353025],[-71.060622,42.353088],[-71.060653,42.353079]]],[[[-71.060613,42.349446],[-71.060553,42.349397],[-71.060522,42.349407],[-71.060582,42.349455],[-71.060613,42.349446]]],[[[-71.060597,42.349545],[-71.060533,42.349493],[-71.060502,42.349503],[-71.060566,42.349554],[-71.060597,42.349545]]],[[[-71.060567,42.353325],[-71.060503,42.353273],[-71.060472,42.353283],[-71.060536,42.353334],[-71.060567,42.353325]]],[[[-71.060559,42.353189],[-71.060423,42.35309],[-71.060343,42.35306],[-71.060343,42.35308],[-71.060528,42.353198],[-71.060559,42.353189]]],[[[-71.060559,42.349595],[-71.060499,42.349546],[-71.060468,42.349556],[-71.060528,42.349604],[-71.060559,42.349595]]],[[[-71.060515,42.353472],[-71.060469,42.353428],[-71.060468,42.353409],[-71.060413,42.35337],[-71.060344,42.353394],[-71.060352,42.353425],[-71.060461,42.353499],[-71.060491,42.353499],[-71.060515,42.353472]]],[[[-71.060447,42.349926],[-71.060383,42.349874],[-71.060352,42.349884],[-71.060416,42.349935],[-71.060447,42.349926]]],[[[-71.060413,42.353486],[-71.060353,42.353437],[-71.060322,42.353447],[-71.060382,42.353495],[-71.060413,42.353486]]],[[[-71.060408,42.350216],[-71.060343,42.350155],[-71.060352,42.350138],[-71.060293,42.350095],[-71.060267,42.350095],[-71.060267,42.350114],[-71.06022,42.350136],[-71.060231,42.350175],[-71.06034,42.350249],[-71.060377,42.350249],[-71.060408,42.350216]]],[[[-71.060373,42.350076],[-71.060313,42.350027],[-71.060282,42.350037],[-71.060342,42.350085],[-71.060373,42.350076]]],[[[-71.06027,42.349537],[-71.06015,42.349443],[-71.060099,42.349459],[-71.060107,42.34949],[-71.060216,42.349564],[-71.060246,42.349564],[-71.06027,42.349537]]],[[[-71.060213,42.353001],[-71.060153,42.352952],[-71.060122,42.352962],[-71.060182,42.35301],[-71.060213,42.353001]]],[[[-71.06021,42.353483],[-71.060197,42.353459],[-71.060077,42.353379],[-71.060043,42.353379],[-71.060018,42.353397],[-71.060028,42.353434],[-71.060147,42.353514],[-71.060182,42.353514],[-71.06021,42.353483]]],[[[-71.060203,42.349615],[-71.060101,42.349536],[-71.060061,42.349556],[-71.060163,42.349635],[-71.060203,42.349615]]],[[[-71.060178,42.349709],[-71.060064,42.34962],[-71.060017,42.349634],[-71.060025,42.349663],[-71.060128,42.349733],[-71.060156,42.349733],[-71.060178,42.349709]]],[[[-71.060073,42.351114],[-71.059946,42.351015],[-71.059891,42.351032],[-71.0599,42.351066],[-71.060014,42.351143],[-71.060046,42.351143],[-71.060073,42.351114]]],[[[-71.059981,42.351191],[-71.059893,42.351121],[-71.059851,42.351128],[-71.059851,42.351142],[-71.059936,42.351204],[-71.059965,42.351209],[-71.059981,42.351191]]],[[[-71.059923,42.35333],[-71.059796,42.353231],[-71.059741,42.353248],[-71.05975,42.353282],[-71.059864,42.353359],[-71.059896,42.353359],[-71.059923,42.35333]]],[[[-71.059817,42.352795],[-71.05974,42.35274],[-71.059722,42.352753],[-71.05967,42.352724],[-71.059652,42.352737],[-71.059616,42.352717],[-71.059598,42.35273],[-71.059675,42.352785],[-71.059693,42.352772],[-71.059729,42.352792],[-71.059747,42.352779],[-71.059799,42.352808],[-71.059817,42.352795]]],[[[-71.059753,42.355013],[-71.059389,42.354714],[-71.05935,42.354709],[-71.059331,42.354723],[-71.059331,42.354743],[-71.059377,42.354791],[-71.059655,42.354999],[-71.059724,42.355034],[-71.059753,42.355013]]],[[[-71.059743,42.351776],[-71.059728,42.35175],[-71.059634,42.351685],[-71.059648,42.351671],[-71.059641,42.351645],[-71.059542,42.351578],[-71.059507,42.351583],[-71.0595,42.351609],[-71.05959,42.351675],[-71.059552,42.351709],[-71.059528,42.351696],[-71.059528,42.351669],[-71.059448,42.351613],[-71.059406,42.35162],[-71.059406,42.351634],[-71.059583,42.35177],[-71.059694,42.351812],[-71.059728,42.351801],[-71.059743,42.351776]]],[[[-71.059683,42.352849],[-71.059668,42.352823],[-71.059559,42.35275],[-71.059521,42.35275],[-71.059495,42.352769],[-71.059506,42.352808],[-71.059615,42.352882],[-71.059652,42.352882],[-71.059683,42.352849]]],[[[-71.059573,42.351136],[-71.059513,42.351087],[-71.059482,42.351097],[-71.059542,42.351145],[-71.059573,42.351136]]],[[[-71.059533,42.351209],[-71.059473,42.35116],[-71.059442,42.35117],[-71.059502,42.351218],[-71.059533,42.351209]]],[[[-71.059483,42.353139],[-71.059423,42.35309],[-71.059392,42.3531],[-71.059452,42.353148],[-71.059483,42.353139]]],[[[-71.059473,42.353049],[-71.059413,42.353],[-71.059382,42.35301],[-71.059442,42.353058],[-71.059473,42.353049]]],[[[-71.059462,42.351757],[-71.05938,42.351692],[-71.059341,42.351704],[-71.059424,42.351769],[-71.059462,42.351757]]],[[[-71.059398,42.351833],[-71.059316,42.351768],[-71.059277,42.35178],[-71.05936,42.351845],[-71.059398,42.351833]]],[[[-71.059327,42.351366],[-71.059253,42.351281],[-71.059144,42.351205],[-71.059091,42.351197],[-71.059065,42.351216],[-71.059065,42.351244],[-71.059144,42.351322],[-71.059106,42.351332],[-71.059095,42.351371],[-71.059214,42.351459],[-71.059249,42.351469],[-71.059283,42.351459],[-71.059297,42.351433],[-71.059274,42.351401],[-71.059313,42.351392],[-71.059327,42.351366]]],[[[-71.059239,42.353333],[-71.059179,42.353284],[-71.059148,42.353294],[-71.059208,42.353342],[-71.059239,42.353333]]],[[[-71.05918,42.354447],[-71.058954,42.35428],[-71.058926,42.35428],[-71.058926,42.3543],[-71.059032,42.354373],[-71.059037,42.354402],[-71.059125,42.354464],[-71.05916,42.354469],[-71.05918,42.354447]]],[[[-71.059153,42.351499],[-71.059093,42.35145],[-71.059062,42.35146],[-71.059122,42.351508],[-71.059153,42.351499]]],[[[-71.059146,42.351573],[-71.059058,42.351503],[-71.059016,42.35151],[-71.059016,42.351524],[-71.059101,42.351586],[-71.05913,42.351591],[-71.059146,42.351573]]],[[[-71.059143,42.353326],[-71.059083,42.353277],[-71.059052,42.353287],[-71.059112,42.353335],[-71.059143,42.353326]]],[[[-71.059098,42.351669],[-71.058984,42.35158],[-71.058937,42.351594],[-71.058945,42.351623],[-71.059048,42.351693],[-71.059076,42.351693],[-71.059098,42.351669]]],[[[-71.059053,42.353322],[-71.058993,42.353273],[-71.058962,42.353283],[-71.059022,42.353331],[-71.059053,42.353322]]],[[[-71.059012,42.35169],[-71.058943,42.351636],[-71.058912,42.351646],[-71.05898,42.3517],[-71.059012,42.35169]]],[[[-71.05901,42.351752],[-71.058902,42.351668],[-71.05886,42.351681],[-71.058867,42.351707],[-71.058966,42.351774],[-71.05899,42.351774],[-71.05901,42.351752]]],[[[-71.058978,42.351803],[-71.058864,42.351714],[-71.058817,42.351728],[-71.058825,42.351757],[-71.058928,42.351827],[-71.058956,42.351827],[-71.058978,42.351803]]],[[[-71.058928,42.351845],[-71.058814,42.351756],[-71.058767,42.35177],[-71.058775,42.351799],[-71.058878,42.351869],[-71.058906,42.351869],[-71.058928,42.351845]]],[[[-71.058919,42.353307],[-71.058859,42.353258],[-71.058828,42.353268],[-71.058888,42.353316],[-71.058919,42.353307]]],[[[-71.058851,42.351912],[-71.058823,42.35188],[-71.058836,42.351862],[-71.058773,42.351816],[-71.058701,42.351818],[-71.05868,42.351834],[-71.058688,42.351865],[-71.058797,42.351939],[-71.058827,42.351939],[-71.058851,42.351912]]],[[[-71.058813,42.353307],[-71.058753,42.353258],[-71.058722,42.353268],[-71.058782,42.353316],[-71.058813,42.353307]]],[[[-71.05878,42.351968],[-71.058672,42.351884],[-71.058637,42.351889],[-71.05863,42.351915],[-71.058597,42.35193],[-71.058696,42.352],[-71.058718,42.351983],[-71.05876,42.35199],[-71.05878,42.351968]]],[[[-71.058702,42.352079],[-71.058641,42.352018],[-71.058652,42.352],[-71.05858,42.351954],[-71.058491,42.351968],[-71.058451,42.352018],[-71.058451,42.352042],[-71.058392,42.35206],[-71.058408,42.352098],[-71.058544,42.352181],[-71.058577,42.352171],[-71.058586,42.352134],[-71.058668,42.352116],[-71.058702,42.352079]]],[[[-71.058623,42.352569],[-71.058494,42.35247],[-71.058466,42.35247],[-71.058466,42.35249],[-71.058497,42.352511],[-71.058473,42.352529],[-71.058532,42.352572],[-71.058563,42.352563],[-71.058605,42.352582],[-71.058623,42.352569]]],[[[-71.058487,42.35257],[-71.058428,42.352522],[-71.058438,42.352499],[-71.058383,42.35246],[-71.058357,42.35246],[-71.058357,42.35248],[-71.058407,42.352515],[-71.058397,42.352538],[-71.058456,42.352579],[-71.058487,42.35257]]],[[[-71.058447,42.352139],[-71.058383,42.352087],[-71.058352,42.352097],[-71.058416,42.352148],[-71.058447,42.352139]]],[[[-71.058403,42.352559],[-71.058273,42.352457],[-71.058247,42.352457],[-71.058247,42.352477],[-71.058372,42.352568],[-71.058403,42.352559]]],[[[-71.058343,42.350949],[-71.058283,42.3509],[-71.0582,42.350874],[-71.058182,42.350887],[-71.058242,42.350935],[-71.058325,42.350962],[-71.058343,42.350949]]],[[[-71.058323,42.352551],[-71.058263,42.352502],[-71.058232,42.352512],[-71.058292,42.35256],[-71.058323,42.352551]]],[[[-71.058093,42.352704],[-71.058033,42.352655],[-71.058002,42.352665],[-71.058062,42.352713],[-71.058093,42.352704]]],[[[-71.058087,42.352807],[-71.058027,42.352758],[-71.057996,42.352768],[-71.058056,42.352816],[-71.058087,42.352807]]],[[[-71.058063,42.352944],[-71.058003,42.352895],[-71.057972,42.352905],[-71.058032,42.352953],[-71.058063,42.352944]]],[[[-71.057858,42.350732],[-71.057798,42.350683],[-71.05774,42.350664],[-71.057722,42.350677],[-71.057782,42.350725],[-71.05784,42.350745],[-71.057858,42.350732]]],[[[-71.05783,42.352282],[-71.057742,42.352212],[-71.0577,42.352219],[-71.0577,42.352233],[-71.057785,42.352295],[-71.057814,42.3523],[-71.05783,42.352282]]],[[[-71.057707,42.352249],[-71.057605,42.35217],[-71.057573,42.352175],[-71.05751,42.352141],[-71.057486,42.352153],[-71.05743,42.352121],[-71.057409,42.352129],[-71.057351,42.35209],[-71.057311,42.35211],[-71.057413,42.352189],[-71.057445,42.352184],[-71.05751,42.352215],[-71.057534,42.352203],[-71.057667,42.352269],[-71.057707,42.352249]]],[[[-71.057469,42.350442],[-71.057409,42.350393],[-71.057378,42.350403],[-71.057438,42.350451],[-71.057469,42.350442]]],[[[-71.057453,42.350533],[-71.057393,42.350484],[-71.057362,42.350494],[-71.057422,42.350542],[-71.057453,42.350533]]],[[[-71.057407,42.351749],[-71.057343,42.351697],[-71.057312,42.351707],[-71.057376,42.351758],[-71.057407,42.351749]]],[[[-71.057393,42.351789],[-71.057333,42.35174],[-71.057302,42.35175],[-71.057362,42.351798],[-71.057393,42.351789]]],[[[-71.057364,42.351936],[-71.057304,42.351887],[-71.057273,42.351897],[-71.057333,42.351945],[-71.057364,42.351936]]],[[[-71.057362,42.350969],[-71.057293,42.350915],[-71.057262,42.350925],[-71.05733,42.350979],[-71.057362,42.350969]]],[[[-71.057349,42.351991],[-71.057293,42.351945],[-71.057262,42.351955],[-71.057318,42.352],[-71.057349,42.351991]]],[[[-71.057332,42.351107],[-71.057263,42.351053],[-71.057232,42.351063],[-71.0573,42.351117],[-71.057332,42.351107]]],[[[-71.057263,42.351449],[-71.057203,42.3514],[-71.057172,42.35141],[-71.057232,42.351458],[-71.057263,42.351449]]],[[[-71.057253,42.350589],[-71.057193,42.35054],[-71.057162,42.35055],[-71.057222,42.350598],[-71.057253,42.350589]]],[[[-71.057202,42.350671],[-71.057142,42.350622],[-71.057111,42.350632],[-71.057171,42.35068],[-71.057202,42.350671]]],[[[-71.057149,42.350572],[-71.057089,42.350523],[-71.057058,42.350533],[-71.057118,42.350581],[-71.057149,42.350572]]],[[[-71.05711,42.349965],[-71.057002,42.349881],[-71.05696,42.349894],[-71.056967,42.34992],[-71.057066,42.349987],[-71.05709,42.349987],[-71.05711,42.349965]]],[[[-71.057093,42.349879],[-71.057033,42.34983],[-71.057002,42.34984],[-71.057062,42.349888],[-71.057093,42.349879]]],[[[-71.056936,42.352075],[-71.056863,42.352018],[-71.056832,42.352028],[-71.056905,42.352085],[-71.056936,42.352075]]],[[[-71.056925,42.349827],[-71.056805,42.349733],[-71.056754,42.349749],[-71.056762,42.34978],[-71.056871,42.349854],[-71.056901,42.349854],[-71.056925,42.349827]]],[[[-71.056889,42.350269],[-71.056829,42.35022],[-71.056798,42.35023],[-71.056858,42.350278],[-71.056889,42.350269]]],[[[-71.05688,42.349902],[-71.056772,42.349818],[-71.05673,42.349831],[-71.056737,42.349857],[-71.056836,42.349924],[-71.05686,42.349924],[-71.05688,42.349902]]],[[[-71.056868,42.349981],[-71.056853,42.349955],[-71.056744,42.349882],[-71.056706,42.349882],[-71.05668,42.349901],[-71.056691,42.34994],[-71.0568,42.350014],[-71.056837,42.350014],[-71.056868,42.349981]]],[[[-71.056853,42.350346],[-71.056793,42.350297],[-71.056762,42.350307],[-71.056822,42.350355],[-71.056853,42.350346]]],[[[-71.056823,42.350072],[-71.056808,42.350046],[-71.056699,42.349973],[-71.056661,42.349973],[-71.056635,42.349992],[-71.056646,42.350031],[-71.056755,42.350105],[-71.056792,42.350105],[-71.056823,42.350072]]],[[[-71.056812,42.352038],[-71.056743,42.351984],[-71.056712,42.351994],[-71.05678,42.352048],[-71.056812,42.352038]]],[[[-71.056743,42.350153],[-71.056641,42.350074],[-71.056601,42.350094],[-71.056703,42.350173],[-71.056743,42.350153]]],[[[-71.056711,42.35066],[-71.056638,42.350603],[-71.056607,42.350613],[-71.05668,42.35067],[-71.056711,42.35066]]],[[[-71.05671,42.350247],[-71.056602,42.350163],[-71.05656,42.350176],[-71.056567,42.350202],[-71.056666,42.350269],[-71.05669,42.350269],[-71.05671,42.350247]]],[[[-71.056706,42.353259],[-71.056618,42.353189],[-71.056479,42.353117],[-71.056451,42.353117],[-71.05637,42.353073],[-71.056347,42.35309],[-71.05643,42.353155],[-71.056546,42.353189],[-71.056661,42.353272],[-71.05669,42.353277],[-71.056706,42.353259]]],[[[-71.056676,42.350727],[-71.056603,42.35067],[-71.056572,42.35068],[-71.056645,42.350737],[-71.056676,42.350727]]],[[[-71.056653,42.3509],[-71.056638,42.350874],[-71.056529,42.350801],[-71.056491,42.350801],[-71.056465,42.35082],[-71.056476,42.350859],[-71.056585,42.350933],[-71.056622,42.350933],[-71.056653,42.3509]]],[[[-71.056536,42.351967],[-71.056463,42.35191],[-71.056432,42.35192],[-71.056505,42.351977],[-71.056536,42.351967]]],[[[-71.056483,42.351069],[-71.056423,42.35102],[-71.056392,42.35103],[-71.056452,42.351078],[-71.056483,42.351069]]],[[[-71.056466,42.351144],[-71.056393,42.351087],[-71.056362,42.351097],[-71.056435,42.351154],[-71.056466,42.351144]]],[[[-71.056439,42.351936],[-71.056383,42.35189],[-71.056352,42.3519],[-71.056408,42.351945],[-71.056439,42.351936]]],[[[-71.056419,42.351215],[-71.056359,42.351166],[-71.056328,42.351176],[-71.056388,42.351224],[-71.056419,42.351215]]],[[[-71.056406,42.354977],[-71.056333,42.35492],[-71.056302,42.35493],[-71.056375,42.354987],[-71.056406,42.354977]]],[[[-71.056396,42.354883],[-71.056323,42.354826],[-71.056292,42.354836],[-71.056365,42.354893],[-71.056396,42.354883]]],[[[-71.056386,42.354726],[-71.056298,42.354656],[-71.056256,42.354663],[-71.056256,42.354677],[-71.056341,42.354739],[-71.05637,42.354744],[-71.056386,42.354726]]],[[[-71.056381,42.3548],[-71.056304,42.35474],[-71.056271,42.35475],[-71.056348,42.35481],[-71.056381,42.3548]]],[[[-71.056324,42.350889],[-71.056251,42.350832],[-71.05622,42.350842],[-71.056293,42.350899],[-71.056324,42.350889]]],[[[-71.056317,42.351418],[-71.056253,42.351366],[-71.056222,42.351376],[-71.056286,42.351427],[-71.056317,42.351418]]],[[[-71.056303,42.353089],[-71.056243,42.35304],[-71.056212,42.35305],[-71.056272,42.353098],[-71.056303,42.353089]]],[[[-71.056298,42.351453],[-71.056234,42.351401],[-71.056203,42.351411],[-71.056267,42.351462],[-71.056298,42.351453]]],[[[-71.056294,42.35098],[-71.056221,42.350923],[-71.05619,42.350933],[-71.056263,42.35099],[-71.056294,42.35098]]],[[[-71.056267,42.351492],[-71.056203,42.35144],[-71.056172,42.35145],[-71.056236,42.351501],[-71.056267,42.351492]]],[[[-71.056254,42.351083],[-71.056181,42.351026],[-71.05615,42.351036],[-71.056223,42.351093],[-71.056254,42.351083]]],[[[-71.056216,42.351192],[-71.056143,42.351135],[-71.056112,42.351145],[-71.056185,42.351202],[-71.056216,42.351192]]],[[[-71.056137,42.351752],[-71.056073,42.3517],[-71.056042,42.35171],[-71.056106,42.351761],[-71.056137,42.351752]]],[[[-71.056045,42.351402],[-71.055972,42.351345],[-71.055941,42.351355],[-71.056014,42.351412],[-71.056045,42.351402]]],[[[-71.056021,42.351459],[-71.055948,42.351402],[-71.055917,42.351412],[-71.05599,42.351469],[-71.056021,42.351459]]],[[[-71.055988,42.351529],[-71.055915,42.351472],[-71.055884,42.351482],[-71.055957,42.351539],[-71.055988,42.351529]]],[[[-71.055963,42.352292],[-71.055948,42.352266],[-71.05582,42.35219],[-71.055786,42.352201],[-71.055775,42.35224],[-71.055737,42.352276],[-71.055752,42.352301],[-71.05588,42.352378],[-71.055914,42.352367],[-71.055925,42.352328],[-71.055963,42.352292]]],[[[-71.055956,42.351608],[-71.055883,42.351551],[-71.055852,42.351561],[-71.055925,42.351618],[-71.055956,42.351608]]],[[[-71.055927,42.351669],[-71.055854,42.351612],[-71.055823,42.351622],[-71.055896,42.351679],[-71.055927,42.351669]]],[[[-71.055876,42.353398],[-71.055768,42.353314],[-71.055726,42.353327],[-71.055733,42.353353],[-71.055832,42.35342],[-71.055856,42.35342],[-71.055876,42.353398]]],[[[-71.055876,42.351774],[-71.055803,42.351717],[-71.055772,42.351727],[-71.055845,42.351784],[-71.055876,42.351774]]],[[[-71.055856,42.351823],[-71.055783,42.351766],[-71.055752,42.351776],[-71.055825,42.351833],[-71.055856,42.351823]]],[[[-71.055808,42.353453],[-71.055706,42.353374],[-71.055666,42.353394],[-71.055768,42.353473],[-71.055808,42.353453]]],[[[-71.055717,42.35348],[-71.05564,42.35342],[-71.055607,42.35343],[-71.055684,42.35349],[-71.055717,42.35348]]],[[[-71.055626,42.353544],[-71.055553,42.353487],[-71.055522,42.353497],[-71.055595,42.353554],[-71.055626,42.353544]]],[[[-71.055557,42.353572],[-71.055493,42.35352],[-71.055462,42.35353],[-71.055526,42.353581],[-71.055557,42.353572]]],[[[-71.055323,42.353731],[-71.0553,42.353705],[-71.055312,42.353682],[-71.055257,42.353643],[-71.055199,42.353652],[-71.055181,42.353672],[-71.055283,42.353751],[-71.055323,42.353731]]],[[[-71.055268,42.353753],[-71.055186,42.353688],[-71.055147,42.3537],[-71.05523,42.353765],[-71.055268,42.353753]]]]},"properties":{"kind":"tree"}}]}