{"type":"FeatureCollection","features":[{"type":"Feature","geometry":{"type":"MultiPolygon","coordinates":[[[[-71.067351,42.352128],[-71.067328,42.351994],[-71.067068,42.351408],[-71.066747,42.351106],[-71.066462,42.35114],[-71.066089,42.350788],[-71.066166,42.350784],[-71.066153,42.350626],[-71.066335,42.350613],[-71.0663,42.350284],[-71.066195,42.350163],[-71.065868,42.349855],[-71.065897,42.349713],[-71.066047,42.34984],[-71.066124,42.349816],[-71.066129,42.34976],[-71.066194,42.349739],[-71.066105,42.349582],[-71.066006,42.349489],[-71.06562,42.349445],[-71.065521,42.349461],[-71.065434,42.349866],[-71.065169,42.349617],[-71.064416,42.349501],[-71.064395,42.349572],[-71.064152,42.349535],[-71.064169,42.349446],[-71.06407,42.349353],[-71.064152,42.349184],[-71.064189,42.349054],[-71.064449,42.3491],[-71.064404,42.349122],[-71.06464,42.349344],[-71.064889,42.349513],[-71.06507,42.34942],[-71.06505,42.349397],[-71.065156,42.34943],[-71.065418,42.349307],[-71.065271,42.349136],[-71.065337,42.34913],[-71.065388,42.348942],[-71.065381,42.348857],[-71.065337,42.348743],[-71.065279,42.348688],[-71.065241,42.348679],[-71.065263,42.348553],[-71.065211,42.348505],[-71.065463,42.348448],[-71.065467,42.348428],[-71.065376,42.348326],[-71.065508,42.348206],[-71.065508,42.348132],[-71.065448,42.348063],[-71.065567,42.347985],[-71.065576,42.347947],[-71.065538,42.347871],[-71.065483,42.347819],[-71.065442,42.347813],[-71.065442,42.347793],[-71.065319,42.347677],[-71.065257,42.347643],[-71.064894,42.347587],[-71.064503,42.347783],[-71.064389,42.348045],[-71.06434,42.34822],[-71.064456,42.348329],[-71.06444,42.348386],[-71.06464,42.348574],[-71.064341,42.348545],[-71.064334,42.348568],[-71.064275,42.348582],[-71.064221,42.348723],[-71.063945,42.348463],[-71.063623,42.348413],[-71.063599,42.348497],[-71.063476,42.348381],[-71.063178,42.348336],[-71.063312,42.348341],[-71.063336,42.348258],[-71.06323,42.348148],[-71.063193,42.348142],[-71.063215,42.348116],[-71.063356,42.348147],[-71.063375,42.348078],[-71.063301,42.347999],[-71.062961,42.347921],[-71.062929,42.348],[-71.063009,42.348075],[-71.063051,42.348084],[-71.063126,42.348156],[-71.063181,42.348155],[-71.063177,42.348169],[-71.062979,42.348139],[-71.062955,42.348122],[-71.062994,42.348131],[-71.06301,42.348094],[-71.062909,42.347999],[-71.062855,42.347962],[-71.062735,42.347939],[-71.062689,42.348052],[-71.062766,42.348129],[-71.062667,42.348107],[-71.062651,42.348146],[-71.062446,42.347953],[-71.062107,42.347867],[-71.061866,42.34764],[-71.061712,42.347604],[-71.061566,42.347954],[-71.061555,42.348046],[-71.061834,42.348309],[-71.06165,42.348751],[-71.061584,42.348939],[-71.061602,42.348955],[-71.061535,42.348911],[-71.061566,42.348836],[-71.061605,42.348845],[-71.061687,42.348608],[-71.06176,42.348472],[-71.06164,42.348359],[-71.061414,42.348308],[-71.061409,42.348319],[-71.061312,42.348227],[-71.061184,42.348198],[-71.06117,42.348214],[-71.061068,42.348118],[-71.061011,42.348097],[-71.060549,42.348739],[-71.060836,42.349009],[-71.060744,42.349244],[-71.060831,42.349326],[-71.061289,42.349515],[-71.061337,42.349444],[-71.061262,42.349374],[-71.061376,42.349402],[-71.061347,42.349489],[-71.061526,42.349658],[-71.061307,42.349568],[-71.061196,42.349845],[-71.061356,42.349995],[-71.061316,42.350019],[-71.061242,42.350003],[-71.061238,42.350013],[-71.061162,42.349985],[-71.061139,42.350043],[-71.061166,42.350069],[-71.061211,42.350078],[-71.061122,42.35014],[-71.061033,42.350057],[-71.06114,42.349798],[-71.061016,42.349648],[-71.060443,42.349109],[-71.060321,42.349063],[-71.060204,42.349326],[-71.059925,42.350048],[-71.060387,42.350483],[-71.060381,42.350499],[-71.0604,42.350521],[-71.06026,42.350485],[-71.060255,42.350498],[-71.060116,42.350367],[-71.059867,42.350296],[-71.059794,42.350499],[-71.059829,42.350532],[-71.059789,42.350634],[-71.059861,42.350702],[-71.060148,42.350761],[-71.059972,42.351168],[-71.060104,42.351293],[-71.060591,42.351394],[-71.060615,42.351337],[-71.060633,42.351329],[-71.060807,42.351492],[-71.060388,42.351402],[-71.060369,42.351415],[-71.060432,42.351612],[-71.060542,42.351715],[-71.06047,42.351727],[-71.060535,42.351943],[-71.060514,42.351923],[-71.060401,42.351606],[-71.060324,42.351533],[-71.060288,42.351422],[-71.060242,42.351375],[-71.059758,42.351262],[-71.059709,42.351391],[-71.059799,42.351967],[-71.059626,42.351804],[-71.059577,42.351808],[-71.059386,42.351848],[-71.059441,42.352214],[-71.059226,42.352012],[-71.059026,42.352083],[-71.058906,42.352152],[-71.058814,42.352257],[-71.058775,42.35235],[-71.058968,42.352532],[-71.058142,42.35255],[-71.058055,42.352616],[-71.057991,42.352964],[-71.057796,42.352781],[-71.057703,42.352739],[-71.05756,42.352748],[-71.057444,42.352811],[-71.057406,42.352776],[-71.057457,42.352662],[-71.057103,42.352329],[-71.057515,42.352436],[-71.057544,42.352285],[-71.058208,42.35249],[-71.05838,42.351986],[-71.058223,42.351831],[-71.058341,42.351849],[-71.058394,42.351719],[-71.058513,42.351831],[-71.058709,42.351874],[-71.058872,42.351722],[-71.058989,42.351587],[-71.059156,42.351325],[-71.059189,42.351243],[-71.059038,42.351101],[-71.058633,42.351011],[-71.05859,42.351119],[-71.058414,42.350953],[-71.058254,42.350913],[-71.058267,42.350869],[-71.058294,42.350894],[-71.0584,42.35092],[-71.058417,42.350883],[-71.058551,42.350916],[-71.058562,42.350888],[-71.058638,42.350905],[-71.058684,42.350809],[-71.058708,42.350814],[-71.058689,42.350861],[-71.058903,42.351068],[-71.059325,42.351162],[-71.05938,42.351146],[-71.059686,42.350389],[-71.059471,42.35018],[-71.059047,42.350086],[-71.058996,42.350102],[-71.058955,42.350203],[-71.058916,42.350166],[-71.058939,42.350153],[-71.058942,42.350123],[-71.058676,42.349871],[-71.058733,42.349726],[-71.058487,42.349494],[-71.058504,42.349451],[-71.058424,42.349376],[-71.057926,42.349266],[-71.057859,42.349433],[-71.057939,42.349508],[-71.057982,42.349518],[-71.057962,42.349568],[-71.057872,42.349548],[-71.057853,42.349597],[-71.057892,42.349633],[-71.057982,42.349653],[-71.058165,42.349826],[-71.058242,42.349843],[-71.058285,42.349884],[-71.058537,42.349939],[-71.058595,42.349994],[-71.058372,42.349945],[-71.058314,42.35015],[-71.058296,42.350134],[-71.05834,42.349972],[-71.058289,42.349924],[-71.057874,42.34983],[-71.057693,42.349925],[-71.057505,42.349748],[-71.057133,42.349667],[-71.05695,42.350087],[-71.056922,42.350095],[-71.056797,42.350339],[-71.056877,42.350425],[-71.056873,42.350442],[-71.05707,42.350629],[-71.05694,42.350597],[-71.056815,42.350607],[-71.056678,42.350643],[-71.05656,42.350888],[-71.056652,42.350974],[-71.056543,42.350948],[-71.056401,42.351249],[-71.05661,42.351445],[-71.056965,42.351589],[-71.056993,42.35158],[-71.057031,42.351615],[-71.057299,42.351713],[-71.057337,42.351701],[-71.05731,42.351846],[-71.057141,42.351687],[-71.056525,42.351411],[-71.056294,42.351331],[-71.056079,42.351765],[-71.056413,42.352079],[-71.056837,42.352189],[-71.056202,42.352031],[-71.05594,42.352127],[-71.055846,42.352326],[-71.055883,42.352361],[-71.056034,42.352612],[-71.056273,42.352837],[-71.0563,42.352842],[-71.056368,42.352817],[-71.057195,42.353595],[-71.057183,42.353616],[-71.056948,42.353395],[-71.056816,42.353425],[-71.056638,42.353263],[-71.056242,42.353099],[-71.055998,42.353225],[-71.056026,42.35333],[-71.056357,42.353642],[-71.056319,42.353664],[-71.056309,42.353689],[-71.056345,42.353902],[-71.05658,42.354128],[-71.056447,42.354142],[-71.056438,42.35409],[-71.056218,42.353884],[-71.056302,42.353846],[-71.056135,42.353518],[-71.055897,42.353294],[-71.055573,42.353469],[-71.055617,42.353515],[-71.055589,42.353497],[-71.055421,42.353589],[-71.055377,42.353636],[-71.055342,42.353603],[-71.054915,42.353838],[-71.055336,42.354249],[-71.055278,42.35427],[-71.054903,42.35392],[-71.054834,42.353899],[-71.054776,42.353908],[-71.054391,42.354111],[-71.054359,42.354149],[-71.054358,42.354189],[-71.054586,42.35444],[-71.054788,42.354631],[-71.054775,42.354643],[-71.055324,42.355163],[-71.055345,42.355154],[-71.056309,42.356063],[-71.056508,42.35606],[-71.057376,42.356877],[-71.057828,42.356833],[-71.057727,42.356254],[-71.056889,42.355465],[-71.056883,42.355431],[-71.057532,42.356042],[-71.058315,42.355983],[-71.058295,42.355832],[-71.057329,42.354923],[-71.05701,42.354795],[-71.05721,42.354775],[-71.057225,42.35476],[-71.05718,42.35451],[-71.057107,42.354442],[-71.05726,42.354397],[-71.057347,42.35429],[-71.05759,42.35451],[-71.057546,42.354581],[-71.05775,42.354773],[-71.057985,42.354843],[-71.05787,42.354957],[-71.057867,42.35498],[-71.058089,42.355189],[-71.058136,42.355207],[-71.058375,42.355211],[-71.058512,42.35534],[-71.058639,42.355355],[-71.058702,42.355333],[-71.058768,42.355268],[-71.059146,42.355432],[-71.059653,42.355895],[-71.059945,42.356014],[-71.060191,42.3558],[-71.060254,42.355722],[-71.059755,42.355247],[-71.059835,42.355173],[-71.05962,42.354967],[-71.059161,42.354622],[-71.059136,42.354623],[-71.058955,42.354441],[-71.058627,42.354217],[-71.058617,42.354226],[-71.05852,42.354135],[-71.058157,42.3539],[-71.05829,42.3539],[-71.058339,42.353946],[-71.058436,42.353955],[-71.058439,42.353934],[-71.058806,42.354173],[-71.058819,42.354161],[-71.059092,42.354419],[-71.059245,42.354534],[-71.059258,42.354522],[-71.059388,42.354632],[-71.059426,42.354636],[-71.059606,42.354804],[-71.060338,42.355369],[-71.060378,42.35534],[-71.060591,42.355493],[-71.060788,42.355325],[-71.060878,42.355396],[-71.061141,42.355152],[-71.06128,42.355283],[-71.061593,42.35544],[-71.061765,42.355253],[-71.061545,42.355046],[-71.061428,42.354984],[-71.061505,42.354914],[-71.061702,42.355099],[-71.061978,42.355242],[-71.062019,42.355199],[-71.062354,42.355367],[-71.062521,42.355188],[-71.062397,42.355071],[-71.062532,42.355196],[-71.062644,42.355259],[-71.062675,42.355232],[-71.062751,42.355304],[-71.062841,42.355355],[-71.062976,42.355214],[-71.063019,42.355254],[-71.063325,42.355416],[-71.063384,42.355339],[-71.063268,42.35523],[-71.063545,42.355367],[-71.063589,42.355358],[-71.063644,42.355255],[-71.06375,42.355346],[-71.063939,42.355402],[-71.06397,42.355404],[-71.063994,42.35535],[-71.0641,42.355381],[-71.064389,42.354845],[-71.064305,42.354766],[-71.064339,42.354725],[-71.064144,42.354542],[-71.064151,42.354498],[-71.064186,42.354508],[-71.064226,42.354472],[-71.06429,42.354355],[-71.0643,42.354308],[-71.064196,42.35421],[-71.064338,42.354252],[-71.064444,42.354053],[-71.064398,42.35401],[-71.064326,42.353634],[-71.064246,42.353552],[-71.064515,42.353573],[-71.064582,42.353493],[-71.064613,42.353407],[-71.064642,42.353308],[-71.064613,42.35328],[-71.064636,42.353201],[-71.064727,42.353206],[-71.064762,42.353055],[-71.064681,42.352978],[-71.06471,42.352752],[-71.064551,42.352603],[-71.064638,42.352605],[-71.064627,42.352637],[-71.064659,42.352667],[-71.064724,42.352677],[-71.064747,42.352608],[-71.064796,42.352609],[-71.064831,42.352589],[-71.064858,42.35248],[-71.065021,42.352633],[-71.065846,42.35269],[-71.065862,42.352583],[-71.065915,42.352587],[-71.066024,42.352683],[-71.066221,42.352698],[-71.06624,42.352597],[-71.066283,42.352599],[-71.0663,42.352377],[-71.066198,42.352281],[-71.066388,42.35228],[-71.066408,42.352072],[-71.067168,42.352173],[-71.067351,42.352128]],[[-71.065495,42.351253],[-71.065284,42.351247],[-71.064992,42.350972],[-71.065,42.350952],[-71.065028,42.350978],[-71.065235,42.351009],[-71.065495,42.351253]],[[-71.065477,42.350328],[-71.06531,42.3503],[-71.065256,42.350488],[-71.065024,42.350269],[-71.065275,42.350308],[-71.065375,42.349933],[-71.065414,42.349939],[-71.065343,42.350191],[-71.065477,42.350328]],[[-71.064933,42.351718],[-71.064842,42.351707],[-71.064839,42.351718],[-71.064721,42.351606],[-71.064797,42.351615],[-71.064857,42.351396],[-71.064903,42.35144],[-71.064851,42.351641],[-71.064933,42.351718]],[[-71.064653,42.351205],[-71.064502,42.351183],[-71.064476,42.351205],[-71.06446,42.35119],[-71.064303,42.351173],[-71.064323,42.351141],[-71.064312,42.351016],[-71.064531,42.35109],[-71.064653,42.351205]],[[-71.06453,42.3533],[-71.064523,42.353322],[-71.064498,42.353298],[-71.06453,42.3533]],[[-71.064168,42.350256],[-71.064012,42.350507],[-71.063915,42.350416],[-71.063615,42.350374],[-71.063653,42.350296],[-71.063692,42.350302],[-71.063701,42.350272],[-71.063676,42.350248],[-71.063774,42.349949],[-71.063894,42.349962],[-71.064168,42.350256]],[[-71.063759,42.35112],[-71.063633,42.351106],[-71.063661,42.351028],[-71.063759,42.35112]],[[-71.063563,42.351624],[-71.062959,42.351554],[-71.06297,42.351514],[-71.062987,42.35153],[-71.063471,42.351594],[-71.063514,42.351593],[-71.063517,42.351581],[-71.063563,42.351624]],[[-71.063561,42.34904],[-71.063133,42.348973],[-71.063042,42.348892],[-71.062892,42.34885],[-71.063537,42.348947],[-71.063561,42.34904]],[[-71.063201,42.353422],[-71.063197,42.35351],[-71.063095,42.353414],[-71.063201,42.353422]],[[-71.063103,42.348324],[-71.062875,42.34829],[-71.062889,42.348238],[-71.062954,42.3483],[-71.063103,42.348324]],[[-71.063028,42.349615],[-71.062592,42.349443],[-71.062574,42.349455],[-71.062305,42.349334],[-71.062233,42.349284],[-71.062169,42.349306],[-71.062155,42.349337],[-71.062166,42.349359],[-71.062139,42.349425],[-71.061975,42.34927],[-71.061857,42.349244],[-71.061902,42.349127],[-71.061942,42.349135],[-71.062059,42.348884],[-71.061937,42.34877],[-71.062014,42.348579],[-71.062278,42.34864],[-71.0623,42.34859],[-71.062365,42.348604],[-71.062472,42.348329],[-71.062416,42.348276],[-71.062579,42.348313],[-71.062448,42.348644],[-71.062572,42.348761],[-71.062425,42.348727],[-71.062236,42.349176],[-71.062399,42.34933],[-71.062549,42.349407],[-71.062614,42.349427],[-71.062647,42.34941],[-71.062806,42.349491],[-71.062818,42.349485],[-71.062888,42.349551],[-71.063028,42.349615]],[[-71.063008,42.351132],[-71.062997,42.351169],[-71.062972,42.351145],[-71.062998,42.351122],[-71.063008,42.351132]],[[-71.062982,42.355045],[-71.062597,42.354872],[-71.062617,42.354851],[-71.062856,42.354965],[-71.062876,42.354946],[-71.062982,42.355045]],[[-71.062962,42.353398],[-71.06272,42.353391],[-71.062694,42.353422],[-71.062575,42.353311],[-71.062656,42.353307],[-71.062691,42.35328],[-71.062696,42.353171],[-71.062909,42.353371],[-71.062962,42.353398]],[[-71.062866,42.351694],[-71.062841,42.351818],[-71.062678,42.351664],[-71.062604,42.351638],[-71.062616,42.351628],[-71.062866,42.351694]],[[-71.062866,42.348166],[-71.062855,42.348205],[-71.062798,42.348151],[-71.062866,42.348166]],[[-71.062741,42.34827],[-71.062728,42.348268],[-71.062731,42.34826],[-71.062741,42.34827]],[[-71.062735,42.350198],[-71.062731,42.350212],[-71.062699,42.350182],[-71.062735,42.350198]],[[-71.062598,42.351001],[-71.062529,42.350988],[-71.062552,42.350958],[-71.062598,42.351001]],[[-71.062569,42.350067],[-71.06238,42.349984],[-71.062428,42.349876],[-71.062531,42.349831],[-71.062445,42.349947],[-71.062569,42.350067]],[[-71.062405,42.351594],[-71.062316,42.351575],[-71.062306,42.351501],[-71.062405,42.351594]],[[-71.062364,42.351083],[-71.062295,42.351065],[-71.062122,42.350902],[-71.062297,42.350946],[-71.062278,42.351002],[-71.062364,42.351083]],[[-71.062328,42.354753],[-71.062217,42.354875],[-71.062194,42.354867],[-71.062224,42.354864],[-71.06231,42.354769],[-71.062258,42.35472],[-71.062328,42.354753]],[[-71.062243,42.348237],[-71.062165,42.348433],[-71.06208,42.348413],[-71.06214,42.348265],[-71.062127,42.348242],[-71.062147,42.348196],[-71.062174,42.348221],[-71.062243,42.348237]],[[-71.0622,42.353965],[-71.062145,42.354025],[-71.062033,42.353919],[-71.061316,42.353581],[-71.061288,42.353611],[-71.061166,42.353496],[-71.06071,42.353273],[-71.060695,42.353272],[-71.060369,42.353622],[-71.060359,42.353553],[-71.060298,42.353495],[-71.06038,42.353447],[-71.060419,42.353467],[-71.060534,42.353344],[-71.060325,42.353148],[-71.060257,42.353113],[-71.060156,42.353018],[-71.059996,42.352935],[-71.059959,42.352701],[-71.059928,42.352672],[-71.059956,42.352674],[-71.059923,42.352456],[-71.05987,42.352405],[-71.059849,42.352271],[-71.059877,42.352266],[-71.059862,42.352162],[-71.059978,42.352271],[-71.060124,42.35226],[-71.060161,42.352505],[-71.060305,42.35264],[-71.060188,42.352643],[-71.060197,42.35274],[-71.060285,42.352809],[-71.060268,42.352864],[-71.060458,42.353042],[-71.060889,42.353254],[-71.060913,42.353227],[-71.061148,42.353449],[-71.061615,42.353678],[-71.061662,42.353594],[-71.061896,42.353814],[-71.0622,42.353965]],[[-71.062172,42.351119],[-71.06216,42.351108],[-71.06217,42.35111],[-71.062172,42.351119]],[[-71.062095,42.35251],[-71.062088,42.35251],[-71.062087,42.352502],[-71.062095,42.35251]],[[-71.062057,42.354601],[-71.062047,42.354612],[-71.061986,42.354554],[-71.061921,42.354519],[-71.061941,42.354501],[-71.062057,42.354601]],[[-71.061999,42.350866],[-71.061597,42.350765],[-71.061565,42.350845],[-71.061639,42.350915],[-71.061545,42.350895],[-71.061462,42.35114],[-71.061448,42.351138],[-71.061407,42.35124],[-71.061227,42.351071],[-71.060769,42.350979],[-71.060712,42.351094],[-71.060723,42.351047],[-71.060697,42.351022],[-71.060741,42.35091],[-71.060716,42.350886],[-71.060744,42.350816],[-71.060918,42.350854],[-71.060953,42.350883],[-71.061169,42.35093],[-71.061292,42.350916],[-71.061308,42.350931],[-71.061439,42.350957],[-71.061471,42.350851],[-71.06136,42.350735],[-71.061258,42.350678],[-71.061277,42.350631],[-71.061749,42.350743],[-71.061783,42.350663],[-71.061999,42.350866]],[[-71.061886,42.352527],[-71.061487,42.352561],[-71.061498,42.352733],[-71.061451,42.352688],[-71.061466,42.352605],[-71.061226,42.352379],[-71.061215,42.352129],[-71.0612,42.352115],[-71.06124,42.35211],[-71.061237,42.35209],[-71.061272,42.352085],[-71.061261,42.35201],[-71.061373,42.351987],[-71.061354,42.351861],[-71.061384,42.351889],[-71.061359,42.35189],[-71.061394,42.352062],[-71.061545,42.352204],[-71.0617,42.352196],[-71.061691,42.35212],[-71.061714,42.352119],[-71.061723,42.35216],[-71.06178,42.352214],[-71.061723,42.352231],[-71.061761,42.35241],[-71.061886,42.352527]],[[-71.061543,42.349037],[-71.061534,42.349041],[-71.061538,42.34903],[-71.061543,42.349037]],[[-71.06152,42.351538],[-71.061313,42.351542],[-71.061371,42.351397],[-71.06152,42.351538]],[[-71.061503,42.349124],[-71.061484,42.349135],[-71.061442,42.349239],[-71.061468,42.349171],[-71.061449,42.349153],[-71.061469,42.349103],[-71.0615,42.349097],[-71.061503,42.349124]],[[-71.061347,42.351833],[-71.061045,42.351548],[-71.06127,42.351597],[-71.061296,42.351587],[-71.061347,42.351833]],[[-71.061233,42.349352],[-71.061103,42.3493],[-71.061009,42.349209],[-71.061049,42.34921],[-71.061233,42.349352]],[[-71.060892,42.350636],[-71.06088,42.350665],[-71.060826,42.350614],[-71.060884,42.350621],[-71.060892,42.350636]],[[-71.060733,42.351769],[-71.060719,42.351755],[-71.06073,42.351757],[-71.060733,42.351769]],[[-71.060635,42.352262],[-71.0605,42.352135],[-71.060316,42.352167],[-71.060313,42.352243],[-71.060276,42.352208],[-71.060188,42.352215],[-71.060169,42.352073],[-71.060238,42.352139],[-71.060416,42.352131],[-71.060577,42.352079],[-71.060635,42.352262]],[[-71.060257,42.351834],[-71.060132,42.351853],[-71.060124,42.351802],[-71.060151,42.351799],[-71.060128,42.351658],[-71.060203,42.351658],[-71.060257,42.351834]],[[-71.058858,42.350443],[-71.058819,42.350539],[-71.058736,42.35046],[-71.058752,42.350419],[-71.058858,42.350443]],[[-71.058103,42.350879],[-71.058093,42.350911],[-71.058052,42.350873],[-71.057985,42.350857],[-71.058103,42.350879]],[[-71.057748,42.350802],[-71.057628,42.350774],[-71.057642,42.350703],[-71.057748,42.350802]],[[-71.057525,42.350784],[-71.057508,42.350868],[-71.057431,42.350796],[-71.057459,42.350768],[-71.057525,42.350784]],[[-71.057478,42.351627],[-71.057364,42.351609],[-71.057379,42.351534],[-71.057478,42.351627]],[[-71.05681,42.354753],[-71.056684,42.354762],[-71.05667,42.35469],[-71.056601,42.354625],[-71.056586,42.354543],[-71.05681,42.354753]],[[-71.056534,42.354953],[-71.056387,42.354815],[-71.056414,42.35484],[-71.056462,42.354826],[-71.056521,42.354882],[-71.056534,42.354953]],[[-71.055778,42.354032],[-71.055692,42.35407],[-71.055665,42.354045],[-71.055752,42.354009],[-71.055745,42.354001],[-71.055778,42.354032]],[[-71.055495,42.354163],[-71.055447,42.354192],[-71.055493,42.354161],[-71.055495,42.354163]]],[[[-71.066727,42.348758],[-71.066483,42.348529],[-71.066278,42.348505],[-71.066309,42.348359],[-71.065995,42.348062],[-71.065837,42.348044],[-71.065752,42.348444],[-71.065809,42.348499],[-71.065804,42.348522],[-71.06614,42.348838],[-71.066236,42.348849],[-71.06624,42.348825],[-71.066699,42.348878],[-71.066727,42.348758]]],[[[-71.066187,42.349559],[-71.066131,42.349461],[-71.066051,42.349385],[-71.065989,42.349405],[-71.066043,42.349503],[-71.066123,42.349579],[-71.066187,42.349559]]],[[[-71.065643,42.354421],[-71.065632,42.354392],[-71.065534,42.354305],[-71.065487,42.354301],[-71.065445,42.354332],[-71.06545,42.354366],[-71.065546,42.354455],[-71.065605,42.354461],[-71.065643,42.354421]]],[[[-71.065464,42.352912],[-71.065421,42.352871],[-71.065303,42.352844],[-71.065286,42.352891],[-71.065312,42.352972],[-71.065355,42.353013],[-71.065421,42.353027],[-71.065464,42.352912]]],[[[-71.064386,42.348297],[-71.064325,42.34824],[-71.064341,42.348182],[-71.064113,42.347947],[-71.063968,42.347919],[-71.063883,42.347989],[-71.063856,42.347985],[-71.063829,42.348081],[-71.063888,42.348157],[-71.063642,42.348116],[-71.06369,42.347945],[-71.063606,42.347866],[-71.06346,42.347843],[-71.063365,42.348193],[-71.063471,42.348293],[-71.064125,42.34839],[-71.064152,42.348416],[-71.064271,42.348433],[-71.064286,42.348381],[-71.06436,42.348392],[-71.064386,42.348297]]],[[[-71.06172,42.352483],[-71.0617,42.35237],[-71.061625,42.3523],[-71.061514,42.352311],[-71.061454,42.352351],[-71.061467,42.35243],[-71.061542,42.3525],[-71.06172,42.352483]]],[[[-71.059364,42.34977],[-71.059318,42.349726],[-71.059179,42.349693],[-71.059105,42.349866],[-71.059151,42.349909],[-71.05929,42.349942],[-71.059364,42.34977]]],[[[-71.058484,42.349095],[-71.058071,42.348706],[-71.057613,42.348605],[-71.057529,42.348814],[-71.057942,42.349203],[-71.058401,42.349304],[-71.058484,42.349095]]],[[[-71.05697,42.349427],[-71.05693,42.349389],[-71.056938,42.349352],[-71.056775,42.349199],[-71.056596,42.349149],[-71.055736,42.349395],[-71.056838,42.347749],[-71.056828,42.34769],[-71.056673,42.347544],[-71.055908,42.347262],[-71.054533,42.349309],[-71.054519,42.349436],[-71.054447,42.34941],[-71.053477,42.350853],[-71.053741,42.351101],[-71.054322,42.351316],[-71.054389,42.35123],[-71.054407,42.351237],[-71.055132,42.350166],[-71.055025,42.350377],[-71.055188,42.35053],[-71.05555,42.350803],[-71.055633,42.350836],[-71.055749,42.350856],[-71.056317,42.350842],[-71.056401,42.350826],[-71.056414,42.350801],[-71.056469,42.350782],[-71.056487,42.350745],[-71.05651,42.350615],[-71.056798,42.349935],[-71.056873,42.349626],[-71.05697,42.349427]]],[[[-71.056018,42.351856],[-71.055768,42.35162],[-71.055498,42.351545],[-71.054479,42.351779],[-71.054307,42.351954],[-71.054557,42.35219],[-71.054609,42.352218],[-71.055083,42.352468],[-71.055243,42.352519],[-71.055411,42.352544],[-71.055588,42.352504],[-71.055708,42.352414],[-71.055799,42.352305],[-71.056018,42.351856]]]]},"properties":{"kind":"building"}},{"type":"Feature","geometry":{"type":"MultiPolygon","coordinates":[[[[-71.066215,42.353599],[-71.066204,42.353558],[-71.066019,42.353379],[-71.066042,42.353335],[-71.066035,42.353309],[-71.06598,42.353254],[-71.06609,42.35326],[-71.066155,42.353212],[-71.066164,42.353178],[-71.066138,42.353125],[-71.066181,42.353089],[-71.066189,42.353021],[-71.066178,42.35298],[-71.065989,42.352797],[-71.065886,42.352765],[-71.0658,42.352788],[-71.065746,42.352714],[-71.065793,42.352727],[-71.065846,42.352711],[-71.065917,42.352743],[-71.06598,42.352716],[-71.066024,42.352747],[-71.066105,42.352735],[-71.066121,42.352717],[-71.066121,42.352675],[-71.065976,42.352546],[-71.065918,42.352546],[-71.065885,42.352569],[-71.065841,42.352538],[-71.065759,42.35255],[-71.065688,42.352518],[-71.065619,42.352552],[-71.065613,42.352573],[-71.065634,42.35261],[-71.065574,42.352593],[-71.065516,42.352609],[-71.065401,42.352516],[-71.065321,42.352516],[-71.065288,42.352533],[-71.065257,42.352587],[-71.065288,42.352641],[-71.06542,42.352766],[-71.065454,42.352783],[-71.06552,42.352785],[-71.065472,42.352821],[-71.065472,42.352877],[-71.065511,42.352917],[-71.065463,42.35295],[-71.065463,42.352996],[-71.065408,42.353037],[-71.065408,42.353095],[-71.06544,42.353129],[-71.065407,42.353143],[-71.065332,42.353057],[-71.065343,42.353024],[-71.065263,42.352948],[-71.065256,42.352914],[-71.06529,42.352886],[-71.06529,42.352853],[-71.065192,42.352759],[-71.065229,42.352728],[-71.065229,42.352673],[-71.065049,42.352515],[-71.064975,42.352515],[-71.064922,42.352553],[-71.064922,42.352609],[-71.065096,42.352764],[-71.065088,42.352785],[-71.065105,42.352816],[-71.065081,42.352852],[-71.065094,42.352876],[-71.065032,42.352908],[-71.065032,42.352948],[-71.065291,42.35318],[-71.065365,42.353191],[-71.065374,42.353232],[-71.065321,42.353203],[-71.065265,42.353195],[-71.065197,42.353132],[-71.065165,42.353122],[-71.065133,42.353132],[-71.06512,42.353156],[-71.065176,42.35322],[-71.065152,42.353238],[-71.065096,42.353185],[-71.065038,42.353164],[-71.06483,42.352952],[-71.064791,42.352933],[-71.064699,42.352933],[-71.064634,42.352981],[-71.064625,42.353015],[-71.064656,42.353073],[-71.064658,42.353148],[-71.064777,42.353265],[-71.064757,42.353275],[-71.064659,42.353241],[-71.064581,42.353265],[-71.064549,42.353323],[-71.064557,42.353354],[-71.064677,42.353471],[-71.064592,42.353467],[-71.064538,42.353508],[-71.06453,42.353536],[-71.06456,42.353589],[-71.064722,42.353727],[-71.064799,42.353727],[-71.064832,42.353711],[-71.064861,42.353658],[-71.064854,42.35363],[-71.064745,42.353524],[-71.06484,42.353529],[-71.064884,42.353503],[-71.064998,42.353612],[-71.065076,42.353623],[-71.06512,42.353574],[-71.065232,42.35368],[-71.065272,42.353699],[-71.065366,42.353699],[-71.065425,42.353659],[-71.065431,42.353682],[-71.065578,42.353835],[-71.065528,42.353831],[-71.0655,42.353851],[-71.065396,42.353753],[-71.065348,42.353739],[-71.065285,42.35377],[-71.065285,42.353808],[-71.065399,42.353918],[-71.065437,42.353931],[-71.065486,42.353978],[-71.065525,42.35399],[-71.065576,42.353964],[-71.065595,42.353972],[-71.06571,42.354091],[-71.065745,42.354102],[-71.065779,42.354091],[-71.06579,42.354052],[-71.06583,42.35404],[-71.065841,42.354001],[-71.065749,42.353914],[-71.065715,42.353903],[-71.065673,42.353922],[-71.065623,42.353875],[-71.065679,42.353881],[-71.065711,42.353857],[-71.065711,42.353824],[-71.065643,42.353758],[-71.065709,42.353732],[-71.06574,42.353697],[-71.065751,42.353656],[-71.06574,42.353615],[-71.065567,42.353447],[-71.065546,42.353397],[-71.065616,42.353417],[-71.065694,42.353393],[-71.065771,42.353322],[-71.065775,42.353284],[-71.065849,42.353355],[-71.065777,42.35341],[-71.065766,42.353451],[-71.065777,42.353492],[-71.065966,42.353675],[-71.066069,42.353707],[-71.066125,42.353699],[-71.066173,42.353675],[-71.066204,42.35364],[-71.066215,42.353599]],[[-71.065588,42.352781],[-71.065538,42.352781],[-71.065567,42.352766],[-71.065588,42.352781]],[[-71.065069,42.353422],[-71.065049,42.35349],[-71.064975,42.35343],[-71.064976,42.353388],[-71.064952,42.353363],[-71.064999,42.353356],[-71.065069,42.353422]]],[[[-71.066145,42.355065],[-71.066125,42.35503],[-71.066004,42.354925],[-71.065952,42.354925],[-71.065915,42.354953],[-71.065915,42.354991],[-71.066051,42.355112],[-71.066103,42.355112],[-71.066145,42.355065]]],[[[-71.066092,42.354128],[-71.066009,42.354041],[-71.065966,42.354034],[-71.065945,42.35405],[-71.065945,42.354072],[-71.066025,42.354149],[-71.066068,42.354155],[-71.066092,42.354128]]],[[[-71.066026,42.354199],[-71.066009,42.354177],[-71.066015,42.354143],[-71.065923,42.354056],[-71.06587,42.354048],[-71.065844,42.354067],[-71.065844,42.354095],[-71.065935,42.354182],[-71.066003,42.354216],[-71.066026,42.354199]]],[[[-71.066022,42.354616],[-71.065984,42.354548],[-71.065827,42.3544],[-71.065785,42.354379],[-71.065685,42.354379],[-71.065615,42.354431],[-71.065615,42.354505],[-71.065801,42.354684],[-71.065843,42.354705],[-71.065942,42.354705],[-71.065984,42.354684],[-71.066022,42.354616]]],[[[-71.065926,42.348128],[-71.065907,42.348095],[-71.06579,42.347994],[-71.06574,42.347994],[-71.065705,42.34802],[-71.065705,42.348056],[-71.065836,42.348173],[-71.065886,42.348173],[-71.065926,42.348128]]],[[[-71.065877,42.348262],[-71.065774,42.348151],[-71.065714,42.348142],[-71.065684,42.348164],[-71.065684,42.348196],[-71.065783,42.348291],[-71.065843,42.348299],[-71.065877,42.348262]]],[[[-71.065834,42.354985],[-71.065798,42.354921],[-71.065647,42.354779],[-71.065607,42.354759],[-71.065513,42.354759],[-71.065444,42.354711],[-71.065392,42.354711],[-71.065327,42.354655],[-71.065232,42.354615],[-71.065153,42.354624],[-71.065115,42.354589],[-71.065155,42.354563],[-71.065155,42.354528],[-71.065049,42.354426],[-71.064899,42.354414],[-71.064845,42.35443],[-71.064858,42.354377],[-71.064758,42.35428],[-71.064761,42.354217],[-71.064602,42.354063],[-71.06451,42.354042],[-71.064534,42.353992],[-71.06467,42.354122],[-71.064826,42.354151],[-71.064821,42.354184],[-71.064897,42.354257],[-71.064855,42.354279],[-71.064855,42.354309],[-71.06495,42.3544],[-71.064987,42.354411],[-71.065024,42.3544],[-71.065039,42.354373],[-71.064955,42.354281],[-71.064992,42.35426],[-71.064992,42.354232],[-71.064885,42.354137],[-71.064898,42.354098],[-71.064965,42.354125],[-71.065023,42.354107],[-71.06504,42.354088],[-71.06504,42.354042],[-71.064885,42.353905],[-71.064823,42.353905],[-71.064737,42.353847],[-71.06466,42.353855],[-71.064614,42.353813],[-71.064544,42.353797],[-71.06454,42.353782],[-71.064574,42.353749],[-71.064574,42.353712],[-71.064464,42.353606],[-71.064418,42.353592],[-71.064372,42.353606],[-71.064358,42.353658],[-71.064324,42.353692],[-71.064332,42.353737],[-71.064284,42.353761],[-71.064284,42.353793],[-71.064313,42.353822],[-71.064258,42.353857],[-71.064258,42.353905],[-71.064238,42.353945],[-71.0643,42.354024],[-71.064238,42.354041],[-71.064214,42.354083],[-71.06422,42.354106],[-71.064297,42.354181],[-71.064207,42.354121],[-71.064149,42.354121],[-71.064103,42.354172],[-71.064138,42.354223],[-71.064088,42.354236],[-71.064069,42.35427],[-71.064184,42.354394],[-71.064364,42.354531],[-71.064346,42.354562],[-71.064363,42.354593],[-71.064453,42.354677],[-71.064578,42.354738],[-71.064615,42.354727],[-71.064626,42.354685],[-71.06445,42.354536],[-71.064488,42.354526],[-71.064663,42.354662],[-71.064707,42.354662],[-71.064743,42.354622],[-71.064816,42.354653],[-71.064821,42.354687],[-71.064898,42.354762],[-71.064877,42.354779],[-71.064877,42.354811],[-71.064994,42.354914],[-71.065054,42.354906],[-71.06507,42.354877],[-71.065044,42.354839],[-71.06509,42.354822],[-71.065238,42.354928],[-71.065288,42.354943],[-71.065325,42.354934],[-71.065386,42.354981],[-71.065467,42.354969],[-71.065486,42.35492],[-71.065624,42.35505],[-71.065711,42.355076],[-71.065798,42.35505],[-71.065834,42.354985]],[[-71.065083,42.354704],[-71.065072,42.35471],[-71.064994,42.354636],[-71.065083,42.354704]],[[-71.06484,42.354434],[-71.06483,42.354445],[-71.064825,42.354441],[-71.06484,42.354434]],[[-71.064683,42.354372],[-71.064616,42.354356],[-71.064571,42.354378],[-71.064616,42.354497],[-71.064602,42.354495],[-71.064561,42.354456],[-71.064556,42.354391],[-71.064409,42.354247],[-71.064481,42.354211],[-71.064683,42.354372]]],[[[-71.065828,42.348531],[-71.065721,42.348415],[-71.06568,42.348403],[-71.065642,42.348414],[-71.06564,42.348386],[-71.065534,42.348284],[-71.065466,42.348274],[-71.065433,42.348299],[-71.065433,42.348333],[-71.065539,42.348436],[-71.065583,42.348449],[-71.065624,42.348437],[-71.065626,42.348463],[-71.065729,42.348561],[-71.065792,42.348571],[-71.065828,42.348531]]],[[[-71.065769,42.348332],[-71.065723,42.348283],[-71.065697,42.348283],[-71.065697,42.348303],[-71.065738,42.348341],[-71.065769,42.348332]]],[[[-71.065636,42.348993],[-71.065593,42.348947],[-71.065567,42.348947],[-71.065567,42.348967],[-71.065605,42.349002],[-71.065636,42.348993]]],[[[-71.065635,42.351267],[-71.065583,42.351213],[-71.065557,42.351213],[-71.065557,42.351233],[-71.065604,42.351277],[-71.065635,42.351267]]],[[[-71.065629,42.349302],[-71.065529,42.349203],[-71.065491,42.349203],[-71.065465,42.349222],[-71.065465,42.34925],[-71.065561,42.349335],[-71.065599,42.349335],[-71.065629,42.349302]]],[[[-71.0656,42.34913],[-71.065557,42.349084],[-71.065531,42.349084],[-71.065531,42.349104],[-71.065569,42.349139],[-71.0656,42.34913]]],[[[-71.065589,42.348149],[-71.065543,42.3481],[-71.065517,42.3481],[-71.065517,42.34812],[-71.065558,42.348158],[-71.065589,42.348149]]],[[[-71.065539,42.348499],[-71.065476,42.348434],[-71.065444,42.348434],[-71.065444,42.348458],[-71.0655,42.348511],[-71.065539,42.348499]]],[[[-71.065503,42.348856],[-71.065403,42.348757],[-71.065365,42.348757],[-71.065339,42.348776],[-71.065339,42.348804],[-71.065435,42.348889],[-71.065473,42.348889],[-71.065503,42.348856]]],[[[-71.065476,42.35406],[-71.065457,42.354027],[-71.065269,42.35386],[-71.065201,42.35385],[-71.065168,42.353875],[-71.065168,42.353909],[-71.065365,42.354094],[-71.065436,42.354105],[-71.065476,42.35406]]],[[[-71.065464,42.349005],[-71.065385,42.348921],[-71.065346,42.348916],[-71.065327,42.34893],[-71.065327,42.34895],[-71.065403,42.349023],[-71.065442,42.349029],[-71.065464,42.349005]]],[[[-71.06546,42.349146],[-71.065364,42.349045],[-71.065311,42.349037],[-71.065285,42.349056],[-71.065285,42.349084],[-71.065376,42.349171],[-71.065429,42.349179],[-71.06546,42.349146]]],[[[-71.065412,42.351252],[-71.065363,42.3512],[-71.065337,42.3512],[-71.065337,42.35122],[-71.065381,42.351261],[-71.065412,42.351252]]],[[[-71.065338,42.354149],[-71.065142,42.353957],[-71.065071,42.353947],[-71.065036,42.353973],[-71.06505,42.354025],[-71.065239,42.354179],[-71.065302,42.354189],[-71.065338,42.354149]]],[[[-71.065309,42.351249],[-71.065263,42.3512],[-71.065237,42.3512],[-71.065237,42.35122],[-71.065278,42.351258],[-71.065309,42.351249]]],[[[-71.065235,42.350776],[-71.065168,42.350706],[-71.065126,42.350713],[-71.065191,42.350789],[-71.065219,42.350794],[-71.065235,42.350776]]],[[[-71.06521,42.35084],[-71.065143,42.35077],[-71.065101,42.350777],[-71.065166,42.350853],[-71.065194,42.350858],[-71.06521,42.35084]]],[[[-71.065189,42.354264],[-71.065082,42.354148],[-71.065019,42.354139],[-71.064987,42.354162],[-71.064987,42.354196],[-71.06509,42.354294],[-71.065153,42.354304],[-71.065189,42.354264]]],[[[-71.065183,42.350903],[-71.065124,42.350843],[-71.065096,42.350843],[-71.065096,42.350863],[-71.06515,42.350913],[-71.065183,42.350903]]],[[[-71.065044,42.355111],[-71.065013,42.355057],[-71.064847,42.354915],[-71.064767,42.354915],[-71.064711,42.354957],[-71.064711,42.355015],[-71.0649,42.355182],[-71.06498,42.355182],[-71.065013,42.355165],[-71.065044,42.355111]]],[[[-71.064988,42.351352],[-71.064939,42.3513],[-71.064913,42.3513],[-71.064913,42.35132],[-71.064957,42.351361],[-71.064988,42.351352]]],[[[-71.064898,42.348495],[-71.064852,42.348446],[-71.064826,42.348446],[-71.064826,42.348466],[-71.064867,42.348504],[-71.064898,42.348495]]],[[[-71.06478,42.354836],[-71.064734,42.354787],[-71.064708,42.354787],[-71.064708,42.354807],[-71.064749,42.354845],[-71.06478,42.354836]]],[[[-71.064665,42.351865],[-71.064619,42.351816],[-71.064593,42.351816],[-71.064593,42.351836],[-71.064634,42.351874],[-71.064665,42.351865]]],[[[-71.064662,42.348464],[-71.064616,42.348415],[-71.06459,42.348415],[-71.06459,42.348435],[-71.064631,42.348473],[-71.064662,42.348464]]],[[[-71.064618,42.352154],[-71.064559,42.352094],[-71.064531,42.352094],[-71.064531,42.352114],[-71.064585,42.352164],[-71.064618,42.352154]]],[[[-71.064612,42.352097],[-71.064563,42.352045],[-71.064537,42.352045],[-71.064537,42.352065],[-71.064581,42.352106],[-71.064612,42.352097]]],[[[-71.064589,42.352199],[-71.064543,42.35215],[-71.064517,42.35215],[-71.064517,42.35217],[-71.064558,42.352208],[-71.064589,42.352199]]],[[[-71.064542,42.354777],[-71.064439,42.354666],[-71.064402,42.354655],[-71.064353,42.354608],[-71.064302,42.354599],[-71.064223,42.354524],[-71.064222,42.354481],[-71.064093,42.354357],[-71.064005,42.354344],[-71.063961,42.354376],[-71.063968,42.35443],[-71.063903,42.354482],[-71.063892,42.354523],[-71.063903,42.354564],[-71.064092,42.354747],[-71.064139,42.354771],[-71.06421,42.354777],[-71.064355,42.354915],[-71.064405,42.35493],[-71.064456,42.354915],[-71.064471,42.354897],[-71.064471,42.354857],[-71.064354,42.354744],[-71.064314,42.35473],[-71.06433,42.354712],[-71.064466,42.354814],[-71.064508,42.354814],[-71.064542,42.354777]]],[[[-71.064477,42.348438],[-71.064431,42.348389],[-71.064405,42.348389],[-71.064405,42.348409],[-71.064446,42.348447],[-71.064477,42.348438]]],[[[-71.064279,42.350964],[-71.064233,42.350915],[-71.064207,42.350915],[-71.064207,42.350935],[-71.064248,42.350973],[-71.064279,42.350964]]],[[[-71.064265,42.348773],[-71.064202,42.348708],[-71.06417,42.348708],[-71.06417,42.348732],[-71.064226,42.348785],[-71.064265,42.348773]]],[[[-71.064219,42.348887],[-71.064163,42.34883],[-71.064137,42.34883],[-71.064137,42.34885],[-71.064187,42.348897],[-71.064219,42.348887]]],[[[-71.064189,42.350953],[-71.064143,42.350904],[-71.064117,42.350904],[-71.064117,42.350924],[-71.064158,42.350962],[-71.064189,42.350953]]],[[[-71.064148,42.350976],[-71.064073,42.350897],[-71.064038,42.350892],[-71.06402,42.350905],[-71.06402,42.350923],[-71.064093,42.350993],[-71.064128,42.350998],[-71.064148,42.350976]]],[[[-71.064139,42.353347],[-71.064083,42.35329],[-71.064057,42.35329],[-71.064057,42.35331],[-71.064107,42.353357],[-71.064139,42.353347]]],[[[-71.064103,42.35344],[-71.064044,42.35338],[-71.064016,42.35338],[-71.064016,42.3534],[-71.06407,42.35345],[-71.064103,42.35344]]],[[[-71.064077,42.354815],[-71.064052,42.354771],[-71.063938,42.354663],[-71.063878,42.354645],[-71.063818,42.354663],[-71.0638,42.354683],[-71.063799,42.354727],[-71.063772,42.354739],[-71.063749,42.35478],[-71.063772,42.354821],[-71.06388,42.354923],[-71.063935,42.354939],[-71.06399,42.354923],[-71.064077,42.354815]]],[[[-71.064064,42.35333],[-71.064008,42.353273],[-71.063982,42.353273],[-71.063982,42.353293],[-71.064032,42.35334],[-71.064064,42.35333]]],[[[-71.064049,42.353807],[-71.063993,42.35375],[-71.063967,42.35375],[-71.063967,42.35377],[-71.064017,42.353817],[-71.064049,42.353807]]],[[[-71.064045,42.35097],[-71.063962,42.350883],[-71.063919,42.350876],[-71.063898,42.350892],[-71.063898,42.350914],[-71.063978,42.350991],[-71.064021,42.350997],[-71.064045,42.35097]]],[[[-71.064038,42.353436],[-71.063979,42.353376],[-71.063946,42.353386],[-71.06391,42.353361],[-71.063892,42.353374],[-71.063947,42.353431],[-71.063978,42.353422],[-71.064018,42.353451],[-71.064038,42.353436]]],[[[-71.063999,42.353321],[-71.063936,42.353256],[-71.063904,42.353256],[-71.063904,42.35328],[-71.06396,42.353333],[-71.063999,42.353321]]],[[[-71.063988,42.354029],[-71.063913,42.35395],[-71.063878,42.353945],[-71.06386,42.353958],[-71.06386,42.353976],[-71.063933,42.354046],[-71.063968,42.354051],[-71.063988,42.354029]]],[[[-71.063969,42.348725],[-71.06391,42.348665],[-71.063882,42.348665],[-71.063882,42.348685],[-71.063936,42.348735],[-71.063969,42.348725]]],[[[-71.063949,42.348796],[-71.063886,42.348731],[-71.063854,42.348731],[-71.063854,42.348755],[-71.06391,42.348808],[-71.063949,42.348796]]],[[[-71.063933,42.34892],[-71.063874,42.34886],[-71.063846,42.34886],[-71.063846,42.34888],[-71.0639,42.34893],[-71.063933,42.34892]]],[[[-71.063914,42.348832],[-71.063868,42.348783],[-71.063842,42.348783],[-71.063842,42.348803],[-71.063883,42.348841],[-71.063914,42.348832]]],[[[-71.063875,42.354176],[-71.063808,42.354106],[-71.063766,42.354113],[-71.063831,42.354189],[-71.063859,42.354194],[-71.063875,42.354176]]],[[[-71.063862,42.349187],[-71.063816,42.349138],[-71.06379,42.349138],[-71.06379,42.349158],[-71.063831,42.349196],[-71.063862,42.349187]]],[[[-71.063849,42.348466],[-71.063803,42.348417],[-71.063777,42.348417],[-71.063777,42.348437],[-71.063818,42.348475],[-71.063849,42.348466]]],[[[-71.063809,42.349332],[-71.063763,42.349283],[-71.063737,42.349283],[-71.063737,42.349303],[-71.063778,42.349341],[-71.063809,42.349332]]],[[[-71.063796,42.349374],[-71.06375,42.349325],[-71.063724,42.349325],[-71.063724,42.349345],[-71.063765,42.349383],[-71.063796,42.349374]]],[[[-71.063773,42.350945],[-71.063698,42.350866],[-71.063663,42.350861],[-71.063645,42.350874],[-71.063645,42.350892],[-71.063718,42.350962],[-71.063753,42.350967],[-71.063773,42.350945]]],[[[-71.063759,42.348449],[-71.063713,42.3484],[-71.063687,42.3484],[-71.063687,42.34842],[-71.063728,42.348458],[-71.063759,42.348449]]],[[[-71.063743,42.34981],[-71.063684,42.34975],[-71.063656,42.34975],[-71.063656,42.34977],[-71.06371,42.34982],[-71.063743,42.34981]]],[[[-71.063683,42.349901],[-71.063627,42.349844],[-71.063601,42.349844],[-71.063601,42.349864],[-71.063651,42.349911],[-71.063683,42.349901]]],[[[-71.063669,42.350929],[-71.063606,42.350864],[-71.063567,42.350876],[-71.06352,42.350845],[-71.063496,42.350857],[-71.063561,42.350933],[-71.063589,42.350938],[-71.063604,42.350917],[-71.063646,42.350946],[-71.063669,42.350929]]],[[[-71.063639,42.354766],[-71.063539,42.354667],[-71.063501,42.354667],[-71.063475,42.354686],[-71.063475,42.354714],[-71.063571,42.354799],[-71.063609,42.354799],[-71.063639,42.354766]]],[[[-71.063633,42.35],[-71.063574,42.34994],[-71.063546,42.34994],[-71.063546,42.34996],[-71.0636,42.35001],[-71.063633,42.35]]],[[[-71.063599,42.350047],[-71.063543,42.34999],[-71.063517,42.34999],[-71.063517,42.35001],[-71.063567,42.350057],[-71.063599,42.350047]]],[[[-71.063579,42.354866],[-71.063479,42.354767],[-71.063441,42.354767],[-71.063415,42.354786],[-71.063415,42.354814],[-71.063511,42.354899],[-71.063549,42.354899],[-71.063579,42.354866]]],[[[-71.063509,42.350465],[-71.063453,42.350408],[-71.063427,42.350408],[-71.063427,42.350428],[-71.063477,42.350475],[-71.063509,42.350465]]],[[[-71.063505,42.350224],[-71.063453,42.35017],[-71.063427,42.35017],[-71.063427,42.35019],[-71.063474,42.350234],[-71.063505,42.350224]]],[[[-71.063481,42.350531],[-71.063429,42.350477],[-71.063403,42.350477],[-71.063403,42.350497],[-71.06345,42.350541],[-71.063481,42.350531]]],[[[-71.063475,42.35029],[-71.063423,42.350236],[-71.063397,42.350236],[-71.063397,42.350256],[-71.063444,42.3503],[-71.063475,42.35029]]],[[[-71.06345,42.350324],[-71.063398,42.35027],[-71.063372,42.35027],[-71.063372,42.35029],[-71.063419,42.350334],[-71.06345,42.350324]]],[[[-71.063447,42.350592],[-71.063398,42.35054],[-71.063372,42.35054],[-71.063372,42.35056],[-71.063416,42.350601],[-71.063447,42.350592]]],[[[-71.063446,42.350824],[-71.063391,42.350765],[-71.063417,42.350764],[-71.063417,42.350744],[-71.063364,42.350694],[-71.063336,42.350694],[-71.063336,42.350714],[-71.063373,42.350749],[-71.063343,42.350745],[-71.063325,42.350765],[-71.063362,42.350807],[-71.063336,42.350819],[-71.063336,42.350833],[-71.063419,42.350901],[-71.063443,42.350875],[-71.063413,42.350845],[-71.063446,42.350824]]],[[[-71.063412,42.350652],[-71.063363,42.3506],[-71.063337,42.3506],[-71.063337,42.35062],[-71.063381,42.350661],[-71.063412,42.350652]]],[[[-71.063372,42.350482],[-71.063323,42.35043],[-71.063297,42.35043],[-71.063297,42.35045],[-71.063341,42.350491],[-71.063372,42.350482]]],[[[-71.063345,42.350527],[-71.063293,42.350473],[-71.063267,42.350473],[-71.063267,42.350493],[-71.063314,42.350537],[-71.063345,42.350527]]],[[[-71.06332,42.35058],[-71.063268,42.350526],[-71.063242,42.350526],[-71.063242,42.350546],[-71.063289,42.35059],[-71.06332,42.35058]]],[[[-71.063299,42.350629],[-71.063243,42.350572],[-71.063217,42.350572],[-71.063217,42.350592],[-71.063267,42.350639],[-71.063299,42.350629]]],[[[-71.063279,42.350677],[-71.063223,42.35062],[-71.063197,42.35062],[-71.063197,42.35064],[-71.063247,42.350687],[-71.063279,42.350677]]],[[[-71.063236,42.350713],[-71.063193,42.350667],[-71.063167,42.350667],[-71.063167,42.350687],[-71.063205,42.350722],[-71.063236,42.350713]]],[[[-71.063225,42.350771],[-71.063173,42.350717],[-71.063147,42.350717],[-71.063147,42.350737],[-71.063194,42.350781],[-71.063225,42.350771]]],[[[-71.063203,42.350815],[-71.063144,42.350755],[-71.063116,42.350755],[-71.063116,42.350775],[-71.06317,42.350825],[-71.063203,42.350815]]],[[[-71.063188,42.35228],[-71.063139,42.352228],[-71.063113,42.352228],[-71.063113,42.352248],[-71.063157,42.352289],[-71.063188,42.35228]]],[[[-71.063127,42.352292],[-71.063078,42.35224],[-71.063052,42.35224],[-71.063052,42.35226],[-71.063096,42.352301],[-71.063127,42.352292]]],[[[-71.063027,42.352295],[-71.062978,42.352243],[-71.062891,42.35221],[-71.062891,42.35223],[-71.062938,42.352274],[-71.062964,42.352274],[-71.063009,42.352308],[-71.063027,42.352295]]],[[[-71.062892,42.352257],[-71.062843,42.352205],[-71.062817,42.352205],[-71.062817,42.352225],[-71.062861,42.352266],[-71.062892,42.352257]]],[[[-71.062883,42.353352],[-71.062824,42.353292],[-71.062796,42.353292],[-71.062796,42.353312],[-71.06285,42.353362],[-71.062883,42.353352]]],[[[-71.062883,42.353264],[-71.062824,42.353204],[-71.062796,42.353204],[-71.062796,42.353224],[-71.06285,42.353274],[-71.062883,42.353264]]],[[[-71.062819,42.353359],[-71.062756,42.353294],[-71.062724,42.353294],[-71.062724,42.353318],[-71.06278,42.353371],[-71.062819,42.353359]]],[[[-71.062817,42.353257],[-71.062758,42.353197],[-71.06273,42.353197],[-71.06273,42.353217],[-71.062784,42.353267],[-71.062817,42.353257]]],[[[-71.062622,42.348413],[-71.062551,42.348339],[-71.062509,42.348339],[-71.062509,42.348369],[-71.062572,42.348428],[-71.062604,42.348433],[-71.062622,42.348413]]],[[[-71.062571,42.349443],[-71.062484,42.349351],[-71.062438,42.349344],[-71.062366,42.349294],[-71.062311,42.349311],[-71.062311,42.349335],[-71.062395,42.349415],[-71.062441,42.349422],[-71.062513,42.349472],[-71.062545,42.349472],[-71.062571,42.349443]]],[[[-71.062519,42.34861],[-71.062456,42.348545],[-71.062424,42.348545],[-71.062424,42.348569],[-71.06248,42.348622],[-71.062519,42.34861]]],[[[-71.062481,42.34844],[-71.062398,42.348353],[-71.062355,42.348346],[-71.062334,42.348362],[-71.062334,42.348384],[-71.062414,42.348461],[-71.062457,42.348467],[-71.062481,42.34844]]],[[[-71.062093,42.353802],[-71.062034,42.353742],[-71.062006,42.353742],[-71.062006,42.353762],[-71.06206,42.353812],[-71.062093,42.353802]]],[[[-71.062047,42.349345],[-71.062001,42.349296],[-71.061975,42.349296],[-71.061975,42.349316],[-71.062016,42.349354],[-71.062047,42.349345]]],[[[-71.062029,42.353899],[-71.061983,42.35385],[-71.061952,42.35386],[-71.06189,42.353811],[-71.061871,42.353825],[-71.06193,42.353885],[-71.061963,42.353875],[-71.062011,42.353912],[-71.062029,42.353899]]],[[[-71.062011,42.349614],[-71.061911,42.349515],[-71.061873,42.349515],[-71.061847,42.349534],[-71.061847,42.349562],[-71.061943,42.349647],[-71.061981,42.349647],[-71.062011,42.349614]]],[[[-71.061992,42.349477],[-71.061946,42.349428],[-71.06192,42.349428],[-71.06192,42.349448],[-71.061961,42.349486],[-71.061992,42.349477]]],[[[-71.061978,42.35375],[-71.061919,42.35369],[-71.061891,42.35369],[-71.061891,42.35371],[-71.061945,42.35376],[-71.061978,42.35375]]],[[[-71.061969,42.349919],[-71.061923,42.34987],[-71.061897,42.34987],[-71.061897,42.34989],[-71.061938,42.349928],[-71.061969,42.349919]]],[[[-71.061939,42.349965],[-71.061893,42.349916],[-71.061867,42.349916],[-71.061867,42.349936],[-71.061908,42.349974],[-71.061939,42.349965]]],[[[-71.061933,42.350039],[-71.061887,42.34999],[-71.061861,42.34999],[-71.061861,42.35001],[-71.061902,42.350048],[-71.061933,42.350039]]],[[[-71.061929,42.348385],[-71.061838,42.348288],[-71.061789,42.348281],[-71.061764,42.348299],[-71.061764,42.348325],[-71.061852,42.348409],[-71.061901,42.348416],[-71.061929,42.348385]]],[[[-71.061909,42.350083],[-71.061863,42.350034],[-71.061837,42.350034],[-71.061837,42.350054],[-71.061878,42.350092],[-71.061909,42.350083]]],[[[-71.061879,42.350119],[-71.061833,42.35007],[-71.061807,42.35007],[-71.061807,42.35009],[-71.061848,42.350128],[-71.061879,42.350119]]],[[[-71.061879,42.353703],[-71.061744,42.353582],[-71.06171,42.353571],[-71.061676,42.353582],[-71.06161,42.353537],[-71.061592,42.35355],[-71.061746,42.353698],[-71.06178,42.353709],[-71.061821,42.353691],[-71.061859,42.353718],[-71.061879,42.353703]]],[[[-71.061869,42.353822],[-71.061823,42.353773],[-71.061797,42.353773],[-71.061797,42.353793],[-71.061838,42.353831],[-71.061869,42.353822]]],[[[-71.061862,42.350191],[-71.061819,42.350145],[-71.061793,42.350145],[-71.061793,42.350165],[-71.061831,42.3502],[-71.061862,42.350191]]],[[[-71.061861,42.350359],[-71.061778,42.350272],[-71.06175,42.350263],[-71.061722,42.350272],[-71.061711,42.350292],[-71.061722,42.350312],[-71.061688,42.350322],[-71.061675,42.350346],[-71.061766,42.350443],[-71.061798,42.350453],[-71.06184,42.350432],[-71.061822,42.350388],[-71.061861,42.350359]]],[[[-71.061839,42.350239],[-71.061793,42.35019],[-71.061767,42.35019],[-71.061767,42.35021],[-71.061808,42.350248],[-71.061839,42.350239]]],[[[-71.061836,42.349732],[-71.061736,42.349633],[-71.061698,42.349633],[-71.061672,42.349652],[-71.061672,42.34968],[-71.061768,42.349765],[-71.061806,42.349765],[-71.061836,42.349732]]],[[[-71.061811,42.34846],[-71.061765,42.348411],[-71.061739,42.348411],[-71.061739,42.348431],[-71.06178,42.348469],[-71.061811,42.34846]]],[[[-71.061788,42.353777],[-71.061742,42.353728],[-71.061716,42.353728],[-71.061716,42.353748],[-71.061757,42.353786],[-71.061788,42.353777]]],[[[-71.061767,42.348718],[-71.06168,42.348626],[-71.061634,42.348619],[-71.061611,42.348636],[-71.061611,42.34866],[-71.061695,42.34874],[-71.061741,42.348747],[-71.061767,42.348718]]],[[[-71.061732,42.348379],[-71.061629,42.348268],[-71.061569,42.348259],[-71.061539,42.348281],[-71.061539,42.348313],[-71.061638,42.348408],[-71.061698,42.348416],[-71.061732,42.348379]]],[[[-71.061651,42.348876],[-71.061605,42.348827],[-71.061579,42.348827],[-71.061579,42.348847],[-71.06162,42.348885],[-71.061651,42.348876]]],[[[-71.061649,42.348539],[-71.061603,42.34849],[-71.061577,42.34849],[-71.061577,42.34851],[-71.061618,42.348548],[-71.061649,42.348539]]],[[[-71.061644,42.348228],[-71.061592,42.348174],[-71.061566,42.348174],[-71.061566,42.348194],[-71.061613,42.348238],[-71.061644,42.348228]]],[[[-71.061643,42.348743],[-71.061552,42.348646],[-71.061503,42.348639],[-71.061478,42.348657],[-71.061478,42.348683],[-71.061566,42.348767],[-71.061615,42.348774],[-71.061643,42.348743]]],[[[-71.061618,42.349634],[-71.061518,42.349535],[-71.061469,42.34954],[-71.061401,42.349498],[-71.061356,42.34952],[-71.061356,42.349548],[-71.061452,42.349633],[-71.061501,42.349627],[-71.061569,42.34967],[-71.061603,42.349659],[-71.061618,42.349634]]],[[[-71.061577,42.348924],[-71.06149,42.348832],[-71.061444,42.348825],[-71.061421,42.348842],[-71.061421,42.348866],[-71.061505,42.348946],[-71.061551,42.348953],[-71.061577,42.348924]]],[[[-71.061565,42.348238],[-71.061454,42.348118],[-71.061386,42.348108],[-71.061353,42.348133],[-71.061353,42.348167],[-71.061412,42.348225],[-71.06139,42.348239],[-71.06139,42.348257],[-71.061463,42.348327],[-71.061509,42.348327],[-71.061516,42.3483],[-71.061498,42.348282],[-71.061547,42.34827],[-71.061565,42.348238]]],[[[-71.061549,42.351003],[-71.061486,42.350938],[-71.061454,42.350938],[-71.061454,42.350962],[-71.06151,42.351015],[-71.061549,42.351003]]],[[[-71.061485,42.349299],[-71.061433,42.349245],[-71.061407,42.349245],[-71.061407,42.349265],[-71.061454,42.349309],[-71.061485,42.349299]]],[[[-71.061459,42.351161],[-71.061413,42.351112],[-71.061387,42.351112],[-71.061387,42.351132],[-71.061428,42.35117],[-71.061459,42.351161]]],[[[-71.061453,42.349102],[-71.061394,42.349042],[-71.061366,42.349042],[-71.061366,42.349062],[-71.06142,42.349112],[-71.061453,42.349102]]],[[[-71.061438,42.351219],[-71.061392,42.35117],[-71.061366,42.35117],[-71.061366,42.35119],[-71.061407,42.351228],[-71.061438,42.351219]]],[[[-71.061412,42.351279],[-71.061366,42.35123],[-71.06134,42.35123],[-71.06134,42.35125],[-71.061381,42.351288],[-71.061412,42.351279]]],[[[-71.061412,42.349287],[-71.061341,42.349213],[-71.061299,42.349213],[-71.061299,42.349243],[-71.061362,42.349302],[-71.061394,42.349307],[-71.061412,42.349287]]],[[[-71.061409,42.349469],[-71.061363,42.34942],[-71.061337,42.34942],[-71.061337,42.34944],[-71.061378,42.349478],[-71.061409,42.349469]]],[[[-71.061393,42.351328],[-71.061347,42.351279],[-71.061321,42.351279],[-71.061321,42.351299],[-71.061362,42.351337],[-71.061393,42.351328]]],[[[-71.061326,42.349672],[-71.061277,42.34962],[-71.061251,42.34962],[-71.061251,42.34964],[-71.061295,42.349681],[-71.061326,42.349672]]],[[[-71.061305,42.34972],[-71.061256,42.349668],[-71.06123,42.349668],[-71.06123,42.349688],[-71.061274,42.349729],[-71.061305,42.34972]]],[[[-71.061297,42.3499],[-71.06121,42.349808],[-71.061164,42.349801],[-71.061141,42.349818],[-71.061141,42.349842],[-71.061225,42.349922],[-71.061271,42.349929],[-71.061297,42.3499]]],[[[-71.061285,42.353409],[-71.061239,42.35336],[-71.061213,42.35336],[-71.06112,42.353307],[-71.061102,42.35332],[-71.061148,42.353368],[-71.061267,42.353422],[-71.061285,42.353409]]],[[[-71.061279,42.354813],[-71.061233,42.354764],[-71.061207,42.354764],[-71.061207,42.354784],[-71.061248,42.354822],[-71.061279,42.354813]]],[[[-71.06124,42.350109],[-71.061141,42.350003],[-71.061084,42.349995],[-71.061056,42.350015],[-71.061056,42.350045],[-71.061151,42.350136],[-71.061208,42.350144],[-71.06124,42.350109]]],[[[-71.061229,42.354955],[-71.061183,42.354906],[-71.061157,42.354906],[-71.061157,42.354926],[-71.061198,42.354964],[-71.061229,42.354955]]],[[[-71.061116,42.348681],[-71.061017,42.348575],[-71.06096,42.348567],[-71.060932,42.348587],[-71.060932,42.348617],[-71.061027,42.348708],[-71.061084,42.348716],[-71.061116,42.348681]]],[[[-71.061095,42.353319],[-71.061043,42.353265],[-71.061017,42.353265],[-71.061017,42.353285],[-71.061064,42.353329],[-71.061095,42.353319]]],[[[-71.061092,42.348799],[-71.060989,42.348688],[-71.060929,42.348679],[-71.060899,42.348701],[-71.060899,42.348733],[-71.060998,42.348828],[-71.061058,42.348836],[-71.061092,42.348799]]],[[[-71.061079,42.348529],[-71.061033,42.34848],[-71.061007,42.34848],[-71.061007,42.3485],[-71.061048,42.348538],[-71.061079,42.348529]]],[[[-71.061029,42.353402],[-71.060983,42.353353],[-71.060957,42.353353],[-71.060918,42.35332],[-71.060892,42.35332],[-71.060844,42.353289],[-71.060826,42.353302],[-71.060872,42.35335],[-71.060962,42.353381],[-71.060998,42.353411],[-71.061029,42.353402]]],[[[-71.061017,42.348897],[-71.06093,42.348805],[-71.060884,42.348798],[-71.060861,42.348815],[-71.060861,42.348839],[-71.060945,42.348919],[-71.060991,42.348926],[-71.061017,42.348897]]],[[[-71.060979,42.353259],[-71.060933,42.35321],[-71.060907,42.35321],[-71.060907,42.35323],[-71.060948,42.353268],[-71.060979,42.353259]]],[[[-71.06095,42.34927],[-71.060929,42.349233],[-71.060803,42.349125],[-71.060749,42.349125],[-71.06071,42.349154],[-71.06071,42.349194],[-71.060851,42.349319],[-71.060906,42.349319],[-71.06095,42.34927]]],[[[-71.060803,42.349456],[-71.060703,42.349357],[-71.060665,42.349357],[-71.060639,42.349376],[-71.060639,42.349404],[-71.060735,42.349489],[-71.060773,42.349489],[-71.060803,42.349456]]],[[[-71.060776,42.349582],[-71.06068,42.349481],[-71.060627,42.349473],[-71.060601,42.349492],[-71.060601,42.34952],[-71.060692,42.349607],[-71.060745,42.349615],[-71.060776,42.349582]]],[[[-71.06069,42.349746],[-71.060594,42.349645],[-71.060545,42.349636],[-71.060499,42.34959],[-71.060473,42.34959],[-71.060514,42.34966],[-71.06047,42.349627],[-71.060457,42.34965],[-71.060606,42.349771],[-71.060659,42.349779],[-71.06069,42.349746]]],[[[-71.060669,42.349299],[-71.060623,42.34925],[-71.060597,42.34925],[-71.060597,42.34927],[-71.060638,42.349308],[-71.060669,42.349299]]],[[[-71.060666,42.349871],[-71.060567,42.349765],[-71.06051,42.349757],[-71.060482,42.349777],[-71.060482,42.349807],[-71.060577,42.349898],[-71.060634,42.349906],[-71.060666,42.349871]]],[[[-71.060649,42.349339],[-71.060603,42.34929],[-71.060577,42.34929],[-71.060577,42.34931],[-71.060618,42.349348],[-71.060649,42.349339]]],[[[-71.060639,42.353079],[-71.060593,42.35303],[-71.060567,42.35303],[-71.060567,42.35305],[-71.060608,42.353088],[-71.060639,42.353079]]],[[[-71.060629,42.349381],[-71.060583,42.349332],[-71.060557,42.349332],[-71.060557,42.349352],[-71.060598,42.34939],[-71.060629,42.349381]]],[[[-71.060599,42.349446],[-71.060553,42.349397],[-71.060527,42.349397],[-71.060527,42.349417],[-71.060568,42.349455],[-71.060599,42.349446]]],[[[-71.060592,42.349495],[-71.060543,42.349443],[-71.060517,42.349443],[-71.060517,42.349463],[-71.060561,42.349504],[-71.060592,42.349495]]],[[[-71.060582,42.349545],[-71.060533,42.349493],[-71.060507,42.349493],[-71.060507,42.349513],[-71.060551,42.349554],[-71.060582,42.349545]]],[[[-71.060559,42.353036],[-71.060513,42.352987],[-71.060487,42.352987],[-71.06045,42.352961],[-71.060432,42.352974],[-71.060481,42.353025],[-71.060541,42.353049],[-71.060559,42.353036]]],[[[-71.060552,42.353325],[-71.060503,42.353273],[-71.060477,42.353273],[-71.060477,42.353293],[-71.060521,42.353334],[-71.060552,42.353325]]],[[[-71.060545,42.353189],[-71.060499,42.35314],[-71.060473,42.35314],[-71.060473,42.35316],[-71.060514,42.353198],[-71.060545,42.353189]]],[[[-71.060545,42.349595],[-71.060499,42.349546],[-71.060473,42.349546],[-71.060473,42.349566],[-71.060514,42.349604],[-71.060545,42.349595]]],[[[-71.060491,42.353472],[-71.060413,42.35337],[-71.060344,42.353394],[-71.060344,42.353416],[-71.060424,42.353493],[-71.060467,42.353499],[-71.060491,42.353472]]],[[[-71.060469,42.353139],[-71.060423,42.35309],[-71.060343,42.35306],[-71.060343,42.35308],[-71.060384,42.353118],[-71.060451,42.353152],[-71.060469,42.353139]]],[[[-71.060432,42.349926],[-71.060383,42.349874],[-71.060357,42.349874],[-71.060357,42.349894],[-71.060401,42.349935],[-71.060432,42.349926]]],[[[-71.060399,42.353486],[-71.060353,42.353437],[-71.060327,42.353437],[-71.060327,42.353457],[-71.060368,42.353495],[-71.060399,42.353486]]],[[[-71.060384,42.350216],[-71.060293,42.350095],[-71.060267,42.350095],[-71.060267,42.350114],[-71.06022,42.350136],[-71.06022,42.350164],[-71.060316,42.350249],[-71.060354,42.350249],[-71.060384,42.350216]]],[[[-71.060359,42.350076],[-71.060313,42.350027],[-71.060287,42.350027],[-71.060287,42.350047],[-71.060328,42.350085],[-71.060359,42.350076]]],[[[-71.060246,42.349537],[-71.060163,42.34945],[-71.06012,42.349443],[-71.060099,42.349459],[-71.060099,42.349481],[-71.060179,42.349558],[-71.060222,42.349564],[-71.060246,42.349537]]],[[[-71.060199,42.353001],[-71.060153,42.352952],[-71.060127,42.352952],[-71.060127,42.352972],[-71.060168,42.35301],[-71.060199,42.353001]]],[[[-71.060183,42.353483],[-71.060092,42.353386],[-71.060043,42.353379],[-71.060018,42.353397],[-71.060018,42.353423],[-71.060106,42.353507],[-71.060155,42.353514],[-71.060183,42.353483]]],[[[-71.060182,42.349615],[-71.060111,42.349541],[-71.060069,42.349541],[-71.060069,42.349571],[-71.060132,42.34963],[-71.060164,42.349635],[-71.060182,42.349615]]],[[[-71.060154,42.349709],[-71.060075,42.349625],[-71.060036,42.34962],[-71.060017,42.349634],[-71.060017,42.349654],[-71.060093,42.349727],[-71.060132,42.349733],[-71.060154,42.349709]]],[[[-71.060047,42.351114],[-71.05996,42.351022],[-71.059914,42.351015],[-71.059891,42.351032],[-71.059891,42.351056],[-71.059975,42.351136],[-71.060021,42.351143],[-71.060047,42.351114]]],[[[-71.05996,42.351191],[-71.059893,42.351121],[-71.059851,42.351128],[-71.059916,42.351204],[-71.059944,42.351209],[-71.05996,42.351191]]],[[[-71.059899,42.353339],[-71.05981,42.353238],[-71.059764,42.353231],[-71.059741,42.353248],[-71.059741,42.353272],[-71.059825,42.353352],[-71.059871,42.353359],[-71.059899,42.353339]]],[[[-71.059802,42.352795],[-71.059753,42.352743],[-71.059727,42.352743],[-71.059727,42.352763],[-71.059771,42.352804],[-71.059802,42.352795]]],[[[-71.059732,42.352779],[-71.059683,42.352727],[-71.059657,42.352727],[-71.059657,42.352747],[-71.059701,42.352788],[-71.059732,42.352779]]],[[[-71.059732,42.355013],[-71.059389,42.354714],[-71.05935,42.354709],[-71.059331,42.354723],[-71.059331,42.354743],[-71.059443,42.354853],[-71.059633,42.354999],[-71.059702,42.355034],[-71.059732,42.355013]]],[[[-71.059719,42.351776],[-71.05962,42.351677],[-71.059619,42.351645],[-71.059553,42.351583],[-71.059518,42.351578],[-71.0595,42.351591],[-71.0595,42.351609],[-71.059573,42.351679],[-71.059551,42.35171],[-71.059525,42.351696],[-71.059506,42.35171],[-71.059565,42.35177],[-71.059592,42.35177],[-71.05967,42.351812],[-71.059704,42.351801],[-71.059719,42.351776]]],[[[-71.059678,42.352772],[-71.059629,42.35272],[-71.059603,42.35272],[-71.059603,42.35274],[-71.059647,42.352781],[-71.059678,42.352772]]],[[[-71.059659,42.352849],[-71.059559,42.35275],[-71.059521,42.35275],[-71.059495,42.352769],[-71.059495,42.352797],[-71.059591,42.352882],[-71.059629,42.352882],[-71.059659,42.352849]]],[[[-71.059559,42.351136],[-71.059513,42.351087],[-71.059487,42.351087],[-71.059487,42.351107],[-71.059528,42.351145],[-71.059559,42.351136]]],[[[-71.059519,42.351209],[-71.059473,42.35116],[-71.059447,42.35116],[-71.059447,42.35118],[-71.059488,42.351218],[-71.059519,42.351209]]],[[[-71.059515,42.351683],[-71.059448,42.351613],[-71.059406,42.35162],[-71.059471,42.351696],[-71.059499,42.351701],[-71.059515,42.351683]]],[[[-71.059469,42.353139],[-71.059423,42.35309],[-71.059397,42.35309],[-71.059397,42.35311],[-71.059438,42.353148],[-71.059469,42.353139]]],[[[-71.059459,42.353049],[-71.059413,42.353],[-71.059387,42.353],[-71.059387,42.35302],[-71.059428,42.353058],[-71.059459,42.353049]]],[[[-71.059443,42.351757],[-71.05938,42.351692],[-71.059348,42.351692],[-71.059348,42.351716],[-71.059404,42.351769],[-71.059443,42.351757]]],[[[-71.059379,42.351833],[-71.059316,42.351768],[-71.059284,42.351768],[-71.059284,42.351792],[-71.05934,42.351845],[-71.059379,42.351833]]],[[[-71.0593,42.351366],[-71.059227,42.351272],[-71.059144,42.351205],[-71.059091,42.351197],[-71.059065,42.351216],[-71.059065,42.351244],[-71.059136,42.351315],[-71.059095,42.351343],[-71.059095,42.351371],[-71.059186,42.351458],[-71.059221,42.351469],[-71.059255,42.351458],[-71.05927,42.351433],[-71.059255,42.351408],[-71.0593,42.351366]]],[[[-71.059225,42.353333],[-71.059179,42.353284],[-71.059153,42.353284],[-71.059153,42.353304],[-71.059194,42.353342],[-71.059225,42.353333]]],[[[-71.059158,42.354447],[-71.059083,42.354368],[-71.058954,42.35428],[-71.058926,42.35428],[-71.058926,42.3543],[-71.059028,42.35438],[-71.059103,42.354464],[-71.059138,42.354469],[-71.059158,42.354447]]],[[[-71.059139,42.351499],[-71.059093,42.35145],[-71.059067,42.35145],[-71.059067,42.35147],[-71.059108,42.351508],[-71.059139,42.351499]]],[[[-71.059129,42.353326],[-71.059083,42.353277],[-71.059057,42.353277],[-71.059057,42.353297],[-71.059098,42.353335],[-71.059129,42.353326]]],[[[-71.059125,42.351573],[-71.059058,42.351503],[-71.059016,42.35151],[-71.059081,42.351586],[-71.059109,42.351591],[-71.059125,42.351573]]],[[[-71.059074,42.351669],[-71.058995,42.351585],[-71.058956,42.35158],[-71.058937,42.351594],[-71.058937,42.351614],[-71.059013,42.351687],[-71.059052,42.351693],[-71.059074,42.351669]]],[[[-71.059039,42.353322],[-71.058993,42.353273],[-71.058967,42.353273],[-71.058967,42.353293],[-71.059008,42.353331],[-71.059039,42.353322]]],[[[-71.058995,42.35169],[-71.058943,42.351636],[-71.058917,42.351636],[-71.058917,42.351656],[-71.058964,42.3517],[-71.058995,42.35169]]],[[[-71.058988,42.351752],[-71.058913,42.351673],[-71.05889,42.351666],[-71.05886,42.351681],[-71.05886,42.351699],[-71.058933,42.351769],[-71.058968,42.351774],[-71.058988,42.351752]]],[[[-71.058954,42.351803],[-71.058875,42.351719],[-71.058836,42.351714],[-71.058817,42.351728],[-71.058817,42.351748],[-71.058893,42.351821],[-71.058932,42.351827],[-71.058954,42.351803]]],[[[-71.058905,42.353307],[-71.058859,42.353258],[-71.058833,42.353258],[-71.058833,42.353278],[-71.058874,42.353316],[-71.058905,42.353307]]],[[[-71.058904,42.351845],[-71.058825,42.351761],[-71.058786,42.351756],[-71.058767,42.35177],[-71.058767,42.35179],[-71.058843,42.351863],[-71.058882,42.351869],[-71.058904,42.351845]]],[[[-71.058827,42.351912],[-71.058803,42.351881],[-71.058822,42.351868],[-71.058773,42.351816],[-71.058701,42.351818],[-71.05868,42.351834],[-71.05868,42.351856],[-71.05876,42.351933],[-71.058803,42.351939],[-71.058827,42.351912]]],[[[-71.058799,42.353307],[-71.058753,42.353258],[-71.058727,42.353258],[-71.058727,42.353278],[-71.058768,42.353316],[-71.058799,42.353307]]],[[[-71.058758,42.351968],[-71.058672,42.351884],[-71.058637,42.351889],[-71.05863,42.351915],[-71.058597,42.35193],[-71.058676,42.352],[-71.058699,42.351983],[-71.058738,42.35199],[-71.058758,42.351968]]],[[[-71.058672,42.352079],[-71.058623,42.352019],[-71.058634,42.351996],[-71.05858,42.351954],[-71.058491,42.351968],[-71.058451,42.352018],[-71.058451,42.352042],[-71.058392,42.35206],[-71.058408,42.352098],[-71.058486,42.352171],[-71.058518,42.352181],[-71.05855,42.352171],[-71.05856,42.352134],[-71.058656,42.352108],[-71.058672,42.352079]]],[[[-71.058609,42.352569],[-71.058494,42.35247],[-71.058466,42.35247],[-71.058488,42.352511],[-71.058472,42.352524],[-71.058518,42.352572],[-71.058544,42.352572],[-71.058535,42.352544],[-71.058578,42.352578],[-71.058609,42.352569]]],[[[-71.058472,42.35257],[-71.058423,42.352519],[-71.058424,42.352499],[-71.058383,42.35246],[-71.058357,42.35246],[-71.058397,42.352538],[-71.058441,42.352579],[-71.058472,42.35257]]],[[[-71.058432,42.352139],[-71.058383,42.352087],[-71.058357,42.352087],[-71.058357,42.352107],[-71.058401,42.352148],[-71.058432,42.352139]]],[[[-71.058389,42.352559],[-71.058273,42.352457],[-71.058247,42.352457],[-71.058247,42.352477],[-71.058288,42.352515],[-71.058313,42.352516],[-71.058358,42.352568],[-71.058389,42.352559]]],[[[-71.058329,42.350949],[-71.058283,42.3509],[-71.058257,42.3509],[-71.058257,42.35092],[-71.058298,42.350958],[-71.058329,42.350949]]],[[[-71.058309,42.352551],[-71.058263,42.352502],[-71.058237,42.352502],[-71.058237,42.352522],[-71.058278,42.35256],[-71.058309,42.352551]]],[[[-71.058259,42.350926],[-71.058213,42.350877],[-71.058187,42.350877],[-71.058187,42.350897],[-71.058228,42.350935],[-71.058259,42.350926]]],[[[-71.058079,42.352704],[-71.058033,42.352655],[-71.058007,42.352655],[-71.058007,42.352675],[-71.058048,42.352713],[-71.058079,42.352704]]],[[[-71.058073,42.352807],[-71.058027,42.352758],[-71.058001,42.352758],[-71.058001,42.352778],[-71.058042,42.352816],[-71.058073,42.352807]]],[[[-71.058049,42.352944],[-71.058003,42.352895],[-71.057977,42.352895],[-71.057977,42.352915],[-71.058018,42.352953],[-71.058049,42.352944]]],[[[-71.057844,42.350732],[-71.057798,42.350683],[-71.05774,42.350664],[-71.057722,42.350677],[-71.057768,42.350725],[-71.057826,42.350745],[-71.057844,42.350732]]],[[[-71.057809,42.352282],[-71.057742,42.352212],[-71.0577,42.352219],[-71.057765,42.352295],[-71.057793,42.3523],[-71.057809,42.352282]]],[[[-71.057686,42.352249],[-71.057605,42.35217],[-71.057567,42.352183],[-71.057528,42.352146],[-71.057486,42.352153],[-71.05743,42.352121],[-71.057406,42.352133],[-71.057351,42.35209],[-71.057311,42.35211],[-71.057391,42.352189],[-71.057431,42.352172],[-71.057471,42.352209],[-71.057513,42.352203],[-71.057569,42.352235],[-71.057593,42.352224],[-71.057645,42.352269],[-71.057686,42.352249]]],[[[-71.057455,42.350442],[-71.057409,42.350393],[-71.057383,42.350393],[-71.057383,42.350413],[-71.057424,42.350451],[-71.057455,42.350442]]],[[[-71.057439,42.350533],[-71.057393,42.350484],[-71.057367,42.350484],[-71.057367,42.350504],[-71.057408,42.350542],[-71.057439,42.350533]]],[[[-71.057392,42.351749],[-71.057343,42.351697],[-71.057317,42.351697],[-71.057317,42.351717],[-71.057361,42.351758],[-71.057392,42.351749]]],[[[-71.057379,42.351789],[-71.057333,42.35174],[-71.057307,42.35174],[-71.057307,42.35176],[-71.057348,42.351798],[-71.057379,42.351789]]],[[[-71.05735,42.351936],[-71.057304,42.351887],[-71.057278,42.351887],[-71.057278,42.351907],[-71.057319,42.351945],[-71.05735,42.351936]]],[[[-71.057345,42.350969],[-71.057293,42.350915],[-71.057267,42.350915],[-71.057267,42.350935],[-71.057314,42.350979],[-71.057345,42.350969]]],[[[-71.057336,42.351991],[-71.057293,42.351945],[-71.057267,42.351945],[-71.057267,42.351965],[-71.057305,42.352],[-71.057336,42.351991]]],[[[-71.057315,42.351107],[-71.057263,42.351053],[-71.057237,42.351053],[-71.057237,42.351073],[-71.057284,42.351117],[-71.057315,42.351107]]],[[[-71.057249,42.351449],[-71.057203,42.3514],[-71.057177,42.3514],[-71.057177,42.35142],[-71.057218,42.351458],[-71.057249,42.351449]]],[[[-71.057239,42.350589],[-71.057193,42.35054],[-71.057167,42.35054],[-71.057167,42.35056],[-71.057208,42.350598],[-71.057239,42.350589]]],[[[-71.057188,42.350671],[-71.057142,42.350622],[-71.057116,42.350622],[-71.057116,42.350642],[-71.057157,42.35068],[-71.057188,42.350671]]],[[[-71.057135,42.350572],[-71.057089,42.350523],[-71.057063,42.350523],[-71.057063,42.350543],[-71.057104,42.350581],[-71.057135,42.350572]]],[[[-71.057088,42.349965],[-71.057013,42.349886],[-71.056978,42.349881],[-71.05696,42.349894],[-71.05696,42.349912],[-71.057033,42.349982],[-71.057068,42.349987],[-71.057088,42.349965]]],[[[-71.057079,42.349879],[-71.057033,42.34983],[-71.057007,42.34983],[-71.057007,42.34985],[-71.057048,42.349888],[-71.057079,42.349879]]],[[[-71.056919,42.352075],[-71.056863,42.352018],[-71.056837,42.352018],[-71.056837,42.352038],[-71.056887,42.352085],[-71.056919,42.352075]]],[[[-71.056901,42.349827],[-71.056818,42.34974],[-71.056775,42.349733],[-71.056754,42.349749],[-71.056754,42.349771],[-71.056834,42.349848],[-71.056877,42.349854],[-71.056901,42.349827]]],[[[-71.056875,42.350269],[-71.056829,42.35022],[-71.056803,42.35022],[-71.056803,42.35024],[-71.056844,42.350278],[-71.056875,42.350269]]],[[[-71.056858,42.349902],[-71.056783,42.349823],[-71.056748,42.349818],[-71.05673,42.349831],[-71.05673,42.349849],[-71.056803,42.349919],[-71.056838,42.349924],[-71.056858,42.349902]]],[[[-71.056844,42.349981],[-71.056744,42.349882],[-71.056706,42.349882],[-71.05668,42.349901],[-71.05668,42.349929],[-71.056776,42.350014],[-71.056814,42.350014],[-71.056844,42.349981]]],[[[-71.056839,42.350346],[-71.056793,42.350297],[-71.056767,42.350297],[-71.056767,42.350317],[-71.056808,42.350355],[-71.056839,42.350346]]],[[[-71.056799,42.350072],[-71.056699,42.349973],[-71.056661,42.349973],[-71.056635,42.349992],[-71.056635,42.35002],[-71.056731,42.350105],[-71.056769,42.350105],[-71.056799,42.350072]]],[[[-71.056795,42.352038],[-71.056743,42.351984],[-71.056717,42.351984],[-71.056717,42.352004],[-71.056764,42.352048],[-71.056795,42.352038]]],[[[-71.056722,42.350153],[-71.056651,42.350079],[-71.056609,42.350079],[-71.056609,42.350109],[-71.056672,42.350168],[-71.056704,42.350173],[-71.056722,42.350153]]],[[[-71.056694,42.35066],[-71.056638,42.350603],[-71.056612,42.350603],[-71.056612,42.350623],[-71.056662,42.35067],[-71.056694,42.35066]]],[[[-71.056688,42.350247],[-71.056613,42.350168],[-71.05659,42.350161],[-71.05656,42.350176],[-71.05656,42.350194],[-71.056633,42.350264],[-71.056668,42.350269],[-71.056688,42.350247]]],[[[-71.056685,42.353259],[-71.056618,42.353189],[-71.056526,42.353155],[-71.056479,42.353117],[-71.056451,42.353117],[-71.056451,42.353137],[-71.056505,42.353187],[-71.056532,42.353187],[-71.056641,42.353272],[-71.056669,42.353277],[-71.056685,42.353259]]],[[[-71.056659,42.350727],[-71.056603,42.35067],[-71.056577,42.35067],[-71.056577,42.35069],[-71.056627,42.350737],[-71.056659,42.350727]]],[[[-71.056629,42.3509],[-71.056529,42.350801],[-71.056491,42.350801],[-71.056465,42.35082],[-71.056465,42.350848],[-71.056561,42.350933],[-71.056599,42.350933],[-71.056629,42.3509]]],[[[-71.056519,42.351967],[-71.056463,42.35191],[-71.056437,42.35191],[-71.056437,42.35193],[-71.056487,42.351977],[-71.056519,42.351967]]],[[[-71.056469,42.351069],[-71.056423,42.35102],[-71.056397,42.35102],[-71.056397,42.35104],[-71.056438,42.351078],[-71.056469,42.351069]]],[[[-71.056449,42.353143],[-71.056386,42.353078],[-71.056354,42.353078],[-71.056354,42.353102],[-71.05641,42.353155],[-71.056449,42.353143]]],[[[-71.056449,42.351144],[-71.056393,42.351087],[-71.056367,42.351087],[-71.056367,42.351107],[-71.056417,42.351154],[-71.056449,42.351144]]],[[[-71.056426,42.351936],[-71.056383,42.35189],[-71.056357,42.35189],[-71.056357,42.35191],[-71.056395,42.351945],[-71.056426,42.351936]]],[[[-71.056405,42.351215],[-71.056359,42.351166],[-71.056333,42.351166],[-71.056333,42.351186],[-71.056374,42.351224],[-71.056405,42.351215]]],[[[-71.056389,42.354977],[-71.056333,42.35492],[-71.056307,42.35492],[-71.056307,42.35494],[-71.056357,42.354987],[-71.056389,42.354977]]],[[[-71.056379,42.354883],[-71.056323,42.354826],[-71.056297,42.354826],[-71.056297,42.354846],[-71.056347,42.354893],[-71.056379,42.354883]]],[[[-71.056365,42.354726],[-71.056298,42.354656],[-71.056256,42.354663],[-71.056321,42.354739],[-71.056349,42.354744],[-71.056365,42.354726]]],[[[-71.056363,42.3548],[-71.056304,42.35474],[-71.056276,42.35474],[-71.056276,42.35476],[-71.05633,42.35481],[-71.056363,42.3548]]],[[[-71.056307,42.350889],[-71.056251,42.350832],[-71.056225,42.350832],[-71.056225,42.350852],[-71.056275,42.350899],[-71.056307,42.350889]]],[[[-71.056302,42.351418],[-71.056253,42.351366],[-71.056227,42.351366],[-71.056227,42.351386],[-71.056271,42.351427],[-71.056302,42.351418]]],[[[-71.056289,42.353089],[-71.056243,42.35304],[-71.056217,42.35304],[-71.056217,42.35306],[-71.056258,42.353098],[-71.056289,42.353089]]],[[[-71.056283,42.351453],[-71.056234,42.351401],[-71.056208,42.351401],[-71.056208,42.351421],[-71.056252,42.351462],[-71.056283,42.351453]]],[[[-71.056277,42.35098],[-71.056221,42.350923],[-71.056195,42.350923],[-71.056195,42.350943],[-71.056245,42.35099],[-71.056277,42.35098]]],[[[-71.056252,42.351492],[-71.056203,42.35144],[-71.056177,42.35144],[-71.056177,42.35146],[-71.056221,42.351501],[-71.056252,42.351492]]],[[[-71.056237,42.351083],[-71.056181,42.351026],[-71.056155,42.351026],[-71.056155,42.351046],[-71.056205,42.351093],[-71.056237,42.351083]]],[[[-71.056199,42.351192],[-71.056143,42.351135],[-71.056117,42.351135],[-71.056117,42.351155],[-71.056167,42.351202],[-71.056199,42.351192]]],[[[-71.056122,42.351752],[-71.056073,42.3517],[-71.056047,42.3517],[-71.056047,42.35172],[-71.056091,42.351761],[-71.056122,42.351752]]],[[[-71.056028,42.351402],[-71.055972,42.351345],[-71.055946,42.351345],[-71.055946,42.351365],[-71.055996,42.351412],[-71.056028,42.351402]]],[[[-71.056004,42.351459],[-71.055948,42.351402],[-71.055922,42.351402],[-71.055922,42.351422],[-71.055972,42.351469],[-71.056004,42.351459]]],[[[-71.055971,42.351529],[-71.055915,42.351472],[-71.055889,42.351472],[-71.055889,42.351492],[-71.055939,42.351539],[-71.055971,42.351529]]],[[[-71.055939,42.352292],[-71.055854,42.352201],[-71.05582,42.35219],[-71.055786,42.352201],[-71.055775,42.35224],[-71.055737,42.352276],[-71.055822,42.352367],[-71.055856,42.352378],[-71.05589,42.352367],[-71.055901,42.352328],[-71.055939,42.352292]]],[[[-71.055939,42.351608],[-71.055883,42.351551],[-71.055857,42.351551],[-71.055857,42.351571],[-71.055907,42.351618],[-71.055939,42.351608]]],[[[-71.05591,42.351669],[-71.055854,42.351612],[-71.055828,42.351612],[-71.055828,42.351632],[-71.055878,42.351679],[-71.05591,42.351669]]],[[[-71.055859,42.351774],[-71.055803,42.351717],[-71.055777,42.351717],[-71.055777,42.351737],[-71.055827,42.351784],[-71.055859,42.351774]]],[[[-71.055854,42.353398],[-71.055779,42.353319],[-71.055744,42.353314],[-71.055726,42.353327],[-71.055726,42.353345],[-71.055799,42.353415],[-71.055834,42.35342],[-71.055854,42.353398]]],[[[-71.055839,42.351823],[-71.055783,42.351766],[-71.055757,42.351766],[-71.055757,42.351786],[-71.055807,42.351833],[-71.055839,42.351823]]],[[[-71.055787,42.353453],[-71.055716,42.353379],[-71.055674,42.353379],[-71.055674,42.353409],[-71.055737,42.353468],[-71.055769,42.353473],[-71.055787,42.353453]]],[[[-71.055699,42.35348],[-71.05564,42.35342],[-71.055612,42.35342],[-71.055612,42.35344],[-71.055666,42.35349],[-71.055699,42.35348]]],[[[-71.055609,42.353544],[-71.055553,42.353487],[-71.055527,42.353487],[-71.055527,42.353507],[-71.055577,42.353554],[-71.055609,42.353544]]],[[[-71.055542,42.353572],[-71.055493,42.35352],[-71.055467,42.35352],[-71.055467,42.35354],[-71.055511,42.353581],[-71.055542,42.353572]]],[[[-71.055303,42.353692],[-71.055244,42.35364],[-71.055181,42.353672],[-71.055261,42.353751],[-71.055293,42.353746],[-71.055302,42.353731],[-71.055282,42.353705],[-71.055303,42.353692]]],[[[-71.055249,42.353753],[-71.055186,42.353688],[-71.055154,42.353688],[-71.055154,42.353712],[-71.05521,42.353765],[-71.055249,42.353753]]]]},"properties":{"kind":"tree"}}]}