{"type":"FeatureCollection","features":[{"type":"Feature","geometry":{"type":"MultiPolygon","coordinates":[[[[-71.06703,42.351826],[-71.067007,42.351692],[-71.066747,42.351106],[-71.065976,42.351197],[-71.065991,42.350995],[-71.065959,42.350666],[-71.065946,42.350666],[-71.06593,42.350327],[-71.065908,42.350328],[-71.065916,42.350219],[-71.065881,42.34989],[-71.065776,42.349769],[-71.065685,42.349794],[-71.065702,42.349713],[-71.06577,42.349726],[-71.065792,42.349708],[-71.065894,42.34984],[-71.065971,42.349816],[-71.065985,42.349737],[-71.066,42.349763],[-71.066088,42.349739],[-71.066095,42.349646],[-71.066054,42.349573],[-71.066102,42.349559],[-71.066107,42.349483],[-71.066051,42.349385],[-71.065989,42.349405],[-71.065984,42.349481],[-71.06562,42.349445],[-71.065521,42.349461],[-71.065431,42.349881],[-71.065343,42.350191],[-71.065333,42.350304],[-71.06531,42.3503],[-71.065227,42.350588],[-71.065223,42.350649],[-71.065244,42.350653],[-71.06521,42.350652],[-71.065139,42.350903],[-71.065115,42.351237],[-71.064967,42.35123],[-71.064683,42.352315],[-71.064667,42.352532],[-71.064625,42.352667],[-71.06469,42.352677],[-71.064704,42.352635],[-71.065475,42.352689],[-71.065492,42.352573],[-71.065671,42.352587],[-71.065665,42.352682],[-71.065862,42.352697],[-71.065909,42.352409],[-71.065932,42.352094],[-71.065911,42.352092],[-71.065915,42.352049],[-71.066003,42.352062],[-71.065967,42.352225],[-71.065944,42.352529],[-71.065952,42.352594],[-71.066048,42.352599],[-71.066072,42.352281],[-71.066262,42.35228],[-71.066281,42.352103],[-71.066825,42.352173],[-71.067008,42.352128],[-71.06703,42.351826]]],[[[-71.066483,42.348529],[-71.065951,42.348467],[-71.065974,42.348359],[-71.065995,42.348064],[-71.065837,42.348044],[-71.065752,42.348444],[-71.065731,42.348739],[-71.065788,42.348747],[-71.065781,42.348838],[-71.065877,42.348849],[-71.065887,42.348778],[-71.0659,42.348815],[-71.066438,42.348878],[-71.066466,42.348758],[-71.066483,42.348529]]],[[[-71.065565,42.354342],[-71.065554,42.354318],[-71.065521,42.354301],[-71.065458,42.354314],[-71.065443,42.354342],[-71.065445,42.35444],[-71.065488,42.354463],[-71.065545,42.354449],[-71.065565,42.354342]]],[[[-71.065529,42.347903],[-71.065483,42.347819],[-71.065392,42.347805],[-71.065371,42.347781],[-71.065317,42.347783],[-71.065319,42.347677],[-71.065257,42.347643],[-71.064894,42.347587],[-71.064503,42.347783],[-71.064389,42.348045],[-71.06434,42.34822],[-71.064332,42.348336],[-71.064368,42.348342],[-71.064463,42.348304],[-71.06444,42.348386],[-71.064428,42.348553],[-71.064341,42.348545],[-71.064334,42.348568],[-71.064275,42.348582],[-71.064138,42.348956],[-71.064122,42.349062],[-71.064431,42.349109],[-71.064404,42.349122],[-71.064388,42.349344],[-71.064637,42.349513],[-71.064818,42.34942],[-71.064819,42.349403],[-71.064904,42.34943],[-71.065166,42.349307],[-71.065178,42.34914],[-71.065275,42.34913],[-71.06533,42.348887],[-71.065323,42.348802],[-71.065279,42.348688],[-71.064852,42.348595],[-71.064872,42.348328],[-71.064925,42.348366],[-71.064954,42.348347],[-71.065092,42.348506],[-71.065116,42.348494],[-71.065126,42.348513],[-71.06542,42.348448],[-71.065427,42.34839],[-71.065361,42.348315],[-71.065473,42.348206],[-71.065484,42.348131],[-71.065426,42.348045],[-71.065517,42.347985],[-71.065529,42.347903]]],[[[-71.065421,42.352871],[-71.065303,42.352844],[-71.065283,42.352932],[-71.065309,42.353013],[-71.065375,42.353027],[-71.065421,42.352871]]],[[[-71.065169,42.349617],[-71.064416,42.349501],[-71.064395,42.349572],[-71.063761,42.349475],[-71.063743,42.349458],[-71.063757,42.349284],[-71.063805,42.349184],[-71.063923,42.348768],[-71.063945,42.348463],[-71.063623,42.348413],[-71.063505,42.348828],[-71.06349,42.349029],[-71.063074,42.348966],[-71.063032,42.34904],[-71.063041,42.348901],[-71.063353,42.348947],[-71.063464,42.348545],[-71.063476,42.348381],[-71.06315,42.348332],[-71.063223,42.348341],[-71.063253,42.34818],[-71.06323,42.348148],[-71.063187,42.348141],[-71.063177,42.348169],[-71.0631,42.348157],[-71.063135,42.348116],[-71.063275,42.348147],[-71.063301,42.347999],[-71.062961,42.347921],[-71.062929,42.348],[-71.062924,42.348075],[-71.06305,42.348102],[-71.063046,42.348149],[-71.06289,42.348124],[-71.062909,42.347999],[-71.062855,42.347962],[-71.062735,42.347939],[-71.062689,42.348052],[-71.062684,42.348111],[-71.062667,42.348107],[-71.06264,42.348175],[-71.062634,42.348254],[-71.062604,42.34825],[-71.062448,42.348644],[-71.062442,42.348731],[-71.062425,42.348727],[-71.062409,42.348753],[-71.062288,42.349071],[-71.062234,42.34916],[-71.062225,42.349287],[-71.062169,42.349306],[-71.062155,42.349337],[-71.062151,42.349398],[-71.061999,42.349764],[-71.061993,42.34985],[-71.061969,42.349845],[-71.061924,42.349957],[-71.061894,42.350142],[-71.06188,42.350138],[-71.061849,42.350185],[-71.06176,42.350375],[-71.061746,42.350372],[-71.061673,42.350559],[-71.061657,42.350779],[-71.061597,42.350765],[-71.061565,42.350845],[-71.061561,42.350898],[-71.061545,42.350895],[-71.061526,42.350931],[-71.061462,42.35114],[-71.061448,42.351138],[-71.061352,42.351379],[-71.06134,42.351541],[-71.061289,42.351543],[-71.06127,42.351806],[-71.061333,42.352122],[-71.061367,42.352121],[-71.061384,42.352204],[-71.061539,42.352196],[-71.061545,42.352113],[-71.061574,42.352112],[-71.061621,42.352276],[-71.061663,42.352274],[-71.061643,42.352548],[-71.061487,42.352561],[-71.061469,42.35281],[-71.061503,42.353331],[-71.061467,42.353645],[-71.061316,42.353581],[-71.061296,42.353603],[-71.061337,42.353463],[-71.06136,42.353145],[-71.061336,42.35258],[-71.061194,42.352592],[-71.061121,42.352806],[-71.061104,42.352801],[-71.060976,42.352944],[-71.060987,42.352798],[-71.06106,42.352792],[-71.061093,42.352605],[-71.061125,42.352254],[-71.061108,42.351986],[-71.061049,42.351595],[-71.061085,42.351587],[-71.061214,42.351257],[-71.061227,42.351071],[-71.060769,42.350979],[-71.060611,42.351308],[-71.060601,42.351447],[-71.060388,42.351402],[-71.060369,42.351415],[-71.060361,42.351521],[-71.060392,42.351619],[-71.060424,42.351718],[-71.06047,42.351728],[-71.060458,42.351891],[-71.060539,42.352159],[-71.060533,42.352247],[-71.0605,42.352135],[-71.060316,42.352167],[-71.060304,42.352338],[-71.060276,42.352208],[-71.060118,42.352221],[-71.0601,42.352474],[-71.060143,42.352758],[-71.060188,42.352758],[-71.060192,42.352806],[-71.060282,42.352819],[-71.060255,42.353042],[-71.060686,42.353254],[-71.060788,42.35314],[-71.060809,42.353148],[-71.060797,42.353315],[-71.060695,42.353272],[-71.060115,42.353886],[-71.060133,42.353635],[-71.059933,42.353525],[-71.060065,42.353467],[-71.060107,42.353421],[-71.060196,42.353467],[-71.060311,42.353344],[-71.060325,42.353148],[-71.060198,42.353083],[-71.060156,42.353018],[-71.059657,42.352762],[-71.059553,42.352772],[-71.05955,42.352815],[-71.059531,42.352816],[-71.059525,42.352904],[-71.059592,42.353398],[-71.059432,42.35339],[-71.059336,42.353475],[-71.059374,42.353406],[-71.05939,42.353095],[-71.059318,42.352574],[-71.059282,42.35257],[-71.059292,42.352429],[-71.059226,42.352012],[-71.059026,42.352083],[-71.058873,42.352183],[-71.058814,42.352257],[-71.058775,42.35235],[-71.058762,42.352527],[-71.058176,42.352542],[-71.058142,42.35255],[-71.058055,42.352616],[-71.057947,42.353231],[-71.057929,42.35348],[-71.057941,42.353489],[-71.05792,42.353692],[-71.057946,42.353733],[-71.057933,42.353905],[-71.05797,42.353907],[-71.057816,42.354156],[-71.057846,42.353741],[-71.057706,42.353693],[-71.05775,42.353413],[-71.057796,42.352781],[-71.057688,42.352735],[-71.05756,42.352748],[-71.05731,42.352888],[-71.057163,42.352943],[-71.05712,42.352979],[-71.0571,42.353025],[-71.057053,42.353664],[-71.057066,42.353717],[-71.057099,42.353752],[-71.056983,42.353959],[-71.05697,42.353964],[-71.056982,42.353769],[-71.056971,42.353492],[-71.056948,42.353395],[-71.056816,42.353425],[-71.056706,42.353473],[-71.056745,42.352935],[-71.056828,42.352913],[-71.056885,42.352834],[-71.056969,42.352661],[-71.056986,42.35242],[-71.057048,42.352436],[-71.057111,42.352098],[-71.05714,42.351699],[-71.057307,42.35087],[-71.057316,42.350742],[-71.057334,42.350725],[-71.057482,42.350062],[-71.057505,42.349748],[-71.057133,42.349667],[-71.05695,42.350087],[-71.056922,42.350095],[-71.056797,42.350339],[-71.056781,42.350566],[-71.056812,42.35057],[-71.056809,42.350608],[-71.056678,42.350643],[-71.05656,42.350888],[-71.056555,42.350951],[-71.056543,42.350948],[-71.056518,42.350994],[-71.056401,42.351249],[-71.056393,42.351363],[-71.056294,42.351331],[-71.056079,42.351765],[-71.056056,42.352079],[-71.05594,42.352127],[-71.055846,42.352326],[-71.055771,42.353362],[-71.055573,42.353469],[-71.05557,42.353507],[-71.055421,42.353589],[-71.055376,42.353638],[-71.055342,42.353603],[-71.054915,42.353838],[-71.054909,42.353925],[-71.054851,42.353901],[-71.054776,42.353908],[-71.054378,42.354122],[-71.054355,42.354162],[-71.054283,42.355157],[-71.054292,42.355201],[-71.054547,42.355466],[-71.054614,42.35548],[-71.054664,42.355464],[-71.054997,42.355163],[-71.054981,42.355403],[-71.055142,42.355551],[-71.055192,42.355555],[-71.055508,42.355366],[-71.055511,42.355326],[-71.055604,42.355833],[-71.055571,42.356297],[-71.055677,42.356875],[-71.056129,42.356831],[-71.056187,42.356026],[-71.056322,42.355995],[-71.056364,42.355412],[-71.05622,42.354662],[-71.056231,42.354504],[-71.056187,42.354347],[-71.05619,42.3543],[-71.056121,42.353925],[-71.056287,42.353994],[-71.056274,42.354176],[-71.05631,42.354389],[-71.056379,42.354432],[-71.056371,42.354548],[-71.056416,42.354796],[-71.056435,42.354808],[-71.0565,42.354801],[-71.056436,42.355683],[-71.0565,42.35604],[-71.057283,42.355981],[-71.057347,42.355108],[-71.057457,42.355146],[-71.057661,42.354812],[-71.057924,42.354894],[-71.058237,42.354589],[-71.058239,42.354554],[-71.058256,42.354563],[-71.058506,42.354324],[-71.058509,42.354287],[-71.058542,42.354297],[-71.05787,42.354957],[-71.057852,42.355189],[-71.057899,42.355207],[-71.058063,42.355209],[-71.058129,42.355339],[-71.058256,42.355354],[-71.058319,42.355332],[-71.058405,42.355248],[-71.058415,42.35511],[-71.058433,42.35512],[-71.058704,42.354873],[-71.058707,42.354825],[-71.058957,42.354617],[-71.058992,42.354632],[-71.058538,42.355044],[-71.058525,42.355229],[-71.058529,42.355255],[-71.058847,42.355393],[-71.058814,42.355839],[-71.058888,42.355894],[-71.05918,42.356013],[-71.059426,42.355799],[-71.059489,42.355721],[-71.059522,42.355268],[-71.059625,42.355173],[-71.059636,42.355022],[-71.060188,42.355439],[-71.060293,42.355363],[-71.060473,42.355493],[-71.06063,42.355363],[-71.060672,42.355396],[-71.061069,42.355026],[-71.061094,42.355041],[-71.061184,42.354959],[-71.06106,42.355076],[-71.061045,42.355283],[-71.061358,42.35544],[-71.06153,42.355253],[-71.061534,42.355196],[-71.061622,42.355242],[-71.061724,42.355136],[-71.062033,42.355308],[-71.06204,42.355299],[-71.062172,42.355367],[-71.062339,42.355188],[-71.062345,42.355111],[-71.062345,42.355196],[-71.062457,42.355259],[-71.062488,42.355232],[-71.062483,42.355303],[-71.062573,42.355354],[-71.06263,42.355295],[-71.06268,42.355323],[-71.062802,42.355197],[-71.062798,42.355254],[-71.063104,42.355416],[-71.063148,42.355375],[-71.063293,42.355403],[-71.063311,42.355371],[-71.063342,42.355381],[-71.063631,42.354845],[-71.063637,42.354762],[-71.063662,42.354724],[-71.063675,42.35454],[-71.063696,42.354501],[-71.063718,42.354507],[-71.063758,42.354471],[-71.063822,42.354354],[-71.063837,42.354244],[-71.063862,42.354252],[-71.063955,42.354095],[-71.063996,42.353665],[-71.064043,42.353677],[-71.064081,42.35357],[-71.064114,42.353572],[-71.064181,42.353492],[-71.064212,42.353406],[-71.06422,42.353303],[-71.064243,42.353304],[-71.064316,42.353054],[-71.064361,42.352607],[-71.064425,42.352609],[-71.06446,42.352589],[-71.064592,42.352068],[-71.064601,42.351953],[-71.064644,42.351833],[-71.06466,42.351615],[-71.064673,42.351581],[-71.064776,42.351591],[-71.064791,42.351539],[-71.064812,42.351431],[-71.064842,42.351016],[-71.064872,42.351021],[-71.064973,42.350641],[-71.064997,42.350303],[-71.065027,42.350308],[-71.065125,42.349944],[-71.065137,42.349945],[-71.065149,42.349898],[-71.065169,42.349617]],[[-71.064312,42.351118],[-71.064308,42.351173],[-71.063934,42.351133],[-71.063928,42.351154],[-71.063745,42.351118],[-71.063759,42.350921],[-71.064312,42.351118]],[[-71.064167,42.35234],[-71.064163,42.352403],[-71.064106,42.352401],[-71.064113,42.352365],[-71.064132,42.352368],[-71.064167,42.35234]],[[-71.064027,42.350482],[-71.06399,42.350541],[-71.063908,42.350512],[-71.063915,42.350416],[-71.063539,42.350364],[-71.063408,42.350576],[-71.063372,42.351079],[-71.06329,42.35107],[-71.063239,42.351355],[-71.063227,42.351359],[-71.063273,42.351069],[-71.063049,42.351044],[-71.063027,42.351108],[-71.063015,42.351107],[-71.062918,42.351459],[-71.062912,42.35153],[-71.063396,42.351594],[-71.063439,42.351593],[-71.063455,42.35153],[-71.063456,42.351612],[-71.062895,42.351546],[-71.062772,42.35217],[-71.062757,42.352379],[-71.062791,42.352383],[-71.062787,42.352447],[-71.062724,42.352454],[-71.062722,42.352488],[-71.062679,42.352486],[-71.062631,42.353336],[-71.062714,42.353398],[-71.062533,42.353622],[-71.062491,42.353619],[-71.062343,42.353797],[-71.062385,42.353681],[-71.062434,42.352871],[-71.062505,42.352878],[-71.062622,42.352431],[-71.062676,42.351697],[-71.062715,42.351706],[-71.062809,42.351354],[-71.062911,42.351357],[-71.063088,42.35081],[-71.063122,42.350442],[-71.063259,42.350463],[-71.063337,42.3503],[-71.063351,42.350302],[-71.063444,42.349941],[-71.063561,42.349955],[-71.064027,42.350482]],[[-71.063938,42.352439],[-71.063906,42.352819],[-71.063869,42.352843],[-71.063859,42.352983],[-71.063826,42.352973],[-71.063869,42.352437],[-71.063938,42.352439]],[[-71.063792,42.353548],[-71.06379,42.35357],[-71.063768,42.353564],[-71.063667,42.353725],[-71.063688,42.35354],[-71.063792,42.353548]],[[-71.063641,42.353812],[-71.06364,42.353828],[-71.063634,42.353826],[-71.063641,42.353812]],[[-71.063443,42.354063],[-71.063339,42.354176],[-71.063349,42.354059],[-71.063443,42.354063]],[[-71.063192,42.353503],[-71.063167,42.354022],[-71.063148,42.354021],[-71.063192,42.353503]],[[-71.063031,42.349044],[-71.062996,42.349189],[-71.06298,42.349147],[-71.063031,42.349044]],[[-71.062973,42.349593],[-71.062972,42.349593],[-71.062973,42.349592],[-71.062973,42.349593]],[[-71.06286,42.348187],[-71.062849,42.348286],[-71.06276,42.348273],[-71.062774,42.348169],[-71.06286,42.348187]],[[-71.062743,42.354867],[-71.062737,42.354942],[-71.062691,42.354917],[-71.062743,42.354867]],[[-71.062719,42.349475],[-71.062718,42.349493],[-71.062698,42.349485],[-71.062719,42.349475]],[[-71.062707,42.350296],[-71.062665,42.350453],[-71.062614,42.350431],[-71.062626,42.350261],[-71.062707,42.350296]],[[-71.062587,42.349447],[-71.062574,42.349455],[-71.062473,42.34941],[-71.062548,42.349371],[-71.062544,42.349427],[-71.062587,42.349447]],[[-71.062488,42.349844],[-71.062484,42.349893],[-71.062445,42.349947],[-71.06244,42.350009],[-71.062189,42.349904],[-71.062195,42.349891],[-71.062257,42.349916],[-71.062472,42.349835],[-71.062488,42.349844]],[[-71.062423,42.351598],[-71.062415,42.351596],[-71.06242,42.351535],[-71.062423,42.351598]],[[-71.062292,42.350698],[-71.06226,42.351057],[-71.062158,42.351034],[-71.062145,42.351215],[-71.062188,42.351548],[-71.062099,42.351533],[-71.06211,42.351383],[-71.062075,42.351122],[-71.062098,42.351066],[-71.062104,42.350988],[-71.062161,42.351002],[-71.062206,42.350944],[-71.062268,42.350846],[-71.062279,42.350694],[-71.062292,42.350698]],[[-71.062231,42.354859],[-71.062217,42.354875],[-71.062132,42.354846],[-71.062153,42.354823],[-71.062231,42.354859]],[[-71.062062,42.354114],[-71.061885,42.354297],[-71.062016,42.354157],[-71.06202,42.354093],[-71.062062,42.354114]],[[-71.061806,42.354367],[-71.0618,42.354454],[-71.061746,42.354426],[-71.061806,42.354367]],[[-71.06158,42.354586],[-71.06158,42.354588],[-71.061445,42.354714],[-71.06158,42.354586]],[[-71.061369,42.354787],[-71.061357,42.354947],[-71.061256,42.354894],[-71.061369,42.354787]],[[-71.060763,42.351986],[-71.060742,42.351969],[-71.060676,42.35176],[-71.060692,42.351758],[-71.060763,42.351986]],[[-71.060624,42.352629],[-71.060596,42.352631],[-71.060602,42.352559],[-71.060624,42.352629]],[[-71.059361,42.354671],[-71.059358,42.354767],[-71.059206,42.354655],[-71.059361,42.354671]],[[-71.059164,42.354041],[-71.059133,42.354047],[-71.05907,42.353994],[-71.059164,42.354041]],[[-71.05697,42.351118],[-71.056926,42.351239],[-71.056931,42.351162],[-71.056949,42.351166],[-71.05697,42.351118]],[[-71.056965,42.354195],[-71.056924,42.354761],[-71.05689,42.354747],[-71.056785,42.354755],[-71.056813,42.354373],[-71.056772,42.354146],[-71.056896,42.354106],[-71.056891,42.35417],[-71.056965,42.354195]],[[-71.056917,42.351258],[-71.056841,42.351433],[-71.056832,42.351547],[-71.056793,42.35153],[-71.056917,42.351258]],[[-71.055886,42.353918],[-71.055881,42.353987],[-71.055802,42.354022],[-71.055807,42.353953],[-71.055886,42.353918]],[[-71.055613,42.354685],[-71.055611,42.354704],[-71.055612,42.354685],[-71.055613,42.354685]],[[-71.055422,42.354076],[-71.055401,42.354219],[-71.055179,42.354313],[-71.055066,42.354415],[-71.055079,42.354189],[-71.055143,42.354254],[-71.055422,42.354076]]],[[[-71.06461,42.353278],[-71.064542,42.353266],[-71.064506,42.353396],[-71.064574,42.35341],[-71.06461,42.353278]]],[[[-71.064113,42.347947],[-71.063968,42.347919],[-71.063883,42.347989],[-71.063856,42.347985],[-71.063824,42.348144],[-71.063555,42.348107],[-71.0636,42.347945],[-71.063606,42.347866],[-71.06346,42.347843],[-71.063365,42.348193],[-71.063358,42.348292],[-71.063857,42.348367],[-71.063881,42.348416],[-71.064,42.348433],[-71.064012,42.34839],[-71.064047,42.348392],[-71.064073,42.348297],[-71.064113,42.347947]]],[[[-71.063935,42.354829],[-71.063869,42.354811],[-71.063844,42.354889],[-71.06391,42.354906],[-71.063935,42.354829]]],[[[-71.062446,42.347953],[-71.061926,42.347827],[-71.061878,42.347943],[-71.061858,42.348221],[-71.061869,42.348224],[-71.06165,42.348751],[-71.061583,42.348951],[-71.061552,42.34896],[-71.061349,42.349469],[-71.06134,42.349582],[-71.061307,42.349568],[-71.061196,42.349845],[-71.061185,42.34999],[-71.061162,42.349985],[-71.061137,42.350069],[-71.061179,42.350078],[-71.061177,42.350106],[-71.06109,42.35016],[-71.061001,42.350379],[-71.060984,42.350609],[-71.060899,42.350587],[-71.060881,42.350626],[-71.060839,42.350774],[-71.060831,42.350882],[-71.061047,42.35093],[-71.061185,42.350914],[-71.061184,42.350931],[-71.061315,42.350957],[-71.061349,42.350851],[-71.06136,42.350735],[-71.061327,42.350711],[-71.061466,42.350743],[-71.061745,42.350074],[-71.061782,42.350066],[-71.061945,42.349683],[-71.061975,42.34927],[-71.06182,42.349237],[-71.061839,42.34916],[-71.061762,42.349143],[-71.061884,42.348884],[-71.061895,42.34873],[-71.061844,42.348718],[-71.061904,42.348569],[-71.062212,42.34864],[-71.06223,42.348599],[-71.062253,42.348604],[-71.062361,42.348318],[-71.062391,42.34832],[-71.062426,42.348231],[-71.062446,42.347953]],[[-71.062217,42.348302],[-71.062165,42.348433],[-71.061977,42.348389],[-71.062027,42.348265],[-71.062217,42.348302]]],[[[-71.061866,42.34764],[-71.061712,42.347604],[-71.061566,42.347954],[-71.061534,42.348335],[-71.061414,42.348308],[-71.061385,42.348414],[-71.061377,42.348525],[-71.061395,42.348548],[-71.061351,42.348556],[-71.061342,42.348577],[-71.061288,42.348565],[-71.061244,42.348672],[-71.061239,42.348744],[-71.061155,42.348757],[-71.061116,42.348821],[-71.061094,42.348905],[-71.061085,42.349033],[-71.061099,42.349044],[-71.061076,42.349184],[-71.061143,42.349199],[-71.061139,42.349314],[-71.061017,42.349264],[-71.06102,42.349213],[-71.060994,42.349204],[-71.061004,42.349108],[-71.060964,42.349082],[-71.060968,42.34907],[-71.061028,42.349084],[-71.061054,42.348944],[-71.060922,42.348912],[-71.061005,42.348715],[-71.06112,42.348741],[-71.061228,42.3485],[-71.061348,42.348517],[-71.061365,42.348369],[-71.061302,42.348343],[-71.061312,42.348228],[-71.061184,42.348198],[-71.061147,42.348242],[-71.061038,42.348552],[-71.061068,42.348118],[-71.061011,42.348097],[-71.060549,42.348739],[-71.060516,42.349197],[-71.060443,42.349109],[-71.060321,42.349063],[-71.060204,42.349326],[-71.059925,42.350048],[-71.059906,42.350307],[-71.059867,42.350296],[-71.059794,42.350499],[-71.059784,42.350702],[-71.059802,42.350706],[-71.059801,42.35072],[-71.060011,42.350765],[-71.060055,42.350639],[-71.060181,42.350678],[-71.059972,42.351168],[-71.059963,42.351292],[-71.060243,42.351354],[-71.060259,42.351328],[-71.060258,42.351349],[-71.060461,42.351394],[-71.060586,42.351112],[-71.060594,42.350995],[-71.060646,42.350846],[-71.060685,42.350854],[-71.060732,42.350745],[-71.060735,42.350702],[-71.0608,42.35072],[-71.060938,42.350381],[-71.060966,42.349994],[-71.060509,42.349891],[-71.06038,42.350207],[-71.060358,42.350507],[-71.060265,42.350486],[-71.060288,42.350429],[-71.060297,42.350301],[-71.060328,42.350285],[-71.060528,42.349797],[-71.060565,42.34929],[-71.060747,42.349334],[-71.060964,42.349416],[-71.060982,42.349376],[-71.060978,42.349424],[-71.06119,42.349515],[-71.061238,42.349444],[-71.061241,42.349398],[-71.061261,42.349403],[-71.061327,42.349249],[-71.061427,42.348946],[-71.061435,42.348836],[-71.06147,42.348844],[-71.061597,42.348519],[-71.061611,42.348522],[-71.061632,42.348471],[-71.061636,42.348415],[-71.061649,42.348418],[-71.061697,42.348333],[-71.061841,42.347984],[-71.061866,42.34764]],[[-71.060965,42.349212],[-71.060911,42.349213],[-71.060916,42.349201],[-71.060965,42.349212]],[[-71.060336,42.350864],[-71.060293,42.350854],[-71.060309,42.350815],[-71.060334,42.350821],[-71.060336,42.350864]]],[[[-71.061645,42.352413],[-71.061625,42.3523],[-71.061514,42.352311],[-71.061454,42.352351],[-71.061462,42.3525],[-71.06164,42.352483],[-71.061645,42.352413]]],[[[-71.060448,42.351979],[-71.060234,42.351369],[-71.059977,42.351309],[-71.059959,42.351353],[-71.059962,42.351307],[-71.059758,42.351262],[-71.059709,42.351391],[-71.059699,42.351641],[-71.059806,42.352271],[-71.060022,42.352253],[-71.060033,42.352102],[-71.059961,42.351659],[-71.060087,42.351656],[-71.060088,42.351634],[-71.060151,42.351622],[-71.060217,42.35184],[-71.060056,42.351864],[-71.060045,42.352017],[-71.060064,42.352138],[-71.060242,42.35213],[-71.06044,42.35209],[-71.060448,42.351979]]],[[[-71.059748,42.352478],[-71.059715,42.35226],[-71.059695,42.352262],[-71.059626,42.351804],[-71.059386,42.351848],[-71.059372,42.352047],[-71.059464,42.352656],[-71.059734,42.352673],[-71.059748,42.352478]]],[[[-71.059505,42.350215],[-71.059471,42.35018],[-71.059047,42.350086],[-71.058996,42.350102],[-71.058689,42.350861],[-71.058677,42.351021],[-71.058633,42.351011],[-71.058362,42.351689],[-71.058352,42.351831],[-71.058548,42.351874],[-71.058736,42.351696],[-71.058891,42.351502],[-71.05902,42.351264],[-71.059035,42.351141],[-71.059131,42.351162],[-71.059186,42.351146],[-71.059492,42.350389],[-71.059505,42.350215]]],[[[-71.059318,42.349726],[-71.059179,42.349693],[-71.059105,42.349866],[-71.059102,42.349909],[-71.059241,42.349942],[-71.059315,42.34977],[-71.059318,42.349726]]],[[[-71.058776,42.350034],[-71.058372,42.349945],[-71.058142,42.350751],[-71.058132,42.350883],[-71.058104,42.350876],[-71.058088,42.350927],[-71.057903,42.351616],[-71.057898,42.351688],[-71.057885,42.351686],[-71.057824,42.351882],[-71.057835,42.351719],[-71.057912,42.35129],[-71.057975,42.351299],[-71.058038,42.351069],[-71.058049,42.350915],[-71.058175,42.350485],[-71.05818,42.350411],[-71.058232,42.350266],[-71.058242,42.350134],[-71.058286,42.349961],[-71.058385,42.349726],[-71.058424,42.349376],[-71.057971,42.349276],[-71.058042,42.349099],[-71.058071,42.348706],[-71.057613,42.348605],[-71.057529,42.348814],[-71.057501,42.349202],[-71.057915,42.349293],[-71.057859,42.349433],[-71.057854,42.349508],[-71.057975,42.349535],[-71.057962,42.349568],[-71.057872,42.349548],[-71.057853,42.349597],[-71.05785,42.349633],[-71.05794,42.349653],[-71.057928,42.349825],[-71.05794,42.349845],[-71.057874,42.34983],[-71.057688,42.349927],[-71.057546,42.350612],[-71.057535,42.350768],[-71.057372,42.351611],[-71.057355,42.351608],[-71.057291,42.351952],[-71.057258,42.352284],[-71.05791,42.352489],[-71.057934,42.352484],[-71.058097,42.351986],[-71.058107,42.351847],[-71.058276,42.351476],[-71.0584,42.351151],[-71.058414,42.350953],[-71.058242,42.35091],[-71.058261,42.350868],[-71.058453,42.350916],[-71.058459,42.350901],[-71.058476,42.350905],[-71.05852,42.350814],[-71.05854,42.350791],[-71.058555,42.350794],[-71.058622,42.350627],[-71.058635,42.35046],[-71.058687,42.35047],[-71.058748,42.350359],[-71.058776,42.350034]]],[[[-71.056775,42.349199],[-71.056596,42.349149],[-71.05553,42.349454],[-71.056672,42.347749],[-71.056683,42.347603],[-71.056673,42.347544],[-71.055908,42.347262],[-71.054533,42.349309],[-71.054519,42.349436],[-71.054447,42.34941],[-71.053477,42.350853],[-71.053459,42.351101],[-71.05404,42.351316],[-71.054153,42.351171],[-71.054332,42.351237],[-71.055302,42.34979],[-71.055304,42.349762],[-71.055382,42.349672],[-71.055025,42.350377],[-71.055014,42.35053],[-71.0551,42.350597],[-71.055096,42.350647],[-71.055154,42.350663],[-71.055163,42.350646],[-71.055356,42.350792],[-71.055508,42.350848],[-71.056143,42.350842],[-71.056227,42.350826],[-71.056423,42.350434],[-71.056624,42.349935],[-71.056764,42.349352],[-71.056775,42.349199]]],[[[-71.055768,42.35162],[-71.055498,42.351545],[-71.054479,42.351779],[-71.054307,42.351954],[-71.05429,42.352189],[-71.054816,42.352467],[-71.054976,42.352518],[-71.055144,42.352543],[-71.055321,42.352503],[-71.055441,42.352413],[-71.055532,42.352304],[-71.055751,42.351855],[-71.055768,42.35162]]]]},"properties":{"kind":"building"}},{"type":"Feature","geometry":{"type":"MultiPolygon","coordinates":[[[[-71.066058,42.353451],[-71.066047,42.35341],[-71.066015,42.353375],[-71.065912,42.353343],[-71.065915,42.353263],[-71.065971,42.353241],[-71.065997,42.353212],[-71.066011,42.353109],[-71.066038,42.353056],[-71.066048,42.352923],[-71.066021,42.352832],[-71.065989,42.352797],[-71.065886,42.352765],[-71.06583,42.352773],[-71.065772,42.352808],[-71.065768,42.352761],[-71.065697,42.352725],[-71.065734,42.352711],[-71.065805,42.352743],[-71.06587,42.352713],[-71.065911,42.352747],[-71.065968,42.352747],[-71.066009,42.352717],[-71.066016,42.352576],[-71.065976,42.352546],[-71.065918,42.352546],[-71.065882,42.352572],[-71.065841,42.352538],[-71.065759,42.35255],[-71.065688,42.352518],[-71.065635,42.352534],[-71.065611,42.352599],[-71.065539,42.352598],[-71.06549,42.352634],[-71.065455,42.353],[-71.065408,42.353037],[-71.065394,42.353153],[-71.065365,42.353225],[-71.065265,42.353195],[-71.065209,42.353203],[-71.065208,42.353191],[-71.065281,42.35318],[-71.065301,42.353144],[-71.065308,42.353051],[-71.065271,42.353007],[-71.065271,42.352957],[-71.06525,42.352941],[-71.065199,42.352957],[-71.065167,42.353123],[-71.065123,42.353143],[-71.065116,42.353207],[-71.06506,42.353168],[-71.065018,42.353161],[-71.064933,42.353193],[-71.064928,42.353066],[-71.064865,42.353015],[-71.06483,42.352952],[-71.064745,42.352926],[-71.06466,42.352952],[-71.064625,42.353015],[-71.064615,42.353154],[-71.06464,42.353206],[-71.064637,42.353245],[-71.064581,42.353265],[-71.064549,42.353323],[-71.064548,42.353485],[-71.064522,42.353658],[-71.064551,42.353711],[-71.064584,42.353727],[-71.064622,42.353732],[-71.064693,42.353711],[-71.064723,42.353658],[-71.064725,42.353512],[-71.06476,42.353454],[-71.064828,42.353457],[-71.064867,42.353428],[-71.064878,42.353335],[-71.064903,42.353312],[-71.064898,42.353374],[-71.064928,42.353428],[-71.064895,42.353441],[-71.064875,42.353478],[-71.064868,42.353574],[-71.064889,42.353611],[-71.064939,42.353627],[-71.06499,42.353611],[-71.06501,42.353574],[-71.065012,42.353458],[-71.065051,42.353449],[-71.065034,42.353615],[-71.065071,42.353679],[-71.065158,42.353706],[-71.065205,42.353699],[-71.065245,42.353679],[-71.065292,42.353609],[-71.065302,42.353697],[-71.065347,42.353739],[-71.065285,42.35377],[-71.065274,42.353866],[-71.065225,42.353846],[-71.065181,42.35386],[-71.065163,42.353892],[-71.065157,42.353977],[-71.065142,42.353957],[-71.065096,42.353943],[-71.06505,42.353957],[-71.065031,42.353991],[-71.06503,42.3541],[-71.065065,42.354126],[-71.065128,42.354119],[-71.06513,42.354165],[-71.065184,42.354192],[-71.065238,42.354165],[-71.065248,42.354075],[-71.065308,42.354108],[-71.065368,42.354079],[-71.06538,42.35397],[-71.065351,42.353931],[-71.065379,42.353923],[-71.065381,42.353964],[-71.065411,42.353986],[-71.065453,42.353986],[-71.065483,42.353964],[-71.065489,42.353851],[-71.065459,42.353829],[-71.065417,42.353829],[-71.065401,42.353758],[-71.065458,42.353795],[-71.065505,42.353795],[-71.06549,42.353945],[-71.065506,42.353972],[-71.065542,42.353983],[-71.06559,42.35396],[-71.065625,42.353756],[-71.065608,42.353725],[-71.065557,42.353714],[-71.065583,42.353656],[-71.065594,42.353508],[-71.065583,42.353467],[-71.065509,42.353411],[-71.065638,42.353322],[-71.065651,42.353219],[-71.06567,42.353218],[-71.065673,42.353288],[-71.065715,42.353319],[-71.065749,42.353384],[-71.06578,42.353399],[-71.065755,42.353599],[-71.065766,42.35364],[-71.065798,42.353675],[-71.065901,42.353707],[-71.066005,42.353675],[-71.066036,42.35364],[-71.066047,42.353599],[-71.066058,42.353451]],[[-71.065735,42.352935],[-71.065734,42.352953],[-71.065716,42.352944],[-71.065735,42.352935]],[[-71.065677,42.352726],[-71.065662,42.352729],[-71.06566,42.352724],[-71.065677,42.352726]],[[-71.065414,42.353405],[-71.065404,42.353407],[-71.065404,42.3534],[-71.065414,42.353405]],[[-71.065305,42.353924],[-71.06529,42.353926],[-71.065285,42.353909],[-71.065305,42.353924]],[[-71.065247,42.354019],[-71.065244,42.354049],[-71.065212,42.354024],[-71.065158,42.354029],[-71.065161,42.353993],[-71.065195,42.354022],[-71.065247,42.354019]],[[-71.065135,42.353256],[-71.065126,42.353277],[-71.065128,42.353253],[-71.065135,42.353256]]],[[[-71.066046,42.354972],[-71.066004,42.354925],[-71.06593,42.354936],[-71.06591,42.354972],[-71.065903,42.355065],[-71.065923,42.355101],[-71.065971,42.355116],[-71.066019,42.355101],[-71.066039,42.355065],[-71.066046,42.354972]]],[[[-71.06602,42.354061],[-71.065996,42.354034],[-71.065953,42.354041],[-71.065937,42.354128],[-71.065923,42.354056],[-71.065889,42.354045],[-71.065855,42.354056],[-71.06584,42.354081],[-71.065839,42.354171],[-71.065883,42.354193],[-71.065918,42.354182],[-71.065927,42.354211],[-71.065959,42.354211],[-71.065969,42.354156],[-71.066012,42.354139],[-71.06602,42.354061]]],[[[-71.065865,42.354468],[-71.065855,42.354431],[-71.065785,42.354379],[-71.065685,42.354379],[-71.065643,42.3544],[-71.065605,42.354468],[-71.065594,42.354616],[-71.065604,42.354652],[-71.065675,42.354704],[-71.065724,42.354712],[-71.065816,42.354684],[-71.065854,42.354616],[-71.065865,42.354468]]],[[[-71.06583,42.348038],[-71.06579,42.347994],[-71.06574,42.347994],[-71.065705,42.34802],[-71.065674,42.348262],[-71.065694,42.348341],[-71.06572,42.348341],[-71.065728,42.348302],[-71.06578,42.348277],[-71.06579,42.34818],[-71.065823,42.348128],[-71.06583,42.348038]]],[[[-71.065764,42.353939],[-71.065749,42.353914],[-71.065696,42.353906],[-71.06567,42.353925],[-71.065665,42.353954],[-71.06563,42.353965],[-71.06561,42.354066],[-71.065624,42.354091],[-71.065677,42.354099],[-71.065703,42.35408],[-71.065708,42.354051],[-71.065744,42.35404],[-71.065764,42.353939]]],[[[-71.065738,42.348446],[-71.065702,42.348406],[-71.065639,42.348415],[-71.065622,42.348446],[-71.065615,42.348531],[-71.065633,42.348561],[-71.065674,42.348574],[-71.065715,42.348561],[-71.065732,42.348531],[-71.065738,42.348446]]],[[[-71.065683,42.354843],[-71.065674,42.354808],[-71.065607,42.354759],[-71.06556,42.354752],[-71.065485,42.354773],[-71.065481,42.354739],[-71.065444,42.354711],[-71.065349,42.354724],[-71.065345,42.354674],[-71.065327,42.354655],[-71.065232,42.354615],[-71.065147,42.354627],[-71.065122,42.354694],[-71.065086,42.354703],[-71.065103,42.354592],[-71.065065,42.35455],[-71.065067,42.354458],[-71.065049,42.354426],[-71.064899,42.354414],[-71.064824,42.354451],[-71.06481,42.354579],[-71.064834,42.354621],[-71.064814,42.354661],[-71.064806,42.354774],[-71.064833,42.354822],[-71.064862,42.354836],[-71.064871,42.354892],[-71.064901,42.354914],[-71.064943,42.354914],[-71.064973,42.354892],[-71.064992,42.354712],[-71.065058,42.354722],[-71.065041,42.354853],[-71.065064,42.354893],[-71.065152,42.354939],[-71.065227,42.354928],[-71.065249,42.354969],[-71.065302,42.354985],[-71.065371,42.354951],[-71.065379,42.354895],[-71.065433,42.354898],[-71.065436,42.35502],[-71.065503,42.355069],[-71.06555,42.355076],[-71.065597,42.355069],[-71.065664,42.35502],[-71.065683,42.354843]],[[-71.06498,42.354588],[-71.064977,42.354622],[-71.06496,42.354609],[-71.06498,42.354588]]],[[[-71.065598,42.348957],[-71.065567,42.348947],[-71.065565,42.349002],[-71.06559,42.349002],[-71.065598,42.348957]]],[[[-71.065588,42.351223],[-71.065557,42.351213],[-71.065554,42.351277],[-71.06558,42.351277],[-71.065588,42.351223]]],[[[-71.065562,42.349094],[-71.065531,42.349084],[-71.065529,42.349139],[-71.065554,42.349139],[-71.065562,42.349094]]],[[[-71.065559,42.349236],[-71.065529,42.349203],[-71.065476,42.349211],[-71.065457,42.349302],[-71.065471,42.349327],[-71.065505,42.349338],[-71.06554,42.349327],[-71.065559,42.349236]]],[[[-71.065552,42.348316],[-71.065514,42.348274],[-71.065466,42.348274],[-71.065433,42.348299],[-71.065422,42.348403],[-71.06544,42.348436],[-71.06544,42.348511],[-71.065472,42.348511],[-71.065483,42.348449],[-71.065541,42.348421],[-71.065552,42.348316]]],[[[-71.065548,42.34811],[-71.065517,42.3481],[-71.065514,42.348158],[-71.06554,42.348158],[-71.065548,42.34811]]],[[[-71.065465,42.352587],[-71.065457,42.352558],[-71.065401,42.352516],[-71.065321,42.352516],[-71.065288,42.352533],[-71.065257,42.352587],[-71.065256,42.352741],[-71.065312,42.352783],[-71.065352,42.352788],[-71.065425,42.352766],[-71.065456,42.352712],[-71.065465,42.352587]]],[[[-71.065433,42.34879],[-71.065403,42.348757],[-71.06535,42.348765],[-71.065331,42.348856],[-71.065345,42.348881],[-71.065379,42.348892],[-71.065414,42.348881],[-71.065433,42.34879]]],[[[-71.065396,42.34894],[-71.065374,42.348916],[-71.065327,42.34893],[-71.06533,42.349023],[-71.065355,42.349031],[-71.065388,42.349015],[-71.065396,42.34894]]],[[[-71.065379,42.34907],[-71.065349,42.349037],[-71.065311,42.349037],[-71.065285,42.349056],[-71.065276,42.349146],[-71.06529,42.349171],[-71.065324,42.349182],[-71.065369,42.34916],[-71.065379,42.34907]]],[[[-71.065368,42.35121],[-71.065337,42.3512],[-71.065334,42.351261],[-71.06536,42.351261],[-71.065368,42.35121]]],[[[-71.065268,42.35121],[-71.065237,42.3512],[-71.065234,42.351258],[-71.06526,42.351258],[-71.065268,42.35121]]],[[[-71.065204,42.352785],[-71.065168,42.352745],[-71.065124,42.352745],[-71.065092,42.352768],[-71.065079,42.352878],[-71.065047,42.352891],[-71.065027,42.352928],[-71.06502,42.353024],[-71.065041,42.353061],[-71.065091,42.353077],[-71.065157,42.353044],[-71.065204,42.352785]]],[[[-71.065176,42.35072],[-71.06515,42.350701],[-71.065126,42.350713],[-71.065121,42.350765],[-71.065099,42.350784],[-71.065093,42.350913],[-71.065126,42.350903],[-71.06515,42.350794],[-71.065172,42.350776],[-71.065176,42.35072]]],[[[-71.065109,42.352581],[-71.065102,42.352553],[-71.065049,42.352515],[-71.064975,42.352515],[-71.064943,42.35253],[-71.064915,42.352581],[-71.064913,42.352728],[-71.064966,42.352767],[-71.065003,42.352772],[-71.065072,42.352751],[-71.065101,42.3527],[-71.065109,42.352581]]],[[[-71.065099,42.354179],[-71.065063,42.354139],[-71.065,42.354148],[-71.064983,42.354179],[-71.064976,42.354264],[-71.064994,42.354294],[-71.065035,42.354307],[-71.065076,42.354294],[-71.065093,42.354264],[-71.065099,42.354179]]],[[[-71.064955,42.354294],[-71.06494,42.354267],[-71.064906,42.354256],[-71.064911,42.354156],[-71.064885,42.354137],[-71.064832,42.354145],[-71.064812,42.354246],[-71.064826,42.354271],[-71.064855,42.354281],[-71.064845,42.354373],[-71.064861,42.3544],[-71.064897,42.354411],[-71.064945,42.354388],[-71.064955,42.354294]]],[[[-71.064944,42.35131],[-71.064913,42.3513],[-71.06491,42.351361],[-71.064936,42.351361],[-71.064944,42.35131]]],[[[-71.064935,42.35396],[-71.064929,42.353937],[-71.064885,42.353905],[-71.064823,42.353905],[-71.064782,42.353933],[-71.064779,42.353878],[-71.064737,42.353847],[-71.064677,42.353847],[-71.064637,42.353876],[-71.064632,42.353832],[-71.064614,42.353813],[-71.064557,42.353795],[-71.064508,42.353809],[-71.064444,42.353775],[-71.064476,42.35373],[-71.064478,42.353622],[-71.064443,42.353596],[-71.064372,42.353606],[-71.064351,42.35367],[-71.064324,42.353692],[-71.064317,42.353739],[-71.064284,42.353761],[-71.064211,42.354123],[-71.064178,42.354117],[-71.064125,42.354133],[-71.064103,42.354172],[-71.064099,42.354231],[-71.064074,42.354252],[-71.064064,42.354343],[-71.064005,42.354344],[-71.063961,42.354376],[-71.063952,42.354438],[-71.063903,42.354482],[-71.063883,42.354645],[-71.063818,42.354663],[-71.063792,42.354729],[-71.063755,42.354758],[-71.063748,42.354904],[-71.06379,42.354935],[-71.063849,42.354935],[-71.063948,42.354838],[-71.063958,42.354764],[-71.064027,42.354779],[-71.064083,42.35477],[-71.064156,42.354718],[-71.064155,42.35481],[-71.064185,42.354832],[-71.064227,42.354832],[-71.064225,42.354877],[-71.064246,42.354914],[-71.064323,42.354926],[-71.064362,42.354897],[-71.064372,42.354814],[-71.064415,42.354814],[-71.064445,42.354792],[-71.064453,42.354728],[-71.064508,42.354735],[-71.064536,42.354715],[-71.064544,42.354648],[-71.064589,42.354665],[-71.064637,42.354644],[-71.06469,42.354656],[-71.064765,42.354633],[-71.064797,42.354577],[-71.064806,42.354449],[-71.064798,42.354419],[-71.064758,42.354385],[-71.064759,42.354284],[-71.064696,42.354253],[-71.064648,42.354267],[-71.064628,42.354303],[-71.064624,42.354357],[-71.064571,42.354378],[-71.064562,42.354463],[-71.064529,42.354435],[-71.064466,42.354444],[-71.064445,42.354531],[-71.064404,42.354519],[-71.064363,42.354531],[-71.064343,42.354603],[-71.064296,42.3546],[-71.064268,42.35462],[-71.06426,42.354694],[-71.064212,42.354672],[-71.064173,42.354684],[-71.064184,42.354525],[-71.064253,42.35454],[-71.064309,42.354531],[-71.064388,42.354473],[-71.06441,42.354284],[-71.064399,42.354243],[-71.064367,42.354208],[-71.064376,42.354084],[-71.064412,42.353989],[-71.064474,42.35398],[-71.064518,42.354015],[-71.064521,42.354041],[-71.06445,42.354063],[-71.064427,42.354089],[-71.06441,42.354247],[-71.064441,42.354303],[-71.064517,42.354326],[-71.064558,42.35432],[-71.064616,42.354277],[-71.064632,42.354137],[-71.064659,42.354127],[-71.064717,42.354151],[-71.064768,42.354135],[-71.064787,42.354105],[-71.064846,42.354125],[-71.064904,42.354107],[-71.064928,42.354065],[-71.064935,42.35396]],[[-71.064581,42.354496],[-71.064563,42.354502],[-71.064565,42.35448],[-71.064581,42.354496]],[[-71.064532,42.354595],[-71.064532,42.354596],[-71.064532,42.354595],[-71.064532,42.354595]],[[-71.064462,42.354591],[-71.06446,42.354592],[-71.06446,42.35459],[-71.064462,42.354591]],[[-71.064269,42.354736],[-71.064265,42.354737],[-71.064266,42.354732],[-71.064269,42.354736]]],[[[-71.064911,42.354986],[-71.064903,42.354957],[-71.064847,42.354915],[-71.064767,42.354915],[-71.064734,42.354932],[-71.064703,42.354986],[-71.064702,42.35514],[-71.064758,42.355182],[-71.064798,42.355187],[-71.064871,42.355165],[-71.064902,42.355111],[-71.064911,42.354986]]],[[[-71.064857,42.348456],[-71.064826,42.348446],[-71.064823,42.348504],[-71.064849,42.348504],[-71.064857,42.348456]]],[[[-71.064739,42.354797],[-71.064708,42.354787],[-71.064705,42.354845],[-71.064731,42.354845],[-71.064739,42.354797]]],[[[-71.064624,42.351826],[-71.064593,42.351816],[-71.06459,42.351874],[-71.064616,42.351874],[-71.064624,42.351826]]],[[[-71.064621,42.348425],[-71.06459,42.348415],[-71.064587,42.348473],[-71.064613,42.348473],[-71.064621,42.348425]]],[[[-71.064568,42.352055],[-71.06455,42.352042],[-71.064532,42.352055],[-71.064514,42.352208],[-71.06454,42.352208],[-71.064559,42.35216],[-71.064568,42.352055]]],[[[-71.064436,42.348399],[-71.064405,42.348389],[-71.064402,42.348447],[-71.064428,42.348447],[-71.064436,42.348399]]],[[[-71.064238,42.350925],[-71.064207,42.350915],[-71.064204,42.350973],[-71.06423,42.350973],[-71.064238,42.350925]]],[[[-71.064209,42.34872],[-71.06417,42.348708],[-71.064166,42.348785],[-71.064198,42.348785],[-71.064209,42.34872]]],[[[-71.064168,42.34884],[-71.064137,42.34883],[-71.064134,42.348897],[-71.064159,42.348897],[-71.064168,42.34884]]],[[[-71.064148,42.350914],[-71.064117,42.350904],[-71.064114,42.350962],[-71.06414,42.350962],[-71.064148,42.350914]]],[[[-71.064088,42.3533],[-71.064057,42.35329],[-71.064054,42.353357],[-71.064079,42.353357],[-71.064088,42.3533]]],[[[-71.064082,42.350914],[-71.064062,42.350892],[-71.06402,42.350905],[-71.064023,42.350993],[-71.064046,42.351],[-71.064076,42.350985],[-71.064082,42.350914]]],[[[-71.064049,42.35339],[-71.064016,42.35338],[-71.064013,42.35345],[-71.06404,42.35345],[-71.064049,42.35339]]],[[[-71.064013,42.353283],[-71.063982,42.353273],[-71.063979,42.35334],[-71.064004,42.35334],[-71.064013,42.353283]]],[[[-71.063998,42.35376],[-71.063967,42.35375],[-71.063964,42.353817],[-71.063989,42.353817],[-71.063998,42.35376]]],[[[-71.063984,42.353386],[-71.063951,42.353376],[-71.063948,42.353446],[-71.063975,42.353446],[-71.063984,42.353386]]],[[[-71.063973,42.350903],[-71.063949,42.350876],[-71.063898,42.350892],[-71.06389,42.35097],[-71.063902,42.350991],[-71.063929,42.350999],[-71.063965,42.350981],[-71.063973,42.350903]]],[[[-71.063943,42.353268],[-71.063904,42.353256],[-71.0639,42.353333],[-71.063932,42.353333],[-71.063943,42.353268]]],[[[-71.063928,42.353374],[-71.063897,42.353364],[-71.063894,42.353431],[-71.063919,42.353431],[-71.063928,42.353374]]],[[[-71.063922,42.353967],[-71.063902,42.353945],[-71.06386,42.353958],[-71.063863,42.354046],[-71.063886,42.354053],[-71.063916,42.354038],[-71.063922,42.353967]]],[[[-71.063915,42.348675],[-71.063896,42.348661],[-71.063877,42.348675],[-71.063873,42.348725],[-71.063849,42.348737],[-71.063839,42.348841],[-71.063865,42.348841],[-71.063889,42.348796],[-71.063915,42.348675]]],[[[-71.063879,42.34887],[-71.063846,42.34886],[-71.063843,42.34893],[-71.06387,42.34893],[-71.063879,42.34887]]],[[[-71.063821,42.349148],[-71.06379,42.349138],[-71.063787,42.349196],[-71.063813,42.349196],[-71.063821,42.349148]]],[[[-71.063816,42.35412],[-71.06379,42.354101],[-71.063766,42.354113],[-71.063768,42.354189],[-71.06381,42.354183],[-71.063816,42.35412]]],[[[-71.063808,42.348427],[-71.063777,42.348417],[-71.063774,42.348475],[-71.0638,42.348475],[-71.063808,42.348427]]],[[[-71.063768,42.349293],[-71.06375,42.34928],[-71.063732,42.349293],[-71.063721,42.349383],[-71.063752,42.349374],[-71.063768,42.349293]]],[[[-71.063718,42.34841],[-71.063687,42.3484],[-71.063684,42.348458],[-71.06371,42.348458],[-71.063718,42.34841]]],[[[-71.063707,42.350883],[-71.063687,42.350861],[-71.063645,42.350874],[-71.063648,42.350962],[-71.063671,42.350969],[-71.063701,42.350954],[-71.063707,42.350883]]],[[[-71.063689,42.34976],[-71.063656,42.34975],[-71.063653,42.34982],[-71.06368,42.34982],[-71.063689,42.34976]]],[[[-71.063632,42.349854],[-71.063601,42.349844],[-71.063598,42.349911],[-71.063623,42.349911],[-71.063632,42.349854]]],[[[-71.063613,42.350876],[-71.063574,42.350864],[-71.06357,42.350941],[-71.063602,42.350941],[-71.063613,42.350876]]],[[[-71.063579,42.34995],[-71.063546,42.34994],[-71.063538,42.349988],[-71.063513,42.349995],[-71.063514,42.350057],[-71.063539,42.350057],[-71.063547,42.350013],[-71.063574,42.350006],[-71.063579,42.34995]]],[[[-71.063569,42.3547],[-71.063539,42.354667],[-71.063501,42.354667],[-71.063475,42.354686],[-71.063467,42.354765],[-71.063426,42.354775],[-71.063411,42.3548],[-71.063407,42.354866],[-71.063421,42.354891],[-71.063455,42.354902],[-71.0635,42.354879],[-71.063509,42.354801],[-71.06356,42.354779],[-71.063569,42.3547]]],[[[-71.063546,42.350864],[-71.06352,42.350845],[-71.063496,42.350857],[-71.063498,42.350933],[-71.06354,42.350927],[-71.063546,42.350864]]],[[[-71.063458,42.350418],[-71.063427,42.350408],[-71.063424,42.350475],[-71.063449,42.350475],[-71.063458,42.350418]]],[[[-71.063458,42.35018],[-71.063427,42.35017],[-71.063424,42.350234],[-71.06345,42.350234],[-71.063458,42.35018]]],[[[-71.063434,42.350487],[-71.063403,42.350477],[-71.0634,42.350541],[-71.063426,42.350541],[-71.063434,42.350487]]],[[[-71.063428,42.350246],[-71.063397,42.350236],[-71.06339,42.350267],[-71.063368,42.350275],[-71.063369,42.350334],[-71.063395,42.350334],[-71.063402,42.350303],[-71.063424,42.350295],[-71.063428,42.350246]]],[[[-71.063403,42.35055],[-71.063372,42.35054],[-71.063369,42.350601],[-71.063395,42.350601],[-71.063403,42.35055]]],[[[-71.063386,42.350826],[-71.063369,42.350704],[-71.063336,42.350694],[-71.063321,42.350824],[-71.063338,42.350895],[-71.06338,42.350889],[-71.063386,42.350826]]],[[[-71.063368,42.35061],[-71.063337,42.3506],[-71.063334,42.350661],[-71.06336,42.350661],[-71.063368,42.35061]]],[[[-71.063328,42.35044],[-71.063297,42.35043],[-71.063289,42.350472],[-71.063263,42.350478],[-71.063259,42.350523],[-71.063238,42.350531],[-71.063234,42.350569],[-71.063213,42.350577],[-71.063189,42.350666],[-71.063163,42.350672],[-71.06314,42.350753],[-71.063111,42.350765],[-71.063113,42.350825],[-71.06314,42.350825],[-71.063148,42.350783],[-71.063174,42.350776],[-71.063178,42.350727],[-71.063197,42.350689],[-71.063223,42.350682],[-71.063247,42.350593],[-71.063269,42.350585],[-71.063273,42.35054],[-71.063294,42.350532],[-71.063298,42.350493],[-71.063324,42.350487],[-71.063328,42.35044]]],[[[-71.063144,42.352238],[-71.063113,42.352228],[-71.06311,42.352289],[-71.063136,42.352289],[-71.063144,42.352238]]],[[[-71.063083,42.35225],[-71.063052,42.35224],[-71.063049,42.352301],[-71.063075,42.352301],[-71.063083,42.35225]]],[[[-71.062983,42.352253],[-71.062952,42.352243],[-71.062949,42.352304],[-71.062975,42.352304],[-71.062983,42.352253]]],[[[-71.062922,42.35222],[-71.062891,42.35221],[-71.062888,42.352274],[-71.062914,42.352274],[-71.062922,42.35222]]],[[[-71.062848,42.352215],[-71.062817,42.352205],[-71.062814,42.352266],[-71.06284,42.352266],[-71.062848,42.352215]]],[[[-71.062829,42.353302],[-71.062796,42.353292],[-71.062793,42.353362],[-71.06282,42.353362],[-71.062829,42.353302]]],[[[-71.062829,42.353214],[-71.062796,42.353204],[-71.062793,42.353274],[-71.06282,42.353274],[-71.062829,42.353214]]],[[[-71.062763,42.353207],[-71.06273,42.353197],[-71.062727,42.353267],[-71.062754,42.353267],[-71.062763,42.353207]]],[[[-71.062763,42.353306],[-71.062724,42.353294],[-71.06272,42.353371],[-71.062752,42.353371],[-71.062763,42.353306]]],[[[-71.062559,42.348354],[-71.062541,42.348334],[-71.062509,42.348339],[-71.062505,42.348428],[-71.062546,42.348428],[-71.062559,42.348354]]],[[[-71.062496,42.349373],[-71.06247,42.349344],[-71.062415,42.349361],[-71.062407,42.349443],[-71.062419,42.349465],[-71.062449,42.349474],[-71.062488,42.349455],[-71.062496,42.349373]]],[[[-71.062463,42.348557],[-71.062424,42.348545],[-71.06242,42.348622],[-71.062452,42.348622],[-71.062463,42.348557]]],[[[-71.062409,42.348373],[-71.062385,42.348346],[-71.062334,42.348362],[-71.062326,42.34844],[-71.062338,42.348461],[-71.062365,42.348469],[-71.062401,42.348451],[-71.062409,42.348373]]],[[[-71.062392,42.349323],[-71.062366,42.349294],[-71.062311,42.349311],[-71.062303,42.349393],[-71.062315,42.349415],[-71.062345,42.349424],[-71.062384,42.349405],[-71.062392,42.349323]]],[[[-71.062039,42.353752],[-71.062006,42.353742],[-71.062003,42.353812],[-71.06203,42.353812],[-71.062039,42.353752]]],[[[-71.062006,42.349306],[-71.061975,42.349296],[-71.061972,42.349354],[-71.061998,42.349354],[-71.062006,42.349306]]],[[[-71.061988,42.35386],[-71.061957,42.35385],[-71.061954,42.353908],[-71.06198,42.353908],[-71.061988,42.35386]]],[[[-71.061951,42.349438],[-71.06192,42.349428],[-71.061917,42.349486],[-71.061943,42.349486],[-71.061951,42.349438]]],[[[-71.061941,42.349548],[-71.061911,42.349515],[-71.061858,42.349523],[-71.061839,42.349614],[-71.061853,42.349639],[-71.061887,42.34965],[-71.061922,42.349639],[-71.061941,42.349548]]],[[[-71.061928,42.34988],[-71.061897,42.34987],[-71.061889,42.349915],[-71.061863,42.349921],[-71.061864,42.349974],[-71.06189,42.349974],[-71.061898,42.34993],[-71.061924,42.349924],[-71.061928,42.34988]]],[[[-71.061924,42.3537],[-71.061891,42.35369],[-71.061888,42.35376],[-71.061915,42.35376],[-71.061924,42.3537]]],[[[-71.061909,42.353825],[-71.061876,42.353815],[-71.061873,42.353885],[-71.0619,42.353885],[-71.061909,42.353825]]],[[[-71.061892,42.35],[-71.061861,42.34999],[-71.06183,42.350069],[-71.061802,42.35008],[-71.061804,42.350128],[-71.06183,42.350128],[-71.061837,42.350094],[-71.06186,42.350092],[-71.061868,42.350052],[-71.061888,42.350044],[-71.061892,42.35]]],[[[-71.061851,42.348312],[-71.061823,42.348281],[-71.061789,42.348281],[-71.061764,42.348299],[-71.061755,42.348385],[-71.061769,42.348409],[-71.061801,42.348419],[-71.061843,42.348398],[-71.061851,42.348312]]],[[[-71.061828,42.353783],[-71.061797,42.353773],[-71.061794,42.353831],[-71.06182,42.353831],[-71.061828,42.353783]]],[[[-71.061825,42.353653],[-71.061792,42.353643],[-71.061789,42.353713],[-71.061816,42.353713],[-71.061825,42.353653]]],[[[-71.061824,42.350155],[-71.061793,42.350145],[-71.061785,42.350187],[-71.061763,42.350195],[-71.061764,42.350248],[-71.06179,42.350248],[-71.061798,42.350203],[-71.06182,42.350196],[-71.061824,42.350155]]],[[[-71.061789,42.350292],[-71.061765,42.350265],[-71.061714,42.350281],[-71.061709,42.350314],[-71.061675,42.350346],[-71.061669,42.350419],[-71.061683,42.350443],[-71.061715,42.350453],[-71.061757,42.350432],[-71.061763,42.350385],[-71.061784,42.350359],[-71.061789,42.350292]]],[[[-71.06177,42.348421],[-71.061739,42.348411],[-71.061736,42.348469],[-71.061762,42.348469],[-71.06177,42.348421]]],[[[-71.061766,42.349666],[-71.061736,42.349633],[-71.061683,42.349641],[-71.061664,42.349732],[-71.061678,42.349757],[-71.061712,42.349768],[-71.061747,42.349757],[-71.061766,42.349666]]],[[[-71.061759,42.353607],[-71.061729,42.353574],[-71.061676,42.353582],[-71.061657,42.353673],[-71.061671,42.353698],[-71.061705,42.353709],[-71.06174,42.353698],[-71.061759,42.353607]]],[[[-71.061747,42.353738],[-71.061716,42.353728],[-71.061713,42.353786],[-71.061739,42.353786],[-71.061747,42.353738]]],[[[-71.061692,42.348648],[-71.061666,42.348619],[-71.061611,42.348636],[-71.061603,42.348718],[-71.061615,42.34874],[-71.061645,42.348749],[-71.061684,42.34873],[-71.061692,42.348648]]],[[[-71.061645,42.348297],[-71.061611,42.348259],[-71.061551,42.348268],[-71.061535,42.348297],[-71.061529,42.348379],[-71.061545,42.348407],[-71.061584,42.348419],[-71.061623,42.348407],[-71.061639,42.348379],[-71.061645,42.348297]]],[[[-71.061628,42.35355],[-71.061597,42.35354],[-71.061594,42.353604],[-71.06162,42.353604],[-71.061628,42.35355]]],[[[-71.06161,42.348837],[-71.061579,42.348827],[-71.061576,42.348885],[-71.061602,42.348885],[-71.06161,42.348837]]],[[[-71.061608,42.3485],[-71.061577,42.34849],[-71.061574,42.348548],[-71.0616,42.348548],[-71.061608,42.3485]]],[[[-71.061597,42.348184],[-71.061566,42.348174],[-71.061563,42.348238],[-71.061589,42.348238],[-71.061597,42.348184]]],[[[-71.061565,42.34867],[-71.061537,42.348639],[-71.061503,42.348639],[-71.061478,42.348657],[-71.061469,42.348743],[-71.061483,42.348767],[-71.061515,42.348777],[-71.061557,42.348756],[-71.061565,42.34867]]],[[[-71.061548,42.349568],[-71.061518,42.349535],[-71.061465,42.349543],[-71.061446,42.349634],[-71.06146,42.349659],[-71.061494,42.34967],[-71.061529,42.349659],[-71.061548,42.349568]]],[[[-71.061502,42.348854],[-71.061476,42.348825],[-71.061421,42.348842],[-71.061413,42.348924],[-71.061425,42.348946],[-71.061455,42.348955],[-71.061494,42.348936],[-71.061502,42.348854]]],[[[-71.061493,42.35095],[-71.061454,42.350938],[-71.06145,42.351015],[-71.061482,42.351015],[-71.061493,42.35095]]],[[[-71.061472,42.34815],[-71.061434,42.348108],[-71.061386,42.348108],[-71.061353,42.348133],[-71.061342,42.348237],[-71.061403,42.348332],[-71.061446,42.348319],[-71.061472,42.34815]]],[[[-71.06145,42.349534],[-71.06142,42.349501],[-71.061367,42.349509],[-71.061348,42.3496],[-71.061362,42.349625],[-71.061396,42.349636],[-71.061431,42.349625],[-71.06145,42.349534]]],[[[-71.061438,42.349255],[-71.061407,42.349245],[-71.061404,42.349309],[-71.06143,42.349309],[-71.061438,42.349255]]],[[[-71.061418,42.351122],[-71.0614,42.351109],[-71.061382,42.351122],[-71.061379,42.351161],[-71.061361,42.35118],[-71.061363,42.351228],[-71.061394,42.351219],[-71.061418,42.351122]]],[[[-71.061399,42.349052],[-71.061366,42.349042],[-71.061363,42.349112],[-71.06139,42.349112],[-71.061399,42.349052]]],[[[-71.061371,42.35124],[-71.061353,42.351227],[-71.061335,42.35124],[-71.061332,42.351276],[-71.061316,42.351289],[-71.061318,42.351337],[-71.061349,42.351328],[-71.061371,42.35124]]],[[[-71.061368,42.34943],[-71.061337,42.34942],[-71.061334,42.349478],[-71.06136,42.349478],[-71.061368,42.34943]]],[[[-71.061349,42.349228],[-71.061331,42.349208],[-71.061299,42.349213],[-71.061295,42.349302],[-71.061336,42.349302],[-71.061349,42.349228]]],[[[-71.061282,42.34963],[-71.061264,42.349617],[-71.061246,42.34963],[-71.061243,42.349665],[-71.061225,42.349678],[-71.061227,42.349729],[-71.061258,42.349719],[-71.061282,42.34963]]],[[[-71.061244,42.35337],[-71.061213,42.35336],[-71.06121,42.353418],[-71.061236,42.353418],[-71.061244,42.35337]]],[[[-71.061238,42.354774],[-71.061207,42.354764],[-71.061204,42.354822],[-71.06123,42.354822],[-71.061238,42.354774]]],[[[-71.061222,42.34983],[-71.061196,42.349801],[-71.061141,42.349818],[-71.061133,42.3499],[-71.061145,42.349922],[-71.061175,42.349931],[-71.061214,42.349912],[-71.061222,42.34983]]],[[[-71.061188,42.354916],[-71.061157,42.354906],[-71.061154,42.354964],[-71.06118,42.354964],[-71.061188,42.354916]]],[[[-71.061188,42.353344],[-71.061157,42.353334],[-71.061154,42.353392],[-71.06118,42.353392],[-71.061188,42.353344]]],[[[-71.061156,42.35003],[-71.061124,42.349995],[-71.061084,42.349995],[-71.061056,42.350015],[-71.061046,42.350109],[-71.061062,42.350136],[-71.061098,42.350147],[-71.061146,42.350124],[-71.061156,42.35003]]],[[[-71.061138,42.35332],[-71.061107,42.35331],[-71.061104,42.353368],[-71.06113,42.353368],[-71.061138,42.35332]]],[[[-71.061048,42.353275],[-71.061017,42.353265],[-71.061014,42.353329],[-71.06104,42.353329],[-71.061048,42.353275]]],[[[-71.061038,42.34849],[-71.061007,42.34848],[-71.061004,42.348538],[-71.06103,42.348538],[-71.061038,42.34849]]],[[[-71.061032,42.348602],[-71.061,42.348567],[-71.06096,42.348567],[-71.060932,42.348587],[-71.060922,42.348681],[-71.060895,42.348717],[-71.060889,42.348797],[-71.060858,42.348827],[-71.060853,42.348897],[-71.060865,42.348919],[-71.060925,42.348919],[-71.060941,42.348839],[-71.060995,42.348814],[-71.061032,42.348602]]],[[[-71.060988,42.353363],[-71.060957,42.353353],[-71.060954,42.353411],[-71.06098,42.353411],[-71.060988,42.353363]]],[[[-71.060938,42.35322],[-71.060907,42.35321],[-71.060904,42.353268],[-71.06093,42.353268],[-71.060938,42.35322]]],[[[-71.060923,42.35333],[-71.060892,42.35332],[-71.060889,42.353381],[-71.060915,42.353381],[-71.060923,42.35333]]],[[[-71.060862,42.353302],[-71.060831,42.353292],[-71.060828,42.35335],[-71.060854,42.35335],[-71.060862,42.353302]]],[[[-71.060847,42.349174],[-71.060803,42.349125],[-71.060725,42.349137],[-71.060705,42.349174],[-71.060698,42.34927],[-71.060719,42.349307],[-71.060769,42.349323],[-71.06082,42.349307],[-71.06084,42.34927],[-71.060847,42.349174]]],[[[-71.060733,42.34939],[-71.060703,42.349357],[-71.060665,42.349357],[-71.060639,42.349376],[-71.060634,42.349469],[-71.060597,42.349506],[-71.060592,42.349582],[-71.060606,42.349607],[-71.06064,42.349618],[-71.060685,42.349596],[-71.060691,42.349492],[-71.060724,42.349469],[-71.060733,42.34939]]],[[[-71.060628,42.34926],[-71.060597,42.34925],[-71.06057,42.349329],[-71.060552,42.349342],[-71.060554,42.34939],[-71.06058,42.34939],[-71.060588,42.349352],[-71.060625,42.349299],[-71.060628,42.34926]]],[[[-71.060609,42.34967],[-71.060579,42.349637],[-71.060541,42.349637],[-71.060515,42.349656],[-71.060509,42.349757],[-71.060482,42.349777],[-71.060472,42.349871],[-71.060504,42.349906],[-71.060544,42.349906],[-71.060572,42.349886],[-71.060578,42.349777],[-71.060599,42.34976],[-71.060609,42.34967]]],[[[-71.060598,42.35304],[-71.060567,42.35303],[-71.060564,42.353088],[-71.06059,42.353088],[-71.060598,42.35304]]],[[[-71.060558,42.349407],[-71.06054,42.349394],[-71.060522,42.349407],[-71.060499,42.349544],[-71.060468,42.349556],[-71.060454,42.349688],[-71.06048,42.349688],[-71.0605,42.349644],[-71.060504,42.349556],[-71.060535,42.349544],[-71.060558,42.349407]]],[[[-71.060518,42.352997],[-71.060487,42.352987],[-71.060484,42.353045],[-71.06051,42.353045],[-71.060518,42.352997]]],[[[-71.060508,42.353283],[-71.060477,42.353273],[-71.060474,42.353334],[-71.0605,42.353334],[-71.060508,42.353283]]],[[[-71.060504,42.35315],[-71.060473,42.35314],[-71.06047,42.353198],[-71.060496,42.353198],[-71.060504,42.35315]]],[[[-71.060468,42.352974],[-71.060437,42.352964],[-71.060434,42.353025],[-71.06046,42.353025],[-71.060468,42.352974]]],[[[-71.060428,42.3531],[-71.060397,42.35309],[-71.060394,42.353148],[-71.06042,42.353148],[-71.060428,42.3531]]],[[[-71.060419,42.353405],[-71.060418,42.35338],[-71.0604,42.353367],[-71.060352,42.353385],[-71.060322,42.353447],[-71.060324,42.353495],[-71.060403,42.353493],[-71.060419,42.353405]]],[[[-71.060388,42.349884],[-71.060357,42.349874],[-71.060354,42.349935],[-71.06038,42.349935],[-71.060388,42.349884]]],[[[-71.060374,42.35307],[-71.060343,42.35306],[-71.06034,42.353118],[-71.060366,42.353118],[-71.060374,42.35307]]],[[[-71.060318,42.350037],[-71.060287,42.350027],[-71.060284,42.350085],[-71.06031,42.350085],[-71.060318,42.350037]]],[[[-71.060314,42.35015],[-71.06028,42.350092],[-71.060231,42.350125],[-71.060212,42.350216],[-71.060226,42.350241],[-71.06026,42.350252],[-71.060295,42.350241],[-71.060314,42.35015]]],[[[-71.060174,42.34947],[-71.06015,42.349443],[-71.060099,42.349459],[-71.060091,42.349535],[-71.060061,42.349556],[-71.060057,42.349615],[-71.060017,42.349634],[-71.06002,42.349727],[-71.060045,42.349735],[-71.060078,42.349719],[-71.060086,42.349644],[-71.060115,42.349615],[-71.060119,42.349564],[-71.060166,42.349548],[-71.060174,42.34947]]],[[[-71.060158,42.352962],[-71.060127,42.352952],[-71.060124,42.35301],[-71.06015,42.35301],[-71.060158,42.352962]]],[[[-71.060105,42.35341],[-71.060077,42.353379],[-71.060043,42.353379],[-71.060018,42.353397],[-71.060009,42.353483],[-71.060023,42.353507],[-71.060055,42.353517],[-71.060097,42.353496],[-71.060105,42.35341]]],[[[-71.059972,42.351044],[-71.059946,42.351015],[-71.059891,42.351032],[-71.059883,42.351114],[-71.059851,42.351128],[-71.059853,42.351204],[-71.059895,42.351198],[-71.059901,42.351139],[-71.059941,42.351143],[-71.059964,42.351126],[-71.059972,42.351044]]],[[[-71.059858,42.3533],[-71.059827,42.35329],[-71.059824,42.353348],[-71.05985,42.353348],[-71.059858,42.3533]]],[[[-71.059822,42.35326],[-71.059796,42.353231],[-71.059741,42.353248],[-71.059733,42.35333],[-71.059745,42.353352],[-71.059775,42.353361],[-71.059814,42.353342],[-71.059822,42.35326]]],[[[-71.059758,42.352753],[-71.059727,42.352743],[-71.059724,42.352804],[-71.05975,42.352804],[-71.059758,42.352753]]],[[[-71.059688,42.352737],[-71.059657,42.352727],[-71.059654,42.352788],[-71.05968,42.352788],[-71.059688,42.352737]]],[[[-71.059669,42.354954],[-71.059562,42.354868],[-71.05952,42.354881],[-71.059523,42.354969],[-71.059573,42.355004],[-71.059608,42.354999],[-71.059625,42.355033],[-71.059656,42.355028],[-71.059669,42.354954]]],[[[-71.059649,42.35171],[-71.059619,42.351677],[-71.059566,42.351685],[-71.059547,42.351776],[-71.059561,42.351801],[-71.059595,42.351812],[-71.05963,42.351801],[-71.059649,42.35171]]],[[[-71.059634,42.35273],[-71.059603,42.35272],[-71.0596,42.352781],[-71.059626,42.352781],[-71.059634,42.35273]]],[[[-71.059589,42.352783],[-71.059559,42.35275],[-71.059506,42.352758],[-71.059487,42.352849],[-71.059501,42.352874],[-71.059535,42.352885],[-71.05957,42.352874],[-71.059589,42.352783]]],[[[-71.059562,42.3516],[-71.059542,42.351578],[-71.0595,42.351591],[-71.059503,42.351679],[-71.059526,42.351686],[-71.059556,42.351671],[-71.059562,42.3516]]],[[[-71.059544,42.35171],[-71.059511,42.3517],[-71.059508,42.35177],[-71.059535,42.35177],[-71.059544,42.35171]]],[[[-71.059518,42.351097],[-71.059487,42.351087],[-71.059484,42.351145],[-71.05951,42.351145],[-71.059518,42.351097]]],[[[-71.059482,42.354813],[-71.059473,42.354796],[-71.059438,42.354791],[-71.059389,42.354714],[-71.05935,42.354709],[-71.059331,42.354723],[-71.059326,42.354808],[-71.059359,42.354824],[-71.059373,42.354853],[-71.059408,42.354858],[-71.059423,42.354892],[-71.059446,42.354899],[-71.059476,42.354884],[-71.059482,42.354813]]],[[[-71.059478,42.35117],[-71.059447,42.35116],[-71.059444,42.351218],[-71.05947,42.351218],[-71.059478,42.35117]]],[[[-71.059456,42.351627],[-71.05943,42.351608],[-71.059406,42.35162],[-71.059408,42.351696],[-71.05945,42.35169],[-71.059456,42.351627]]],[[[-71.059428,42.3531],[-71.059397,42.35309],[-71.059394,42.353148],[-71.05942,42.353148],[-71.059428,42.3531]]],[[[-71.059418,42.35301],[-71.059387,42.353],[-71.059384,42.353058],[-71.05941,42.353058],[-71.059418,42.35301]]],[[[-71.059387,42.351704],[-71.059348,42.351692],[-71.059344,42.351769],[-71.059376,42.351769],[-71.059387,42.351704]]],[[[-71.059323,42.35178],[-71.059284,42.351768],[-71.05928,42.351845],[-71.059312,42.351845],[-71.059323,42.35178]]],[[[-71.059219,42.35129],[-71.059183,42.35123],[-71.059159,42.35123],[-71.059129,42.351197],[-71.059091,42.351197],[-71.059065,42.351216],[-71.059056,42.351306],[-71.05907,42.351331],[-71.059097,42.351341],[-71.059086,42.351433],[-71.0591,42.351458],[-71.059134,42.351469],[-71.059179,42.351447],[-71.059186,42.351398],[-71.059213,42.351366],[-71.059219,42.35129]]],[[[-71.059184,42.353294],[-71.059153,42.353284],[-71.05915,42.353342],[-71.059176,42.353342],[-71.059184,42.353294]]],[[[-71.059098,42.35146],[-71.059067,42.35145],[-71.059064,42.351508],[-71.05909,42.351508],[-71.059098,42.35146]]],[[[-71.059092,42.354385],[-71.059072,42.354363],[-71.05903,42.354376],[-71.059033,42.354464],[-71.059056,42.354471],[-71.059086,42.354456],[-71.059092,42.354385]]],[[[-71.059088,42.353287],[-71.059057,42.353277],[-71.059054,42.353335],[-71.05908,42.353335],[-71.059088,42.353287]]],[[[-71.059066,42.351517],[-71.05904,42.351498],[-71.059016,42.35151],[-71.059018,42.351586],[-71.05906,42.35158],[-71.059066,42.351517]]],[[[-71.059018,42.354332],[-71.058987,42.354322],[-71.058984,42.35438],[-71.05901,42.35438],[-71.059018,42.354332]]],[[[-71.059006,42.351604],[-71.058984,42.35158],[-71.058945,42.351585],[-71.05891,42.351672],[-71.058867,42.351673],[-71.058856,42.351713],[-71.058825,42.351719],[-71.058813,42.351756],[-71.058767,42.35177],[-71.058762,42.351813],[-71.058688,42.351825],[-71.058674,42.351885],[-71.058637,42.351889],[-71.058627,42.351914],[-71.058599,42.351924],[-71.058595,42.35196],[-71.058509,42.351959],[-71.058451,42.352018],[-71.058447,42.352041],[-71.058397,42.35205],[-71.058389,42.352147],[-71.058403,42.352171],[-71.058452,42.352178],[-71.058477,42.35216],[-71.058481,42.352131],[-71.058563,42.352107],[-71.058597,42.351991],[-71.058679,42.351985],[-71.05869,42.351936],[-71.058726,42.351939],[-71.058747,42.351923],[-71.058752,42.35188],[-71.058821,42.351863],[-71.058832,42.351827],[-71.058871,42.351821],[-71.058883,42.351775],[-71.058916,42.351761],[-71.058922,42.351703],[-71.058998,42.351679],[-71.059006,42.351604]]],[[[-71.058998,42.353283],[-71.058967,42.353273],[-71.058964,42.353331],[-71.05899,42.353331],[-71.058998,42.353283]]],[[[-71.058959,42.35429],[-71.058926,42.35428],[-71.058923,42.35435],[-71.05895,42.35435],[-71.058959,42.35429]]],[[[-71.058864,42.353268],[-71.058833,42.353258],[-71.05883,42.353316],[-71.058856,42.353316],[-71.058864,42.353268]]],[[[-71.058758,42.353268],[-71.058727,42.353258],[-71.058724,42.353316],[-71.05875,42.353316],[-71.058758,42.353268]]],[[[-71.058568,42.35253],[-71.058537,42.35252],[-71.058534,42.352578],[-71.05856,42.352578],[-71.058568,42.35253]]],[[[-71.058508,42.352524],[-71.058494,42.35247],[-71.058466,42.35247],[-71.058457,42.35253],[-71.058474,42.352572],[-71.0585,42.352572],[-71.058508,42.352524]]],[[[-71.058428,42.352528],[-71.058397,42.352518],[-71.058394,42.352579],[-71.05842,42.352579],[-71.058428,42.352528]]],[[[-71.058388,42.35247],[-71.058357,42.35246],[-71.058354,42.352518],[-71.05838,42.352518],[-71.058388,42.35247]]],[[[-71.058388,42.352097],[-71.058357,42.352087],[-71.058354,42.352148],[-71.05838,42.352148],[-71.058388,42.352097]]],[[[-71.058348,42.35252],[-71.058317,42.35251],[-71.058314,42.352568],[-71.05834,42.352568],[-71.058348,42.35252]]],[[[-71.058288,42.35091],[-71.058257,42.3509],[-71.058254,42.350958],[-71.05828,42.350958],[-71.058288,42.35091]]],[[[-71.058278,42.352467],[-71.05826,42.352454],[-71.058242,42.352467],[-71.058234,42.35256],[-71.058265,42.352551],[-71.058278,42.352467]]],[[[-71.058218,42.350887],[-71.058187,42.350877],[-71.058184,42.350935],[-71.05821,42.350935],[-71.058218,42.350887]]],[[[-71.058038,42.352665],[-71.058007,42.352655],[-71.058004,42.352713],[-71.05803,42.352713],[-71.058038,42.352665]]],[[[-71.058032,42.352768],[-71.058001,42.352758],[-71.057998,42.352816],[-71.058024,42.352816],[-71.058032,42.352768]]],[[[-71.058008,42.352905],[-71.057977,42.352895],[-71.057974,42.352953],[-71.058,42.352953],[-71.058008,42.352905]]],[[[-71.057803,42.350693],[-71.057772,42.350683],[-71.057769,42.350741],[-71.057795,42.350741],[-71.057803,42.350693]]],[[[-71.057758,42.350677],[-71.057727,42.350667],[-71.057724,42.350725],[-71.05775,42.350725],[-71.057758,42.350677]]],[[[-71.05775,42.352226],[-71.057724,42.352207],[-71.0577,42.352219],[-71.057702,42.352295],[-71.057744,42.352289],[-71.05775,42.352226]]],[[[-71.057623,42.35219],[-71.057605,42.35217],[-71.057573,42.352175],[-71.057569,42.352264],[-71.05761,42.352264],[-71.057623,42.35219]]],[[[-71.057536,42.35216],[-71.05751,42.352141],[-71.057486,42.352153],[-71.057488,42.352229],[-71.05753,42.352223],[-71.057536,42.35216]]],[[[-71.057456,42.35214],[-71.05743,42.352121],[-71.057406,42.352133],[-71.057408,42.352209],[-71.05745,42.352203],[-71.057456,42.35214]]],[[[-71.057414,42.350403],[-71.057383,42.350393],[-71.05738,42.350451],[-71.057406,42.350451],[-71.057414,42.350403]]],[[[-71.057398,42.350494],[-71.057367,42.350484],[-71.057364,42.350542],[-71.05739,42.350542],[-71.057398,42.350494]]],[[[-71.057369,42.35211],[-71.057351,42.35209],[-71.057319,42.352095],[-71.057315,42.352184],[-71.057356,42.352184],[-71.057369,42.35211]]],[[[-71.057348,42.351707],[-71.05733,42.351694],[-71.057312,42.351707],[-71.057304,42.351798],[-71.057335,42.351789],[-71.057348,42.351707]]],[[[-71.057309,42.351897],[-71.057291,42.351884],[-71.057273,42.351897],[-71.057265,42.352],[-71.057296,42.351991],[-71.057309,42.351897]]],[[[-71.057298,42.350925],[-71.057267,42.350915],[-71.057264,42.350979],[-71.05729,42.350979],[-71.057298,42.350925]]],[[[-71.057268,42.351063],[-71.057237,42.351053],[-71.057234,42.351117],[-71.05726,42.351117],[-71.057268,42.351063]]],[[[-71.057208,42.35141],[-71.057177,42.3514],[-71.057174,42.351458],[-71.0572,42.351458],[-71.057208,42.35141]]],[[[-71.057198,42.35055],[-71.057167,42.35054],[-71.057164,42.350598],[-71.05719,42.350598],[-71.057198,42.35055]]],[[[-71.057147,42.350632],[-71.057116,42.350622],[-71.057113,42.35068],[-71.057139,42.35068],[-71.057147,42.350632]]],[[[-71.057094,42.350533],[-71.057063,42.350523],[-71.05706,42.350581],[-71.057086,42.350581],[-71.057094,42.350533]]],[[[-71.057038,42.34984],[-71.057007,42.34983],[-71.056999,42.349879],[-71.05696,42.349894],[-71.056953,42.349965],[-71.056973,42.349987],[-71.057016,42.349974],[-71.057018,42.349892],[-71.057035,42.349879],[-71.057038,42.34984]]],[[[-71.056868,42.352028],[-71.056837,42.352018],[-71.056834,42.352085],[-71.056859,42.352085],[-71.056868,42.352028]]],[[[-71.056834,42.35023],[-71.056803,42.35022],[-71.0568,42.350278],[-71.056826,42.350278],[-71.056834,42.35023]]],[[[-71.056829,42.34976],[-71.056805,42.349733],[-71.056754,42.349749],[-71.056725,42.349879],[-71.05668,42.349901],[-71.056672,42.349971],[-71.056635,42.349992],[-71.056627,42.350072],[-71.056601,42.350094],[-71.0566,42.350162],[-71.05656,42.350176],[-71.056563,42.350264],[-71.056586,42.350271],[-71.056616,42.350256],[-71.056618,42.350173],[-71.056646,42.350168],[-71.056658,42.350105],[-71.056694,42.350105],[-71.05672,42.350085],[-71.056728,42.350016],[-71.056765,42.349994],[-71.056791,42.349855],[-71.056821,42.349838],[-71.056829,42.34976]]],[[[-71.056798,42.350307],[-71.056767,42.350297],[-71.056764,42.350355],[-71.05679,42.350355],[-71.056798,42.350307]]],[[[-71.056748,42.351994],[-71.056717,42.351984],[-71.056714,42.352048],[-71.05674,42.352048],[-71.056748,42.351994]]],[[[-71.056643,42.350613],[-71.056612,42.350603],[-71.056609,42.35067],[-71.056634,42.35067],[-71.056643,42.350613]]],[[[-71.056626,42.353203],[-71.0566,42.353184],[-71.056576,42.353196],[-71.056578,42.353272],[-71.05662,42.353266],[-71.056626,42.353203]]],[[[-71.056608,42.35068],[-71.056577,42.35067],[-71.056574,42.350737],[-71.056599,42.350737],[-71.056608,42.35068]]],[[[-71.056559,42.353165],[-71.056526,42.353155],[-71.056523,42.353225],[-71.05655,42.353225],[-71.056559,42.353165]]],[[[-71.056559,42.350834],[-71.056529,42.350801],[-71.056476,42.350809],[-71.056457,42.3509],[-71.056471,42.350925],[-71.056505,42.350936],[-71.05654,42.350925],[-71.056559,42.350834]]],[[[-71.056484,42.353127],[-71.056451,42.353117],[-71.056448,42.353187],[-71.056475,42.353187],[-71.056484,42.353127]]],[[[-71.056468,42.35192],[-71.056437,42.35191],[-71.056434,42.351977],[-71.056459,42.351977],[-71.056468,42.35192]]],[[[-71.056428,42.35103],[-71.056397,42.35102],[-71.056394,42.351078],[-71.05642,42.351078],[-71.056428,42.35103]]],[[[-71.056398,42.351097],[-71.056367,42.351087],[-71.056364,42.351154],[-71.056389,42.351154],[-71.056398,42.351097]]],[[[-71.056393,42.35309],[-71.056354,42.353078],[-71.05635,42.353155],[-71.056382,42.353155],[-71.056393,42.35309]]],[[[-71.056388,42.3519],[-71.056357,42.35189],[-71.056355,42.351945],[-71.05638,42.351945],[-71.056388,42.3519]]],[[[-71.056364,42.351176],[-71.056333,42.351166],[-71.05633,42.351224],[-71.056356,42.351224],[-71.056364,42.351176]]],[[[-71.056338,42.35493],[-71.056307,42.35492],[-71.056304,42.354987],[-71.056329,42.354987],[-71.056338,42.35493]]],[[[-71.056328,42.354836],[-71.056297,42.354826],[-71.056294,42.354893],[-71.056319,42.354893],[-71.056328,42.354836]]],[[[-71.056309,42.35475],[-71.056306,42.35467],[-71.05627,42.354652],[-71.056256,42.354663],[-71.05625,42.354726],[-71.056272,42.354744],[-71.056273,42.35481],[-71.0563,42.35481],[-71.056309,42.35475]]],[[[-71.056258,42.351376],[-71.056227,42.351366],[-71.056201,42.351439],[-71.056177,42.35144],[-71.056174,42.351501],[-71.0562,42.351501],[-71.056207,42.351463],[-71.056231,42.351462],[-71.056258,42.351376]]],[[[-71.056256,42.350842],[-71.056225,42.350832],[-71.056222,42.350899],[-71.056247,42.350899],[-71.056256,42.350842]]],[[[-71.056248,42.35305],[-71.056217,42.35304],[-71.056214,42.353098],[-71.05624,42.353098],[-71.056248,42.35305]]],[[[-71.056226,42.350933],[-71.056195,42.350923],[-71.056192,42.35099],[-71.056217,42.35099],[-71.056226,42.350933]]],[[[-71.056186,42.351036],[-71.056155,42.351026],[-71.056152,42.351093],[-71.056177,42.351093],[-71.056186,42.351036]]],[[[-71.056148,42.351145],[-71.056117,42.351135],[-71.056114,42.351202],[-71.056139,42.351202],[-71.056148,42.351145]]],[[[-71.056078,42.35171],[-71.056047,42.3517],[-71.056044,42.351761],[-71.05607,42.351761],[-71.056078,42.35171]]],[[[-71.055977,42.351355],[-71.055959,42.351342],[-71.055941,42.351355],[-71.055938,42.351399],[-71.055917,42.351412],[-71.055919,42.351469],[-71.05595,42.351459],[-71.055977,42.351355]]],[[[-71.05592,42.351482],[-71.055889,42.351472],[-71.055886,42.351539],[-71.055911,42.351539],[-71.05592,42.351482]]],[[[-71.055888,42.351561],[-71.05587,42.351548],[-71.055852,42.351561],[-71.055848,42.351608],[-71.055824,42.351617],[-71.055825,42.351679],[-71.055856,42.351669],[-71.055859,42.351622],[-71.055883,42.351613],[-71.055888,42.351561]]],[[[-71.055869,42.352226],[-71.055839,42.352193],[-71.055801,42.352193],[-71.055775,42.352212],[-71.05577,42.352242],[-71.055737,42.352276],[-71.055733,42.352342],[-71.055747,42.352367],[-71.055781,42.352378],[-71.055826,42.352355],[-71.055831,42.352325],[-71.05586,42.352305],[-71.055869,42.352226]]],[[[-71.055808,42.351727],[-71.05579,42.351714],[-71.055772,42.351727],[-71.055769,42.351763],[-71.055752,42.351776],[-71.055754,42.351833],[-71.055785,42.351823],[-71.055808,42.351727]]],[[[-71.055788,42.353336],[-71.055779,42.353319],[-71.055744,42.353314],[-71.055726,42.353327],[-71.05572,42.353384],[-71.055674,42.353379],[-71.05567,42.353468],[-71.055711,42.353468],[-71.055723,42.353409],[-71.055752,42.353422],[-71.055782,42.353407],[-71.055788,42.353336]]],[[[-71.055645,42.35343],[-71.055612,42.35342],[-71.055609,42.35349],[-71.055636,42.35349],[-71.055645,42.35343]]],[[[-71.055558,42.353497],[-71.055527,42.353487],[-71.055524,42.353554],[-71.055549,42.353554],[-71.055558,42.353497]]],[[[-71.055498,42.35353],[-71.055467,42.35352],[-71.055464,42.353581],[-71.05549,42.353581],[-71.055498,42.35353]]],[[[-71.055262,42.353653],[-71.055244,42.35364],[-71.055199,42.353652],[-71.05518,42.353685],[-71.055154,42.353688],[-71.05515,42.353765],[-71.055226,42.353746],[-71.055237,42.353704],[-71.055258,42.353697],[-71.055262,42.353653]]]]},"properties":{"kind":"tree"}}]}