{"type":"FeatureCollection","features":[{"type":"Feature","geometry":{"type":"MultiPolygon","coordinates":[[[[-71.06703,42.351826],[-71.067007,42.351692],[-71.066747,42.351106],[-71.065921,42.351203],[-71.065991,42.350995],[-71.065959,42.350666],[-71.065934,42.350666],[-71.065953,42.350615],[-71.06593,42.350327],[-71.065878,42.35033],[-71.065916,42.350219],[-71.065881,42.34989],[-71.065776,42.349769],[-71.06566,42.349801],[-71.065677,42.349722],[-71.065723,42.349726],[-71.065752,42.349702],[-71.065858,42.34984],[-71.065935,42.349816],[-71.065961,42.349739],[-71.065975,42.349763],[-71.066063,42.349739],[-71.066095,42.349646],[-71.066051,42.349568],[-71.066081,42.349559],[-71.066107,42.349483],[-71.066051,42.349385],[-71.065989,42.349405],[-71.065963,42.349481],[-71.06562,42.349445],[-71.065521,42.349461],[-71.065463,42.349633],[-71.065373,42.350053],[-71.06521,42.350584],[-71.065222,42.350595],[-71.065206,42.350649],[-71.065226,42.350652],[-71.06521,42.350652],[-71.065019,42.351232],[-71.064967,42.35123],[-71.064889,42.351459],[-71.064576,42.352632],[-71.064627,42.352635],[-71.064617,42.352667],[-71.064682,42.352677],[-71.064692,42.352647],[-71.064972,42.352652],[-71.064971,42.352667],[-71.065389,42.352689],[-71.065428,42.352573],[-71.065597,42.352585],[-71.065581,42.352682],[-71.065778,42.352697],[-71.065899,42.352318],[-71.065932,42.352094],[-71.0659,42.352091],[-71.065904,42.35206],[-71.065978,42.352071],[-71.065954,42.352262],[-71.065897,42.352432],[-71.065897,42.352594],[-71.065993,42.352599],[-71.066063,42.352392],[-71.066072,42.352281],[-71.066232,42.35228],[-71.066276,42.352115],[-71.066745,42.352173],[-71.066928,42.352128],[-71.06703,42.351826]]],[[[-71.066483,42.348529],[-71.06591,42.348462],[-71.065995,42.348064],[-71.065837,42.348044],[-71.065737,42.348339],[-71.065652,42.348739],[-71.065719,42.348748],[-71.065697,42.348838],[-71.065793,42.348849],[-71.065824,42.348759],[-71.065839,42.348815],[-71.066377,42.348878],[-71.066458,42.348649],[-71.066483,42.348529]]],[[[-71.065565,42.354342],[-71.065554,42.354318],[-71.065521,42.354301],[-71.065458,42.354314],[-71.06542,42.354406],[-71.065425,42.35444],[-71.065468,42.354463],[-71.065515,42.354456],[-71.065538,42.354431],[-71.065565,42.354342]]],[[[-71.065529,42.347903],[-71.065483,42.347819],[-71.065392,42.347805],[-71.065371,42.347781],[-71.065311,42.347783],[-71.065319,42.347677],[-71.065257,42.347643],[-71.064894,42.347587],[-71.064503,42.347783],[-71.064389,42.348045],[-71.064301,42.348336],[-71.064337,42.348342],[-71.064469,42.348289],[-71.064379,42.348549],[-71.064341,42.348545],[-71.064333,42.348568],[-71.064275,42.348582],[-71.064105,42.349061],[-71.064427,42.349111],[-71.064404,42.349122],[-71.064329,42.349344],[-71.064578,42.349513],[-71.064759,42.34942],[-71.064764,42.349405],[-71.064845,42.34943],[-71.065107,42.349307],[-71.065164,42.34914],[-71.065261,42.34913],[-71.06533,42.348887],[-71.065323,42.348802],[-71.065279,42.348688],[-71.064992,42.348617],[-71.064775,42.348587],[-71.064859,42.348327],[-71.064913,42.348366],[-71.064944,42.348346],[-71.065084,42.348506],[-71.065108,42.348494],[-71.065116,42.348513],[-71.06541,42.348448],[-71.065427,42.34839],[-71.065354,42.348307],[-71.065465,42.348206],[-71.065484,42.348131],[-71.065421,42.34804],[-71.065505,42.347985],[-71.065529,42.347903]]],[[[-71.065421,42.352871],[-71.065303,42.352844],[-71.065272,42.352932],[-71.065298,42.353013],[-71.065364,42.353027],[-71.065421,42.352871]]],[[[-71.065169,42.349617],[-71.064416,42.349501],[-71.064392,42.349572],[-71.063761,42.349475],[-71.063683,42.3494],[-71.063746,42.349213],[-71.063772,42.349073],[-71.063762,42.349071],[-71.063945,42.348463],[-71.063623,42.348413],[-71.063434,42.34902],[-71.063074,42.348966],[-71.062988,42.349169],[-71.062979,42.349145],[-71.062947,42.349132],[-71.063037,42.348907],[-71.06331,42.348947],[-71.063476,42.348381],[-71.063203,42.34834],[-71.063253,42.34818],[-71.06323,42.348148],[-71.063187,42.348141],[-71.063177,42.348169],[-71.063083,42.348155],[-71.063116,42.348116],[-71.063256,42.348147],[-71.063299,42.348007],[-71.062961,42.347921],[-71.062904,42.348075],[-71.063042,42.348105],[-71.06303,42.348147],[-71.062886,42.348123],[-71.062828,42.348283],[-71.062735,42.348269],[-71.062766,42.348172],[-71.062839,42.348188],[-71.062909,42.347999],[-71.062855,42.347962],[-71.062735,42.347939],[-71.062282,42.349079],[-71.062254,42.349112],[-71.062187,42.3493],[-71.062155,42.349337],[-71.061844,42.350195],[-71.061673,42.350559],[-71.0612,42.351806],[-71.061263,42.352122],[-71.061329,42.352119],[-71.061346,42.352204],[-71.061501,42.352196],[-71.061519,42.352142],[-71.061557,42.352276],[-71.061552,42.352307],[-71.061514,42.352311],[-71.061454,42.352351],[-71.06143,42.352421],[-71.061443,42.3525],[-71.061488,42.352496],[-71.061431,42.352666],[-71.061433,42.35272],[-71.061403,42.35281],[-71.061438,42.353344],[-71.061483,42.353342],[-71.061393,42.353614],[-71.061316,42.353581],[-71.061282,42.353618],[-71.061219,42.353586],[-71.06136,42.353145],[-71.061336,42.35258],[-71.061194,42.352592],[-71.061121,42.352806],[-71.061104,42.352801],[-71.060815,42.353125],[-71.060755,42.353295],[-71.060695,42.353272],[-71.060285,42.353714],[-71.059905,42.354083],[-71.060024,42.353956],[-71.060133,42.353635],[-71.059902,42.353508],[-71.059996,42.353466],[-71.060043,42.353415],[-71.060144,42.353467],[-71.060259,42.353344],[-71.060325,42.353148],[-71.060198,42.353083],[-71.060156,42.353018],[-71.059657,42.352762],[-71.059553,42.352772],[-71.059465,42.353032],[-71.059522,42.353394],[-71.059432,42.35339],[-71.059154,42.353648],[-71.059201,42.353509],[-71.059263,42.353474],[-71.059297,42.353434],[-71.059392,42.353157],[-71.059318,42.352574],[-71.059247,42.352565],[-71.059291,42.352434],[-71.059226,42.352012],[-71.059026,42.352083],[-71.058873,42.352183],[-71.058801,42.352281],[-71.058715,42.352529],[-71.058176,42.352542],[-71.058071,42.352594],[-71.057724,42.353594],[-71.057708,42.353694],[-71.057588,42.353654],[-71.057568,42.353685],[-71.057731,42.353195],[-71.057796,42.352781],[-71.057688,42.352735],[-71.05756,42.352748],[-71.05731,42.352888],[-71.057163,42.352943],[-71.05712,42.352979],[-71.056958,42.353439],[-71.056948,42.353395],[-71.056898,42.353402],[-71.056608,42.353518],[-71.05666,42.353366],[-71.056638,42.353263],[-71.056464,42.353191],[-71.056542,42.352959],[-71.056714,42.352913],[-71.056795,42.352793],[-71.056855,42.352661],[-71.057078,42.352025],[-71.057141,42.351687],[-71.057105,42.35167],[-71.057156,42.351519],[-71.05732,42.350691],[-71.057295,42.350684],[-71.057347,42.350532],[-71.057505,42.349748],[-71.057133,42.349667],[-71.05695,42.350087],[-71.056922,42.350095],[-71.056797,42.350339],[-71.05672,42.350566],[-71.056751,42.35057],[-71.056733,42.350625],[-71.056678,42.350643],[-71.056627,42.350738],[-71.056366,42.351353],[-71.056294,42.351331],[-71.056079,42.351765],[-71.055973,42.352079],[-71.05603,42.352094],[-71.05594,42.352127],[-71.055846,42.352326],[-71.055417,42.353593],[-71.055376,42.353638],[-71.055342,42.353603],[-71.054915,42.353838],[-71.05489,42.353912],[-71.054834,42.353899],[-71.054776,42.353908],[-71.054378,42.354122],[-71.054022,42.355144],[-71.054027,42.355201],[-71.054282,42.355466],[-71.054349,42.35548],[-71.054399,42.355464],[-71.054712,42.355187],[-71.054742,42.355148],[-71.05477,42.355066],[-71.054822,42.355116],[-71.054743,42.355403],[-71.054904,42.355551],[-71.054954,42.355555],[-71.05527,42.355366],[-71.055303,42.355313],[-71.055454,42.354865],[-71.055496,42.35482],[-71.055517,42.354841],[-71.055357,42.355316],[-71.055408,42.355603],[-71.055173,42.356296],[-71.055279,42.356874],[-71.055731,42.35683],[-71.056003,42.356028],[-71.056167,42.355995],[-71.056222,42.355832],[-71.056259,42.35604],[-71.057042,42.355981],[-71.057349,42.355074],[-71.057335,42.354965],[-71.057516,42.354671],[-71.057481,42.354773],[-71.057872,42.354894],[-71.058183,42.354591],[-71.058196,42.354557],[-71.058206,42.354563],[-71.058456,42.354324],[-71.058499,42.354337],[-71.05787,42.354957],[-71.057796,42.355189],[-71.057843,42.355207],[-71.057974,42.355209],[-71.058039,42.355339],[-71.058166,42.355354],[-71.058229,42.355332],[-71.058315,42.355248],[-71.058362,42.35511],[-71.05838,42.35512],[-71.058651,42.354873],[-71.058668,42.354822],[-71.058897,42.354632],[-71.058982,42.354641],[-71.058538,42.355044],[-71.058475,42.355229],[-71.058479,42.355255],[-71.058788,42.355389],[-71.058635,42.355838],[-71.058709,42.355893],[-71.059001,42.356012],[-71.059247,42.355798],[-71.05931,42.35572],[-71.059459,42.35528],[-71.059575,42.355173],[-71.059611,42.355069],[-71.060101,42.355439],[-71.060235,42.355342],[-71.060456,42.355492],[-71.060593,42.355371],[-71.060624,42.355396],[-71.061015,42.355032],[-71.06103,42.355041],[-71.061211,42.354876],[-71.06188,42.35423],[-71.061952,42.354157],[-71.061966,42.354117],[-71.062012,42.35414],[-71.062066,42.354092],[-71.062195,42.353897],[-71.062413,42.353293],[-71.062415,42.35316],[-71.062382,42.353161],[-71.062426,42.353031],[-71.062452,42.352508],[-71.062801,42.351245],[-71.063074,42.350446],[-71.063186,42.350463],[-71.063264,42.3503],[-71.06339,42.349942],[-71.063467,42.349951],[-71.063872,42.350409],[-71.063539,42.350364],[-71.063408,42.350576],[-71.063242,42.351065],[-71.063049,42.351044],[-71.062993,42.351173],[-71.062896,42.351525],[-71.063379,42.351594],[-71.063422,42.351593],[-71.063442,42.351534],[-71.06342,42.351608],[-71.062895,42.351546],[-71.062643,42.352291],[-71.062575,42.352636],[-71.062625,42.352642],[-71.062604,42.352704],[-71.062573,42.353336],[-71.062603,42.35337],[-71.062518,42.353621],[-71.062491,42.353619],[-71.062081,42.354111],[-71.062067,42.354108],[-71.061806,42.354365],[-71.061779,42.354443],[-71.061745,42.354425],[-71.061369,42.354786],[-71.061321,42.354928],[-71.061254,42.354893],[-71.06106,42.355076],[-71.06099,42.355283],[-71.061303,42.35544],[-71.061475,42.355253],[-71.061488,42.355215],[-71.061539,42.355241],[-71.061654,42.355122],[-71.061987,42.355308],[-71.061996,42.355298],[-71.06213,42.355367],[-71.062297,42.355188],[-71.06232,42.35512],[-71.062301,42.355196],[-71.062413,42.355259],[-71.062444,42.355232],[-71.06242,42.355303],[-71.06251,42.355354],[-71.062575,42.355286],[-71.062641,42.355323],[-71.062763,42.355197],[-71.062746,42.355254],[-71.063052,42.355416],[-71.063077,42.355393],[-71.063135,42.355403],[-71.06315,42.355376],[-71.063165,42.35538],[-71.063454,42.354844],[-71.063523,42.354667],[-71.06361,42.354506],[-71.063649,42.354471],[-71.063713,42.354354],[-71.063748,42.354251],[-71.063843,42.354094],[-71.063988,42.353672],[-71.06401,42.353677],[-71.064115,42.353418],[-71.064309,42.35284],[-71.064357,42.352598],[-71.064374,42.352588],[-71.064484,42.352263],[-71.064717,42.351336],[-71.064745,42.351218],[-71.064735,42.351216],[-71.06484,42.350901],[-71.065001,42.350248],[-71.064991,42.350244],[-71.065169,42.349617]],[[-71.064266,42.351083],[-71.064238,42.351166],[-71.063934,42.351133],[-71.063927,42.351154],[-71.063619,42.351105],[-71.063684,42.350915],[-71.063752,42.350925],[-71.063852,42.35097],[-71.063847,42.350984],[-71.064248,42.35112],[-71.064266,42.351083]],[[-71.064159,42.352141],[-71.064104,42.352401],[-71.064063,42.352399],[-71.064117,42.352223],[-71.064136,42.352208],[-71.064159,42.352141]],[[-71.063993,42.350538],[-71.063885,42.350504],[-71.063905,42.350446],[-71.063993,42.350538]],[[-71.063925,42.352447],[-71.063849,42.352671],[-71.063868,42.352438],[-71.063925,42.352447]],[[-71.063774,42.353554],[-71.063645,42.35376],[-71.063624,42.353823],[-71.063609,42.353818],[-71.063484,42.354018],[-71.063308,42.35421],[-71.063347,42.354062],[-71.063425,42.354065],[-71.063572,42.353798],[-71.063659,42.353545],[-71.063774,42.353554]],[[-71.06349,42.352315],[-71.063486,42.352383],[-71.06342,42.352382],[-71.063445,42.352309],[-71.06349,42.352315]],[[-71.063146,42.353506],[-71.063107,42.35362],[-71.063091,42.354017],[-71.063013,42.354011],[-71.063074,42.353718],[-71.063043,42.353655],[-71.063067,42.3535],[-71.063146,42.353506]],[[-71.062903,42.354652],[-71.062898,42.354658],[-71.0629,42.354652],[-71.062903,42.354652]],[[-71.062799,42.354765],[-71.062746,42.354823],[-71.062711,42.354927],[-71.062653,42.354905],[-71.062799,42.354765]],[[-71.062701,42.34947],[-71.062696,42.349484],[-71.062682,42.349479],[-71.062701,42.34947]],[[-71.062693,42.350315],[-71.062649,42.350446],[-71.062542,42.350401],[-71.062586,42.35027],[-71.062693,42.350315]],[[-71.062576,42.349454],[-71.062451,42.3494],[-71.062541,42.349353],[-71.062516,42.349427],[-71.062576,42.349454]],[[-71.062465,42.34992],[-71.062426,42.350003],[-71.062146,42.349886],[-71.062149,42.349876],[-71.062245,42.349916],[-71.062421,42.349853],[-71.062407,42.349893],[-71.062465,42.34992]],[[-71.062363,42.350606],[-71.062285,42.350707],[-71.062097,42.351215],[-71.062139,42.351538],[-71.062061,42.351529],[-71.06211,42.351383],[-71.062063,42.351033],[-71.062185,42.350846],[-71.062236,42.350694],[-71.062256,42.3507],[-71.06234,42.350597],[-71.062363,42.350606]],[[-71.062279,42.354808],[-71.062217,42.354875],[-71.062198,42.354869],[-71.062264,42.3548],[-71.062279,42.354808]],[[-71.062113,42.354839],[-71.062113,42.354839],[-71.062113,42.354839],[-71.062113,42.354839]],[[-71.061756,42.351073],[-71.061695,42.351243],[-71.061743,42.351078],[-71.061756,42.351073]],[[-71.059347,42.354609],[-71.059307,42.354727],[-71.059222,42.354667],[-71.059273,42.354672],[-71.059347,42.354609]],[[-71.059047,42.354001],[-71.059009,42.354037],[-71.059025,42.353989],[-71.059047,42.354001]],[[-71.057876,42.354059],[-71.05758,42.354527],[-71.057751,42.354023],[-71.057791,42.354033],[-71.057789,42.354055],[-71.057876,42.354059]],[[-71.057039,42.353818],[-71.057026,42.353871],[-71.056898,42.35408],[-71.056867,42.35417],[-71.056902,42.354182],[-71.056706,42.354761],[-71.056679,42.354763],[-71.056813,42.354373],[-71.056768,42.354123],[-71.056875,42.354086],[-71.056968,42.353811],[-71.057039,42.353818]],[[-71.057011,42.351018],[-71.056806,42.351536],[-71.05675,42.35151],[-71.056968,42.351015],[-71.057011,42.351018]],[[-71.056497,42.354791],[-71.056337,42.355263],[-71.056229,42.354666],[-71.056183,42.354645],[-71.056231,42.354504],[-71.056205,42.354413],[-71.056292,42.35445],[-71.056268,42.354548],[-71.056313,42.354796],[-71.056332,42.354808],[-71.056497,42.354791]],[[-71.056197,42.354016],[-71.056159,42.354129],[-71.056133,42.353989],[-71.056197,42.354016]],[[-71.055864,42.353932],[-71.055839,42.354006],[-71.05571,42.354062],[-71.055747,42.353953],[-71.055819,42.353921],[-71.055864,42.353932]],[[-71.055391,42.354144],[-71.055359,42.354239],[-71.055165,42.354322],[-71.055104,42.35437],[-71.055051,42.35444],[-71.055004,42.35446],[-71.054987,42.354511],[-71.054964,42.354493],[-71.055058,42.354214],[-71.055097,42.354254],[-71.055345,42.354096],[-71.055391,42.354144]]],[[[-71.06461,42.353278],[-71.064542,42.353266],[-71.064498,42.353396],[-71.064566,42.35341],[-71.06461,42.353278]]],[[[-71.064113,42.347947],[-71.063968,42.347919],[-71.063883,42.347989],[-71.063856,42.347985],[-71.063803,42.348141],[-71.063538,42.348106],[-71.063606,42.347866],[-71.06346,42.347843],[-71.063331,42.348292],[-71.063791,42.348361],[-71.063817,42.348416],[-71.063936,42.348433],[-71.063951,42.348388],[-71.063986,42.34839],[-71.064113,42.347947]]],[[[-71.063935,42.354829],[-71.063869,42.354811],[-71.063836,42.354889],[-71.063902,42.354906],[-71.063935,42.354829]]],[[[-71.062446,42.347953],[-71.061926,42.347827],[-71.061784,42.348221],[-71.061863,42.348239],[-71.06158,42.348951],[-71.061552,42.34896],[-71.061196,42.349845],[-71.061101,42.350125],[-71.061129,42.350136],[-71.06109,42.35016],[-71.060928,42.350594],[-71.060899,42.350587],[-71.060881,42.350626],[-71.060803,42.350882],[-71.061019,42.35093],[-71.061161,42.350913],[-71.061155,42.350931],[-71.061286,42.350957],[-71.06136,42.350735],[-71.0614,42.350743],[-71.061497,42.350519],[-71.061835,42.349683],[-71.061975,42.34927],[-71.061811,42.349235],[-71.061839,42.34916],[-71.061745,42.349139],[-71.061708,42.349216],[-71.061895,42.34873],[-71.06182,42.348713],[-71.061879,42.348567],[-71.062196,42.34864],[-71.062213,42.348601],[-71.062226,42.348604],[-71.062367,42.34823],[-71.062353,42.348227],[-71.062446,42.347953]],[[-71.062212,42.348314],[-71.062165,42.348433],[-71.061952,42.348384],[-71.061998,42.348269],[-71.062212,42.348314]]],[[[-71.061866,42.34764],[-71.061712,42.347604],[-71.061566,42.347954],[-71.061447,42.348316],[-71.061414,42.348308],[-71.061392,42.348361],[-71.061347,42.348525],[-71.061369,42.348553],[-71.061342,42.348577],[-71.061288,42.348565],[-71.061218,42.348747],[-71.061155,42.348757],[-71.06111,42.348835],[-71.061051,42.349033],[-71.061091,42.349063],[-71.061049,42.349184],[-71.061136,42.349203],[-71.061108,42.349287],[-71.061115,42.349305],[-71.061017,42.349264],[-71.060956,42.349424],[-71.061167,42.349515],[-71.061215,42.349444],[-71.061328,42.349171],[-71.061428,42.348842],[-71.061446,42.348828],[-71.061567,42.348519],[-71.061581,42.348522],[-71.061602,42.348471],[-71.06164,42.348359],[-71.061597,42.348349],[-71.06175,42.347984],[-71.061866,42.34764]]],[[[-71.061365,42.348369],[-71.061276,42.348336],[-71.061312,42.348228],[-71.061184,42.348198],[-71.061133,42.348276],[-71.060979,42.348711],[-71.061095,42.348741],[-71.0612,42.34849],[-71.06132,42.348517],[-71.061365,42.348369]]],[[[-71.061227,42.351071],[-71.060769,42.350979],[-71.060668,42.35117],[-71.060566,42.35144],[-71.060388,42.351402],[-71.060369,42.351415],[-71.060333,42.351521],[-71.060396,42.351718],[-71.060468,42.351733],[-71.060418,42.351881],[-71.060234,42.351369],[-71.059977,42.351309],[-71.059926,42.351441],[-71.059962,42.351307],[-71.059758,42.351262],[-71.059649,42.351567],[-71.059678,42.351818],[-71.059693,42.351817],[-71.059766,42.352271],[-71.059982,42.352253],[-71.060022,42.352134],[-71.060201,42.35213],[-71.06041,42.35209],[-71.060444,42.35199],[-71.060489,42.352137],[-71.060316,42.352167],[-71.060286,42.352255],[-71.060276,42.352208],[-71.060118,42.352221],[-71.060032,42.352474],[-71.060075,42.352758],[-71.06017,42.352757],[-71.060175,42.352806],[-71.060277,42.352821],[-71.060208,42.353042],[-71.060639,42.353254],[-71.060736,42.353145],[-71.060766,42.353156],[-71.060888,42.353013],[-71.061084,42.352464],[-71.061125,42.352254],[-71.061106,42.352027],[-71.061093,42.352029],[-71.061108,42.351986],[-71.061044,42.351564],[-71.061227,42.351071]],[[-71.060189,42.351844],[-71.060056,42.351864],[-71.060014,42.351987],[-71.059961,42.351657],[-71.06007,42.351656],[-71.060078,42.351634],[-71.06012,42.35163],[-71.060189,42.351844]]],[[[-71.061068,42.348118],[-71.061011,42.348097],[-71.060549,42.348739],[-71.060426,42.349103],[-71.060321,42.349063],[-71.060204,42.349326],[-71.059925,42.350048],[-71.059743,42.350586],[-71.059761,42.350591],[-71.059747,42.350638],[-71.059785,42.350646],[-71.059764,42.35072],[-71.059974,42.350765],[-71.059981,42.350749],[-71.059996,42.350752],[-71.060025,42.350674],[-71.060044,42.35068],[-71.060385,42.349797],[-71.060546,42.34932],[-71.060604,42.349334],[-71.060886,42.348656],[-71.061068,42.348118]]],[[[-71.061054,42.348944],[-71.060878,42.348902],[-71.060716,42.349326],[-71.060943,42.349416],[-71.06102,42.349213],[-71.060968,42.349212],[-71.061004,42.349108],[-71.060947,42.349071],[-71.061003,42.349084],[-71.061054,42.348944]],[[-71.060956,42.349215],[-71.060936,42.349221],[-71.060892,42.349205],[-71.060956,42.349215]]],[[[-71.060966,42.349994],[-71.060509,42.349891],[-71.060284,42.35049],[-71.06026,42.350485],[-71.05993,42.351292],[-71.06021,42.351354],[-71.06029,42.351173],[-71.060227,42.351349],[-71.06043,42.351394],[-71.060552,42.351112],[-71.060595,42.350984],[-71.060574,42.350979],[-71.060609,42.350886],[-71.060687,42.350717],[-71.060697,42.35072],[-71.060835,42.350381],[-71.060966,42.349994]],[[-71.060314,42.350821],[-71.060309,42.350858],[-71.060266,42.350848],[-71.06028,42.350813],[-71.060314,42.350821]]],[[[-71.059748,42.352478],[-71.059715,42.35226],[-71.059695,42.352262],[-71.059626,42.351804],[-71.059386,42.351848],[-71.059319,42.352047],[-71.059357,42.352302],[-71.059372,42.352301],[-71.059412,42.352656],[-71.059682,42.352673],[-71.059748,42.352478]]],[[[-71.059505,42.350215],[-71.059471,42.35018],[-71.059047,42.350086],[-71.058996,42.350102],[-71.058314,42.351831],[-71.05851,42.351874],[-71.058698,42.351696],[-71.058853,42.351502],[-71.058957,42.351325],[-71.059022,42.351148],[-71.059085,42.351162],[-71.05914,42.351146],[-71.059505,42.350215]]],[[[-71.059318,42.349726],[-71.059179,42.349693],[-71.05909,42.349909],[-71.059229,42.349942],[-71.059318,42.349726]]],[[[-71.058776,42.350034],[-71.058372,42.349945],[-71.058284,42.350205],[-71.057799,42.35194],[-71.057769,42.352037],[-71.057725,42.352025],[-71.057838,42.351684],[-71.0578,42.351678],[-71.057857,42.351499],[-71.057888,42.351344],[-71.057869,42.351341],[-71.057885,42.351294],[-71.057923,42.351299],[-71.057989,42.351103],[-71.058052,42.350873],[-71.058021,42.350866],[-71.058289,42.349924],[-71.05823,42.349911],[-71.058424,42.349376],[-71.057926,42.349266],[-71.057834,42.349508],[-71.057974,42.349539],[-71.057962,42.349568],[-71.057872,42.349548],[-71.057841,42.349633],[-71.057931,42.349653],[-71.057872,42.349825],[-71.057688,42.349927],[-71.057625,42.350113],[-71.057463,42.350856],[-71.057496,42.350864],[-71.057461,42.350968],[-71.057192,42.352284],[-71.057844,42.352489],[-71.057868,42.352484],[-71.058127,42.351694],[-71.058283,42.351326],[-71.058414,42.350953],[-71.058208,42.350902],[-71.058225,42.350865],[-71.05843,42.350916],[-71.058526,42.350721],[-71.058608,42.350468],[-71.058679,42.350359],[-71.058776,42.350034]]],[[[-71.058071,42.348706],[-71.057613,42.348605],[-71.057398,42.349202],[-71.057857,42.349303],[-71.058071,42.348706]]],[[[-71.056775,42.349199],[-71.056596,42.349149],[-71.055487,42.349466],[-71.055025,42.350377],[-71.054973,42.35053],[-71.05505,42.35059],[-71.055031,42.350646],[-71.055089,42.350662],[-71.055105,42.350632],[-71.055315,42.350792],[-71.055467,42.350848],[-71.056102,42.350842],[-71.056186,42.350826],[-71.056382,42.350434],[-71.056583,42.349935],[-71.056635,42.349782],[-71.056775,42.349199]]],[[[-71.056683,42.347603],[-71.056673,42.347544],[-71.055908,42.347262],[-71.054533,42.349309],[-71.054493,42.349427],[-71.054447,42.34941],[-71.053477,42.350853],[-71.053393,42.351101],[-71.053974,42.351316],[-71.054098,42.351157],[-71.054315,42.351237],[-71.055285,42.34979],[-71.055307,42.349724],[-71.056634,42.347749],[-71.056683,42.347603]]],[[[-71.055768,42.35162],[-71.055498,42.351545],[-71.054479,42.351779],[-71.054307,42.351954],[-71.054227,42.352189],[-71.054753,42.352467],[-71.054913,42.352518],[-71.055081,42.352543],[-71.055258,42.352503],[-71.055378,42.352413],[-71.055469,42.352304],[-71.055688,42.351855],[-71.055768,42.35162]]]]},"properties":{"kind":"building"}},{"type":"Feature","geometry":{"type":"MultiPolygon","coordinates":[[[[-71.066058,42.353451],[-71.066047,42.35341],[-71.066015,42.353375],[-71.065968,42.353351],[-71.065876,42.353348],[-71.065908,42.353254],[-71.06596,42.353212],[-71.066007,42.353073],[-71.066048,42.352923],[-71.066021,42.352832],[-71.065989,42.352797],[-71.065886,42.352765],[-71.06583,42.352773],[-71.065765,42.352817],[-71.065774,42.352784],[-71.06575,42.352742],[-71.065693,42.352724],[-71.06564,42.35274],[-71.065645,42.352726],[-71.065707,42.352711],[-71.065779,42.352743],[-71.065844,42.352713],[-71.065885,42.352747],[-71.065942,42.352747],[-71.065982,42.352717],[-71.066022,42.352597],[-71.066016,42.352576],[-71.065976,42.352546],[-71.065918,42.352546],[-71.065882,42.352572],[-71.065841,42.352538],[-71.065759,42.35255],[-71.065717,42.352522],[-71.065659,42.352522],[-71.065619,42.352552],[-71.065604,42.352597],[-71.065539,42.352598],[-71.06549,42.352634],[-71.065445,42.352773],[-71.065471,42.352821],[-71.065424,42.352968],[-71.065442,42.353006],[-71.065408,42.353037],[-71.065359,42.353222],[-71.065265,42.353195],[-71.065193,42.353212],[-71.065199,42.353193],[-71.065235,42.353191],[-71.065271,42.353163],[-71.065308,42.353051],[-71.065266,42.353004],[-71.065271,42.352957],[-71.065235,42.352939],[-71.065199,42.352957],[-71.065146,42.353125],[-71.065123,42.353143],[-71.065105,42.353196],[-71.065018,42.353161],[-71.06494,42.353185],[-71.064916,42.353212],[-71.064863,42.353373],[-71.064872,42.353405],[-71.064905,42.353436],[-71.06488,42.353458],[-71.064848,42.353594],[-71.064914,42.353627],[-71.06498,42.353594],[-71.065012,42.353458],[-71.065076,42.353405],[-71.065124,42.35326],[-71.06508,42.353409],[-71.065054,42.353438],[-71.065006,42.35358],[-71.065006,42.35365],[-71.065073,42.353699],[-71.065167,42.353699],[-71.065207,42.353679],[-71.065248,42.353607],[-71.065264,42.353609],[-71.065252,42.353656],[-71.065263,42.353697],[-71.065319,42.353744],[-71.065285,42.35377],[-71.065257,42.353854],[-71.065201,42.35385],[-71.065168,42.353875],[-71.06514,42.353956],[-71.065071,42.353947],[-71.065036,42.353973],[-71.065006,42.3541],[-71.065065,42.354129],[-71.065111,42.354115],[-71.065103,42.354149],[-71.06512,42.354179],[-71.065184,42.354188],[-71.065215,42.354165],[-71.065239,42.354094],[-71.065284,42.354108],[-71.06533,42.354094],[-71.065375,42.353988],[-71.065449,42.353977],[-71.065493,42.353867],[-71.065473,42.353959],[-71.065521,42.353983],[-71.065569,42.353959],[-71.065625,42.353756],[-71.065589,42.353716],[-71.065531,42.353723],[-71.065594,42.353508],[-71.065583,42.353467],[-71.065551,42.353432],[-71.065486,42.353406],[-71.065608,42.353322],[-71.065643,42.353217],[-71.065655,42.353215],[-71.065646,42.353288],[-71.065688,42.353319],[-71.065698,42.353362],[-71.065718,42.353384],[-71.065782,42.353404],[-71.065716,42.353599],[-71.065727,42.35364],[-71.065759,42.353675],[-71.065862,42.353707],[-71.065965,42.353675],[-71.065997,42.35364],[-71.066058,42.353451]],[[-71.065719,42.352927],[-71.065713,42.352943],[-71.065699,42.352939],[-71.065719,42.352927]],[[-71.065497,42.353787],[-71.06548,42.353841],[-71.065438,42.353826],[-71.065401,42.353837],[-71.065416,42.353789],[-71.065497,42.353787]],[[-71.065389,42.35341],[-71.065378,42.353415],[-71.065379,42.353405],[-71.065389,42.35341]],[[-71.065365,42.353918],[-71.065359,42.353933],[-71.065344,42.353928],[-71.065365,42.353918]],[[-71.065287,42.353927],[-71.065274,42.353934],[-71.065278,42.353922],[-71.065287,42.353927]],[[-71.065234,42.354014],[-71.065228,42.354032],[-71.065212,42.354024],[-71.065234,42.354014]],[[-71.065179,42.354023],[-71.065149,42.354033],[-71.065155,42.354013],[-71.065179,42.354023]]],[[[-71.066046,42.354972],[-71.066004,42.354925],[-71.06593,42.354936],[-71.065884,42.355046],[-71.065884,42.355084],[-71.065946,42.355116],[-71.065995,42.355101],[-71.066046,42.354972]]],[[[-71.06602,42.354061],[-71.065981,42.354032],[-71.065953,42.354041],[-71.065936,42.354076],[-71.065908,42.354048],[-71.065855,42.354056],[-71.065818,42.354171],[-71.065845,42.35419],[-71.065882,42.35419],[-71.065908,42.354171],[-71.065921,42.354134],[-71.065908,42.354205],[-71.065938,42.354214],[-71.065967,42.354156],[-71.065994,42.354139],[-71.06602,42.354061]]],[[[-71.065865,42.354468],[-71.065855,42.354431],[-71.065785,42.354379],[-71.065685,42.354379],[-71.065643,42.3544],[-71.065615,42.354431],[-71.065565,42.354579],[-71.065565,42.354652],[-71.065635,42.354704],[-71.065685,42.354712],[-71.065777,42.354684],[-71.065805,42.354652],[-71.065865,42.354468]]],[[[-71.06583,42.348038],[-71.06579,42.347994],[-71.06574,42.347994],[-71.065705,42.34802],[-71.06567,42.348128],[-71.065687,42.348161],[-71.065652,42.348262],[-71.065686,42.348299],[-71.06569,42.348344],[-71.065714,42.348337],[-71.065726,42.3483],[-71.065758,42.348277],[-71.06583,42.348038]]],[[[-71.065764,42.353939],[-71.065734,42.353906],[-71.065681,42.353914],[-71.06566,42.353955],[-71.065619,42.353976],[-71.065593,42.35408],[-71.065638,42.354102],[-71.065673,42.354091],[-71.065693,42.35405],[-71.065734,42.354029],[-71.065764,42.353939]]],[[[-71.065738,42.348446],[-71.065702,42.348406],[-71.065639,42.348415],[-71.065597,42.348547],[-71.065651,42.348574],[-71.065693,42.348561],[-71.065738,42.348446]]],[[[-71.065683,42.354843],[-71.065674,42.354808],[-71.065607,42.354759],[-71.06556,42.354752],[-71.065482,42.354774],[-71.065481,42.354739],[-71.065444,42.354711],[-71.065392,42.354711],[-71.065362,42.354731],[-71.065345,42.354722],[-71.065351,42.354697],[-71.065327,42.354655],[-71.065202,42.35461],[-71.065147,42.354627],[-71.065113,42.354695],[-71.065054,42.354729],[-71.065014,42.354853],[-71.065036,42.354893],[-71.065103,42.354927],[-71.065154,42.354943],[-71.065201,42.354929],[-71.065223,42.354969],[-71.065276,42.354985],[-71.065328,42.354969],[-71.065362,42.354898],[-71.065413,42.354898],[-71.065389,42.354985],[-71.065398,42.35502],[-71.065465,42.355069],[-71.065512,42.355076],[-71.065559,42.355069],[-71.065626,42.35502],[-71.065683,42.354843]]],[[[-71.065598,42.348957],[-71.065567,42.348947],[-71.065551,42.348998],[-71.065585,42.348998],[-71.065598,42.348957]]],[[[-71.065588,42.351223],[-71.065557,42.351213],[-71.065538,42.351272],[-71.065572,42.351272],[-71.065588,42.351223]]],[[[-71.065562,42.349094],[-71.065531,42.349084],[-71.065515,42.349135],[-71.065549,42.349135],[-71.065562,42.349094]]],[[[-71.065559,42.349236],[-71.065529,42.349203],[-71.065476,42.349211],[-71.065443,42.349315],[-71.065488,42.349338],[-71.065522,42.349327],[-71.065559,42.349236]]],[[[-71.065552,42.348316],[-71.065514,42.348274],[-71.065466,42.348274],[-71.065433,42.348299],[-71.065399,42.348403],[-71.065437,42.348446],[-71.065421,42.348493],[-71.065433,42.348514],[-71.065463,42.348505],[-71.065481,42.348452],[-71.065517,42.348421],[-71.065552,42.348316]]],[[[-71.065548,42.34811],[-71.065517,42.3481],[-71.0655,42.348154],[-71.065534,42.348154],[-71.065548,42.34811]]],[[[-71.065465,42.352587],[-71.065457,42.352558],[-71.065401,42.352516],[-71.065321,42.352516],[-71.065288,42.352533],[-71.065265,42.352558],[-71.065223,42.352682],[-71.065223,42.352741],[-71.065279,42.352783],[-71.065319,42.352788],[-71.065392,42.352766],[-71.065415,42.352741],[-71.065465,42.352587]]],[[[-71.065433,42.34879],[-71.065403,42.348757],[-71.06535,42.348765],[-71.065317,42.348869],[-71.065362,42.348892],[-71.065396,42.348881],[-71.065433,42.34879]]],[[[-71.065396,42.34894],[-71.065374,42.348916],[-71.065335,42.348921],[-71.065303,42.349004],[-71.065313,42.349023],[-71.065363,42.349023],[-71.065396,42.34894]]],[[[-71.065379,42.34907],[-71.065349,42.349037],[-71.065296,42.349045],[-71.065259,42.34916],[-71.065304,42.349182],[-71.065339,42.349171],[-71.065379,42.34907]]],[[[-71.065368,42.35121],[-71.065337,42.3512],[-71.065319,42.351257],[-71.065353,42.351257],[-71.065368,42.35121]]],[[[-71.065268,42.35121],[-71.065237,42.3512],[-71.06522,42.351254],[-71.065254,42.351254],[-71.065268,42.35121]]],[[[-71.065204,42.352785],[-71.065168,42.352745],[-71.065124,42.352745],[-71.065092,42.352768],[-71.065063,42.352883],[-71.065032,42.352908],[-71.064994,42.353024],[-71.065015,42.353061],[-71.065066,42.353077],[-71.065132,42.353044],[-71.065204,42.352785]]],[[[-71.065176,42.35072],[-71.06515,42.350701],[-71.065126,42.350713],[-71.065082,42.350832],[-71.065075,42.350909],[-71.065086,42.350916],[-71.065111,42.350909],[-71.065176,42.35072]]],[[[-71.065109,42.352581],[-71.065102,42.352553],[-71.065049,42.352515],[-71.064975,42.352515],[-71.064943,42.35253],[-71.064922,42.352553],[-71.064882,42.352672],[-71.064882,42.352728],[-71.064934,42.352766],[-71.064972,42.352772],[-71.065041,42.352751],[-71.065062,42.352728],[-71.065109,42.352581]]],[[[-71.065103,42.354592],[-71.065085,42.35456],[-71.065041,42.354546],[-71.065067,42.354458],[-71.065049,42.354426],[-71.064899,42.354414],[-71.064824,42.354451],[-71.064782,42.354579],[-71.064825,42.354631],[-71.064776,42.354774],[-71.064802,42.354822],[-71.064857,42.35484],[-71.064845,42.354877],[-71.064861,42.354905],[-71.0649,42.354917],[-71.064951,42.354892],[-71.064983,42.354795],[-71.064967,42.354766],[-71.064979,42.354717],[-71.065011,42.354725],[-71.065055,42.354712],[-71.065103,42.354592]],[[-71.064979,42.354591],[-71.06497,42.354615],[-71.06494,42.354599],[-71.064945,42.354584],[-71.064979,42.354591]]],[[[-71.065099,42.354179],[-71.065063,42.354139],[-71.065,42.354148],[-71.064958,42.35428],[-71.065012,42.354307],[-71.065054,42.354294],[-71.065099,42.354179]]],[[[-71.064955,42.354294],[-71.06494,42.354267],[-71.064886,42.354258],[-71.064911,42.354156],[-71.064885,42.354137],[-71.064832,42.354145],[-71.064792,42.354246],[-71.064806,42.354271],[-71.064855,42.35428],[-71.064828,42.354387],[-71.064876,42.354411],[-71.064913,42.3544],[-71.064955,42.354294]]],[[[-71.064944,42.35131],[-71.064913,42.3513],[-71.064895,42.351357],[-71.064929,42.351357],[-71.064944,42.35131]]],[[[-71.064939,42.353107],[-71.064928,42.353066],[-71.064865,42.353015],[-71.064856,42.352981],[-71.064791,42.352933],[-71.064699,42.352933],[-71.064634,42.352981],[-71.064578,42.353154],[-71.064609,42.353212],[-71.064597,42.353255],[-71.064557,42.353292],[-71.064504,42.353453],[-71.064537,42.353511],[-71.064489,42.353658],[-71.064519,42.35371],[-71.06459,42.353732],[-71.064628,42.353727],[-71.064683,42.353686],[-71.064732,42.353536],[-71.06471,42.353492],[-71.064729,42.353448],[-71.064803,42.353457],[-71.064842,42.353428],[-71.064939,42.353107]]],[[[-71.064935,42.35396],[-71.064911,42.353918],[-71.064854,42.3539],[-71.064797,42.353918],[-71.06477,42.353963],[-71.064779,42.353878],[-71.064737,42.353847],[-71.064652,42.353859],[-71.064627,42.353903],[-71.064638,42.353855],[-71.064614,42.353813],[-71.064557,42.353795],[-71.064508,42.353809],[-71.064431,42.353765],[-71.064478,42.353658],[-71.064478,42.353622],[-71.064443,42.353596],[-71.064372,42.353606],[-71.064307,42.353743],[-71.064284,42.353761],[-71.064256,42.353843],[-71.064202,42.35405],[-71.0642,42.35412],[-71.064125,42.354133],[-71.064044,42.35434],[-71.064005,42.354344],[-71.063961,42.354376],[-71.063938,42.354445],[-71.063903,42.354482],[-71.063848,42.354649],[-71.0638,42.354683],[-71.063783,42.354734],[-71.063755,42.354758],[-71.063715,42.354882],[-71.063721,42.354904],[-71.063763,42.354935],[-71.063822,42.354935],[-71.06392,42.354838],[-71.063942,42.354772],[-71.064044,42.35477],[-71.064091,42.354747],[-71.064123,42.354712],[-71.064181,42.354535],[-71.06427,42.354531],[-71.064349,42.354473],[-71.064406,42.354301],[-71.064483,42.354326],[-71.064559,42.354303],[-71.064582,42.354277],[-71.064631,42.354126],[-71.064692,42.354151],[-71.064742,42.354135],[-71.064761,42.354107],[-71.064819,42.354125],[-71.064876,42.354107],[-71.064935,42.35396]],[[-71.064507,42.354018],[-71.064498,42.354044],[-71.064427,42.354089],[-71.064384,42.354216],[-71.06434,42.354194],[-71.064376,42.354083],[-71.064387,42.353989],[-71.064446,42.35398],[-71.064507,42.354018]]],[[[-71.064911,42.354986],[-71.064903,42.354957],[-71.064847,42.354915],[-71.064767,42.354915],[-71.064734,42.354932],[-71.064711,42.354957],[-71.064669,42.355081],[-71.064669,42.35514],[-71.064725,42.355182],[-71.064765,42.355187],[-71.064838,42.355165],[-71.064861,42.35514],[-71.064911,42.354986]]],[[[-71.064857,42.348456],[-71.064826,42.348446],[-71.064809,42.3485],[-71.064843,42.3485],[-71.064857,42.348456]]],[[[-71.064806,42.354449],[-71.064798,42.354419],[-71.064741,42.354376],[-71.064759,42.354284],[-71.064722,42.354256],[-71.064648,42.354267],[-71.064608,42.354357],[-71.064571,42.354378],[-71.064549,42.354445],[-71.064507,42.354432],[-71.064466,42.354444],[-71.064431,42.354524],[-71.064363,42.354531],[-71.064332,42.354599],[-71.064296,42.3546],[-71.064268,42.35462],[-71.064247,42.354682],[-71.064212,42.354672],[-71.064173,42.354684],[-71.064133,42.35481],[-71.064163,42.354832],[-71.064205,42.354832],[-71.064199,42.354877],[-71.06422,42.354914],[-71.064271,42.35493],[-71.064321,42.354914],[-71.064364,42.354816],[-71.064411,42.354805],[-71.064443,42.354733],[-71.064504,42.354727],[-71.064535,42.354657],[-71.064656,42.354656],[-71.064732,42.354633],[-71.064755,42.354607],[-71.064806,42.354449]],[[-71.064568,42.354499],[-71.064556,42.354505],[-71.06456,42.354495],[-71.064568,42.354499]],[[-71.064453,42.354598],[-71.06445,42.354602],[-71.064452,42.354597],[-71.064453,42.354598]]],[[[-71.064739,42.354797],[-71.064708,42.354787],[-71.064691,42.354841],[-71.064725,42.354841],[-71.064739,42.354797]]],[[[-71.064624,42.351826],[-71.064593,42.351816],[-71.064576,42.35187],[-71.06461,42.35187],[-71.064624,42.351826]]],[[[-71.064621,42.348425],[-71.06459,42.348415],[-71.064573,42.348469],[-71.064607,42.348469],[-71.064621,42.348425]]],[[[-71.064568,42.352055],[-71.064537,42.352045],[-71.064519,42.352091],[-71.0645,42.352193],[-71.06451,42.352211],[-71.064534,42.352204],[-71.064568,42.352055]]],[[[-71.064436,42.348399],[-71.064405,42.348389],[-71.064388,42.348443],[-71.064422,42.348443],[-71.064436,42.348399]]],[[[-71.064238,42.350925],[-71.064207,42.350915],[-71.06419,42.350969],[-71.064224,42.350969],[-71.064238,42.350925]]],[[[-71.064209,42.34872],[-71.06417,42.348708],[-71.064147,42.348779],[-71.064189,42.348779],[-71.064209,42.34872]]],[[[-71.064168,42.34884],[-71.064137,42.34883],[-71.064117,42.348892],[-71.064151,42.348892],[-71.064168,42.34884]]],[[[-71.064148,42.350914],[-71.064117,42.350904],[-71.0641,42.350958],[-71.064134,42.350958],[-71.064148,42.350914]]],[[[-71.064088,42.3533],[-71.064057,42.35329],[-71.064037,42.353352],[-71.064071,42.353352],[-71.064088,42.3533]]],[[[-71.064082,42.350914],[-71.064062,42.350892],[-71.064027,42.350897],[-71.063999,42.350966],[-71.064006,42.350993],[-71.064052,42.350993],[-71.064082,42.350914]]],[[[-71.064049,42.35339],[-71.064016,42.35338],[-71.063995,42.353446],[-71.064031,42.353446],[-71.064049,42.35339]]],[[[-71.064013,42.353283],[-71.063982,42.353273],[-71.063962,42.353335],[-71.063996,42.353335],[-71.064013,42.353283]]],[[[-71.063998,42.35376],[-71.063967,42.35375],[-71.063947,42.353812],[-71.063981,42.353812],[-71.063998,42.35376]]],[[[-71.063984,42.353386],[-71.063951,42.353376],[-71.06393,42.353442],[-71.063966,42.353442],[-71.063984,42.353386]]],[[[-71.063973,42.350903],[-71.063949,42.350876],[-71.063906,42.350883],[-71.063875,42.350981],[-71.063911,42.350999],[-71.063939,42.350991],[-71.063973,42.350903]]],[[[-71.063943,42.353268],[-71.063904,42.353256],[-71.063881,42.353327],[-71.063923,42.353327],[-71.063943,42.353268]]],[[[-71.063928,42.353374],[-71.063897,42.353364],[-71.063877,42.353426],[-71.063911,42.353426],[-71.063928,42.353374]]],[[[-71.063922,42.353967],[-71.063902,42.353945],[-71.063867,42.35395],[-71.063839,42.354019],[-71.063846,42.354046],[-71.063892,42.354046],[-71.063922,42.353967]]],[[[-71.063915,42.348675],[-71.063882,42.348665],[-71.063831,42.34879],[-71.063835,42.348844],[-71.063859,42.348837],[-71.063915,42.348675]]],[[[-71.063879,42.34887],[-71.063846,42.34886],[-71.063825,42.348926],[-71.063861,42.348926],[-71.063879,42.34887]]],[[[-71.063821,42.349148],[-71.06379,42.349138],[-71.063773,42.349192],[-71.063807,42.349192],[-71.063821,42.349148]]],[[[-71.063816,42.35412],[-71.06379,42.354101],[-71.063766,42.354113],[-71.063747,42.354183],[-71.063771,42.354195],[-71.063795,42.354183],[-71.063816,42.35412]]],[[[-71.063808,42.348427],[-71.063777,42.348417],[-71.06376,42.348471],[-71.063794,42.348471],[-71.063808,42.348427]]],[[[-71.063768,42.349293],[-71.063737,42.349283],[-71.063707,42.349368],[-71.063717,42.349386],[-71.063741,42.349379],[-71.063768,42.349293]]],[[[-71.063718,42.34841],[-71.063687,42.3484],[-71.06367,42.348454],[-71.063704,42.348454],[-71.063718,42.34841]]],[[[-71.063707,42.350883],[-71.063687,42.350861],[-71.063652,42.350866],[-71.063624,42.350935],[-71.063631,42.350962],[-71.063677,42.350962],[-71.063707,42.350883]]],[[[-71.063689,42.34976],[-71.063656,42.34975],[-71.063635,42.349816],[-71.063671,42.349816],[-71.063689,42.34976]]],[[[-71.063632,42.349854],[-71.063601,42.349844],[-71.063581,42.349906],[-71.063615,42.349906],[-71.063632,42.349854]]],[[[-71.063613,42.350876],[-71.063574,42.350864],[-71.063551,42.350935],[-71.063593,42.350935],[-71.063613,42.350876]]],[[[-71.063579,42.34995],[-71.063546,42.34994],[-71.063497,42.350042],[-71.063507,42.35006],[-71.063531,42.350052],[-71.063579,42.34995]]],[[[-71.063569,42.3547],[-71.063539,42.354667],[-71.063501,42.354667],[-71.063475,42.354686],[-71.063449,42.354766],[-71.063415,42.354786],[-71.063389,42.354866],[-71.063403,42.354891],[-71.063438,42.354902],[-71.063483,42.354879],[-71.063509,42.3548],[-71.063543,42.354779],[-71.063569,42.3547]]],[[[-71.063546,42.350864],[-71.06352,42.350845],[-71.063496,42.350857],[-71.063477,42.350927],[-71.063501,42.350939],[-71.063525,42.350927],[-71.063546,42.350864]]],[[[-71.063458,42.350418],[-71.063427,42.350408],[-71.063384,42.350536],[-71.063354,42.350597],[-71.063333,42.350605],[-71.063319,42.350646],[-71.063329,42.350664],[-71.063353,42.350657],[-71.063367,42.350605],[-71.063388,42.350597],[-71.063458,42.350418]]],[[[-71.063458,42.35018],[-71.063427,42.35017],[-71.063353,42.350319],[-71.063363,42.350337],[-71.063408,42.3503],[-71.063458,42.35018]]],[[[-71.063386,42.350826],[-71.063369,42.350808],[-71.063381,42.350757],[-71.063365,42.350745],[-71.063368,42.350698],[-71.063343,42.350691],[-71.063315,42.350749],[-71.063317,42.350889],[-71.063341,42.350901],[-71.063365,42.350889],[-71.063386,42.350826]]],[[[-71.063328,42.35044],[-71.063297,42.35043],[-71.063267,42.350473],[-71.063133,42.350751],[-71.063112,42.350759],[-71.063095,42.35081],[-71.063106,42.350828],[-71.063131,42.350821],[-71.063143,42.350785],[-71.063158,42.350781],[-71.063328,42.35044]]],[[[-71.063144,42.352238],[-71.063113,42.352228],[-71.063095,42.352285],[-71.063129,42.352285],[-71.063144,42.352238]]],[[[-71.063083,42.35225],[-71.063052,42.35224],[-71.063034,42.352297],[-71.063068,42.352297],[-71.063083,42.35225]]],[[[-71.062983,42.352253],[-71.062952,42.352243],[-71.062934,42.3523],[-71.062968,42.3523],[-71.062983,42.352253]]],[[[-71.062922,42.35222],[-71.062891,42.35221],[-71.062872,42.352269],[-71.062906,42.352269],[-71.062922,42.35222]]],[[[-71.062848,42.352215],[-71.062817,42.352205],[-71.062799,42.352262],[-71.062833,42.352262],[-71.062848,42.352215]]],[[[-71.062829,42.353302],[-71.062796,42.353292],[-71.062775,42.353358],[-71.062811,42.353358],[-71.062829,42.353302]]],[[[-71.062829,42.353214],[-71.062796,42.353204],[-71.062775,42.35327],[-71.062811,42.35327],[-71.062829,42.353214]]],[[[-71.062763,42.353207],[-71.06273,42.353197],[-71.062709,42.353263],[-71.062745,42.353263],[-71.062763,42.353207]]],[[[-71.062763,42.353306],[-71.062724,42.353294],[-71.062701,42.353365],[-71.062743,42.353365],[-71.062763,42.353306]]],[[[-71.062559,42.348354],[-71.062541,42.348334],[-71.062509,42.348339],[-71.062483,42.348421],[-71.062531,42.348428],[-71.062559,42.348354]]],[[[-71.062496,42.349373],[-71.06247,42.349344],[-71.062424,42.349351],[-71.062391,42.349455],[-71.06243,42.349474],[-71.06246,42.349465],[-71.062496,42.349373]]],[[[-71.062463,42.348557],[-71.062424,42.348545],[-71.062401,42.348616],[-71.062443,42.348616],[-71.062463,42.348557]]],[[[-71.062409,42.348373],[-71.062385,42.348346],[-71.062342,42.348353],[-71.062311,42.348451],[-71.062347,42.348469],[-71.062375,42.348461],[-71.062409,42.348373]]],[[[-71.062392,42.349323],[-71.062366,42.349294],[-71.06232,42.349301],[-71.062287,42.349405],[-71.062326,42.349424],[-71.062356,42.349415],[-71.062392,42.349323]]],[[[-71.062039,42.353752],[-71.062006,42.353742],[-71.061985,42.353808],[-71.062021,42.353808],[-71.062039,42.353752]]],[[[-71.062006,42.349306],[-71.061975,42.349296],[-71.061958,42.34935],[-71.061992,42.34935],[-71.062006,42.349306]]],[[[-71.061988,42.35386],[-71.061957,42.35385],[-71.06194,42.353904],[-71.061974,42.353904],[-71.061988,42.35386]]],[[[-71.061951,42.349438],[-71.06192,42.349428],[-71.061903,42.349482],[-71.061937,42.349482],[-71.061951,42.349438]]],[[[-71.061941,42.349548],[-71.061911,42.349515],[-71.061858,42.349523],[-71.061825,42.349627],[-71.06187,42.34965],[-71.061904,42.349639],[-71.061941,42.349548]]],[[[-71.061928,42.34988],[-71.061897,42.34987],[-71.06185,42.34997],[-71.061884,42.34997],[-71.061928,42.34988]]],[[[-71.061924,42.3537],[-71.061891,42.35369],[-71.06187,42.353756],[-71.061906,42.353756],[-71.061924,42.3537]]],[[[-71.061909,42.353825],[-71.061876,42.353815],[-71.061855,42.353881],[-71.061891,42.353881],[-71.061909,42.353825]]],[[[-71.061892,42.35],[-71.061861,42.34999],[-71.061824,42.350067],[-71.061803,42.350075],[-71.06179,42.350124],[-71.061814,42.350131],[-71.061854,42.350088],[-71.061892,42.35]]],[[[-71.061851,42.348312],[-71.061823,42.348281],[-71.061789,42.348281],[-71.061764,42.348299],[-71.061736,42.348385],[-71.061749,42.348408],[-71.061722,42.348465],[-71.061746,42.348472],[-71.061769,42.348426],[-71.061823,42.348398],[-71.061851,42.348312]]],[[[-71.061828,42.353783],[-71.061797,42.353773],[-71.06178,42.353827],[-71.061814,42.353827],[-71.061828,42.353783]]],[[[-71.061825,42.353653],[-71.061792,42.353643],[-71.061771,42.353709],[-71.061807,42.353709],[-71.061825,42.353653]]],[[[-71.061824,42.350155],[-71.061793,42.350145],[-71.06175,42.350244],[-71.061784,42.350244],[-71.061824,42.350155]]],[[[-71.061789,42.350292],[-71.061765,42.350265],[-71.061714,42.350281],[-71.061653,42.350406],[-71.061663,42.350443],[-71.061695,42.350453],[-71.061737,42.350432],[-71.061789,42.350292]]],[[[-71.061766,42.349666],[-71.061736,42.349633],[-71.061683,42.349641],[-71.06165,42.349745],[-71.061695,42.349768],[-71.061729,42.349757],[-71.061766,42.349666]]],[[[-71.061759,42.353607],[-71.061729,42.353574],[-71.061676,42.353582],[-71.061643,42.353686],[-71.061688,42.353709],[-71.061722,42.353698],[-71.061759,42.353607]]],[[[-71.061747,42.353738],[-71.061716,42.353728],[-71.061699,42.353782],[-71.061733,42.353782],[-71.061747,42.353738]]],[[[-71.061692,42.348648],[-71.061666,42.348619],[-71.06162,42.348626],[-71.061587,42.34873],[-71.061626,42.348749],[-71.061656,42.34874],[-71.061692,42.348648]]],[[[-71.061645,42.348297],[-71.061611,42.348259],[-71.061551,42.348268],[-71.061511,42.348394],[-71.061562,42.348419],[-71.061601,42.348407],[-71.061645,42.348297]]],[[[-71.061628,42.35355],[-71.061597,42.35354],[-71.061578,42.353599],[-71.061612,42.353599],[-71.061628,42.35355]]],[[[-71.06161,42.348837],[-71.061579,42.348827],[-71.061562,42.348881],[-71.061596,42.348881],[-71.06161,42.348837]]],[[[-71.061608,42.3485],[-71.061577,42.34849],[-71.06156,42.348544],[-71.061594,42.348544],[-71.061608,42.3485]]],[[[-71.061597,42.348184],[-71.061566,42.348174],[-71.061547,42.348233],[-71.061581,42.348233],[-71.061597,42.348184]]],[[[-71.061565,42.34867],[-71.061537,42.348639],[-71.061488,42.348646],[-71.061453,42.348756],[-71.061495,42.348777],[-71.061527,42.348767],[-71.061565,42.34867]]],[[[-71.061548,42.349568],[-71.061518,42.349535],[-71.061465,42.349543],[-71.061432,42.349647],[-71.061477,42.34967],[-71.061511,42.349659],[-71.061548,42.349568]]],[[[-71.061502,42.348854],[-71.061476,42.348825],[-71.06143,42.348832],[-71.061397,42.348936],[-71.061436,42.348955],[-71.061466,42.348946],[-71.061502,42.348854]]],[[[-71.061493,42.35095],[-71.061454,42.350938],[-71.061431,42.351009],[-71.061473,42.351009],[-71.061493,42.35095]]],[[[-71.061472,42.34815],[-71.061434,42.348108],[-71.061386,42.348108],[-71.061353,42.348133],[-71.061319,42.348237],[-71.061337,42.34827],[-71.061375,42.348282],[-71.061376,42.348327],[-71.061399,42.348334],[-71.061429,42.348319],[-71.061472,42.34815]]],[[[-71.06145,42.349534],[-71.06142,42.349501],[-71.061367,42.349509],[-71.061334,42.349613],[-71.061379,42.349636],[-71.061413,42.349625],[-71.06145,42.349534]]],[[[-71.061438,42.349255],[-71.061407,42.349245],[-71.061388,42.349304],[-71.061422,42.349304],[-71.061438,42.349255]]],[[[-71.061418,42.351122],[-71.061387,42.351112],[-71.061304,42.351322],[-71.061314,42.35134],[-71.061338,42.351333],[-71.061418,42.351122]]],[[[-71.061399,42.349052],[-71.061366,42.349042],[-71.061345,42.349108],[-71.061381,42.349108],[-71.061399,42.349052]]],[[[-71.061368,42.34943],[-71.061337,42.34942],[-71.06132,42.349474],[-71.061354,42.349474],[-71.061368,42.34943]]],[[[-71.061349,42.349228],[-71.061331,42.349208],[-71.061299,42.349213],[-71.061273,42.349295],[-71.061321,42.349302],[-71.061349,42.349228]]],[[[-71.061282,42.34963],[-71.061251,42.34962],[-71.061212,42.349714],[-71.061222,42.349732],[-71.061246,42.349725],[-71.061282,42.34963]]],[[[-71.061244,42.35337],[-71.061213,42.35336],[-71.061196,42.353414],[-71.06123,42.353414],[-71.061244,42.35337]]],[[[-71.061238,42.354774],[-71.061207,42.354764],[-71.06119,42.354818],[-71.061224,42.354818],[-71.061238,42.354774]]],[[[-71.061222,42.34983],[-71.061196,42.349801],[-71.06115,42.349808],[-71.061117,42.349912],[-71.061156,42.349931],[-71.061186,42.349922],[-71.061222,42.34983]]],[[[-71.061188,42.354916],[-71.061157,42.354906],[-71.06114,42.35496],[-71.061174,42.35496],[-71.061188,42.354916]]],[[[-71.061188,42.353344],[-71.061157,42.353334],[-71.06114,42.353388],[-71.061174,42.353388],[-71.061188,42.353344]]],[[[-71.061156,42.35003],[-71.061124,42.349995],[-71.061067,42.350003],[-71.061029,42.350123],[-71.061077,42.350147],[-71.061114,42.350136],[-71.061156,42.35003]]],[[[-71.061138,42.35332],[-71.061107,42.35331],[-71.06109,42.353364],[-71.061124,42.353364],[-71.061138,42.35332]]],[[[-71.061048,42.353275],[-71.061017,42.353265],[-71.060998,42.353324],[-71.061032,42.353324],[-71.061048,42.353275]]],[[[-71.061038,42.34849],[-71.061007,42.34848],[-71.06099,42.348534],[-71.061024,42.348534],[-71.061038,42.34849]]],[[[-71.061032,42.348602],[-71.061,42.348567],[-71.06096,42.348567],[-71.060932,42.348587],[-71.060834,42.348897],[-71.060846,42.348919],[-71.060906,42.348919],[-71.060939,42.348839],[-71.060973,42.348814],[-71.061032,42.348602]]],[[[-71.060988,42.353363],[-71.060957,42.353353],[-71.06094,42.353407],[-71.060974,42.353407],[-71.060988,42.353363]]],[[[-71.060938,42.35322],[-71.060907,42.35321],[-71.06089,42.353264],[-71.060924,42.353264],[-71.060938,42.35322]]],[[[-71.060923,42.35333],[-71.060892,42.35332],[-71.060874,42.353377],[-71.060908,42.353377],[-71.060923,42.35333]]],[[[-71.060862,42.353302],[-71.060831,42.353292],[-71.060814,42.353346],[-71.060848,42.353346],[-71.060862,42.353302]]],[[[-71.060847,42.349174],[-71.060803,42.349125],[-71.060725,42.349137],[-71.060678,42.34925],[-71.060678,42.34929],[-71.060744,42.349323],[-71.060794,42.349307],[-71.060847,42.349174]]],[[[-71.060733,42.34939],[-71.060703,42.349357],[-71.060665,42.349357],[-71.060639,42.349376],[-71.060572,42.349582],[-71.060586,42.349607],[-71.06062,42.349618],[-71.060665,42.349596],[-71.060733,42.34939]]],[[[-71.060628,42.34926],[-71.060597,42.34925],[-71.06054,42.349375],[-71.06055,42.349393],[-71.060574,42.349386],[-71.060628,42.34926]]],[[[-71.060609,42.34967],[-71.060579,42.349637],[-71.060541,42.349637],[-71.060515,42.349656],[-71.060451,42.349871],[-71.060467,42.349898],[-71.060503,42.349909],[-71.060551,42.349885],[-71.060582,42.349792],[-71.060571,42.349769],[-71.060609,42.34967]]],[[[-71.060598,42.35304],[-71.060567,42.35303],[-71.06055,42.353084],[-71.060584,42.353084],[-71.060598,42.35304]]],[[[-71.060558,42.349407],[-71.060527,42.349397],[-71.06051,42.34944],[-71.060489,42.349539],[-71.060469,42.349551],[-71.060456,42.349589],[-71.060465,42.349607],[-71.06044,42.349673],[-71.06045,42.349691],[-71.060474,42.349684],[-71.060558,42.349407]]],[[[-71.060518,42.352997],[-71.060487,42.352987],[-71.06047,42.353041],[-71.060504,42.353041],[-71.060518,42.352997]]],[[[-71.060508,42.353283],[-71.060477,42.353273],[-71.060459,42.35333],[-71.060493,42.35333],[-71.060508,42.353283]]],[[[-71.060504,42.35315],[-71.060473,42.35314],[-71.060456,42.353194],[-71.06049,42.353194],[-71.060504,42.35315]]],[[[-71.060468,42.352974],[-71.060437,42.352964],[-71.060419,42.353021],[-71.060453,42.353021],[-71.060468,42.352974]]],[[[-71.060428,42.3531],[-71.060397,42.35309],[-71.06038,42.353144],[-71.060414,42.353144],[-71.060428,42.3531]]],[[[-71.060419,42.353405],[-71.060418,42.35338],[-71.0604,42.353367],[-71.060352,42.353385],[-71.06031,42.353491],[-71.060385,42.353493],[-71.060419,42.353405]]],[[[-71.060388,42.349884],[-71.060357,42.349874],[-71.060339,42.349931],[-71.060373,42.349931],[-71.060388,42.349884]]],[[[-71.060374,42.35307],[-71.060343,42.35306],[-71.060326,42.353114],[-71.06036,42.353114],[-71.060374,42.35307]]],[[[-71.060318,42.350037],[-71.060287,42.350027],[-71.06027,42.350081],[-71.060304,42.350081],[-71.060318,42.350037]]],[[[-71.060314,42.35015],[-71.060297,42.3501],[-71.060273,42.350093],[-71.06022,42.350136],[-71.060198,42.350229],[-71.060243,42.350252],[-71.060277,42.350241],[-71.060314,42.35015]]],[[[-71.060174,42.34947],[-71.06015,42.349443],[-71.060099,42.349459],[-71.060042,42.349619],[-71.060017,42.349634],[-71.059993,42.349708],[-71.060003,42.349727],[-71.060028,42.349735],[-71.060061,42.349719],[-71.060083,42.349634],[-71.060117,42.349565],[-71.060148,42.349548],[-71.060174,42.34947]]],[[[-71.060158,42.352962],[-71.060127,42.352952],[-71.06011,42.353006],[-71.060144,42.353006],[-71.060158,42.352962]]],[[[-71.060105,42.35341],[-71.060077,42.353379],[-71.060028,42.353386],[-71.059993,42.353496],[-71.060035,42.353517],[-71.060067,42.353507],[-71.060105,42.35341]]],[[[-71.059972,42.351044],[-71.059946,42.351015],[-71.0599,42.351022],[-71.059832,42.351198],[-71.059856,42.35121],[-71.05988,42.351198],[-71.059898,42.351144],[-71.059945,42.351126],[-71.059972,42.351044]]],[[[-71.059858,42.3533],[-71.059827,42.35329],[-71.05981,42.353344],[-71.059844,42.353344],[-71.059858,42.3533]]],[[[-71.059822,42.35326],[-71.059796,42.353231],[-71.05975,42.353238],[-71.059717,42.353342],[-71.059756,42.353361],[-71.059786,42.353352],[-71.059822,42.35326]]],[[[-71.059758,42.352753],[-71.059727,42.352743],[-71.059709,42.3528],[-71.059743,42.3528],[-71.059758,42.352753]]],[[[-71.059688,42.352737],[-71.059657,42.352727],[-71.059639,42.352784],[-71.059673,42.352784],[-71.059688,42.352737]]],[[[-71.059669,42.354954],[-71.059651,42.354934],[-71.059619,42.354939],[-71.059613,42.354903],[-71.05955,42.354866],[-71.05952,42.354881],[-71.059499,42.354942],[-71.059506,42.354969],[-71.059557,42.355004],[-71.059592,42.354999],[-71.059599,42.355028],[-71.05962,42.355034],[-71.059641,42.355028],[-71.059669,42.354954]]],[[[-71.059649,42.35171],[-71.059619,42.351677],[-71.059566,42.351685],[-71.059533,42.351789],[-71.059578,42.351812],[-71.059612,42.351801],[-71.059649,42.35171]]],[[[-71.059634,42.35273],[-71.059603,42.35272],[-71.059585,42.352766],[-71.05954,42.352747],[-71.059506,42.352758],[-71.059473,42.352862],[-71.059518,42.352885],[-71.059552,42.352874],[-71.059589,42.352783],[-71.059615,42.352781],[-71.059634,42.35273]]],[[[-71.059562,42.3516],[-71.059542,42.351578],[-71.059507,42.351583],[-71.059479,42.351652],[-71.059486,42.351679],[-71.059532,42.351679],[-71.059562,42.3516]]],[[[-71.059544,42.35171],[-71.059511,42.3517],[-71.05949,42.351766],[-71.059526,42.351766],[-71.059544,42.35171]]],[[[-71.059518,42.351097],[-71.059487,42.351087],[-71.05947,42.351141],[-71.059504,42.351141],[-71.059518,42.351097]]],[[[-71.059482,42.354813],[-71.059462,42.354791],[-71.059427,42.354796],[-71.05943,42.354765],[-71.059413,42.354738],[-71.059364,42.354707],[-71.059331,42.354723],[-71.059307,42.354797],[-71.059356,42.354853],[-71.059402,42.354853],[-71.059399,42.354884],[-71.059429,42.354899],[-71.059459,42.354884],[-71.059482,42.354813]]],[[[-71.059478,42.35117],[-71.059447,42.35116],[-71.05943,42.351214],[-71.059464,42.351214],[-71.059478,42.35117]]],[[[-71.059456,42.351627],[-71.05943,42.351608],[-71.059406,42.35162],[-71.059387,42.35169],[-71.059411,42.351702],[-71.059435,42.35169],[-71.059456,42.351627]]],[[[-71.059428,42.3531],[-71.059397,42.35309],[-71.05938,42.353144],[-71.059414,42.353144],[-71.059428,42.3531]]],[[[-71.059418,42.35301],[-71.059387,42.353],[-71.05937,42.353054],[-71.059404,42.353054],[-71.059418,42.35301]]],[[[-71.059387,42.351704],[-71.059348,42.351692],[-71.059325,42.351763],[-71.059367,42.351763],[-71.059387,42.351704]]],[[[-71.059323,42.35178],[-71.059284,42.351768],[-71.059261,42.351839],[-71.059303,42.351839],[-71.059323,42.35178]]],[[[-71.059219,42.35129],[-71.059187,42.351235],[-71.059129,42.351197],[-71.059091,42.351197],[-71.059065,42.351216],[-71.059036,42.351306],[-71.05905,42.351331],[-71.059098,42.35134],[-71.05905,42.351493],[-71.059016,42.35151],[-71.058997,42.351565],[-71.059011,42.351591],[-71.059045,42.35158],[-71.059064,42.351512],[-71.05908,42.351508],[-71.059096,42.351466],[-71.059133,42.351466],[-71.059159,42.351447],[-71.059219,42.35129]]],[[[-71.059184,42.353294],[-71.059153,42.353284],[-71.059136,42.353338],[-71.05917,42.353338],[-71.059184,42.353294]]],[[[-71.059092,42.354385],[-71.059072,42.354363],[-71.059037,42.354368],[-71.059009,42.354437],[-71.059016,42.354464],[-71.059062,42.354464],[-71.059092,42.354385]]],[[[-71.059088,42.353287],[-71.059057,42.353277],[-71.05904,42.353331],[-71.059074,42.353331],[-71.059088,42.353287]]],[[[-71.059018,42.354332],[-71.058987,42.354322],[-71.05897,42.354376],[-71.059004,42.354376],[-71.059018,42.354332]]],[[[-71.059006,42.351604],[-71.058984,42.35158],[-71.058945,42.351585],[-71.058904,42.351668],[-71.058867,42.351673],[-71.058808,42.351755],[-71.058775,42.351761],[-71.058752,42.351814],[-71.058688,42.351825],[-71.058664,42.351883],[-71.058599,42.351924],[-71.058588,42.351955],[-71.058491,42.351968],[-71.058443,42.352041],[-71.058397,42.35205],[-71.058382,42.352087],[-71.058357,42.352087],[-71.058339,42.352144],[-71.058398,42.352178],[-71.058433,42.352178],[-71.058467,42.352131],[-71.058541,42.352107],[-71.058589,42.351996],[-71.058662,42.351985],[-71.058682,42.351939],[-71.058729,42.351923],[-71.058744,42.351881],[-71.058803,42.351863],[-71.05882,42.351828],[-71.058853,42.351821],[-71.058874,42.351775],[-71.058899,42.351761],[-71.058919,42.351703],[-71.058981,42.351679],[-71.059006,42.351604]]],[[[-71.058998,42.353283],[-71.058967,42.353273],[-71.05895,42.353327],[-71.058984,42.353327],[-71.058998,42.353283]]],[[[-71.058959,42.35429],[-71.058926,42.35428],[-71.058905,42.354346],[-71.058941,42.354346],[-71.058959,42.35429]]],[[[-71.058864,42.353268],[-71.058833,42.353258],[-71.058816,42.353312],[-71.05885,42.353312],[-71.058864,42.353268]]],[[[-71.058758,42.353268],[-71.058727,42.353258],[-71.05871,42.353312],[-71.058744,42.353312],[-71.058758,42.353268]]],[[[-71.058568,42.35253],[-71.058537,42.35252],[-71.05852,42.352574],[-71.058554,42.352574],[-71.058568,42.35253]]],[[[-71.058508,42.352524],[-71.05849,42.352511],[-71.058498,42.352474],[-71.058462,42.352474],[-71.058445,42.352525],[-71.05846,42.352568],[-71.058494,42.352568],[-71.058508,42.352524]]],[[[-71.058428,42.352528],[-71.058397,42.352518],[-71.058379,42.352575],[-71.058413,42.352575],[-71.058428,42.352528]]],[[[-71.058388,42.35247],[-71.058357,42.35246],[-71.05834,42.352503],[-71.058317,42.35251],[-71.0583,42.352564],[-71.058334,42.352564],[-71.058388,42.35247]]],[[[-71.058288,42.35091],[-71.058257,42.3509],[-71.05824,42.350954],[-71.058274,42.350954],[-71.058288,42.35091]]],[[[-71.058278,42.352467],[-71.058247,42.352457],[-71.05822,42.352545],[-71.05823,42.352563],[-71.058254,42.352556],[-71.058278,42.352467]]],[[[-71.058218,42.350887],[-71.058187,42.350877],[-71.05817,42.350931],[-71.058204,42.350931],[-71.058218,42.350887]]],[[[-71.058038,42.352665],[-71.058007,42.352655],[-71.05799,42.352709],[-71.058024,42.352709],[-71.058038,42.352665]]],[[[-71.058032,42.352768],[-71.058001,42.352758],[-71.057984,42.352812],[-71.058018,42.352812],[-71.058032,42.352768]]],[[[-71.058008,42.352905],[-71.057977,42.352895],[-71.05796,42.352949],[-71.057994,42.352949],[-71.058008,42.352905]]],[[[-71.057803,42.350693],[-71.057772,42.350683],[-71.057755,42.350737],[-71.057789,42.350737],[-71.057803,42.350693]]],[[[-71.057758,42.350677],[-71.057727,42.350667],[-71.05771,42.350721],[-71.057744,42.350721],[-71.057758,42.350677]]],[[[-71.05775,42.352226],[-71.057724,42.352207],[-71.0577,42.352219],[-71.057681,42.352289],[-71.057705,42.352301],[-71.057729,42.352289],[-71.05775,42.352226]]],[[[-71.057623,42.35219],[-71.057605,42.35217],[-71.057573,42.352175],[-71.057547,42.352257],[-71.057595,42.352264],[-71.057623,42.35219]]],[[[-71.057536,42.35216],[-71.05751,42.352141],[-71.057486,42.352153],[-71.057467,42.352223],[-71.057491,42.352235],[-71.057515,42.352223],[-71.057536,42.35216]]],[[[-71.057456,42.35214],[-71.05743,42.352121],[-71.057406,42.352133],[-71.057387,42.352203],[-71.057411,42.352215],[-71.057435,42.352203],[-71.057456,42.35214]]],[[[-71.057414,42.350403],[-71.057383,42.350393],[-71.057366,42.350447],[-71.0574,42.350447],[-71.057414,42.350403]]],[[[-71.057398,42.350494],[-71.057367,42.350484],[-71.05735,42.350538],[-71.057384,42.350538],[-71.057398,42.350494]]],[[[-71.057369,42.35211],[-71.057351,42.35209],[-71.057319,42.352095],[-71.057293,42.352177],[-71.057341,42.352184],[-71.057369,42.35211]]],[[[-71.057348,42.351707],[-71.057317,42.351697],[-71.05729,42.351783],[-71.0573,42.351801],[-71.057324,42.351794],[-71.057348,42.351707]]],[[[-71.057309,42.351897],[-71.057278,42.351887],[-71.057251,42.351986],[-71.057261,42.352003],[-71.057285,42.351996],[-71.057309,42.351897]]],[[[-71.057298,42.350925],[-71.057267,42.350915],[-71.057248,42.350974],[-71.057282,42.350974],[-71.057298,42.350925]]],[[[-71.057268,42.351063],[-71.057237,42.351053],[-71.057218,42.351112],[-71.057252,42.351112],[-71.057268,42.351063]]],[[[-71.057208,42.35141],[-71.057177,42.3514],[-71.05716,42.351454],[-71.057194,42.351454],[-71.057208,42.35141]]],[[[-71.057198,42.35055],[-71.057167,42.35054],[-71.05715,42.350594],[-71.057184,42.350594],[-71.057198,42.35055]]],[[[-71.057147,42.350632],[-71.057116,42.350622],[-71.057099,42.350676],[-71.057133,42.350676],[-71.057147,42.350632]]],[[[-71.057094,42.350533],[-71.057063,42.350523],[-71.057046,42.350577],[-71.05708,42.350577],[-71.057094,42.350533]]],[[[-71.057038,42.34984],[-71.057007,42.34983],[-71.05699,42.349873],[-71.05696,42.349894],[-71.056939,42.349955],[-71.056946,42.349982],[-71.056969,42.349989],[-71.056999,42.349974],[-71.057038,42.34984]]],[[[-71.056868,42.352028],[-71.056837,42.352018],[-71.056817,42.35208],[-71.056851,42.35208],[-71.056868,42.352028]]],[[[-71.056834,42.35023],[-71.056803,42.35022],[-71.056786,42.350274],[-71.05682,42.350274],[-71.056834,42.35023]]],[[[-71.056829,42.34976],[-71.056805,42.349733],[-71.056754,42.349749],[-71.056713,42.349881],[-71.05668,42.349901],[-71.056635,42.349992],[-71.056583,42.350161],[-71.05656,42.350176],[-71.056539,42.350237],[-71.056546,42.350264],[-71.056569,42.350271],[-71.056599,42.350256],[-71.056655,42.350107],[-71.056703,42.350085],[-71.056829,42.34976]]],[[[-71.056798,42.350307],[-71.056767,42.350297],[-71.05675,42.350351],[-71.056784,42.350351],[-71.056798,42.350307]]],[[[-71.056748,42.351994],[-71.056717,42.351984],[-71.056698,42.352043],[-71.056732,42.352043],[-71.056748,42.351994]]],[[[-71.056643,42.350613],[-71.056612,42.350603],[-71.056557,42.350722],[-71.056567,42.35074],[-71.056591,42.350732],[-71.056643,42.350613]]],[[[-71.056626,42.353203],[-71.0566,42.353184],[-71.056576,42.353196],[-71.056557,42.353266],[-71.056581,42.353278],[-71.056605,42.353266],[-71.056626,42.353203]]],[[[-71.056559,42.353165],[-71.056526,42.353155],[-71.056505,42.353221],[-71.056541,42.353221],[-71.056559,42.353165]]],[[[-71.056559,42.350834],[-71.056529,42.350801],[-71.056476,42.350809],[-71.056443,42.350913],[-71.056488,42.350936],[-71.056522,42.350925],[-71.056559,42.350834]]],[[[-71.056484,42.353127],[-71.056451,42.353117],[-71.05643,42.353183],[-71.056466,42.353183],[-71.056484,42.353127]]],[[[-71.056468,42.35192],[-71.056437,42.35191],[-71.056417,42.351972],[-71.056451,42.351972],[-71.056468,42.35192]]],[[[-71.056428,42.35103],[-71.056397,42.35102],[-71.05638,42.351074],[-71.056414,42.351074],[-71.056428,42.35103]]],[[[-71.056398,42.351097],[-71.056367,42.351087],[-71.056347,42.351149],[-71.056381,42.351149],[-71.056398,42.351097]]],[[[-71.056393,42.35309],[-71.056354,42.353078],[-71.056331,42.353149],[-71.056373,42.353149],[-71.056393,42.35309]]],[[[-71.056388,42.3519],[-71.056357,42.35189],[-71.056341,42.351941],[-71.056375,42.351941],[-71.056388,42.3519]]],[[[-71.056364,42.351176],[-71.056333,42.351166],[-71.056316,42.35122],[-71.05635,42.35122],[-71.056364,42.351176]]],[[[-71.056338,42.35493],[-71.056307,42.35492],[-71.056287,42.354982],[-71.056321,42.354982],[-71.056338,42.35493]]],[[[-71.056328,42.354836],[-71.056297,42.354826],[-71.056277,42.354888],[-71.056311,42.354888],[-71.056328,42.354836]]],[[[-71.056309,42.35475],[-71.05629,42.354736],[-71.056304,42.354663],[-71.05627,42.354652],[-71.056237,42.354718],[-71.056251,42.354744],[-71.056271,42.354744],[-71.056255,42.354806],[-71.056291,42.354806],[-71.056309,42.35475]]],[[[-71.056258,42.351376],[-71.056227,42.351366],[-71.056194,42.351437],[-71.056173,42.351445],[-71.056159,42.351497],[-71.056193,42.351497],[-71.056258,42.351376]]],[[[-71.056256,42.350842],[-71.056225,42.350832],[-71.056205,42.350894],[-71.056239,42.350894],[-71.056256,42.350842]]],[[[-71.056248,42.35305],[-71.056217,42.35304],[-71.0562,42.353094],[-71.056234,42.353094],[-71.056248,42.35305]]],[[[-71.056226,42.350933],[-71.056195,42.350923],[-71.056175,42.350985],[-71.056209,42.350985],[-71.056226,42.350933]]],[[[-71.056186,42.351036],[-71.056155,42.351026],[-71.056135,42.351088],[-71.056169,42.351088],[-71.056186,42.351036]]],[[[-71.056148,42.351145],[-71.056117,42.351135],[-71.056097,42.351197],[-71.056131,42.351197],[-71.056148,42.351145]]],[[[-71.056078,42.35171],[-71.056047,42.3517],[-71.056029,42.351757],[-71.056063,42.351757],[-71.056078,42.35171]]],[[[-71.055977,42.351355],[-71.055946,42.351345],[-71.055869,42.351524],[-71.055879,42.351542],[-71.055903,42.351534],[-71.055977,42.351355]]],[[[-71.055888,42.351561],[-71.055857,42.351551],[-71.055808,42.351664],[-71.055818,42.351682],[-71.055842,42.351674],[-71.055888,42.351561]]],[[[-71.055869,42.352226],[-71.055839,42.352193],[-71.055786,42.352201],[-71.055741,42.352262],[-71.055719,42.352328],[-71.055729,42.352367],[-71.055764,42.352378],[-71.055798,42.352367],[-71.055843,42.352305],[-71.055869,42.352226]]],[[[-71.055808,42.351727],[-71.055777,42.351717],[-71.055737,42.351818],[-71.055747,42.351836],[-71.055771,42.351828],[-71.055808,42.351727]]],[[[-71.055788,42.353336],[-71.055768,42.353314],[-71.055733,42.353319],[-71.055709,42.353376],[-71.055674,42.353379],[-71.055648,42.353461],[-71.055686,42.353473],[-71.055717,42.353417],[-71.055758,42.353415],[-71.055788,42.353336]]],[[[-71.055645,42.35343],[-71.055612,42.35342],[-71.055591,42.353486],[-71.055627,42.353486],[-71.055645,42.35343]]],[[[-71.055558,42.353497],[-71.055527,42.353487],[-71.055507,42.353549],[-71.055541,42.353549],[-71.055558,42.353497]]],[[[-71.055498,42.35353],[-71.055467,42.35352],[-71.055449,42.353577],[-71.055483,42.353577],[-71.055498,42.35353]]],[[[-71.055262,42.353653],[-71.055244,42.35364],[-71.055189,42.353657],[-71.055176,42.353684],[-71.055149,42.353694],[-71.055131,42.353759],[-71.055161,42.353768],[-71.055176,42.353749],[-71.055211,42.353746],[-71.055262,42.353653]]]]},"properties":{"kind":"tree"}}]}