{"type":"FeatureCollection","features":[{"type":"Feature","geometry":{"type":"MultiPolygon","coordinates":[[[[-71.06703,42.351826],[-71.067007,42.351692],[-71.066747,42.351106],[-71.065858,42.351211],[-71.065991,42.350995],[-71.065959,42.350666],[-71.065922,42.350665],[-71.065953,42.350615],[-71.06593,42.350327],[-71.065846,42.350332],[-71.065916,42.350219],[-71.065881,42.34989],[-71.065834,42.349835],[-71.065898,42.349815],[-71.06594,42.349747],[-71.06595,42.349763],[-71.066038,42.349739],[-71.066095,42.349646],[-71.066048,42.349562],[-71.066107,42.349483],[-71.066051,42.349385],[-71.065989,42.349405],[-71.065942,42.34948],[-71.06562,42.349445],[-71.065521,42.349461],[-71.065415,42.349633],[-71.065325,42.350053],[-71.065189,42.350274],[-71.065101,42.350584],[-71.065201,42.350608],[-71.065189,42.350649],[-71.06521,42.350652],[-71.064913,42.351134],[-71.064842,42.351385],[-71.064856,42.35141],[-71.064826,42.351459],[-71.06472,42.351853],[-71.064736,42.351862],[-71.064646,42.352024],[-71.064487,42.352632],[-71.064618,42.352639],[-71.064608,42.352667],[-71.064673,42.352677],[-71.064692,42.352647],[-71.065298,42.352689],[-71.06537,42.352573],[-71.06551,42.352583],[-71.065494,42.352682],[-71.065691,42.352697],[-71.065837,42.352459],[-71.06584,42.352594],[-71.065936,42.352599],[-71.066063,42.352392],[-71.066072,42.352281],[-71.066202,42.35228],[-71.06627,42.352169],[-71.066275,42.352127],[-71.066661,42.352173],[-71.066844,42.352128],[-71.06703,42.351826]],[[-71.065947,42.352078],[-71.065922,42.35227],[-71.065901,42.352305],[-71.065932,42.352094],[-71.0659,42.352091],[-71.065903,42.352072],[-71.065947,42.352078]],[[-71.065768,42.349771],[-71.06566,42.349801],[-71.065676,42.349724],[-71.06571,42.349696],[-71.065768,42.349771]]],[[[-71.066483,42.348529],[-71.06591,42.348462],[-71.065995,42.348064],[-71.065837,42.348044],[-71.065655,42.348339],[-71.06557,42.348739],[-71.065637,42.348748],[-71.06561,42.348838],[-71.065706,42.348849],[-71.06576,42.34876],[-71.065776,42.348815],[-71.066314,42.348878],[-71.066458,42.348649],[-71.066483,42.348529]]],[[[-71.065565,42.354342],[-71.065534,42.354305],[-71.065469,42.354307],[-71.0654,42.354406],[-71.065405,42.35444],[-71.065448,42.354463],[-71.065495,42.354456],[-71.065565,42.354342]]],[[[-71.065529,42.347903],[-71.065483,42.347819],[-71.065392,42.347805],[-71.065371,42.347781],[-71.065306,42.347784],[-71.065319,42.347677],[-71.065257,42.347643],[-71.064894,42.347587],[-71.064503,42.347783],[-71.064432,42.347899],[-71.064318,42.348161],[-71.064269,42.348336],[-71.064305,42.348342],[-71.064432,42.348291],[-71.064448,42.348322],[-71.064235,42.348647],[-71.064087,42.349061],[-71.064416,42.349112],[-71.064267,42.349344],[-71.064516,42.349513],[-71.064706,42.349406],[-71.064783,42.34943],[-71.065045,42.349307],[-71.065148,42.34914],[-71.065245,42.34913],[-71.065279,42.349075],[-71.06533,42.348887],[-71.065323,42.348802],[-71.065279,42.348688],[-71.064992,42.348617],[-71.064722,42.348582],[-71.064844,42.348384],[-71.064857,42.348334],[-71.064901,42.348366],[-71.064935,42.348344],[-71.065075,42.348506],[-71.065099,42.348494],[-71.065106,42.348513],[-71.0654,42.348448],[-71.065427,42.34839],[-71.06535,42.348303],[-71.065475,42.348175],[-71.065475,42.348101],[-71.065417,42.348035],[-71.065493,42.347985],[-71.065529,42.347903]]],[[[-71.065421,42.352871],[-71.065303,42.352844],[-71.065261,42.352932],[-71.065287,42.353013],[-71.065353,42.353027],[-71.065421,42.352871]]],[[[-71.065169,42.349617],[-71.064416,42.349501],[-71.064374,42.349569],[-71.063761,42.349475],[-71.063668,42.349387],[-71.063746,42.349213],[-71.063772,42.349073],[-71.063736,42.349067],[-71.063827,42.348879],[-71.063945,42.348463],[-71.063623,42.348413],[-71.063435,42.348718],[-71.063353,42.349007],[-71.063074,42.348966],[-71.062967,42.34914],[-71.06292,42.349121],[-71.063032,42.348913],[-71.063264,42.348947],[-71.063365,42.348783],[-71.063476,42.348381],[-71.063184,42.348337],[-71.063229,42.348263],[-71.063253,42.34818],[-71.06323,42.348148],[-71.063187,42.348141],[-71.063169,42.348168],[-71.063065,42.348152],[-71.063096,42.348116],[-71.063236,42.348147],[-71.06328,42.348076],[-71.063299,42.348007],[-71.062961,42.347921],[-71.062883,42.348075],[-71.063021,42.348105],[-71.063011,42.348144],[-71.062886,42.348123],[-71.062819,42.348215],[-71.062803,42.348279],[-71.062715,42.348266],[-71.062765,42.348178],[-71.062814,42.348188],[-71.062909,42.347999],[-71.062855,42.347962],[-71.062735,42.347939],[-71.062676,42.348033],[-71.06264,42.34815],[-71.062503,42.348414],[-71.062347,42.348808],[-71.062372,42.348813],[-71.062309,42.348915],[-71.062159,42.349265],[-71.062139,42.349313],[-71.062151,42.349335],[-71.062014,42.349566],[-71.062028,42.349596],[-71.061877,42.349963],[-71.061892,42.349969],[-71.061771,42.350166],[-71.061726,42.350278],[-71.061751,42.350318],[-71.061669,42.350497],[-71.061553,42.350685],[-71.06148,42.350872],[-71.061524,42.350883],[-71.061458,42.351019],[-71.061406,42.351206],[-71.061254,42.351453],[-71.061158,42.351694],[-71.061182,42.351717],[-71.061127,42.351806],[-71.06119,42.352122],[-71.061289,42.352118],[-71.061307,42.352204],[-71.061462,42.352196],[-71.06148,42.352239],[-71.061267,42.352586],[-71.061194,42.352592],[-71.060994,42.352924],[-71.060815,42.353125],[-71.06072,42.353278],[-71.060695,42.353272],[-71.059969,42.354033],[-71.059395,42.3545],[-71.059267,42.3547],[-71.059199,42.35465],[-71.05939,42.354484],[-71.059419,42.354437],[-71.059429,42.354444],[-71.059811,42.354097],[-71.059935,42.353956],[-71.060133,42.353635],[-71.05987,42.35349],[-71.059923,42.353466],[-71.059977,42.353409],[-71.060089,42.353467],[-71.060204,42.353344],[-71.060325,42.353148],[-71.060198,42.353083],[-71.060178,42.353052],[-71.060589,42.353254],[-71.060681,42.353151],[-71.060696,42.353156],[-71.060818,42.353013],[-71.060981,42.352746],[-71.060995,42.352689],[-71.060988,42.35262],[-71.061084,42.352464],[-71.061125,42.352254],[-71.061106,42.352027],[-71.06108,42.352031],[-71.061108,42.351986],[-71.061041,42.351545],[-71.061014,42.351538],[-71.061099,42.3514],[-71.061227,42.351071],[-71.060769,42.350979],[-71.060626,42.351211],[-71.060522,42.351431],[-71.060388,42.351402],[-71.060304,42.351521],[-71.060367,42.351718],[-71.060463,42.351738],[-71.060404,42.351835],[-71.060247,42.351383],[-71.060177,42.351355],[-71.060216,42.351297],[-71.060195,42.351349],[-71.060398,42.351394],[-71.060469,42.351279],[-71.060595,42.350984],[-71.060568,42.350978],[-71.060747,42.35054],[-71.060707,42.350529],[-71.060828,42.350333],[-71.060966,42.349994],[-71.060509,42.349891],[-71.060269,42.350278],[-71.060141,42.350594],[-71.060187,42.350607],[-71.059895,42.351292],[-71.059758,42.351262],[-71.059649,42.351438],[-71.0596,42.351567],[-71.059625,42.351804],[-71.059386,42.351848],[-71.059263,42.352047],[-71.059301,42.352302],[-71.059325,42.3523],[-71.059348,42.352449],[-71.059331,42.352477],[-71.059358,42.352656],[-71.059628,42.352673],[-71.059748,42.352478],[-71.059715,42.35226],[-71.059695,42.352262],[-71.059628,42.351818],[-71.05965,42.351816],[-71.059724,42.352271],[-71.05994,42.352253],[-71.060011,42.352138],[-71.060158,42.35213],[-71.060379,42.35209],[-71.060413,42.352036],[-71.060446,42.352144],[-71.060316,42.352167],[-71.06028,42.352226],[-71.060276,42.352208],[-71.060118,42.352221],[-71.059962,42.352474],[-71.060005,42.352758],[-71.060152,42.352757],[-71.060156,42.352806],[-71.060229,42.352817],[-71.060163,42.353028],[-71.059657,42.352762],[-71.059553,42.352772],[-71.059392,42.353032],[-71.059449,42.353391],[-71.059432,42.35339],[-71.059365,42.353448],[-71.05902,42.353778],[-71.058937,42.353912],[-71.058895,42.353885],[-71.058859,42.353918],[-71.059045,42.353616],[-71.059221,42.353443],[-71.059392,42.353157],[-71.059318,42.352574],[-71.059213,42.352561],[-71.059291,42.352434],[-71.059226,42.352012],[-71.059026,42.352083],[-71.058906,42.352152],[-71.058814,42.352257],[-71.058646,42.35253],[-71.058176,42.352542],[-71.058071,42.352594],[-71.057742,42.353123],[-71.057796,42.352781],[-71.057688,42.352735],[-71.05756,42.352748],[-71.057304,42.352897],[-71.057145,42.352955],[-71.056851,42.353414],[-71.056549,42.353546],[-71.05666,42.353366],[-71.056638,42.353263],[-71.056266,42.353109],[-71.056346,42.35298],[-71.056595,42.352913],[-71.056625,42.352874],[-71.05694,42.352364],[-71.057,42.352232],[-71.056957,42.352221],[-71.057078,42.352025],[-71.057141,42.351687],[-71.057073,42.351654],[-71.057156,42.351519],[-71.05732,42.350691],[-71.057259,42.350675],[-71.057349,42.350525],[-71.057505,42.349748],[-71.057133,42.349667],[-71.056939,42.349981],[-71.056838,42.350212],[-71.056848,42.350215],[-71.056657,42.350566],[-71.056685,42.350569],[-71.056593,42.350724],[-71.056602,42.350766],[-71.05652,42.350911],[-71.05645,42.351067],[-71.056467,42.351071],[-71.056328,42.351341],[-71.056294,42.351331],[-71.056101,42.351645],[-71.055886,42.352079],[-71.055994,42.352107],[-71.05594,42.352127],[-71.055013,42.353638],[-71.054936,42.353802],[-71.054966,42.35381],[-71.054915,42.353838],[-71.054872,42.353907],[-71.054776,42.353908],[-71.054378,42.354122],[-71.053746,42.355143],[-71.053751,42.3552],[-71.054006,42.355465],[-71.054056,42.355479],[-71.054109,42.355469],[-71.054436,42.355186],[-71.054577,42.354967],[-71.054671,42.355057],[-71.054557,42.355242],[-71.054566,42.35525],[-71.054496,42.355365],[-71.054495,42.355403],[-71.054656,42.355551],[-71.054706,42.355555],[-71.055022,42.355366],[-71.055079,42.355312],[-71.05535,42.35488],[-71.055401,42.354915],[-71.055451,42.354901],[-71.055195,42.355316],[-71.055232,42.355527],[-71.054758,42.356296],[-71.054864,42.356874],[-71.055316,42.35683],[-71.055808,42.356031],[-71.055999,42.355996],[-71.056007,42.35604],[-71.05679,42.355981],[-71.057349,42.355074],[-71.057329,42.354923],[-71.05716,42.354855],[-71.057647,42.354065],[-71.057864,42.354078],[-71.057428,42.354773],[-71.057819,42.354894],[-71.058372,42.354354],[-71.058454,42.354379],[-71.05787,42.354957],[-71.057741,42.355166],[-71.057738,42.355189],[-71.057785,42.355207],[-71.05788,42.355208],[-71.057945,42.355339],[-71.058072,42.355354],[-71.058135,42.355332],[-71.058221,42.355248],[-71.058307,42.355109],[-71.058325,42.355119],[-71.058596,42.354872],[-71.05863,42.354816],[-71.058846,42.354638],[-71.058972,42.354651],[-71.058538,42.355044],[-71.058424,42.355229],[-71.058428,42.355255],[-71.058728,42.355385],[-71.058449,42.355838],[-71.058523,42.355893],[-71.058815,42.356012],[-71.059061,42.355798],[-71.059124,42.35572],[-71.059377,42.355309],[-71.059524,42.355173],[-71.059566,42.355104],[-71.060009,42.355439],[-71.060175,42.355319],[-71.06043,42.355491],[-71.060554,42.355381],[-71.060573,42.355395],[-71.061145,42.354876],[-71.061958,42.354092],[-71.062287,42.353576],[-71.06236,42.353439],[-71.062413,42.353293],[-71.062415,42.35316],[-71.062345,42.353162],[-71.062426,42.353031],[-71.062445,42.352645],[-71.062571,42.352659],[-71.062543,42.352704],[-71.062515,42.353274],[-71.062157,42.353856],[-71.062149,42.353965],[-71.062185,42.353982],[-71.062075,42.35411],[-71.061806,42.354365],[-71.061763,42.354435],[-71.061745,42.354425],[-71.06173,42.354438],[-71.061369,42.354786],[-71.061291,42.354912],[-71.061254,42.354893],[-71.06106,42.355076],[-71.060933,42.355283],[-71.061246,42.35544],[-71.061431,42.35523],[-71.061452,42.355241],[-71.061581,42.355107],[-71.061939,42.355308],[-71.061949,42.355297],[-71.062085,42.355367],[-71.062252,42.355188],[-71.062289,42.355128],[-71.062256,42.355196],[-71.062368,42.355259],[-71.062399,42.355232],[-71.062354,42.355303],[-71.062444,42.355354],[-71.062518,42.355277],[-71.0626,42.355323],[-71.062707,42.355212],[-71.062692,42.355254],[-71.062751,42.355285],[-71.062726,42.355332],[-71.062998,42.355416],[-71.063054,42.355359],[-71.063255,42.355044],[-71.063852,42.353943],[-71.063862,42.353896],[-71.064052,42.353554],[-71.064097,42.353425],[-71.06407,42.35342],[-71.064146,42.353296],[-71.064266,42.352985],[-71.064309,42.35284],[-71.064292,42.352839],[-71.064353,42.352644],[-71.064372,42.352445],[-71.064484,42.352263],[-71.064616,42.351742],[-71.064592,42.351739],[-71.064631,42.351675],[-71.064664,42.351553],[-71.064638,42.35155],[-71.064671,42.351497],[-71.064745,42.351218],[-71.064669,42.351207],[-71.064822,42.350958],[-71.065001,42.350248],[-71.064955,42.350232],[-71.065043,42.35009],[-71.065169,42.349617]],[[-71.064173,42.35112],[-71.06415,42.351157],[-71.063934,42.351133],[-71.063924,42.351149],[-71.063496,42.351092],[-71.063609,42.350908],[-71.063719,42.350925],[-71.06379,42.350957],[-71.063773,42.350984],[-71.064173,42.35112]],[[-71.06416,42.35192],[-71.064124,42.351978],[-71.064072,42.351973],[-71.064109,42.351914],[-71.06416,42.35192]],[[-71.064149,42.350286],[-71.06399,42.350541],[-71.063957,42.350529],[-71.063993,42.350511],[-71.064135,42.350284],[-71.064149,42.350286]],[[-71.06391,42.352447],[-71.063861,42.352527],[-71.063868,42.352447],[-71.06391,42.352447]],[[-71.063764,42.350395],[-71.063539,42.350364],[-71.063115,42.351051],[-71.063049,42.351044],[-71.062974,42.351173],[-71.062877,42.351525],[-71.063369,42.351594],[-71.062895,42.351546],[-71.062573,42.352069],[-71.062678,42.351664],[-71.062649,42.351654],[-71.062728,42.351525],[-71.062859,42.351039],[-71.062808,42.351031],[-71.062951,42.350799],[-71.063071,42.350457],[-71.063109,42.350463],[-71.063279,42.350187],[-71.063382,42.349972],[-71.063764,42.350395]],[[-71.063739,42.353558],[-71.06372,42.353612],[-71.063735,42.353616],[-71.063484,42.354018],[-71.063219,42.354307],[-71.063339,42.354118],[-71.063347,42.354064],[-71.063648,42.353551],[-71.063739,42.353558]],[[-71.063402,42.352382],[-71.063377,42.352382],[-71.063378,42.352379],[-71.063402,42.352382]],[[-71.063319,42.352453],[-71.063317,42.352456],[-71.063317,42.352453],[-71.063319,42.352453]],[[-71.063096,42.35351],[-71.063055,42.353575],[-71.063066,42.353507],[-71.063096,42.35351]],[[-71.063013,42.353993],[-71.063012,42.354011],[-71.063002,42.354011],[-71.063013,42.353993]],[[-71.062893,42.354663],[-71.062746,42.354823],[-71.062689,42.354916],[-71.062621,42.354886],[-71.062852,42.354655],[-71.062893,42.354663]],[[-71.062684,42.349464],[-71.062677,42.349476],[-71.062666,42.349472],[-71.062684,42.349464]],[[-71.062645,42.350322],[-71.062585,42.350419],[-71.062526,42.350394],[-71.062285,42.350707],[-71.062067,42.351061],[-71.062051,42.351012],[-71.062111,42.350892],[-71.062075,42.350882],[-71.062191,42.350695],[-71.06221,42.3507],[-71.062283,42.35061],[-71.062304,42.350619],[-71.062438,42.350444],[-71.062541,42.350277],[-71.062645,42.350322]],[[-71.062582,42.349284],[-71.062492,42.349418],[-71.062428,42.34939],[-71.062521,42.349341],[-71.06257,42.349279],[-71.062582,42.349284]],[[-71.06247,42.349914],[-71.062414,42.349998],[-71.062118,42.349879],[-71.062123,42.34987],[-71.062233,42.349916],[-71.062321,42.34989],[-71.06242,42.349937],[-71.062444,42.349907],[-71.06247,42.349914]],[[-71.062263,42.354824],[-71.062217,42.354875],[-71.062138,42.354848],[-71.062194,42.35479],[-71.062263,42.354824]],[[-71.062098,42.351131],[-71.06208,42.35116],[-71.062076,42.351125],[-71.062098,42.351131]],[[-71.062091,42.351486],[-71.062088,42.351532],[-71.062023,42.351525],[-71.062082,42.351429],[-71.062091,42.351486]],[[-71.061448,42.35334],[-71.061286,42.353614],[-71.06117,42.353562],[-71.061284,42.353363],[-71.061342,42.353234],[-71.061357,42.353162],[-71.061369,42.353344],[-71.061448,42.35334]],[[-71.060293,42.350821],[-71.060279,42.350845],[-71.060257,42.350846],[-71.06027,42.350816],[-71.060293,42.350821]],[[-71.060174,42.351354],[-71.060117,42.351342],[-71.060051,42.351326],[-71.060174,42.351354]],[[-71.06016,42.351848],[-71.060056,42.351864],[-71.060007,42.351944],[-71.05996,42.351653],[-71.060053,42.351656],[-71.060067,42.351634],[-71.060093,42.351631],[-71.06016,42.351848]],[[-71.059976,42.35131],[-71.059948,42.351356],[-71.059962,42.351307],[-71.059976,42.35131]],[[-71.059615,42.353677],[-71.059577,42.353719],[-71.059606,42.353671],[-71.059615,42.353677]],[[-71.059361,42.353977],[-71.059341,42.354009],[-71.059308,42.354015],[-71.059361,42.353977]],[[-71.059029,42.354018],[-71.058972,42.35407],[-71.05901,42.354007],[-71.059029,42.354018]],[[-71.057011,42.353894],[-71.056791,42.35425],[-71.056768,42.354123],[-71.056687,42.354118],[-71.056787,42.354086],[-71.056885,42.353926],[-71.056914,42.353929],[-71.056939,42.353889],[-71.057011,42.353894]],[[-71.056981,42.351022],[-71.056771,42.35152],[-71.056722,42.351498],[-71.05694,42.351044],[-71.056929,42.351041],[-71.056945,42.351014],[-71.056981,42.351022]],[[-71.056474,42.354822],[-71.056306,42.355093],[-71.056254,42.354805],[-71.056464,42.354784],[-71.056446,42.354812],[-71.056474,42.354822]],[[-71.056227,42.354439],[-71.056217,42.354456],[-71.056213,42.354441],[-71.056227,42.354439]],[[-71.056178,42.354643],[-71.056152,42.354631],[-71.056171,42.354602],[-71.056178,42.354643]],[[-71.055842,42.353931],[-71.05578,42.354031],[-71.055688,42.354072],[-71.055642,42.354023],[-71.055685,42.353953],[-71.055787,42.353908],[-71.055842,42.353931]],[[-71.055346,42.354189],[-71.0553,42.354264],[-71.055139,42.35434],[-71.05505,42.354441],[-71.055004,42.35446],[-71.054977,42.354504],[-71.054951,42.354482],[-71.05478,42.354639],[-71.055029,42.354234],[-71.055049,42.354254],[-71.055264,42.354117],[-71.055346,42.354189]]],[[[-71.06461,42.353278],[-71.064542,42.353266],[-71.064489,42.353396],[-71.064557,42.35341],[-71.06461,42.353278]]],[[[-71.064113,42.347947],[-71.063968,42.347919],[-71.063883,42.347989],[-71.063856,42.347985],[-71.063764,42.348135],[-71.063538,42.348106],[-71.063606,42.347866],[-71.06346,42.347843],[-71.063411,42.347922],[-71.063304,42.348292],[-71.063721,42.348355],[-71.063751,42.348416],[-71.06387,42.348433],[-71.063904,42.348382],[-71.063959,42.34839],[-71.06402,42.348291],[-71.064113,42.347947]]],[[[-71.063935,42.354829],[-71.063869,42.354811],[-71.063828,42.354889],[-71.063894,42.354906],[-71.063935,42.354829]]],[[[-71.062446,42.347953],[-71.061926,42.347827],[-71.061753,42.348105],[-71.061707,42.348221],[-71.061837,42.34825],[-71.061635,42.348751],[-71.061583,42.348835],[-71.06148,42.349077],[-71.061407,42.349277],[-71.061353,42.349366],[-71.061236,42.34967],[-71.061135,42.349848],[-71.061024,42.350125],[-71.061098,42.350155],[-71.060936,42.350409],[-71.060848,42.350627],[-71.060871,42.350633],[-71.060815,42.350733],[-71.060828,42.350739],[-71.060773,42.350881],[-71.060989,42.350929],[-71.061131,42.350913],[-71.061125,42.350931],[-71.061245,42.350959],[-71.061321,42.350852],[-71.061357,42.350743],[-71.061343,42.350723],[-71.061484,42.350494],[-71.061778,42.349762],[-71.061752,42.349751],[-71.061812,42.349653],[-71.061975,42.34927],[-71.061808,42.349235],[-71.061839,42.34916],[-71.061745,42.349139],[-71.061701,42.349214],[-71.061783,42.348996],[-71.06177,42.348993],[-71.061895,42.34873],[-71.061814,42.348712],[-71.061872,42.348569],[-71.06218,42.34864],[-71.06226,42.348505],[-71.062367,42.34823],[-71.062304,42.348216],[-71.062411,42.348042],[-71.062446,42.347953]],[[-71.062189,42.348317],[-71.062145,42.348428],[-71.061947,42.348382],[-71.061986,42.348284],[-71.062189,42.348317]]],[[[-71.061866,42.34764],[-71.061712,42.347604],[-71.0615,42.347948],[-71.061354,42.348298],[-71.061346,42.348361],[-71.061269,42.348334],[-71.06131,42.348233],[-71.061184,42.348198],[-71.061147,42.348242],[-71.061078,42.348353],[-71.061044,42.348457],[-71.061054,42.34846],[-71.060954,42.348711],[-71.06107,42.348741],[-71.061127,42.348648],[-71.06119,42.348494],[-71.061291,42.348517],[-71.061333,42.348449],[-71.061316,42.348525],[-71.061347,42.348563],[-71.061339,42.348576],[-71.061288,42.348565],[-71.061187,42.348752],[-71.061155,42.348757],[-71.061042,42.348941],[-71.060878,42.348902],[-71.06082,42.348996],[-71.060693,42.349326],[-71.060921,42.349416],[-71.06102,42.349213],[-71.060994,42.349204],[-71.060936,42.349221],[-71.060899,42.349208],[-71.060942,42.349217],[-71.061004,42.349108],[-71.060961,42.34908],[-71.060977,42.349084],[-71.061019,42.349016],[-71.061015,42.349033],[-71.061067,42.349072],[-71.061022,42.349184],[-71.061116,42.349204],[-71.061077,42.349287],[-71.061017,42.349264],[-71.060934,42.349424],[-71.061142,42.349515],[-71.061244,42.349357],[-71.061292,42.349247],[-71.061384,42.349005],[-71.061357,42.348999],[-71.061436,42.348818],[-71.061427,42.348811],[-71.061479,42.348726],[-71.061572,42.348486],[-71.06164,42.348359],[-71.061516,42.348331],[-71.061722,42.347989],[-71.061866,42.34764]],[[-71.061361,42.348394],[-71.061359,42.348397],[-71.06136,42.348394],[-71.061361,42.348394]]],[[[-71.061068,42.348118],[-71.061011,42.348097],[-71.060743,42.348465],[-71.060549,42.348739],[-71.060344,42.349072],[-71.060321,42.349063],[-71.05999,42.349601],[-71.059873,42.349864],[-71.059594,42.350586],[-71.05975,42.350647],[-71.059725,42.35072],[-71.059935,42.350765],[-71.059947,42.350745],[-71.059977,42.350752],[-71.060019,42.350684],[-71.06004,42.35063],[-71.060021,42.350626],[-71.060116,42.350367],[-71.060092,42.35036],[-71.060226,42.350142],[-71.060327,42.349891],[-71.060301,42.349855],[-71.060367,42.349747],[-71.060567,42.349259],[-71.060529,42.349213],[-71.060786,42.348796],[-71.061068,42.348118]]],[[[-71.059505,42.350215],[-71.059471,42.35018],[-71.059047,42.350086],[-71.058996,42.350102],[-71.058891,42.350273],[-71.058584,42.351032],[-71.058605,42.351056],[-71.058546,42.351153],[-71.058275,42.351831],[-71.058471,42.351874],[-71.058659,42.351696],[-71.058773,42.351559],[-71.059016,42.351157],[-71.059093,42.351146],[-71.059198,42.350975],[-71.059505,42.350215]]],[[[-71.059318,42.349726],[-71.059179,42.349693],[-71.059078,42.349909],[-71.059217,42.349942],[-71.059318,42.349726]]],[[[-71.058776,42.350034],[-71.058372,42.349945],[-71.058212,42.350205],[-71.058183,42.350306],[-71.058157,42.350302],[-71.0582,42.350232],[-71.058289,42.349924],[-71.058171,42.3499],[-71.058297,42.349696],[-71.058424,42.349376],[-71.057926,42.349266],[-71.05788,42.349341],[-71.057813,42.349508],[-71.057935,42.349535],[-71.05792,42.349559],[-71.057872,42.349548],[-71.05785,42.349584],[-71.057831,42.349633],[-71.057869,42.349642],[-71.057773,42.349874],[-71.057688,42.349927],[-71.057574,42.350113],[-71.057539,42.350287],[-71.0575,42.350351],[-71.057396,42.350856],[-71.057465,42.350873],[-71.057406,42.350968],[-71.057257,42.351729],[-71.057279,42.351732],[-71.057202,42.351857],[-71.057123,42.352284],[-71.057775,42.352489],[-71.057799,42.352484],[-71.057952,42.352235],[-71.058115,42.351737],[-71.05809,42.351718],[-71.05829,42.351278],[-71.058414,42.350953],[-71.058176,42.350894],[-71.058195,42.350863],[-71.058406,42.350916],[-71.058542,42.350652],[-71.058706,42.35021],[-71.058767,42.350099],[-71.058776,42.350034]],[[-71.058209,42.350395],[-71.058122,42.350537],[-71.058166,42.350385],[-71.058209,42.350395]],[[-71.058099,42.350739],[-71.058054,42.350894],[-71.058088,42.350902],[-71.058009,42.35103],[-71.058052,42.350873],[-71.05799,42.350859],[-71.05807,42.350717],[-71.058096,42.350722],[-71.058099,42.350739]],[[-71.057961,42.351148],[-71.057819,42.351681],[-71.05778,42.351675],[-71.057826,42.351601],[-71.057857,42.351499],[-71.057888,42.351344],[-71.057855,42.351339],[-71.057961,42.351148]],[[-71.057804,42.351817],[-71.057732,42.351935],[-71.057705,42.35202],[-71.057667,42.35201],[-71.057787,42.351814],[-71.057804,42.351817]]],[[[-71.058071,42.348706],[-71.057613,42.348605],[-71.057374,42.348993],[-71.05729,42.349202],[-71.057749,42.349303],[-71.057988,42.348915],[-71.058071,42.348706]]],[[[-71.056775,42.349199],[-71.056596,42.349149],[-71.055487,42.349466],[-71.055393,42.349619],[-71.054931,42.35053],[-71.054996,42.350581],[-71.054963,42.350646],[-71.055021,42.350662],[-71.055047,42.35062],[-71.055273,42.350792],[-71.055425,42.350848],[-71.05606,42.350842],[-71.056144,42.350826],[-71.056238,42.350673],[-71.056434,42.350281],[-71.056635,42.349782],[-71.056775,42.349199]]],[[[-71.056683,42.347603],[-71.056673,42.347544],[-71.055908,42.347262],[-71.054466,42.349417],[-71.054447,42.34941],[-71.054346,42.349559],[-71.053324,42.351101],[-71.053905,42.351316],[-71.054041,42.351142],[-71.054296,42.351237],[-71.055266,42.34979],[-71.055307,42.349724],[-71.055274,42.349712],[-71.056683,42.347603]]],[[[-71.055768,42.35162],[-71.055498,42.351545],[-71.054479,42.351779],[-71.054307,42.351954],[-71.054162,42.352189],[-71.054688,42.352467],[-71.054848,42.352518],[-71.055016,42.352543],[-71.055193,42.352503],[-71.055313,42.352413],[-71.055404,42.352304],[-71.055549,42.352069],[-71.055768,42.35162]]]]},"properties":{"kind":"building"}},{"type":"Feature","geometry":{"type":"MultiPolygon","coordinates":[[[[-71.066058,42.353451],[-71.066047,42.35341],[-71.065968,42.353351],[-71.065912,42.353343],[-71.065841,42.353359],[-71.066007,42.353073],[-71.066007,42.353006],[-71.066048,42.352923],[-71.066021,42.352832],[-71.065989,42.352797],[-71.065886,42.352765],[-71.06583,42.352773],[-71.065756,42.352826],[-71.065774,42.352784],[-71.065752,42.352743],[-71.065816,42.352713],[-71.065833,42.352735],[-71.065886,42.352751],[-71.065955,42.352717],[-71.066022,42.352597],[-71.065976,42.352546],[-71.065918,42.352546],[-71.065882,42.352572],[-71.065841,42.352538],[-71.065759,42.35255],[-71.065688,42.352518],[-71.065635,42.352534],[-71.065592,42.352595],[-71.06551,42.352612],[-71.06542,42.352748],[-71.06542,42.352799],[-71.065465,42.352833],[-71.065399,42.35294],[-71.065399,42.352996],[-71.06542,42.353019],[-71.065331,42.353161],[-71.065328,42.353207],[-71.065265,42.353195],[-71.065175,42.35322],[-71.065192,42.353193],[-71.065246,42.353163],[-71.065308,42.353051],[-71.065288,42.353015],[-71.065256,42.353003],[-71.065271,42.352957],[-71.06522,42.352941],[-71.065158,42.353024],[-71.065097,42.353186],[-71.06506,42.353168],[-71.064976,42.353168],[-71.064916,42.353212],[-71.06487,42.353287],[-71.064859,42.353275],[-71.064939,42.353107],[-71.064928,42.353066],[-71.064865,42.353015],[-71.06483,42.352952],[-71.064791,42.352933],[-71.064699,42.352933],[-71.06466,42.352952],[-71.064548,42.35312],[-71.064539,42.353154],[-71.064569,42.353211],[-71.064564,42.353284],[-71.064468,42.353453],[-71.064477,42.353485],[-71.064528,42.353524],[-71.064472,42.353615],[-71.064418,42.353592],[-71.064372,42.353606],[-71.064302,42.353712],[-71.064234,42.353843],[-71.064242,42.353883],[-71.064192,42.353965],[-71.064173,42.35405],[-71.064197,42.354092],[-71.064184,42.354118],[-71.064149,42.354121],[-71.064109,42.354151],[-71.064048,42.35425],[-71.064048,42.354292],[-71.064019,42.354342],[-71.063961,42.354376],[-71.063692,42.35486],[-71.063692,42.354904],[-71.063764,42.354939],[-71.063819,42.354922],[-71.063928,42.354776],[-71.064003,42.35477],[-71.06405,42.354747],[-71.06418,42.354539],[-71.064276,42.354508],[-71.064399,42.354325],[-71.064488,42.35432],[-71.064523,42.354303],[-71.064625,42.354149],[-71.064692,42.354147],[-71.064736,42.354109],[-71.064821,42.35412],[-71.064865,42.354088],[-71.064929,42.353983],[-71.064935,42.35396],[-71.064911,42.353918],[-71.064823,42.353905],[-71.064765,42.35396],[-71.064785,42.3539],[-71.064762,42.353859],[-71.064677,42.353847],[-71.06462,42.353902],[-71.064638,42.353855],[-71.064614,42.353813],[-71.064557,42.353795],[-71.064508,42.353809],[-71.064467,42.353779],[-71.064413,42.353778],[-71.064462,42.353684],[-71.064485,42.35371],[-71.064556,42.353732],[-71.064594,42.353727],[-71.064649,42.353686],[-71.064732,42.353536],[-71.064724,42.353508],[-71.064686,42.353476],[-71.064703,42.353448],[-71.064776,42.353457],[-71.064834,42.353398],[-71.06489,42.353446],[-71.064821,42.353554],[-71.064821,42.353594],[-71.064859,42.353623],[-71.064914,42.353623],[-71.064953,42.353594],[-71.065012,42.353498],[-71.065017,42.353478],[-71.064997,42.353441],[-71.06504,42.353405],[-71.065123,42.353262],[-71.065039,42.353409],[-71.065034,42.353472],[-71.064967,42.35358],[-71.064967,42.35365],[-71.065033,42.353699],[-71.065128,42.353699],[-71.065168,42.353679],[-71.065221,42.353607],[-71.065211,42.353656],[-71.065222,42.353697],[-71.065299,42.353754],[-71.065237,42.353848],[-71.065181,42.35386],[-71.065123,42.353948],[-71.065071,42.353947],[-71.065036,42.353973],[-71.064976,42.354081],[-71.065016,42.354126],[-71.065086,42.354115],[-71.065148,42.354022],[-71.065167,42.354024],[-71.065136,42.354047],[-71.06508,42.354147],[-71.065041,42.354136],[-71.065,42.354148],[-71.064931,42.354262],[-71.064883,42.354259],[-71.064855,42.354279],[-71.064802,42.354373],[-71.064818,42.3544],[-71.064854,42.354411],[-71.064902,42.354387],[-71.064954,42.354297],[-71.064989,42.354307],[-71.06503,42.354294],[-71.065099,42.35418],[-71.06516,42.354188],[-71.06523,42.354103],[-71.065305,42.354094],[-71.065375,42.353988],[-71.065427,42.353977],[-71.065448,42.353948],[-71.065463,42.353972],[-71.065499,42.353983],[-71.065547,42.353959],[-71.065596,42.353881],[-71.065585,42.353839],[-71.065625,42.353756],[-71.065589,42.353716],[-71.065526,42.353725],[-71.065461,42.353824],[-71.065399,42.353838],[-71.065341,42.353926],[-71.065327,42.353924],[-71.065415,42.353795],[-71.065478,42.353785],[-71.065545,42.353682],[-71.065532,42.353633],[-71.065583,42.353549],[-71.065594,42.353508],[-71.065583,42.353467],[-71.065551,42.353432],[-71.065458,42.353402],[-71.065555,42.353344],[-71.065613,42.353261],[-71.065617,42.353288],[-71.065659,42.353319],[-71.065666,42.353362],[-71.065686,42.353384],[-71.065716,42.353399],[-71.065786,42.3534],[-71.065686,42.353557],[-71.065675,42.353599],[-71.065686,42.35364],[-71.065718,42.353675],[-71.065765,42.353698],[-71.065821,42.353707],[-71.065924,42.353675],[-71.066047,42.353492],[-71.066058,42.353451]],[[-71.065698,42.352917],[-71.065686,42.352937],[-71.065677,42.352935],[-71.065698,42.352917]],[[-71.065696,42.352724],[-71.065636,42.352742],[-71.065603,42.352785],[-71.065633,42.352726],[-71.06568,42.352711],[-71.065696,42.352724]],[[-71.065612,42.352946],[-71.06561,42.352947],[-71.065609,42.352946],[-71.065612,42.352946]],[[-71.06538,42.353415],[-71.065378,42.353415],[-71.065377,42.353414],[-71.06538,42.353415]],[[-71.06528,42.353931],[-71.065258,42.353948],[-71.06527,42.353929],[-71.06528,42.353931]],[[-71.065225,42.354],[-71.065211,42.354024],[-71.065195,42.354022],[-71.065225,42.354]],[[-71.064485,42.354019],[-71.064357,42.354203],[-71.064321,42.354185],[-71.06437,42.354106],[-71.064376,42.354083],[-71.064352,42.354041],[-71.06438,42.35399],[-71.064417,42.353981],[-71.064485,42.354019]]],[[[-71.066046,42.354972],[-71.066004,42.354925],[-71.06593,42.354936],[-71.065858,42.355046],[-71.065858,42.355084],[-71.065921,42.355115],[-71.065969,42.355101],[-71.066046,42.354972]]],[[[-71.06602,42.354061],[-71.065981,42.354032],[-71.065934,42.354068],[-71.065908,42.354048],[-71.06587,42.354048],[-71.065797,42.354143],[-71.065797,42.354171],[-71.065824,42.35419],[-71.065861,42.35419],[-71.065905,42.354141],[-71.065918,42.354152],[-71.065893,42.354205],[-71.065923,42.354214],[-71.06602,42.354061]]],[[[-71.065865,42.354468],[-71.065855,42.354431],[-71.065785,42.354379],[-71.065685,42.354379],[-71.065643,42.3544],[-71.065524,42.354579],[-71.065524,42.354652],[-71.065594,42.354704],[-71.065644,42.354712],[-71.065736,42.354684],[-71.065855,42.354505],[-71.065865,42.354468]]],[[[-71.06583,42.348038],[-71.065811,42.348004],[-71.06574,42.347994],[-71.065705,42.34802],[-71.065649,42.34811],[-71.065649,42.348147],[-71.06568,42.34817],[-71.06563,42.348262],[-71.065646,42.34829],[-71.065684,42.348302],[-71.065669,42.348326],[-71.065679,42.348344],[-71.065703,42.348337],[-71.065786,42.348196],[-71.065774,42.348151],[-71.06583,42.348038]]],[[[-71.065764,42.353939],[-71.065734,42.353906],[-71.065681,42.353914],[-71.065619,42.353976],[-71.065572,42.354052],[-71.065572,42.35408],[-71.065617,42.354102],[-71.065652,42.354091],[-71.065713,42.354029],[-71.065764,42.353939]]],[[[-71.065738,42.348446],[-71.065702,42.348406],[-71.065639,42.348415],[-71.065574,42.348514],[-71.065574,42.348547],[-71.065628,42.348574],[-71.065669,42.348561],[-71.065738,42.348446]]],[[[-71.065683,42.354843],[-71.065674,42.354808],[-71.065607,42.354759],[-71.06556,42.354752],[-71.065482,42.354774],[-71.065481,42.354739],[-71.065444,42.354711],[-71.065392,42.354711],[-71.065362,42.354731],[-71.065345,42.354722],[-71.065351,42.354697],[-71.065327,42.354655],[-71.065202,42.35461],[-71.065147,42.354627],[-71.065098,42.354698],[-71.065054,42.354729],[-71.064985,42.354853],[-71.065008,42.354893],[-71.065099,42.354939],[-71.065174,42.354929],[-71.065195,42.354969],[-71.065248,42.354985],[-71.065301,42.354969],[-71.065349,42.3549],[-71.065387,42.354898],[-71.065349,42.354985],[-71.065359,42.35502],[-71.065425,42.355069],[-71.065473,42.355076],[-71.06556,42.355049],[-71.065683,42.354843]]],[[[-71.065598,42.348957],[-71.065567,42.348947],[-71.065541,42.348998],[-71.065565,42.349005],[-71.065598,42.348957]]],[[[-71.065588,42.351223],[-71.065557,42.351213],[-71.065526,42.351272],[-71.06556,42.351272],[-71.065588,42.351223]]],[[[-71.065562,42.349094],[-71.065531,42.349084],[-71.065505,42.349135],[-71.065529,42.349142],[-71.065562,42.349094]]],[[[-71.065559,42.349236],[-71.065529,42.349203],[-71.065476,42.349211],[-71.065425,42.349288],[-71.065425,42.349315],[-71.06547,42.349338],[-71.065504,42.349327],[-71.065559,42.349236]]],[[[-71.065552,42.348316],[-71.065514,42.348274],[-71.065466,42.348274],[-71.065433,42.348299],[-71.065374,42.348403],[-71.065393,42.348436],[-71.065433,42.348449],[-71.065406,42.348492],[-71.065419,42.348514],[-71.065448,42.348505],[-71.065552,42.348316]]],[[[-71.065548,42.34811],[-71.065517,42.3481],[-71.065489,42.348154],[-71.065523,42.348154],[-71.065548,42.34811]]],[[[-71.065465,42.352587],[-71.065457,42.352558],[-71.065401,42.352516],[-71.065321,42.352516],[-71.065288,42.352533],[-71.065188,42.352682],[-71.065188,42.352741],[-71.065244,42.352783],[-71.065284,42.352788],[-71.065358,42.352766],[-71.065465,42.352587]]],[[[-71.065433,42.34879],[-71.065403,42.348757],[-71.06535,42.348765],[-71.065299,42.348842],[-71.065299,42.348869],[-71.065344,42.348892],[-71.065378,42.348881],[-71.065433,42.34879]]],[[[-71.065396,42.34894],[-71.065374,42.348916],[-71.065335,42.348921],[-71.065287,42.349014],[-71.06532,42.349031],[-71.065346,42.349023],[-71.065396,42.34894]]],[[[-71.065379,42.34907],[-71.065349,42.349037],[-71.065296,42.349045],[-71.065238,42.349132],[-71.065238,42.34916],[-71.065283,42.349182],[-71.065318,42.349171],[-71.065379,42.34907]]],[[[-71.065368,42.35121],[-71.065337,42.3512],[-71.065308,42.351257],[-71.065341,42.351257],[-71.065368,42.35121]]],[[[-71.065268,42.35121],[-71.065237,42.3512],[-71.065209,42.351254],[-71.065243,42.351254],[-71.065268,42.35121]]],[[[-71.065204,42.352785],[-71.065168,42.352745],[-71.065124,42.352745],[-71.065092,42.352768],[-71.064973,42.353004],[-71.064973,42.353044],[-71.064988,42.353061],[-71.065039,42.353077],[-71.065105,42.353044],[-71.065164,42.352948],[-71.065155,42.352898],[-71.065204,42.352785]]],[[[-71.065176,42.35072],[-71.06514,42.350702],[-71.065092,42.350768],[-71.065067,42.350832],[-71.065081,42.350857],[-71.065061,42.350898],[-71.065072,42.350916],[-71.065097,42.350909],[-71.065128,42.350859],[-71.065119,42.35084],[-71.065176,42.35072]]],[[[-71.065109,42.352581],[-71.065102,42.352553],[-71.065049,42.352515],[-71.064975,42.352515],[-71.064943,42.35253],[-71.064849,42.352672],[-71.064849,42.352728],[-71.064901,42.352766],[-71.064939,42.352772],[-71.065008,42.352751],[-71.065109,42.352581]]],[[[-71.065103,42.354592],[-71.065085,42.35456],[-71.065017,42.35455],[-71.065067,42.354458],[-71.065049,42.354426],[-71.064899,42.354414],[-71.064824,42.354451],[-71.064753,42.354579],[-71.064777,42.354621],[-71.06482,42.354637],[-71.064744,42.354774],[-71.064771,42.354822],[-71.064835,42.354841],[-71.064823,42.354877],[-71.064839,42.354905],[-71.064878,42.354917],[-71.064929,42.354892],[-71.064983,42.354795],[-71.064949,42.354757],[-71.064967,42.354722],[-71.065031,42.354712],[-71.065103,42.354592]],[[-71.064977,42.354587],[-71.064962,42.35461],[-71.064914,42.354595],[-71.06492,42.354584],[-71.064977,42.354587]]],[[[-71.064944,42.35131],[-71.064913,42.3513],[-71.064884,42.351357],[-71.064917,42.351357],[-71.064944,42.35131]]],[[[-71.064915,42.35417],[-71.064885,42.354137],[-71.064832,42.354145],[-71.064774,42.354232],[-71.064774,42.35426],[-71.064819,42.354282],[-71.064854,42.354271],[-71.064915,42.35417]]],[[[-71.064911,42.354986],[-71.064903,42.354957],[-71.064847,42.354915],[-71.064767,42.354915],[-71.064734,42.354932],[-71.064634,42.355081],[-71.064634,42.35514],[-71.06469,42.355182],[-71.06473,42.355187],[-71.064804,42.355165],[-71.064911,42.354986]]],[[[-71.064857,42.348456],[-71.064826,42.348446],[-71.064798,42.3485],[-71.064832,42.3485],[-71.064857,42.348456]]],[[[-71.064806,42.354449],[-71.064775,42.354393],[-71.064727,42.354374],[-71.064759,42.354322],[-71.064759,42.354284],[-71.064722,42.354256],[-71.064648,42.354267],[-71.064534,42.354438],[-71.064466,42.354444],[-71.064415,42.35452],[-71.064363,42.354531],[-71.064318,42.354597],[-71.064268,42.35462],[-71.064234,42.354676],[-71.064173,42.354684],[-71.064111,42.354779],[-71.064111,42.35481],[-71.064141,42.354832],[-71.064197,42.354825],[-71.064172,42.354877],[-71.064193,42.354914],[-71.064244,42.35493],[-71.064294,42.354914],[-71.06436,42.354816],[-71.064389,42.354805],[-71.064435,42.354737],[-71.064482,42.354727],[-71.064526,42.354662],[-71.064661,42.35465],[-71.064696,42.354633],[-71.064806,42.354449]],[[-71.064502,42.354583],[-71.064502,42.354584],[-71.064502,42.354584],[-71.064502,42.354583]],[[-71.06445,42.354602],[-71.064415,42.354656],[-71.064444,42.354601],[-71.06445,42.354602]],[[-71.064344,42.354688],[-71.064318,42.35473],[-71.064314,42.35473],[-71.064344,42.354688]]],[[[-71.064739,42.354797],[-71.064708,42.354787],[-71.06468,42.354841],[-71.064714,42.354841],[-71.064739,42.354797]]],[[[-71.064624,42.351826],[-71.064593,42.351816],[-71.064565,42.35187],[-71.064599,42.35187],[-71.064624,42.351826]]],[[[-71.064621,42.348425],[-71.06459,42.348415],[-71.064562,42.348469],[-71.064596,42.348469],[-71.064621,42.348425]]],[[[-71.064568,42.352055],[-71.064537,42.352045],[-71.064508,42.352091],[-71.064517,42.352109],[-71.064489,42.352193],[-71.064499,42.352211],[-71.064523,42.352204],[-71.064547,42.352165],[-71.064539,42.352149],[-71.064563,42.35211],[-71.064552,42.352091],[-71.064568,42.352055]]],[[[-71.064436,42.348399],[-71.064405,42.348389],[-71.064377,42.348443],[-71.064411,42.348443],[-71.064436,42.348399]]],[[[-71.064238,42.350925],[-71.064207,42.350915],[-71.064179,42.350969],[-71.064213,42.350969],[-71.064238,42.350925]]],[[[-71.064209,42.34872],[-71.06417,42.348708],[-71.064132,42.348779],[-71.064174,42.348779],[-71.064209,42.34872]]],[[[-71.064168,42.34884],[-71.064137,42.34883],[-71.064104,42.348892],[-71.064138,42.348892],[-71.064168,42.34884]]],[[[-71.064148,42.350914],[-71.064117,42.350904],[-71.064089,42.350958],[-71.064123,42.350958],[-71.064148,42.350914]]],[[[-71.064088,42.3533],[-71.064057,42.35329],[-71.064024,42.353352],[-71.064058,42.353352],[-71.064088,42.3533]]],[[[-71.064082,42.350914],[-71.064062,42.350892],[-71.064027,42.350897],[-71.063982,42.350985],[-71.064012,42.351],[-71.064035,42.350993],[-71.064082,42.350914]]],[[[-71.064049,42.35339],[-71.064016,42.35338],[-71.063981,42.353446],[-71.064017,42.353446],[-71.064049,42.35339]]],[[[-71.064013,42.353283],[-71.063982,42.353273],[-71.063949,42.353335],[-71.063983,42.353335],[-71.064013,42.353283]]],[[[-71.063998,42.35376],[-71.063967,42.35375],[-71.063934,42.353812],[-71.063968,42.353812],[-71.063998,42.35376]]],[[[-71.063984,42.353386],[-71.063951,42.353376],[-71.063916,42.353442],[-71.063952,42.353442],[-71.063984,42.353386]]],[[[-71.063973,42.350903],[-71.063949,42.350876],[-71.063906,42.350883],[-71.063857,42.350981],[-71.063893,42.350999],[-71.06392,42.350991],[-71.063973,42.350903]]],[[[-71.063943,42.353268],[-71.063904,42.353256],[-71.063866,42.353327],[-71.063908,42.353327],[-71.063943,42.353268]]],[[[-71.063928,42.353374],[-71.063897,42.353364],[-71.063864,42.353426],[-71.063898,42.353426],[-71.063928,42.353374]]],[[[-71.063922,42.353967],[-71.063902,42.353945],[-71.063867,42.35395],[-71.063822,42.354038],[-71.063852,42.354053],[-71.063875,42.354046],[-71.063922,42.353967]]],[[[-71.063915,42.348675],[-71.063882,42.348665],[-71.063847,42.34872],[-71.063816,42.348789],[-71.063824,42.348844],[-71.063848,42.348837],[-71.063872,42.348798],[-71.063891,42.348749],[-71.063884,42.34873],[-71.063915,42.348675]]],[[[-71.063879,42.34887],[-71.063846,42.34886],[-71.063811,42.348926],[-71.063847,42.348926],[-71.063879,42.34887]]],[[[-71.063821,42.349148],[-71.06379,42.349138],[-71.063762,42.349192],[-71.063796,42.349192],[-71.063821,42.349148]]],[[[-71.063816,42.35412],[-71.06379,42.354101],[-71.063766,42.354113],[-71.063732,42.354183],[-71.063756,42.354195],[-71.06378,42.354183],[-71.063816,42.35412]]],[[[-71.063808,42.348427],[-71.063777,42.348417],[-71.063749,42.348471],[-71.063783,42.348471],[-71.063808,42.348427]]],[[[-71.063768,42.349293],[-71.063737,42.349283],[-71.063696,42.349379],[-71.06373,42.349379],[-71.063768,42.349293]]],[[[-71.063718,42.34841],[-71.063687,42.3484],[-71.063659,42.348454],[-71.063693,42.348454],[-71.063718,42.34841]]],[[[-71.063707,42.350883],[-71.063687,42.350861],[-71.063652,42.350866],[-71.063607,42.350954],[-71.063637,42.350969],[-71.06366,42.350962],[-71.063707,42.350883]]],[[[-71.063689,42.34976],[-71.063656,42.34975],[-71.063621,42.349816],[-71.063657,42.349816],[-71.063689,42.34976]]],[[[-71.063632,42.349854],[-71.063601,42.349844],[-71.063568,42.349906],[-71.063602,42.349906],[-71.063632,42.349854]]],[[[-71.063613,42.350876],[-71.063574,42.350864],[-71.063536,42.350935],[-71.063578,42.350935],[-71.063613,42.350876]]],[[[-71.063579,42.34995],[-71.063546,42.34994],[-71.063484,42.350052],[-71.063518,42.350052],[-71.063579,42.34995]]],[[[-71.063569,42.3547],[-71.063539,42.354667],[-71.063486,42.354675],[-71.063375,42.354852],[-71.063385,42.354891],[-71.06342,42.354902],[-71.063454,42.354891],[-71.063569,42.3547]]],[[[-71.063546,42.350864],[-71.06352,42.350845],[-71.063496,42.350857],[-71.063462,42.350927],[-71.063486,42.350939],[-71.06351,42.350927],[-71.063546,42.350864]]],[[[-71.063458,42.350418],[-71.063427,42.350408],[-71.063394,42.35046],[-71.063403,42.350477],[-71.063308,42.350646],[-71.063317,42.350664],[-71.063341,42.350657],[-71.063402,42.350555],[-71.063433,42.350492],[-71.063424,42.350475],[-71.063458,42.350418]]],[[[-71.063458,42.35018],[-71.063427,42.35017],[-71.063341,42.350319],[-71.063351,42.350337],[-71.0634,42.350295],[-71.063458,42.35018]]],[[[-71.063386,42.350826],[-71.06336,42.350807],[-71.063381,42.350773],[-71.063381,42.350757],[-71.063354,42.350743],[-71.063368,42.350698],[-71.063343,42.350691],[-71.063301,42.350749],[-71.063312,42.350767],[-71.063291,42.350832],[-71.063318,42.350845],[-71.063302,42.350889],[-71.063326,42.350901],[-71.06335,42.350889],[-71.063386,42.350826]]],[[[-71.063328,42.35044],[-71.063297,42.35043],[-71.063236,42.350522],[-71.063125,42.350751],[-71.063081,42.35081],[-71.063092,42.350828],[-71.063117,42.350821],[-71.063177,42.350732],[-71.063328,42.35044]]],[[[-71.063144,42.352238],[-71.063113,42.352228],[-71.063084,42.352285],[-71.063117,42.352285],[-71.063144,42.352238]]],[[[-71.063083,42.35225],[-71.063052,42.35224],[-71.063023,42.352297],[-71.063056,42.352297],[-71.063083,42.35225]]],[[[-71.062983,42.352253],[-71.062952,42.352243],[-71.062923,42.3523],[-71.062956,42.3523],[-71.062983,42.352253]]],[[[-71.062922,42.35222],[-71.062891,42.35221],[-71.06286,42.352269],[-71.062894,42.352269],[-71.062922,42.35222]]],[[[-71.062848,42.352215],[-71.062817,42.352205],[-71.062788,42.352262],[-71.062821,42.352262],[-71.062848,42.352215]]],[[[-71.062829,42.353302],[-71.062796,42.353292],[-71.062761,42.353358],[-71.062797,42.353358],[-71.062829,42.353302]]],[[[-71.062829,42.353214],[-71.062796,42.353204],[-71.062761,42.35327],[-71.062797,42.35327],[-71.062829,42.353214]]],[[[-71.062763,42.353207],[-71.06273,42.353197],[-71.062695,42.353263],[-71.062731,42.353263],[-71.062763,42.353207]]],[[[-71.062763,42.353306],[-71.062724,42.353294],[-71.062686,42.353365],[-71.062728,42.353365],[-71.062763,42.353306]]],[[[-71.062559,42.348354],[-71.062541,42.348334],[-71.062509,42.348339],[-71.062467,42.348421],[-71.062514,42.348428],[-71.062559,42.348354]]],[[[-71.062496,42.349373],[-71.06247,42.349344],[-71.062424,42.349351],[-71.062372,42.349431],[-71.062372,42.349455],[-71.062411,42.349474],[-71.062441,42.349465],[-71.062496,42.349373]]],[[[-71.062463,42.348557],[-71.062424,42.348545],[-71.062386,42.348616],[-71.062428,42.348616],[-71.062463,42.348557]]],[[[-71.062409,42.348373],[-71.062385,42.348346],[-71.062342,42.348353],[-71.062293,42.348451],[-71.062329,42.348469],[-71.062356,42.348461],[-71.062409,42.348373]]],[[[-71.062392,42.349323],[-71.062366,42.349294],[-71.06232,42.349301],[-71.062268,42.349381],[-71.062268,42.349405],[-71.062307,42.349424],[-71.062337,42.349415],[-71.062392,42.349323]]],[[[-71.062039,42.353752],[-71.062006,42.353742],[-71.061971,42.353808],[-71.062007,42.353808],[-71.062039,42.353752]]],[[[-71.062006,42.349306],[-71.061975,42.349296],[-71.061947,42.34935],[-71.061981,42.34935],[-71.062006,42.349306]]],[[[-71.061988,42.35386],[-71.061957,42.35385],[-71.061929,42.353904],[-71.061963,42.353904],[-71.061988,42.35386]]],[[[-71.061951,42.349438],[-71.06192,42.349428],[-71.061892,42.349482],[-71.061926,42.349482],[-71.061951,42.349438]]],[[[-71.061941,42.349548],[-71.061911,42.349515],[-71.061858,42.349523],[-71.061807,42.3496],[-71.061807,42.349627],[-71.061852,42.34965],[-71.061886,42.349639],[-71.061941,42.349548]]],[[[-71.061928,42.34988],[-71.061897,42.34987],[-71.061839,42.34997],[-71.061873,42.34997],[-71.061928,42.34988]]],[[[-71.061924,42.3537],[-71.061891,42.35369],[-71.061856,42.353756],[-71.061892,42.353756],[-71.061924,42.3537]]],[[[-71.061909,42.353825],[-71.061876,42.353815],[-71.061841,42.353881],[-71.061877,42.353881],[-71.061909,42.353825]]],[[[-71.061892,42.35],[-71.061861,42.34999],[-71.061779,42.350124],[-71.061813,42.350124],[-71.061892,42.35]]],[[[-71.061851,42.348312],[-71.061823,42.348281],[-71.061774,42.348288],[-71.061719,42.348372],[-71.061729,42.348409],[-71.061711,42.348465],[-71.061745,42.348465],[-71.061851,42.348312]]],[[[-71.061828,42.353783],[-71.061797,42.353773],[-71.061769,42.353827],[-71.061803,42.353827],[-71.061828,42.353783]]],[[[-71.061825,42.353653],[-71.061792,42.353643],[-71.061757,42.353709],[-71.061793,42.353709],[-71.061825,42.353653]]],[[[-71.061824,42.350155],[-71.061793,42.350145],[-71.061739,42.350244],[-71.061773,42.350244],[-71.061824,42.350155]]],[[[-71.061789,42.350292],[-71.061765,42.350265],[-71.061722,42.350272],[-71.061633,42.350406],[-71.061643,42.350443],[-71.061707,42.350443],[-71.061789,42.350292]]],[[[-71.061766,42.349666],[-71.061736,42.349633],[-71.061683,42.349641],[-71.061632,42.349718],[-71.061632,42.349745],[-71.061677,42.349768],[-71.061711,42.349757],[-71.061766,42.349666]]],[[[-71.061759,42.353607],[-71.061729,42.353574],[-71.061676,42.353582],[-71.061625,42.353659],[-71.061625,42.353686],[-71.06167,42.353709],[-71.061704,42.353698],[-71.061759,42.353607]]],[[[-71.061747,42.353738],[-71.061716,42.353728],[-71.061688,42.353782],[-71.061722,42.353782],[-71.061747,42.353738]]],[[[-71.061692,42.348648],[-71.061666,42.348619],[-71.06162,42.348626],[-71.061568,42.348706],[-71.061568,42.34873],[-71.061607,42.348749],[-71.061637,42.34874],[-71.061692,42.348648]]],[[[-71.061645,42.348297],[-71.061611,42.348259],[-71.061551,42.348268],[-71.061489,42.348363],[-71.061489,42.348394],[-71.06154,42.348419],[-71.061579,42.348407],[-71.061645,42.348297]]],[[[-71.061628,42.35355],[-71.061597,42.35354],[-71.061566,42.353599],[-71.0616,42.353599],[-71.061628,42.35355]]],[[[-71.06161,42.348837],[-71.061579,42.348827],[-71.061551,42.348881],[-71.061585,42.348881],[-71.06161,42.348837]]],[[[-71.061608,42.3485],[-71.061577,42.34849],[-71.061549,42.348544],[-71.061583,42.348544],[-71.061608,42.3485]]],[[[-71.061597,42.348184],[-71.061566,42.348174],[-71.061535,42.348233],[-71.061569,42.348233],[-71.061597,42.348184]]],[[[-71.061565,42.34867],[-71.061537,42.348639],[-71.061488,42.348646],[-71.061433,42.34873],[-71.061433,42.348756],[-71.061475,42.348777],[-71.061507,42.348767],[-71.061565,42.34867]]],[[[-71.061548,42.349568],[-71.061518,42.349535],[-71.061465,42.349543],[-71.061414,42.34962],[-71.061414,42.349647],[-71.061459,42.34967],[-71.061493,42.349659],[-71.061548,42.349568]]],[[[-71.061502,42.348854],[-71.061476,42.348825],[-71.06143,42.348832],[-71.061378,42.348912],[-71.061378,42.348936],[-71.061417,42.348955],[-71.061447,42.348946],[-71.061502,42.348854]]],[[[-71.061493,42.35095],[-71.061454,42.350938],[-71.061416,42.351009],[-71.061458,42.351009],[-71.061493,42.35095]]],[[[-71.061472,42.34815],[-71.061434,42.348108],[-71.061386,42.348108],[-71.061353,42.348133],[-71.061294,42.348237],[-71.061313,42.34827],[-71.061356,42.348283],[-71.061359,42.348327],[-71.061382,42.348334],[-71.061412,42.348319],[-71.06145,42.348257],[-71.061432,42.348226],[-71.061472,42.34815]]],[[[-71.06145,42.349534],[-71.06142,42.349501],[-71.061367,42.349509],[-71.061316,42.349586],[-71.061316,42.349613],[-71.061361,42.349636],[-71.061395,42.349625],[-71.06145,42.349534]]],[[[-71.061438,42.349255],[-71.061407,42.349245],[-71.061376,42.349304],[-71.06141,42.349304],[-71.061438,42.349255]]],[[[-71.061418,42.351122],[-71.061387,42.351112],[-71.061359,42.351155],[-71.061293,42.351322],[-71.061303,42.35134],[-71.061327,42.351333],[-71.061351,42.351294],[-71.061418,42.351122]]],[[[-71.061399,42.349052],[-71.061366,42.349042],[-71.061331,42.349108],[-71.061367,42.349108],[-71.061399,42.349052]]],[[[-71.061368,42.34943],[-71.061337,42.34942],[-71.061309,42.349474],[-71.061343,42.349474],[-71.061368,42.34943]]],[[[-71.061349,42.349228],[-71.061331,42.349208],[-71.061299,42.349213],[-71.061257,42.349295],[-71.061304,42.349302],[-71.061349,42.349228]]],[[[-71.061282,42.34963],[-71.061251,42.34962],[-71.061201,42.349725],[-71.061234,42.349725],[-71.061282,42.34963]]],[[[-71.061244,42.35337],[-71.061213,42.35336],[-71.061185,42.353414],[-71.061219,42.353414],[-71.061244,42.35337]]],[[[-71.061238,42.354774],[-71.061207,42.354764],[-71.061179,42.354818],[-71.061213,42.354818],[-71.061238,42.354774]]],[[[-71.061222,42.34983],[-71.061196,42.349801],[-71.06115,42.349808],[-71.061098,42.349888],[-71.061098,42.349912],[-71.061137,42.349931],[-71.061167,42.349922],[-71.061222,42.34983]]],[[[-71.061188,42.354916],[-71.061157,42.354906],[-71.061129,42.35496],[-71.061163,42.35496],[-71.061188,42.354916]]],[[[-71.061188,42.353344],[-71.061157,42.353334],[-71.061129,42.353388],[-71.061163,42.353388],[-71.061188,42.353344]]],[[[-71.061156,42.35003],[-71.061124,42.349995],[-71.061067,42.350003],[-71.061007,42.350094],[-71.061007,42.350123],[-71.061055,42.350147],[-71.061092,42.350136],[-71.061156,42.35003]]],[[[-71.061138,42.35332],[-71.061107,42.35331],[-71.061079,42.353364],[-71.061113,42.353364],[-71.061138,42.35332]]],[[[-71.061048,42.353275],[-71.061017,42.353265],[-71.060986,42.353324],[-71.06102,42.353324],[-71.061048,42.353275]]],[[[-71.061038,42.34849],[-71.061007,42.34848],[-71.060979,42.348534],[-71.061013,42.348534],[-71.061038,42.34849]]],[[[-71.061032,42.348602],[-71.061,42.348567],[-71.06096,42.348567],[-71.060932,42.348587],[-71.060883,42.348666],[-71.060895,42.348708],[-71.060849,42.348783],[-71.060856,42.348823],[-71.060815,42.348897],[-71.060827,42.348919],[-71.060857,42.348928],[-71.060896,42.348909],[-71.061001,42.348733],[-71.060989,42.348688],[-71.061032,42.348602]]],[[[-71.060988,42.353363],[-71.060957,42.353353],[-71.060929,42.353407],[-71.060963,42.353407],[-71.060988,42.353363]]],[[[-71.060938,42.35322],[-71.060907,42.35321],[-71.060879,42.353264],[-71.060913,42.353264],[-71.060938,42.35322]]],[[[-71.060923,42.35333],[-71.060892,42.35332],[-71.060863,42.353377],[-71.060896,42.353377],[-71.060923,42.35333]]],[[[-71.060862,42.353302],[-71.060831,42.353292],[-71.060803,42.353346],[-71.060837,42.353346],[-71.060862,42.353302]]],[[[-71.060847,42.349174],[-71.060803,42.349125],[-71.060725,42.349137],[-71.060651,42.34925],[-71.060651,42.34929],[-71.060717,42.349323],[-71.060767,42.349307],[-71.060847,42.349174]]],[[[-71.060733,42.34939],[-71.060703,42.349357],[-71.060665,42.349357],[-71.060639,42.349376],[-71.060599,42.349442],[-71.060609,42.349481],[-71.060554,42.349568],[-71.060565,42.349607],[-71.060599,42.349618],[-71.060644,42.349596],[-71.060691,42.34952],[-71.06068,42.349481],[-71.060733,42.34939]]],[[[-71.060628,42.34926],[-71.060597,42.34925],[-71.060529,42.349375],[-71.060539,42.349393],[-71.060563,42.349386],[-71.060628,42.34926]]],[[[-71.060609,42.34967],[-71.060579,42.349637],[-71.060541,42.349637],[-71.060515,42.349656],[-71.060468,42.349732],[-71.060479,42.349771],[-71.060429,42.349871],[-71.060445,42.349898],[-71.060481,42.349909],[-71.060529,42.349885],[-71.060578,42.349807],[-71.060578,42.349777],[-71.060558,42.34976],[-71.060609,42.34967]]],[[[-71.060598,42.35304],[-71.060567,42.35303],[-71.060539,42.353084],[-71.060573,42.353084],[-71.060598,42.35304]]],[[[-71.060558,42.349407],[-71.060527,42.349397],[-71.060499,42.34944],[-71.060507,42.349457],[-71.060488,42.349489],[-71.060497,42.349507],[-71.060445,42.349589],[-71.060455,42.349607],[-71.060429,42.349673],[-71.060439,42.349691],[-71.060463,42.349684],[-71.060487,42.349645],[-71.060503,42.349605],[-71.060493,42.349588],[-71.060537,42.349508],[-71.060527,42.349491],[-71.060558,42.349407]]],[[[-71.060518,42.352997],[-71.060487,42.352987],[-71.060459,42.353041],[-71.060493,42.353041],[-71.060518,42.352997]]],[[[-71.060508,42.353283],[-71.060477,42.353273],[-71.060448,42.35333],[-71.060481,42.35333],[-71.060508,42.353283]]],[[[-71.060504,42.35315],[-71.060473,42.35314],[-71.060445,42.353194],[-71.060479,42.353194],[-71.060504,42.35315]]],[[[-71.060468,42.352974],[-71.060437,42.352964],[-71.060408,42.353021],[-71.060441,42.353021],[-71.060468,42.352974]]],[[[-71.060428,42.3531],[-71.060397,42.35309],[-71.060369,42.353144],[-71.060403,42.353144],[-71.060428,42.3531]]],[[[-71.060419,42.353405],[-71.060418,42.35338],[-71.0604,42.353367],[-71.060352,42.353385],[-71.060303,42.353461],[-71.060303,42.353495],[-71.060366,42.353493],[-71.060419,42.353405]]],[[[-71.060388,42.349884],[-71.060357,42.349874],[-71.060328,42.349931],[-71.060361,42.349931],[-71.060388,42.349884]]],[[[-71.060374,42.35307],[-71.060343,42.35306],[-71.060315,42.353114],[-71.060349,42.353114],[-71.060374,42.35307]]],[[[-71.060318,42.350037],[-71.060287,42.350027],[-71.060259,42.350081],[-71.060293,42.350081],[-71.060318,42.350037]]],[[[-71.060314,42.35015],[-71.060297,42.3501],[-71.060273,42.350093],[-71.06022,42.350136],[-71.06018,42.350202],[-71.06018,42.350229],[-71.060225,42.350252],[-71.060259,42.350241],[-71.060314,42.35015]]],[[[-71.060174,42.34947],[-71.06015,42.349443],[-71.060099,42.349459],[-71.059977,42.349698],[-71.059985,42.349727],[-71.06001,42.349735],[-71.060043,42.349718],[-71.060083,42.349654],[-71.060081,42.349623],[-71.060174,42.34947]]],[[[-71.060158,42.352962],[-71.060127,42.352952],[-71.060099,42.353006],[-71.060133,42.353006],[-71.060158,42.352962]]],[[[-71.060105,42.35341],[-71.060077,42.353379],[-71.060028,42.353386],[-71.059973,42.35347],[-71.059973,42.353496],[-71.060015,42.353517],[-71.060047,42.353507],[-71.060105,42.35341]]],[[[-71.059972,42.351044],[-71.059946,42.351015],[-71.0599,42.351022],[-71.059848,42.351102],[-71.059817,42.351198],[-71.059841,42.35121],[-71.059865,42.351198],[-71.059972,42.351044]]],[[[-71.059858,42.3533],[-71.059827,42.35329],[-71.059799,42.353344],[-71.059833,42.353344],[-71.059858,42.3533]]],[[[-71.059822,42.35326],[-71.059796,42.353231],[-71.05975,42.353238],[-71.059698,42.353318],[-71.059698,42.353342],[-71.059737,42.353361],[-71.059767,42.353352],[-71.059822,42.35326]]],[[[-71.059758,42.352753],[-71.059727,42.352743],[-71.059698,42.3528],[-71.059731,42.3528],[-71.059758,42.352753]]],[[[-71.059688,42.352737],[-71.059657,42.352727],[-71.059628,42.352784],[-71.059661,42.352784],[-71.059688,42.352737]]],[[[-71.059669,42.354954],[-71.059651,42.354934],[-71.059619,42.354939],[-71.059577,42.355021],[-71.059624,42.355028],[-71.059669,42.354954]]],[[[-71.059649,42.35171],[-71.059619,42.351677],[-71.059566,42.351685],[-71.059515,42.351762],[-71.059515,42.351789],[-71.05956,42.351812],[-71.059594,42.351801],[-71.059649,42.35171]]],[[[-71.059634,42.35273],[-71.059603,42.35272],[-71.059577,42.352761],[-71.05954,42.352747],[-71.059506,42.352758],[-71.059455,42.352835],[-71.059455,42.352862],[-71.0595,42.352885],[-71.059534,42.352874],[-71.059634,42.35273]]],[[[-71.059622,42.35492],[-71.059573,42.354873],[-71.059538,42.354868],[-71.059482,42.354961],[-71.059529,42.354999],[-71.059565,42.355004],[-71.059622,42.35492]]],[[[-71.059562,42.3516],[-71.059542,42.351578],[-71.059507,42.351583],[-71.059462,42.351671],[-71.059492,42.351686],[-71.059515,42.351679],[-71.059562,42.3516]]],[[[-71.059544,42.35171],[-71.059511,42.3517],[-71.059476,42.351766],[-71.059512,42.351766],[-71.059544,42.35171]]],[[[-71.059518,42.351097],[-71.059487,42.351087],[-71.059459,42.351141],[-71.059493,42.351141],[-71.059518,42.351097]]],[[[-71.059482,42.354813],[-71.059462,42.354791],[-71.059427,42.354796],[-71.059382,42.354884],[-71.059412,42.354899],[-71.059435,42.354892],[-71.059482,42.354813]]],[[[-71.059478,42.35117],[-71.059447,42.35116],[-71.059419,42.351214],[-71.059453,42.351214],[-71.059478,42.35117]]],[[[-71.059456,42.351627],[-71.05943,42.351608],[-71.059406,42.35162],[-71.059371,42.351688],[-71.059343,42.351698],[-71.05931,42.351763],[-71.059284,42.351768],[-71.059246,42.351839],[-71.059288,42.351839],[-71.059321,42.351774],[-71.059347,42.351769],[-71.059456,42.351627]]],[[[-71.059432,42.354774],[-71.059389,42.354714],[-71.05935,42.354709],[-71.059289,42.354797],[-71.059299,42.354816],[-71.059335,42.354822],[-71.059339,42.354853],[-71.059375,42.354858],[-71.059432,42.354774]]],[[[-71.059428,42.3531],[-71.059397,42.35309],[-71.059369,42.353144],[-71.059403,42.353144],[-71.059428,42.3531]]],[[[-71.059418,42.35301],[-71.059387,42.353],[-71.059359,42.353054],[-71.059393,42.353054],[-71.059418,42.35301]]],[[[-71.059219,42.35129],[-71.059187,42.351235],[-71.059144,42.351205],[-71.05911,42.351194],[-71.059076,42.351205],[-71.059015,42.351306],[-71.059045,42.351339],[-71.059082,42.351339],[-71.059045,42.351433],[-71.059059,42.351458],[-71.058981,42.351579],[-71.058945,42.351585],[-71.05889,42.351666],[-71.058867,42.351673],[-71.058801,42.351754],[-71.058775,42.351761],[-71.058736,42.351821],[-71.058688,42.351825],[-71.05858,42.351954],[-71.058491,42.351968],[-71.058437,42.352041],[-71.058397,42.35205],[-71.058353,42.352092],[-71.058328,42.352144],[-71.058378,42.352178],[-71.058427,42.352171],[-71.058455,42.35213],[-71.058519,42.352107],[-71.058585,42.351999],[-71.058645,42.351985],[-71.058737,42.351881],[-71.058786,42.351863],[-71.058809,42.351829],[-71.058836,42.351821],[-71.05892,42.351699],[-71.058963,42.351678],[-71.059003,42.351594],[-71.05903,42.35158],[-71.059095,42.351469],[-71.059138,42.351447],[-71.059219,42.35129]]],[[[-71.059184,42.353294],[-71.059153,42.353284],[-71.059125,42.353338],[-71.059159,42.353338],[-71.059184,42.353294]]],[[[-71.059092,42.354385],[-71.059072,42.354363],[-71.059037,42.354368],[-71.058992,42.354456],[-71.059022,42.354471],[-71.059045,42.354464],[-71.059092,42.354385]]],[[[-71.059088,42.353287],[-71.059057,42.353277],[-71.059029,42.353331],[-71.059063,42.353331],[-71.059088,42.353287]]],[[[-71.059018,42.354332],[-71.058987,42.354322],[-71.058959,42.354376],[-71.058993,42.354376],[-71.059018,42.354332]]],[[[-71.058998,42.353283],[-71.058967,42.353273],[-71.058939,42.353327],[-71.058973,42.353327],[-71.058998,42.353283]]],[[[-71.058959,42.35429],[-71.058926,42.35428],[-71.058891,42.354346],[-71.058927,42.354346],[-71.058959,42.35429]]],[[[-71.058864,42.353268],[-71.058833,42.353258],[-71.058805,42.353312],[-71.058839,42.353312],[-71.058864,42.353268]]],[[[-71.058758,42.353268],[-71.058727,42.353258],[-71.058699,42.353312],[-71.058733,42.353312],[-71.058758,42.353268]]],[[[-71.058568,42.35253],[-71.058537,42.35252],[-71.058509,42.352574],[-71.058543,42.352574],[-71.058568,42.35253]]],[[[-71.058508,42.352524],[-71.05849,42.352511],[-71.058498,42.352474],[-71.058473,42.352467],[-71.058431,42.352536],[-71.058457,42.352543],[-71.058449,42.352568],[-71.058473,42.352575],[-71.058508,42.352524]]],[[[-71.058428,42.352528],[-71.058397,42.352518],[-71.058368,42.352575],[-71.058401,42.352575],[-71.058428,42.352528]]],[[[-71.058388,42.35247],[-71.058357,42.35246],[-71.058289,42.352564],[-71.058323,42.352564],[-71.058388,42.35247]]],[[[-71.058288,42.35091],[-71.058257,42.3509],[-71.058229,42.350954],[-71.058263,42.350954],[-71.058288,42.35091]]],[[[-71.058278,42.352467],[-71.058247,42.352457],[-71.058219,42.3525],[-71.058219,42.352563],[-71.058243,42.352556],[-71.058267,42.352517],[-71.058278,42.352467]]],[[[-71.058218,42.350887],[-71.058187,42.350877],[-71.058159,42.350931],[-71.058193,42.350931],[-71.058218,42.350887]]],[[[-71.058038,42.352665],[-71.058007,42.352655],[-71.057979,42.352709],[-71.058013,42.352709],[-71.058038,42.352665]]],[[[-71.058032,42.352768],[-71.058001,42.352758],[-71.057973,42.352812],[-71.058007,42.352812],[-71.058032,42.352768]]],[[[-71.058008,42.352905],[-71.057977,42.352895],[-71.057949,42.352949],[-71.057983,42.352949],[-71.058008,42.352905]]],[[[-71.057803,42.350693],[-71.057772,42.350683],[-71.057744,42.350737],[-71.057778,42.350737],[-71.057803,42.350693]]],[[[-71.057758,42.350677],[-71.057727,42.350667],[-71.057699,42.350721],[-71.057733,42.350721],[-71.057758,42.350677]]],[[[-71.05775,42.352226],[-71.057724,42.352207],[-71.0577,42.352219],[-71.057666,42.352289],[-71.05769,42.352301],[-71.057714,42.352289],[-71.05775,42.352226]]],[[[-71.057623,42.35219],[-71.057605,42.35217],[-71.057573,42.352175],[-71.057531,42.352257],[-71.057578,42.352264],[-71.057623,42.35219]]],[[[-71.057536,42.35216],[-71.05751,42.352141],[-71.057486,42.352153],[-71.057452,42.352223],[-71.057476,42.352235],[-71.0575,42.352223],[-71.057536,42.35216]]],[[[-71.057456,42.35214],[-71.05743,42.352121],[-71.057406,42.352133],[-71.057372,42.352203],[-71.057396,42.352215],[-71.05742,42.352203],[-71.057456,42.35214]]],[[[-71.057414,42.350403],[-71.057383,42.350393],[-71.057355,42.350447],[-71.057389,42.350447],[-71.057414,42.350403]]],[[[-71.057398,42.350494],[-71.057367,42.350484],[-71.057339,42.350538],[-71.057373,42.350538],[-71.057398,42.350494]]],[[[-71.057369,42.35211],[-71.057351,42.35209],[-71.057319,42.352095],[-71.057277,42.352177],[-71.057324,42.352184],[-71.057369,42.35211]]],[[[-71.057348,42.351707],[-71.057317,42.351697],[-71.057288,42.351743],[-71.057289,42.351801],[-71.057313,42.351794],[-71.057348,42.351707]]],[[[-71.057309,42.351897],[-71.057278,42.351887],[-71.05725,42.35193],[-71.057251,42.352003],[-71.057275,42.351996],[-71.057297,42.35196],[-71.057287,42.351943],[-71.057309,42.351897]]],[[[-71.057298,42.350925],[-71.057267,42.350915],[-71.057236,42.350974],[-71.05727,42.350974],[-71.057298,42.350925]]],[[[-71.057268,42.351063],[-71.057237,42.351053],[-71.057206,42.351112],[-71.05724,42.351112],[-71.057268,42.351063]]],[[[-71.057208,42.35141],[-71.057177,42.3514],[-71.057149,42.351454],[-71.057183,42.351454],[-71.057208,42.35141]]],[[[-71.057198,42.35055],[-71.057167,42.35054],[-71.057139,42.350594],[-71.057173,42.350594],[-71.057198,42.35055]]],[[[-71.057147,42.350632],[-71.057116,42.350622],[-71.057088,42.350676],[-71.057122,42.350676],[-71.057147,42.350632]]],[[[-71.057094,42.350533],[-71.057063,42.350523],[-71.057035,42.350577],[-71.057069,42.350577],[-71.057094,42.350533]]],[[[-71.057038,42.34984],[-71.057007,42.34983],[-71.056922,42.349955],[-71.056929,42.349982],[-71.056952,42.349989],[-71.056982,42.349974],[-71.05702,42.349912],[-71.057013,42.349886],[-71.057038,42.34984]]],[[[-71.056868,42.352028],[-71.056837,42.352018],[-71.056804,42.35208],[-71.056838,42.35208],[-71.056868,42.352028]]],[[[-71.056834,42.35023],[-71.056803,42.35022],[-71.056775,42.350274],[-71.056809,42.350274],[-71.056834,42.35023]]],[[[-71.056829,42.34976],[-71.056818,42.34974],[-71.056775,42.349733],[-71.056713,42.349816],[-71.05672,42.349847],[-71.056595,42.350058],[-71.056567,42.350161],[-71.056522,42.350237],[-71.056529,42.350264],[-71.056552,42.350271],[-71.056582,42.350256],[-71.05662,42.350194],[-71.056621,42.350161],[-71.056725,42.35002],[-71.05677,42.349929],[-71.056763,42.349893],[-71.056829,42.34976]]],[[[-71.056798,42.350307],[-71.056767,42.350297],[-71.056739,42.350351],[-71.056773,42.350351],[-71.056798,42.350307]]],[[[-71.056748,42.351994],[-71.056717,42.351984],[-71.056686,42.352043],[-71.05672,42.352043],[-71.056748,42.351994]]],[[[-71.056643,42.350613],[-71.056612,42.350603],[-71.056544,42.350732],[-71.056578,42.350732],[-71.056643,42.350613]]],[[[-71.056626,42.353203],[-71.0566,42.353184],[-71.056576,42.353196],[-71.056542,42.353266],[-71.056566,42.353278],[-71.05659,42.353266],[-71.056626,42.353203]]],[[[-71.056559,42.353165],[-71.056526,42.353155],[-71.056491,42.353221],[-71.056527,42.353221],[-71.056559,42.353165]]],[[[-71.056559,42.350834],[-71.056529,42.350801],[-71.056476,42.350809],[-71.056425,42.350886],[-71.056425,42.350913],[-71.05647,42.350936],[-71.056504,42.350925],[-71.056559,42.350834]]],[[[-71.056484,42.353127],[-71.056451,42.353117],[-71.056416,42.353183],[-71.056452,42.353183],[-71.056484,42.353127]]],[[[-71.056468,42.35192],[-71.056437,42.35191],[-71.056404,42.351972],[-71.056438,42.351972],[-71.056468,42.35192]]],[[[-71.056428,42.35103],[-71.056397,42.35102],[-71.056369,42.351074],[-71.056403,42.351074],[-71.056428,42.35103]]],[[[-71.056398,42.351097],[-71.056367,42.351087],[-71.056334,42.351149],[-71.056368,42.351149],[-71.056398,42.351097]]],[[[-71.056393,42.35309],[-71.056354,42.353078],[-71.056316,42.353149],[-71.056358,42.353149],[-71.056393,42.35309]]],[[[-71.056388,42.3519],[-71.056357,42.35189],[-71.056331,42.351941],[-71.056355,42.351948],[-71.056388,42.3519]]],[[[-71.056364,42.351176],[-71.056333,42.351166],[-71.056305,42.35122],[-71.056339,42.35122],[-71.056364,42.351176]]],[[[-71.056338,42.35493],[-71.056307,42.35492],[-71.056274,42.354982],[-71.056308,42.354982],[-71.056338,42.35493]]],[[[-71.056328,42.354836],[-71.056297,42.354826],[-71.056264,42.354888],[-71.056298,42.354888],[-71.056328,42.354836]]],[[[-71.056309,42.35475],[-71.056276,42.35474],[-71.056241,42.354806],[-71.056277,42.354806],[-71.056309,42.35475]]],[[[-71.056306,42.35467],[-71.05628,42.354651],[-71.056256,42.354663],[-71.056222,42.354733],[-71.056246,42.354745],[-71.05627,42.354733],[-71.056306,42.35467]]],[[[-71.056258,42.351376],[-71.056227,42.351366],[-71.056148,42.351497],[-71.056181,42.351497],[-71.056258,42.351376]]],[[[-71.056256,42.350842],[-71.056225,42.350832],[-71.056192,42.350894],[-71.056226,42.350894],[-71.056256,42.350842]]],[[[-71.056248,42.35305],[-71.056217,42.35304],[-71.056189,42.353094],[-71.056223,42.353094],[-71.056248,42.35305]]],[[[-71.056226,42.350933],[-71.056195,42.350923],[-71.056162,42.350985],[-71.056196,42.350985],[-71.056226,42.350933]]],[[[-71.056186,42.351036],[-71.056155,42.351026],[-71.056122,42.351088],[-71.056156,42.351088],[-71.056186,42.351036]]],[[[-71.056148,42.351145],[-71.056117,42.351135],[-71.056084,42.351197],[-71.056118,42.351197],[-71.056148,42.351145]]],[[[-71.056078,42.35171],[-71.056047,42.3517],[-71.056018,42.351757],[-71.056051,42.351757],[-71.056078,42.35171]]],[[[-71.055977,42.351355],[-71.055946,42.351345],[-71.055913,42.351397],[-71.055856,42.351524],[-71.055866,42.351542],[-71.05589,42.351534],[-71.055919,42.351487],[-71.055977,42.351355]]],[[[-71.055888,42.351561],[-71.055857,42.351551],[-71.055795,42.351674],[-71.055829,42.351674],[-71.055888,42.351561]]],[[[-71.055869,42.352226],[-71.055839,42.352193],[-71.055786,42.352201],[-71.055701,42.352328],[-71.055701,42.352355],[-71.055746,42.352378],[-71.05578,42.352367],[-71.055869,42.352226]]],[[[-71.055808,42.351727],[-71.055777,42.351717],[-71.055724,42.351828],[-71.055758,42.351828],[-71.055808,42.351727]]],[[[-71.055788,42.353336],[-71.055768,42.353314],[-71.055733,42.353319],[-71.055644,42.353425],[-71.055608,42.353424],[-71.055577,42.353486],[-71.055603,42.353493],[-71.055631,42.353457],[-71.055648,42.353473],[-71.055679,42.353468],[-71.055711,42.35342],[-71.055748,42.353407],[-71.055788,42.353336]]],[[[-71.055558,42.353497],[-71.055527,42.353487],[-71.055497,42.353534],[-71.055493,42.35352],[-71.055467,42.35352],[-71.055438,42.353577],[-71.055461,42.353584],[-71.055494,42.35354],[-71.055498,42.353554],[-71.055524,42.353554],[-71.055558,42.353497]]],[[[-71.055262,42.353653],[-71.055244,42.35364],[-71.055189,42.353657],[-71.055154,42.353688],[-71.055116,42.353759],[-71.055146,42.353768],[-71.055194,42.353746],[-71.055262,42.353653]]]]},"properties":{"kind":"tree"}}]}