{"type":"FeatureCollection","features":[{"type":"Feature","geometry":{"type":"MultiPolygon","coordinates":[[[[-71.06703,42.351826],[-71.067007,42.351692],[-71.066747,42.351106],[-71.065578,42.351244],[-71.065991,42.350995],[-71.065959,42.350666],[-71.065871,42.350664],[-71.065953,42.350615],[-71.06593,42.350327],[-71.065758,42.350337],[-71.065713,42.350364],[-71.065671,42.350367],[-71.065916,42.350219],[-71.065881,42.34989],[-71.065796,42.349792],[-71.065851,42.34976],[-71.065941,42.349739],[-71.066095,42.349646],[-71.066029,42.34953],[-71.066107,42.349483],[-71.066051,42.349385],[-71.065989,42.349405],[-71.065874,42.349474],[-71.06562,42.349445],[-71.065521,42.349461],[-71.065236,42.349633],[-71.065146,42.350053],[-71.064888,42.350208],[-71.064861,42.350199],[-71.065043,42.35009],[-71.065169,42.349617],[-71.064416,42.349501],[-71.064318,42.34956],[-71.063761,42.349475],[-71.063653,42.349372],[-71.063696,42.349342],[-71.063746,42.349213],[-71.063772,42.349073],[-71.063736,42.349067],[-71.063827,42.348879],[-71.063865,42.348746],[-71.064114,42.348784],[-71.064018,42.349061],[-71.064261,42.349099],[-71.064154,42.349163],[-71.064107,42.34927],[-71.064124,42.349291],[-71.064037,42.349343],[-71.064286,42.349512],[-71.064485,42.349408],[-71.064553,42.349429],[-71.064815,42.349306],[-71.065092,42.34914],[-71.065189,42.34913],[-71.065279,42.349075],[-71.06533,42.348887],[-71.065326,42.348843],[-71.065377,42.348848],[-71.065522,42.348761],[-71.065537,42.348815],[-71.066075,42.348878],[-71.066458,42.348649],[-71.066483,42.348529],[-71.06591,42.348462],[-71.065995,42.348064],[-71.065837,42.348044],[-71.06537,42.348325],[-71.065343,42.348295],[-71.065475,42.348175],[-71.065475,42.348101],[-71.065402,42.348018],[-71.06552,42.347941],[-71.065529,42.347903],[-71.065491,42.347827],[-71.065392,42.347805],[-71.065371,42.347781],[-71.065289,42.347784],[-71.065318,42.347764],[-71.065319,42.347677],[-71.065257,42.347643],[-71.064894,42.347587],[-71.064503,42.347783],[-71.064311,42.347899],[-71.064197,42.348161],[-71.064148,42.348336],[-71.064184,42.348342],[-71.064285,42.348301],[-71.064308,42.348328],[-71.064574,42.348196],[-71.06463,42.348209],[-71.064497,42.348267],[-71.063905,42.348624],[-71.063945,42.348463],[-71.063647,42.348417],[-71.063724,42.348371],[-71.063855,42.34839],[-71.06402,42.348291],[-71.064113,42.347947],[-71.063968,42.347919],[-71.063639,42.348116],[-71.063538,42.348106],[-71.063606,42.347866],[-71.06346,42.347843],[-71.063329,42.347922],[-71.06326,42.348176],[-71.06323,42.348148],[-71.063187,42.348141],[-71.063147,42.348164],[-71.063024,42.348146],[-71.06305,42.348123],[-71.063162,42.348147],[-71.06328,42.348076],[-71.063299,42.348007],[-71.062961,42.347921],[-71.062873,42.347974],[-71.062735,42.347939],[-71.062577,42.348033],[-71.062534,42.348145],[-71.062581,42.348159],[-71.062492,42.348212],[-71.062465,42.34828],[-71.062537,42.34829],[-71.062332,42.348414],[-71.062176,42.348808],[-71.062267,42.348822],[-71.062157,42.348889],[-71.062141,42.348915],[-71.062022,42.349219],[-71.062034,42.349224],[-71.06198,42.349313],[-71.061982,42.349329],[-71.062061,42.349371],[-71.06189,42.349474],[-71.061975,42.34927],[-71.061808,42.349235],[-71.061839,42.34916],[-71.061745,42.349139],[-71.06172,42.34915],[-71.061783,42.348996],[-71.061761,42.348991],[-71.061778,42.348981],[-71.061895,42.34873],[-71.061814,42.348712],[-71.061866,42.348582],[-71.06212,42.34864],[-71.062216,42.348582],[-71.06226,42.348505],[-71.062367,42.34823],[-71.062255,42.348206],[-71.062091,42.348305],[-71.06205,42.348406],[-71.061947,42.348382],[-71.061979,42.348302],[-71.062411,42.348042],[-71.062446,42.347953],[-71.061926,42.347827],[-71.061745,42.347935],[-71.061866,42.34764],[-71.061712,42.347604],[-71.061141,42.347948],[-71.060978,42.348335],[-71.061068,42.348118],[-71.061011,42.348097],[-71.06012,42.348634],[-71.059658,42.349276],[-71.059879,42.349329],[-71.05943,42.3496],[-71.059216,42.350124],[-71.059047,42.350086],[-71.058996,42.350102],[-71.058712,42.350273],[-71.058405,42.351032],[-71.058437,42.351068],[-71.058511,42.351084],[-71.058398,42.351152],[-71.058127,42.35183],[-71.058323,42.351873],[-71.058558,42.351732],[-71.058615,42.351682],[-71.05877,42.351527],[-71.058901,42.35136],[-71.059038,42.351101],[-71.059003,42.351093],[-71.059198,42.350975],[-71.05932,42.350674],[-71.059335,42.350679],[-71.059605,42.350516],[-71.059564,42.350638],[-71.059606,42.350647],[-71.059581,42.35072],[-71.059791,42.350765],[-71.059837,42.350737],[-71.059907,42.350752],[-71.060023,42.350674],[-71.060039,42.350678],[-71.059777,42.351266],[-71.059758,42.351262],[-71.059466,42.351438],[-71.059417,42.351567],[-71.059427,42.351628],[-71.059405,42.351641],[-71.059434,42.351818],[-71.059488,42.351813],[-71.05949,42.351826],[-71.059386,42.351848],[-71.059056,42.352047],[-71.059059,42.352071],[-71.058261,42.35254],[-71.058142,42.35255],[-71.057776,42.35277],[-71.057688,42.352735],[-71.05756,42.352748],[-71.057285,42.352903],[-71.057163,42.352943],[-71.056634,42.353261],[-71.056242,42.353099],[-71.054811,42.353901],[-71.054391,42.354111],[-71.052742,42.355104],[-71.05271,42.355142],[-71.052709,42.355182],[-71.05297,42.355464],[-71.05302,42.355478],[-71.053073,42.355468],[-71.054736,42.354469],[-71.055077,42.354156],[-71.05522,42.354092],[-71.055404,42.353981],[-71.055506,42.354023],[-71.0549,42.35439],[-71.05488,42.354404],[-71.054921,42.354442],[-71.054806,42.354512],[-71.054823,42.354528],[-71.054629,42.354645],[-71.054538,42.354727],[-71.054396,42.354822],[-71.053722,42.355241],[-71.05374,42.355257],[-71.053564,42.355364],[-71.053563,42.355402],[-71.053598,42.355433],[-71.053588,42.355445],[-71.053656,42.355515],[-71.053682,42.355512],[-71.053724,42.35555],[-71.053774,42.355554],[-71.053944,42.355452],[-71.05397,42.355476],[-71.054603,42.355094],[-71.054918,42.354949],[-71.055166,42.3548],[-71.055195,42.354878],[-71.055355,42.354853],[-71.054588,42.355315],[-71.054611,42.355445],[-71.053202,42.356294],[-71.053308,42.356872],[-71.05376,42.356828],[-71.055062,42.356044],[-71.055846,42.35598],[-71.057349,42.355074],[-71.057329,42.354923],[-71.05689,42.354747],[-71.056679,42.354763],[-71.057481,42.354289],[-71.057536,42.354306],[-71.057228,42.354772],[-71.057617,42.354894],[-71.057938,42.3547],[-71.058179,42.354467],[-71.058226,42.354503],[-71.057772,42.354928],[-71.057542,42.355067],[-71.057485,42.355122],[-71.057594,42.355339],[-71.057721,42.355354],[-71.057784,42.355332],[-71.058451,42.354923],[-71.058717,42.354663],[-71.058798,42.354671],[-71.059313,42.354361],[-71.05934,42.354466],[-71.059145,42.354628],[-71.059081,42.35459],[-71.059033,42.354595],[-71.058903,42.354673],[-71.058749,42.354814],[-71.058557,42.354929],[-71.058232,42.355228],[-71.058236,42.355254],[-71.0584,42.355326],[-71.058028,42.355563],[-71.057748,42.355838],[-71.057822,42.355893],[-71.058114,42.356012],[-71.058895,42.355541],[-71.058922,42.355552],[-71.059228,42.355368],[-71.059383,42.355224],[-71.059667,42.355438],[-71.059983,42.355259],[-71.060319,42.355492],[-71.060496,42.355387],[-71.060574,42.355319],[-71.061258,42.354669],[-71.061377,42.354672],[-71.061291,42.354752],[-71.06107,42.354893],[-71.061016,42.354943],[-71.060851,42.355098],[-71.060891,42.355119],[-71.060717,42.355283],[-71.06103,42.35544],[-71.061373,42.355233],[-71.061465,42.355133],[-71.061508,42.355155],[-71.061495,42.355169],[-71.061761,42.355307],[-71.06178,42.355296],[-71.061919,42.355367],[-71.062058,42.355283],[-71.062045,42.355308],[-71.062129,42.355344],[-71.062349,42.355402],[-71.062536,42.35529],[-71.062796,42.355416],[-71.063118,42.355222],[-71.06318,42.355155],[-71.06313,42.355119],[-71.063255,42.355044],[-71.063852,42.353943],[-71.063862,42.353896],[-71.063813,42.353881],[-71.063892,42.353833],[-71.063985,42.353676],[-71.063998,42.353634],[-71.063946,42.353618],[-71.064052,42.353554],[-71.064097,42.353425],[-71.063972,42.353401],[-71.064146,42.353296],[-71.064309,42.35284],[-71.064267,42.352837],[-71.064309,42.352812],[-71.064353,42.352644],[-71.064542,42.352651],[-71.06454,42.352667],[-71.064642,42.352677],[-71.064958,42.352689],[-71.065151,42.352573],[-71.065182,42.352575],[-71.065165,42.352682],[-71.065362,42.352697],[-71.065618,42.352543],[-71.065625,42.352593],[-71.065721,42.352598],[-71.066063,42.352392],[-71.066072,42.35228],[-71.06627,42.352169],[-71.066347,42.352172],[-71.06653,42.352127],[-71.06703,42.351826]],[[-71.06533,42.348748],[-71.065307,42.348761],[-71.065301,42.348744],[-71.06533,42.348748]],[[-71.065322,42.348461],[-71.065274,42.348687],[-71.064992,42.348617],[-71.064594,42.34857],[-71.064806,42.348442],[-71.06485,42.348362],[-71.064899,42.34834],[-71.065043,42.348506],[-71.065058,42.348498],[-71.065066,42.348513],[-71.065322,42.348461]],[[-71.065191,42.350659],[-71.064848,42.35087],[-71.064855,42.350843],[-71.064841,42.350842],[-71.064902,42.350642],[-71.064887,42.350636],[-71.065134,42.350621],[-71.065126,42.350649],[-71.065191,42.350659]],[[-71.063972,42.350309],[-71.063839,42.3504],[-71.063818,42.350402],[-71.063972,42.350309]],[[-71.063925,42.351926],[-71.063857,42.351955],[-71.063874,42.35192],[-71.063925,42.351926]],[[-71.063856,42.351106],[-71.063818,42.351129],[-71.06329,42.35107],[-71.06327,42.351082],[-71.063526,42.350915],[-71.063538,42.350917],[-71.063495,42.350984],[-71.063856,42.351106]],[[-71.06366,42.353629],[-71.063582,42.353676],[-71.063613,42.353618],[-71.06366,42.353629]],[[-71.063597,42.348429],[-71.063439,42.348524],[-71.063476,42.348381],[-71.063122,42.348327],[-71.063204,42.348278],[-71.0632,42.348292],[-71.063463,42.348332],[-71.063465,42.348368],[-71.063481,42.348371],[-71.063503,42.348415],[-71.063597,42.348429]],[[-71.063436,42.350426],[-71.062987,42.350697],[-71.063119,42.350283],[-71.063241,42.35021],[-71.063436,42.350426]],[[-71.06326,42.352366],[-71.063259,42.352387],[-71.0632,42.352402],[-71.06326,42.352366]],[[-71.063189,42.351576],[-71.062895,42.351546],[-71.062675,42.351679],[-71.062678,42.351664],[-71.06256,42.351626],[-71.062728,42.351525],[-71.062774,42.351346],[-71.062804,42.35135],[-71.062864,42.351314],[-71.062852,42.351356],[-71.062862,42.351368],[-71.062809,42.351525],[-71.063189,42.351576]],[[-71.063054,42.348942],[-71.063042,42.348985],[-71.062965,42.349032],[-71.06302,42.348937],[-71.063054,42.348942]],[[-71.062951,42.3481],[-71.062941,42.348132],[-71.062886,42.348123],[-71.062761,42.348192],[-71.062771,42.348156],[-71.062871,42.348095],[-71.062951,42.3481]],[[-71.062919,42.352433],[-71.062767,42.352449],[-71.062813,42.352421],[-71.062919,42.352433]],[[-71.062722,42.348215],[-71.062709,42.348265],[-71.062653,42.348257],[-71.062722,42.348215]],[[-71.062615,42.351002],[-71.062614,42.351003],[-71.062612,42.351003],[-71.062615,42.351002]],[[-71.062547,42.353495],[-71.06219,42.353711],[-71.062302,42.35355],[-71.06241,42.353485],[-71.062547,42.353495]],[[-71.062481,42.349298],[-71.062412,42.349382],[-71.062343,42.349351],[-71.062454,42.349286],[-71.062481,42.349298]],[[-71.062103,42.354836],[-71.062068,42.354824],[-71.062072,42.354821],[-71.062103,42.354836]],[[-71.0619,42.351528],[-71.061868,42.351529],[-71.061898,42.351511],[-71.0619,42.351528]],[[-71.061793,42.349664],[-71.061756,42.349753],[-71.061691,42.349726],[-71.061793,42.349664]],[[-71.061732,42.349988],[-71.061672,42.350024],[-71.061693,42.349972],[-71.061732,42.349988]],[[-71.061718,42.348288],[-71.061521,42.348776],[-71.061431,42.34883],[-71.061436,42.348818],[-71.061387,42.348782],[-71.061479,42.348726],[-71.061599,42.348422],[-71.061619,42.34841],[-71.06164,42.348359],[-71.061414,42.348308],[-71.061334,42.348356],[-71.061269,42.348334],[-71.061277,42.348313],[-71.061427,42.348223],[-71.061718,42.348288]],[[-71.061498,42.350495],[-71.061487,42.350521],[-71.061243,42.350675],[-71.061202,42.350664],[-71.061498,42.350495]],[[-71.061372,42.34897],[-71.061361,42.349],[-71.061333,42.348994],[-71.061372,42.34897]],[[-71.06135,42.349102],[-71.061337,42.349136],[-71.061347,42.349151],[-71.061315,42.349195],[-71.06135,42.349102]],[[-71.061347,42.351034],[-71.061284,42.351237],[-71.061123,42.351334],[-71.061227,42.351071],[-71.060769,42.350979],[-71.060542,42.351116],[-71.060595,42.350984],[-71.060568,42.350978],[-71.060698,42.350654],[-71.060761,42.35067],[-71.060721,42.350694],[-71.060661,42.350881],[-71.060877,42.350929],[-71.061018,42.350913],[-71.061012,42.350931],[-71.061132,42.350959],[-71.061248,42.350896],[-71.061341,42.350919],[-71.061309,42.350938],[-71.061277,42.351018],[-71.061347,42.351034]],[[-71.061322,42.353334],[-71.061288,42.353355],[-71.061296,42.353335],[-71.061322,42.353334]],[[-71.061301,42.349245],[-71.061273,42.349289],[-71.061297,42.349234],[-71.061301,42.349245]],[[-71.06125,42.348588],[-71.061092,42.348683],[-71.061048,42.34879],[-71.061086,42.348799],[-71.060943,42.348884],[-71.060926,42.348913],[-71.060878,42.348902],[-71.060723,42.348996],[-71.060608,42.349326],[-71.060839,42.349416],[-71.060855,42.349406],[-71.060848,42.349424],[-71.061052,42.349515],[-71.06112,42.349474],[-71.061075,42.349587],[-71.06101,42.349626],[-71.060953,42.349781],[-71.060843,42.349847],[-71.0608,42.349956],[-71.060509,42.349891],[-71.060269,42.350035],[-71.060327,42.349891],[-71.060266,42.349808],[-71.060367,42.349747],[-71.060567,42.349259],[-71.060443,42.349109],[-71.060334,42.349068],[-71.060786,42.348796],[-71.060951,42.348398],[-71.060933,42.348457],[-71.060943,42.348459],[-71.060928,42.348468],[-71.060874,42.348624],[-71.060897,42.348629],[-71.060856,42.348711],[-71.060972,42.348741],[-71.061127,42.348648],[-71.061182,42.348516],[-71.061211,42.348498],[-71.0612,42.348525],[-71.06125,42.348588]],[[-71.061156,42.352187],[-71.061121,42.352208],[-71.061113,42.352113],[-71.061141,42.352112],[-71.061156,42.352187]],[[-71.061024,42.349207],[-71.060936,42.349221],[-71.060881,42.349201],[-71.06092,42.349177],[-71.061024,42.349207]],[[-71.060975,42.350224],[-71.060838,42.350309],[-71.060887,42.350188],[-71.060975,42.350224]],[[-71.060669,42.350429],[-71.060637,42.350509],[-71.060568,42.35049],[-71.060669,42.350429]],[[-71.060517,42.353185],[-71.060288,42.353442],[-71.060348,42.35348],[-71.060111,42.353623],[-71.059811,42.353458],[-71.05978,42.353476],[-71.059695,42.35344],[-71.059759,42.353402],[-71.059885,42.353467],[-71.06021,42.353271],[-71.060282,42.353194],[-71.060404,42.353254],[-71.060517,42.353185]],[[-71.060426,42.351754],[-71.060384,42.351779],[-71.060371,42.351742],[-71.060426,42.351754]],[[-71.060366,42.351341],[-71.060325,42.35144],[-71.060275,42.35147],[-71.060248,42.351387],[-71.060279,42.351393],[-71.060366,42.351341]],[[-71.060279,42.352159],[-71.060185,42.352215],[-71.060118,42.352221],[-71.059743,42.352447],[-71.059715,42.35226],[-71.059695,42.352262],[-71.059782,42.352253],[-71.059984,42.352131],[-71.060075,42.352106],[-71.060081,42.352121],[-71.060259,42.352091],[-71.060279,42.352159]],[[-71.060086,42.352792],[-71.060043,42.352818],[-71.060005,42.35294],[-71.059657,42.352762],[-71.059553,42.352772],[-71.059357,42.35289],[-71.059331,42.352667],[-71.059424,42.352673],[-71.059704,42.352505],[-71.059742,42.352757],[-71.060083,42.352755],[-71.060086,42.352792]],[[-71.060052,42.351867],[-71.06,42.351898],[-71.059961,42.351658],[-71.059986,42.351656],[-71.060052,42.351867]],[[-71.059303,42.353468],[-71.058902,42.353709],[-71.059212,42.353421],[-71.059303,42.353468]],[[-71.059176,42.353377],[-71.0591,42.353376],[-71.059169,42.353334],[-71.059176,42.353377]],[[-71.059138,42.352552],[-71.059104,42.352548],[-71.059135,42.35253],[-71.059138,42.352552]],[[-71.05888,42.353729],[-71.058843,42.35376],[-71.058838,42.353755],[-71.05888,42.353729]],[[-71.058819,42.353852],[-71.058732,42.353951],[-71.058759,42.353967],[-71.058501,42.354123],[-71.058446,42.354087],[-71.05861,42.353988],[-71.058779,42.353828],[-71.058819,42.353852]],[[-71.056036,42.353789],[-71.055891,42.353852],[-71.055627,42.354011],[-71.055593,42.353986],[-71.055766,42.353905],[-71.056023,42.35375],[-71.056036,42.353789]]],[[[-71.065565,42.354342],[-71.065534,42.354305],[-71.065469,42.354307],[-71.065341,42.354384],[-71.065323,42.354431],[-71.065358,42.35446],[-71.065405,42.354461],[-71.065545,42.354379],[-71.065565,42.354342]]],[[[-71.065421,42.352871],[-71.065303,42.352844],[-71.065235,42.352885],[-71.065218,42.352932],[-71.065244,42.353013],[-71.06531,42.353027],[-71.065378,42.352986],[-71.065421,42.352871]]],[[[-71.06461,42.353278],[-71.064542,42.353266],[-71.064492,42.353296],[-71.064458,42.353396],[-71.064526,42.35341],[-71.064576,42.35338],[-71.06461,42.353278]]],[[[-71.063935,42.354829],[-71.063869,42.354811],[-71.063822,42.35484],[-71.063799,42.354889],[-71.063865,42.354906],[-71.063912,42.354877],[-71.063935,42.354829]]],[[[-71.059318,42.349726],[-71.059179,42.349693],[-71.059108,42.349736],[-71.059034,42.349909],[-71.059173,42.349942],[-71.059244,42.349899],[-71.059318,42.349726]]],[[[-71.058776,42.350034],[-71.058372,42.349945],[-71.058266,42.350009],[-71.058289,42.349924],[-71.058018,42.349864],[-71.058297,42.349696],[-71.058424,42.349376],[-71.057926,42.349266],[-71.057801,42.349341],[-71.057734,42.349508],[-71.057766,42.349515],[-71.057546,42.349648],[-71.057505,42.349749],[-71.057133,42.349667],[-71.056612,42.349981],[-71.056511,42.350212],[-71.056642,42.350245],[-71.056631,42.35027],[-71.05655,42.350319],[-71.056521,42.350368],[-71.056484,42.350391],[-71.056373,42.350586],[-71.056242,42.350665],[-71.056434,42.350281],[-71.056635,42.349782],[-71.056775,42.349199],[-71.056596,42.349149],[-71.055487,42.349466],[-71.055397,42.34952],[-71.056683,42.347603],[-71.056673,42.347544],[-71.055908,42.347262],[-71.055666,42.347408],[-71.054293,42.349439],[-71.05426,42.349489],[-71.054258,42.349524],[-71.054036,42.349657],[-71.053066,42.3511],[-71.053647,42.351315],[-71.053949,42.351134],[-71.054228,42.351237],[-71.054337,42.351171],[-71.054767,42.350531],[-71.054709,42.350646],[-71.054767,42.350662],[-71.054865,42.350603],[-71.055113,42.350792],[-71.055298,42.350853],[-71.0559,42.350842],[-71.055984,42.350826],[-71.056215,42.350687],[-71.056196,42.350724],[-71.0562,42.350753],[-71.056253,42.350806],[-71.056342,42.350815],[-71.056448,42.350761],[-71.056472,42.350767],[-71.056381,42.350822],[-71.056263,42.351067],[-71.056322,42.351081],[-71.056218,42.351144],[-71.056076,42.351445],[-71.056094,42.351452],[-71.055774,42.351644],[-71.055559,42.352078],[-71.055871,42.35216],[-71.055866,42.352172],[-71.055229,42.352555],[-71.055212,42.35259],[-71.053476,42.353637],[-71.053399,42.353801],[-71.053993,42.35395],[-71.054275,42.353845],[-71.055562,42.353069],[-71.056148,42.352912],[-71.056859,42.352484],[-71.056962,42.352321],[-71.057531,42.352489],[-71.057949,42.352238],[-71.058115,42.351737],[-71.058103,42.35172],[-71.058035,42.351709],[-71.058131,42.351651],[-71.058414,42.350953],[-71.058104,42.350876],[-71.058041,42.350914],[-71.058045,42.350899],[-71.058094,42.35087],[-71.058316,42.350916],[-71.058459,42.35083],[-71.058581,42.350557],[-71.058587,42.350541],[-71.058574,42.350538],[-71.058706,42.35021],[-71.058767,42.350099],[-71.058776,42.350034]],[[-71.057927,42.350821],[-71.05792,42.350843],[-71.057899,42.350838],[-71.057927,42.350821]],[[-71.057678,42.349933],[-71.057439,42.350077],[-71.057449,42.350027],[-71.057624,42.349921],[-71.057678,42.349933]],[[-71.057526,42.3499],[-71.057467,42.349935],[-71.057474,42.349903],[-71.057492,42.349892],[-71.057526,42.3499]],[[-71.057428,42.350832],[-71.057274,42.350925],[-71.057281,42.350889],[-71.057401,42.350826],[-71.057428,42.350832]],[[-71.057187,42.350634],[-71.057182,42.350656],[-71.057159,42.350651],[-71.057187,42.350634]],[[-71.057134,42.351741],[-71.057131,42.351743],[-71.057132,42.35174],[-71.057134,42.351741]],[[-71.057087,42.351561],[-71.057069,42.351653],[-71.056992,42.351618],[-71.057087,42.351561]],[[-71.05689,42.352138],[-71.056879,42.3522],[-71.056813,42.352185],[-71.05689,42.352138]]],[[[-71.058071,42.348706],[-71.057613,42.348605],[-71.05697,42.348993],[-71.056886,42.349202],[-71.057345,42.349303],[-71.057988,42.348915],[-71.058071,42.348706]]],[[[-71.055768,42.35162],[-71.055498,42.351545],[-71.054479,42.351779],[-71.054089,42.352014],[-71.053917,42.352189],[-71.054443,42.352467],[-71.054603,42.352518],[-71.054771,42.352543],[-71.054948,42.352503],[-71.055338,42.352268],[-71.055458,42.352178],[-71.055549,42.352069],[-71.055768,42.35162]]]]},"properties":{"kind":"building"}},{"type":"Feature","geometry":{"type":"MultiPolygon","coordinates":[[[[-71.066058,42.353451],[-71.066047,42.35341],[-71.066015,42.353375],[-71.065912,42.353343],[-71.065809,42.353375],[-71.065593,42.353505],[-71.065583,42.353467],[-71.065551,42.353432],[-71.065504,42.353408],[-71.065448,42.3534],[-71.065378,42.353415],[-71.06535,42.35339],[-71.065517,42.353294],[-71.065543,42.353314],[-71.065545,42.353362],[-71.065565,42.353384],[-71.065632,42.353404],[-71.065668,42.353399],[-71.065911,42.353246],[-71.065911,42.353192],[-71.065878,42.353164],[-71.066007,42.353073],[-71.066016,42.353039],[-71.065996,42.352993],[-71.066039,42.352955],[-71.066048,42.352923],[-71.066021,42.352832],[-71.065989,42.352797],[-71.065886,42.352765],[-71.06583,42.352773],[-71.065768,42.352805],[-71.065774,42.352784],[-71.065755,42.352747],[-71.065812,42.352747],[-71.066,42.352636],[-71.066022,42.352597],[-71.065976,42.352546],[-71.065918,42.352546],[-71.06588,42.352567],[-71.065841,42.352538],[-71.065759,42.35255],[-71.065717,42.352522],[-71.065659,42.352522],[-71.065471,42.352633],[-71.065302,42.352747],[-71.065302,42.352799],[-71.065322,42.352821],[-71.065386,42.35284],[-71.065421,42.352835],[-71.065601,42.35273],[-71.065636,42.352741],[-71.065574,42.352779],[-71.065493,42.352798],[-71.065296,42.352917],[-71.06527,42.352956],[-71.06522,42.352941],[-71.065096,42.353015],[-71.065087,42.353046],[-71.065109,42.353062],[-71.065023,42.353125],[-71.065022,42.353162],[-71.064976,42.353168],[-71.064801,42.35326],[-71.064928,42.353148],[-71.064931,42.353075],[-71.064989,42.353061],[-71.065164,42.352948],[-71.065169,42.352928],[-71.065149,42.352891],[-71.065175,42.352866],[-71.065166,42.352828],[-71.065204,42.352785],[-71.065457,42.352616],[-71.065465,42.352587],[-71.065434,42.352533],[-71.065361,42.35251],[-71.065288,42.352533],[-71.065058,42.352682],[-71.065058,42.352741],[-71.065081,42.352766],[-71.064952,42.352853],[-71.064959,42.352942],[-71.064888,42.352987],[-71.064869,42.353017],[-71.06483,42.352952],[-71.064791,42.352933],[-71.064699,42.352933],[-71.064429,42.353091],[-71.064403,42.35312],[-71.064394,42.353154],[-71.06442,42.353206],[-71.064402,42.353255],[-71.064413,42.353296],[-71.06446,42.353338],[-71.064365,42.353396],[-71.064332,42.353453],[-71.064365,42.353511],[-71.0644,42.353529],[-71.064485,42.353529],[-71.064208,42.353712],[-71.064208,42.353748],[-71.064174,42.353782],[-71.064174,42.353818],[-71.064145,42.353859],[-71.064178,42.353896],[-71.064098,42.353944],[-71.064073,42.353988],[-71.064071,42.354072],[-71.064128,42.354107],[-71.063945,42.35425],[-71.063945,42.354292],[-71.063961,42.35431],[-71.063884,42.35439],[-71.063877,42.354418],[-71.063788,42.354481],[-71.063788,42.354526],[-71.063658,42.354629],[-71.063647,42.354671],[-71.063686,42.354743],[-71.063622,42.354791],[-71.06362,42.354831],[-71.063586,42.35486],[-71.063586,42.354904],[-71.063629,42.354935],[-71.063688,42.354935],[-71.063882,42.354821],[-71.063962,42.354707],[-71.064141,42.354599],[-71.064173,42.354564],[-71.064184,42.354523],[-71.064173,42.354482],[-71.064367,42.35436],[-71.064408,42.354292],[-71.064602,42.354175],[-71.064645,42.354118],[-71.064712,42.35412],[-71.064929,42.353983],[-71.064929,42.353937],[-71.064885,42.353905],[-71.064823,42.353905],[-71.064767,42.353936],[-71.064785,42.3539],[-71.064779,42.353878],[-71.064737,42.353847],[-71.064677,42.353847],[-71.064634,42.35387],[-71.064632,42.353832],[-71.064588,42.3538],[-71.064508,42.353809],[-71.064437,42.353774],[-71.064387,42.353789],[-71.064442,42.35373],[-71.0645,42.35371],[-71.064715,42.353574],[-71.064736,42.353611],[-71.064812,42.353623],[-71.064845,42.353679],[-71.064885,42.353699],[-71.06498,42.353699],[-71.065057,42.353657],[-71.065068,42.353697],[-71.0651,42.353732],[-71.065147,42.353755],[-71.065203,42.353763],[-71.065284,42.353743],[-71.065284,42.353763],[-71.065145,42.353846],[-71.065128,42.353892],[-71.064886,42.354063],[-71.0649,42.354115],[-71.064946,42.354129],[-71.065104,42.354048],[-71.065009,42.354118],[-71.064991,42.354148],[-71.06486,42.354233],[-71.064847,42.354279],[-71.064736,42.354346],[-71.06472,42.354373],[-71.064699,42.35437],[-71.064759,42.354322],[-71.064759,42.354284],[-71.064911,42.354184],[-71.064911,42.354156],[-71.064885,42.354137],[-71.064832,42.354145],[-71.064493,42.35436],[-71.064473,42.354396],[-71.064486,42.354424],[-71.064326,42.354529],[-71.064205,42.354646],[-71.064038,42.354766],[-71.064026,42.35481],[-71.064077,42.354835],[-71.064213,42.354765],[-71.064078,42.354857],[-71.064078,42.354897],[-71.064117,42.354926],[-71.064171,42.354926],[-71.064354,42.354818],[-71.06437,42.354765],[-71.064439,42.354724],[-71.064455,42.354695],[-71.064646,42.354583],[-71.064668,42.354621],[-71.064694,42.354634],[-71.064757,42.354634],[-71.064838,42.354588],[-71.064884,42.354587],[-71.065049,42.35449],[-71.065067,42.354458],[-71.065029,42.354416],[-71.064868,42.354419],[-71.064805,42.354454],[-71.064789,42.354409],[-71.06494,42.354321],[-71.064955,42.354294],[-71.065082,42.35421],[-71.065099,42.354179],[-71.065361,42.354004],[-71.06538,42.353971],[-71.065437,42.35398],[-71.065585,42.353893],[-71.065596,42.353851],[-71.065538,42.353829],[-71.065621,42.353773],[-71.065608,42.353725],[-71.065545,42.353716],[-71.065415,42.353792],[-71.065411,42.35377],[-71.065532,42.353697],[-71.06555,42.353665],[-71.065611,42.353698],[-71.065723,42.353698],[-71.066015,42.353527],[-71.066047,42.353492],[-71.066058,42.353451]],[[-71.065725,42.352729],[-71.065703,42.352725],[-71.065715,42.352718],[-71.065725,42.352729]],[[-71.06553,42.353632],[-71.065492,42.35362],[-71.065522,42.353602],[-71.06553,42.353632]],[[-71.065372,42.353854],[-71.065282,42.353909],[-71.065287,42.353892],[-71.065369,42.353841],[-71.065372,42.353854]],[[-71.065317,42.353029],[-71.065242,42.353001],[-71.065271,42.352979],[-71.065317,42.353029]],[[-71.065289,42.353097],[-71.065209,42.353152],[-71.065202,42.353138],[-71.065289,42.353097]],[[-71.065251,42.353935],[-71.065248,42.353949],[-71.065158,42.354003],[-71.065251,42.353935]],[[-71.065198,42.353209],[-71.065127,42.353248],[-71.065123,42.353224],[-71.065196,42.35318],[-71.065198,42.353209]],[[-71.064879,42.353431],[-71.064874,42.353451],[-71.064729,42.353544],[-71.064724,42.353508],[-71.064702,42.353483],[-71.06467,42.353467],[-71.064594,42.353467],[-71.064616,42.353454],[-71.064676,42.353457],[-71.064723,42.353431],[-71.064802,42.353455],[-71.064879,42.353431]],[[-71.064399,42.354629],[-71.064363,42.35465],[-71.064397,42.354622],[-71.064399,42.354629]],[[-71.064388,42.354019],[-71.064356,42.354045],[-71.064313,42.354026],[-71.064341,42.354009],[-71.064388,42.354019]],[[-71.064363,42.354116],[-71.064359,42.354118],[-71.064362,42.354114],[-71.064363,42.354116]],[[-71.064316,42.354684],[-71.064264,42.354725],[-71.064267,42.354714],[-71.064316,42.354684]]],[[[-71.066046,42.354972],[-71.066026,42.354936],[-71.065952,42.354925],[-71.065775,42.355029],[-71.065755,42.355065],[-71.065761,42.355084],[-71.065798,42.355112],[-71.06585,42.355112],[-71.066026,42.355008],[-71.066046,42.354972]]],[[[-71.06602,42.354061],[-71.065981,42.354032],[-71.065925,42.354058],[-71.06587,42.354048],[-71.065729,42.354131],[-71.065718,42.354171],[-71.065763,42.354193],[-71.065848,42.354152],[-71.065884,42.354155],[-71.066009,42.354081],[-71.06602,42.354061]]],[[[-71.06597,42.354146],[-71.065931,42.354134],[-71.065837,42.354199],[-71.065875,42.354211],[-71.06597,42.354146]]],[[[-71.065865,42.354468],[-71.065827,42.3544],[-71.065785,42.354379],[-71.065685,42.354379],[-71.065398,42.354548],[-71.06536,42.354616],[-71.06537,42.354652],[-71.06544,42.354704],[-71.06554,42.354704],[-71.065827,42.354536],[-71.065865,42.354468]]],[[[-71.06583,42.348038],[-71.065811,42.348004],[-71.06574,42.347994],[-71.06557,42.348094],[-71.065555,42.348146],[-71.065591,42.348172],[-71.06564,42.348172],[-71.065811,42.348072],[-71.06583,42.348038]]],[[[-71.06579,42.34818],[-71.065774,42.348151],[-71.065714,42.348142],[-71.065561,42.348233],[-71.065549,42.348277],[-71.065579,42.348299],[-71.065621,42.348299],[-71.065774,42.348209],[-71.06579,42.34818]]],[[[-71.065764,42.353939],[-71.065734,42.353906],[-71.065681,42.353914],[-71.065555,42.353989],[-71.065493,42.354052],[-71.065493,42.35408],[-71.065538,42.354102],[-71.065573,42.354091],[-71.065698,42.354015],[-71.065764,42.353939]]],[[[-71.065738,42.348446],[-71.065721,42.348415],[-71.065658,42.348406],[-71.065499,42.3485],[-71.065486,42.348547],[-71.065518,42.34857],[-71.065562,42.34857],[-71.065721,42.348477],[-71.065738,42.348446]]],[[[-71.065728,42.348293],[-71.065697,42.348283],[-71.065628,42.348332],[-71.065659,42.348341],[-71.065728,42.348293]]],[[[-71.065683,42.354843],[-71.065674,42.354808],[-71.065607,42.354759],[-71.06556,42.354752],[-71.065482,42.354774],[-71.065466,42.354722],[-71.065418,42.354708],[-71.065359,42.354729],[-71.065327,42.354655],[-71.065232,42.354615],[-71.065172,42.354615],[-71.064978,42.354729],[-71.064958,42.354762],[-71.064907,42.354757],[-71.064754,42.354848],[-71.064742,42.354892],[-71.064772,42.354914],[-71.064527,42.355056],[-71.064496,42.355111],[-71.064527,42.355165],[-71.064561,42.355181],[-71.06464,42.355181],[-71.06488,42.35504],[-71.064903,42.355015],[-71.064903,42.354957],[-71.06488,42.354932],[-71.06482,42.354911],[-71.064885,42.354873],[-71.065,42.354939],[-71.065071,42.354931],[-71.065117,42.354981],[-71.065174,42.354981],[-71.065207,42.354963],[-71.065211,42.35502],[-71.065237,42.355049],[-71.065325,42.355076],[-71.065372,42.355069],[-71.065647,42.354907],[-71.065683,42.354843]]],[[[-71.065598,42.348957],[-71.065567,42.348947],[-71.065503,42.348993],[-71.065534,42.349002],[-71.065598,42.348957]]],[[[-71.065588,42.351223],[-71.065557,42.351213],[-71.065478,42.351267],[-71.065509,42.351277],[-71.065588,42.351223]]],[[[-71.065562,42.349094],[-71.065531,42.349084],[-71.065467,42.34913],[-71.065498,42.349139],[-71.065562,42.349094]]],[[[-71.065559,42.349236],[-71.065544,42.349211],[-71.065491,42.349203],[-71.065367,42.349276],[-71.065356,42.349315],[-71.065383,42.349335],[-71.06542,42.349335],[-71.065544,42.349261],[-71.065559,42.349236]]],[[[-71.065552,42.348316],[-71.065534,42.348284],[-71.065466,42.348274],[-71.065302,42.348371],[-71.065288,42.348421],[-71.065322,42.348445],[-71.065369,42.348445],[-71.065534,42.348348],[-71.065552,42.348316]]],[[[-71.065548,42.34811],[-71.065517,42.3481],[-71.065448,42.348149],[-71.065479,42.348158],[-71.065548,42.34811]]],[[[-71.065483,42.348446],[-71.065444,42.348434],[-71.06535,42.348499],[-71.065388,42.348511],[-71.065483,42.348446]]],[[[-71.065433,42.34879],[-71.065418,42.348765],[-71.065365,42.348757],[-71.065241,42.34883],[-71.06523,42.348869],[-71.065257,42.348889],[-71.065294,42.348889],[-71.065418,42.348815],[-71.065433,42.34879]]],[[[-71.065396,42.34894],[-71.065385,42.348921],[-71.065346,42.348916],[-71.065228,42.348986],[-71.06522,42.349014],[-71.065267,42.349029],[-71.065396,42.34894]]],[[[-71.065379,42.34907],[-71.065364,42.349045],[-71.065311,42.349037],[-71.06517,42.34912],[-71.065159,42.34916],[-71.065186,42.349179],[-71.065223,42.349179],[-71.065364,42.349095],[-71.065379,42.34907]]],[[[-71.065368,42.35121],[-71.065337,42.3512],[-71.065263,42.351251],[-71.065294,42.351261],[-71.065368,42.35121]]],[[[-71.065268,42.35121],[-71.065237,42.3512],[-71.065168,42.351249],[-71.065199,42.351258],[-71.065268,42.35121]]],[[[-71.065176,42.35072],[-71.06514,42.350702],[-71.065039,42.350762],[-71.065039,42.350789],[-71.065067,42.350793],[-71.065014,42.350826],[-71.065014,42.350853],[-71.065042,42.350857],[-71.065143,42.350798],[-71.065143,42.35077],[-71.065115,42.350766],[-71.065176,42.35072]]],[[[-71.065129,42.350853],[-71.065096,42.350843],[-71.065008,42.350903],[-71.065041,42.350913],[-71.065129,42.350853]]],[[[-71.065109,42.352581],[-71.065081,42.35253],[-71.065049,42.352515],[-71.064975,42.352515],[-71.064746,42.352649],[-71.064717,42.3527],[-71.064725,42.352727],[-71.064778,42.352766],[-71.064852,42.352766],[-71.065081,42.352632],[-71.065109,42.352581]]],[[[-71.065103,42.354592],[-71.065085,42.35456],[-71.065041,42.354546],[-71.064934,42.354598],[-71.064841,42.354613],[-71.064633,42.354748],[-71.064626,42.354774],[-71.064652,42.354821],[-71.06464,42.354841],[-71.064717,42.354841],[-71.064782,42.354822],[-71.064969,42.354709],[-71.065085,42.354624],[-71.065103,42.354592]]],[[[-71.064944,42.35131],[-71.064913,42.3513],[-71.064839,42.351351],[-71.06487,42.351361],[-71.064944,42.35131]]],[[[-71.064857,42.348456],[-71.064826,42.348446],[-71.064757,42.348495],[-71.064788,42.348504],[-71.064857,42.348456]]],[[[-71.064624,42.351826],[-71.064593,42.351816],[-71.064524,42.351865],[-71.064555,42.351874],[-71.064624,42.351826]]],[[[-71.064621,42.348425],[-71.06459,42.348415],[-71.064521,42.348464],[-71.064552,42.348473],[-71.064621,42.348425]]],[[[-71.064568,42.352055],[-71.064537,42.352045],[-71.064463,42.352096],[-71.064494,42.352106],[-71.064568,42.352055]]],[[[-71.064564,42.352104],[-71.064531,42.352094],[-71.064443,42.352154],[-71.064476,42.352164],[-71.064564,42.352104]]],[[[-71.064548,42.35216],[-71.064517,42.35215],[-71.064448,42.352199],[-71.064479,42.352208],[-71.064548,42.35216]]],[[[-71.064436,42.348399],[-71.064405,42.348389],[-71.064336,42.348438],[-71.064367,42.348447],[-71.064436,42.348399]]],[[[-71.064238,42.350925],[-71.064207,42.350915],[-71.064138,42.350964],[-71.064169,42.350973],[-71.064238,42.350925]]],[[[-71.064209,42.34872],[-71.06417,42.348708],[-71.064076,42.348773],[-71.064114,42.348785],[-71.064209,42.34872]]],[[[-71.064168,42.34884],[-71.064137,42.34883],[-71.064054,42.348887],[-71.064085,42.348897],[-71.064168,42.34884]]],[[[-71.064148,42.350914],[-71.064117,42.350904],[-71.064048,42.350953],[-71.064079,42.350962],[-71.064148,42.350914]]],[[[-71.064088,42.3533],[-71.064057,42.35329],[-71.063974,42.353347],[-71.064005,42.353357],[-71.064088,42.3533]]],[[[-71.064082,42.350914],[-71.064073,42.350897],[-71.064038,42.350892],[-71.063925,42.350958],[-71.063918,42.350985],[-71.06396,42.350998],[-71.064082,42.350914]]],[[[-71.064049,42.35339],[-71.064016,42.35338],[-71.063928,42.35344],[-71.063961,42.35345],[-71.064049,42.35339]]],[[[-71.064013,42.353283],[-71.063982,42.353273],[-71.063899,42.35333],[-71.06393,42.35334],[-71.064013,42.353283]]],[[[-71.063998,42.35376],[-71.063967,42.35375],[-71.063884,42.353807],[-71.063915,42.353817],[-71.063998,42.35376]]],[[[-71.063984,42.353386],[-71.063951,42.353376],[-71.063863,42.353436],[-71.063896,42.353446],[-71.063984,42.353386]]],[[[-71.063973,42.350903],[-71.063962,42.350883],[-71.063919,42.350876],[-71.063795,42.35095],[-71.063786,42.350981],[-71.063837,42.350997],[-71.063962,42.350923],[-71.063973,42.350903]]],[[[-71.063943,42.353268],[-71.063904,42.353256],[-71.06381,42.353321],[-71.063848,42.353333],[-71.063943,42.353268]]],[[[-71.063928,42.353374],[-71.063897,42.353364],[-71.063814,42.353421],[-71.063845,42.353431],[-71.063928,42.353374]]],[[[-71.063922,42.353967],[-71.063913,42.35395],[-71.063878,42.353945],[-71.063765,42.354011],[-71.063758,42.354038],[-71.0638,42.354051],[-71.063922,42.353967]]],[[[-71.063915,42.348675],[-71.063882,42.348665],[-71.063794,42.348725],[-71.063827,42.348735],[-71.063915,42.348675]]],[[[-71.063893,42.348743],[-71.063854,42.348731],[-71.06376,42.348796],[-71.063798,42.348808],[-71.063893,42.348743]]],[[[-71.063879,42.34887],[-71.063846,42.34886],[-71.063758,42.34892],[-71.063791,42.34893],[-71.063879,42.34887]]],[[[-71.063873,42.348793],[-71.063842,42.348783],[-71.063773,42.348832],[-71.063804,42.348841],[-71.063873,42.348793]]],[[[-71.063821,42.349148],[-71.06379,42.349138],[-71.063721,42.349187],[-71.063752,42.349196],[-71.063821,42.349148]]],[[[-71.063816,42.35412],[-71.06378,42.354102],[-71.063672,42.354176],[-71.063707,42.354193],[-71.063816,42.35412]]],[[[-71.063808,42.348427],[-71.063777,42.348417],[-71.063708,42.348466],[-71.063739,42.348475],[-71.063808,42.348427]]],[[[-71.063768,42.349293],[-71.06375,42.34928],[-71.063673,42.349322],[-71.063686,42.349345],[-71.06366,42.349364],[-71.06366,42.349383],[-71.063686,42.349383],[-71.06375,42.349345],[-71.063737,42.349322],[-71.063768,42.349293]]],[[[-71.063718,42.34841],[-71.063687,42.3484],[-71.063618,42.348449],[-71.063649,42.348458],[-71.063718,42.34841]]],[[[-71.063707,42.350883],[-71.063698,42.350866],[-71.063663,42.350861],[-71.06355,42.350927],[-71.063543,42.350954],[-71.063585,42.350967],[-71.063707,42.350883]]],[[[-71.063689,42.34976],[-71.063656,42.34975],[-71.063568,42.34981],[-71.063601,42.34982],[-71.063689,42.34976]]],[[[-71.063632,42.349854],[-71.063601,42.349844],[-71.063518,42.349901],[-71.063549,42.349911],[-71.063632,42.349854]]],[[[-71.063613,42.350876],[-71.063574,42.350864],[-71.06348,42.350929],[-71.063518,42.350941],[-71.063613,42.350876]]],[[[-71.063579,42.34995],[-71.063546,42.34994],[-71.063463,42.34999],[-71.063477,42.350014],[-71.063439,42.350038],[-71.063439,42.350057],[-71.063465,42.350057],[-71.063543,42.35001],[-71.06353,42.349987],[-71.063579,42.34995]]],[[[-71.063569,42.3547],[-71.063554,42.354675],[-71.063501,42.354667],[-71.063377,42.35474],[-71.063362,42.354766],[-71.063389,42.354797],[-71.063317,42.35484],[-71.063306,42.354879],[-71.063333,42.354899],[-71.06337,42.354899],[-71.063494,42.354825],[-71.063509,42.3548],[-71.063483,42.354769],[-71.063554,42.354725],[-71.063569,42.3547]]],[[[-71.063546,42.350864],[-71.06351,42.350846],[-71.063402,42.35092],[-71.063437,42.350937],[-71.063546,42.350864]]],[[[-71.063458,42.350418],[-71.063427,42.350408],[-71.063344,42.350465],[-71.063375,42.350475],[-71.063458,42.350418]]],[[[-71.063458,42.35018],[-71.063427,42.35017],[-71.063348,42.350224],[-71.063379,42.350234],[-71.063458,42.35018]]],[[[-71.063434,42.350487],[-71.063403,42.350477],[-71.063324,42.350531],[-71.063355,42.350541],[-71.063434,42.350487]]],[[[-71.063428,42.350246],[-71.063397,42.350236],[-71.063324,42.350281],[-71.063299,42.350334],[-71.063324,42.350334],[-71.063398,42.35029],[-71.063398,42.350271],[-71.063428,42.350246]]],[[[-71.063403,42.35055],[-71.063372,42.35054],[-71.063298,42.350591],[-71.063329,42.350601],[-71.063403,42.35055]]],[[[-71.063386,42.350826],[-71.06335,42.350808],[-71.063242,42.350882],[-71.063277,42.350899],[-71.063386,42.350826]]],[[[-71.063383,42.350765],[-71.063343,42.350745],[-71.063228,42.350824],[-71.063268,42.350844],[-71.063383,42.350765]]],[[[-71.063369,42.350704],[-71.063336,42.350694],[-71.063248,42.350754],[-71.063281,42.350764],[-71.063369,42.350704]]],[[[-71.063368,42.35061],[-71.063337,42.3506],[-71.063263,42.350651],[-71.063294,42.350661],[-71.063368,42.35061]]],[[[-71.063328,42.35044],[-71.063297,42.35043],[-71.063228,42.350472],[-71.063194,42.350537],[-71.063219,42.350537],[-71.063293,42.350493],[-71.063293,42.350473],[-71.063328,42.35044]]],[[[-71.063273,42.350536],[-71.063242,42.350526],[-71.063169,42.350571],[-71.063182,42.350594],[-71.063139,42.35062],[-71.063139,42.350639],[-71.063165,42.350639],[-71.063243,42.350592],[-71.06323,42.350569],[-71.063273,42.350536]]],[[[-71.063228,42.35063],[-71.063197,42.35062],[-71.063119,42.350668],[-71.063129,42.35069],[-71.063108,42.350703],[-71.063108,42.350722],[-71.063193,42.350687],[-71.063183,42.350664],[-71.063228,42.35063]]],[[[-71.063178,42.350727],[-71.063147,42.350717],[-71.063074,42.350762],[-71.063073,42.350781],[-71.063033,42.350805],[-71.063033,42.350825],[-71.063061,42.350825],[-71.063144,42.350775],[-71.063144,42.350755],[-71.063178,42.350727]]],[[[-71.063144,42.352238],[-71.063126,42.352225],[-71.063082,42.352247],[-71.063058,42.352238],[-71.062978,42.352291],[-71.062996,42.352305],[-71.06304,42.352282],[-71.063064,42.352292],[-71.063144,42.352238]]],[[[-71.062983,42.352253],[-71.062952,42.352243],[-71.062878,42.352294],[-71.062909,42.352304],[-71.062983,42.352253]]],[[[-71.062922,42.35222],[-71.062891,42.35221],[-71.062812,42.352264],[-71.062843,42.352274],[-71.062922,42.35222]]],[[[-71.062848,42.352215],[-71.062817,42.352205],[-71.062743,42.352256],[-71.062774,42.352266],[-71.062848,42.352215]]],[[[-71.062829,42.353302],[-71.06281,42.353288],[-71.06276,42.353314],[-71.062761,42.3533],[-71.062731,42.35329],[-71.06263,42.353359],[-71.062652,42.353376],[-71.06271,42.353346],[-71.062734,42.353365],[-71.062829,42.353302]]],[[[-71.062829,42.353214],[-71.062796,42.353204],[-71.062708,42.353264],[-71.062741,42.353274],[-71.062829,42.353214]]],[[[-71.062763,42.353207],[-71.06273,42.353197],[-71.062642,42.353257],[-71.062675,42.353267],[-71.062763,42.353207]]],[[[-71.062559,42.348354],[-71.062519,42.348334],[-71.062404,42.348413],[-71.062444,42.348433],[-71.062559,42.348354]]],[[[-71.062496,42.349373],[-71.062484,42.349351],[-71.062438,42.349344],[-71.062308,42.349421],[-71.062299,42.349455],[-71.062354,42.349472],[-71.062484,42.349395],[-71.062496,42.349373]]],[[[-71.062463,42.348557],[-71.062424,42.348545],[-71.06233,42.34861],[-71.062368,42.348622],[-71.062463,42.348557]]],[[[-71.062409,42.348373],[-71.062398,42.348353],[-71.062355,42.348346],[-71.062231,42.34842],[-71.062222,42.348451],[-71.062273,42.348467],[-71.062398,42.348393],[-71.062409,42.348373]]],[[[-71.062392,42.349323],[-71.06238,42.349301],[-71.062334,42.349294],[-71.062204,42.349371],[-71.062195,42.349405],[-71.06225,42.349422],[-71.06238,42.349345],[-71.062392,42.349323]]],[[[-71.062039,42.353752],[-71.062006,42.353742],[-71.061918,42.353802],[-71.061951,42.353812],[-71.062039,42.353752]]],[[[-71.062006,42.349306],[-71.061975,42.349296],[-71.061906,42.349345],[-71.061937,42.349354],[-71.062006,42.349306]]],[[[-71.061988,42.35386],[-71.061957,42.35385],[-71.061888,42.353899],[-71.061919,42.353908],[-71.061988,42.35386]]],[[[-71.061951,42.349438],[-71.06192,42.349428],[-71.061851,42.349477],[-71.061882,42.349486],[-71.061951,42.349438]]],[[[-71.061941,42.349548],[-71.061926,42.349523],[-71.061873,42.349515],[-71.061749,42.349588],[-71.061738,42.349627],[-71.061765,42.349647],[-71.061802,42.349647],[-71.061926,42.349573],[-71.061941,42.349548]]],[[[-71.061928,42.34988],[-71.06191,42.349867],[-71.061833,42.349909],[-71.061803,42.349974],[-71.061829,42.349974],[-71.061893,42.349936],[-71.061893,42.349916],[-71.061928,42.34988]]],[[[-71.061924,42.3537],[-71.061891,42.35369],[-71.061803,42.35375],[-71.061836,42.35376],[-71.061924,42.3537]]],[[[-71.061909,42.353825],[-71.061876,42.353815],[-71.061788,42.353875],[-71.061821,42.353885],[-71.061909,42.353825]]],[[[-71.061892,42.35],[-71.061874,42.349987],[-71.061797,42.350029],[-71.061808,42.350052],[-71.061773,42.350073],[-71.061743,42.350128],[-71.061769,42.350128],[-71.061833,42.35009],[-71.061868,42.350044],[-71.061852,42.350031],[-71.061892,42.35]]],[[[-71.061851,42.348312],[-71.061838,42.348288],[-71.061789,42.348281],[-71.061653,42.348361],[-71.061643,42.348398],[-71.061668,42.348416],[-71.061702,42.348416],[-71.061838,42.348336],[-71.061851,42.348312]]],[[[-71.061828,42.353783],[-71.061797,42.353773],[-71.061728,42.353822],[-71.061759,42.353831],[-71.061828,42.353783]]],[[[-71.061825,42.353653],[-71.061792,42.353643],[-71.061704,42.353703],[-71.061737,42.353713],[-71.061825,42.353653]]],[[[-71.061824,42.350155],[-71.061806,42.350142],[-71.061734,42.350181],[-71.061745,42.350204],[-71.061703,42.350229],[-71.061703,42.350248],[-71.061729,42.350248],[-71.061793,42.35021],[-71.061782,42.350187],[-71.061824,42.350155]]],[[[-71.061789,42.350292],[-71.061778,42.350272],[-71.061735,42.350265],[-71.061611,42.350339],[-71.061602,42.35037],[-71.061557,42.350406],[-71.061557,42.350432],[-71.061582,42.35045],[-71.061616,42.35045],[-71.061752,42.35037],[-71.061789,42.350292]]],[[[-71.06177,42.348421],[-71.061739,42.348411],[-71.06167,42.34846],[-71.061701,42.348469],[-71.06177,42.348421]]],[[[-71.061766,42.349666],[-71.061751,42.349641],[-71.061698,42.349633],[-71.061574,42.349706],[-71.061563,42.349745],[-71.06159,42.349765],[-71.061627,42.349765],[-71.061751,42.349691],[-71.061766,42.349666]]],[[[-71.061759,42.353607],[-71.061744,42.353582],[-71.061691,42.353574],[-71.061567,42.353647],[-71.061556,42.353686],[-71.061583,42.353706],[-71.06162,42.353706],[-71.061744,42.353632],[-71.061759,42.353607]]],[[[-71.061747,42.353738],[-71.061716,42.353728],[-71.061647,42.353777],[-71.061678,42.353786],[-71.061747,42.353738]]],[[[-71.061692,42.348648],[-71.06168,42.348626],[-71.06165,42.348617],[-71.061563,42.34866],[-71.061537,42.348639],[-71.061503,42.348639],[-71.061367,42.348719],[-71.061357,42.348756],[-71.061399,42.348776],[-71.061494,42.348729],[-71.061518,42.348747],[-71.06155,42.348747],[-71.06168,42.34867],[-71.061692,42.348648]]],[[[-71.061645,42.348297],[-71.061629,42.348268],[-71.061569,42.348259],[-71.061416,42.34835],[-71.061404,42.348394],[-71.061434,42.348416],[-71.061476,42.348416],[-71.061629,42.348326],[-71.061645,42.348297]]],[[[-71.061628,42.35355],[-71.061597,42.35354],[-71.061518,42.353594],[-71.061549,42.353604],[-71.061628,42.35355]]],[[[-71.06161,42.348837],[-71.061579,42.348827],[-71.06151,42.348876],[-71.061541,42.348885],[-71.06161,42.348837]]],[[[-71.061608,42.3485],[-71.061577,42.34849],[-71.061508,42.348539],[-71.061539,42.348548],[-71.061608,42.3485]]],[[[-71.061597,42.348184],[-71.061566,42.348174],[-71.061487,42.348228],[-71.061518,42.348238],[-71.061597,42.348184]]],[[[-71.061548,42.349568],[-71.061533,42.349543],[-71.06148,42.349535],[-71.061356,42.349608],[-71.061345,42.349647],[-71.061372,42.349667],[-71.061409,42.349667],[-71.061533,42.349593],[-71.061548,42.349568]]],[[[-71.061502,42.348854],[-71.06149,42.348832],[-71.061444,42.348825],[-71.061314,42.348902],[-71.061305,42.348936],[-71.06136,42.348953],[-71.06149,42.348876],[-71.061502,42.348854]]],[[[-71.061493,42.35095],[-71.061454,42.350938],[-71.06136,42.351003],[-71.061398,42.351015],[-71.061493,42.35095]]],[[[-71.061472,42.34815],[-71.061454,42.348118],[-71.061386,42.348108],[-71.061222,42.348205],[-71.061208,42.348255],[-71.061242,42.348279],[-71.061289,42.348279],[-71.061454,42.348182],[-71.061472,42.34815]]],[[[-71.061452,42.348248],[-71.061443,42.348231],[-71.061408,42.348226],[-71.061295,42.348292],[-71.061288,42.348319],[-71.06133,42.348332],[-71.061452,42.348248]]],[[[-71.06145,42.349534],[-71.06142,42.349501],[-71.061367,42.349509],[-71.061258,42.349574],[-71.061247,42.349613],[-71.061177,42.349671],[-71.061208,42.349681],[-71.061327,42.349625],[-71.061435,42.349559],[-71.06145,42.349534]]],[[[-71.061438,42.349255],[-71.061407,42.349245],[-71.061328,42.349299],[-71.061359,42.349309],[-71.061438,42.349255]]],[[[-71.061418,42.351122],[-71.061387,42.351112],[-71.061318,42.351161],[-71.061349,42.35117],[-71.061418,42.351122]]],[[[-71.061399,42.349052],[-71.061366,42.349042],[-71.061278,42.349102],[-71.061311,42.349112],[-71.061399,42.349052]]],[[[-71.061397,42.35118],[-71.061366,42.35117],[-71.061297,42.351219],[-71.061328,42.351228],[-71.061397,42.35118]]],[[[-71.061371,42.35124],[-71.06134,42.35123],[-71.061271,42.351279],[-71.061302,42.351288],[-71.061371,42.35124]]],[[[-71.061368,42.34943],[-71.061337,42.34942],[-71.061268,42.349469],[-71.061299,42.349478],[-71.061368,42.34943]]],[[[-71.061352,42.351289],[-71.061321,42.351279],[-71.061252,42.351328],[-71.061283,42.351337],[-71.061352,42.351289]]],[[[-71.061349,42.349228],[-71.061309,42.349208],[-71.061194,42.349287],[-71.061234,42.349307],[-71.061349,42.349228]]],[[[-71.061261,42.349678],[-71.06123,42.349668],[-71.061156,42.349719],[-71.061187,42.349729],[-71.061261,42.349678]]],[[[-71.061244,42.35337],[-71.061213,42.35336],[-71.061144,42.353409],[-71.061175,42.353418],[-71.061244,42.35337]]],[[[-71.061238,42.354774],[-71.061207,42.354764],[-71.061138,42.354813],[-71.061169,42.354822],[-71.061238,42.354774]]],[[[-71.061222,42.34983],[-71.06121,42.349808],[-71.061164,42.349801],[-71.061034,42.349878],[-71.061025,42.349912],[-71.06108,42.349929],[-71.06121,42.349852],[-71.061222,42.34983]]],[[[-71.061188,42.354916],[-71.061157,42.354906],[-71.061088,42.354955],[-71.061119,42.354964],[-71.061188,42.354916]]],[[[-71.061188,42.353344],[-71.061157,42.353334],[-71.061088,42.353383],[-71.061119,42.353392],[-71.061188,42.353344]]],[[[-71.061156,42.35003],[-71.061141,42.350003],[-71.061084,42.349995],[-71.060937,42.350082],[-71.060925,42.350123],[-71.060954,42.350144],[-71.060993,42.350144],[-71.061141,42.350057],[-71.061156,42.35003]]],[[[-71.061138,42.35332],[-71.061107,42.35331],[-71.061038,42.353359],[-71.061069,42.353368],[-71.061138,42.35332]]],[[[-71.061048,42.353275],[-71.061017,42.353265],[-71.060938,42.353319],[-71.060969,42.353329],[-71.061048,42.353275]]],[[[-71.061038,42.34849],[-71.061007,42.34848],[-71.060938,42.348529],[-71.060969,42.348538],[-71.061038,42.34849]]],[[[-71.061032,42.348602],[-71.061017,42.348575],[-71.06096,42.348567],[-71.060801,42.348666],[-71.060813,42.348708],[-71.060863,42.348717],[-71.060764,42.348783],[-71.060764,42.348814],[-71.060813,42.348839],[-71.060745,42.348885],[-71.060754,42.348919],[-71.0608,42.348926],[-71.060939,42.348839],[-71.060939,42.348815],[-71.060905,42.348797],[-71.060989,42.348746],[-71.061005,42.348717],[-71.060989,42.348688],[-71.060935,42.348678],[-71.061017,42.348629],[-71.061032,42.348602]]],[[[-71.060988,42.353363],[-71.060957,42.353353],[-71.060888,42.353402],[-71.060919,42.353411],[-71.060988,42.353363]]],[[[-71.060938,42.35322],[-71.060907,42.35321],[-71.060838,42.353259],[-71.060869,42.353268],[-71.060938,42.35322]]],[[[-71.060923,42.35333],[-71.060892,42.35332],[-71.060818,42.353371],[-71.060849,42.353381],[-71.060923,42.35333]]],[[[-71.060862,42.353302],[-71.060831,42.353292],[-71.060762,42.353341],[-71.060793,42.35335],[-71.060862,42.353302]]],[[[-71.060847,42.349174],[-71.060827,42.349137],[-71.060749,42.349125],[-71.060566,42.349233],[-71.060508,42.349339],[-71.060525,42.349352],[-71.060493,42.349371],[-71.060493,42.34939],[-71.060519,42.34939],[-71.060583,42.349352],[-71.060571,42.349329],[-71.060589,42.349318],[-71.060644,42.349319],[-71.060827,42.349211],[-71.060847,42.349174]]],[[[-71.060733,42.34939],[-71.060718,42.349365],[-71.060665,42.349357],[-71.060443,42.349494],[-71.060461,42.349508],[-71.060531,42.34947],[-71.060557,42.349489],[-71.060594,42.349489],[-71.060718,42.349415],[-71.060733,42.34939]]],[[[-71.060695,42.349506],[-71.06068,42.349481],[-71.060646,42.34947],[-71.0605,42.349548],[-71.060486,42.349543],[-71.060533,42.349513],[-71.060533,42.349493],[-71.060507,42.349493],[-71.060438,42.349535],[-71.060451,42.349558],[-71.060409,42.349585],[-71.060409,42.349604],[-71.060472,42.349582],[-71.060409,42.349629],[-71.060421,42.349652],[-71.060393,42.349669],[-71.060393,42.349688],[-71.060419,42.349688],[-71.060483,42.34965],[-71.060471,42.349627],[-71.060495,42.349612],[-71.060539,42.349615],[-71.06068,42.349531],[-71.060695,42.349506]]],[[[-71.060609,42.34967],[-71.060594,42.349645],[-71.060541,42.349637],[-71.0604,42.34972],[-71.060389,42.34976],[-71.060416,42.349779],[-71.060453,42.349779],[-71.060594,42.349695],[-71.060609,42.34967]]],[[[-71.060598,42.35304],[-71.060567,42.35303],[-71.060498,42.353079],[-71.060529,42.353088],[-71.060598,42.35304]]],[[[-71.060582,42.349792],[-71.060567,42.349765],[-71.06051,42.349757],[-71.060363,42.349844],[-71.060283,42.349925],[-71.060301,42.349939],[-71.06037,42.349901],[-71.060419,42.349906],[-71.060567,42.349819],[-71.060582,42.349792]]],[[[-71.060558,42.349407],[-71.060527,42.349397],[-71.060458,42.349446],[-71.060489,42.349455],[-71.060558,42.349407]]],[[[-71.060518,42.352997],[-71.060487,42.352987],[-71.060418,42.353036],[-71.060449,42.353045],[-71.060518,42.352997]]],[[[-71.060508,42.353283],[-71.060477,42.353273],[-71.060403,42.353324],[-71.060434,42.353334],[-71.060508,42.353283]]],[[[-71.060504,42.35315],[-71.060473,42.35314],[-71.060404,42.353189],[-71.060435,42.353198],[-71.060504,42.35315]]],[[[-71.060468,42.352974],[-71.060437,42.352964],[-71.060363,42.353015],[-71.060394,42.353025],[-71.060468,42.352974]]],[[[-71.060428,42.3531],[-71.060397,42.35309],[-71.060328,42.353139],[-71.060359,42.353148],[-71.060428,42.3531]]],[[[-71.060419,42.353405],[-71.060413,42.35337],[-71.060365,42.353378],[-71.060241,42.353452],[-71.060232,42.353483],[-71.060283,42.353499],[-71.060408,42.353425],[-71.060419,42.353405]]],[[[-71.060374,42.35307],[-71.060343,42.35306],[-71.060274,42.353109],[-71.060305,42.353118],[-71.060374,42.35307]]],[[[-71.060318,42.350037],[-71.060287,42.350027],[-71.060218,42.350076],[-71.060249,42.350085],[-71.060318,42.350037]]],[[[-71.060314,42.35015],[-71.060287,42.350118],[-71.060297,42.3501],[-71.060273,42.350093],[-71.060122,42.35019],[-71.060111,42.350229],[-71.060138,42.350249],[-71.060175,42.350249],[-71.060299,42.350175],[-71.060314,42.35015]]],[[[-71.060174,42.34947],[-71.060163,42.34945],[-71.06012,42.349443],[-71.059996,42.349517],[-71.059987,42.349548],[-71.060023,42.349566],[-71.059972,42.349599],[-71.059972,42.34963],[-71.060004,42.349635],[-71.060111,42.349571],[-71.060119,42.349556],[-71.06009,42.349534],[-71.060174,42.34947]]],[[[-71.060158,42.352962],[-71.060127,42.352952],[-71.060058,42.353001],[-71.060089,42.35301],[-71.060158,42.352962]]],[[[-71.060105,42.35341],[-71.060092,42.353386],[-71.060043,42.353379],[-71.059907,42.353459],[-71.059897,42.353496],[-71.059922,42.353514],[-71.059956,42.353514],[-71.060092,42.353434],[-71.060105,42.35341]]],[[[-71.060086,42.349644],[-71.060075,42.349625],[-71.060036,42.34962],[-71.059918,42.34969],[-71.05991,42.349718],[-71.059957,42.349733],[-71.060086,42.349644]]],[[[-71.059972,42.351044],[-71.05996,42.351022],[-71.059914,42.351015],[-71.059784,42.351092],[-71.059775,42.351126],[-71.059814,42.351145],[-71.059764,42.351177],[-71.059764,42.351204],[-71.059792,42.351208],[-71.059893,42.351149],[-71.059901,42.351135],[-71.059877,42.351116],[-71.05996,42.351066],[-71.059972,42.351044]]],[[[-71.059858,42.3533],[-71.059827,42.35329],[-71.059758,42.353339],[-71.059789,42.353348],[-71.059858,42.3533]]],[[[-71.059822,42.35326],[-71.05981,42.353238],[-71.059764,42.353231],[-71.059634,42.353308],[-71.059625,42.353342],[-71.05968,42.353359],[-71.05981,42.353282],[-71.059822,42.35326]]],[[[-71.059758,42.352753],[-71.059727,42.352743],[-71.059653,42.352794],[-71.059684,42.352804],[-71.059758,42.352753]]],[[[-71.059688,42.352737],[-71.059657,42.352727],[-71.059588,42.352769],[-71.059634,42.35273],[-71.059616,42.352717],[-71.059555,42.352749],[-71.059521,42.35275],[-71.059397,42.352823],[-71.059386,42.352862],[-71.059413,42.352882],[-71.05945,42.352882],[-71.059688,42.352737]]],[[[-71.059669,42.354954],[-71.059629,42.354934],[-71.059514,42.355013],[-71.059554,42.355033],[-71.059669,42.354954]]],[[[-71.059649,42.35171],[-71.059634,42.351685],[-71.059581,42.351677],[-71.059511,42.3517],[-71.059423,42.35176],[-71.059457,42.351801],[-71.05951,42.351809],[-71.059634,42.351735],[-71.059649,42.35171]]],[[[-71.059622,42.35492],[-71.059573,42.354873],[-71.059538,42.354868],[-71.059425,42.354934],[-71.059418,42.354961],[-71.059465,42.354998],[-71.0595,42.355004],[-71.059622,42.35492]]],[[[-71.059562,42.3516],[-71.059553,42.351583],[-71.059518,42.351578],[-71.059451,42.351617],[-71.05942,42.351609],[-71.059319,42.351669],[-71.059312,42.351683],[-71.059333,42.351701],[-71.05926,42.351745],[-71.059254,42.351757],[-71.059275,42.351773],[-71.059196,42.351821],[-71.059196,42.351845],[-71.059228,42.351845],[-71.059316,42.351792],[-71.059323,42.35178],[-71.059301,42.351763],[-71.05938,42.351716],[-71.059387,42.351704],[-71.05937,42.351688],[-71.059398,42.351671],[-71.05944,42.351684],[-71.059562,42.3516]]],[[[-71.059518,42.351097],[-71.059487,42.351087],[-71.059418,42.351136],[-71.059449,42.351145],[-71.059518,42.351097]]],[[[-71.059482,42.354813],[-71.059473,42.354796],[-71.059438,42.354791],[-71.059325,42.354857],[-71.059318,42.354884],[-71.05936,42.354897],[-71.059482,42.354813]]],[[[-71.059478,42.35117],[-71.059447,42.35116],[-71.059378,42.351209],[-71.059409,42.351218],[-71.059478,42.35117]]],[[[-71.059432,42.354774],[-71.059389,42.354714],[-71.059364,42.354707],[-71.059232,42.354779],[-71.059222,42.354797],[-71.059244,42.354822],[-71.059271,42.354822],[-71.059275,42.354852],[-71.059298,42.354859],[-71.059432,42.354774]]],[[[-71.059428,42.3531],[-71.059397,42.35309],[-71.059328,42.353139],[-71.059359,42.353148],[-71.059428,42.3531]]],[[[-71.059418,42.35301],[-71.059387,42.353],[-71.059318,42.353049],[-71.059349,42.353058],[-71.059418,42.35301]]],[[[-71.059219,42.35129],[-71.059204,42.351265],[-71.059174,42.351255],[-71.059187,42.351235],[-71.05911,42.351194],[-71.05895,42.35128],[-71.058939,42.35132],[-71.058984,42.351342],[-71.059087,42.35129],[-71.058999,42.351352],[-71.059009,42.35139],[-71.058969,42.351419],[-71.058969,42.351447],[-71.058996,42.351466],[-71.059033,42.351466],[-71.059174,42.351382],[-71.059189,42.351357],[-71.059176,42.351333],[-71.059219,42.35129]]],[[[-71.059184,42.353294],[-71.059153,42.353284],[-71.059084,42.353333],[-71.059115,42.353342],[-71.059184,42.353294]]],[[[-71.059098,42.35146],[-71.05908,42.351447],[-71.059003,42.351489],[-71.059003,42.351508],[-71.058929,42.351559],[-71.058929,42.351586],[-71.05883,42.351658],[-71.058838,42.351687],[-71.058577,42.351892],[-71.058568,42.351923],[-71.058535,42.35195],[-71.058356,42.35205],[-71.058335,42.352088],[-71.058277,42.352134],[-71.058277,42.35216],[-71.058302,42.352178],[-71.058336,42.352178],[-71.058569,42.352026],[-71.058582,42.351984],[-71.058683,42.351923],[-71.05869,42.351897],[-71.058875,42.351757],[-71.058883,42.351728],[-71.05892,42.351699],[-71.058913,42.351673],[-71.059003,42.351614],[-71.058984,42.35158],[-71.059058,42.351531],[-71.059066,42.351517],[-71.059045,42.351499],[-71.059098,42.35146]]],[[[-71.059092,42.354385],[-71.059083,42.354368],[-71.059048,42.354363],[-71.058935,42.354429],[-71.058928,42.354456],[-71.05897,42.354469],[-71.059092,42.354385]]],[[[-71.059088,42.353287],[-71.059057,42.353277],[-71.058988,42.353326],[-71.059019,42.353335],[-71.059088,42.353287]]],[[[-71.059018,42.354332],[-71.058987,42.354322],[-71.058918,42.354371],[-71.058949,42.35438],[-71.059018,42.354332]]],[[[-71.058998,42.353283],[-71.058967,42.353273],[-71.058898,42.353322],[-71.058929,42.353331],[-71.058998,42.353283]]],[[[-71.058959,42.35429],[-71.058926,42.35428],[-71.058838,42.35434],[-71.058871,42.35435],[-71.058959,42.35429]]],[[[-71.058864,42.353268],[-71.058833,42.353258],[-71.058764,42.353307],[-71.058795,42.353316],[-71.058864,42.353268]]],[[[-71.058758,42.353268],[-71.058727,42.353258],[-71.058658,42.353307],[-71.058689,42.353316],[-71.058758,42.353268]]],[[[-71.058568,42.35253],[-71.058537,42.35252],[-71.058468,42.352569],[-71.058499,42.352578],[-71.058568,42.35253]]],[[[-71.058508,42.352524],[-71.058477,42.352514],[-71.058408,42.352563],[-71.058439,42.352572],[-71.058508,42.352524]]],[[[-71.058499,42.35248],[-71.058466,42.35247],[-71.058323,42.352569],[-71.058354,42.352579],[-71.058499,42.35248]]],[[[-71.058388,42.35247],[-71.05837,42.352457],[-71.058293,42.352499],[-71.058253,42.352568],[-71.058279,42.352568],[-71.058343,42.35253],[-71.058343,42.35251],[-71.058388,42.35247]]],[[[-71.058288,42.35091],[-71.058257,42.3509],[-71.058188,42.350949],[-71.058219,42.350958],[-71.058288,42.35091]]],[[[-71.058278,42.352467],[-71.058247,42.352457],[-71.058178,42.352506],[-71.058209,42.352515],[-71.058278,42.352467]]],[[[-71.058268,42.352512],[-71.058237,42.352502],[-71.058168,42.352551],[-71.058199,42.35256],[-71.058268,42.352512]]],[[[-71.058218,42.350887],[-71.058187,42.350877],[-71.058118,42.350926],[-71.058149,42.350935],[-71.058218,42.350887]]],[[[-71.058038,42.352665],[-71.058007,42.352655],[-71.057938,42.352704],[-71.057969,42.352713],[-71.058038,42.352665]]],[[[-71.058032,42.352768],[-71.058001,42.352758],[-71.057932,42.352807],[-71.057963,42.352816],[-71.058032,42.352768]]],[[[-71.058008,42.352905],[-71.057977,42.352895],[-71.057908,42.352944],[-71.057939,42.352953],[-71.058008,42.352905]]],[[[-71.057803,42.350693],[-71.057772,42.350683],[-71.057703,42.350732],[-71.057734,42.350741],[-71.057803,42.350693]]],[[[-71.057758,42.350677],[-71.057727,42.350667],[-71.057658,42.350716],[-71.057689,42.350725],[-71.057758,42.350677]]],[[[-71.05775,42.352226],[-71.057714,42.352208],[-71.057606,42.352282],[-71.057641,42.352299],[-71.05775,42.352226]]],[[[-71.057623,42.35219],[-71.057583,42.35217],[-71.057468,42.352249],[-71.057508,42.352269],[-71.057623,42.35219]]],[[[-71.057536,42.35216],[-71.0575,42.352142],[-71.057392,42.352216],[-71.057427,42.352233],[-71.057536,42.35216]]],[[[-71.057456,42.35214],[-71.05742,42.352122],[-71.057312,42.352196],[-71.057347,42.352213],[-71.057456,42.35214]]],[[[-71.057414,42.350403],[-71.057383,42.350393],[-71.057314,42.350442],[-71.057345,42.350451],[-71.057414,42.350403]]],[[[-71.057398,42.350494],[-71.057367,42.350484],[-71.057298,42.350533],[-71.057329,42.350542],[-71.057398,42.350494]]],[[[-71.057369,42.35211],[-71.057329,42.35209],[-71.057214,42.352169],[-71.057254,42.352189],[-71.057369,42.35211]]],[[[-71.057348,42.351707],[-71.057317,42.351697],[-71.057243,42.351748],[-71.057274,42.351758],[-71.057348,42.351707]]],[[[-71.057338,42.35175],[-71.057307,42.35174],[-71.057238,42.351789],[-71.057269,42.351798],[-71.057338,42.35175]]],[[[-71.057309,42.351897],[-71.057278,42.351887],[-71.057209,42.351936],[-71.05724,42.351945],[-71.057309,42.351897]]],[[[-71.057298,42.351955],[-71.057267,42.351945],[-71.057203,42.351991],[-71.057234,42.352],[-71.057298,42.351955]]],[[[-71.057298,42.350925],[-71.057267,42.350915],[-71.057188,42.350969],[-71.057219,42.350979],[-71.057298,42.350925]]],[[[-71.057268,42.351063],[-71.057237,42.351053],[-71.057158,42.351107],[-71.057189,42.351117],[-71.057268,42.351063]]],[[[-71.057208,42.35141],[-71.057177,42.3514],[-71.057108,42.351449],[-71.057139,42.351458],[-71.057208,42.35141]]],[[[-71.057198,42.35055],[-71.057167,42.35054],[-71.057098,42.350589],[-71.057129,42.350598],[-71.057198,42.35055]]],[[[-71.057147,42.350632],[-71.057116,42.350622],[-71.057047,42.350671],[-71.057078,42.35068],[-71.057147,42.350632]]],[[[-71.057094,42.350533],[-71.057063,42.350523],[-71.056994,42.350572],[-71.057025,42.350581],[-71.057094,42.350533]]],[[[-71.057038,42.34984],[-71.05702,42.349827],[-71.056943,42.349869],[-71.056956,42.349892],[-71.056865,42.349947],[-71.056858,42.349974],[-71.0569,42.349987],[-71.057013,42.34992],[-71.05702,42.349894],[-71.05699,42.349879],[-71.057038,42.34984]]],[[[-71.056868,42.352028],[-71.056837,42.352018],[-71.056754,42.352075],[-71.056785,42.352085],[-71.056868,42.352028]]],[[[-71.056834,42.35023],[-71.056803,42.35022],[-71.056734,42.350269],[-71.056765,42.350278],[-71.056834,42.35023]]],[[[-71.056829,42.34976],[-71.056818,42.34974],[-71.056775,42.349733],[-71.056642,42.349816],[-71.056651,42.349848],[-71.056678,42.349856],[-71.056628,42.349892],[-71.056635,42.349918],[-71.056571,42.349967],[-71.056571,42.349994],[-71.056594,42.350012],[-71.056526,42.350058],[-71.056526,42.350085],[-71.056563,42.350106],[-71.056512,42.350137],[-71.056512,42.350168],[-71.056544,42.350173],[-71.056651,42.350109],[-71.056651,42.350079],[-71.056725,42.35002],[-71.056725,42.349992],[-71.056703,42.349975],[-71.05677,42.349929],[-71.05677,42.349901],[-71.056744,42.349882],[-71.05679,42.349849],[-71.05679,42.349831],[-71.05676,42.349816],[-71.056829,42.34976]]],[[[-71.056798,42.350307],[-71.056767,42.350297],[-71.056698,42.350346],[-71.056729,42.350355],[-71.056798,42.350307]]],[[[-71.056748,42.351994],[-71.056717,42.351984],[-71.056638,42.352038],[-71.056669,42.352048],[-71.056748,42.351994]]],[[[-71.056643,42.350613],[-71.056612,42.350603],[-71.056529,42.35066],[-71.05656,42.35067],[-71.056643,42.350613]]],[[[-71.056626,42.353203],[-71.05659,42.353185],[-71.056482,42.353259],[-71.056517,42.353276],[-71.056626,42.353203]]],[[[-71.056622,42.350185],[-71.056613,42.350168],[-71.056578,42.350163],[-71.056465,42.350229],[-71.056458,42.350256],[-71.0565,42.350269],[-71.056622,42.350185]]],[[[-71.056608,42.35068],[-71.056577,42.35067],[-71.056494,42.350727],[-71.056525,42.350737],[-71.056608,42.35068]]],[[[-71.056559,42.353165],[-71.056526,42.353155],[-71.056438,42.353215],[-71.056471,42.353225],[-71.056559,42.353165]]],[[[-71.056559,42.350834],[-71.056544,42.350809],[-71.056491,42.350801],[-71.056367,42.350874],[-71.056356,42.350913],[-71.056383,42.350933],[-71.05642,42.350933],[-71.056544,42.350859],[-71.056559,42.350834]]],[[[-71.056484,42.353127],[-71.056451,42.353117],[-71.056363,42.353177],[-71.056396,42.353187],[-71.056484,42.353127]]],[[[-71.056468,42.35192],[-71.056437,42.35191],[-71.056354,42.351967],[-71.056385,42.351977],[-71.056468,42.35192]]],[[[-71.056428,42.35103],[-71.056397,42.35102],[-71.056328,42.351069],[-71.056359,42.351078],[-71.056428,42.35103]]],[[[-71.056398,42.351097],[-71.056367,42.351087],[-71.056284,42.351144],[-71.056315,42.351154],[-71.056398,42.351097]]],[[[-71.056393,42.35309],[-71.056354,42.353078],[-71.05626,42.353143],[-71.056298,42.353155],[-71.056393,42.35309]]],[[[-71.056388,42.3519],[-71.056357,42.35189],[-71.056293,42.351936],[-71.056324,42.351945],[-71.056388,42.3519]]],[[[-71.056364,42.351176],[-71.056333,42.351166],[-71.056264,42.351215],[-71.056295,42.351224],[-71.056364,42.351176]]],[[[-71.056338,42.35493],[-71.056307,42.35492],[-71.056224,42.354977],[-71.056255,42.354987],[-71.056338,42.35493]]],[[[-71.056328,42.354836],[-71.056297,42.354826],[-71.056214,42.354883],[-71.056245,42.354893],[-71.056328,42.354836]]],[[[-71.056309,42.35475],[-71.056276,42.35474],[-71.056188,42.3548],[-71.056221,42.35481],[-71.056309,42.35475]]],[[[-71.056306,42.35467],[-71.05627,42.354652],[-71.056162,42.354726],[-71.056197,42.354743],[-71.056306,42.35467]]],[[[-71.056258,42.351376],[-71.056227,42.351366],[-71.056158,42.351408],[-71.056108,42.351501],[-71.056134,42.351501],[-71.056203,42.35146],[-71.056203,42.35144],[-71.056234,42.351421],[-71.056258,42.351376]]],[[[-71.056256,42.350842],[-71.056225,42.350832],[-71.056142,42.350889],[-71.056173,42.350899],[-71.056256,42.350842]]],[[[-71.056248,42.35305],[-71.056217,42.35304],[-71.056148,42.353089],[-71.056179,42.353098],[-71.056248,42.35305]]],[[[-71.056226,42.350933],[-71.056195,42.350923],[-71.056112,42.35098],[-71.056143,42.35099],[-71.056226,42.350933]]],[[[-71.056186,42.351036],[-71.056155,42.351026],[-71.056072,42.351083],[-71.056103,42.351093],[-71.056186,42.351036]]],[[[-71.056148,42.351145],[-71.056117,42.351135],[-71.056034,42.351192],[-71.056065,42.351202],[-71.056148,42.351145]]],[[[-71.056078,42.35171],[-71.056047,42.3517],[-71.055973,42.351751],[-71.056004,42.351761],[-71.056078,42.35171]]],[[[-71.055977,42.351355],[-71.055946,42.351345],[-71.055863,42.351402],[-71.055894,42.351412],[-71.055977,42.351355]]],[[[-71.055953,42.351412],[-71.055922,42.351402],[-71.055839,42.351459],[-71.05587,42.351469],[-71.055953,42.351412]]],[[[-71.05592,42.351482],[-71.055889,42.351472],[-71.055806,42.351529],[-71.055837,42.351539],[-71.05592,42.351482]]],[[[-71.055888,42.351561],[-71.055857,42.351551],[-71.055774,42.351608],[-71.055805,42.351618],[-71.055888,42.351561]]],[[[-71.055869,42.352226],[-71.055839,42.352193],[-71.055786,42.352201],[-71.055677,42.352266],[-71.055665,42.352302],[-71.055632,42.352328],[-71.055632,42.352355],[-71.055677,42.352378],[-71.055712,42.352367],[-71.05582,42.352301],[-71.055832,42.352265],[-71.055869,42.352226]]],[[[-71.055859,42.351622],[-71.055828,42.351612],[-71.055745,42.351669],[-71.055776,42.351679],[-71.055859,42.351622]]],[[[-71.055808,42.351727],[-71.055777,42.351717],[-71.055694,42.351774],[-71.055725,42.351784],[-71.055808,42.351727]]],[[[-71.055788,42.353336],[-71.055779,42.353319],[-71.055744,42.353314],[-71.055631,42.35338],[-71.055624,42.353407],[-71.055398,42.353562],[-71.055398,42.353581],[-71.055475,42.353554],[-71.055586,42.353472],[-71.055609,42.353473],[-71.055716,42.353409],[-71.055788,42.353336]]],[[[-71.055788,42.351776],[-71.055757,42.351766],[-71.055674,42.351823],[-71.055705,42.351833],[-71.055788,42.351776]]],[[[-71.055262,42.353653],[-71.055244,42.35364],[-71.055199,42.353652],[-71.055092,42.353715],[-71.05506,42.353753],[-71.055098,42.353765],[-71.055231,42.353687],[-71.055262,42.353653]]]]},"properties":{"kind":"tree"}}]}