{"type":"FeatureCollection","features":[{"type":"Feature","geometry":{"type":"MultiPolygon","coordinates":[[[[-71.06703,42.351826],[-71.067007,42.351692],[-71.066747,42.351106],[-71.065467,42.351257],[-71.06528,42.351247],[-71.065991,42.350995],[-71.065959,42.350666],[-71.065816,42.350663],[-71.065953,42.350615],[-71.06593,42.350327],[-71.065758,42.350337],[-71.065625,42.35037],[-71.065559,42.350345],[-71.065916,42.350219],[-71.065881,42.34989],[-71.065776,42.349769],[-71.06566,42.349801],[-71.066095,42.349646],[-71.06602,42.349514],[-71.066107,42.349483],[-71.066051,42.349385],[-71.065814,42.349467],[-71.06562,42.349445],[-71.065521,42.349461],[-71.065107,42.349608],[-71.064416,42.349501],[-71.06427,42.349553],[-71.063761,42.349475],[-71.063653,42.349372],[-71.063696,42.349342],[-71.063746,42.349213],[-71.063772,42.349073],[-71.063736,42.349067],[-71.063827,42.348879],[-71.063856,42.348778],[-71.064069,42.348703],[-71.063943,42.349061],[-71.06411,42.349088],[-71.063897,42.349163],[-71.06385,42.34927],[-71.063874,42.349298],[-71.06378,42.349343],[-71.064029,42.349512],[-71.06492,42.349208],[-71.065078,42.349134],[-71.065279,42.349075],[-71.06533,42.348887],[-71.065325,42.348821],[-71.06581,42.348877],[-71.066458,42.348649],[-71.066483,42.348529],[-71.06591,42.348462],[-71.065995,42.348064],[-71.065837,42.348044],[-71.065476,42.348172],[-71.065475,42.348101],[-71.065402,42.348018],[-71.06552,42.347941],[-71.065529,42.347903],[-71.065483,42.347819],[-71.065392,42.347805],[-71.065371,42.347781],[-71.065289,42.347784],[-71.065318,42.347764],[-71.065319,42.347677],[-71.065257,42.347643],[-71.064894,42.347587],[-71.064568,42.347702],[-71.064177,42.347898],[-71.064063,42.34816],[-71.064014,42.348335],[-71.06405,42.348341],[-71.064133,42.348312],[-71.064147,42.348328],[-71.064521,42.348195],[-71.064592,42.348212],[-71.063909,42.348457],[-71.063623,42.348413],[-71.063452,42.348474],[-71.063475,42.348386],[-71.063545,42.348361],[-71.06374,42.34839],[-71.06402,42.348291],[-71.064113,42.347947],[-71.063968,42.347919],[-71.063549,42.348067],[-71.063606,42.347866],[-71.06346,42.347843],[-71.063237,42.347922],[-71.063221,42.347981],[-71.062961,42.347921],[-71.062849,42.347961],[-71.062735,42.347939],[-71.062468,42.348033],[-71.062426,42.348145],[-71.062503,42.348165],[-71.06237,42.348212],[-71.062364,42.348229],[-71.062255,42.348206],[-71.061978,42.348304],[-71.062029,42.348177],[-71.062411,42.348042],[-71.062446,42.347953],[-71.061926,42.347827],[-71.061767,42.347883],[-71.061866,42.34764],[-71.061712,42.347604],[-71.060742,42.347947],[-71.060622,42.348235],[-71.059496,42.348633],[-71.059034,42.349275],[-71.059271,42.349332],[-71.060786,42.348796],[-71.060814,42.348729],[-71.060864,42.348741],[-71.060942,42.348713],[-71.060911,42.34879],[-71.061002,42.348811],[-71.060796,42.348884],[-71.060759,42.348944],[-71.060614,42.348995],[-71.060595,42.349043],[-71.060613,42.349048],[-71.060548,42.349237],[-71.060443,42.349109],[-71.060321,42.349063],[-71.058806,42.349599],[-71.058637,42.350003],[-71.058372,42.349945],[-71.058274,42.34998],[-71.058289,42.349924],[-71.057901,42.349836],[-71.058297,42.349696],[-71.058424,42.349376],[-71.057926,42.349266],[-71.057714,42.349341],[-71.057657,42.349482],[-71.057191,42.349648],[-71.057179,42.349677],[-71.057133,42.349667],[-71.056606,42.349854],[-71.056758,42.349272],[-71.056895,42.349302],[-71.057988,42.348915],[-71.05807,42.348711],[-71.057613,42.348605],[-71.05652,42.348992],[-71.056439,42.349194],[-71.055417,42.349491],[-71.056683,42.347603],[-71.056673,42.347544],[-71.055908,42.347262],[-71.055497,42.347408],[-71.054289,42.349205],[-71.054061,42.349439],[-71.054028,42.349489],[-71.054023,42.34956],[-71.053749,42.349657],[-71.052779,42.3511],[-71.05336,42.351315],[-71.053873,42.351134],[-71.054152,42.351237],[-71.054337,42.351171],[-71.054708,42.350619],[-71.05472,42.350627],[-71.054693,42.35068],[-71.054782,42.350704],[-71.054807,42.350695],[-71.054984,42.350816],[-71.055155,42.350856],[-71.055723,42.350842],[-71.055843,42.350813],[-71.055899,42.350814],[-71.056043,42.350765],[-71.056187,42.350801],[-71.056331,42.350752],[-71.056354,42.350757],[-71.056174,42.350821],[-71.056056,42.351066],[-71.056146,42.351089],[-71.055991,42.351143],[-71.055849,42.351444],[-71.055908,42.351468],[-71.055605,42.351575],[-71.055498,42.351545],[-71.054479,42.351779],[-71.053817,42.352013],[-71.053645,42.352188],[-71.054171,42.352466],[-71.054331,42.352517],[-71.054499,42.352542],[-71.054676,42.352502],[-71.055359,42.352252],[-71.055347,42.352284],[-71.055427,42.352305],[-71.054732,42.352555],[-71.054716,42.352587],[-71.051764,42.353634],[-71.051687,42.353798],[-71.052281,42.353947],[-71.054927,42.353011],[-71.054939,42.353035],[-71.055068,42.353069],[-71.055651,42.352912],[-71.056859,42.352484],[-71.056924,42.352392],[-71.057243,42.352489],[-71.057943,42.352241],[-71.058076,42.351855],[-71.058159,42.351873],[-71.058558,42.351732],[-71.05877,42.351527],[-71.05892,42.351331],[-71.059038,42.351101],[-71.058919,42.351074],[-71.059198,42.350975],[-71.059346,42.350609],[-71.059445,42.350647],[-71.05942,42.35072],[-71.05963,42.350765],[-71.059727,42.35073],[-71.059841,42.350747],[-71.05987,42.350779],[-71.059696,42.35111],[-71.059622,42.351292],[-71.059653,42.351299],[-71.059261,42.351438],[-71.059212,42.351567],[-71.059223,42.351629],[-71.059191,42.351641],[-71.05922,42.351818],[-71.059308,42.35181],[-71.059319,42.351872],[-71.058825,42.352047],[-71.05884,42.352149],[-71.057088,42.352769],[-71.056935,42.352869],[-71.056851,42.352999],[-71.056393,42.353161],[-71.056242,42.353099],[-71.054718,42.353635],[-71.054479,42.353763],[-71.054501,42.353846],[-71.054466,42.353865],[-71.054517,42.353886],[-71.054396,42.353952],[-71.054351,42.354001],[-71.054393,42.354044],[-71.051974,42.3549],[-71.051589,42.355103],[-71.051553,42.355154],[-71.051562,42.355198],[-71.051817,42.355463],[-71.051884,42.355477],[-71.05378,42.354808],[-71.053058,42.355068],[-71.052955,42.355134],[-71.052842,42.355174],[-71.052527,42.355362],[-71.052526,42.3554],[-71.052487,42.355444],[-71.052555,42.355514],[-71.052631,42.355497],[-71.052687,42.355548],[-71.052737,42.355552],[-71.053013,42.355455],[-71.053035,42.355474],[-71.054029,42.355123],[-71.054069,42.355161],[-71.054345,42.355064],[-71.054461,42.355104],[-71.054017,42.355261],[-71.053913,42.355314],[-71.053931,42.355421],[-71.051471,42.356292],[-71.051577,42.35687],[-71.052029,42.356826],[-71.054184,42.356063],[-71.054617,42.356021],[-71.054794,42.355979],[-71.057113,42.355158],[-71.057204,42.355338],[-71.057331,42.355353],[-71.058224,42.355037],[-71.058018,42.355228],[-71.058021,42.355251],[-71.057346,42.355491],[-71.057249,42.355562],[-71.056969,42.355837],[-71.057043,42.355892],[-71.057335,42.356011],[-71.058673,42.355537],[-71.058708,42.355552],[-71.059205,42.355376],[-71.059286,42.355438],[-71.059544,42.355346],[-71.059573,42.355369],[-71.059869,42.355264],[-71.060189,42.355492],[-71.060494,42.355388],[-71.060565,42.355327],[-71.06079,42.355439],[-71.061298,42.35526],[-71.061272,42.355307],[-71.061629,42.3554],[-71.06166,42.355402],[-71.061875,42.355325],[-71.061925,42.355353],[-71.062145,42.355275],[-71.062329,42.355365],[-71.062425,42.355338],[-71.062572,42.355415],[-71.063118,42.355222],[-71.06318,42.355155],[-71.063094,42.355101],[-71.063255,42.355044],[-71.063852,42.353943],[-71.063862,42.353896],[-71.063783,42.353872],[-71.063892,42.353833],[-71.063985,42.353676],[-71.063998,42.353634],[-71.063915,42.353608],[-71.064052,42.353554],[-71.064097,42.353425],[-71.063893,42.353386],[-71.064146,42.353296],[-71.064309,42.35284],[-71.064243,42.352835],[-71.064309,42.352812],[-71.064341,42.352676],[-71.06458,42.352688],[-71.064812,42.352606],[-71.0648,42.352682],[-71.064997,42.352697],[-71.065381,42.35256],[-71.065385,42.352593],[-71.065481,42.352598],[-71.066063,42.352392],[-71.066075,42.352238],[-71.06627,42.352169],[-71.066279,42.352092],[-71.06703,42.351826]],[[-71.065052,42.350525],[-71.065035,42.350589],[-71.06501,42.350598],[-71.065,42.350641],[-71.065026,42.350642],[-71.065015,42.350721],[-71.064867,42.350774],[-71.064902,42.350642],[-71.064882,42.350634],[-71.0649,42.350628],[-71.064914,42.350574],[-71.065052,42.350525]],[[-71.064978,42.348472],[-71.06496,42.348555],[-71.064917,42.34857],[-71.064911,42.348604],[-71.064478,42.348558],[-71.064806,42.348442],[-71.064866,42.348344],[-71.064978,42.348472]],[[-71.063509,42.351093],[-71.06307,42.351046],[-71.063217,42.350994],[-71.063509,42.351093]],[[-71.063186,42.348109],[-71.063176,42.348144],[-71.063128,42.348161],[-71.062979,42.348139],[-71.062998,42.348129],[-71.063079,42.348147],[-71.063186,42.348109]],[[-71.063165,42.348304],[-71.063156,42.348333],[-71.06307,42.348319],[-71.063128,42.348299],[-71.063165,42.348304]],[[-71.063118,42.350513],[-71.063042,42.35054],[-71.06307,42.350459],[-71.063118,42.350513]],[[-71.063063,42.352417],[-71.062935,42.352431],[-71.06306,42.352387],[-71.063063,42.352417]],[[-71.062869,42.348099],[-71.06286,42.348128],[-71.062769,42.34816],[-71.062777,42.348131],[-71.062869,42.348099]],[[-71.062853,42.351123],[-71.062809,42.35124],[-71.062834,42.35113],[-71.062853,42.351123]],[[-71.062799,42.352446],[-71.062724,42.352454],[-71.06245,42.352551],[-71.062452,42.352508],[-71.062412,42.352483],[-71.062023,42.352516],[-71.062357,42.352398],[-71.062799,42.352446]],[[-71.062732,42.351558],[-71.062548,42.351624],[-71.062485,42.351611],[-71.062655,42.351551],[-71.062732,42.351558]],[[-71.062606,42.348247],[-71.06232,42.348351],[-71.062347,42.348281],[-71.062464,42.348297],[-71.062606,42.348247]],[[-71.062376,42.353513],[-71.06231,42.353536],[-71.062326,42.353509],[-71.062376,42.353513]],[[-71.062132,42.348831],[-71.061969,42.348888],[-71.061866,42.349142],[-71.061722,42.349144],[-71.061783,42.348996],[-71.061754,42.34899],[-71.061778,42.348981],[-71.061895,42.34873],[-71.061814,42.348712],[-71.061861,42.348596],[-71.062052,42.34864],[-71.061986,42.348808],[-71.062132,42.348831]],[[-71.061855,42.349226],[-71.061842,42.349241],[-71.061808,42.349235],[-71.061823,42.3492],[-71.061855,42.349226]],[[-71.061691,42.351533],[-71.061685,42.351534],[-71.06169,42.351532],[-71.061691,42.351533]],[[-71.061591,42.348317],[-71.061579,42.348345],[-71.061414,42.348308],[-71.061308,42.348345],[-71.061269,42.348334],[-71.061297,42.348266],[-71.061503,42.348312],[-71.061591,42.348317]],[[-71.061417,42.348748],[-71.061389,42.348783],[-71.061361,42.348768],[-71.061417,42.348748]],[[-71.061161,42.351588],[-71.061054,42.351626],[-71.061148,42.351589],[-71.061161,42.351588]],[[-71.061103,42.350951],[-71.061076,42.351018],[-71.061091,42.351022],[-71.061087,42.351041],[-71.060769,42.350979],[-71.060568,42.35105],[-71.060595,42.350984],[-71.060568,42.350978],[-71.060601,42.350896],[-71.060752,42.350929],[-71.060892,42.350913],[-71.060886,42.35093],[-71.061006,42.350958],[-71.061068,42.350942],[-71.061103,42.350951]],[[-71.060919,42.349209],[-71.060909,42.349212],[-71.060882,42.349201],[-71.060919,42.349209]],[[-71.0609,42.349495],[-71.060531,42.349625],[-71.060423,42.349921],[-71.060297,42.349966],[-71.060327,42.349891],[-71.060261,42.349801],[-71.060367,42.349747],[-71.060536,42.349335],[-71.060758,42.349412],[-71.060753,42.349424],[-71.0609,42.349495]],[[-71.060089,42.352159],[-71.05972,42.352289],[-71.059715,42.35226],[-71.059695,42.352262],[-71.059689,42.352224],[-71.060005,42.352112],[-71.060072,42.352101],[-71.060089,42.352159]],[[-71.060033,42.353506],[-71.059951,42.353535],[-71.059811,42.353458],[-71.059771,42.353472],[-71.059712,42.353447],[-71.060009,42.353342],[-71.05992,42.353442],[-71.060033,42.353506]],[[-71.059536,42.352778],[-71.059352,42.352843],[-71.059326,42.352628],[-71.059424,42.352593],[-71.059449,42.352757],[-71.059535,42.352757],[-71.059536,42.352778]],[[-71.059054,42.354433],[-71.058626,42.354812],[-71.058525,42.354854],[-71.058718,42.354674],[-71.058709,42.354669],[-71.058954,42.354468],[-71.059054,42.354433]],[[-71.058382,42.3511],[-71.058356,42.351109],[-71.058361,42.351095],[-71.058382,42.3511]],[[-71.05826,42.3509],[-71.058255,42.350913],[-71.058236,42.350909],[-71.05826,42.3509]],[[-71.058047,42.350896],[-71.058046,42.350897],[-71.058046,42.350896],[-71.058047,42.350896]],[[-71.058019,42.351691],[-71.058013,42.351706],[-71.057988,42.351702],[-71.058019,42.351691]],[[-71.057683,42.349898],[-71.057459,42.349977],[-71.057463,42.349956],[-71.057649,42.34989],[-71.057683,42.349898]],[[-71.057681,42.354791],[-71.057542,42.354928],[-71.057339,42.355],[-71.057329,42.354923],[-71.05689,42.354747],[-71.056502,42.354776],[-71.056264,42.35486],[-71.056236,42.354707],[-71.057211,42.354362],[-71.057274,42.354359],[-71.057006,42.354772],[-71.057392,42.354893],[-71.057681,42.354791]],[[-71.057296,42.35085],[-71.057288,42.350853],[-71.057289,42.350848],[-71.057296,42.35085]]],[[[-71.065565,42.354342],[-71.065534,42.354305],[-71.065487,42.354301],[-71.065262,42.35438],[-71.065238,42.354405],[-71.065238,42.35443],[-71.065273,42.354459],[-71.06532,42.35446],[-71.065534,42.354385],[-71.065565,42.354342]]],[[[-71.065421,42.352871],[-71.065303,42.352844],[-71.065188,42.352885],[-71.065171,42.352932],[-71.065197,42.353013],[-71.065263,42.353027],[-71.065378,42.352986],[-71.065421,42.352871]]],[[[-71.06461,42.353278],[-71.064542,42.353266],[-71.064457,42.353296],[-71.064423,42.353396],[-71.064491,42.35341],[-71.064576,42.35338],[-71.06461,42.353278]]],[[[-71.063935,42.354829],[-71.063869,42.354811],[-71.063788,42.35484],[-71.063765,42.354889],[-71.063831,42.354906],[-71.063912,42.354877],[-71.063935,42.354829]]]]},"properties":{"kind":"building"}},{"type":"Feature","geometry":{"type":"MultiPolygon","coordinates":[[[[-71.066058,42.353451],[-71.066047,42.35341],[-71.066015,42.353375],[-71.065912,42.353343],[-71.06557,42.353453],[-71.065504,42.353408],[-71.065448,42.3534],[-71.065377,42.353414],[-71.065348,42.353389],[-71.0654,42.353344],[-71.065406,42.35332],[-71.06541,42.353361],[-71.06543,42.353384],[-71.065497,42.353404],[-71.065533,42.353399],[-71.06586,42.353283],[-71.065911,42.353246],[-71.065911,42.353192],[-71.06586,42.353155],[-71.065981,42.353102],[-71.066007,42.353073],[-71.066016,42.353039],[-71.065995,42.352992],[-71.066039,42.352955],[-71.066048,42.352923],[-71.066021,42.352832],[-71.065942,42.352773],[-71.065886,42.352765],[-71.065771,42.352794],[-71.065768,42.352761],[-71.065734,42.352733],[-71.066,42.352636],[-71.066022,42.352597],[-71.066,42.352558],[-71.065947,42.352542],[-71.065875,42.352561],[-71.065812,42.352534],[-71.065754,42.352549],[-71.065688,42.352518],[-71.065464,42.352591],[-71.065434,42.352533],[-71.065361,42.35251],[-71.065106,42.352592],[-71.065102,42.352553],[-71.065081,42.35253],[-71.065012,42.352509],[-71.064608,42.352649],[-71.064579,42.3527],[-71.064587,42.352727],[-71.06464,42.352766],[-71.064714,42.352766],[-71.06491,42.352697],[-71.064914,42.352741],[-71.064936,42.352766],[-71.065004,42.352787],[-71.064867,42.352839],[-71.064849,42.352869],[-71.064879,42.352906],[-71.064871,42.352941],[-71.064838,42.352961],[-71.064791,42.352933],[-71.064699,42.352933],[-71.064268,42.353091],[-71.064233,42.353154],[-71.064254,42.3532],[-71.064231,42.353254],[-71.064242,42.353296],[-71.064319,42.353353],[-71.064213,42.353395],[-71.064181,42.353453],[-71.064213,42.353511],[-71.064291,42.353535],[-71.0646,42.353444],[-71.06465,42.353455],[-71.064704,42.353444],[-71.064721,42.353499],[-71.06467,42.353467],[-71.064592,42.353467],[-71.064249,42.353589],[-71.064195,42.353629],[-71.06419,42.353668],[-71.064118,42.353696],[-71.064104,42.353748],[-71.06407,42.353782],[-71.06405,42.353858],[-71.064084,42.353896],[-71.063974,42.353944],[-71.063949,42.353988],[-71.063949,42.354072],[-71.063993,42.354105],[-71.064039,42.354107],[-71.063943,42.354145],[-71.063925,42.354164],[-71.063923,42.354201],[-71.063831,42.35425],[-71.063831,42.354292],[-71.063847,42.35431],[-71.063745,42.354355],[-71.063713,42.35439],[-71.063707,42.35445],[-71.063666,42.35448],[-71.063666,42.354526],[-71.063519,42.354594],[-71.063487,42.354629],[-71.063476,42.35467],[-71.063301,42.35474],[-71.06329,42.354779],[-71.063349,42.354799],[-71.063241,42.35484],[-71.06323,42.354879],[-71.063256,42.354899],[-71.063294,42.354899],[-71.063494,42.354826],[-71.063468,42.354859],[-71.063468,42.354904],[-71.06354,42.354939],[-71.063882,42.354821],[-71.063902,42.354768],[-71.063956,42.354731],[-71.063948,42.354674],[-71.064094,42.354623],[-71.064173,42.354564],[-71.064184,42.354523],[-71.064173,42.354482],[-71.064141,42.354447],[-71.064367,42.35436],[-71.064399,42.354325],[-71.064401,42.354251],[-71.064602,42.354175],[-71.064625,42.354149],[-71.06463,42.354106],[-71.064797,42.354047],[-71.064777,42.354081],[-71.064817,42.354125],[-71.064867,42.354125],[-71.065001,42.354078],[-71.064911,42.354118],[-71.064895,42.354142],[-71.064847,42.354137],[-71.064634,42.354212],[-71.064603,42.354246],[-71.064618,42.354271],[-71.064385,42.35436],[-71.064365,42.354396],[-71.064385,42.354432],[-71.064357,42.354454],[-71.064357,42.35448],[-71.064228,42.354529],[-71.064215,42.354576],[-71.064125,42.354616],[-71.064112,42.354663],[-71.064057,42.354686],[-71.064046,42.354727],[-71.063931,42.354779],[-71.063943,42.354823],[-71.063994,42.354833],[-71.063967,42.354857],[-71.063967,42.354897],[-71.064005,42.354926],[-71.06406,42.354926],[-71.06433,42.35483],[-71.064369,42.354801],[-71.064369,42.354761],[-71.064451,42.354711],[-71.064451,42.354679],[-71.064531,42.354648],[-71.064546,42.354621],[-71.064635,42.354634],[-71.065049,42.35449],[-71.065067,42.354458],[-71.065029,42.354416],[-71.064948,42.354428],[-71.064899,42.354414],[-71.064804,42.354441],[-71.064762,42.354387],[-71.06494,42.354321],[-71.064955,42.354294],[-71.06494,42.354267],[-71.065082,42.35421],[-71.065099,42.354179],[-71.065083,42.35415],[-71.065231,42.354095],[-71.065244,42.354048],[-71.065361,42.354004],[-71.06538,42.35397],[-71.065596,42.353881],[-71.065596,42.353851],[-71.065568,42.353831],[-71.065477,42.353838],[-71.065608,42.353787],[-71.065625,42.353756],[-71.065608,42.353725],[-71.065567,42.353713],[-71.065407,42.353765],[-71.065396,42.353753],[-71.065968,42.353551],[-71.066015,42.353527],[-71.066047,42.353492],[-71.066058,42.353451]],[[-71.065628,42.352741],[-71.065165,42.352913],[-71.065149,42.352891],[-71.065179,42.352852],[-71.065164,42.352827],[-71.065187,42.352816],[-71.06522,42.352835],[-71.06529,42.352835],[-71.065605,42.352723],[-71.065628,42.352741]],[[-71.065375,42.353655],[-71.065198,42.35372],[-71.06518,42.353752],[-71.065198,42.353784],[-71.065037,42.353846],[-71.065017,42.353882],[-71.065031,42.35391],[-71.064935,42.353947],[-71.064885,42.353905],[-71.06478,42.35392],[-71.064779,42.353878],[-71.064737,42.353847],[-71.064636,42.353861],[-71.064632,42.353832],[-71.064588,42.3538],[-71.064506,42.353807],[-71.064437,42.353774],[-71.064388,42.353786],[-71.064386,42.353762],[-71.064444,42.353728],[-71.064444,42.353692],[-71.064636,42.353617],[-71.064681,42.353679],[-71.064721,42.353699],[-71.064815,42.353699],[-71.06489,42.353672],[-71.064929,42.353732],[-71.065032,42.353763],[-71.065375,42.353655]],[[-71.065293,42.353873],[-71.065283,42.353877],[-71.065278,42.35387],[-71.065293,42.353873]],[[-71.065182,42.352735],[-71.065172,42.352747],[-71.065158,42.352744],[-71.065182,42.352735]],[[-71.065163,42.353971],[-71.065156,42.353973],[-71.065152,42.353968],[-71.065163,42.353971]],[[-71.065047,42.353064],[-71.064938,42.353104],[-71.064915,42.353051],[-71.065018,42.353015],[-71.065009,42.353046],[-71.065047,42.353064]],[[-71.064935,42.353182],[-71.064862,42.353208],[-71.064915,42.353163],[-71.064935,42.353182]],[[-71.064924,42.353999],[-71.064905,42.354005],[-71.064921,42.353992],[-71.064924,42.353999]],[[-71.064771,42.354298],[-71.064764,42.354301],[-71.064762,42.354294],[-71.064771,42.354298]],[[-71.064748,42.354252],[-71.064744,42.354263],[-71.064727,42.354259],[-71.064748,42.354252]],[[-71.063541,42.354758],[-71.063503,42.354784],[-71.063446,42.354766],[-71.063514,42.354742],[-71.063541,42.354758]]],[[[-71.066046,42.354972],[-71.066026,42.354936],[-71.065952,42.354925],[-71.06569,42.355018],[-71.065647,42.355065],[-71.06569,42.355111],[-71.065742,42.355111],[-71.066004,42.355019],[-71.066046,42.354972]]],[[[-71.06602,42.354061],[-71.065981,42.354032],[-71.065916,42.354052],[-71.06587,42.354048],[-71.065657,42.354123],[-71.065626,42.354157],[-71.065657,42.35419],[-71.065694,42.35419],[-71.065996,42.354088],[-71.06602,42.354061]]],[[[-71.06597,42.354146],[-71.065947,42.354129],[-71.065789,42.354183],[-71.065777,42.354205],[-71.065807,42.354214],[-71.06597,42.354146]]],[[[-71.065865,42.354468],[-71.065827,42.3544],[-71.065785,42.354379],[-71.065685,42.354379],[-71.065269,42.354527],[-71.065227,42.354547],[-71.06519,42.354612],[-71.064991,42.354679],[-71.064996,42.354661],[-71.065098,42.354609],[-71.065085,42.35456],[-71.065017,42.35455],[-71.064551,42.354712],[-71.064502,42.354748],[-71.064502,42.3548],[-71.064551,42.354836],[-71.064612,42.354849],[-71.064841,42.354758],[-71.064841,42.354781],[-71.064677,42.354839],[-71.064643,42.354876],[-71.064677,42.354914],[-71.064783,42.354892],[-71.06486,42.354922],[-71.064767,42.354915],[-71.064416,42.35504],[-71.06436,42.355081],[-71.06436,42.35514],[-71.064416,42.355181],[-71.064495,42.355181],[-71.064847,42.355057],[-71.064903,42.355015],[-71.064911,42.354986],[-71.064885,42.354937],[-71.064957,42.354934],[-71.064978,42.354969],[-71.06503,42.354985],[-71.065073,42.355049],[-71.06516,42.355076],[-71.065607,42.354927],[-71.065674,42.354878],[-71.065683,42.354843],[-71.065647,42.354779],[-71.06556,42.354752],[-71.065483,42.354769],[-71.065481,42.354739],[-71.065444,42.354711],[-71.065352,42.354726],[-71.065349,42.354707],[-71.065785,42.354557],[-71.065827,42.354536],[-71.065865,42.354468]]],[[[-71.06583,42.348038],[-71.065811,42.348004],[-71.06574,42.347994],[-71.065486,42.348084],[-71.065405,42.348154],[-71.065536,42.348172],[-71.06579,42.348082],[-71.06583,42.348038]]],[[[-71.06579,42.34818],[-71.065774,42.348151],[-71.065735,42.348139],[-71.065484,42.348224],[-71.065454,42.348246],[-71.065454,42.348277],[-71.0652,42.348371],[-71.065187,42.348421],[-71.06522,42.348445],[-71.065267,42.348445],[-71.065514,42.348358],[-71.065547,42.348333],[-71.065547,42.348299],[-71.065756,42.348218],[-71.06579,42.34818]]],[[[-71.065764,42.353939],[-71.065749,42.353914],[-71.065696,42.353906],[-71.065483,42.353981],[-71.065405,42.354052],[-71.065405,42.354079],[-71.065432,42.354099],[-71.065469,42.354099],[-71.065683,42.354023],[-71.065764,42.353939]]],[[[-71.065738,42.348446],[-71.065721,42.348415],[-71.065658,42.348406],[-71.06542,42.34849],[-71.065384,42.34853],[-71.06542,42.34857],[-71.065464,42.34857],[-71.065702,42.348486],[-71.065738,42.348446]]],[[[-71.065728,42.348293],[-71.06571,42.34828],[-71.065594,42.348319],[-71.065585,42.348337],[-71.065608,42.348344],[-71.065728,42.348293]]],[[[-71.065598,42.348957],[-71.06558,42.348944],[-71.065472,42.34898],[-71.065463,42.348998],[-71.065486,42.349005],[-71.065598,42.348957]]],[[[-71.065588,42.351223],[-71.06557,42.35121],[-71.065438,42.351255],[-71.065428,42.351272],[-71.065452,42.35128],[-71.065588,42.351223]]],[[[-71.065562,42.349094],[-71.065544,42.349081],[-71.065436,42.349117],[-71.065427,42.349135],[-71.06545,42.349142],[-71.065562,42.349094]]],[[[-71.065559,42.349236],[-71.065544,42.349211],[-71.065491,42.349203],[-71.065306,42.349268],[-71.065276,42.349301],[-71.065306,42.349335],[-71.065344,42.349335],[-71.065529,42.349269],[-71.065559,42.349236]]],[[[-71.065483,42.348446],[-71.06546,42.348429],[-71.065302,42.348483],[-71.06529,42.348505],[-71.06532,42.348514],[-71.065483,42.348446]]],[[[-71.065433,42.34879],[-71.065418,42.348765],[-71.065365,42.348757],[-71.06518,42.348822],[-71.06515,42.348855],[-71.06518,42.348889],[-71.065218,42.348889],[-71.065403,42.348823],[-71.065433,42.34879]]],[[[-71.065396,42.34894],[-71.065385,42.348921],[-71.065346,42.348916],[-71.065165,42.34898],[-71.065146,42.349014],[-71.065192,42.349029],[-71.065374,42.348964],[-71.065396,42.34894]]],[[[-71.065379,42.34907],[-71.065364,42.349045],[-71.065311,42.349037],[-71.065098,42.349112],[-71.065068,42.349146],[-71.065098,42.349179],[-71.065135,42.349179],[-71.065349,42.349103],[-71.065379,42.34907]]],[[[-71.065368,42.35121],[-71.06535,42.351197],[-71.065226,42.351239],[-71.065216,42.351256],[-71.06524,42.351264],[-71.065368,42.35121]]],[[[-71.065268,42.35121],[-71.06525,42.351197],[-71.065134,42.351236],[-71.065124,42.351254],[-71.065148,42.351261],[-71.065268,42.35121]]],[[[-71.065176,42.35072],[-71.06514,42.350702],[-71.064983,42.350758],[-71.064969,42.350783],[-71.065003,42.350793],[-71.06516,42.350738],[-71.065176,42.35072]]],[[[-71.065151,42.350784],[-71.065115,42.350766],[-71.064958,42.350822],[-71.064944,42.350847],[-71.064978,42.350857],[-71.065135,42.350802],[-71.065151,42.350784]]],[[[-71.065129,42.350853],[-71.06511,42.350839],[-71.064962,42.35089],[-71.064951,42.350908],[-71.064976,42.350916],[-71.065129,42.350853]]],[[[-71.064944,42.35131],[-71.064926,42.351297],[-71.064802,42.351339],[-71.064792,42.351356],[-71.064816,42.351364],[-71.064944,42.35131]]],[[[-71.064857,42.348456],[-71.064839,42.348443],[-71.064723,42.348482],[-71.064714,42.3485],[-71.064737,42.348507],[-71.064857,42.348456]]],[[[-71.064624,42.351826],[-71.064606,42.351813],[-71.06449,42.351852],[-71.06448,42.35187],[-71.064504,42.351877],[-71.064624,42.351826]]],[[[-71.064621,42.348425],[-71.064603,42.348412],[-71.064487,42.348451],[-71.064478,42.348469],[-71.064501,42.348476],[-71.064621,42.348425]]],[[[-71.064568,42.352055],[-71.06455,42.352042],[-71.064426,42.352084],[-71.064416,42.352101],[-71.06444,42.352109],[-71.064568,42.352055]]],[[[-71.064564,42.352104],[-71.064545,42.35209],[-71.064397,42.352141],[-71.064386,42.352159],[-71.064411,42.352167],[-71.064564,42.352104]]],[[[-71.064548,42.35216],[-71.06453,42.352147],[-71.064414,42.352186],[-71.064404,42.352204],[-71.064428,42.352211],[-71.064548,42.35216]]],[[[-71.064436,42.348399],[-71.064418,42.348386],[-71.064302,42.348425],[-71.064293,42.348443],[-71.064316,42.34845],[-71.064436,42.348399]]],[[[-71.064238,42.350925],[-71.06422,42.350912],[-71.064104,42.350951],[-71.064094,42.350969],[-71.064118,42.350976],[-71.064238,42.350925]]],[[[-71.064209,42.34872],[-71.064186,42.348703],[-71.064028,42.348757],[-71.064016,42.348779],[-71.064046,42.348788],[-71.064209,42.34872]]],[[[-71.064168,42.34884],[-71.06415,42.348827],[-71.06401,42.348875],[-71.064,42.348892],[-71.064024,42.3489],[-71.064168,42.34884]]],[[[-71.064148,42.350914],[-71.06413,42.350901],[-71.064082,42.350916],[-71.06405,42.35089],[-71.063968,42.350917],[-71.06397,42.350892],[-71.063934,42.350874],[-71.06373,42.350944],[-71.063706,42.35097],[-71.063744,42.350999],[-71.063847,42.350966],[-71.063854,42.350992],[-71.063877,42.350999],[-71.064004,42.350957],[-71.064028,42.350965],[-71.064148,42.350914]]],[[[-71.064088,42.3533],[-71.06407,42.353287],[-71.06393,42.353335],[-71.06392,42.353352],[-71.063944,42.35336],[-71.064088,42.3533]]],[[[-71.064049,42.35339],[-71.06403,42.353376],[-71.063983,42.353391],[-71.063958,42.353373],[-71.063817,42.353423],[-71.063806,42.353441],[-71.063831,42.353449],[-71.063871,42.353435],[-71.063896,42.353453],[-71.064049,42.35339]]],[[[-71.064013,42.353283],[-71.063995,42.35327],[-71.063855,42.353318],[-71.063845,42.353335],[-71.063869,42.353343],[-71.064013,42.353283]]],[[[-71.063998,42.35376],[-71.06398,42.353747],[-71.06384,42.353795],[-71.06383,42.353812],[-71.063854,42.35382],[-71.063998,42.35376]]],[[[-71.063943,42.353268],[-71.06392,42.353251],[-71.063762,42.353305],[-71.06375,42.353327],[-71.06378,42.353336],[-71.063943,42.353268]]],[[[-71.063928,42.353374],[-71.06391,42.353361],[-71.06377,42.353409],[-71.06376,42.353426],[-71.063784,42.353434],[-71.063928,42.353374]]],[[[-71.063922,42.353967],[-71.063913,42.35395],[-71.063878,42.353945],[-71.063704,42.354006],[-71.063687,42.354038],[-71.063729,42.354051],[-71.063902,42.353989],[-71.063922,42.353967]]],[[[-71.063915,42.348675],[-71.063896,42.348661],[-71.063748,42.348712],[-71.063737,42.34873],[-71.063762,42.348738],[-71.063915,42.348675]]],[[[-71.063893,42.348743],[-71.06387,42.348726],[-71.063712,42.34878],[-71.0637,42.348802],[-71.06373,42.348811],[-71.063893,42.348743]]],[[[-71.063879,42.34887],[-71.06386,42.348856],[-71.063712,42.348907],[-71.063701,42.348925],[-71.063726,42.348933],[-71.063879,42.34887]]],[[[-71.063873,42.348793],[-71.063855,42.34878],[-71.063739,42.348819],[-71.06373,42.348837],[-71.063753,42.348844],[-71.063873,42.348793]]],[[[-71.063821,42.349148],[-71.063803,42.349135],[-71.063687,42.349174],[-71.063677,42.349192],[-71.063701,42.349199],[-71.063821,42.349148]]],[[[-71.063816,42.35412],[-71.06378,42.354102],[-71.063623,42.354158],[-71.063609,42.354183],[-71.063643,42.354193],[-71.0638,42.354138],[-71.063816,42.35412]]],[[[-71.063808,42.348427],[-71.06379,42.348414],[-71.063674,42.348453],[-71.063665,42.348471],[-71.063688,42.348478],[-71.063808,42.348427]]],[[[-71.063768,42.349293],[-71.06375,42.34928],[-71.063634,42.349319],[-71.063624,42.349337],[-71.063648,42.349344],[-71.063768,42.349293]]],[[[-71.063755,42.349335],[-71.063737,42.349322],[-71.063621,42.349361],[-71.063611,42.349379],[-71.063635,42.349386],[-71.063755,42.349335]]],[[[-71.063718,42.34841],[-71.0637,42.348397],[-71.063584,42.348436],[-71.063575,42.348454],[-71.063598,42.348461],[-71.063718,42.34841]]],[[[-71.063707,42.350883],[-71.063675,42.350859],[-71.063612,42.350879],[-71.06359,42.350859],[-71.063541,42.350875],[-71.063538,42.35085],[-71.06352,42.350845],[-71.063353,42.350902],[-71.063339,42.350927],[-71.063363,42.350939],[-71.063422,42.35092],[-71.063432,42.350944],[-71.063471,42.350937],[-71.063479,42.350961],[-71.063502,42.350968],[-71.063687,42.350905],[-71.063707,42.350883]]],[[[-71.063689,42.34976],[-71.06367,42.349746],[-71.063522,42.349797],[-71.063511,42.349815],[-71.063536,42.349823],[-71.063689,42.34976]]],[[[-71.063632,42.349854],[-71.063614,42.349841],[-71.063474,42.349889],[-71.063464,42.349906],[-71.063488,42.349914],[-71.063632,42.349854]]],[[[-71.063579,42.34995],[-71.06356,42.349936],[-71.063412,42.349987],[-71.063401,42.350005],[-71.063426,42.350013],[-71.063579,42.34995]]],[[[-71.063548,42.35],[-71.06353,42.349987],[-71.06339,42.350035],[-71.06338,42.350052],[-71.063404,42.35006],[-71.063548,42.35]]],[[[-71.063458,42.350418],[-71.06344,42.350405],[-71.063327,42.350443],[-71.06331,42.350427],[-71.063186,42.350469],[-71.063176,42.350486],[-71.0632,42.350494],[-71.06329,42.350462],[-71.063307,42.350479],[-71.063458,42.350418]]],[[[-71.063458,42.35018],[-71.06344,42.350167],[-71.063308,42.350212],[-71.063298,42.350229],[-71.063322,42.350237],[-71.063458,42.35018]]],[[[-71.063434,42.350487],[-71.063416,42.350474],[-71.063284,42.350519],[-71.063274,42.350536],[-71.063298,42.350544],[-71.063434,42.350487]]],[[[-71.063428,42.350246],[-71.06341,42.350233],[-71.063278,42.350278],[-71.063278,42.350303],[-71.063243,42.350329],[-71.063267,42.350337],[-71.063392,42.350292],[-71.063392,42.350268],[-71.063428,42.350246]]],[[[-71.063403,42.35055],[-71.063385,42.350537],[-71.063261,42.350579],[-71.063251,42.350596],[-71.063275,42.350604],[-71.063403,42.35055]]],[[[-71.063386,42.350826],[-71.06335,42.350808],[-71.063193,42.350864],[-71.063179,42.350889],[-71.063213,42.350899],[-71.06337,42.350844],[-71.063386,42.350826]]],[[[-71.063383,42.350765],[-71.063343,42.350745],[-71.063178,42.350804],[-71.06316,42.350824],[-71.0632,42.350843],[-71.063365,42.350785],[-71.063383,42.350765]]],[[[-71.063369,42.350704],[-71.06335,42.35069],[-71.063202,42.350741],[-71.063191,42.350759],[-71.063216,42.350767],[-71.063369,42.350704]]],[[[-71.063368,42.35061],[-71.06335,42.350597],[-71.063226,42.350639],[-71.063216,42.350656],[-71.06324,42.350664],[-71.063368,42.35061]]],[[[-71.063298,42.350483],[-71.06328,42.35047],[-71.063148,42.350515],[-71.063138,42.350532],[-71.063162,42.35054],[-71.063298,42.350483]]],[[[-71.063273,42.350536],[-71.063255,42.350523],[-71.063123,42.350568],[-71.063113,42.350585],[-71.063137,42.350593],[-71.063273,42.350536]]],[[[-71.063248,42.350582],[-71.06323,42.350569],[-71.06309,42.350617],[-71.06308,42.350634],[-71.063104,42.350642],[-71.063248,42.350582]]],[[[-71.063228,42.35063],[-71.06321,42.350617],[-71.06307,42.350665],[-71.06306,42.350682],[-71.063084,42.35069],[-71.063228,42.35063]]],[[[-71.063198,42.350677],[-71.06318,42.350664],[-71.063072,42.3507],[-71.063063,42.350718],[-71.063086,42.350725],[-71.063198,42.350677]]],[[[-71.063178,42.350727],[-71.06316,42.350714],[-71.063028,42.350759],[-71.063028,42.350784],[-71.062982,42.350802],[-71.062971,42.35082],[-71.062996,42.350828],[-71.063137,42.350778],[-71.063148,42.350771],[-71.063137,42.350752],[-71.063178,42.350727]]],[[[-71.063144,42.352238],[-71.063126,42.352225],[-71.063065,42.352237],[-71.062941,42.352279],[-71.062931,42.352296],[-71.063009,42.352293],[-71.063144,42.352238]]],[[[-71.062983,42.352253],[-71.062965,42.35224],[-71.062841,42.352282],[-71.062831,42.352299],[-71.062855,42.352307],[-71.062983,42.352253]]],[[[-71.062922,42.35222],[-71.062904,42.352207],[-71.062772,42.352252],[-71.062762,42.352269],[-71.062786,42.352277],[-71.062922,42.35222]]],[[[-71.062848,42.352215],[-71.06283,42.352202],[-71.062706,42.352244],[-71.062696,42.352261],[-71.06272,42.352269],[-71.062848,42.352215]]],[[[-71.062829,42.353302],[-71.06281,42.353288],[-71.062762,42.353303],[-71.06274,42.353289],[-71.062582,42.353343],[-71.06257,42.353365],[-71.062676,42.353365],[-71.062829,42.353302]]],[[[-71.062829,42.353214],[-71.06281,42.3532],[-71.062759,42.353216],[-71.062744,42.353193],[-71.062596,42.353244],[-71.062585,42.353262],[-71.06261,42.35327],[-71.062654,42.353255],[-71.062669,42.353278],[-71.062829,42.353214]]],[[[-71.062559,42.348354],[-71.06253,42.348332],[-71.062409,42.348373],[-71.062385,42.348346],[-71.062355,42.348346],[-71.062166,42.348414],[-71.062142,42.34844],[-71.06218,42.348469],[-71.062337,42.348417],[-71.062376,42.348432],[-71.062541,42.348374],[-71.062559,42.348354]]],[[[-71.062496,42.349373],[-71.062484,42.349351],[-71.062438,42.349344],[-71.062227,42.349421],[-71.062217,42.349455],[-71.062273,42.349472],[-71.06247,42.349402],[-71.062496,42.349373]]],[[[-71.062463,42.348557],[-71.06244,42.34854],[-71.062282,42.348594],[-71.06227,42.348616],[-71.0623,42.348625],[-71.062463,42.348557]]],[[[-71.062392,42.349323],[-71.06238,42.349301],[-71.062334,42.349294],[-71.062123,42.349371],[-71.062113,42.349405],[-71.062169,42.349422],[-71.062366,42.349352],[-71.062392,42.349323]]],[[[-71.062039,42.353752],[-71.06202,42.353738],[-71.061872,42.353789],[-71.061861,42.353807],[-71.061872,42.353815],[-71.061742,42.353862],[-71.061731,42.35388],[-71.061756,42.353888],[-71.061897,42.353838],[-71.061908,42.353831],[-71.061897,42.353812],[-71.062039,42.353752]]],[[[-71.062006,42.349306],[-71.061988,42.349293],[-71.061872,42.349332],[-71.061862,42.34935],[-71.061886,42.349357],[-71.062006,42.349306]]],[[[-71.061988,42.35386],[-71.06197,42.353847],[-71.061854,42.353886],[-71.061844,42.353904],[-71.061868,42.353911],[-71.061988,42.35386]]],[[[-71.061951,42.349438],[-71.061933,42.349425],[-71.061817,42.349464],[-71.061807,42.349482],[-71.061831,42.349489],[-71.061951,42.349438]]],[[[-71.061941,42.349548],[-71.061926,42.349523],[-71.061892,42.349512],[-71.061688,42.34958],[-71.061658,42.349613],[-71.061673,42.349639],[-71.061498,42.349706],[-71.061487,42.349745],[-71.061513,42.349765],[-71.061551,42.349765],[-71.061736,42.349699],[-71.061762,42.34968],[-71.061751,42.349641],[-71.061911,42.349581],[-71.061941,42.349548]]],[[[-71.061928,42.34988],[-71.06191,42.349867],[-71.061794,42.349906],[-71.061784,42.349924],[-71.061808,42.349931],[-71.061928,42.34988]]],[[[-71.061924,42.3537],[-71.061905,42.353686],[-71.061757,42.353737],[-71.061746,42.353755],[-71.061771,42.353763],[-71.061924,42.3537]]],[[[-71.061898,42.349926],[-71.06188,42.349913],[-71.061764,42.349952],[-71.061754,42.34997],[-71.061778,42.349977],[-71.061898,42.349926]]],[[[-71.061892,42.35],[-71.061874,42.349987],[-71.061758,42.350026],[-71.061748,42.350044],[-71.061772,42.350051],[-71.061892,42.35]]],[[[-71.061868,42.350044],[-71.06185,42.350031],[-71.061734,42.35007],[-71.061734,42.350095],[-71.061694,42.350124],[-71.061718,42.350131],[-71.061827,42.350092],[-71.061827,42.350068],[-71.061868,42.350044]]],[[[-71.061851,42.348312],[-71.061838,42.348288],[-71.061789,42.348281],[-71.061583,42.348354],[-71.061555,42.348385],[-71.061583,42.348416],[-71.061618,42.348416],[-71.061823,42.348343],[-71.061851,42.348312]]],[[[-71.061828,42.353783],[-71.06181,42.35377],[-71.061694,42.353809],[-71.061684,42.353827],[-71.061708,42.353834],[-71.061828,42.353783]]],[[[-71.061825,42.353653],[-71.061806,42.353639],[-71.061658,42.35369],[-71.061647,42.353708],[-71.061672,42.353716],[-71.061825,42.353653]]],[[[-71.061824,42.350155],[-71.061806,42.350142],[-71.061698,42.350178],[-71.061689,42.350196],[-71.061712,42.350203],[-71.061824,42.350155]]],[[[-71.061798,42.3502],[-71.06178,42.350187],[-71.061664,42.350226],[-71.061654,42.350244],[-71.061678,42.350251],[-71.061798,42.3502]]],[[[-71.061789,42.350292],[-71.061778,42.350272],[-71.061735,42.350265],[-71.061546,42.350333],[-71.061524,42.350348],[-71.061524,42.35037],[-71.061472,42.350406],[-71.061472,42.350432],[-71.061497,42.35045],[-71.061532,42.35045],[-71.061737,42.350377],[-71.061762,42.350359],[-71.061753,42.350323],[-71.061789,42.350292]]],[[[-71.06177,42.348421],[-71.061752,42.348408],[-71.061636,42.348447],[-71.061627,42.348465],[-71.06165,42.348472],[-71.06177,42.348421]]],[[[-71.061759,42.353607],[-71.061744,42.353582],[-71.061691,42.353574],[-71.061506,42.353639],[-71.061476,42.353672],[-71.061506,42.353706],[-71.061544,42.353706],[-71.061729,42.35364],[-71.061759,42.353607]]],[[[-71.061747,42.353738],[-71.061729,42.353725],[-71.061613,42.353764],[-71.061603,42.353782],[-71.061627,42.353789],[-71.061747,42.353738]]],[[[-71.061692,42.348648],[-71.06168,42.348626],[-71.06165,42.348617],[-71.061553,42.348648],[-71.061503,42.348639],[-71.061297,42.348712],[-71.061269,42.348743],[-71.061282,42.348767],[-71.061314,42.348776],[-71.061424,42.348741],[-71.061469,42.348747],[-71.061666,42.348677],[-71.061692,42.348648]]],[[[-71.061645,42.348297],[-71.061629,42.348268],[-71.061569,42.348259],[-71.061339,42.348341],[-71.061305,42.348378],[-71.061339,42.348416],[-71.061381,42.348416],[-71.061611,42.348335],[-71.061645,42.348297]]],[[[-71.061628,42.35355],[-71.06161,42.353537],[-71.061478,42.353582],[-71.061468,42.353599],[-71.061492,42.353607],[-71.061628,42.35355]]],[[[-71.06161,42.348837],[-71.061592,42.348824],[-71.061502,42.348854],[-71.061476,42.348825],[-71.061444,42.348825],[-71.061246,42.348895],[-71.06122,42.348924],[-71.061246,42.348953],[-71.061279,42.348953],[-71.06161,42.348837]]],[[[-71.061608,42.3485],[-71.06159,42.348487],[-71.061474,42.348526],[-71.061465,42.348544],[-71.061488,42.348551],[-71.061608,42.3485]]],[[[-71.061597,42.348184],[-71.061579,42.348171],[-71.061408,42.348226],[-71.061234,42.348287],[-71.061217,42.348319],[-71.061259,42.348332],[-71.061432,42.34827],[-71.061451,42.348241],[-71.061597,42.348184]]],[[[-71.061548,42.349568],[-71.061518,42.349535],[-71.061446,42.349547],[-71.061435,42.349509],[-71.061382,42.349501],[-71.061182,42.349574],[-71.061171,42.349613],[-71.061209,42.349634],[-71.06114,42.349659],[-71.06113,42.349676],[-71.061154,42.349684],[-71.061268,42.349643],[-71.061295,42.349667],[-71.061333,42.349667],[-71.061518,42.349601],[-71.061548,42.349568]]],[[[-71.061493,42.35095],[-71.06147,42.350933],[-71.061312,42.350987],[-71.0613,42.351009],[-71.06133,42.351018],[-71.061493,42.35095]]],[[[-71.061472,42.34815],[-71.061454,42.348118],[-71.061386,42.348108],[-71.06114,42.348195],[-71.061102,42.348237],[-71.06114,42.348279],[-71.061187,42.348279],[-71.061434,42.348192],[-71.061472,42.34815]]],[[[-71.061438,42.349255],[-71.06142,42.349242],[-71.061288,42.349287],[-71.061278,42.349304],[-71.061302,42.349312],[-71.061438,42.349255]]],[[[-71.061418,42.351122],[-71.0614,42.351109],[-71.061284,42.351148],[-71.061274,42.351166],[-71.061298,42.351173],[-71.061418,42.351122]]],[[[-71.061399,42.349052],[-71.06138,42.349038],[-71.061232,42.349089],[-71.061221,42.349107],[-71.061246,42.349115],[-71.061399,42.349052]]],[[[-71.061397,42.35118],[-71.061379,42.351167],[-71.061263,42.351206],[-71.061253,42.351224],[-71.061277,42.351231],[-71.061397,42.35118]]],[[[-71.061371,42.35124],[-71.061353,42.351227],[-71.061237,42.351266],[-71.061227,42.351284],[-71.061251,42.351291],[-71.061371,42.35124]]],[[[-71.061368,42.34943],[-71.06135,42.349417],[-71.061234,42.349456],[-71.061224,42.349474],[-71.061248,42.349481],[-71.061368,42.34943]]],[[[-71.061352,42.351289],[-71.061334,42.351276],[-71.061218,42.351315],[-71.061208,42.351333],[-71.061232,42.35134],[-71.061352,42.351289]]],[[[-71.061349,42.349228],[-71.061309,42.349208],[-71.061144,42.349267],[-71.061126,42.349287],[-71.061166,42.349306],[-71.061331,42.349248],[-71.061349,42.349228]]],[[[-71.061261,42.349678],[-71.061243,42.349665],[-71.061119,42.349707],[-71.061109,42.349724],[-71.061133,42.349732],[-71.061261,42.349678]]],[[[-71.061244,42.35337],[-71.061226,42.353357],[-71.06111,42.353396],[-71.0611,42.353414],[-71.061124,42.353421],[-71.061244,42.35337]]],[[[-71.061238,42.354774],[-71.06122,42.354761],[-71.061104,42.3548],[-71.061094,42.354818],[-71.061118,42.354825],[-71.061238,42.354774]]],[[[-71.061222,42.34983],[-71.06121,42.349808],[-71.061164,42.349801],[-71.060953,42.349878],[-71.060943,42.349912],[-71.060999,42.349929],[-71.061196,42.349859],[-71.061222,42.34983]]],[[[-71.061188,42.354916],[-71.06117,42.354903],[-71.061054,42.354942],[-71.061044,42.35496],[-71.061068,42.354967],[-71.061188,42.354916]]],[[[-71.061188,42.353344],[-71.06117,42.353331],[-71.061054,42.35337],[-71.061044,42.353388],[-71.061068,42.353395],[-71.061188,42.353344]]],[[[-71.061156,42.35003],[-71.061141,42.350003],[-71.061084,42.349995],[-71.060862,42.350073],[-71.06083,42.350109],[-71.060862,42.350144],[-71.060902,42.350144],[-71.061124,42.350065],[-71.061156,42.35003]]],[[[-71.061138,42.35332],[-71.06112,42.353307],[-71.061004,42.353346],[-71.060994,42.353364],[-71.061018,42.353371],[-71.061138,42.35332]]],[[[-71.061048,42.353275],[-71.06103,42.353262],[-71.060898,42.353307],[-71.060781,42.353359],[-71.060771,42.353376],[-71.060795,42.353384],[-71.060912,42.353342],[-71.061048,42.353275]]],[[[-71.061038,42.34849],[-71.06102,42.348477],[-71.060904,42.348516],[-71.060895,42.348534],[-71.060918,42.348541],[-71.061038,42.34849]]],[[[-71.061032,42.348602],[-71.061017,42.348575],[-71.06096,42.348567],[-71.060738,42.348645],[-71.060706,42.348681],[-71.060738,42.348716],[-71.060778,42.348716],[-71.061,42.348637],[-71.061032,42.348602]]],[[[-71.061005,42.348717],[-71.060989,42.348688],[-71.060929,42.348679],[-71.060699,42.348761],[-71.060665,42.348798],[-71.060699,42.348836],[-71.060741,42.348836],[-71.060971,42.348755],[-71.061005,42.348717]]],[[[-71.060988,42.353363],[-71.06097,42.35335],[-71.060854,42.353389],[-71.060844,42.353407],[-71.060868,42.353414],[-71.060988,42.353363]]],[[[-71.060942,42.348827],[-71.06093,42.348805],[-71.060884,42.348798],[-71.060673,42.348875],[-71.060663,42.348909],[-71.060719,42.348926],[-71.060916,42.348856],[-71.060942,42.348827]]],[[[-71.060938,42.35322],[-71.06092,42.353207],[-71.060804,42.353246],[-71.060794,42.353264],[-71.060818,42.353271],[-71.060938,42.35322]]],[[[-71.060862,42.353302],[-71.060844,42.353289],[-71.060728,42.353328],[-71.060718,42.353346],[-71.060742,42.353353],[-71.060862,42.353302]]],[[[-71.060847,42.349174],[-71.060827,42.349137],[-71.060749,42.349125],[-71.060478,42.349221],[-71.060434,42.34927],[-71.060455,42.349307],[-71.06049,42.34932],[-71.060464,42.349333],[-71.060488,42.349351],[-71.060803,42.349223],[-71.060847,42.349174]]],[[[-71.060733,42.34939],[-71.060718,42.349365],[-71.060684,42.349354],[-71.06054,42.349394],[-71.060424,42.349433],[-71.060414,42.349451],[-71.060451,42.349453],[-71.060453,42.349465],[-71.060396,42.349499],[-71.060518,42.349489],[-71.060703,42.349423],[-71.060733,42.34939]]],[[[-71.060695,42.349506],[-71.06068,42.349481],[-71.060646,42.34947],[-71.060538,42.349504],[-71.06052,42.34949],[-71.060396,42.349532],[-71.060396,42.349557],[-71.06036,42.3496],[-71.060409,42.349612],[-71.06036,42.349644],[-71.060384,42.349651],[-71.060493,42.349612],[-71.06068,42.349531],[-71.060695,42.349506]]],[[[-71.060609,42.34967],[-71.060594,42.349645],[-71.060541,42.349637],[-71.060328,42.349712],[-71.060298,42.349746],[-71.060328,42.349779],[-71.060365,42.349779],[-71.060579,42.349703],[-71.060609,42.34967]]],[[[-71.060598,42.35304],[-71.06058,42.353027],[-71.060464,42.353066],[-71.060454,42.353084],[-71.060478,42.353091],[-71.060598,42.35304]]],[[[-71.060588,42.349342],[-71.06057,42.349329],[-71.060454,42.349368],[-71.060444,42.349386],[-71.060468,42.349393],[-71.060588,42.349342]]],[[[-71.060582,42.349792],[-71.060567,42.349765],[-71.06053,42.349754],[-71.060288,42.349835],[-71.060256,42.349871],[-71.060271,42.349898],[-71.060236,42.34993],[-71.06026,42.349938],[-71.06055,42.349827],[-71.060582,42.349792]]],[[[-71.060518,42.352997],[-71.0605,42.352984],[-71.060384,42.353023],[-71.060374,42.353041],[-71.060398,42.353048],[-71.060518,42.352997]]],[[[-71.060508,42.353283],[-71.06049,42.35327],[-71.060366,42.353312],[-71.060356,42.353329],[-71.06038,42.353337],[-71.060508,42.353283]]],[[[-71.060504,42.35315],[-71.060486,42.353137],[-71.06037,42.353176],[-71.06036,42.353194],[-71.060384,42.353201],[-71.060504,42.35315]]],[[[-71.060488,42.34964],[-71.06047,42.349627],[-71.060354,42.349666],[-71.060344,42.349684],[-71.060368,42.349691],[-71.060488,42.34964]]],[[[-71.060468,42.352974],[-71.06045,42.352961],[-71.060326,42.353003],[-71.060316,42.35302],[-71.06034,42.353028],[-71.060468,42.352974]]],[[[-71.060428,42.3531],[-71.06041,42.353087],[-71.060294,42.353126],[-71.060284,42.353144],[-71.060308,42.353151],[-71.060428,42.3531]]],[[[-71.060419,42.353405],[-71.060418,42.35338],[-71.0604,42.353367],[-71.060176,42.353446],[-71.060154,42.353461],[-71.060154,42.353483],[-71.060176,42.353499],[-71.060231,42.353499],[-71.060347,42.353459],[-71.060419,42.353405]]],[[[-71.060374,42.35307],[-71.060356,42.353057],[-71.06024,42.353096],[-71.06023,42.353114],[-71.060254,42.353121],[-71.060374,42.35307]]],[[[-71.060318,42.350037],[-71.0603,42.350024],[-71.060184,42.350063],[-71.060174,42.350081],[-71.060198,42.350088],[-71.060318,42.350037]]],[[[-71.060314,42.35015],[-71.060286,42.350118],[-71.060297,42.3501],[-71.060273,42.350093],[-71.060046,42.35019],[-71.060031,42.350215],[-71.060061,42.350249],[-71.060099,42.350249],[-71.060284,42.350183],[-71.060314,42.35015]]],[[[-71.060174,42.34947],[-71.060163,42.34945],[-71.06012,42.349443],[-71.059918,42.349517],[-71.059909,42.349548],[-71.05996,42.349564],[-71.06015,42.349497],[-71.060174,42.34947]]],[[[-71.060158,42.352962],[-71.06014,42.352949],[-71.060024,42.352988],[-71.060014,42.353006],[-71.060038,42.353013],[-71.060158,42.352962]]],[[[-71.060119,42.349556],[-71.060079,42.349536],[-71.059914,42.349595],[-71.059896,42.349615],[-71.059936,42.349634],[-71.060101,42.349576],[-71.060119,42.349556]]],[[[-71.060105,42.35341],[-71.060092,42.353386],[-71.060043,42.353379],[-71.059837,42.353452],[-71.059809,42.353483],[-71.059837,42.353514],[-71.059872,42.353514],[-71.060077,42.353441],[-71.060105,42.35341]]],[[[-71.060086,42.349644],[-71.060075,42.349625],[-71.060036,42.34962],[-71.059855,42.349684],[-71.059836,42.349718],[-71.059882,42.349733],[-71.060064,42.349668],[-71.060086,42.349644]]],[[[-71.059972,42.351044],[-71.05996,42.351022],[-71.059914,42.351015],[-71.059703,42.351092],[-71.059693,42.351126],[-71.059749,42.351143],[-71.059946,42.351073],[-71.059972,42.351044]]],[[[-71.059901,42.351135],[-71.059865,42.351117],[-71.059708,42.351173],[-71.059694,42.351198],[-71.059728,42.351208],[-71.059885,42.351153],[-71.059901,42.351135]]],[[[-71.059858,42.3533],[-71.05984,42.353287],[-71.059724,42.353326],[-71.059714,42.353344],[-71.059738,42.353351],[-71.059858,42.3533]]],[[[-71.059822,42.35326],[-71.05981,42.353238],[-71.059764,42.353231],[-71.059553,42.353308],[-71.059543,42.353342],[-71.059599,42.353359],[-71.059796,42.353289],[-71.059822,42.35326]]],[[[-71.059758,42.352753],[-71.05974,42.35274],[-71.059616,42.352782],[-71.059606,42.352799],[-71.05963,42.352807],[-71.059758,42.352753]]],[[[-71.059688,42.352737],[-71.05967,42.352724],[-71.059633,42.352735],[-71.059609,42.352718],[-71.059336,42.352815],[-71.05931,42.352835],[-71.05931,42.352862],[-71.059336,42.352882],[-71.059374,42.352882],[-71.059559,42.352816],[-71.059589,42.352783],[-71.059688,42.352737]]],[[[-71.059669,42.354954],[-71.059629,42.354934],[-71.059464,42.354993],[-71.059446,42.355013],[-71.059486,42.355032],[-71.059651,42.354974],[-71.059669,42.354954]]],[[[-71.059649,42.35171],[-71.059634,42.351685],[-71.059581,42.351677],[-71.059377,42.351747],[-71.059366,42.351775],[-71.059396,42.351809],[-71.059434,42.351809],[-71.059619,42.351743],[-71.059649,42.35171]]],[[[-71.059622,42.35492],[-71.059573,42.354873],[-71.059538,42.354868],[-71.059364,42.354929],[-71.059347,42.354961],[-71.059394,42.354998],[-71.059429,42.355004],[-71.059602,42.354942],[-71.059622,42.35492]]],[[[-71.059562,42.3516],[-71.059553,42.351583],[-71.059518,42.351578],[-71.059263,42.351665],[-71.059249,42.35169],[-71.059273,42.351702],[-71.059369,42.351684],[-71.059542,42.351622],[-71.059562,42.3516]]],[[[-71.059518,42.351097],[-71.0595,42.351084],[-71.059384,42.351123],[-71.059374,42.351141],[-71.059398,42.351148],[-71.059518,42.351097]]],[[[-71.059482,42.354813],[-71.059473,42.354796],[-71.059438,42.354791],[-71.059264,42.354852],[-71.059247,42.354884],[-71.059289,42.354897],[-71.059462,42.354835],[-71.059482,42.354813]]],[[[-71.059478,42.35117],[-71.05946,42.351157],[-71.059344,42.351196],[-71.059334,42.351214],[-71.059358,42.351221],[-71.059478,42.35117]]],[[[-71.059432,42.354774],[-71.059389,42.354714],[-71.059364,42.354707],[-71.059169,42.354773],[-71.059147,42.354797],[-71.059169,42.354822],[-71.059196,42.354822],[-71.059204,42.354852],[-71.059227,42.354859],[-71.059412,42.354796],[-71.059432,42.354774]]],[[[-71.059428,42.3531],[-71.05941,42.353087],[-71.059294,42.353126],[-71.059284,42.353144],[-71.059308,42.353151],[-71.059428,42.3531]]],[[[-71.059418,42.35301],[-71.0594,42.352997],[-71.059284,42.353036],[-71.059274,42.353054],[-71.059298,42.353061],[-71.059418,42.35301]]],[[[-71.059387,42.351704],[-71.059364,42.351687],[-71.059206,42.351741],[-71.059194,42.351763],[-71.059224,42.351772],[-71.059387,42.351704]]],[[[-71.059323,42.35178],[-71.0593,42.351763],[-71.059142,42.351817],[-71.05913,42.351839],[-71.05916,42.351848],[-71.059323,42.35178]]],[[[-71.059219,42.35129],[-71.059204,42.351265],[-71.059172,42.351254],[-71.059183,42.35123],[-71.05911,42.351194],[-71.058878,42.351272],[-71.058851,42.351292],[-71.058851,42.351319],[-71.058896,42.351342],[-71.059045,42.351293],[-71.058922,42.35134],[-71.058908,42.351366],[-71.058922,42.351391],[-71.058881,42.351419],[-71.058881,42.351446],[-71.058908,42.351466],[-71.058945,42.351466],[-71.059159,42.35139],[-71.059185,42.351371],[-71.059174,42.351332],[-71.059219,42.35129]]],[[[-71.059184,42.353294],[-71.059166,42.353281],[-71.05905,42.35332],[-71.05904,42.353338],[-71.059064,42.353345],[-71.059184,42.353294]]],[[[-71.059098,42.35146],[-71.05908,42.351447],[-71.058964,42.351486],[-71.058954,42.351504],[-71.058978,42.351511],[-71.059098,42.35146]]],[[[-71.059092,42.354385],[-71.059083,42.354368],[-71.059048,42.354363],[-71.058874,42.354424],[-71.058857,42.354456],[-71.058899,42.354469],[-71.059072,42.354407],[-71.059092,42.354385]]],[[[-71.059088,42.353287],[-71.05907,42.353274],[-71.058954,42.353313],[-71.058944,42.353331],[-71.058968,42.353338],[-71.059088,42.353287]]],[[[-71.059066,42.351517],[-71.05903,42.351499],[-71.058873,42.351555],[-71.058859,42.35158],[-71.058893,42.35159],[-71.05905,42.351535],[-71.059066,42.351517]]],[[[-71.059018,42.354332],[-71.059,42.354319],[-71.058884,42.354358],[-71.058874,42.354376],[-71.058898,42.354383],[-71.059018,42.354332]]],[[[-71.059006,42.351604],[-71.058995,42.351585],[-71.058956,42.35158],[-71.058763,42.35165],[-71.058756,42.351678],[-71.058788,42.351695],[-71.058694,42.351734],[-71.058687,42.351761],[-71.058586,42.351834],[-71.058586,42.351854],[-71.058499,42.351892],[-71.058488,42.351912],[-71.058499,42.351932],[-71.058464,42.35195],[-71.058449,42.351981],[-71.058261,42.35205],[-71.058249,42.352094],[-71.058192,42.352134],[-71.058192,42.35216],[-71.058217,42.352178],[-71.058252,42.352178],[-71.058472,42.352098],[-71.058485,42.352074],[-71.058581,42.352013],[-71.058593,42.351958],[-71.058683,42.351923],[-71.058683,42.351889],[-71.058744,42.351865],[-71.058777,42.351821],[-71.058875,42.351757],[-71.058883,42.351728],[-71.05892,42.351699],[-71.058913,42.351673],[-71.059006,42.351604]]],[[[-71.058998,42.353283],[-71.05898,42.35327],[-71.058864,42.353309],[-71.058854,42.353327],[-71.058878,42.353334],[-71.058998,42.353283]]],[[[-71.058959,42.35429],[-71.05894,42.354276],[-71.058792,42.354327],[-71.058781,42.354345],[-71.058806,42.354353],[-71.058959,42.35429]]],[[[-71.058864,42.353268],[-71.058846,42.353255],[-71.05873,42.353294],[-71.05872,42.353312],[-71.058744,42.353319],[-71.058864,42.353268]]],[[[-71.058758,42.353268],[-71.05874,42.353255],[-71.058624,42.353294],[-71.058614,42.353312],[-71.058638,42.353319],[-71.058758,42.353268]]],[[[-71.058568,42.35253],[-71.05855,42.352517],[-71.058505,42.352531],[-71.058507,42.352519],[-71.058483,42.352512],[-71.058427,42.352531],[-71.058423,42.352518],[-71.058498,42.352486],[-71.058473,42.352467],[-71.058214,42.352546],[-71.058204,42.352564],[-71.058228,42.352571],[-71.058323,42.352537],[-71.058276,42.352574],[-71.0583,42.352582],[-71.058364,42.352559],[-71.058381,42.352576],[-71.058426,42.352562],[-71.058424,42.352574],[-71.058448,42.352581],[-71.058568,42.35253]]],[[[-71.058388,42.35247],[-71.05837,42.352457],[-71.058134,42.352538],[-71.058124,42.352556],[-71.058148,42.352563],[-71.058388,42.35247]]],[[[-71.058288,42.35091],[-71.05827,42.350897],[-71.058154,42.350936],[-71.058144,42.350954],[-71.058168,42.350961],[-71.058288,42.35091]]],[[[-71.058278,42.352467],[-71.05826,42.352454],[-71.058144,42.352493],[-71.058134,42.352511],[-71.058158,42.352518],[-71.058278,42.352467]]],[[[-71.058218,42.350887],[-71.0582,42.350874],[-71.058084,42.350913],[-71.058074,42.350931],[-71.058098,42.350938],[-71.058218,42.350887]]],[[[-71.058038,42.352665],[-71.05802,42.352652],[-71.057904,42.352691],[-71.057894,42.352709],[-71.057918,42.352716],[-71.058038,42.352665]]],[[[-71.058032,42.352768],[-71.058014,42.352755],[-71.057898,42.352794],[-71.057888,42.352812],[-71.057912,42.352819],[-71.058032,42.352768]]],[[[-71.058008,42.352905],[-71.05799,42.352892],[-71.057874,42.352931],[-71.057864,42.352949],[-71.057888,42.352956],[-71.058008,42.352905]]],[[[-71.057803,42.350693],[-71.057785,42.35068],[-71.057669,42.350719],[-71.057659,42.350737],[-71.057683,42.350744],[-71.057803,42.350693]]],[[[-71.057758,42.350677],[-71.05774,42.350664],[-71.057624,42.350703],[-71.057614,42.350721],[-71.057638,42.350728],[-71.057758,42.350677]]],[[[-71.05775,42.352226],[-71.057714,42.352208],[-71.057557,42.352264],[-71.057543,42.352289],[-71.057577,42.352299],[-71.057734,42.352244],[-71.05775,42.352226]]],[[[-71.057623,42.35219],[-71.057583,42.35217],[-71.057418,42.352229],[-71.0574,42.352249],[-71.05744,42.352268],[-71.057605,42.35221],[-71.057623,42.35219]]],[[[-71.057536,42.35216],[-71.0575,42.352142],[-71.057343,42.352198],[-71.057329,42.352223],[-71.057363,42.352233],[-71.05752,42.352178],[-71.057536,42.35216]]],[[[-71.057456,42.35214],[-71.05742,42.352122],[-71.057263,42.352178],[-71.057249,42.352203],[-71.057283,42.352213],[-71.05744,42.352158],[-71.057456,42.35214]]],[[[-71.057414,42.350403],[-71.057396,42.35039],[-71.05728,42.350429],[-71.05727,42.350447],[-71.057294,42.350454],[-71.057414,42.350403]]],[[[-71.057398,42.350494],[-71.05738,42.350481],[-71.057264,42.35052],[-71.057254,42.350538],[-71.057278,42.350545],[-71.057398,42.350494]]],[[[-71.057369,42.35211],[-71.057329,42.35209],[-71.057164,42.352149],[-71.057146,42.352169],[-71.057186,42.352188],[-71.057351,42.35213],[-71.057369,42.35211]]],[[[-71.057348,42.351707],[-71.05733,42.351694],[-71.057206,42.351736],[-71.057196,42.351753],[-71.05722,42.351761],[-71.057348,42.351707]]],[[[-71.057338,42.35175],[-71.05732,42.351737],[-71.057204,42.351776],[-71.057194,42.351794],[-71.057218,42.351801],[-71.057338,42.35175]]],[[[-71.057309,42.351897],[-71.057291,42.351884],[-71.057175,42.351923],[-71.057165,42.351941],[-71.057189,42.351948],[-71.057309,42.351897]]],[[[-71.057298,42.351955],[-71.05728,42.351942],[-71.057172,42.351978],[-71.057163,42.351996],[-71.057186,42.352003],[-71.057298,42.351955]]],[[[-71.057298,42.350925],[-71.05728,42.350912],[-71.057148,42.350957],[-71.057138,42.350974],[-71.057162,42.350982],[-71.057298,42.350925]]],[[[-71.057268,42.351063],[-71.05725,42.35105],[-71.057118,42.351095],[-71.057108,42.351112],[-71.057132,42.35112],[-71.057268,42.351063]]],[[[-71.057208,42.35141],[-71.05719,42.351397],[-71.057074,42.351436],[-71.057064,42.351454],[-71.057088,42.351461],[-71.057208,42.35141]]],[[[-71.057198,42.35055],[-71.05718,42.350537],[-71.057064,42.350576],[-71.057054,42.350594],[-71.057078,42.350601],[-71.057198,42.35055]]],[[[-71.057147,42.350632],[-71.057129,42.350619],[-71.057013,42.350658],[-71.057003,42.350676],[-71.057027,42.350683],[-71.057147,42.350632]]],[[[-71.057094,42.350533],[-71.057076,42.35052],[-71.05696,42.350559],[-71.05695,42.350577],[-71.056974,42.350584],[-71.057094,42.350533]]],[[[-71.057038,42.34984],[-71.05702,42.349827],[-71.056904,42.349866],[-71.056894,42.349884],[-71.056918,42.349891],[-71.057038,42.34984]]],[[[-71.057022,42.349903],[-71.057013,42.349886],[-71.056978,42.349881],[-71.056804,42.349942],[-71.056787,42.349974],[-71.056829,42.349987],[-71.057002,42.349925],[-71.057022,42.349903]]],[[[-71.056868,42.352028],[-71.05685,42.352015],[-71.05671,42.352063],[-71.0567,42.35208],[-71.056724,42.352088],[-71.056868,42.352028]]],[[[-71.056834,42.35023],[-71.056816,42.350217],[-71.0567,42.350256],[-71.05669,42.350274],[-71.056714,42.350281],[-71.056834,42.35023]]],[[[-71.056829,42.34976],[-71.056818,42.34974],[-71.056775,42.349733],[-71.056573,42.349807],[-71.056564,42.349838],[-71.056615,42.349854],[-71.056805,42.349787],[-71.056829,42.34976]]],[[[-71.056798,42.350307],[-71.05678,42.350294],[-71.056664,42.350333],[-71.056654,42.350351],[-71.056678,42.350358],[-71.056798,42.350307]]],[[[-71.056792,42.34984],[-71.056783,42.349823],[-71.056748,42.349818],[-71.056564,42.349884],[-71.056557,42.349911],[-71.056584,42.349925],[-71.056506,42.349955],[-71.056491,42.34998],[-71.056506,42.350006],[-71.056539,42.350016],[-71.056461,42.350046],[-71.05645,42.350085],[-71.056476,42.350105],[-71.056514,42.350105],[-71.056714,42.350031],[-71.056725,42.349992],[-71.056681,42.34997],[-71.05677,42.349929],[-71.05677,42.349901],[-71.056725,42.349879],[-71.056792,42.34984]]],[[[-71.056748,42.351994],[-71.05673,42.351981],[-71.056598,42.352026],[-71.056588,42.352043],[-71.056612,42.352051],[-71.056748,42.351994]]],[[[-71.056659,42.350094],[-71.056619,42.350074],[-71.056454,42.350133],[-71.056436,42.350153],[-71.056476,42.350172],[-71.056641,42.350114],[-71.056659,42.350094]]],[[[-71.056643,42.350613],[-71.056625,42.3506],[-71.056485,42.350648],[-71.056475,42.350665],[-71.056499,42.350673],[-71.056643,42.350613]]],[[[-71.056626,42.353203],[-71.05659,42.353185],[-71.056433,42.353241],[-71.056419,42.353266],[-71.056453,42.353276],[-71.05661,42.353221],[-71.056626,42.353203]]],[[[-71.056622,42.350185],[-71.056613,42.350168],[-71.056578,42.350163],[-71.056404,42.350224],[-71.056387,42.350256],[-71.056429,42.350269],[-71.056602,42.350207],[-71.056622,42.350185]]],[[[-71.056608,42.35068],[-71.05659,42.350667],[-71.05645,42.350715],[-71.05644,42.350732],[-71.056464,42.35074],[-71.056608,42.35068]]],[[[-71.056559,42.353165],[-71.05654,42.353151],[-71.056392,42.353202],[-71.056381,42.35322],[-71.056406,42.353228],[-71.056559,42.353165]]],[[[-71.056559,42.350834],[-71.056544,42.350809],[-71.056491,42.350801],[-71.056306,42.350866],[-71.056276,42.350899],[-71.056306,42.350933],[-71.056344,42.350933],[-71.056529,42.350867],[-71.056559,42.350834]]],[[[-71.056484,42.353127],[-71.056465,42.353113],[-71.056317,42.353164],[-71.056306,42.353182],[-71.056331,42.35319],[-71.056484,42.353127]]],[[[-71.056468,42.35192],[-71.05645,42.351907],[-71.05631,42.351955],[-71.0563,42.351972],[-71.056324,42.35198],[-71.056468,42.35192]]],[[[-71.056428,42.35103],[-71.05641,42.351017],[-71.056294,42.351056],[-71.056284,42.351074],[-71.056308,42.351081],[-71.056428,42.35103]]],[[[-71.056398,42.351097],[-71.05638,42.351084],[-71.05624,42.351132],[-71.05623,42.351149],[-71.056254,42.351157],[-71.056398,42.351097]]],[[[-71.056393,42.35309],[-71.05637,42.353073],[-71.056212,42.353127],[-71.0562,42.353149],[-71.05623,42.353158],[-71.056393,42.35309]]],[[[-71.056388,42.3519],[-71.05637,42.351887],[-71.056262,42.351923],[-71.056253,42.351941],[-71.056276,42.351948],[-71.056388,42.3519]]],[[[-71.056364,42.351176],[-71.056346,42.351163],[-71.05623,42.351202],[-71.05622,42.35122],[-71.056244,42.351227],[-71.056364,42.351176]]],[[[-71.056338,42.35493],[-71.05632,42.354917],[-71.05618,42.354965],[-71.05617,42.354982],[-71.056194,42.35499],[-71.056338,42.35493]]],[[[-71.056328,42.354836],[-71.05631,42.354823],[-71.05617,42.354871],[-71.05616,42.354888],[-71.056184,42.354896],[-71.056328,42.354836]]],[[[-71.056309,42.35475],[-71.05629,42.354736],[-71.056142,42.354787],[-71.056131,42.354805],[-71.056156,42.354813],[-71.056309,42.35475]]],[[[-71.056306,42.35467],[-71.05627,42.354652],[-71.056113,42.354708],[-71.056099,42.354733],[-71.056133,42.354743],[-71.05629,42.354688],[-71.056306,42.35467]]],[[[-71.056258,42.351376],[-71.05624,42.351363],[-71.056116,42.351405],[-71.056116,42.35143],[-71.056087,42.351447],[-71.056097,42.351465],[-71.056056,42.351496],[-71.05608,42.351504],[-71.056197,42.351462],[-71.056197,42.351438],[-71.056238,42.351416],[-71.056228,42.351399],[-71.056258,42.351376]]],[[[-71.056256,42.350842],[-71.056238,42.350829],[-71.056098,42.350877],[-71.056088,42.350894],[-71.056112,42.350902],[-71.056256,42.350842]]],[[[-71.056248,42.35305],[-71.05623,42.353037],[-71.056114,42.353076],[-71.056104,42.353094],[-71.056128,42.353101],[-71.056248,42.35305]]],[[[-71.056226,42.350933],[-71.056208,42.35092],[-71.056068,42.350968],[-71.056058,42.350985],[-71.056082,42.350993],[-71.056226,42.350933]]],[[[-71.056186,42.351036],[-71.056168,42.351023],[-71.056028,42.351071],[-71.056018,42.351088],[-71.056042,42.351096],[-71.056186,42.351036]]],[[[-71.056148,42.351145],[-71.05613,42.351132],[-71.05599,42.35118],[-71.05598,42.351197],[-71.056004,42.351205],[-71.056148,42.351145]]],[[[-71.056078,42.35171],[-71.05606,42.351697],[-71.055936,42.351739],[-71.055926,42.351756],[-71.05595,42.351764],[-71.056078,42.35171]]],[[[-71.055977,42.351355],[-71.055959,42.351342],[-71.055819,42.35139],[-71.055809,42.351407],[-71.055833,42.351415],[-71.055977,42.351355]]],[[[-71.055953,42.351412],[-71.055935,42.351399],[-71.055795,42.351447],[-71.055785,42.351464],[-71.055809,42.351472],[-71.055953,42.351412]]],[[[-71.05592,42.351482],[-71.055902,42.351469],[-71.055762,42.351517],[-71.055752,42.351534],[-71.055776,42.351542],[-71.05592,42.351482]]],[[[-71.055888,42.351561],[-71.05587,42.351548],[-71.05573,42.351596],[-71.05572,42.351613],[-71.055744,42.351621],[-71.055888,42.351561]]],[[[-71.055869,42.352226],[-71.055854,42.352201],[-71.05582,42.35219],[-71.055616,42.352258],[-71.05559,42.352278],[-71.05559,42.352305],[-71.055556,42.352328],[-71.055556,42.352355],[-71.055582,42.352375],[-71.05562,42.352375],[-71.055805,42.352309],[-71.055869,42.352226]]],[[[-71.055859,42.351622],[-71.055841,42.351609],[-71.055701,42.351657],[-71.055691,42.351674],[-71.055715,42.351682],[-71.055859,42.351622]]],[[[-71.055808,42.351727],[-71.05579,42.351714],[-71.05565,42.351762],[-71.05564,42.351779],[-71.055664,42.351787],[-71.055808,42.351727]]],[[[-71.055788,42.353336],[-71.055779,42.353319],[-71.055744,42.353314],[-71.05557,42.353375],[-71.055553,42.353388],[-71.05556,42.353414],[-71.055509,42.353437],[-71.055467,42.353485],[-71.055492,42.353493],[-71.055706,42.353414],[-71.055724,42.353394],[-71.055716,42.353379],[-71.055788,42.353336]]],[[[-71.055788,42.351776],[-71.05577,42.351763],[-71.05563,42.351811],[-71.05562,42.351828],[-71.055644,42.351836],[-71.055788,42.351776]]],[[[-71.055558,42.353497],[-71.05554,42.353484],[-71.0554,42.353532],[-71.055346,42.353576],[-71.05537,42.353584],[-71.055487,42.353542],[-71.055558,42.353497]]],[[[-71.055262,42.353653],[-71.055244,42.35364],[-71.055034,42.353711],[-71.054998,42.353753],[-71.055021,42.35377],[-71.055179,42.353716],[-71.055262,42.353653]]]]},"properties":{"kind":"tree"}}]}