{"type":"FeatureCollection","features":[{"type":"Feature","geometry":{"type":"MultiPolygon","coordinates":[[[[-71.06703,42.351826],[-71.067007,42.351692],[-71.066747,42.351106],[-71.065467,42.351257],[-71.065079,42.351235],[-71.065991,42.350995],[-71.065959,42.350666],[-71.065773,42.350663],[-71.065953,42.350615],[-71.06593,42.350327],[-71.065758,42.350337],[-71.065625,42.35037],[-71.065494,42.35033],[-71.065916,42.350219],[-71.065881,42.34989],[-71.065776,42.349769],[-71.06566,42.3498],[-71.065667,42.349768],[-71.066095,42.349646],[-71.066018,42.34951],[-71.066107,42.349483],[-71.066051,42.349385],[-71.065766,42.34946],[-71.06562,42.349445],[-71.065521,42.349461],[-71.065017,42.349594],[-71.064416,42.349501],[-71.064238,42.349548],[-71.063885,42.349494],[-71.064653,42.349291],[-71.06492,42.349208],[-71.065108,42.34912],[-71.065279,42.349075],[-71.06533,42.348887],[-71.065327,42.348846],[-71.06559,42.348877],[-71.066458,42.348649],[-71.066483,42.348529],[-71.06591,42.348462],[-71.065995,42.348064],[-71.065837,42.348044],[-71.065483,42.348137],[-71.065475,42.348101],[-71.065402,42.348018],[-71.06552,42.347941],[-71.065529,42.347903],[-71.065483,42.347819],[-71.065392,42.347805],[-71.065371,42.347781],[-71.065289,42.347784],[-71.065318,42.347764],[-71.065319,42.347677],[-71.065257,42.347643],[-71.064894,42.347587],[-71.064457,42.347702],[-71.064066,42.347898],[-71.064051,42.347932],[-71.063968,42.347919],[-71.063561,42.348026],[-71.063606,42.347866],[-71.06346,42.347843],[-71.063161,42.347922],[-71.063149,42.347964],[-71.062961,42.347921],[-71.062826,42.347957],[-71.062735,42.347939],[-71.062419,42.348022],[-71.062446,42.347953],[-71.062334,42.347917],[-71.061926,42.347827],[-71.061773,42.347867],[-71.061866,42.34764],[-71.061712,42.347604],[-71.060412,42.347947],[-71.060268,42.348293],[-71.05898,42.348633],[-71.058518,42.349275],[-71.058755,42.349332],[-71.060786,42.348796],[-71.060813,42.348731],[-71.060797,42.34879],[-71.060922,42.348818],[-71.060673,42.348884],[-71.060628,42.348962],[-71.060524,42.348995],[-71.060505,42.349043],[-71.06053,42.349049],[-71.060487,42.349162],[-71.060443,42.349109],[-71.060321,42.349063],[-71.058341,42.349585],[-71.058424,42.349376],[-71.057926,42.349266],[-71.057642,42.349341],[-71.057593,42.349464],[-71.056897,42.349647],[-71.056859,42.349739],[-71.056628,42.3498],[-71.056766,42.349237],[-71.057988,42.348915],[-71.05807,42.348711],[-71.057613,42.348605],[-71.056148,42.348991],[-71.056064,42.3492],[-71.056246,42.349241],[-71.055432,42.349469],[-71.056683,42.347603],[-71.056673,42.347544],[-71.055908,42.347262],[-71.055357,42.347407],[-71.054265,42.349032],[-71.053868,42.349439],[-71.053835,42.349489],[-71.053829,42.349573],[-71.053511,42.349657],[-71.052541,42.3511],[-71.053122,42.351315],[-71.053809,42.351134],[-71.054088,42.351237],[-71.054337,42.351171],[-71.054658,42.350693],[-71.054837,42.350815],[-71.055008,42.350855],[-71.055576,42.350841],[-71.055796,42.35079],[-71.055838,42.3508],[-71.056039,42.350748],[-71.056155,42.350777],[-71.056002,42.350821],[-71.055951,42.350916],[-71.055884,42.351066],[-71.055993,42.351093],[-71.055804,42.351143],[-71.055662,42.351444],[-71.055742,42.351477],[-71.054479,42.351779],[-71.053591,42.352013],[-71.053419,42.352188],[-71.053945,42.352466],[-71.054105,42.352517],[-71.054273,42.352542],[-71.054492,42.352491],[-71.05432,42.352554],[-71.050636,42.353527],[-71.050347,42.353632],[-71.05027,42.353796],[-71.050864,42.353945],[-71.054503,42.352986],[-71.054527,42.353034],[-71.054656,42.353068],[-71.056859,42.352484],[-71.056883,42.352454],[-71.057004,42.352489],[-71.057943,42.352241],[-71.058075,42.351859],[-71.058558,42.351732],[-71.058669,42.351632],[-71.058901,42.35136],[-71.059038,42.351101],[-71.05887,42.351063],[-71.059198,42.350975],[-71.0593,42.350722],[-71.059496,42.350764],[-71.059629,42.350729],[-71.059694,42.350802],[-71.059748,42.350814],[-71.059732,42.350823],[-71.059691,42.350931],[-71.059657,42.35094],[-71.059503,42.351292],[-71.059574,42.351308],[-71.059092,42.351438],[-71.059043,42.351567],[-71.059053,42.35163],[-71.059013,42.35164],[-71.059042,42.351817],[-71.059159,42.351807],[-71.059175,42.351904],[-71.058634,42.352046],[-71.058651,42.352164],[-71.056628,42.352697],[-71.056428,42.352768],[-71.056308,42.352837],[-71.056216,42.352942],[-71.056177,42.353035],[-71.056253,42.353048],[-71.05445,42.353523],[-71.054363,42.353589],[-71.053765,42.353754],[-71.05376,42.353798],[-71.053626,42.353833],[-71.053604,42.354049],[-71.054064,42.354075],[-71.054088,42.354088],[-71.051037,42.354892],[-71.050635,42.355101],[-71.050599,42.355152],[-71.050608,42.355196],[-71.050863,42.355461],[-71.050913,42.355475],[-71.051909,42.355217],[-71.051654,42.35537],[-71.051575,42.355442],[-71.051643,42.355512],[-71.051761,42.355486],[-71.051828,42.355547],[-71.051878,42.355551],[-71.052241,42.355455],[-71.052261,42.355473],[-71.053545,42.355135],[-71.053565,42.355141],[-71.053701,42.355105],[-71.053759,42.355161],[-71.054103,42.35507],[-71.054136,42.355081],[-71.053458,42.35526],[-71.053354,42.355313],[-71.053371,42.355411],[-71.050037,42.35629],[-71.050143,42.356868],[-71.050595,42.356824],[-71.053493,42.356059],[-71.053603,42.356064],[-71.054058,42.35602],[-71.056364,42.355412],[-71.056351,42.355337],[-71.056818,42.355214],[-71.05688,42.355338],[-71.057007,42.355353],[-71.057982,42.355096],[-71.057898,42.355174],[-71.056701,42.35549],[-71.056604,42.355561],[-71.056324,42.355836],[-71.056398,42.355891],[-71.05669,42.35601],[-71.058491,42.355535],[-71.05853,42.355552],[-71.059345,42.355339],[-71.059384,42.355368],[-71.059773,42.355266],[-71.0601,42.355492],[-71.060489,42.35539],[-71.060592,42.355439],[-71.060933,42.355362],[-71.061089,42.355401],[-71.061457,42.355303],[-71.06158,42.355366],[-71.061677,42.355341],[-71.061698,42.355353],[-71.061897,42.355301],[-71.062028,42.355365],[-71.062206,42.35532],[-71.062385,42.355415],[-71.063118,42.355222],[-71.063177,42.355145],[-71.063075,42.355091],[-71.063255,42.355044],[-71.063852,42.353943],[-71.063862,42.353896],[-71.063766,42.353866],[-71.063892,42.353833],[-71.063985,42.353676],[-71.063998,42.353634],[-71.063883,42.353598],[-71.064052,42.353554],[-71.064097,42.353425],[-71.063842,42.353376],[-71.064146,42.353296],[-71.064309,42.35284],[-71.064224,42.352834],[-71.064309,42.352812],[-71.064342,42.352668],[-71.064506,42.352625],[-71.064497,42.352681],[-71.064694,42.352696],[-71.065184,42.352567],[-71.065187,42.352593],[-71.065283,42.352598],[-71.066063,42.352392],[-71.066076,42.35222],[-71.06627,42.352169],[-71.066286,42.352029],[-71.06703,42.351826]],[[-71.064695,42.348471],[-71.064678,42.348551],[-71.064607,42.34857],[-71.064395,42.34855],[-71.064695,42.348471]],[[-71.064554,42.348214],[-71.063734,42.34843],[-71.063623,42.348413],[-71.063456,42.348457],[-71.063476,42.348381],[-71.063369,42.348365],[-71.063408,42.348355],[-71.063645,42.34839],[-71.063907,42.348321],[-71.063903,42.348335],[-71.063939,42.348341],[-71.064498,42.3482],[-71.064554,42.348214]],[[-71.064028,42.348647],[-71.06388,42.349061],[-71.063935,42.34907],[-71.063929,42.349094],[-71.063759,42.349142],[-71.063772,42.349073],[-71.063736,42.349067],[-71.063827,42.348879],[-71.063882,42.348686],[-71.064028,42.348647]],[[-71.063762,42.349475],[-71.063761,42.349475],[-71.063758,42.349472],[-71.063762,42.349475]],[[-71.063342,42.350415],[-71.063059,42.350491],[-71.063059,42.35049],[-71.063342,42.350415]],[[-71.063136,42.351053],[-71.063049,42.351044],[-71.062843,42.351098],[-71.062856,42.35105],[-71.063009,42.35101],[-71.063136,42.351053]],[[-71.063106,42.348122],[-71.063099,42.348148],[-71.063024,42.348146],[-71.063106,42.348122]],[[-71.062967,42.348137],[-71.062946,42.348134],[-71.062949,42.348133],[-71.062967,42.348137]],[[-71.06296,42.352428],[-71.062724,42.352454],[-71.062451,42.352526],[-71.062452,42.352508],[-71.062412,42.352483],[-71.061487,42.352561],[-71.061337,42.352601],[-71.061336,42.35258],[-71.061214,42.35259],[-71.06152,42.35251],[-71.061526,42.352545],[-71.061802,42.352529],[-71.062259,42.352409],[-71.06267,42.352453],[-71.062895,42.352394],[-71.062895,42.352415],[-71.062918,42.352427],[-71.06296,42.352428]],[[-71.062797,42.348115],[-71.062787,42.348146],[-71.062772,42.34815],[-71.062777,42.348131],[-71.062754,42.348126],[-71.062797,42.348115]],[[-71.062513,42.348257],[-71.062509,42.348275],[-71.062331,42.348322],[-71.062339,42.348302],[-71.062513,42.348257]],[[-71.062432,42.348169],[-71.061989,42.348276],[-71.062034,42.348165],[-71.062003,42.34815],[-71.062369,42.348053],[-71.062337,42.348145],[-71.062432,42.348169]],[[-71.062012,42.348836],[-71.061826,42.348885],[-71.061862,42.348813],[-71.062012,42.348836]],[[-71.061904,42.348619],[-71.061862,42.348722],[-71.061814,42.348712],[-71.061856,42.348608],[-71.061904,42.348619]],[[-71.061775,42.348982],[-71.061771,42.348993],[-71.061749,42.348989],[-71.061775,42.348982]],[[-71.06151,42.34828],[-71.061492,42.348325],[-71.061414,42.348308],[-71.061269,42.348334],[-71.061277,42.348314],[-71.061361,42.348319],[-71.06151,42.34828]],[[-71.061136,42.351583],[-71.061051,42.351606],[-71.061048,42.351586],[-71.061136,42.351583]],[[-71.060746,42.349452],[-71.060741,42.349465],[-71.060451,42.349541],[-71.060523,42.349366],[-71.060746,42.349452]],[[-71.060104,42.350524],[-71.060103,42.350526],[-71.060055,42.350539],[-71.060056,42.350537],[-71.060104,42.350524]],[[-71.05993,42.352154],[-71.059688,42.352218],[-71.059685,42.352194],[-71.059924,42.352131],[-71.05993,42.352154]],[[-71.05824,42.349711],[-71.05816,42.349898],[-71.057874,42.34983],[-71.057467,42.349937],[-71.057475,42.349896],[-71.05751,42.349903],[-71.05824,42.349711]],[[-71.057453,42.354828],[-71.057351,42.354928],[-71.05733,42.354933],[-71.057235,42.354885],[-71.057453,42.354828]],[[-71.057088,42.354365],[-71.056835,42.354751],[-71.056502,42.354776],[-71.056261,42.35484],[-71.056229,42.354666],[-71.056125,42.354619],[-71.057088,42.354365]]],[[[-71.065565,42.354342],[-71.065534,42.354305],[-71.065487,42.354301],[-71.065203,42.354375],[-71.065172,42.354395],[-71.065165,42.354425],[-71.06519,42.354454],[-71.065236,42.354463],[-71.065527,42.354387],[-71.065558,42.354367],[-71.065565,42.354342]]],[[[-71.065421,42.352871],[-71.065303,42.352844],[-71.065149,42.352885],[-71.065132,42.352932],[-71.065158,42.353013],[-71.065224,42.353027],[-71.065378,42.352986],[-71.065421,42.352871]]],[[[-71.06461,42.353278],[-71.064542,42.353266],[-71.064429,42.353296],[-71.064395,42.353396],[-71.064463,42.35341],[-71.064576,42.35338],[-71.06461,42.353278]]],[[[-71.063935,42.354829],[-71.063869,42.354811],[-71.063761,42.35484],[-71.063738,42.354889],[-71.063804,42.354906],[-71.063912,42.354877],[-71.063935,42.354829]]]]},"properties":{"kind":"building"}},{"type":"Feature","geometry":{"type":"MultiPolygon","coordinates":[[[[-71.066058,42.353451],[-71.066047,42.35341],[-71.066015,42.353375],[-71.065912,42.353343],[-71.065551,42.353432],[-71.065504,42.353408],[-71.065448,42.3534],[-71.065376,42.353413],[-71.065365,42.353401],[-71.065421,42.353399],[-71.06586,42.353283],[-71.065911,42.353246],[-71.065911,42.353192],[-71.06586,42.353155],[-71.065981,42.353102],[-71.066007,42.353073],[-71.066016,42.353039],[-71.065995,42.352992],[-71.066039,42.352955],[-71.066048,42.352923],[-71.066021,42.352832],[-71.065942,42.352773],[-71.065886,42.352765],[-71.065773,42.352788],[-71.06575,42.352742],[-71.065679,42.352726],[-71.066,42.352636],[-71.066022,42.352597],[-71.066,42.352558],[-71.065947,42.352542],[-71.065872,42.352558],[-71.065812,42.352534],[-71.065752,42.352546],[-71.065688,42.352518],[-71.065461,42.352574],[-71.065434,42.352533],[-71.065361,42.35251],[-71.065107,42.352573],[-71.065081,42.35253],[-71.065012,42.352509],[-71.064494,42.352649],[-71.064465,42.352699],[-71.064473,42.352727],[-71.064525,42.352766],[-71.0646,42.352766],[-71.064788,42.352716],[-71.064817,42.352765],[-71.06489,42.352788],[-71.065062,42.352747],[-71.065058,42.352762],[-71.064785,42.352839],[-71.064768,42.352869],[-71.064803,42.352908],[-71.064795,42.352928],[-71.064699,42.352933],[-71.064174,42.353072],[-71.064109,42.35312],[-71.0641,42.353154],[-71.064116,42.353195],[-71.064089,42.353254],[-71.0641,42.353295],[-71.064132,42.35333],[-71.064202,42.353357],[-71.064124,42.353378],[-71.064064,42.353422],[-71.064064,42.353484],[-71.064088,42.353511],[-71.064166,42.353535],[-71.064502,42.353451],[-71.064561,42.353449],[-71.064568,42.353474],[-71.0641,42.353605],[-71.064078,42.353629],[-71.064076,42.353679],[-71.064031,42.353696],[-71.064017,42.353748],[-71.063983,42.353782],[-71.063992,42.353828],[-71.063972,42.353858],[-71.063998,42.353892],[-71.063984,42.353908],[-71.063635,42.354011],[-71.063628,42.354037],[-71.063658,42.354052],[-71.06385,42.354003],[-71.063849,42.354072],[-71.063924,42.354109],[-71.064113,42.354063],[-71.063842,42.354145],[-71.063825,42.354164],[-71.063824,42.354207],[-71.063736,42.354249],[-71.06373,42.35427],[-71.063748,42.354306],[-71.06365,42.354331],[-71.063571,42.35439],[-71.063566,42.354526],[-71.063377,42.354594],[-71.063345,42.354629],[-71.063334,42.35467],[-71.063344,42.354708],[-71.063253,42.354732],[-71.063223,42.354765],[-71.063238,42.354791],[-71.063272,42.354801],[-71.063416,42.354766],[-71.063407,42.354776],[-71.063193,42.354832],[-71.063167,42.354852],[-71.063167,42.354879],[-71.063212,42.354901],[-71.06337,42.354862],[-71.063371,42.354903],[-71.063388,42.354922],[-71.063443,42.354939],[-71.063871,42.354826],[-71.0639,42.354834],[-71.063874,42.354856],[-71.063874,42.354897],[-71.06394,42.354929],[-71.06433,42.35483],[-71.064369,42.354801],[-71.064358,42.354749],[-71.064403,42.354737],[-71.064386,42.354774],[-71.064393,42.354799],[-71.064443,42.354836],[-71.064477,42.354841],[-71.064741,42.354775],[-71.064745,42.35479],[-71.064721,42.354784],[-71.064568,42.354823],[-71.064558,42.354841],[-71.06458,42.354848],[-71.064569,42.354892],[-71.064599,42.354914],[-71.064698,42.354899],[-71.064763,42.354916],[-71.064263,42.355056],[-71.064232,42.35511],[-71.06424,42.35514],[-71.064296,42.355181],[-71.064336,42.355187],[-71.064847,42.355057],[-71.064906,42.355004],[-71.064937,42.355049],[-71.065024,42.355075],[-71.065647,42.354907],[-71.065683,42.354843],[-71.065647,42.354779],[-71.06556,42.354752],[-71.065484,42.354766],[-71.065481,42.354739],[-71.065444,42.354711],[-71.065347,42.354723],[-71.065345,42.354674],[-71.065827,42.354536],[-71.065865,42.354468],[-71.065855,42.354431],[-71.065785,42.354379],[-71.065685,42.354379],[-71.065127,42.354526],[-71.065077,42.354556],[-71.065017,42.35455],[-71.064451,42.354709],[-71.064451,42.354679],[-71.064542,42.354636],[-71.065049,42.35449],[-71.065067,42.354458],[-71.065029,42.354416],[-71.064944,42.354426],[-71.064899,42.354414],[-71.064803,42.354436],[-71.064775,42.354393],[-71.064742,42.354377],[-71.06494,42.354321],[-71.064955,42.354294],[-71.064923,42.354259],[-71.065063,42.354219],[-71.065095,42.354196],[-71.065095,42.354162],[-71.065069,42.354142],[-71.065231,42.354095],[-71.065244,42.354047],[-71.065361,42.354004],[-71.065375,42.353952],[-71.065568,42.353901],[-71.065596,42.353881],[-71.065596,42.353851],[-71.065568,42.353831],[-71.065481,42.353843],[-71.06546,42.35383],[-71.065608,42.353787],[-71.065625,42.353756],[-71.065608,42.353725],[-71.065567,42.353713],[-71.065398,42.353755],[-71.065375,42.353743],[-71.065512,42.353707],[-71.06555,42.353665],[-71.065968,42.353551],[-71.066015,42.353527],[-71.066047,42.353492],[-71.066058,42.353451]],[[-71.065585,42.352749],[-71.065267,42.352833],[-71.065164,42.352878],[-71.065175,42.352838],[-71.065535,42.352741],[-71.065585,42.352749]],[[-71.065257,42.353678],[-71.065114,42.35372],[-71.065096,42.353752],[-71.065131,42.353793],[-71.064948,42.353846],[-71.064928,42.353882],[-71.064948,42.353917],[-71.064918,42.353925],[-71.064854,42.3539],[-71.064781,42.353916],[-71.064779,42.353878],[-71.064762,42.353859],[-71.064707,42.353842],[-71.064638,42.353857],[-71.064632,42.353832],[-71.064588,42.3538],[-71.064505,42.353805],[-71.064437,42.353774],[-71.064388,42.353784],[-71.064386,42.353761],[-71.064444,42.353728],[-71.064444,42.353692],[-71.064517,42.353645],[-71.064585,42.353699],[-71.064632,42.353705],[-71.064751,42.35368],[-71.064787,42.353731],[-71.06489,42.353763],[-71.065257,42.353678]],[[-71.065082,42.353039],[-71.064931,42.353079],[-71.064901,42.353036],[-71.064945,42.353024],[-71.064953,42.353055],[-71.064981,42.353064],[-71.065082,42.353039]],[[-71.065056,42.354646],[-71.064996,42.354661],[-71.064994,42.354653],[-71.065056,42.354646]],[[-71.064923,42.354089],[-71.064829,42.354118],[-71.064813,42.354146],[-71.064561,42.354212],[-71.064531,42.354246],[-71.064545,42.354271],[-71.064576,42.354281],[-71.064396,42.354329],[-71.06441,42.354284],[-71.064399,42.354243],[-71.064602,42.354175],[-71.064625,42.354149],[-71.064625,42.354089],[-71.064694,42.354066],[-71.064709,42.354115],[-71.064755,42.354129],[-71.064923,42.354089]],[[-71.06488,42.353193],[-71.064873,42.353195],[-71.064878,42.353193],[-71.06488,42.353193]],[[-71.064306,42.354436],[-71.064281,42.354468],[-71.064178,42.354502],[-71.06412,42.354436],[-71.064276,42.354395],[-71.064306,42.354436]],[[-71.064036,42.354668],[-71.063982,42.354686],[-71.06397,42.354728],[-71.063948,42.354739],[-71.063962,42.354707],[-71.063938,42.354664],[-71.064028,42.35464],[-71.064036,42.354668]]],[[[-71.066046,42.354972],[-71.066026,42.354936],[-71.065952,42.354925],[-71.0656,42.355018],[-71.065558,42.355065],[-71.0656,42.355111],[-71.065652,42.355111],[-71.066004,42.355019],[-71.066046,42.354972]]],[[[-71.06602,42.354061],[-71.065981,42.354032],[-71.06587,42.354048],[-71.065584,42.354123],[-71.065554,42.354157],[-71.065584,42.35419],[-71.065621,42.35419],[-71.065996,42.354088],[-71.06602,42.354061]]],[[[-71.06597,42.354146],[-71.065947,42.354129],[-71.065738,42.354183],[-71.065726,42.354205],[-71.065756,42.354214],[-71.065956,42.354162],[-71.06597,42.354146]]],[[[-71.06583,42.348038],[-71.065811,42.348004],[-71.06574,42.347994],[-71.065399,42.348084],[-71.065359,42.348128],[-71.065371,42.348158],[-71.065399,42.348172],[-71.065449,42.348172],[-71.06579,42.348082],[-71.06583,42.348038]]],[[[-71.06579,42.34818],[-71.065774,42.348151],[-71.065735,42.348139],[-71.065406,42.348224],[-71.065372,42.348261],[-71.065388,42.34829],[-71.065136,42.348361],[-71.065103,42.348386],[-71.065103,42.34842],[-71.065136,42.348445],[-71.065184,42.348445],[-71.065514,42.348358],[-71.065547,42.348334],[-71.065571,42.348344],[-71.065717,42.348305],[-71.065727,42.348288],[-71.065703,42.348281],[-71.065557,42.348319],[-71.065524,42.348279],[-71.065756,42.348218],[-71.06579,42.34818]]],[[[-71.065764,42.353939],[-71.065749,42.353914],[-71.065715,42.353903],[-71.06541,42.353981],[-71.065383,42.354001],[-71.065383,42.354026],[-71.065332,42.354052],[-71.065332,42.354079],[-71.065359,42.354099],[-71.065396,42.354099],[-71.065683,42.354023],[-71.065709,42.354004],[-71.06571,42.353979],[-71.065749,42.353964],[-71.065764,42.353939]]],[[[-71.065738,42.348446],[-71.065721,42.348415],[-71.06568,42.348403],[-71.065481,42.348453],[-71.065481,42.34844],[-71.065451,42.34843],[-71.065251,42.348483],[-71.065239,42.348505],[-71.065269,42.348514],[-71.065318,42.348501],[-71.065307,42.348547],[-71.065361,42.348573],[-71.065702,42.348486],[-71.065738,42.348446]]],[[[-71.065598,42.348957],[-71.06558,42.348944],[-71.065438,42.34898],[-71.065428,42.348998],[-71.065452,42.349005],[-71.065598,42.348957]]],[[[-71.065588,42.351223],[-71.06557,42.35121],[-71.065396,42.351255],[-71.065386,42.351272],[-71.06541,42.35128],[-71.065588,42.351223]]],[[[-71.065562,42.349094],[-71.065544,42.349081],[-71.065402,42.349117],[-71.065392,42.349135],[-71.065416,42.349142],[-71.065562,42.349094]]],[[[-71.065559,42.349236],[-71.065544,42.349211],[-71.065491,42.349203],[-71.065243,42.349268],[-71.065213,42.349301],[-71.065243,42.349335],[-71.065281,42.349335],[-71.065529,42.349269],[-71.065559,42.349236]]],[[[-71.065433,42.34879],[-71.065418,42.348765],[-71.065365,42.348757],[-71.065117,42.348822],[-71.065087,42.348855],[-71.065117,42.348889],[-71.065155,42.348889],[-71.065403,42.348823],[-71.065433,42.34879]]],[[[-71.065396,42.34894],[-71.065385,42.348921],[-71.065346,42.348916],[-71.065103,42.34898],[-71.065081,42.349004],[-71.065103,42.349028],[-71.06513,42.349028],[-71.065374,42.348964],[-71.065396,42.34894]]],[[[-71.065379,42.34907],[-71.065364,42.349045],[-71.065311,42.349037],[-71.065025,42.349112],[-71.064995,42.349146],[-71.065025,42.349179],[-71.065062,42.349179],[-71.065349,42.349103],[-71.065379,42.34907]]],[[[-71.065368,42.35121],[-71.06535,42.351197],[-71.065264,42.351218],[-71.065267,42.351205],[-71.065243,42.351198],[-71.065097,42.351236],[-71.065087,42.351254],[-71.065111,42.351261],[-71.06518,42.351243],[-71.065177,42.351256],[-71.0652,42.351264],[-71.065368,42.35121]]],[[[-71.065176,42.35072],[-71.06514,42.350702],[-71.064929,42.350758],[-71.064915,42.350783],[-71.064949,42.350793],[-71.06516,42.350738],[-71.065176,42.35072]]],[[[-71.065151,42.350784],[-71.065115,42.350766],[-71.064904,42.350822],[-71.06489,42.350847],[-71.064924,42.350857],[-71.065135,42.350802],[-71.065151,42.350784]]],[[[-71.065129,42.350853],[-71.06511,42.350839],[-71.064914,42.35089],[-71.064903,42.350908],[-71.064928,42.350916],[-71.065129,42.350853]]],[[[-71.064944,42.35131],[-71.064926,42.351297],[-71.064763,42.351339],[-71.064753,42.351356],[-71.064776,42.351364],[-71.064944,42.35131]]],[[[-71.064857,42.348456],[-71.064839,42.348443],[-71.064686,42.348482],[-71.064676,42.3485],[-71.0647,42.348507],[-71.064857,42.348456]]],[[[-71.064624,42.351826],[-71.064606,42.351813],[-71.064453,42.351852],[-71.064443,42.35187],[-71.064467,42.351877],[-71.064624,42.351826]]],[[[-71.064621,42.348425],[-71.064603,42.348412],[-71.06445,42.348451],[-71.06444,42.348469],[-71.064464,42.348476],[-71.064621,42.348425]]],[[[-71.064568,42.352055],[-71.06455,42.352042],[-71.064387,42.352084],[-71.064377,42.352101],[-71.0644,42.352109],[-71.064568,42.352055]]],[[[-71.064564,42.352104],[-71.064545,42.35209],[-71.064349,42.352141],[-71.064338,42.352159],[-71.064363,42.352167],[-71.064564,42.352104]]],[[[-71.064548,42.35216],[-71.06453,42.352147],[-71.064377,42.352186],[-71.064367,42.352204],[-71.064391,42.352211],[-71.064548,42.35216]]],[[[-71.064436,42.348399],[-71.064418,42.348386],[-71.064265,42.348425],[-71.064255,42.348443],[-71.064279,42.34845],[-71.064436,42.348399]]],[[[-71.064238,42.350925],[-71.06422,42.350912],[-71.064067,42.350951],[-71.064057,42.350969],[-71.064081,42.350976],[-71.064238,42.350925]]],[[[-71.064209,42.34872],[-71.064186,42.348703],[-71.063977,42.348757],[-71.063965,42.348779],[-71.063995,42.348788],[-71.064195,42.348736],[-71.064209,42.34872]]],[[[-71.064168,42.34884],[-71.06415,42.348827],[-71.063965,42.348875],[-71.063955,42.348892],[-71.063979,42.348899],[-71.064168,42.34884]]],[[[-71.064148,42.350914],[-71.06413,42.350901],[-71.064082,42.350912],[-71.06405,42.35089],[-71.063971,42.350909],[-71.063962,42.350883],[-71.063934,42.350874],[-71.063665,42.350943],[-71.063641,42.35097],[-71.063665,42.350997],[-71.063786,42.350973],[-71.063818,42.350999],[-71.064148,42.350914]]],[[[-71.064088,42.3533],[-71.06407,42.353287],[-71.063885,42.353335],[-71.063875,42.353352],[-71.063899,42.353359],[-71.064088,42.3533]]],[[[-71.064049,42.35339],[-71.06403,42.353376],[-71.063925,42.353381],[-71.063927,42.353369],[-71.063903,42.353362],[-71.063725,42.353409],[-71.063715,42.353426],[-71.06376,42.353428],[-71.063769,42.353449],[-71.063822,42.353439],[-71.063841,42.353454],[-71.064049,42.35339]]],[[[-71.064013,42.353283],[-71.063995,42.35327],[-71.06381,42.353318],[-71.0638,42.353335],[-71.063824,42.353342],[-71.064013,42.353283]]],[[[-71.063998,42.35376],[-71.06398,42.353747],[-71.063795,42.353795],[-71.063785,42.353812],[-71.063809,42.353819],[-71.063998,42.35376]]],[[[-71.063943,42.353268],[-71.06392,42.353251],[-71.063711,42.353305],[-71.063699,42.353327],[-71.063729,42.353336],[-71.063929,42.353284],[-71.063943,42.353268]]],[[[-71.063915,42.348675],[-71.063896,42.348661],[-71.0637,42.348712],[-71.063689,42.34873],[-71.063714,42.348738],[-71.063915,42.348675]]],[[[-71.063893,42.348743],[-71.06387,42.348726],[-71.063661,42.34878],[-71.063649,42.348802],[-71.063679,42.348811],[-71.063879,42.348759],[-71.063893,42.348743]]],[[[-71.063879,42.34887],[-71.06386,42.348856],[-71.063664,42.348907],[-71.063653,42.348925],[-71.063678,42.348933],[-71.063879,42.34887]]],[[[-71.063873,42.348793],[-71.063855,42.34878],[-71.063702,42.348819],[-71.063692,42.348837],[-71.063716,42.348844],[-71.063873,42.348793]]],[[[-71.063821,42.349148],[-71.063803,42.349135],[-71.06365,42.349174],[-71.06364,42.349192],[-71.063664,42.349199],[-71.063821,42.349148]]],[[[-71.063816,42.35412],[-71.06378,42.354102],[-71.063569,42.354158],[-71.063555,42.354183],[-71.063589,42.354193],[-71.0638,42.354138],[-71.063816,42.35412]]],[[[-71.063808,42.348427],[-71.06379,42.348414],[-71.063637,42.348453],[-71.063627,42.348471],[-71.063651,42.348478],[-71.063808,42.348427]]],[[[-71.063768,42.349293],[-71.06375,42.34928],[-71.063597,42.349319],[-71.063587,42.349337],[-71.063611,42.349344],[-71.063768,42.349293]]],[[[-71.063755,42.349335],[-71.063737,42.349322],[-71.063584,42.349361],[-71.063574,42.349379],[-71.063598,42.349386],[-71.063755,42.349335]]],[[[-71.063718,42.34841],[-71.0637,42.348397],[-71.063547,42.348436],[-71.063537,42.348454],[-71.063561,42.348461],[-71.063718,42.34841]]],[[[-71.063707,42.350883],[-71.063675,42.350859],[-71.063544,42.35087],[-71.06352,42.350845],[-71.063299,42.350902],[-71.063285,42.350927],[-71.063309,42.350939],[-71.063369,42.350924],[-71.063381,42.350944],[-71.063411,42.350941],[-71.063443,42.350968],[-71.063687,42.350905],[-71.063707,42.350883]]],[[[-71.063689,42.34976],[-71.06367,42.349746],[-71.063474,42.349797],[-71.063463,42.349815],[-71.063488,42.349823],[-71.063689,42.34976]]],[[[-71.063632,42.349854],[-71.063614,42.349841],[-71.063429,42.349889],[-71.063419,42.349906],[-71.063443,42.349913],[-71.063632,42.349854]]],[[[-71.063579,42.34995],[-71.06356,42.349936],[-71.063364,42.349987],[-71.063353,42.350005],[-71.063378,42.350013],[-71.063579,42.34995]]],[[[-71.063548,42.35],[-71.06353,42.349987],[-71.063345,42.350035],[-71.063335,42.350052],[-71.063359,42.350059],[-71.063548,42.35]]],[[[-71.063458,42.350418],[-71.06344,42.350405],[-71.063147,42.350469],[-71.063147,42.350494],[-71.063246,42.350471],[-71.063106,42.350515],[-71.063096,42.350532],[-71.06312,42.35054],[-71.063287,42.350495],[-71.063297,42.350478],[-71.063458,42.350418]]],[[[-71.063458,42.35018],[-71.06344,42.350167],[-71.063266,42.350212],[-71.063256,42.350229],[-71.06328,42.350237],[-71.063458,42.35018]]],[[[-71.063434,42.350487],[-71.063416,42.350474],[-71.063242,42.350519],[-71.063081,42.350568],[-71.063071,42.350585],[-71.063095,42.350593],[-71.063262,42.350548],[-71.063434,42.350487]]],[[[-71.063428,42.350246],[-71.06341,42.350233],[-71.063236,42.350278],[-71.063236,42.350303],[-71.063201,42.350329],[-71.063225,42.350337],[-71.063392,42.350292],[-71.063392,42.350268],[-71.063428,42.350246]]],[[[-71.063403,42.35055],[-71.063385,42.350537],[-71.06323,42.350569],[-71.063045,42.350617],[-71.063035,42.350634],[-71.063059,42.350641],[-71.063229,42.350605],[-71.063403,42.35055]]],[[[-71.063386,42.350826],[-71.06335,42.350808],[-71.063139,42.350864],[-71.063125,42.350889],[-71.063159,42.350899],[-71.06337,42.350844],[-71.063386,42.350826]]],[[[-71.063383,42.350765],[-71.063343,42.350745],[-71.063121,42.350803],[-71.063103,42.350823],[-71.063144,42.350843],[-71.063365,42.350785],[-71.063383,42.350765]]],[[[-71.063369,42.350704],[-71.06335,42.35069],[-71.063174,42.350735],[-71.063177,42.350722],[-71.063153,42.350715],[-71.062986,42.350759],[-71.062976,42.350776],[-71.063,42.350784],[-71.063146,42.350745],[-71.062934,42.350802],[-71.062923,42.35082],[-71.062948,42.350828],[-71.063369,42.350704]]],[[[-71.063368,42.35061],[-71.06335,42.350597],[-71.063228,42.350628],[-71.063203,42.350618],[-71.063025,42.350665],[-71.063015,42.350682],[-71.063039,42.350689],[-71.063176,42.350653],[-71.0632,42.350664],[-71.063368,42.35061]]],[[[-71.063198,42.350677],[-71.06318,42.350664],[-71.063038,42.3507],[-71.063028,42.350718],[-71.063052,42.350725],[-71.063198,42.350677]]],[[[-71.063144,42.352238],[-71.063126,42.352225],[-71.062982,42.352258],[-71.062965,42.35224],[-71.062802,42.352282],[-71.062792,42.352299],[-71.062815,42.352307],[-71.062891,42.352287],[-71.062909,42.352305],[-71.063144,42.352238]]],[[[-71.062922,42.35222],[-71.062904,42.352207],[-71.062846,42.352221],[-71.062823,42.352203],[-71.062667,42.352244],[-71.062657,42.352261],[-71.062721,42.352258],[-71.062744,42.352277],[-71.062922,42.35222]]],[[[-71.062829,42.353302],[-71.06281,42.353288],[-71.062761,42.3533],[-71.062731,42.35329],[-71.062531,42.353343],[-71.062519,42.353365],[-71.062628,42.353365],[-71.062829,42.353302]]],[[[-71.062829,42.353214],[-71.06281,42.3532],[-71.062762,42.353211],[-71.062744,42.353193],[-71.062548,42.353244],[-71.062537,42.353262],[-71.062603,42.35326],[-71.062621,42.353278],[-71.062829,42.353214]]],[[[-71.062559,42.348354],[-71.06253,42.348332],[-71.062406,42.348364],[-71.062355,42.348346],[-71.062101,42.348413],[-71.062077,42.34844],[-71.062101,42.348467],[-71.062131,42.348467],[-71.062286,42.348426],[-71.06232,42.348432],[-71.062541,42.348374],[-71.062559,42.348354]]],[[[-71.062496,42.349373],[-71.062484,42.349351],[-71.062438,42.349344],[-71.062173,42.349414],[-71.062147,42.349443],[-71.062173,42.349472],[-71.062205,42.349472],[-71.06247,42.349402],[-71.062496,42.349373]]],[[[-71.062463,42.348557],[-71.06244,42.34854],[-71.062231,42.348594],[-71.062219,42.348616],[-71.062249,42.348625],[-71.062449,42.348573],[-71.062463,42.348557]]],[[[-71.062392,42.349323],[-71.06238,42.349301],[-71.062334,42.349294],[-71.062069,42.349364],[-71.062043,42.349393],[-71.062069,42.349422],[-71.062101,42.349422],[-71.062366,42.349352],[-71.062392,42.349323]]],[[[-71.062039,42.353752],[-71.06202,42.353738],[-71.061827,42.353788],[-71.06181,42.35377],[-71.061657,42.353809],[-71.061647,42.353827],[-71.061671,42.353834],[-71.061813,42.353797],[-71.061838,42.353815],[-71.062039,42.353752]]],[[[-71.062006,42.349306],[-71.061988,42.349293],[-71.061835,42.349332],[-71.061825,42.34935],[-71.061849,42.349357],[-71.062006,42.349306]]],[[[-71.061988,42.35386],[-71.06197,42.353847],[-71.061817,42.353886],[-71.061807,42.353904],[-71.061831,42.353911],[-71.061988,42.35386]]],[[[-71.061951,42.349438],[-71.061933,42.349425],[-71.06178,42.349464],[-71.06177,42.349482],[-71.061794,42.349489],[-71.061951,42.349438]]],[[[-71.061941,42.349548],[-71.061926,42.349523],[-71.061892,42.349512],[-71.061625,42.34958],[-71.061595,42.349613],[-71.06161,42.349639],[-71.061639,42.349649],[-71.06145,42.349698],[-71.061424,42.349718],[-71.061424,42.349745],[-71.06145,42.349765],[-71.061488,42.349765],[-71.061736,42.349699],[-71.061766,42.349666],[-71.061751,42.349641],[-71.061723,42.349631],[-71.061911,42.349581],[-71.061941,42.349548]]],[[[-71.061928,42.34988],[-71.06191,42.349867],[-71.061757,42.349906],[-71.061747,42.349924],[-71.061771,42.349931],[-71.061928,42.34988]]],[[[-71.061924,42.3537],[-71.061905,42.353686],[-71.061729,42.353725],[-71.061576,42.353764],[-71.061566,42.353782],[-71.061716,42.353764],[-71.061924,42.3537]]],[[[-71.061909,42.353825],[-71.06189,42.353811],[-71.061694,42.353862],[-71.061683,42.35388],[-71.061708,42.353888],[-71.061909,42.353825]]],[[[-71.061898,42.349926],[-71.06188,42.349913],[-71.061727,42.349952],[-71.061717,42.34997],[-71.061741,42.349977],[-71.061898,42.349926]]],[[[-71.061892,42.35],[-71.061874,42.349987],[-71.061721,42.350026],[-71.061711,42.350044],[-71.061735,42.350051],[-71.061892,42.35]]],[[[-71.061868,42.350044],[-71.06185,42.350031],[-71.061697,42.35007],[-71.061697,42.350095],[-71.061657,42.350124],[-71.061681,42.350131],[-71.061827,42.350092],[-71.061827,42.350068],[-71.061868,42.350044]]],[[[-71.061851,42.348312],[-71.061838,42.348288],[-71.061806,42.348278],[-71.061632,42.348322],[-71.061641,42.348281],[-71.06159,42.348256],[-71.061261,42.348341],[-71.061227,42.348378],[-71.061243,42.348407],[-71.061282,42.348419],[-71.061494,42.348366],[-71.061488,42.348398],[-71.06153,42.348418],[-71.061823,42.348343],[-71.061851,42.348312]]],[[[-71.061825,42.353653],[-71.061806,42.353639],[-71.06161,42.35369],[-71.061599,42.353708],[-71.061624,42.353716],[-71.061825,42.353653]]],[[[-71.061824,42.350155],[-71.061806,42.350142],[-71.061664,42.350178],[-71.061654,42.350196],[-71.061678,42.350203],[-71.061824,42.350155]]],[[[-71.061798,42.3502],[-71.06178,42.350187],[-71.061627,42.350226],[-71.061617,42.350244],[-71.061641,42.350251],[-71.061798,42.3502]]],[[[-71.061789,42.350292],[-71.06175,42.350263],[-71.061481,42.350332],[-71.06146,42.350348],[-71.06146,42.35037],[-71.061402,42.350406],[-71.061402,42.350432],[-71.061427,42.35045],[-71.061462,42.35045],[-71.061737,42.350377],[-71.061762,42.350359],[-71.061752,42.350322],[-71.061789,42.350292]]],[[[-71.06177,42.348421],[-71.061752,42.348408],[-71.061599,42.348447],[-71.061589,42.348465],[-71.061613,42.348472],[-71.06177,42.348421]]],[[[-71.061759,42.353607],[-71.061744,42.353582],[-71.061691,42.353574],[-71.061443,42.353639],[-71.061413,42.353672],[-71.061443,42.353706],[-71.061481,42.353706],[-71.061729,42.35364],[-71.061759,42.353607]]],[[[-71.061692,42.348648],[-71.06168,42.348626],[-71.06165,42.348617],[-71.061503,42.348639],[-71.061227,42.348712],[-71.061199,42.348743],[-71.061227,42.348774],[-71.061262,42.348774],[-71.061666,42.348677],[-71.061692,42.348648]]],[[[-71.061628,42.35355],[-71.06161,42.353537],[-71.061436,42.353582],[-71.061426,42.353599],[-71.06145,42.353607],[-71.061628,42.35355]]],[[[-71.06161,42.348837],[-71.061592,42.348824],[-71.0615,42.348847],[-71.061476,42.348825],[-71.061444,42.348825],[-71.061179,42.348895],[-71.061153,42.348924],[-71.061179,42.348953],[-71.061211,42.348953],[-71.06161,42.348837]]],[[[-71.061608,42.3485],[-71.06159,42.348487],[-71.061437,42.348526],[-71.061427,42.348544],[-71.061451,42.348551],[-71.061608,42.3485]]],[[[-71.061597,42.348184],[-71.061579,42.348171],[-71.061405,42.348216],[-71.061175,42.348287],[-71.061158,42.348318],[-71.0612,42.348331],[-71.061432,42.34827],[-71.06145,42.348239],[-71.061597,42.348184]]],[[[-71.061548,42.349568],[-71.061518,42.349535],[-71.061447,42.349544],[-71.061435,42.349509],[-71.061401,42.349498],[-71.061134,42.349566],[-71.061104,42.349599],[-71.061119,42.349625],[-71.061153,42.349635],[-71.061205,42.349624],[-71.061101,42.349659],[-71.061091,42.349676],[-71.061114,42.349684],[-71.061215,42.349657],[-71.061232,42.349667],[-71.06108,42.349707],[-71.06107,42.349724],[-71.061093,42.349732],[-71.06125,42.34969],[-71.06127,42.349667],[-71.061518,42.349601],[-71.061548,42.349568]]],[[[-71.061493,42.35095],[-71.06147,42.350933],[-71.061261,42.350987],[-71.061249,42.351009],[-71.061279,42.351018],[-71.061479,42.350966],[-71.061493,42.35095]]],[[[-71.061472,42.34815],[-71.061454,42.348118],[-71.061386,42.348108],[-71.061056,42.348195],[-71.061018,42.348237],[-71.061056,42.348279],[-71.061104,42.348279],[-71.061434,42.348192],[-71.061472,42.34815]]],[[[-71.061438,42.349255],[-71.06142,42.349242],[-71.061246,42.349287],[-71.061236,42.349304],[-71.06126,42.349312],[-71.061438,42.349255]]],[[[-71.061418,42.351122],[-71.0614,42.351109],[-71.061247,42.351148],[-71.061237,42.351166],[-71.061261,42.351173],[-71.061418,42.351122]]],[[[-71.061399,42.349052],[-71.06138,42.349038],[-71.061184,42.349089],[-71.061173,42.349107],[-71.061198,42.349115],[-71.061399,42.349052]]],[[[-71.061397,42.35118],[-71.061379,42.351167],[-71.061226,42.351206],[-71.061216,42.351224],[-71.06124,42.351231],[-71.061397,42.35118]]],[[[-71.061371,42.35124],[-71.061353,42.351227],[-71.0612,42.351266],[-71.06119,42.351284],[-71.061214,42.351291],[-71.061371,42.35124]]],[[[-71.061368,42.34943],[-71.06135,42.349417],[-71.061197,42.349456],[-71.061187,42.349474],[-71.061211,42.349481],[-71.061368,42.34943]]],[[[-71.061352,42.351289],[-71.061334,42.351276],[-71.061181,42.351315],[-71.061171,42.351333],[-71.061195,42.35134],[-71.061352,42.351289]]],[[[-71.061349,42.349228],[-71.061309,42.349208],[-71.061087,42.349266],[-71.061069,42.349286],[-71.06111,42.349306],[-71.061331,42.349248],[-71.061349,42.349228]]],[[[-71.061244,42.35337],[-71.061226,42.353357],[-71.061073,42.353396],[-71.061063,42.353414],[-71.061087,42.353421],[-71.061244,42.35337]]],[[[-71.061238,42.354774],[-71.06122,42.354761],[-71.061067,42.3548],[-71.061057,42.354818],[-71.061081,42.354825],[-71.061238,42.354774]]],[[[-71.061222,42.34983],[-71.06121,42.349808],[-71.061164,42.349801],[-71.060899,42.349871],[-71.060873,42.3499],[-71.060899,42.349929],[-71.060931,42.349929],[-71.061196,42.349859],[-71.061222,42.34983]]],[[[-71.061188,42.354916],[-71.06117,42.354903],[-71.061017,42.354942],[-71.061007,42.35496],[-71.061031,42.354967],[-71.061188,42.354916]]],[[[-71.061188,42.353344],[-71.06117,42.353331],[-71.061017,42.35337],[-71.061007,42.353388],[-71.061031,42.353395],[-71.061188,42.353344]]],[[[-71.061156,42.35003],[-71.061141,42.350003],[-71.061084,42.349995],[-71.060787,42.350073],[-71.060755,42.350108],[-71.060787,42.350144],[-71.060826,42.350144],[-71.061124,42.350065],[-71.061156,42.35003]]],[[[-71.061138,42.35332],[-71.06112,42.353307],[-71.060967,42.353346],[-71.060817,42.353389],[-71.060807,42.353407],[-71.060831,42.353414],[-71.061138,42.35332]]],[[[-71.061048,42.353275],[-71.06103,42.353262],[-71.060861,42.353305],[-71.060844,42.353289],[-71.060691,42.353328],[-71.060681,42.353346],[-71.060705,42.353353],[-71.060845,42.353316],[-71.06085,42.353329],[-71.060732,42.353366],[-71.060755,42.353384],[-71.060912,42.353342],[-71.060922,42.353325],[-71.061048,42.353275]]],[[[-71.061038,42.34849],[-71.06102,42.348477],[-71.060867,42.348516],[-71.060857,42.348534],[-71.060881,42.348541],[-71.061038,42.34849]]],[[[-71.061032,42.348602],[-71.061017,42.348575],[-71.06096,42.348567],[-71.060663,42.348645],[-71.060631,42.34868],[-71.060663,42.348716],[-71.060702,42.348716],[-71.061,42.348637],[-71.061032,42.348602]]],[[[-71.061005,42.348717],[-71.060989,42.348688],[-71.060929,42.348679],[-71.060621,42.348761],[-71.060587,42.348798],[-71.060621,42.348836],[-71.060663,42.348836],[-71.060971,42.348755],[-71.061005,42.348717]]],[[[-71.060942,42.348827],[-71.06093,42.348805],[-71.060884,42.348798],[-71.060619,42.348868],[-71.060593,42.348897],[-71.060619,42.348926],[-71.060651,42.348926],[-71.060916,42.348856],[-71.060942,42.348827]]],[[[-71.060938,42.35322],[-71.06092,42.353207],[-71.060767,42.353246],[-71.060757,42.353264],[-71.060781,42.353271],[-71.060938,42.35322]]],[[[-71.060847,42.349174],[-71.060827,42.349137],[-71.060749,42.349125],[-71.060386,42.349221],[-71.060342,42.34927],[-71.060386,42.349318],[-71.060441,42.349318],[-71.060803,42.349223],[-71.060847,42.349174]]],[[[-71.060733,42.34939],[-71.060718,42.349365],[-71.060684,42.349354],[-71.060417,42.349422],[-71.060377,42.34944],[-71.060391,42.349469],[-71.060357,42.349499],[-71.06038,42.349507],[-71.060703,42.349423],[-71.060733,42.34939]]],[[[-71.060695,42.349506],[-71.06068,42.349481],[-71.060646,42.34947],[-71.060357,42.349532],[-71.060311,42.349582],[-71.060325,42.349607],[-71.060372,42.349616],[-71.060333,42.349626],[-71.060323,42.349644],[-71.060347,42.349651],[-71.060493,42.349612],[-71.060493,42.349588],[-71.060665,42.349539],[-71.060695,42.349506]]],[[[-71.060609,42.34967],[-71.060594,42.349645],[-71.060541,42.349637],[-71.060255,42.349712],[-71.060225,42.349746],[-71.060255,42.349779],[-71.060292,42.349779],[-71.060579,42.349703],[-71.060609,42.34967]]],[[[-71.060608,42.3493],[-71.06059,42.349287],[-71.060437,42.349326],[-71.060427,42.349344],[-71.060451,42.349351],[-71.060608,42.3493]]],[[[-71.060598,42.35304],[-71.06058,42.353027],[-71.060427,42.353066],[-71.060417,42.353084],[-71.060441,42.353091],[-71.060598,42.35304]]],[[[-71.060588,42.349342],[-71.06057,42.349329],[-71.060417,42.349368],[-71.060407,42.349386],[-71.060431,42.349393],[-71.060588,42.349342]]],[[[-71.060582,42.349792],[-71.060567,42.349765],[-71.06053,42.349754],[-71.060213,42.349835],[-71.060181,42.34987],[-71.060196,42.349898],[-71.060225,42.349908],[-71.060197,42.34993],[-71.06022,42.349938],[-71.060377,42.349896],[-71.060379,42.349873],[-71.06055,42.349827],[-71.060582,42.349792]]],[[[-71.060518,42.352997],[-71.0605,42.352984],[-71.060347,42.353023],[-71.060337,42.353041],[-71.060361,42.353048],[-71.060518,42.352997]]],[[[-71.060508,42.353283],[-71.06049,42.35327],[-71.060327,42.353312],[-71.060317,42.353329],[-71.06034,42.353337],[-71.060508,42.353283]]],[[[-71.060504,42.35315],[-71.060486,42.353137],[-71.060333,42.353176],[-71.060323,42.353194],[-71.060347,42.353201],[-71.060504,42.35315]]],[[[-71.060488,42.34964],[-71.06047,42.349627],[-71.060317,42.349666],[-71.060307,42.349684],[-71.060331,42.349691],[-71.060488,42.34964]]],[[[-71.060468,42.352974],[-71.06045,42.352961],[-71.060287,42.353003],[-71.060277,42.35302],[-71.0603,42.353028],[-71.060468,42.352974]]],[[[-71.060428,42.3531],[-71.06041,42.353087],[-71.060257,42.353126],[-71.060247,42.353144],[-71.060271,42.353151],[-71.060428,42.3531]]],[[[-71.060419,42.353405],[-71.060418,42.35338],[-71.0604,42.353367],[-71.060111,42.353445],[-71.060087,42.353472],[-71.060111,42.353499],[-71.060201,42.353498],[-71.060347,42.353459],[-71.060419,42.353405]]],[[[-71.060374,42.35307],[-71.060356,42.353057],[-71.060203,42.353096],[-71.060193,42.353114],[-71.060217,42.353121],[-71.060374,42.35307]]],[[[-71.060318,42.350037],[-71.0603,42.350024],[-71.060147,42.350063],[-71.060137,42.350081],[-71.060161,42.350088],[-71.060318,42.350037]]],[[[-71.060314,42.35015],[-71.060286,42.350118],[-71.060297,42.3501],[-71.060273,42.350093],[-71.059998,42.350182],[-71.059968,42.350215],[-71.059998,42.350249],[-71.060036,42.350249],[-71.060284,42.350183],[-71.060314,42.35015]]],[[[-71.060174,42.34947],[-71.060163,42.34945],[-71.06012,42.349443],[-71.059866,42.34951],[-71.059842,42.349537],[-71.059866,42.349564],[-71.059896,42.349564],[-71.06015,42.349497],[-71.060174,42.34947]]],[[[-71.060158,42.352962],[-71.06014,42.352949],[-71.059987,42.352988],[-71.059977,42.353006],[-71.060001,42.353013],[-71.060158,42.352962]]],[[[-71.060119,42.349556],[-71.060079,42.349536],[-71.059857,42.349594],[-71.059839,42.349614],[-71.05988,42.349634],[-71.060101,42.349576],[-71.060119,42.349556]]],[[[-71.060105,42.35341],[-71.060092,42.353386],[-71.060043,42.353379],[-71.059767,42.353452],[-71.059739,42.353483],[-71.059767,42.353514],[-71.059802,42.353514],[-71.060077,42.353441],[-71.060105,42.35341]]],[[[-71.060086,42.349644],[-71.060075,42.349625],[-71.060036,42.34962],[-71.059793,42.349684],[-71.059771,42.349708],[-71.059793,42.349732],[-71.05982,42.349732],[-71.060064,42.349668],[-71.060086,42.349644]]],[[[-71.059972,42.351044],[-71.05996,42.351022],[-71.059914,42.351015],[-71.059649,42.351085],[-71.059623,42.351114],[-71.059649,42.351143],[-71.059681,42.351143],[-71.059946,42.351073],[-71.059972,42.351044]]],[[[-71.059901,42.351135],[-71.059865,42.351117],[-71.059654,42.351173],[-71.05964,42.351198],[-71.059674,42.351208],[-71.059885,42.351153],[-71.059901,42.351135]]],[[[-71.059858,42.3533],[-71.05984,42.353287],[-71.059687,42.353326],[-71.059677,42.353344],[-71.059701,42.353351],[-71.059858,42.3533]]],[[[-71.059822,42.35326],[-71.05981,42.353238],[-71.059764,42.353231],[-71.059499,42.353301],[-71.059473,42.35333],[-71.059499,42.353359],[-71.059531,42.353359],[-71.059796,42.353289],[-71.059822,42.35326]]],[[[-71.059758,42.352753],[-71.05974,42.35274],[-71.059588,42.352779],[-71.059687,42.352742],[-71.059677,42.352725],[-71.059634,42.352732],[-71.059616,42.352717],[-71.059273,42.352815],[-71.059243,42.352848],[-71.059273,42.352882],[-71.059311,42.352882],[-71.059758,42.352753]]],[[[-71.059669,42.354954],[-71.059651,42.354934],[-71.059608,42.35494],[-71.05962,42.354911],[-71.05955,42.354866],[-71.059288,42.354942],[-71.059295,42.354968],[-71.059345,42.355003],[-71.059402,42.354995],[-71.059391,42.355021],[-71.059418,42.355034],[-71.059651,42.354974],[-71.059669,42.354954]]],[[[-71.059649,42.35171],[-71.059634,42.351685],[-71.059581,42.351677],[-71.059091,42.351817],[-71.059079,42.351839],[-71.059109,42.351848],[-71.059309,42.351796],[-71.059371,42.351809],[-71.059619,42.351743],[-71.059649,42.35171]]],[[[-71.059562,42.3516],[-71.059553,42.351583],[-71.059518,42.351578],[-71.059209,42.351665],[-71.059195,42.35169],[-71.059219,42.351702],[-71.05931,42.351683],[-71.059542,42.351622],[-71.059562,42.3516]]],[[[-71.059518,42.351097],[-71.0595,42.351084],[-71.059347,42.351123],[-71.059337,42.351141],[-71.059361,42.351148],[-71.059518,42.351097]]],[[[-71.059482,42.354813],[-71.059473,42.354796],[-71.059438,42.354791],[-71.059205,42.354852],[-71.059188,42.354883],[-71.05923,42.354896],[-71.059462,42.354835],[-71.059482,42.354813]]],[[[-71.059478,42.35117],[-71.05946,42.351157],[-71.059307,42.351196],[-71.059297,42.351214],[-71.059321,42.351221],[-71.059478,42.35117]]],[[[-71.059432,42.354774],[-71.059389,42.354714],[-71.059364,42.354707],[-71.059107,42.354773],[-71.059085,42.354797],[-71.059107,42.354821],[-71.059134,42.354821],[-71.059145,42.354852],[-71.059168,42.354859],[-71.059412,42.354796],[-71.059432,42.354774]]],[[[-71.059428,42.3531],[-71.05941,42.353087],[-71.059257,42.353126],[-71.059247,42.353144],[-71.059271,42.353151],[-71.059428,42.3531]]],[[[-71.059418,42.35301],[-71.0594,42.352997],[-71.059247,42.353036],[-71.059237,42.353054],[-71.059261,42.353061],[-71.059418,42.35301]]],[[[-71.059387,42.351704],[-71.059364,42.351687],[-71.059155,42.351741],[-71.059143,42.351763],[-71.059173,42.351772],[-71.059373,42.35172],[-71.059387,42.351704]]],[[[-71.059219,42.35129],[-71.059204,42.351265],[-71.059171,42.351254],[-71.059183,42.35123],[-71.05911,42.351194],[-71.058805,42.351272],[-71.058775,42.351306],[-71.058805,42.351339],[-71.058863,42.351333],[-71.058835,42.351366],[-71.058849,42.351391],[-71.058805,42.351433],[-71.058819,42.351458],[-71.058853,42.351469],[-71.059159,42.35139],[-71.059185,42.351371],[-71.059174,42.351332],[-71.059219,42.35129]]],[[[-71.059184,42.353294],[-71.059166,42.353281],[-71.059013,42.35332],[-71.059003,42.353338],[-71.059027,42.353345],[-71.059184,42.353294]]],[[[-71.059098,42.35146],[-71.05908,42.351447],[-71.058927,42.351486],[-71.058917,42.351504],[-71.058941,42.351511],[-71.059098,42.35146]]],[[[-71.059092,42.354385],[-71.059083,42.354368],[-71.059048,42.354363],[-71.058815,42.354424],[-71.058798,42.354455],[-71.05884,42.354468],[-71.059072,42.354407],[-71.059092,42.354385]]],[[[-71.059088,42.353287],[-71.05907,42.353274],[-71.058991,42.353294],[-71.058998,42.353283],[-71.05898,42.35327],[-71.058827,42.353309],[-71.058817,42.353327],[-71.058841,42.353334],[-71.058914,42.353315],[-71.058906,42.353325],[-71.058924,42.353339],[-71.059088,42.353287]]],[[[-71.059066,42.351517],[-71.05903,42.351499],[-71.058819,42.351555],[-71.058805,42.35158],[-71.058839,42.35159],[-71.05905,42.351535],[-71.059066,42.351517]]],[[[-71.059018,42.354332],[-71.059,42.354319],[-71.058847,42.354358],[-71.058837,42.354376],[-71.058861,42.354383],[-71.059018,42.354332]]],[[[-71.059006,42.351604],[-71.058995,42.351585],[-71.058956,42.35158],[-71.058702,42.35165],[-71.058691,42.351668],[-71.058702,42.351687],[-71.05875,42.3517],[-71.058635,42.351734],[-71.058628,42.35176],[-71.058524,42.351834],[-71.058532,42.351863],[-71.058434,42.351892],[-71.058423,42.351912],[-71.058444,42.351937],[-71.058398,42.351958],[-71.058399,42.351988],[-71.058183,42.35205],[-71.058167,42.352078],[-71.058182,42.352106],[-71.058132,42.352123],[-71.058122,42.35216],[-71.058147,42.352178],[-71.058182,42.352178],[-71.058472,42.352098],[-71.058485,42.352074],[-71.058581,42.352013],[-71.058593,42.351957],[-71.058683,42.351923],[-71.058683,42.351889],[-71.058744,42.351865],[-71.058777,42.351821],[-71.058875,42.351757],[-71.058886,42.351738],[-71.058875,42.351719],[-71.05892,42.351699],[-71.058902,42.351668],[-71.058995,42.351623],[-71.059006,42.351604]]],[[[-71.058959,42.35429],[-71.05894,42.354276],[-71.058744,42.354327],[-71.058733,42.354345],[-71.058758,42.354353],[-71.058959,42.35429]]],[[[-71.058864,42.353268],[-71.058846,42.353255],[-71.05875,42.353279],[-71.058758,42.353268],[-71.05874,42.353255],[-71.058587,42.353294],[-71.058577,42.353312],[-71.058601,42.353319],[-71.05869,42.353295],[-71.058682,42.353306],[-71.0587,42.35332],[-71.058864,42.353268]]],[[[-71.058568,42.35253],[-71.05855,42.352517],[-71.058507,42.352527],[-71.05849,42.352511],[-71.058428,42.352526],[-71.058403,42.352516],[-71.058498,42.352486],[-71.058473,42.352467],[-71.058177,42.352546],[-71.058167,42.352564],[-71.058191,42.352571],[-71.058294,42.352544],[-71.058247,42.352557],[-71.058237,42.352574],[-71.058387,42.352565],[-71.058404,42.352582],[-71.058568,42.35253]]],[[[-71.058388,42.35247],[-71.05837,42.352457],[-71.058217,42.352496],[-71.058097,42.352538],[-71.058087,42.352556],[-71.058111,42.352563],[-71.058257,42.352524],[-71.058388,42.35247]]],[[[-71.058288,42.35091],[-71.05827,42.350897],[-71.058117,42.350936],[-71.058107,42.350954],[-71.058131,42.350961],[-71.058288,42.35091]]],[[[-71.058278,42.352467],[-71.05826,42.352454],[-71.058107,42.352493],[-71.058097,42.352511],[-71.058121,42.352518],[-71.058278,42.352467]]],[[[-71.058218,42.350887],[-71.0582,42.350874],[-71.058047,42.350913],[-71.058037,42.350931],[-71.058061,42.350938],[-71.058218,42.350887]]],[[[-71.058038,42.352665],[-71.05802,42.352652],[-71.057867,42.352691],[-71.057857,42.352709],[-71.057881,42.352716],[-71.058038,42.352665]]],[[[-71.058032,42.352768],[-71.058014,42.352755],[-71.057861,42.352794],[-71.057851,42.352812],[-71.057875,42.352819],[-71.058032,42.352768]]],[[[-71.058008,42.352905],[-71.05799,42.352892],[-71.057837,42.352931],[-71.057827,42.352949],[-71.057851,42.352956],[-71.058008,42.352905]]],[[[-71.057803,42.350693],[-71.057785,42.35068],[-71.05775,42.350688],[-71.057758,42.350677],[-71.05774,42.350664],[-71.057587,42.350703],[-71.057577,42.350721],[-71.057629,42.350721],[-71.057621,42.350731],[-71.057639,42.350745],[-71.057803,42.350693]]],[[[-71.05775,42.352226],[-71.057714,42.352208],[-71.057503,42.352264],[-71.057489,42.352289],[-71.057523,42.352299],[-71.057734,42.352244],[-71.05775,42.352226]]],[[[-71.057623,42.35219],[-71.057583,42.35217],[-71.057361,42.352228],[-71.057343,42.352248],[-71.057384,42.352268],[-71.057605,42.35221],[-71.057623,42.35219]]],[[[-71.057536,42.35216],[-71.0575,42.352142],[-71.057289,42.352198],[-71.057275,42.352223],[-71.057309,42.352233],[-71.05752,42.352178],[-71.057536,42.35216]]],[[[-71.057456,42.35214],[-71.05742,42.352122],[-71.057209,42.352178],[-71.057195,42.352203],[-71.057229,42.352213],[-71.05744,42.352158],[-71.057456,42.35214]]],[[[-71.057414,42.350403],[-71.057396,42.35039],[-71.057243,42.350429],[-71.057233,42.350447],[-71.057257,42.350454],[-71.057414,42.350403]]],[[[-71.057398,42.350494],[-71.05738,42.350481],[-71.057227,42.35052],[-71.057217,42.350538],[-71.057241,42.350545],[-71.057398,42.350494]]],[[[-71.057369,42.35211],[-71.057329,42.35209],[-71.057107,42.352148],[-71.057089,42.352168],[-71.05713,42.352188],[-71.057351,42.35213],[-71.057369,42.35211]]],[[[-71.057348,42.351707],[-71.05733,42.351694],[-71.057167,42.351736],[-71.057157,42.351753],[-71.05718,42.351761],[-71.057348,42.351707]]],[[[-71.057338,42.35175],[-71.05732,42.351737],[-71.057167,42.351776],[-71.057157,42.351794],[-71.057181,42.351801],[-71.057338,42.35175]]],[[[-71.057309,42.351897],[-71.057291,42.351884],[-71.057138,42.351923],[-71.057128,42.351941],[-71.057152,42.351948],[-71.057309,42.351897]]],[[[-71.057298,42.351955],[-71.05728,42.351942],[-71.057138,42.351978],[-71.057128,42.351996],[-71.057152,42.352003],[-71.057298,42.351955]]],[[[-71.057298,42.350925],[-71.05728,42.350912],[-71.057106,42.350957],[-71.057096,42.350974],[-71.05712,42.350982],[-71.057298,42.350925]]],[[[-71.057268,42.351063],[-71.05725,42.35105],[-71.057076,42.351095],[-71.057066,42.351112],[-71.05709,42.35112],[-71.057268,42.351063]]],[[[-71.057208,42.35141],[-71.05719,42.351397],[-71.057037,42.351436],[-71.057027,42.351454],[-71.057051,42.351461],[-71.057208,42.35141]]],[[[-71.057198,42.35055],[-71.05718,42.350537],[-71.057027,42.350576],[-71.057017,42.350594],[-71.057041,42.350601],[-71.057198,42.35055]]],[[[-71.057147,42.350632],[-71.057129,42.350619],[-71.056976,42.350658],[-71.056966,42.350676],[-71.05699,42.350683],[-71.057147,42.350632]]],[[[-71.057094,42.350533],[-71.057076,42.35052],[-71.056923,42.350559],[-71.056913,42.350577],[-71.056937,42.350584],[-71.057094,42.350533]]],[[[-71.057038,42.34984],[-71.05702,42.349827],[-71.056867,42.349866],[-71.056857,42.349884],[-71.056881,42.349891],[-71.057038,42.34984]]],[[[-71.057022,42.349903],[-71.05699,42.349879],[-71.056762,42.349938],[-71.05677,42.349901],[-71.056725,42.349879],[-71.056458,42.349947],[-71.056428,42.34998],[-71.056443,42.350006],[-71.056477,42.350016],[-71.056731,42.349952],[-71.056735,42.349981],[-71.056758,42.349988],[-71.057002,42.349925],[-71.057022,42.349903]]],[[[-71.056868,42.352028],[-71.05685,42.352015],[-71.056665,42.352063],[-71.056655,42.35208],[-71.056679,42.352087],[-71.056868,42.352028]]],[[[-71.056834,42.35023],[-71.056816,42.350217],[-71.056663,42.350256],[-71.056653,42.350274],[-71.056677,42.350281],[-71.056834,42.35023]]],[[[-71.056829,42.34976],[-71.056818,42.34974],[-71.056775,42.349733],[-71.056521,42.3498],[-71.056497,42.349827],[-71.056521,42.349854],[-71.056551,42.349854],[-71.056805,42.349787],[-71.056829,42.34976]]],[[[-71.056798,42.350307],[-71.05678,42.350294],[-71.056627,42.350333],[-71.056617,42.350351],[-71.056641,42.350358],[-71.056798,42.350307]]],[[[-71.056792,42.34984],[-71.056783,42.349823],[-71.056748,42.349818],[-71.056515,42.349879],[-71.056498,42.34991],[-71.05654,42.349923],[-71.056772,42.349862],[-71.056792,42.34984]]],[[[-71.056748,42.351994],[-71.05673,42.351981],[-71.056556,42.352026],[-71.056546,42.352043],[-71.05657,42.352051],[-71.056748,42.351994]]],[[[-71.056729,42.350006],[-71.056714,42.349981],[-71.056661,42.349973],[-71.056413,42.350038],[-71.056383,42.350071],[-71.056413,42.350105],[-71.056451,42.350105],[-71.056699,42.350039],[-71.056729,42.350006]]],[[[-71.056659,42.350094],[-71.056619,42.350074],[-71.056397,42.350132],[-71.056379,42.350152],[-71.05642,42.350172],[-71.056641,42.350114],[-71.056659,42.350094]]],[[[-71.056643,42.350613],[-71.056625,42.3506],[-71.05644,42.350648],[-71.05643,42.350665],[-71.056454,42.350672],[-71.056643,42.350613]]],[[[-71.056626,42.353203],[-71.05659,42.353185],[-71.056379,42.353241],[-71.056365,42.353266],[-71.056399,42.353276],[-71.05661,42.353221],[-71.056626,42.353203]]],[[[-71.056622,42.350185],[-71.056613,42.350168],[-71.056578,42.350163],[-71.056345,42.350224],[-71.056328,42.350255],[-71.05637,42.350268],[-71.056602,42.350207],[-71.056622,42.350185]]],[[[-71.056608,42.35068],[-71.05659,42.350667],[-71.056405,42.350715],[-71.056395,42.350732],[-71.056419,42.350739],[-71.056608,42.35068]]],[[[-71.056559,42.353165],[-71.05654,42.353151],[-71.056344,42.353202],[-71.056333,42.35322],[-71.056358,42.353228],[-71.056559,42.353165]]],[[[-71.056559,42.350834],[-71.056544,42.350809],[-71.056491,42.350801],[-71.056243,42.350866],[-71.056213,42.350899],[-71.056243,42.350933],[-71.056281,42.350933],[-71.056529,42.350867],[-71.056559,42.350834]]],[[[-71.056484,42.353127],[-71.056465,42.353113],[-71.056269,42.353164],[-71.056258,42.353182],[-71.056283,42.35319],[-71.056484,42.353127]]],[[[-71.056468,42.35192],[-71.05645,42.351907],[-71.056265,42.351955],[-71.056255,42.351972],[-71.056279,42.351979],[-71.056468,42.35192]]],[[[-71.056428,42.35103],[-71.05641,42.351017],[-71.056257,42.351056],[-71.056247,42.351074],[-71.056271,42.351081],[-71.056428,42.35103]]],[[[-71.056398,42.351097],[-71.05638,42.351084],[-71.056195,42.351132],[-71.056185,42.351149],[-71.056209,42.351156],[-71.056398,42.351097]]],[[[-71.056393,42.35309],[-71.05637,42.353073],[-71.056161,42.353127],[-71.056149,42.353149],[-71.056179,42.353158],[-71.056379,42.353106],[-71.056393,42.35309]]],[[[-71.056388,42.3519],[-71.05637,42.351887],[-71.056228,42.351923],[-71.056218,42.351941],[-71.056242,42.351948],[-71.056388,42.3519]]],[[[-71.056364,42.351176],[-71.056346,42.351163],[-71.056193,42.351202],[-71.056183,42.35122],[-71.056207,42.351227],[-71.056364,42.351176]]],[[[-71.056338,42.35493],[-71.05632,42.354917],[-71.056135,42.354965],[-71.056125,42.354982],[-71.056149,42.354989],[-71.056338,42.35493]]],[[[-71.056328,42.354836],[-71.05631,42.354823],[-71.056125,42.354871],[-71.056115,42.354888],[-71.056139,42.354895],[-71.056328,42.354836]]],[[[-71.056309,42.35475],[-71.05629,42.354736],[-71.056094,42.354787],[-71.056083,42.354805],[-71.056108,42.354813],[-71.056309,42.35475]]],[[[-71.056306,42.35467],[-71.05627,42.354652],[-71.056059,42.354708],[-71.056045,42.354733],[-71.056079,42.354743],[-71.05629,42.354688],[-71.056306,42.35467]]],[[[-71.056258,42.351376],[-71.05624,42.351363],[-71.056077,42.351405],[-71.056067,42.351422],[-71.05609,42.35143],[-71.056258,42.351376]]],[[[-71.056256,42.350842],[-71.056238,42.350829],[-71.056053,42.350877],[-71.056043,42.350894],[-71.056067,42.350901],[-71.056256,42.350842]]],[[[-71.056248,42.35305],[-71.05623,42.353037],[-71.056077,42.353076],[-71.056067,42.353094],[-71.056091,42.353101],[-71.056248,42.35305]]],[[[-71.056239,42.351411],[-71.056221,42.351398],[-71.056058,42.35144],[-71.056048,42.351457],[-71.056071,42.351465],[-71.056239,42.351411]]],[[[-71.056226,42.350933],[-71.056208,42.35092],[-71.056023,42.350968],[-71.056013,42.350985],[-71.056037,42.350992],[-71.056226,42.350933]]],[[[-71.056208,42.35145],[-71.05619,42.351437],[-71.056027,42.351479],[-71.056017,42.351496],[-71.05604,42.351504],[-71.056208,42.35145]]],[[[-71.056186,42.351036],[-71.056168,42.351023],[-71.055983,42.351071],[-71.055973,42.351088],[-71.055997,42.351095],[-71.056186,42.351036]]],[[[-71.056148,42.351145],[-71.05613,42.351132],[-71.055945,42.35118],[-71.055935,42.351197],[-71.055959,42.351204],[-71.056148,42.351145]]],[[[-71.056078,42.35171],[-71.05606,42.351697],[-71.055897,42.351739],[-71.055887,42.351756],[-71.05591,42.351764],[-71.056078,42.35171]]],[[[-71.055977,42.351355],[-71.055959,42.351342],[-71.055774,42.35139],[-71.055764,42.351407],[-71.055788,42.351414],[-71.055977,42.351355]]],[[[-71.055953,42.351412],[-71.055935,42.351399],[-71.05575,42.351447],[-71.05574,42.351464],[-71.055764,42.351471],[-71.055953,42.351412]]],[[[-71.05592,42.351482],[-71.055902,42.351469],[-71.055717,42.351517],[-71.055707,42.351534],[-71.055731,42.351541],[-71.05592,42.351482]]],[[[-71.055888,42.351561],[-71.05587,42.351548],[-71.055685,42.351596],[-71.055675,42.351613],[-71.055699,42.35162],[-71.055888,42.351561]]],[[[-71.055869,42.352226],[-71.055854,42.352201],[-71.05582,42.35219],[-71.055553,42.352258],[-71.055527,42.352278],[-71.055527,42.352305],[-71.055493,42.352328],[-71.055493,42.352355],[-71.055519,42.352375],[-71.055557,42.352375],[-71.055805,42.352309],[-71.055869,42.352226]]],[[[-71.055859,42.351622],[-71.055841,42.351609],[-71.055656,42.351657],[-71.055646,42.351674],[-71.05567,42.351681],[-71.055859,42.351622]]],[[[-71.055808,42.351727],[-71.05579,42.351714],[-71.055605,42.351762],[-71.055595,42.351779],[-71.055619,42.351786],[-71.055808,42.351727]]],[[[-71.055788,42.353336],[-71.055756,42.353312],[-71.055511,42.353375],[-71.055494,42.353406],[-71.055511,42.353419],[-71.055453,42.353437],[-71.055419,42.353485],[-71.055444,42.353493],[-71.055706,42.353414],[-71.055724,42.353394],[-71.055716,42.353379],[-71.055788,42.353336]]],[[[-71.055788,42.351776],[-71.05577,42.351763],[-71.055585,42.351811],[-71.055575,42.351828],[-71.055599,42.351835],[-71.055788,42.351776]]],[[[-71.055558,42.353497],[-71.05554,42.353484],[-71.055355,42.353532],[-71.055307,42.353576],[-71.05533,42.353584],[-71.055487,42.353542],[-71.055558,42.353497]]],[[[-71.055262,42.353653],[-71.055244,42.35364],[-71.054977,42.35371],[-71.054947,42.353753],[-71.05497,42.35377],[-71.055179,42.353716],[-71.055262,42.353653]]]]},"properties":{"kind":"tree"}}]}