{"type":"FeatureCollection","features":[{"type":"Feature","geometry":{"type":"MultiPolygon","coordinates":[[[[-71.06703,42.351826],[-71.067007,42.351692],[-71.066747,42.351106],[-71.065437,42.351255],[-71.064967,42.35123],[-71.064736,42.351256],[-71.064745,42.351218],[-71.064502,42.351183],[-71.064394,42.351182],[-71.065991,42.350995],[-71.065959,42.350666],[-71.065646,42.35066],[-71.065953,42.350615],[-71.06593,42.350327],[-71.065589,42.350356],[-71.06531,42.3503],[-71.064977,42.350338],[-71.06498,42.350326],[-71.065916,42.350219],[-71.065881,42.34989],[-71.065776,42.349769],[-71.065664,42.349782],[-71.065675,42.349731],[-71.065904,42.349705],[-71.066095,42.349646],[-71.066016,42.349506],[-71.066107,42.349483],[-71.066051,42.349385],[-71.064718,42.349548],[-71.064416,42.349501],[-71.064138,42.349533],[-71.063761,42.349475],[-71.063684,42.349401],[-71.064653,42.349291],[-71.064785,42.349223],[-71.06492,42.349208],[-71.065179,42.349086],[-71.065279,42.349075],[-71.06533,42.348887],[-71.065314,42.348779],[-71.066458,42.348649],[-71.066483,42.348529],[-71.06591,42.348462],[-71.065995,42.348064],[-71.065837,42.348044],[-71.065462,42.348087],[-71.065402,42.348018],[-71.06552,42.347941],[-71.065529,42.347903],[-71.065483,42.347819],[-71.065392,42.347805],[-71.065371,42.347781],[-71.065289,42.347784],[-71.065318,42.347764],[-71.065319,42.347677],[-71.065257,42.347643],[-71.064894,42.347587],[-71.063893,42.347701],[-71.063574,42.347861],[-71.06346,42.347843],[-71.062775,42.347921],[-71.062769,42.347943],[-71.062438,42.347973],[-71.062446,42.347953],[-71.062334,42.347917],[-71.061926,42.347827],[-71.061783,42.347843],[-71.061866,42.34764],[-71.061712,42.347604],[-71.058736,42.347943],[-71.05859,42.348293],[-71.05858,42.348374],[-71.056361,42.348627],[-71.056265,42.348759],[-71.05588,42.348802],[-71.056683,42.347603],[-71.056673,42.347544],[-71.055908,42.347262],[-71.054646,42.347406],[-71.053603,42.348957],[-71.053328,42.348989],[-71.052891,42.349437],[-71.052858,42.349487],[-71.052851,42.349592],[-71.052305,42.349654],[-71.051335,42.351097],[-71.051916,42.351312],[-71.053489,42.351133],[-71.053768,42.351236],[-71.054337,42.351171],[-71.054555,42.350847],[-71.05483,42.35084],[-71.055197,42.350798],[-71.055131,42.350819],[-71.055013,42.351064],[-71.055174,42.351104],[-71.05485,42.351141],[-71.054708,42.351442],[-71.054842,42.351496],[-71.053581,42.35164],[-71.053516,42.351771],[-71.052446,42.352011],[-71.052274,42.352186],[-71.052729,42.352427],[-71.052493,42.352453],[-71.052385,42.352493],[-71.050198,42.352742],[-71.049909,42.352847],[-71.049832,42.353011],[-71.050426,42.35316],[-71.052391,42.352936],[-71.052438,42.353029],[-71.052567,42.353063],[-71.052849,42.353031],[-71.053253,42.353103],[-71.052128,42.353235],[-71.052041,42.353301],[-71.052024,42.353408],[-71.05184,42.353521],[-71.051302,42.353582],[-71.051296,42.353621],[-71.051245,42.353627],[-71.051202,42.353684],[-71.051192,42.353732],[-71.05121,42.353788],[-71.051116,42.353799],[-71.051011,42.353858],[-71.051262,42.353961],[-71.05153,42.35393],[-71.051741,42.354017],[-71.052266,42.353957],[-71.05223,42.353996],[-71.052243,42.354009],[-71.051281,42.354119],[-71.05116,42.354316],[-71.048779,42.354587],[-71.048377,42.354796],[-71.048345,42.354834],[-71.048344,42.354874],[-71.048605,42.355156],[-71.048672,42.35517],[-71.049041,42.355128],[-71.049056,42.355142],[-71.049033,42.355155],[-71.049032,42.355193],[-71.049193,42.355341],[-71.049278,42.355341],[-71.049293,42.355355],[-71.052062,42.35504],[-71.052085,42.355062],[-71.050916,42.355201],[-71.05062,42.355254],[-71.050516,42.355307],[-71.05053,42.355388],[-71.049665,42.355487],[-71.049771,42.356065],[-71.050635,42.355974],[-71.05065,42.356053],[-71.050765,42.356058],[-71.053072,42.355803],[-71.053049,42.355828],[-71.053123,42.355883],[-71.053415,42.356002],[-71.05758,42.355528],[-71.057631,42.35555],[-71.059102,42.355382],[-71.059115,42.355393],[-71.059403,42.35536],[-71.059586,42.355491],[-71.060491,42.355389],[-71.060529,42.355359],[-71.060742,42.355334],[-71.060801,42.355365],[-71.061252,42.355313],[-71.06144,42.355413],[-71.063118,42.355222],[-71.063177,42.355145],[-71.063038,42.355073],[-71.063255,42.355044],[-71.063852,42.353943],[-71.063862,42.353896],[-71.063721,42.353852],[-71.063892,42.353833],[-71.063985,42.353676],[-71.063998,42.353634],[-71.063823,42.35358],[-71.064052,42.353554],[-71.064097,42.353425],[-71.063837,42.353375],[-71.063698,42.353391],[-71.063651,42.353352],[-71.064146,42.353296],[-71.064309,42.35284],[-71.064146,42.352831],[-71.064309,42.352812],[-71.064359,42.352586],[-71.064395,42.352582],[-71.064367,42.352667],[-71.064432,42.352677],[-71.064692,42.352647],[-71.064726,42.352544],[-71.066063,42.352392],[-71.066078,42.352191],[-71.06627,42.352169],[-71.066292,42.351934],[-71.066847,42.351871],[-71.06703,42.351826]],[[-71.0619,42.3481],[-71.061887,42.348131],[-71.061223,42.348207],[-71.061184,42.348198],[-71.061027,42.348216],[-71.061034,42.348199],[-71.0619,42.3481]],[[-71.061384,42.352475],[-71.061363,42.352575],[-71.060987,42.352616],[-71.060985,42.352601],[-71.060475,42.352641],[-71.060188,42.352643],[-71.059343,42.352753],[-71.059331,42.352664],[-71.060397,42.352542],[-71.060403,42.352565],[-71.06065,42.352537],[-71.060652,42.352549],[-71.061384,42.352475]],[[-71.060135,42.34887],[-71.060052,42.348883],[-71.060007,42.348961],[-71.059991,42.349031],[-71.060058,42.349082],[-71.060092,42.349089],[-71.058135,42.349312],[-71.057926,42.349266],[-71.057275,42.34934],[-71.057246,42.349413],[-71.05671,42.349474],[-71.056762,42.349254],[-71.060135,42.34887]],[[-71.05907,42.351329],[-71.059065,42.351341],[-71.058901,42.35136],[-71.058938,42.351302],[-71.05907,42.351329]],[[-71.058137,42.351793],[-71.058095,42.351798],[-71.0581,42.351784],[-71.058135,42.35178],[-71.058137,42.351793]],[[-71.055989,42.349143],[-71.05593,42.349225],[-71.055569,42.349266],[-71.055624,42.349184],[-71.055989,42.349143]],[[-71.055904,42.354627],[-71.055192,42.354698],[-71.055334,42.354674],[-71.055469,42.354617],[-71.055851,42.354563],[-71.055832,42.354581],[-71.055904,42.354627]]],[[[-71.065565,42.354342],[-71.065545,42.354311],[-71.065508,42.354299],[-71.06485,42.354374],[-71.064821,42.354387],[-71.064806,42.354415],[-71.064831,42.354454],[-71.064877,42.354463],[-71.065514,42.35439],[-71.06555,42.354375],[-71.065565,42.354342]]],[[[-71.065421,42.352871],[-71.065303,42.352844],[-71.06495,42.352884],[-71.064933,42.352931],[-71.064959,42.353012],[-71.065025,42.353026],[-71.065378,42.352986],[-71.065421,42.352871]]],[[[-71.06461,42.353278],[-71.064542,42.353266],[-71.064282,42.353296],[-71.064248,42.353396],[-71.064316,42.35341],[-71.064576,42.35338],[-71.06461,42.353278]]],[[[-71.063935,42.354829],[-71.063869,42.354811],[-71.063621,42.354839],[-71.063598,42.354888],[-71.063664,42.354905],[-71.063912,42.354877],[-71.063935,42.354829]]]]},"properties":{"kind":"building"}},{"type":"Feature","geometry":{"type":"MultiPolygon","coordinates":[[[[-71.066058,42.353451],[-71.066047,42.35341],[-71.066015,42.353375],[-71.065912,42.353343],[-71.065369,42.353405],[-71.065348,42.353389],[-71.0654,42.353344],[-71.06586,42.353283],[-71.065891,42.353268],[-71.065918,42.353219],[-71.065911,42.353192],[-71.06586,42.353155],[-71.065883,42.353129],[-71.065981,42.353102],[-71.066007,42.353073],[-71.066016,42.353039],[-71.065995,42.352992],[-71.066039,42.352955],[-71.066048,42.352923],[-71.066021,42.352832],[-71.065989,42.352797],[-71.065886,42.352765],[-71.065773,42.352778],[-71.06575,42.352742],[-71.065693,42.352724],[-71.065203,42.35278],[-71.0652,42.35277],[-71.065609,42.352722],[-71.065658,42.352686],[-71.065976,42.352648],[-71.066022,42.352597],[-71.065976,42.352546],[-71.065747,42.352541],[-71.065688,42.352518],[-71.065446,42.352545],[-71.065361,42.35251],[-71.065091,42.352541],[-71.065012,42.352509],[-71.063946,42.352632],[-71.063893,42.352671],[-71.063886,42.352698],[-71.063914,42.352749],[-71.063946,42.352765],[-71.064193,42.352746],[-71.064243,42.352781],[-71.064282,42.352787],[-71.064507,42.352761],[-71.064525,42.352813],[-71.064393,42.352828],[-71.064361,42.352852],[-71.064374,42.352899],[-71.064432,42.35291],[-71.064438,42.35295],[-71.063542,42.353063],[-71.063457,42.353089],[-71.063431,42.353118],[-71.063427,42.353169],[-71.063381,42.353211],[-71.06337,42.353252],[-71.063381,42.353294],[-71.06346,42.353352],[-71.063516,42.35336],[-71.063644,42.353346],[-71.063649,42.353356],[-71.063489,42.353376],[-71.063453,42.353394],[-71.06342,42.353452],[-71.063453,42.353509],[-71.063531,42.353533],[-71.063858,42.353496],[-71.063884,42.353525],[-71.063853,42.353548],[-71.063539,42.353587],[-71.063484,42.353628],[-71.063484,42.353684],[-71.063506,42.353709],[-71.063573,42.35373],[-71.063578,42.353747],[-71.063539,42.353799],[-71.063578,42.353843],[-71.063578,42.353872],[-71.063347,42.353943],[-71.063322,42.353987],[-71.063325,42.354028],[-71.063339,42.354071],[-71.063383,42.354103],[-71.063579,42.354099],[-71.063359,42.354131],[-71.063298,42.354157],[-71.063284,42.354182],[-71.063315,42.354209],[-71.063254,42.354248],[-71.063254,42.35429],[-71.062931,42.35433],[-71.062883,42.354353],[-71.062852,42.354388],[-71.062841,42.354429],[-71.062852,42.354471],[-71.062883,42.354506],[-71.062977,42.354536],[-71.062705,42.354569],[-71.062657,42.354592],[-71.062626,42.354627],[-71.062615,42.354668],[-71.062626,42.35471],[-71.062705,42.354768],[-71.062761,42.354776],[-71.062905,42.35476],[-71.062871,42.354789],[-71.06287,42.354833],[-71.062844,42.354865],[-71.062892,42.354921],[-71.062947,42.354938],[-71.063404,42.354886],[-71.063422,42.354913],[-71.063473,42.354928],[-71.064169,42.354849],[-71.064183,42.354904],[-71.064258,42.354912],[-71.064218,42.354948],[-71.064211,42.354977],[-71.063728,42.355032],[-71.063655,42.355055],[-71.063625,42.355109],[-71.063632,42.355138],[-71.063689,42.35518],[-71.063728,42.355186],[-71.064807,42.355063],[-71.064847,42.355057],[-71.064903,42.355015],[-71.065607,42.354927],[-71.065674,42.354878],[-71.065683,42.354843],[-71.065647,42.354779],[-71.06556,42.354752],[-71.065486,42.35476],[-71.065481,42.354739],[-71.065444,42.354711],[-71.065346,42.354716],[-71.065345,42.354674],[-71.065327,42.354655],[-71.065242,42.35462],[-71.065785,42.354557],[-71.065855,42.354505],[-71.065865,42.354468],[-71.065827,42.3544],[-71.065735,42.354372],[-71.065064,42.354448],[-71.065049,42.354426],[-71.065005,42.354412],[-71.0648,42.354425],[-71.06474,42.354376],[-71.06465,42.354367],[-71.064923,42.354329],[-71.064955,42.354294],[-71.064923,42.354259],[-71.064749,42.354273],[-71.064725,42.354258],[-71.065063,42.354219],[-71.065099,42.354179],[-71.065063,42.354139],[-71.064906,42.354151],[-71.064893,42.354141],[-71.065212,42.354104],[-71.065244,42.354081],[-71.065698,42.354015],[-71.065709,42.353976],[-71.06576,42.353953],[-71.06576,42.353925],[-71.065734,42.353906],[-71.065367,42.353943],[-71.065344,42.353928],[-71.065585,42.353893],[-71.0656,42.353866],[-71.065568,42.353831],[-71.065379,42.353833],[-71.065589,42.353796],[-71.065621,42.353773],[-71.065608,42.353725],[-71.065567,42.353713],[-71.064622,42.353821],[-71.064588,42.3538],[-71.064501,42.353801],[-71.064467,42.353779],[-71.064389,42.35378],[-71.064386,42.353761],[-71.064442,42.353731],[-71.065968,42.353551],[-71.066015,42.353527],[-71.066047,42.353492],[-71.066058,42.353451]]],[[[-71.066046,42.354972],[-71.066026,42.354936],[-71.065978,42.354922],[-71.065147,42.355017],[-71.065104,42.355064],[-71.065124,42.355099],[-71.065173,42.355114],[-71.066004,42.355019],[-71.066046,42.354972]]],[[[-71.06602,42.354061],[-71.065981,42.354032],[-71.065214,42.354123],[-71.065184,42.354156],[-71.065198,42.354181],[-71.065233,42.354192],[-71.065908,42.354114],[-71.065934,42.354095],[-71.065996,42.354088],[-71.06602,42.354061]]],[[[-71.06597,42.354146],[-71.065947,42.354129],[-71.065489,42.354181],[-71.065467,42.354198],[-71.065489,42.354215],[-71.065947,42.354163],[-71.06597,42.354146]]],[[[-71.06583,42.348038],[-71.065811,42.348004],[-71.065765,42.34799],[-71.06496,42.348083],[-71.06492,42.348127],[-71.064939,42.348161],[-71.064985,42.348175],[-71.06519,42.34816],[-71.06579,42.348082],[-71.06583,42.348038]]],[[[-71.06579,42.34818],[-71.065774,42.348151],[-71.065735,42.348139],[-71.065008,42.348223],[-71.064974,42.34826],[-71.06499,42.348289],[-71.065029,42.348301],[-71.065756,42.348218],[-71.06579,42.34818]]],[[[-71.065738,42.348446],[-71.065721,42.348415],[-71.06568,42.348403],[-71.064927,42.348489],[-71.064891,42.348529],[-71.064908,42.34856],[-71.064949,42.348572],[-71.065702,42.348486],[-71.065738,42.348446]]],[[[-71.065728,42.348293],[-71.06571,42.34828],[-71.065547,42.348298],[-71.06549,42.34827],[-71.064711,42.34836],[-71.064673,42.348402],[-71.064691,42.348434],[-71.064734,42.348448],[-71.065514,42.348358],[-71.065547,42.348333],[-71.065728,42.348293]]],[[[-71.065598,42.348957],[-71.06558,42.348944],[-71.065271,42.348979],[-71.065253,42.348992],[-71.065271,42.349006],[-71.06558,42.34897],[-71.065598,42.348957]]],[[[-71.065588,42.351223],[-71.06557,42.35121],[-71.065187,42.351253],[-71.065169,42.351267],[-71.065187,42.35128],[-71.06557,42.351236],[-71.065588,42.351223]]],[[[-71.065562,42.349094],[-71.065544,42.349081],[-71.06535,42.349103],[-71.065375,42.349084],[-71.065375,42.349056],[-71.06533,42.349034],[-71.064655,42.349112],[-71.064625,42.349145],[-71.064639,42.34917],[-71.064674,42.349181],[-71.065226,42.349118],[-71.065217,42.349129],[-71.065235,42.349143],[-71.065544,42.349107],[-71.065562,42.349094]]],[[[-71.065559,42.349236],[-71.065544,42.349211],[-71.06551,42.3492],[-71.064924,42.349267],[-71.064894,42.349301],[-71.064908,42.349326],[-71.064942,42.349337],[-71.065529,42.349269],[-71.065559,42.349236]]],[[[-71.06555,42.353665],[-71.065532,42.353633],[-71.065488,42.353619],[-71.064709,42.353709],[-71.064671,42.353751],[-71.064689,42.353783],[-71.064732,42.353797],[-71.065512,42.353707],[-71.06555,42.353665]]],[[[-71.065433,42.34879],[-71.065418,42.348765],[-71.065384,42.348754],[-71.064798,42.348821],[-71.064768,42.348855],[-71.064782,42.34888],[-71.064816,42.348891],[-71.065403,42.348823],[-71.065433,42.34879]]],[[[-71.065396,42.34894],[-71.06536,42.348914],[-71.064789,42.348979],[-71.064767,42.349003],[-71.064803,42.34903],[-71.065374,42.348964],[-71.065396,42.34894]]],[[[-71.065368,42.35121],[-71.06535,42.351197],[-71.065257,42.351198],[-71.064917,42.351234],[-71.064898,42.351248],[-71.064917,42.351261],[-71.064985,42.351263],[-71.06535,42.351223],[-71.065368,42.35121]]],[[[-71.065176,42.35072],[-71.06515,42.350701],[-71.064668,42.350756],[-71.064644,42.350782],[-71.064668,42.350794],[-71.06515,42.350739],[-71.065176,42.35072]]],[[[-71.065151,42.350784],[-71.065125,42.350765],[-71.064643,42.35082],[-71.064619,42.350846],[-71.064643,42.350858],[-71.065125,42.350803],[-71.065151,42.350784]]],[[[-71.065129,42.350853],[-71.06511,42.350839],[-71.064677,42.350888],[-71.064658,42.350902],[-71.064677,42.350917],[-71.06511,42.350867],[-71.065129,42.350853]]],[[[-71.064944,42.35131],[-71.064926,42.351297],[-71.064568,42.351337],[-71.064549,42.351351],[-71.064568,42.351364],[-71.064926,42.351323],[-71.064944,42.35131]]],[[[-71.064857,42.348456],[-71.064839,42.348443],[-71.064506,42.34848],[-71.064487,42.348494],[-71.064506,42.348507],[-71.064839,42.348469],[-71.064857,42.348456]]],[[[-71.064624,42.351826],[-71.064606,42.351813],[-71.064273,42.35185],[-71.064254,42.351864],[-71.064273,42.351877],[-71.064606,42.351839],[-71.064624,42.351826]]],[[[-71.064621,42.348425],[-71.064603,42.348412],[-71.06427,42.348449],[-71.064251,42.348463],[-71.06427,42.348476],[-71.064603,42.348438],[-71.064621,42.348425]]],[[[-71.064568,42.352055],[-71.06455,42.352042],[-71.064192,42.352082],[-71.064173,42.352096],[-71.064192,42.352109],[-71.06455,42.352068],[-71.064568,42.352055]]],[[[-71.064564,42.352104],[-71.064545,42.35209],[-71.064112,42.352139],[-71.064093,42.352153],[-71.064112,42.352168],[-71.064545,42.352118],[-71.064564,42.352104]]],[[[-71.064548,42.35216],[-71.06453,42.352147],[-71.064197,42.352184],[-71.064178,42.352198],[-71.064197,42.352211],[-71.06453,42.352173],[-71.064548,42.35216]]],[[[-71.064436,42.348399],[-71.064418,42.348386],[-71.064085,42.348423],[-71.064066,42.348437],[-71.064085,42.34845],[-71.064418,42.348412],[-71.064436,42.348399]]],[[[-71.064238,42.350925],[-71.06422,42.350912],[-71.064146,42.35092],[-71.064137,42.350902],[-71.06408,42.350906],[-71.06405,42.35089],[-71.063972,42.350899],[-71.063934,42.350874],[-71.063695,42.350901],[-71.063705,42.350874],[-71.063687,42.350861],[-71.063546,42.350864],[-71.06352,42.350845],[-71.063014,42.350912],[-71.063028,42.350937],[-71.06311,42.35093],[-71.06312,42.350961],[-71.063143,42.350968],[-71.06333,42.350946],[-71.063316,42.35098],[-71.063352,42.350998],[-71.063488,42.350983],[-71.063518,42.350999],[-71.063869,42.350959],[-71.063887,42.350976],[-71.06422,42.350938],[-71.064238,42.350925]]],[[[-71.064209,42.34872],[-71.064186,42.348703],[-71.063891,42.348737],[-71.063879,42.348727],[-71.063412,42.348778],[-71.06339,42.348795],[-71.063412,42.348812],[-71.063707,42.348778],[-71.06372,42.348788],[-71.064186,42.348737],[-71.064209,42.34872]]],[[[-71.064168,42.34884],[-71.06415,42.348827],[-71.06386,42.348856],[-71.063427,42.348905],[-71.063408,42.348919],[-71.063427,42.348934],[-71.06415,42.348853],[-71.064168,42.34884]]],[[[-71.063915,42.348675],[-71.063896,42.348661],[-71.063463,42.34871],[-71.063444,42.348724],[-71.063463,42.348739],[-71.063896,42.348689],[-71.063915,42.348675]]],[[[-71.063873,42.348793],[-71.063855,42.34878],[-71.063522,42.348817],[-71.063503,42.348831],[-71.063522,42.348844],[-71.063855,42.348806],[-71.063873,42.348793]]],[[[-71.063821,42.349148],[-71.063803,42.349135],[-71.06347,42.349172],[-71.063451,42.349186],[-71.06347,42.349199],[-71.063803,42.349161],[-71.063821,42.349148]]],[[[-71.063808,42.348427],[-71.06379,42.348414],[-71.063457,42.348451],[-71.063438,42.348465],[-71.063457,42.348478],[-71.06379,42.34844],[-71.063808,42.348427]]],[[[-71.063768,42.349293],[-71.06375,42.34928],[-71.063417,42.349317],[-71.063398,42.349331],[-71.063417,42.349344],[-71.06375,42.349306],[-71.063768,42.349293]]],[[[-71.063755,42.349335],[-71.063737,42.349322],[-71.063404,42.349359],[-71.063385,42.349373],[-71.063404,42.349386],[-71.063737,42.349348],[-71.063755,42.349335]]],[[[-71.063718,42.34841],[-71.0637,42.348397],[-71.063367,42.348434],[-71.063348,42.348448],[-71.063367,42.348461],[-71.0637,42.348423],[-71.063718,42.34841]]],[[[-71.063689,42.34976],[-71.06367,42.349746],[-71.063237,42.349795],[-71.063218,42.349809],[-71.063237,42.349824],[-71.06367,42.349774],[-71.063689,42.34976]]],[[[-71.063632,42.349854],[-71.063614,42.349841],[-71.063206,42.349887],[-71.063188,42.3499],[-71.063206,42.349914],[-71.063614,42.349867],[-71.063632,42.349854]]],[[[-71.063579,42.34995],[-71.06356,42.349936],[-71.063127,42.349985],[-71.063108,42.349999],[-71.063127,42.350014],[-71.06356,42.349964],[-71.063579,42.34995]]],[[[-71.063548,42.35],[-71.06353,42.349987],[-71.063122,42.350033],[-71.063104,42.350046],[-71.063122,42.35006],[-71.06353,42.350013],[-71.063548,42.35]]],[[[-71.063458,42.350418],[-71.06344,42.350405],[-71.063032,42.350451],[-71.062933,42.350481],[-71.062952,42.350494],[-71.06331,42.350453],[-71.063458,42.350418]]],[[[-71.063458,42.35018],[-71.06344,42.350167],[-71.063057,42.35021],[-71.063039,42.350224],[-71.063057,42.350237],[-71.06344,42.350193],[-71.063458,42.35018]]],[[[-71.063434,42.350487],[-71.063416,42.350474],[-71.063297,42.350487],[-71.06328,42.35047],[-71.062897,42.350513],[-71.062879,42.350527],[-71.062897,42.35054],[-71.063016,42.350527],[-71.063033,42.350544],[-71.063416,42.3505],[-71.063434,42.350487]]],[[[-71.063428,42.350246],[-71.06341,42.350233],[-71.063027,42.350276],[-71.063009,42.35029],[-71.063027,42.350303],[-71.06341,42.350259],[-71.063428,42.350246]]],[[[-71.063403,42.35055],[-71.063385,42.350537],[-71.063027,42.350577],[-71.062804,42.350628],[-71.062822,42.350642],[-71.06323,42.350595],[-71.063403,42.35055]]],[[[-71.063403,42.35028],[-71.063385,42.350267],[-71.063002,42.35031],[-71.062984,42.350324],[-71.063002,42.350337],[-71.063385,42.350293],[-71.063403,42.35028]]],[[[-71.063386,42.350826],[-71.06336,42.350807],[-71.062878,42.350862],[-71.062854,42.350888],[-71.062878,42.3509],[-71.06336,42.350845],[-71.063386,42.350826]]],[[[-71.063383,42.350765],[-71.063354,42.350743],[-71.063149,42.350767],[-71.06313,42.350751],[-71.062697,42.3508],[-71.062678,42.350814],[-71.062697,42.350829],[-71.06282,42.350815],[-71.06282,42.350831],[-71.062847,42.350844],[-71.063365,42.350785],[-71.063383,42.350765]]],[[[-71.063369,42.350704],[-71.06335,42.35069],[-71.062777,42.350757],[-71.062759,42.350771],[-71.062777,42.350784],[-71.06335,42.350718],[-71.063369,42.350704]]],[[[-71.063368,42.35061],[-71.06335,42.350597],[-71.062802,42.350663],[-71.062784,42.350676],[-71.062802,42.35069],[-71.06321,42.350643],[-71.063368,42.35061]]],[[[-71.063273,42.350536],[-71.063255,42.350523],[-71.062872,42.350566],[-71.062854,42.35058],[-71.062872,42.350593],[-71.063255,42.350549],[-71.063273,42.350536]]],[[[-71.063198,42.350677],[-71.06318,42.350664],[-71.062871,42.350699],[-71.062853,42.350712],[-71.062871,42.350726],[-71.06318,42.35069],[-71.063198,42.350677]]],[[[-71.063144,42.352238],[-71.063126,42.352225],[-71.062607,42.35228],[-71.062588,42.352294],[-71.062607,42.352307],[-71.0627,42.352303],[-71.063065,42.352263],[-71.063144,42.352238]]],[[[-71.062922,42.35222],[-71.062837,42.352203],[-71.062472,42.352242],[-71.062453,42.352256],[-71.062514,42.352276],[-71.062904,42.352233],[-71.062922,42.35222]]],[[[-71.062829,42.353302],[-71.06281,42.353288],[-71.06274,42.353289],[-71.062282,42.353341],[-71.06226,42.353358],[-71.062282,42.353375],[-71.06281,42.353316],[-71.062829,42.353302]]],[[[-71.062829,42.353214],[-71.062751,42.353194],[-71.062311,42.353242],[-71.062292,42.353256],[-71.06237,42.353277],[-71.06281,42.353228],[-71.062829,42.353214]]],[[[-71.062559,42.348354],[-71.06253,42.348332],[-71.06237,42.348344],[-71.061419,42.348445],[-71.0614,42.348459],[-71.061419,42.348472],[-71.06175,42.348435],[-71.061761,42.34846],[-71.061788,42.348468],[-71.062385,42.3484],[-71.062541,42.348374],[-71.062559,42.348354]]],[[[-71.062496,42.349373],[-71.06247,42.349344],[-71.062366,42.349352],[-71.062389,42.349335],[-71.062389,42.349311],[-71.06235,42.349292],[-71.061727,42.349363],[-71.061701,42.349392],[-71.061727,42.349421],[-71.061831,42.349413],[-71.061808,42.34943],[-71.061581,42.349476],[-71.0616,42.349489],[-71.061818,42.349465],[-71.061847,42.349473],[-71.06247,42.349402],[-71.062496,42.349373]]],[[[-71.062463,42.348557],[-71.06244,42.34854],[-71.061982,42.348592],[-71.06196,42.348609],[-71.061982,42.348626],[-71.06244,42.348574],[-71.062463,42.348557]]],[[[-71.062039,42.353752],[-71.06202,42.353738],[-71.061587,42.353787],[-71.061458,42.353821],[-71.061476,42.353834],[-71.06181,42.353796],[-71.06202,42.353766],[-71.062039,42.353752]]],[[[-71.062006,42.349306],[-71.061988,42.349293],[-71.061655,42.34933],[-71.061636,42.349344],[-71.061655,42.349357],[-71.061988,42.349319],[-71.062006,42.349306]]],[[[-71.061988,42.35386],[-71.06197,42.353847],[-71.061636,42.353884],[-71.061618,42.353898],[-71.061636,42.353911],[-71.06197,42.353873],[-71.061988,42.35386]]],[[[-71.061941,42.349548],[-71.061926,42.349523],[-71.061892,42.349512],[-71.061542,42.349552],[-71.061518,42.349535],[-71.061449,42.349538],[-71.061435,42.349509],[-71.061401,42.349498],[-71.060815,42.349565],[-71.060785,42.349599],[-71.060815,42.349632],[-71.060884,42.349629],[-71.060899,42.349683],[-71.061264,42.349643],[-71.061282,42.34963],[-71.061324,42.349649],[-71.061892,42.349584],[-71.061926,42.349573],[-71.061941,42.349548]]],[[[-71.061928,42.34988],[-71.06191,42.349867],[-71.061577,42.349904],[-71.061558,42.349918],[-71.061577,42.349931],[-71.06191,42.349893],[-71.061928,42.34988]]],[[[-71.061924,42.3537],[-71.061905,42.353686],[-71.061472,42.353735],[-71.061377,42.353776],[-71.061395,42.353789],[-71.061729,42.353751],[-71.061924,42.3537]]],[[[-71.061909,42.353825],[-71.06189,42.353811],[-71.061457,42.35386],[-71.061438,42.353874],[-71.061457,42.353889],[-71.06189,42.353839],[-71.061909,42.353825]]],[[[-71.061898,42.349926],[-71.06188,42.349913],[-71.061547,42.34995],[-71.061528,42.349964],[-71.061547,42.349977],[-71.06188,42.349939],[-71.061898,42.349926]]],[[[-71.061892,42.35],[-71.061874,42.349987],[-71.061541,42.350024],[-71.061522,42.350038],[-71.061541,42.350051],[-71.061874,42.350013],[-71.061892,42.35]]],[[[-71.061868,42.350044],[-71.06185,42.350031],[-71.061517,42.350068],[-71.061498,42.350082],[-71.061517,42.350095],[-71.06185,42.350057],[-71.061868,42.350044]]],[[[-71.061851,42.348312],[-71.061838,42.348288],[-71.061806,42.348278],[-71.061645,42.348297],[-71.061629,42.348268],[-71.06159,42.348256],[-71.060863,42.34834],[-71.060829,42.348377],[-71.060845,42.348406],[-71.060884,42.348418],[-71.061131,42.34839],[-71.061175,42.348417],[-71.061823,42.348343],[-71.061851,42.348312]]],[[[-71.061838,42.35008],[-71.06182,42.350067],[-71.061487,42.350104],[-71.061468,42.350118],[-71.061487,42.350131],[-71.06182,42.350093],[-71.061838,42.35008]]],[[[-71.061825,42.353653],[-71.061806,42.353639],[-71.061373,42.353688],[-71.061354,42.353702],[-71.061373,42.353717],[-71.061806,42.353667],[-71.061825,42.353653]]],[[[-71.061824,42.350155],[-71.061806,42.350142],[-71.061497,42.350177],[-71.061479,42.35019],[-71.061497,42.350204],[-71.061806,42.350168],[-71.061824,42.350155]]],[[[-71.061798,42.3502],[-71.06178,42.350187],[-71.061447,42.350224],[-71.061428,42.350238],[-71.061447,42.350251],[-71.06178,42.350213],[-71.061798,42.3502]]],[[[-71.061789,42.350292],[-71.06175,42.350263],[-71.061153,42.350332],[-71.061132,42.350347],[-71.06114,42.350378],[-71.061071,42.350387],[-71.061043,42.350418],[-71.061056,42.350442],[-71.061089,42.350451],[-71.061737,42.350377],[-71.061762,42.350359],[-71.061752,42.350322],[-71.061789,42.350292]]],[[[-71.061766,42.349666],[-71.061751,42.349641],[-71.061717,42.34963],[-71.06126,42.349682],[-71.061243,42.349665],[-71.060885,42.349705],[-71.060866,42.349719],[-71.060885,42.349732],[-71.061114,42.349706],[-71.061104,42.349744],[-71.061149,42.349767],[-71.061736,42.349699],[-71.061766,42.349666]]],[[[-71.061759,42.353607],[-71.061744,42.353582],[-71.06171,42.353571],[-71.061124,42.353638],[-71.061094,42.353672],[-71.061108,42.353697],[-71.061142,42.353708],[-71.061729,42.35364],[-71.061759,42.353607]]],[[[-71.061692,42.348648],[-71.06168,42.348626],[-71.06165,42.348617],[-71.060996,42.348696],[-71.06095,42.348676],[-71.060223,42.34876],[-71.060189,42.348797],[-71.060205,42.348826],[-71.060244,42.348838],[-71.060861,42.348768],[-71.060889,42.348775],[-71.061537,42.348701],[-71.061666,42.348677],[-71.061692,42.348648]]],[[[-71.061628,42.35355],[-71.06161,42.353537],[-71.061227,42.35358],[-71.061209,42.353594],[-71.061227,42.353607],[-71.06161,42.353563],[-71.061628,42.35355]]],[[[-71.06161,42.348837],[-71.061592,42.348824],[-71.061492,42.348835],[-71.06146,42.348823],[-71.060837,42.348894],[-71.060811,42.348923],[-71.060823,42.348945],[-71.060853,42.348954],[-71.061476,42.348883],[-71.06161,42.348837]]],[[[-71.061608,42.3485],[-71.06159,42.348487],[-71.061257,42.348524],[-71.061238,42.348538],[-71.061257,42.348551],[-71.06159,42.348513],[-71.061608,42.3485]]],[[[-71.061597,42.348184],[-71.061579,42.348171],[-71.061447,42.348186],[-71.061467,42.348167],[-71.061467,42.348133],[-71.06141,42.348104],[-71.060631,42.348194],[-71.060593,42.348236],[-71.060611,42.348268],[-71.060654,42.348282],[-71.06118,42.348222],[-71.061189,42.34824],[-71.061579,42.348197],[-71.061597,42.348184]]],[[[-71.061493,42.35095],[-71.06147,42.350933],[-71.061012,42.350985],[-71.06099,42.351002],[-71.061012,42.351019],[-71.06147,42.350967],[-71.061493,42.35095]]],[[[-71.061452,42.348248],[-71.06142,42.348224],[-71.060888,42.348285],[-71.060858,42.348299],[-71.060858,42.348318],[-71.060888,42.348333],[-71.06142,42.348272],[-71.061452,42.348248]]],[[[-71.061438,42.349255],[-71.06142,42.349242],[-71.061037,42.349285],[-71.061019,42.349299],[-71.061037,42.349312],[-71.06142,42.349268],[-71.061438,42.349255]]],[[[-71.061418,42.351122],[-71.0614,42.351109],[-71.061067,42.351146],[-71.061048,42.35116],[-71.061067,42.351173],[-71.0614,42.351135],[-71.061418,42.351122]]],[[[-71.061399,42.349052],[-71.06138,42.349038],[-71.060947,42.349087],[-71.060928,42.349101],[-71.060947,42.349116],[-71.06138,42.349066],[-71.061399,42.349052]]],[[[-71.061397,42.35118],[-71.061379,42.351167],[-71.061046,42.351204],[-71.061027,42.351218],[-71.061046,42.351231],[-71.061379,42.351193],[-71.061397,42.35118]]],[[[-71.061371,42.35124],[-71.061353,42.351227],[-71.06102,42.351264],[-71.061001,42.351278],[-71.06102,42.351291],[-71.061353,42.351253],[-71.061371,42.35124]]],[[[-71.061368,42.34943],[-71.06135,42.349417],[-71.061017,42.349454],[-71.060998,42.349468],[-71.061017,42.349481],[-71.06135,42.349443],[-71.061368,42.34943]]],[[[-71.061352,42.351289],[-71.061334,42.351276],[-71.061001,42.351313],[-71.060982,42.351327],[-71.061001,42.35134],[-71.061334,42.351302],[-71.061352,42.351289]]],[[[-71.061349,42.349228],[-71.06132,42.349206],[-71.060802,42.349266],[-71.060783,42.349286],[-71.060813,42.349307],[-71.061331,42.349248],[-71.061349,42.349228]]],[[[-71.061244,42.35337],[-71.061226,42.353357],[-71.060892,42.353394],[-71.060874,42.353408],[-71.060892,42.353421],[-71.061226,42.353383],[-71.061244,42.35337]]],[[[-71.061238,42.354774],[-71.06122,42.354761],[-71.060886,42.354798],[-71.060868,42.354812],[-71.060886,42.354825],[-71.06122,42.354787],[-71.061238,42.354774]]],[[[-71.061222,42.34983],[-71.06121,42.349808],[-71.06118,42.349799],[-71.060557,42.34987],[-71.060531,42.349899],[-71.060543,42.349921],[-71.060573,42.34993],[-71.061196,42.349859],[-71.061222,42.34983]]],[[[-71.061188,42.354916],[-71.06117,42.354903],[-71.060836,42.35494],[-71.060818,42.354954],[-71.060836,42.354967],[-71.06117,42.354929],[-71.061188,42.354916]]],[[[-71.061188,42.353344],[-71.06117,42.353331],[-71.06098,42.353352],[-71.061133,42.35333],[-71.06112,42.353307],[-71.060923,42.353329],[-71.060912,42.353318],[-71.060547,42.353357],[-71.060528,42.353371],[-71.060547,42.353384],[-71.060769,42.353359],[-71.06078,42.35337],[-71.060624,42.353391],[-71.060636,42.353414],[-71.06117,42.353357],[-71.061188,42.353344]]],[[[-71.061156,42.35003],[-71.061141,42.350003],[-71.061104,42.349992],[-71.060403,42.350072],[-71.060371,42.350108],[-71.060386,42.350135],[-71.060423,42.350146],[-71.061124,42.350065],[-71.061156,42.35003]]],[[[-71.061048,42.353275],[-71.06103,42.353262],[-71.060647,42.353305],[-71.060492,42.35334],[-71.06051,42.353353],[-71.060844,42.353315],[-71.061048,42.353275]]],[[[-71.061038,42.34849],[-71.06102,42.348477],[-71.060687,42.348514],[-71.060668,42.348528],[-71.060687,42.348541],[-71.06102,42.348503],[-71.061038,42.34849]]],[[[-71.061032,42.348602],[-71.061017,42.348575],[-71.06098,42.348564],[-71.060279,42.348644],[-71.060247,42.34868],[-71.060262,42.348707],[-71.060299,42.348718],[-71.061,42.348637],[-71.061032,42.348602]]],[[[-71.060942,42.348827],[-71.06093,42.348805],[-71.0609,42.348796],[-71.060277,42.348867],[-71.060251,42.348896],[-71.060263,42.348918],[-71.060293,42.348927],[-71.060916,42.348856],[-71.060942,42.348827]]],[[[-71.060938,42.35322],[-71.06092,42.353207],[-71.060586,42.353244],[-71.060568,42.353258],[-71.060586,42.353271],[-71.06092,42.353233],[-71.060938,42.35322]]],[[[-71.060847,42.349174],[-71.060827,42.349137],[-71.060776,42.349121],[-71.059919,42.34922],[-71.059874,42.349269],[-71.059895,42.349306],[-71.059946,42.349321],[-71.060803,42.349223],[-71.060847,42.349174]]],[[[-71.060733,42.34939],[-71.060718,42.349365],[-71.060684,42.349354],[-71.060116,42.349419],[-71.060071,42.349441],[-71.059538,42.34951],[-71.059514,42.349536],[-71.059553,42.349565],[-71.06053,42.349466],[-71.060543,42.349443],[-71.060703,42.349423],[-71.060733,42.34939]]],[[[-71.060695,42.349506],[-71.06068,42.349481],[-71.060646,42.34947],[-71.059583,42.349592],[-71.059553,42.349614],[-71.059583,42.349635],[-71.059945,42.349594],[-71.05999,42.349617],[-71.060146,42.349606],[-71.060665,42.349539],[-71.060695,42.349506]]],[[[-71.060628,42.34926],[-71.06061,42.349247],[-71.060277,42.349284],[-71.060258,42.349298],[-71.060277,42.349311],[-71.06061,42.349273],[-71.060628,42.34926]]],[[[-71.060609,42.34967],[-71.060579,42.349637],[-71.060488,42.349642],[-71.06047,42.349627],[-71.060137,42.349664],[-71.059885,42.349712],[-71.059855,42.349745],[-71.059869,42.34977],[-71.059904,42.349781],[-71.060579,42.349703],[-71.060609,42.34967]]],[[[-71.060608,42.3493],[-71.06059,42.349287],[-71.060257,42.349324],[-71.060238,42.349338],[-71.060257,42.349351],[-71.06059,42.349313],[-71.060608,42.3493]]],[[[-71.060598,42.35304],[-71.06058,42.353027],[-71.060246,42.353064],[-71.060022,42.353094],[-71.060004,42.353108],[-71.060022,42.353121],[-71.060356,42.353083],[-71.06058,42.353053],[-71.060598,42.35304]]],[[[-71.060588,42.349342],[-71.06057,42.349329],[-71.060237,42.349366],[-71.060218,42.34938],[-71.060237,42.349393],[-71.06057,42.349355],[-71.060588,42.349342]]],[[[-71.060582,42.349792],[-71.060567,42.349765],[-71.06053,42.349754],[-71.059829,42.349834],[-71.059797,42.34987],[-71.059812,42.349897],[-71.059849,42.349908],[-71.06055,42.349827],[-71.060582,42.349792]]],[[[-71.060518,42.352997],[-71.0605,42.352984],[-71.060166,42.353021],[-71.060148,42.353035],[-71.060166,42.353048],[-71.0605,42.35301],[-71.060518,42.352997]]],[[[-71.060508,42.353283],[-71.06049,42.35327],[-71.060132,42.35331],[-71.060113,42.353324],[-71.060132,42.353337],[-71.06049,42.353296],[-71.060508,42.353283]]],[[[-71.060504,42.35315],[-71.060486,42.353137],[-71.060152,42.353174],[-71.060134,42.353188],[-71.060152,42.353201],[-71.060486,42.353163],[-71.060504,42.35315]]],[[[-71.060504,42.3496],[-71.060486,42.349587],[-71.060153,42.349624],[-71.060134,42.349638],[-71.060153,42.349651],[-71.060486,42.349613],[-71.060504,42.3496]]],[[[-71.060468,42.352974],[-71.06045,42.352961],[-71.060092,42.353001],[-71.060073,42.353015],[-71.060092,42.353028],[-71.06045,42.352987],[-71.060468,42.352974]]],[[[-71.060428,42.3531],[-71.06041,42.353087],[-71.060076,42.353124],[-71.060058,42.353138],[-71.060076,42.353151],[-71.06041,42.353113],[-71.060428,42.3531]]],[[[-71.060419,42.353405],[-71.060418,42.35338],[-71.0604,42.353367],[-71.060103,42.3534],[-71.06006,42.353376],[-71.059411,42.353451],[-71.059383,42.353482],[-71.059396,42.353506],[-71.059428,42.353515],[-71.059761,42.353478],[-71.059798,42.3535],[-71.059991,42.353478],[-71.06,42.353497],[-71.06034,42.35346],[-71.060353,42.353437],[-71.060395,42.353432],[-71.060419,42.353405]]],[[[-71.060388,42.349884],[-71.06037,42.349871],[-71.060012,42.349911],[-71.059993,42.349925],[-71.060012,42.349938],[-71.06037,42.349897],[-71.060388,42.349884]]],[[[-71.060318,42.350037],[-71.0603,42.350024],[-71.059967,42.350061],[-71.059948,42.350075],[-71.059967,42.350088],[-71.0603,42.35005],[-71.060318,42.350037]]],[[[-71.060314,42.35015],[-71.060285,42.350118],[-71.060297,42.35011],[-71.060287,42.350093],[-71.059947,42.350129],[-71.059933,42.350152],[-71.059679,42.350181],[-71.059649,42.350215],[-71.059663,42.35024],[-71.059697,42.350251],[-71.060284,42.350183],[-71.060314,42.35015]]],[[[-71.060158,42.352962],[-71.06014,42.352949],[-71.059806,42.352986],[-71.059788,42.353],[-71.059806,42.353013],[-71.06014,42.352975],[-71.060158,42.352962]]],[[[-71.060086,42.349644],[-71.06005,42.349618],[-71.059479,42.349683],[-71.059457,42.349707],[-71.059493,42.349734],[-71.060064,42.349668],[-71.060086,42.349644]]],[[[-71.059972,42.351044],[-71.05996,42.351022],[-71.05993,42.351013],[-71.059307,42.351084],[-71.059148,42.351135],[-71.059167,42.351148],[-71.059293,42.351134],[-71.059323,42.351144],[-71.059946,42.351073],[-71.059972,42.351044]]],[[[-71.059901,42.351135],[-71.059875,42.351116],[-71.05911,42.351194],[-71.058435,42.351272],[-71.058405,42.351305],[-71.058435,42.351338],[-71.058483,42.351337],[-71.058465,42.351365],[-71.058489,42.351395],[-71.058449,42.351406],[-71.058435,42.351432],[-71.058449,42.351457],[-71.058484,42.351468],[-71.059159,42.35139],[-71.059189,42.351357],[-71.059164,42.351327],[-71.059204,42.351315],[-71.059219,42.35129],[-71.059189,42.351257],[-71.05914,42.351257],[-71.059188,42.35124],[-71.059155,42.351218],[-71.059368,42.351194],[-71.059393,42.351209],[-71.059875,42.351154],[-71.059901,42.351135]]],[[[-71.059858,42.3533],[-71.05984,42.353287],[-71.059506,42.353324],[-71.059488,42.353338],[-71.059506,42.353351],[-71.05984,42.353313],[-71.059858,42.3533]]],[[[-71.059822,42.35326],[-71.05981,42.353238],[-71.05978,42.353229],[-71.059184,42.353297],[-71.059166,42.353281],[-71.059088,42.353289],[-71.05907,42.353274],[-71.058998,42.353282],[-71.058987,42.353271],[-71.058646,42.353307],[-71.058628,42.353321],[-71.058646,42.353334],[-71.058815,42.35333],[-71.058832,42.353345],[-71.05914,42.35331],[-71.059134,42.353341],[-71.059173,42.35336],[-71.059796,42.353289],[-71.059822,42.35326]]],[[[-71.059758,42.352753],[-71.05974,42.35274],[-71.059683,42.352746],[-71.059683,42.352727],[-71.059623,42.352718],[-71.059258,42.352757],[-71.059245,42.35278],[-71.058954,42.352814],[-71.058924,42.352848],[-71.058938,42.352873],[-71.058972,42.352884],[-71.059559,42.352816],[-71.059588,42.352784],[-71.05974,42.352766],[-71.059758,42.352753]]],[[[-71.059669,42.354954],[-71.059651,42.354934],[-71.059614,42.354935],[-71.059613,42.354903],[-71.05955,42.354866],[-71.059018,42.354927],[-71.058988,42.354941],[-71.058988,42.35496],[-71.059035,42.354998],[-71.05911,42.354999],[-71.059112,42.355027],[-71.059133,42.355033],[-71.059651,42.354974],[-71.059669,42.354954]]],[[[-71.059649,42.35171],[-71.059634,42.351685],[-71.0596,42.351674],[-71.058906,42.351739],[-71.058884,42.351756],[-71.05889,42.351768],[-71.058987,42.351764],[-71.058996,42.351798],[-71.058842,42.351815],[-71.05882,42.351832],[-71.058842,42.351849],[-71.0593,42.351797],[-71.059323,42.35178],[-71.059619,42.351743],[-71.059649,42.35171]]],[[[-71.059562,42.3516],[-71.05953,42.351576],[-71.058998,42.351637],[-71.058938,42.351664],[-71.058924,42.351689],[-71.058947,42.351701],[-71.05943,42.351646],[-71.059542,42.351622],[-71.059562,42.3516]]],[[[-71.059482,42.354813],[-71.059462,42.354791],[-71.05942,42.354792],[-71.05943,42.354765],[-71.059413,42.354738],[-71.059364,42.354707],[-71.058793,42.354772],[-71.058771,42.354796],[-71.058793,42.354821],[-71.058844,42.354819],[-71.058835,42.354835],[-71.058855,42.354857],[-71.058898,42.354855],[-71.058888,42.354883],[-71.058918,42.354898],[-71.059462,42.354835],[-71.059482,42.354813]]],[[[-71.059428,42.3531],[-71.05941,42.353087],[-71.059076,42.353124],[-71.059058,42.353138],[-71.059076,42.353151],[-71.05941,42.353113],[-71.059428,42.3531]]],[[[-71.059418,42.35301],[-71.0594,42.352997],[-71.059066,42.353034],[-71.059048,42.353048],[-71.059066,42.353061],[-71.0594,42.353023],[-71.059418,42.35301]]],[[[-71.059098,42.35146],[-71.05908,42.351447],[-71.058747,42.351484],[-71.058728,42.351498],[-71.058747,42.351511],[-71.05908,42.351473],[-71.059098,42.35146]]],[[[-71.059092,42.354385],[-71.05906,42.354361],[-71.058528,42.354422],[-71.058498,42.354436],[-71.058498,42.354455],[-71.058528,42.35447],[-71.05906,42.354409],[-71.059092,42.354385]]],[[[-71.059066,42.351517],[-71.05904,42.351498],[-71.058557,42.351553],[-71.058534,42.351579],[-71.058557,42.351591],[-71.05904,42.351536],[-71.059066,42.351517]]],[[[-71.059018,42.354332],[-71.059,42.354319],[-71.058666,42.354356],[-71.058648,42.35437],[-71.058666,42.354383],[-71.059,42.354345],[-71.059018,42.354332]]],[[[-71.059006,42.351604],[-71.05897,42.351578],[-71.058399,42.351643],[-71.058377,42.351667],[-71.058413,42.351694],[-71.058534,42.35168],[-71.058547,42.351703],[-71.05893,42.351659],[-71.058943,42.351636],[-71.058995,42.351623],[-71.059006,42.351604]]],[[[-71.058959,42.35429],[-71.05894,42.354276],[-71.058507,42.354325],[-71.058488,42.354339],[-71.058507,42.354354],[-71.05894,42.354304],[-71.058959,42.35429]]],[[[-71.058922,42.35169],[-71.05889,42.351666],[-71.058345,42.351728],[-71.058328,42.351741],[-71.058335,42.351768],[-71.058268,42.351783],[-71.05826,42.351812],[-71.058218,42.351825],[-71.058207,42.351843],[-71.058243,42.35187],[-71.058814,42.351804],[-71.058833,42.35177],[-71.058883,42.351748],[-71.058875,42.351719],[-71.058922,42.35169]]],[[[-71.058864,42.353268],[-71.058846,42.353255],[-71.058747,42.353256],[-71.058406,42.353292],[-71.058388,42.353306],[-71.058406,42.353319],[-71.058506,42.353318],[-71.058846,42.353281],[-71.058864,42.353268]]],[[[-71.058778,42.351826],[-71.05876,42.351813],[-71.058134,42.351882],[-71.058095,42.351911],[-71.058134,42.35194],[-71.058716,42.351874],[-71.058744,42.351865],[-71.058778,42.351826]]],[[[-71.058692,42.351906],[-71.05866,42.351882],[-71.058115,42.351944],[-71.058098,42.351976],[-71.058154,42.351998],[-71.057785,42.352049],[-71.057769,42.352077],[-71.0578,42.352114],[-71.057763,42.352146],[-71.057776,42.35217],[-71.057808,42.352179],[-71.058457,42.352105],[-71.058482,42.352087],[-71.058482,42.352062],[-71.058581,42.352013],[-71.058593,42.351957],[-71.058541,42.351958],[-71.058636,42.351942],[-71.058692,42.351906]]],[[[-71.058568,42.35253],[-71.058497,42.352512],[-71.058348,42.352522],[-71.058343,42.35251],[-71.05848,42.352494],[-71.058499,42.35248],[-71.05848,42.352466],[-71.058386,42.352476],[-71.058377,42.352458],[-71.058278,42.352467],[-71.05826,42.352454],[-71.057927,42.352491],[-71.057914,42.352515],[-71.058024,42.352518],[-71.057898,42.35255],[-71.057917,42.352563],[-71.058034,42.352567],[-71.058052,42.352582],[-71.05821,42.35258],[-71.05855,42.352543],[-71.058568,42.35253]]],[[[-71.058288,42.35091],[-71.05827,42.350897],[-71.057937,42.350934],[-71.057918,42.350948],[-71.057937,42.350961],[-71.05827,42.350923],[-71.058288,42.35091]]],[[[-71.058218,42.350887],[-71.0582,42.350874],[-71.057867,42.350911],[-71.057848,42.350925],[-71.057867,42.350938],[-71.0582,42.3509],[-71.058218,42.350887]]],[[[-71.058038,42.352665],[-71.05802,42.352652],[-71.057686,42.352689],[-71.057668,42.352703],[-71.057686,42.352716],[-71.05802,42.352678],[-71.058038,42.352665]]],[[[-71.058032,42.352768],[-71.058014,42.352755],[-71.05768,42.352792],[-71.057662,42.352806],[-71.05768,42.352819],[-71.058014,42.352781],[-71.058032,42.352768]]],[[[-71.058008,42.352905],[-71.05799,42.352892],[-71.057656,42.352929],[-71.057638,42.352943],[-71.057656,42.352956],[-71.05799,42.352918],[-71.058008,42.352905]]],[[[-71.057803,42.350693],[-71.057756,42.350683],[-71.057747,42.350665],[-71.057407,42.350701],[-71.057388,42.350715],[-71.057435,42.350725],[-71.057445,42.350743],[-71.057785,42.350706],[-71.057803,42.350693]]],[[[-71.05775,42.352226],[-71.057724,42.352207],[-71.057241,42.352262],[-71.057218,42.352288],[-71.057241,42.3523],[-71.057724,42.352245],[-71.05775,42.352226]]],[[[-71.057623,42.35219],[-71.057594,42.352168],[-71.057522,42.352177],[-71.057534,42.352153],[-71.05752,42.352142],[-71.057454,42.352147],[-71.05744,42.352122],[-71.057351,42.35213],[-71.057369,42.35211],[-71.05734,42.352088],[-71.056821,42.352148],[-71.056803,42.352168],[-71.056833,42.352189],[-71.056937,42.352177],[-71.056924,42.352202],[-71.056938,42.352213],[-71.057004,42.352208],[-71.057018,42.352233],[-71.057073,42.352229],[-71.05706,42.352256],[-71.057087,42.352269],[-71.057605,42.35221],[-71.057623,42.35219]]],[[[-71.057414,42.350403],[-71.057396,42.35039],[-71.057063,42.350427],[-71.057044,42.350441],[-71.057063,42.350454],[-71.057396,42.350416],[-71.057414,42.350403]]],[[[-71.057398,42.350494],[-71.05738,42.350481],[-71.057047,42.350518],[-71.056743,42.350557],[-71.056724,42.350571],[-71.056743,42.350584],[-71.057076,42.350546],[-71.05738,42.350507],[-71.057398,42.350494]]],[[[-71.057348,42.351707],[-71.05733,42.351694],[-71.056972,42.351734],[-71.056953,42.351748],[-71.056972,42.351761],[-71.05733,42.35172],[-71.057348,42.351707]]],[[[-71.057338,42.35175],[-71.05732,42.351737],[-71.056987,42.351774],[-71.056968,42.351788],[-71.056987,42.351801],[-71.05732,42.351763],[-71.057338,42.35175]]],[[[-71.057309,42.351897],[-71.057291,42.351884],[-71.056958,42.351921],[-71.056939,42.351935],[-71.056958,42.351948],[-71.057291,42.35191],[-71.057309,42.351897]]],[[[-71.057298,42.351955],[-71.05728,42.351942],[-71.056971,42.351977],[-71.056953,42.35199],[-71.056971,42.352004],[-71.05728,42.351968],[-71.057298,42.351955]]],[[[-71.057298,42.350925],[-71.05728,42.350912],[-71.056897,42.350955],[-71.056879,42.350969],[-71.056897,42.350982],[-71.05728,42.350938],[-71.057298,42.350925]]],[[[-71.057268,42.351063],[-71.05725,42.35105],[-71.056867,42.351093],[-71.056849,42.351107],[-71.056867,42.35112],[-71.05725,42.351076],[-71.057268,42.351063]]],[[[-71.057208,42.35141],[-71.05719,42.351397],[-71.056857,42.351434],[-71.056838,42.351448],[-71.056857,42.351461],[-71.05719,42.351423],[-71.057208,42.35141]]],[[[-71.057198,42.35055],[-71.05718,42.350537],[-71.056847,42.350574],[-71.056828,42.350588],[-71.056847,42.350601],[-71.05718,42.350563],[-71.057198,42.35055]]],[[[-71.057147,42.350632],[-71.057129,42.350619],[-71.056796,42.350656],[-71.056777,42.35067],[-71.056796,42.350683],[-71.057129,42.350645],[-71.057147,42.350632]]],[[[-71.057038,42.34984],[-71.05702,42.349827],[-71.056786,42.349853],[-71.056783,42.349823],[-71.05676,42.349816],[-71.056215,42.349878],[-71.056198,42.34991],[-71.056228,42.349925],[-71.056669,42.349874],[-71.056671,42.349885],[-71.056139,42.349946],[-71.056109,42.34998],[-71.056123,42.350005],[-71.056157,42.350016],[-71.057002,42.349925],[-71.05702,42.349912],[-71.057002,42.349881],[-71.056771,42.349904],[-71.056749,42.349884],[-71.05702,42.349853],[-71.057038,42.34984]]],[[[-71.056868,42.352028],[-71.05685,42.352015],[-71.056442,42.352061],[-71.056424,42.352074],[-71.056442,42.352088],[-71.05685,42.352041],[-71.056868,42.352028]]],[[[-71.056834,42.35023],[-71.056816,42.350217],[-71.056483,42.350254],[-71.056464,42.350268],[-71.056483,42.350281],[-71.056816,42.350243],[-71.056834,42.35023]]],[[[-71.056829,42.34976],[-71.05679,42.349731],[-71.056193,42.3498],[-71.056169,42.349826],[-71.056208,42.349855],[-71.056805,42.349787],[-71.056829,42.34976]]],[[[-71.056798,42.350307],[-71.05678,42.350294],[-71.056447,42.350331],[-71.056428,42.350345],[-71.056447,42.350358],[-71.05678,42.35032],[-71.056798,42.350307]]],[[[-71.056748,42.351994],[-71.05673,42.351981],[-71.056347,42.352024],[-71.056329,42.352038],[-71.056347,42.352051],[-71.05673,42.352007],[-71.056748,42.351994]]],[[[-71.056729,42.350006],[-71.056714,42.349981],[-71.05668,42.34997],[-71.056094,42.350037],[-71.056064,42.350071],[-71.056078,42.350096],[-71.056112,42.350107],[-71.056699,42.350039],[-71.056729,42.350006]]],[[[-71.056659,42.350094],[-71.05663,42.350072],[-71.056111,42.350132],[-71.056093,42.350152],[-71.056123,42.350173],[-71.056641,42.350114],[-71.056659,42.350094]]],[[[-71.056643,42.350613],[-71.056625,42.3506],[-71.056217,42.350646],[-71.056199,42.350659],[-71.056217,42.350673],[-71.056625,42.350626],[-71.056643,42.350613]]],[[[-71.056626,42.353203],[-71.0566,42.353184],[-71.056117,42.353239],[-71.056094,42.353265],[-71.056117,42.353277],[-71.0566,42.353222],[-71.056626,42.353203]]],[[[-71.056622,42.350185],[-71.05659,42.350161],[-71.056058,42.350222],[-71.056028,42.350236],[-71.056028,42.350255],[-71.056058,42.35027],[-71.05659,42.350209],[-71.056622,42.350185]]],[[[-71.056608,42.35068],[-71.05659,42.350667],[-71.056182,42.350713],[-71.056164,42.350726],[-71.056182,42.35074],[-71.05659,42.350693],[-71.056608,42.35068]]],[[[-71.056559,42.353165],[-71.05654,42.353151],[-71.056107,42.3532],[-71.056088,42.353214],[-71.056107,42.353229],[-71.05654,42.353179],[-71.056559,42.353165]]],[[[-71.056559,42.350834],[-71.056544,42.350809],[-71.05651,42.350798],[-71.05583,42.350875],[-71.055812,42.350888],[-71.05583,42.350902],[-71.055895,42.350895],[-71.055908,42.350924],[-71.055942,42.350935],[-71.056529,42.350867],[-71.056559,42.350834]]],[[[-71.056484,42.353127],[-71.056465,42.353113],[-71.056032,42.353162],[-71.056013,42.353176],[-71.056032,42.353191],[-71.056465,42.353141],[-71.056484,42.353127]]],[[[-71.056468,42.35192],[-71.05645,42.351907],[-71.056042,42.351953],[-71.056024,42.351966],[-71.056042,42.35198],[-71.05645,42.351933],[-71.056468,42.35192]]],[[[-71.056428,42.35103],[-71.05641,42.351017],[-71.056184,42.351042],[-71.056175,42.351024],[-71.05576,42.351069],[-71.055742,42.351082],[-71.05576,42.351096],[-71.056061,42.351062],[-71.05607,42.35108],[-71.05641,42.351043],[-71.056428,42.35103]]],[[[-71.056398,42.351097],[-71.05638,42.351084],[-71.055972,42.35113],[-71.055704,42.351191],[-71.055722,42.351205],[-71.05613,42.351158],[-71.056398,42.351097]]],[[[-71.056393,42.35309],[-71.05637,42.353073],[-71.055912,42.353125],[-71.05589,42.353142],[-71.055912,42.353159],[-71.05637,42.353107],[-71.056393,42.35309]]],[[[-71.056388,42.3519],[-71.05637,42.351887],[-71.056061,42.351922],[-71.056043,42.351935],[-71.056061,42.351949],[-71.05637,42.351913],[-71.056388,42.3519]]],[[[-71.056364,42.351176],[-71.056346,42.351163],[-71.056013,42.3512],[-71.055994,42.351214],[-71.056013,42.351227],[-71.056346,42.351189],[-71.056364,42.351176]]],[[[-71.056338,42.35493],[-71.05632,42.354917],[-71.055912,42.354963],[-71.055894,42.354976],[-71.055912,42.35499],[-71.05632,42.354943],[-71.056338,42.35493]]],[[[-71.056328,42.354836],[-71.05631,42.354823],[-71.055902,42.354869],[-71.055884,42.354882],[-71.055902,42.354896],[-71.05631,42.354849],[-71.056328,42.354836]]],[[[-71.056309,42.35475],[-71.05629,42.354736],[-71.055857,42.354785],[-71.055838,42.354799],[-71.055857,42.354814],[-71.05629,42.354764],[-71.056309,42.35475]]],[[[-71.056306,42.35467],[-71.05628,42.354651],[-71.055797,42.354706],[-71.055774,42.354732],[-71.055797,42.354744],[-71.05628,42.354689],[-71.056306,42.35467]]],[[[-71.056258,42.351376],[-71.05624,42.351363],[-71.055527,42.351445],[-71.055509,42.351458],[-71.055527,42.351472],[-71.05624,42.351389],[-71.056258,42.351376]]],[[[-71.056248,42.35305],[-71.05623,42.353037],[-71.055896,42.353074],[-71.055878,42.353088],[-71.055896,42.353101],[-71.05623,42.353063],[-71.056248,42.35305]]],[[[-71.056239,42.351411],[-71.056221,42.351398],[-71.055863,42.351438],[-71.055844,42.351452],[-71.055863,42.351465],[-71.056221,42.351424],[-71.056239,42.351411]]],[[[-71.056226,42.350933],[-71.056208,42.35092],[-71.0558,42.350966],[-71.055782,42.350979],[-71.0558,42.350993],[-71.056208,42.350946],[-71.056226,42.350933]]],[[[-71.056208,42.35145],[-71.05619,42.351437],[-71.055494,42.351515],[-71.055476,42.351528],[-71.055494,42.351542],[-71.05619,42.351463],[-71.056208,42.35145]]],[[[-71.056078,42.35171],[-71.05606,42.351697],[-71.055808,42.351725],[-71.055797,42.351715],[-71.055382,42.35176],[-71.055364,42.351773],[-71.055382,42.351787],[-71.055684,42.351753],[-71.055695,42.351763],[-71.05606,42.351723],[-71.056078,42.35171]]],[[[-71.055977,42.351355],[-71.055959,42.351342],[-71.055551,42.351388],[-71.055533,42.351401],[-71.055551,42.351415],[-71.055959,42.351368],[-71.055977,42.351355]]],[[[-71.055888,42.351561],[-71.05587,42.351548],[-71.055462,42.351594],[-71.055444,42.351607],[-71.055462,42.351621],[-71.05587,42.351574],[-71.055888,42.351561]]],[[[-71.055869,42.352226],[-71.055854,42.352201],[-71.05582,42.35219],[-71.055234,42.352257],[-71.05517,42.352341],[-71.055184,42.352366],[-71.055218,42.352377],[-71.055805,42.352309],[-71.055869,42.352226]]],[[[-71.055859,42.351622],[-71.055841,42.351609],[-71.055433,42.351655],[-71.055415,42.351668],[-71.055433,42.351682],[-71.055841,42.351635],[-71.055859,42.351622]]],[[[-71.055788,42.353336],[-71.055756,42.353312],[-71.055224,42.353373],[-71.055194,42.353387],[-71.055194,42.353406],[-71.055224,42.353421],[-71.055756,42.35336],[-71.055788,42.353336]]],[[[-71.055788,42.351776],[-71.05577,42.351763],[-71.055362,42.351809],[-71.055344,42.351822],[-71.055362,42.351836],[-71.05577,42.351789],[-71.055788,42.351776]]],[[[-71.055724,42.353394],[-71.055695,42.353372],[-71.055176,42.353432],[-71.055158,42.353452],[-71.055186,42.353493],[-71.055626,42.353444],[-71.055724,42.353394]]],[[[-71.055558,42.353497],[-71.05554,42.353484],[-71.055132,42.35353],[-71.055114,42.353543],[-71.055129,42.353557],[-71.055105,42.353576],[-71.05548,42.353543],[-71.055498,42.35353],[-71.055483,42.353517],[-71.055558,42.353497]]],[[[-71.055262,42.353653],[-71.055244,42.35364],[-71.05491,42.353677],[-71.054691,42.35371],[-71.054673,42.35373],[-71.054712,42.353769],[-71.05517,42.353717],[-71.055231,42.353687],[-71.055262,42.353653]]]]},"properties":{"kind":"tree"}}]}