{"type":"FeatureCollection","features":[{"type":"Feature","geometry":{"type":"MultiPolygon","coordinates":[[[[-71.06703,42.351826],[-71.067007,42.351692],[-71.066747,42.351106],[-71.06465,42.351204],[-71.06376,42.35112],[-71.065776,42.351025],[-71.065991,42.350995],[-71.065959,42.350666],[-71.065618,42.35066],[-71.065953,42.350615],[-71.06593,42.350327],[-71.065557,42.350344],[-71.06531,42.3503],[-71.064983,42.350315],[-71.064996,42.350267],[-71.065916,42.350219],[-71.065881,42.34989],[-71.065776,42.349769],[-71.065666,42.349774],[-71.065678,42.349716],[-71.065904,42.349705],[-71.066095,42.349646],[-71.066015,42.349504],[-71.066107,42.349483],[-71.066051,42.349385],[-71.064533,42.349456],[-71.064471,42.349476],[-71.064483,42.349498],[-71.064045,42.349518],[-71.063761,42.349475],[-71.063653,42.349372],[-71.063696,42.349342],[-71.064653,42.349291],[-71.064805,42.349213],[-71.06492,42.349208],[-71.065182,42.349085],[-71.065279,42.349075],[-71.06533,42.348887],[-71.065323,42.348802],[-71.065285,42.348704],[-71.066458,42.348649],[-71.066483,42.348529],[-71.06591,42.348462],[-71.065995,42.348064],[-71.065837,42.348044],[-71.065441,42.348063],[-71.065402,42.348018],[-71.06552,42.347941],[-71.065529,42.347903],[-71.065483,42.347819],[-71.065392,42.347805],[-71.065371,42.347781],[-71.065289,42.347784],[-71.065318,42.347764],[-71.065319,42.347677],[-71.065257,42.347643],[-71.064894,42.347587],[-71.062567,42.347696],[-71.06219,42.347885],[-71.061926,42.347827],[-71.061787,42.347833],[-71.061866,42.34764],[-71.061712,42.347604],[-71.05652,42.347847],[-71.056683,42.347603],[-71.056673,42.347544],[-71.055908,42.347262],[-71.052973,42.347399],[-71.051986,42.348869],[-71.051541,42.348889],[-71.051514,42.348957],[-71.05103,42.34898],[-71.050593,42.349428],[-71.05056,42.349478],[-71.050552,42.349593],[-71.049467,42.349643],[-71.048497,42.351086],[-71.049078,42.351301],[-71.052605,42.351136],[-71.052465,42.351433],[-71.052635,42.351502],[-71.050222,42.351615],[-71.050064,42.351929],[-71.049753,42.352],[-71.049581,42.352175],[-71.049961,42.352377],[-71.049868,42.352411],[-71.049774,42.35261],[-71.049956,42.352656],[-71.050075,42.352891],[-71.050204,42.352925],[-71.052063,42.352838],[-71.051983,42.3529],[-71.051966,42.353],[-71.051488,42.353032],[-71.051238,42.353172],[-71.051083,42.353232],[-71.051042,42.353272],[-71.051029,42.353341],[-71.050165,42.353381],[-71.049926,42.353509],[-71.049954,42.353614],[-71.050271,42.353746],[-71.049516,42.353781],[-71.049348,42.353873],[-71.049303,42.353922],[-71.049487,42.354111],[-71.049923,42.354091],[-71.049825,42.354134],[-71.04872,42.354186],[-71.048318,42.354395],[-71.048286,42.354433],[-71.048285,42.354473],[-71.048559,42.354761],[-71.048929,42.354755],[-71.048878,42.354766],[-71.048702,42.354927],[-71.048907,42.355123],[-71.049495,42.355096],[-71.049615,42.355763],[-71.04973,42.355768],[-71.05311,42.35561],[-71.053156,42.355624],[-71.055456,42.355517],[-71.055514,42.355542],[-71.058296,42.355412],[-71.058401,42.355486],[-71.060491,42.355389],[-71.060547,42.355342],[-71.063118,42.355222],[-71.063177,42.355145],[-71.063016,42.355062],[-71.063255,42.355044],[-71.063332,42.354903],[-71.063912,42.354877],[-71.063935,42.354829],[-71.063869,42.354811],[-71.063369,42.354834],[-71.063852,42.353943],[-71.063862,42.353896],[-71.063689,42.353843],[-71.063892,42.353833],[-71.063985,42.353676],[-71.063998,42.353634],[-71.063778,42.353567],[-71.064052,42.353554],[-71.064097,42.353425],[-71.064003,42.353407],[-71.064576,42.35338],[-71.06461,42.353278],[-71.064542,42.353266],[-71.064151,42.353284],[-71.064309,42.35284],[-71.064031,42.352825],[-71.064309,42.352812],[-71.064343,42.352663],[-71.064692,42.352647],[-71.064727,42.352541],[-71.064662,42.352531],[-71.064362,42.352545],[-71.06437,42.352471],[-71.066063,42.352392],[-71.066079,42.352178],[-71.06627,42.352169],[-71.066294,42.351897],[-71.066847,42.351871],[-71.06703,42.351826]],[[-71.063934,42.353306],[-71.063906,42.353388],[-71.063837,42.353375],[-71.063691,42.353382],[-71.063651,42.353352],[-71.063276,42.353337],[-71.063934,42.353306]],[[-71.057479,42.348951],[-71.057433,42.349112],[-71.057455,42.349197],[-71.056768,42.349229],[-71.056775,42.349199],[-71.056596,42.349149],[-71.055617,42.349195],[-71.055726,42.349033],[-71.057479,42.348951]]],[[[-71.065565,42.354342],[-71.065545,42.354311],[-71.065508,42.354299],[-71.064021,42.354368],[-71.063978,42.354383],[-71.063963,42.354411],[-71.063988,42.35445],[-71.064034,42.354459],[-71.065514,42.35439],[-71.06555,42.354375],[-71.065565,42.354342]]],[[[-71.065421,42.352871],[-71.065303,42.352844],[-71.064483,42.352882],[-71.064466,42.352929],[-71.064492,42.35301],[-71.064558,42.353024],[-71.065378,42.352986],[-71.065421,42.352871]]]]},"properties":{"kind":"building"}},{"type":"Feature","geometry":{"type":"MultiPolygon","coordinates":[[[[-71.066058,42.353451],[-71.066047,42.35341],[-71.066015,42.353375],[-71.065912,42.353343],[-71.065378,42.353368],[-71.06541,42.353308],[-71.065824,42.353289],[-71.065891,42.353268],[-71.065918,42.353219],[-71.065911,42.353192],[-71.06586,42.353155],[-71.065884,42.353128],[-71.065981,42.353102],[-71.066007,42.353073],[-71.066016,42.353039],[-71.065995,42.352992],[-71.066039,42.352955],[-71.066048,42.352923],[-71.066021,42.352832],[-71.065989,42.352797],[-71.065886,42.352765],[-71.065771,42.35277],[-71.06575,42.352742],[-71.065693,42.352724],[-71.065175,42.352748],[-71.065574,42.352727],[-71.065638,42.352708],[-71.065663,42.352665],[-71.065976,42.352648],[-71.066022,42.352597],[-71.065976,42.352546],[-71.065744,42.352537],[-71.065688,42.352518],[-71.065429,42.35253],[-71.065361,42.35251],[-71.065068,42.352524],[-71.065012,42.352509],[-71.062583,42.352627],[-71.06253,42.352666],[-71.062523,42.352693],[-71.062551,42.352744],[-71.062583,42.35276],[-71.062779,42.352758],[-71.062854,42.352781],[-71.063207,42.352765],[-71.063213,42.352792],[-71.063263,42.352829],[-71.063417,42.352828],[-71.063393,42.352848],[-71.063392,42.352879],[-71.062861,42.352912],[-71.062782,42.352971],[-71.062771,42.353012],[-71.061903,42.353064],[-71.061864,42.353083],[-71.061831,42.353138],[-71.061768,42.353146],[-71.061689,42.353205],[-71.061678,42.353246],[-71.061689,42.353287],[-71.061747,42.353336],[-71.061676,42.353339],[-71.061653,42.353356],[-71.061676,42.353373],[-71.062231,42.353347],[-71.061994,42.353371],[-71.061934,42.353415],[-71.061934,42.353477],[-71.061994,42.353521],[-71.062195,42.35352],[-71.062234,42.353539],[-71.0622,42.353572],[-71.062143,42.353582],[-71.062088,42.353622],[-71.062088,42.353679],[-71.06211,42.353703],[-71.062181,42.353725],[-71.062369,42.353716],[-71.062423,42.353747],[-71.062542,42.353752],[-71.062504,42.353795],[-71.062523,42.353829],[-71.062642,42.35384],[-71.062638,42.353854],[-71.062362,42.353875],[-71.062319,42.353906],[-71.062143,42.353925],[-71.062097,42.353958],[-71.062097,42.354006],[-71.062136,42.354037],[-71.062158,42.354086],[-71.062216,42.354104],[-71.062318,42.354099],[-71.062332,42.354115],[-71.062161,42.354126],[-71.062122,42.354152],[-71.06192,42.354166],[-71.061862,42.354209],[-71.061854,42.354239],[-71.061878,42.354288],[-71.061239,42.354323],[-71.06116,42.354382],[-71.061148,42.354423],[-71.06116,42.354464],[-71.061191,42.354499],[-71.061295,42.354531],[-71.061853,42.354505],[-71.061857,42.354517],[-71.061013,42.354562],[-71.060934,42.354621],[-71.060922,42.354662],[-71.060934,42.354703],[-71.060965,42.354738],[-71.061056,42.354768],[-71.060445,42.354797],[-71.060426,42.35481],[-71.060445,42.354824],[-71.06122,42.354787],[-71.061233,42.354764],[-71.062684,42.354694],[-71.061717,42.354746],[-71.061657,42.354764],[-71.061639,42.354784],[-71.061639,42.354832],[-71.061657,42.354852],[-71.061705,42.354869],[-71.061726,42.354917],[-71.061781,42.354933],[-71.062322,42.354908],[-71.062373,42.354924],[-71.062618,42.354913],[-71.062583,42.354977],[-71.062592,42.355012],[-71.062299,42.355027],[-71.062226,42.355049],[-71.062196,42.355103],[-71.062204,42.355133],[-71.06226,42.355174],[-71.062299,42.35518],[-71.066004,42.355019],[-71.066046,42.354972],[-71.066026,42.354936],[-71.065978,42.354922],[-71.064907,42.354972],[-71.06556,42.354934],[-71.065647,42.354907],[-71.065683,42.354843],[-71.065647,42.354779],[-71.06556,42.354752],[-71.065485,42.354755],[-71.065444,42.354711],[-71.065347,42.354711],[-71.065345,42.354674],[-71.065327,42.354655],[-71.065232,42.354615],[-71.065092,42.354616],[-71.065102,42.354594],[-71.065785,42.354557],[-71.065827,42.354536],[-71.065865,42.354468],[-71.065855,42.354431],[-71.065785,42.354379],[-71.064796,42.354416],[-71.06474,42.354376],[-71.064622,42.354357],[-71.064923,42.354329],[-71.064951,42.354309],[-71.06494,42.354267],[-71.064696,42.354253],[-71.064405,42.354266],[-71.064401,42.354252],[-71.065963,42.354158],[-71.06597,42.354146],[-71.065947,42.354129],[-71.065097,42.354169],[-71.065088,42.354155],[-71.065889,42.354117],[-71.066017,42.354072],[-71.066017,42.35405],[-71.065981,42.354032],[-71.065248,42.354067],[-71.065244,42.354047],[-71.065698,42.354015],[-71.065709,42.353976],[-71.06576,42.353953],[-71.06576,42.353925],[-71.065734,42.353906],[-71.065269,42.353924],[-71.065585,42.353893],[-71.0656,42.353866],[-71.065568,42.353831],[-71.065388,42.353829],[-71.065411,42.353808],[-71.065589,42.353796],[-71.065621,42.353773],[-71.065608,42.353725],[-71.065567,42.353713],[-71.064388,42.353768],[-71.065512,42.353707],[-71.06555,42.353665],[-71.065532,42.353633],[-71.065488,42.353619],[-71.06447,42.353667],[-71.065448,42.353616],[-71.065504,42.353608],[-71.065559,42.353575],[-71.065912,42.353559],[-71.066015,42.353527],[-71.066047,42.353492],[-71.066058,42.353451]]],[[[-71.06583,42.348038],[-71.065811,42.348004],[-71.065765,42.34799],[-71.06395,42.348075],[-71.063905,42.348089],[-71.063886,42.348123],[-71.063905,42.348157],[-71.06395,42.348171],[-71.06475,42.348133],[-71.064738,42.348141],[-71.064748,42.348159],[-71.06553,42.348123],[-71.065548,42.34811],[-71.065532,42.348097],[-71.06579,42.348082],[-71.06583,42.348038]]],[[[-71.06579,42.34818],[-71.065774,42.348151],[-71.065735,42.348139],[-71.064094,42.348216],[-71.064055,42.348228],[-71.064039,42.348257],[-71.064055,42.348286],[-71.064094,42.348298],[-71.065735,42.348221],[-71.065774,42.348209],[-71.06579,42.34818]]],[[[-71.065738,42.348446],[-71.065721,42.348415],[-71.06568,42.348403],[-71.063981,42.348482],[-71.06394,42.348495],[-71.063923,42.348526],[-71.06394,42.348556],[-71.063981,42.348569],[-71.06568,42.348489],[-71.065721,42.348477],[-71.065738,42.348446]]],[[[-71.065728,42.348293],[-71.06571,42.34828],[-71.065537,42.348288],[-71.06549,42.34827],[-71.063733,42.348353],[-71.06369,42.348366],[-71.063672,42.348398],[-71.062925,42.348433],[-71.062906,42.348446],[-71.062925,42.34846],[-71.063,42.348456],[-71.063008,42.348476],[-71.06549,42.348362],[-71.065534,42.348348],[-71.065552,42.348316],[-71.06571,42.348306],[-71.065728,42.348293]]],[[[-71.065598,42.348957],[-71.06558,42.348944],[-71.065391,42.348952],[-71.065393,42.34893],[-71.06536,42.348914],[-71.064065,42.348974],[-71.064029,42.349001],[-71.064065,42.349027],[-71.064844,42.348991],[-71.064862,42.349004],[-71.06558,42.34897],[-71.065598,42.348957]]],[[[-71.065588,42.351223],[-71.06557,42.35121],[-71.065363,42.351219],[-71.06535,42.351197],[-71.06525,42.351197],[-71.064475,42.351233],[-71.064456,42.351246],[-71.064517,42.351263],[-71.064666,42.351256],[-71.064679,42.351278],[-71.06557,42.351236],[-71.065588,42.351223]]],[[[-71.065562,42.349094],[-71.065544,42.349081],[-71.065371,42.349089],[-71.065375,42.349056],[-71.06533,42.349034],[-71.063804,42.349106],[-71.063759,42.349128],[-71.063028,42.349171],[-71.063009,42.349184],[-71.063028,42.349198],[-71.063766,42.349163],[-71.063804,42.349177],[-71.065544,42.349107],[-71.065562,42.349094]]],[[[-71.065559,42.349236],[-71.065544,42.349211],[-71.06551,42.3492],[-71.06419,42.349262],[-71.064156,42.349272],[-71.064142,42.349298],[-71.064156,42.349323],[-71.06419,42.349334],[-71.06551,42.349272],[-71.065544,42.349261],[-71.065559,42.349236]]],[[[-71.065433,42.34879],[-71.065418,42.348765],[-71.065384,42.348754],[-71.064064,42.348816],[-71.063201,42.348871],[-71.063183,42.348884],[-71.062854,42.348903],[-71.062834,42.348917],[-71.062854,42.348932],[-71.06386,42.348884],[-71.063879,42.34887],[-71.064018,42.34886],[-71.064064,42.348888],[-71.065384,42.348826],[-71.065418,42.348815],[-71.065433,42.34879]]],[[[-71.065176,42.35072],[-71.06515,42.350701],[-71.064028,42.350753],[-71.064004,42.35078],[-71.064028,42.350792],[-71.06515,42.350739],[-71.065176,42.35072]]],[[[-71.065151,42.350784],[-71.065125,42.350765],[-71.064003,42.350817],[-71.063979,42.350844],[-71.064003,42.350856],[-71.065125,42.350803],[-71.065151,42.350784]]],[[[-71.065129,42.350853],[-71.06511,42.350839],[-71.064104,42.350886],[-71.064084,42.3509],[-71.06397,42.350894],[-71.063934,42.350874],[-71.063707,42.350885],[-71.063687,42.350861],[-71.063545,42.350861],[-71.06352,42.350845],[-71.062398,42.350897],[-71.062374,42.350924],[-71.062425,42.350963],[-71.062544,42.35096],[-71.062566,42.350993],[-71.062787,42.350986],[-71.062813,42.350996],[-71.06422,42.350938],[-71.064233,42.350915],[-71.064148,42.350915],[-71.06511,42.350867],[-71.065129,42.350853]]],[[[-71.064944,42.35131],[-71.064926,42.351297],[-71.064093,42.351336],[-71.064075,42.351349],[-71.064093,42.351363],[-71.064926,42.351323],[-71.064944,42.35131]]],[[[-71.064624,42.351826],[-71.064606,42.351813],[-71.063831,42.351849],[-71.063812,42.351862],[-71.063831,42.351876],[-71.064606,42.351839],[-71.064624,42.351826]]],[[[-71.064621,42.348425],[-71.064603,42.348412],[-71.063828,42.348448],[-71.063809,42.348461],[-71.063828,42.348475],[-71.064603,42.348438],[-71.064621,42.348425]]],[[[-71.064568,42.352055],[-71.06455,42.352042],[-71.063717,42.352081],[-71.063699,42.352094],[-71.063717,42.352108],[-71.06455,42.352068],[-71.064568,42.352055]]],[[[-71.064564,42.352104],[-71.064545,42.35209],[-71.063539,42.352137],[-71.063519,42.352151],[-71.063539,42.352166],[-71.064545,42.352118],[-71.064564,42.352104]]],[[[-71.064548,42.35216],[-71.06453,42.352147],[-71.063755,42.352183],[-71.063736,42.352196],[-71.063755,42.35221],[-71.06453,42.352173],[-71.064548,42.35216]]],[[[-71.064209,42.34872],[-71.064186,42.348703],[-71.063122,42.348753],[-71.062806,42.348776],[-71.062783,42.348793],[-71.062806,42.34881],[-71.06387,42.34876],[-71.064186,42.348737],[-71.064209,42.34872]]],[[[-71.063915,42.348675],[-71.063896,42.348661],[-71.06289,42.348708],[-71.06287,42.348722],[-71.06289,42.348737],[-71.063896,42.348689],[-71.063915,42.348675]]],[[[-71.063873,42.348793],[-71.063855,42.34878],[-71.06308,42.348816],[-71.063061,42.348829],[-71.06308,42.348843],[-71.063855,42.348806],[-71.063873,42.348793]]],[[[-71.063768,42.349293],[-71.06375,42.34928],[-71.062975,42.349316],[-71.062956,42.349329],[-71.062975,42.349343],[-71.06375,42.349306],[-71.063768,42.349293]]],[[[-71.063755,42.349335],[-71.063737,42.349322],[-71.062962,42.349358],[-71.062943,42.349371],[-71.062962,42.349385],[-71.063737,42.349348],[-71.063755,42.349335]]],[[[-71.063689,42.34976],[-71.06367,42.349746],[-71.062664,42.349793],[-71.062644,42.349807],[-71.062664,42.349822],[-71.06367,42.349774],[-71.063689,42.34976]]],[[[-71.063632,42.349854],[-71.063614,42.349841],[-71.062665,42.349885],[-71.062647,42.349898],[-71.062665,42.349912],[-71.063614,42.349867],[-71.063632,42.349854]]],[[[-71.063579,42.34995],[-71.06356,42.349936],[-71.062554,42.349983],[-71.062534,42.349997],[-71.062554,42.350012],[-71.06356,42.349964],[-71.063579,42.34995]]],[[[-71.063548,42.35],[-71.06353,42.349987],[-71.062581,42.350031],[-71.062563,42.350044],[-71.062581,42.350058],[-71.06353,42.350013],[-71.063548,42.35]]],[[[-71.063458,42.350418],[-71.06344,42.350405],[-71.062491,42.350449],[-71.062459,42.350479],[-71.062477,42.350493],[-71.06331,42.350453],[-71.063458,42.350418]]],[[[-71.063458,42.35018],[-71.06344,42.350167],[-71.062549,42.350208],[-71.062531,42.350222],[-71.062549,42.350235],[-71.06344,42.350193],[-71.063458,42.35018]]],[[[-71.063434,42.350487],[-71.063416,42.350474],[-71.063287,42.350471],[-71.062389,42.350511],[-71.062371,42.350525],[-71.062389,42.350538],[-71.062518,42.350541],[-71.063416,42.3505],[-71.063434,42.350487]]],[[[-71.063428,42.350246],[-71.06341,42.350233],[-71.062519,42.350274],[-71.062501,42.350288],[-71.062519,42.350301],[-71.06341,42.350259],[-71.063428,42.350246]]],[[[-71.063403,42.35055],[-71.063385,42.350537],[-71.063271,42.350542],[-71.063262,42.350524],[-71.062364,42.350564],[-71.062346,42.350578],[-71.062364,42.350591],[-71.062536,42.350583],[-71.062543,42.350601],[-71.062281,42.350613],[-71.062263,42.350626],[-71.062281,42.35064],[-71.06323,42.350595],[-71.063243,42.350572],[-71.063385,42.350563],[-71.063403,42.35055]]],[[[-71.063403,42.35028],[-71.063385,42.350267],[-71.062494,42.350308],[-71.062476,42.350322],[-71.062494,42.350335],[-71.063385,42.350293],[-71.063403,42.35028]]],[[[-71.063386,42.350826],[-71.06336,42.350807],[-71.062238,42.350859],[-71.062214,42.350886],[-71.062238,42.350898],[-71.06336,42.350845],[-71.063386,42.350826]]],[[[-71.063383,42.350765],[-71.063354,42.350743],[-71.06313,42.350751],[-71.062124,42.350798],[-71.062104,42.350812],[-71.062175,42.350842],[-71.063354,42.350787],[-71.063383,42.350765]]],[[[-71.063369,42.350704],[-71.06335,42.35069],[-71.062344,42.350737],[-71.062251,42.350769],[-71.062269,42.350782],[-71.06316,42.35074],[-71.063178,42.350727],[-71.06335,42.350718],[-71.063369,42.350704]]],[[[-71.063368,42.35061],[-71.06335,42.350597],[-71.062517,42.350636],[-71.062499,42.350649],[-71.062261,42.350661],[-71.062243,42.350674],[-71.062261,42.350688],[-71.06321,42.350643],[-71.063368,42.35061]]],[[[-71.063198,42.350677],[-71.06318,42.350664],[-71.062462,42.350697],[-71.062444,42.350711],[-71.062462,42.350724],[-71.06318,42.35069],[-71.063198,42.350677]]],[[[-71.063144,42.352238],[-71.063126,42.352225],[-71.062293,42.352264],[-71.062132,42.352279],[-71.062114,42.352292],[-71.062132,42.352306],[-71.063065,42.352263],[-71.063144,42.352238]]],[[[-71.062922,42.35222],[-71.062837,42.352203],[-71.061997,42.352241],[-71.061979,42.352254],[-71.062006,42.352274],[-71.062904,42.352233],[-71.062922,42.35222]]],[[[-71.062559,42.348354],[-71.06253,42.348332],[-71.061017,42.348408],[-71.06099,42.348416],[-71.06096,42.348462],[-71.06237,42.348402],[-71.062406,42.348384],[-71.062541,42.348374],[-71.062559,42.348354]]],[[[-71.062496,42.349373],[-71.06247,42.349344],[-71.062379,42.349345],[-71.062389,42.349311],[-71.06235,42.349292],[-71.062006,42.349308],[-71.061988,42.349293],[-71.061213,42.349329],[-71.061194,42.349342],[-71.060923,42.34936],[-71.060901,42.349377],[-71.060901,42.349401],[-71.060923,42.349418],[-71.061014,42.349417],[-71.061005,42.349427],[-71.060157,42.349493],[-71.06053,42.349466],[-71.060548,42.349453],[-71.06053,42.34944],[-71.060169,42.349456],[-71.060684,42.349426],[-71.060718,42.349415],[-71.060733,42.34939],[-71.060718,42.349365],[-71.060684,42.349354],[-71.059364,42.349416],[-71.059319,42.349438],[-71.05933,42.349477],[-71.058782,42.349505],[-71.058743,42.349533],[-71.058782,42.349562],[-71.059095,42.349548],[-71.059071,42.349577],[-71.058899,42.349591],[-71.058881,42.349611],[-71.058911,42.349633],[-71.059693,42.349596],[-71.060034,42.349591],[-71.060036,42.349608],[-71.058755,42.349678],[-71.058719,42.349705],[-71.058755,42.349731],[-71.058996,42.34972],[-71.058989,42.349755],[-71.059034,42.349777],[-71.060352,42.349716],[-71.060352,42.349742],[-71.060378,42.349761],[-71.058927,42.349831],[-71.058898,42.349852],[-71.058898,42.349881],[-71.058946,42.349905],[-71.059758,42.349867],[-71.059727,42.349896],[-71.059524,42.349913],[-71.059537,42.349937],[-71.06118,42.349861],[-71.06121,42.349852],[-71.061222,42.34983],[-71.06121,42.349808],[-71.06118,42.349799],[-71.060542,42.349829],[-71.060582,42.349792],[-71.06055,42.349757],[-71.061717,42.349702],[-71.061751,42.349691],[-71.061766,42.349666],[-71.061751,42.349641],[-71.061717,42.34963],[-71.060605,42.349682],[-71.061264,42.349643],[-71.061282,42.34963],[-71.061264,42.349617],[-71.060597,42.349648],[-71.061892,42.349584],[-71.061926,42.349573],[-71.061937,42.349534],[-71.061892,42.349512],[-71.061449,42.349533],[-71.061435,42.349509],[-71.061401,42.349498],[-71.06068,42.349532],[-71.060695,42.349506],[-71.06067,42.349475],[-71.061012,42.349459],[-71.061144,42.349466],[-71.061151,42.349487],[-71.061933,42.349451],[-71.061946,42.349428],[-71.062454,42.349404],[-71.062484,42.349395],[-71.062496,42.349373]],[[-71.060134,42.349642],[-71.060086,42.349645],[-71.060083,42.349634],[-71.060131,42.34963],[-71.060134,42.349642]]],[[[-71.062463,42.348557],[-71.06244,42.34854],[-71.061376,42.34859],[-71.061353,42.348607],[-71.061376,42.348624],[-71.06244,42.348574],[-71.062463,42.348557]]],[[[-71.062039,42.353752],[-71.06202,42.353738],[-71.061731,42.353751],[-71.061747,42.353738],[-71.061729,42.353725],[-71.060954,42.353761],[-71.060935,42.353774],[-71.060954,42.353788],[-71.061011,42.353785],[-71.060994,42.353799],[-71.061028,42.353832],[-71.06181,42.353796],[-71.061828,42.353783],[-71.06202,42.353766],[-71.062039,42.353752]]],[[[-71.061988,42.35386],[-71.06197,42.353847],[-71.061195,42.353883],[-71.061176,42.353896],[-71.061195,42.35391],[-71.06197,42.353873],[-71.061988,42.35386]]],[[[-71.061928,42.34988],[-71.06191,42.349867],[-71.061135,42.349903],[-71.061116,42.349916],[-71.061135,42.34993],[-71.06191,42.349893],[-71.061928,42.34988]]],[[[-71.061924,42.3537],[-71.061905,42.353686],[-71.060899,42.353733],[-71.060879,42.353747],[-71.060899,42.353762],[-71.061905,42.353714],[-71.061924,42.3537]]],[[[-71.061909,42.353825],[-71.06189,42.353811],[-71.060884,42.353858],[-71.060864,42.353872],[-71.060884,42.353887],[-71.06189,42.353839],[-71.061909,42.353825]]],[[[-71.061898,42.349926],[-71.06188,42.349913],[-71.061105,42.349949],[-71.061086,42.349962],[-71.061105,42.349976],[-71.06188,42.349939],[-71.061898,42.349926]]],[[[-71.061892,42.35],[-71.061874,42.349987],[-71.061153,42.35002],[-71.061104,42.349992],[-71.059525,42.35006],[-71.059472,42.35009],[-71.059491,42.35015],[-71.058945,42.350176],[-71.058911,42.350186],[-71.058897,42.350212],[-71.058911,42.350237],[-71.058945,42.350248],[-71.060265,42.350186],[-71.06031,42.350164],[-71.06031,42.350136],[-71.060285,42.350118],[-71.060297,42.35011],[-71.061063,42.35007],[-71.061056,42.35008],[-71.061075,42.350094],[-71.06185,42.350057],[-71.061868,42.350044],[-71.06185,42.350031],[-71.061126,42.350064],[-71.06115,42.350047],[-71.061874,42.350013],[-71.061892,42.35]]],[[[-71.061851,42.348312],[-71.061838,42.348288],[-71.061806,42.348278],[-71.061642,42.348286],[-71.06159,42.348256],[-71.061445,42.348263],[-71.061443,42.348231],[-71.06142,42.348224],[-71.060183,42.348282],[-71.060153,42.348297],[-71.06016,42.348323],[-71.059928,42.348336],[-71.059894,42.348374],[-71.05991,42.348403],[-71.059949,42.348415],[-71.0603,42.348398],[-71.060338,42.348414],[-71.061806,42.348346],[-71.061838,42.348336],[-71.061851,42.348312]]],[[[-71.061838,42.35008],[-71.06182,42.350067],[-71.061045,42.350103],[-71.061026,42.350116],[-71.061045,42.35013],[-71.06182,42.350093],[-71.061838,42.35008]]],[[[-71.061825,42.353653],[-71.061806,42.353639],[-71.0608,42.353686],[-71.06078,42.3537],[-71.0608,42.353715],[-71.061806,42.353667],[-71.061825,42.353653]]],[[[-71.061824,42.350155],[-71.061806,42.350142],[-71.061088,42.350175],[-71.06107,42.350189],[-71.061088,42.350202],[-71.061806,42.350168],[-71.061824,42.350155]]],[[[-71.061798,42.3502],[-71.06178,42.350187],[-71.061005,42.350223],[-71.060986,42.350236],[-71.061005,42.35025],[-71.06178,42.350213],[-71.061798,42.3502]]],[[[-71.061789,42.350292],[-71.06175,42.350263],[-71.060397,42.350327],[-71.060361,42.350344],[-71.06037,42.350376],[-71.060234,42.350384],[-71.060206,42.350415],[-71.06022,42.350439],[-71.060252,42.350448],[-71.06172,42.35038],[-71.061762,42.350359],[-71.061752,42.350322],[-71.061789,42.350292]]],[[[-71.061759,42.353607],[-71.061744,42.353582],[-71.06171,42.353571],[-71.06039,42.353633],[-71.060356,42.353643],[-71.060342,42.353669],[-71.060356,42.353694],[-71.06039,42.353705],[-71.06171,42.353643],[-71.061744,42.353632],[-71.061759,42.353607]]],[[[-71.061692,42.348648],[-71.06168,42.348626],[-71.06165,42.348617],[-71.06024,42.348683],[-71.06002,42.348715],[-71.059309,42.348753],[-71.05927,42.348765],[-71.059254,42.348794],[-71.05927,42.348823],[-71.059309,42.348835],[-71.06095,42.348758],[-71.061001,42.348733],[-71.061537,42.348701],[-71.061561,42.348683],[-71.061666,42.348677],[-71.061692,42.348648]]],[[[-71.061628,42.35355],[-71.06161,42.353537],[-71.060719,42.353578],[-71.060701,42.353592],[-71.060719,42.353605],[-71.06161,42.353563],[-71.061628,42.35355]]],[[[-71.06161,42.348837],[-71.061592,42.348824],[-71.06146,42.348823],[-71.060931,42.348848],[-71.060939,42.348815],[-71.0609,42.348796],[-71.05949,42.348862],[-71.05946,42.348871],[-71.059447,42.348893],[-71.05946,42.348915],[-71.05949,42.348924],[-71.060018,42.3489],[-71.060011,42.348932],[-71.06005,42.348951],[-71.06146,42.348885],[-71.06149,42.348876],[-71.061502,42.348855],[-71.061592,42.34885],[-71.06161,42.348837]]],[[[-71.061608,42.3485],[-71.06159,42.348487],[-71.060815,42.348523],[-71.060796,42.348536],[-71.060815,42.34855],[-71.06159,42.348513],[-71.061608,42.3485]]],[[[-71.061597,42.348184],[-71.061579,42.348171],[-71.061459,42.348176],[-71.061467,42.348133],[-71.06141,42.348104],[-71.059653,42.348187],[-71.05961,42.3482],[-71.059592,42.348232],[-71.05961,42.348265],[-71.059653,42.348278],[-71.061579,42.348197],[-71.061597,42.348184]]],[[[-71.061493,42.35095],[-71.06147,42.350933],[-71.060406,42.350983],[-71.060383,42.351],[-71.060406,42.351017],[-71.06147,42.350967],[-71.061493,42.35095]]],[[[-71.061438,42.349255],[-71.06142,42.349242],[-71.061336,42.349245],[-71.061347,42.34922],[-71.06132,42.349206],[-71.060141,42.349262],[-71.059835,42.349283],[-71.059816,42.349296],[-71.059835,42.34931],[-71.060516,42.349287],[-71.059815,42.349323],[-71.059796,42.349336],[-71.059815,42.34935],[-71.06059,42.349313],[-71.06142,42.349268],[-71.061438,42.349255]]],[[[-71.061418,42.351122],[-71.0614,42.351109],[-71.060625,42.351145],[-71.060606,42.351158],[-71.060625,42.351172],[-71.0614,42.351135],[-71.061418,42.351122]]],[[[-71.061399,42.349052],[-71.06138,42.349038],[-71.060374,42.349085],[-71.060354,42.349099],[-71.060374,42.349114],[-71.06138,42.349066],[-71.061399,42.349052]]],[[[-71.061397,42.35118],[-71.061379,42.351167],[-71.060604,42.351203],[-71.060585,42.351216],[-71.060604,42.35123],[-71.061379,42.351193],[-71.061397,42.35118]]],[[[-71.061371,42.35124],[-71.061353,42.351227],[-71.060578,42.351263],[-71.060559,42.351276],[-71.060578,42.35129],[-71.061353,42.351253],[-71.061371,42.35124]]],[[[-71.061352,42.351289],[-71.061334,42.351276],[-71.060559,42.351312],[-71.06054,42.351325],[-71.060559,42.351339],[-71.061334,42.351302],[-71.061352,42.351289]]],[[[-71.061244,42.35337],[-71.061226,42.353357],[-71.060987,42.353368],[-71.061183,42.353354],[-71.061183,42.353334],[-71.061126,42.353333],[-71.061137,42.353325],[-71.061127,42.353308],[-71.058592,42.353445],[-71.05856,42.353455],[-71.058546,42.353479],[-71.05856,42.353503],[-71.058592,42.353512],[-71.059554,42.353472],[-71.059546,42.353483],[-71.059565,42.353497],[-71.06034,42.35346],[-71.060353,42.353437],[-71.060395,42.353432],[-71.060434,42.353402],[-71.060451,42.35342],[-71.061226,42.353383],[-71.061244,42.35337]]],[[[-71.061188,42.354916],[-71.06117,42.354903],[-71.060395,42.354939],[-71.060376,42.354952],[-71.060395,42.354966],[-71.06117,42.354929],[-71.061188,42.354916]]],[[[-71.061048,42.353275],[-71.06103,42.353262],[-71.060507,42.353286],[-71.06049,42.35327],[-71.059858,42.353299],[-71.059797,42.353289],[-71.059819,42.353272],[-71.059819,42.353248],[-71.05978,42.353229],[-71.058863,42.353272],[-71.058846,42.353255],[-71.05874,42.353255],[-71.057965,42.353291],[-71.057946,42.353304],[-71.057965,42.353318],[-71.05819,42.353312],[-71.058198,42.353332],[-71.05833,42.353335],[-71.05837,42.353357],[-71.059055,42.353325],[-71.059046,42.353336],[-71.059065,42.35335],[-71.060122,42.353314],[-71.060056,42.353329],[-71.060069,42.353352],[-71.060844,42.353315],[-71.061048,42.353275]]],[[[-71.061038,42.34849],[-71.06102,42.348477],[-71.060245,42.348513],[-71.060226,42.348526],[-71.060245,42.34854],[-71.06102,42.348503],[-71.061038,42.34849]]],[[[-71.061032,42.348602],[-71.061017,42.348575],[-71.06098,42.348564],[-71.059396,42.348638],[-71.05936,42.348649],[-71.059344,42.348676],[-71.05936,42.348703],[-71.059396,42.348715],[-71.06098,42.34864],[-71.061017,42.348629],[-71.061032,42.348602]]],[[[-71.060938,42.35322],[-71.06092,42.353207],[-71.060145,42.353243],[-71.060126,42.353256],[-71.060145,42.35327],[-71.06092,42.353233],[-71.060938,42.35322]]],[[[-71.060847,42.349174],[-71.060827,42.349137],[-71.060776,42.349121],[-71.058846,42.349212],[-71.058795,42.349227],[-71.058775,42.349264],[-71.058795,42.349302],[-71.058846,42.349317],[-71.060776,42.349227],[-71.060827,42.349211],[-71.060847,42.349174]]],[[[-71.060598,42.35304],[-71.06058,42.353027],[-71.059805,42.353063],[-71.059786,42.353076],[-71.059581,42.353093],[-71.059562,42.353106],[-71.059581,42.35312],[-71.060356,42.353083],[-71.060374,42.35307],[-71.06058,42.353053],[-71.060598,42.35304]]],[[[-71.060588,42.349342],[-71.06057,42.349329],[-71.059795,42.349365],[-71.059776,42.349378],[-71.059795,42.349392],[-71.06057,42.349355],[-71.060588,42.349342]]],[[[-71.060518,42.352997],[-71.060459,42.352985],[-71.060468,42.352974],[-71.06045,42.352961],[-71.060145,42.352975],[-71.060157,42.352967],[-71.060147,42.35295],[-71.059365,42.352985],[-71.059346,42.352998],[-71.058625,42.353033],[-71.058606,42.353046],[-71.058625,42.35306],[-71.0594,42.353023],[-71.059418,42.35301],[-71.059612,42.353],[-71.0596,42.353008],[-71.05961,42.353025],[-71.059716,42.353022],[-71.059706,42.353033],[-71.059725,42.353047],[-71.0605,42.35301],[-71.060518,42.352997]]],[[[-71.060504,42.35315],[-71.060486,42.353137],[-71.059711,42.353173],[-71.059692,42.353186],[-71.059711,42.3532],[-71.060486,42.353163],[-71.060504,42.35315]]],[[[-71.060428,42.3531],[-71.06041,42.353087],[-71.059635,42.353123],[-71.059616,42.353136],[-71.059635,42.35315],[-71.06041,42.353113],[-71.060428,42.3531]]],[[[-71.059972,42.351044],[-71.05996,42.351022],[-71.05993,42.351013],[-71.05852,42.351079],[-71.05849,42.351088],[-71.058477,42.35111],[-71.058503,42.351139],[-71.058707,42.351133],[-71.058725,42.351147],[-71.05993,42.351075],[-71.05996,42.351066],[-71.059972,42.351044]]],[[[-71.059901,42.351135],[-71.059875,42.351116],[-71.058753,42.351168],[-71.058728,42.351191],[-71.058666,42.351206],[-71.057584,42.351266],[-71.05755,42.351276],[-71.057535,42.351301],[-71.057565,42.351335],[-71.057609,42.351336],[-71.057595,42.351361],[-71.05762,42.351392],[-71.05758,42.351403],[-71.057565,42.351428],[-71.05758,42.351454],[-71.057614,42.351464],[-71.05914,42.351393],[-71.059185,42.351371],[-71.059185,42.351343],[-71.059164,42.351326],[-71.059204,42.351315],[-71.059219,42.35129],[-71.059189,42.351257],[-71.059145,42.351255],[-71.059188,42.35124],[-71.059133,42.351199],[-71.059875,42.351154],[-71.059901,42.351135]]],[[[-71.059758,42.352753],[-71.059623,42.352718],[-71.058783,42.352756],[-71.058765,42.352769],[-71.058783,42.352783],[-71.05822,42.352809],[-71.058186,42.352819],[-71.058172,42.352845],[-71.058186,42.35287],[-71.05822,42.352881],[-71.05954,42.352819],[-71.059574,42.352808],[-71.059589,42.352783],[-71.05974,42.352766],[-71.059758,42.352753]]],[[[-71.059669,42.354954],[-71.059651,42.354934],[-71.059616,42.354934],[-71.059613,42.354903],[-71.05955,42.354866],[-71.058313,42.354924],[-71.058283,42.354939],[-71.058283,42.354957],[-71.05833,42.354995],[-71.058436,42.354998],[-71.05844,42.355025],[-71.05846,42.355031],[-71.05964,42.354976],[-71.059669,42.354954]]],[[[-71.059649,42.35171],[-71.059634,42.351685],[-71.0596,42.351674],[-71.058914,42.351706],[-71.058913,42.351673],[-71.05944,42.351645],[-71.059553,42.351617],[-71.05956,42.351591],[-71.05953,42.351576],[-71.059005,42.351601],[-71.05897,42.351578],[-71.057675,42.351638],[-71.057639,42.351665],[-71.057675,42.351691],[-71.058262,42.351664],[-71.058039,42.351674],[-71.058021,42.351688],[-71.058039,42.351701],[-71.058287,42.35169],[-71.05764,42.351726],[-71.057623,42.351739],[-71.05763,42.351765],[-71.057541,42.351774],[-71.057522,42.351809],[-71.05748,42.351822],[-71.057469,42.351841],[-71.057505,42.351867],[-71.058214,42.351834],[-71.057363,42.35188],[-71.057324,42.351908],[-71.057363,42.351937],[-71.058716,42.351874],[-71.058777,42.351831],[-71.0593,42.351797],[-71.059323,42.35178],[-71.0593,42.351763],[-71.058834,42.351785],[-71.0596,42.351746],[-71.059634,42.351735],[-71.059649,42.35171]]],[[[-71.059482,42.354813],[-71.059462,42.354791],[-71.059424,42.35479],[-71.059432,42.354774],[-71.059413,42.354738],[-71.059364,42.354707],[-71.058069,42.354767],[-71.058033,42.354794],[-71.058055,42.354818],[-71.058138,42.354817],[-71.05814,42.354849],[-71.058189,42.354855],[-71.05819,42.354888],[-71.058213,42.354895],[-71.05945,42.354837],[-71.059482,42.354813]]],[[[-71.059428,42.3531],[-71.05941,42.353087],[-71.058635,42.353123],[-71.058616,42.353136],[-71.058635,42.35315],[-71.05941,42.353113],[-71.059428,42.3531]]],[[[-71.059098,42.35146],[-71.05908,42.351447],[-71.058305,42.351483],[-71.058286,42.351496],[-71.058305,42.35151],[-71.05908,42.351473],[-71.059098,42.35146]]],[[[-71.059092,42.354385],[-71.05906,42.354361],[-71.057823,42.354419],[-71.057793,42.354434],[-71.057793,42.354452],[-71.057823,42.354467],[-71.05906,42.354409],[-71.059092,42.354385]]],[[[-71.059066,42.351517],[-71.05904,42.351498],[-71.057918,42.35155],[-71.057894,42.351577],[-71.057918,42.351589],[-71.05904,42.351536],[-71.059066,42.351517]]],[[[-71.059018,42.354332],[-71.059,42.354319],[-71.058225,42.354355],[-71.058206,42.354368],[-71.058225,42.354382],[-71.059,42.354345],[-71.059018,42.354332]]],[[[-71.058959,42.35429],[-71.05894,42.354276],[-71.057934,42.354323],[-71.057914,42.354337],[-71.057934,42.354352],[-71.05894,42.354304],[-71.058959,42.35429]]],[[[-71.058692,42.351906],[-71.05866,42.351882],[-71.057423,42.35194],[-71.057393,42.351955],[-71.057393,42.351973],[-71.057423,42.351988],[-71.057534,42.351983],[-71.057556,42.351997],[-71.05862,42.351947],[-71.058683,42.351923],[-71.058692,42.351906]]],[[[-71.058598,42.351967],[-71.05858,42.351954],[-71.056889,42.352033],[-71.056838,42.352058],[-71.056838,42.352089],[-71.056866,42.352111],[-71.05616,42.352144],[-71.056131,42.352165],[-71.05616,42.352187],[-71.056288,42.352181],[-71.05629,42.352206],[-71.056363,42.352209],[-71.056394,42.352261],[-71.056414,42.352267],[-71.057594,42.352212],[-71.057615,42.352205],[-71.057615,42.352175],[-71.05753,42.352171],[-71.057532,42.35215],[-71.058457,42.352105],[-71.058482,42.352087],[-71.058482,42.352062],[-71.058569,42.352026],[-71.058598,42.351967]]],[[[-71.058568,42.35253],[-71.058497,42.352512],[-71.058268,42.352509],[-71.05848,42.352494],[-71.058499,42.35248],[-71.05848,42.352466],[-71.058267,42.352455],[-71.057485,42.35249],[-71.057454,42.352527],[-71.057462,42.352558],[-71.057537,42.352559],[-71.05757,42.352579],[-71.05855,42.352543],[-71.058568,42.35253]]],[[[-71.058288,42.35091],[-71.05827,42.350897],[-71.058207,42.350899],[-71.058207,42.350875],[-71.057425,42.35091],[-71.057406,42.350923],[-71.057425,42.350937],[-71.057488,42.350934],[-71.057488,42.350959],[-71.05827,42.350923],[-71.058288,42.35091]]],[[[-71.058038,42.352665],[-71.05802,42.352652],[-71.057245,42.352688],[-71.057226,42.352701],[-71.057245,42.352715],[-71.05802,42.352678],[-71.058038,42.352665]]],[[[-71.058032,42.352768],[-71.058014,42.352755],[-71.057239,42.352791],[-71.05722,42.352804],[-71.057239,42.352818],[-71.058014,42.352781],[-71.058032,42.352768]]],[[[-71.058008,42.352905],[-71.05799,42.352892],[-71.057215,42.352928],[-71.057196,42.352941],[-71.057215,42.352955],[-71.05799,42.352918],[-71.058008,42.352905]]],[[[-71.057803,42.350693],[-71.05774,42.350664],[-71.056965,42.3507],[-71.056946,42.350713],[-71.05701,42.350743],[-71.057785,42.350706],[-71.057803,42.350693]]],[[[-71.05775,42.352226],[-71.057724,42.352207],[-71.056602,42.352259],[-71.056578,42.352286],[-71.056602,42.352298],[-71.057724,42.352245],[-71.05775,42.352226]]],[[[-71.057414,42.350403],[-71.057396,42.35039],[-71.056621,42.350426],[-71.056602,42.350439],[-71.056621,42.350453],[-71.057396,42.350416],[-71.057414,42.350403]]],[[[-71.057398,42.350494],[-71.05738,42.350481],[-71.056605,42.350517],[-71.056592,42.35054],[-71.056301,42.350556],[-71.056282,42.350569],[-71.056301,42.350583],[-71.05639,42.350579],[-71.056398,42.350599],[-71.05718,42.350563],[-71.057193,42.35054],[-71.057091,42.350541],[-71.057085,42.350521],[-71.05738,42.350507],[-71.057398,42.350494]]],[[[-71.057348,42.351707],[-71.05733,42.351694],[-71.056497,42.351733],[-71.056479,42.351746],[-71.056497,42.35176],[-71.05733,42.35172],[-71.057348,42.351707]]],[[[-71.057338,42.35175],[-71.05732,42.351737],[-71.056545,42.351773],[-71.056526,42.351786],[-71.056545,42.3518],[-71.05732,42.351763],[-71.057338,42.35175]]],[[[-71.057309,42.351897],[-71.057291,42.351884],[-71.056516,42.35192],[-71.056497,42.351933],[-71.056516,42.351947],[-71.057291,42.35191],[-71.057309,42.351897]]],[[[-71.057298,42.351955],[-71.05728,42.351942],[-71.056562,42.351975],[-71.056544,42.351989],[-71.055839,42.352022],[-71.055821,42.352036],[-71.055839,42.352049],[-71.05673,42.352007],[-71.056748,42.351994],[-71.05728,42.351968],[-71.057298,42.351955]]],[[[-71.057298,42.350925],[-71.05728,42.350912],[-71.056389,42.350953],[-71.056371,42.350967],[-71.056389,42.35098],[-71.05728,42.350938],[-71.057298,42.350925]]],[[[-71.057268,42.351063],[-71.05725,42.35105],[-71.05638,42.351084],[-71.055431,42.351128],[-71.055413,42.351141],[-71.055431,42.351155],[-71.056359,42.351118],[-71.05725,42.351076],[-71.057268,42.351063]]],[[[-71.057208,42.35141],[-71.05719,42.351397],[-71.056415,42.351433],[-71.056396,42.351446],[-71.056415,42.35146],[-71.05719,42.351423],[-71.057208,42.35141]]],[[[-71.057147,42.350632],[-71.057129,42.350619],[-71.056354,42.350655],[-71.056341,42.350678],[-71.055641,42.350711],[-71.055623,42.350724],[-71.055641,42.350738],[-71.05659,42.350693],[-71.056603,42.35067],[-71.057129,42.350645],[-71.057147,42.350632]]],[[[-71.057038,42.34984],[-71.05702,42.349827],[-71.056792,42.349837],[-71.05676,42.349816],[-71.055523,42.349874],[-71.055493,42.349889],[-71.055493,42.349907],[-71.055523,42.349922],[-71.05702,42.349853],[-71.057038,42.34984]]],[[[-71.057022,42.349903],[-71.05699,42.349879],[-71.05676,42.34989],[-71.056725,42.349879],[-71.055405,42.349941],[-71.055371,42.349951],[-71.055357,42.349977],[-71.055371,42.350002],[-71.055405,42.350013],[-71.056725,42.349951],[-71.057002,42.349925],[-71.057022,42.349903]]],[[[-71.056868,42.352028],[-71.05685,42.352015],[-71.055901,42.352059],[-71.055883,42.352072],[-71.055901,42.352086],[-71.05685,42.352041],[-71.056868,42.352028]]],[[[-71.056834,42.35023],[-71.056816,42.350217],[-71.056041,42.350253],[-71.056022,42.350266],[-71.056041,42.35028],[-71.056816,42.350243],[-71.056834,42.35023]]],[[[-71.056829,42.34976],[-71.05679,42.349731],[-71.055437,42.349795],[-71.055398,42.349823],[-71.055437,42.349852],[-71.05679,42.349789],[-71.056829,42.34976]]],[[[-71.056798,42.350307],[-71.05678,42.350294],[-71.056005,42.35033],[-71.055986,42.350343],[-71.056005,42.350357],[-71.05678,42.35032],[-71.056798,42.350307]]],[[[-71.056729,42.350006],[-71.056714,42.349981],[-71.05668,42.34997],[-71.05536,42.350032],[-71.055326,42.350042],[-71.055312,42.350068],[-71.055326,42.350093],[-71.05536,42.350104],[-71.05668,42.350042],[-71.056714,42.350031],[-71.056729,42.350006]]],[[[-71.056659,42.350094],[-71.05663,42.350072],[-71.055451,42.350128],[-71.055421,42.350149],[-71.055451,42.350171],[-71.05663,42.350116],[-71.056659,42.350094]]],[[[-71.056643,42.350613],[-71.056625,42.3506],[-71.055676,42.350644],[-71.055658,42.350657],[-71.055676,42.350671],[-71.056625,42.350626],[-71.056643,42.350613]]],[[[-71.056626,42.353203],[-71.0566,42.353184],[-71.055478,42.353236],[-71.055454,42.353263],[-71.055478,42.353275],[-71.0566,42.353222],[-71.056626,42.353203]]],[[[-71.056622,42.350185],[-71.05659,42.350161],[-71.055353,42.350219],[-71.055323,42.350234],[-71.055323,42.350252],[-71.055353,42.350267],[-71.05659,42.350209],[-71.056622,42.350185]]],[[[-71.056559,42.353165],[-71.05654,42.353151],[-71.055534,42.353198],[-71.055514,42.353212],[-71.055534,42.353227],[-71.05654,42.353179],[-71.056559,42.353165]]],[[[-71.056559,42.350834],[-71.056544,42.350809],[-71.05651,42.350798],[-71.05519,42.35086],[-71.055156,42.35087],[-71.055142,42.350896],[-71.055156,42.350921],[-71.05519,42.350932],[-71.05651,42.35087],[-71.056544,42.350859],[-71.056559,42.350834]]],[[[-71.056484,42.353127],[-71.056465,42.353113],[-71.055459,42.35316],[-71.055439,42.353174],[-71.055459,42.353189],[-71.056465,42.353141],[-71.056484,42.353127]]],[[[-71.056468,42.35192],[-71.05645,42.351907],[-71.056383,42.35191],[-71.05637,42.351887],[-71.055652,42.35192],[-71.055639,42.351943],[-71.055501,42.351951],[-71.055483,42.351964],[-71.055501,42.351978],[-71.05645,42.351933],[-71.056468,42.35192]]],[[[-71.056428,42.35103],[-71.05641,42.351017],[-71.056168,42.351023],[-71.055219,42.351067],[-71.055201,42.35108],[-71.055219,42.351094],[-71.055635,42.35108],[-71.05641,42.351043],[-71.056428,42.35103]]],[[[-71.056393,42.35309],[-71.05637,42.353073],[-71.055306,42.353123],[-71.055283,42.35314],[-71.055306,42.353157],[-71.05637,42.353107],[-71.056393,42.35309]]],[[[-71.056364,42.351176],[-71.056346,42.351163],[-71.055571,42.351199],[-71.055552,42.351212],[-71.055571,42.351226],[-71.056346,42.351189],[-71.056364,42.351176]]],[[[-71.056338,42.35493],[-71.05632,42.354917],[-71.055371,42.354961],[-71.055353,42.354974],[-71.055371,42.354988],[-71.05632,42.354943],[-71.056338,42.35493]]],[[[-71.056328,42.354836],[-71.05631,42.354823],[-71.055361,42.354867],[-71.055343,42.35488],[-71.055361,42.354894],[-71.05631,42.354849],[-71.056328,42.354836]]],[[[-71.056309,42.35475],[-71.05629,42.354736],[-71.055284,42.354783],[-71.055264,42.354797],[-71.055284,42.354812],[-71.05629,42.354764],[-71.056309,42.35475]]],[[[-71.056306,42.35467],[-71.05628,42.354651],[-71.055158,42.354703],[-71.055134,42.35473],[-71.055158,42.354742],[-71.05628,42.354689],[-71.056306,42.35467]]],[[[-71.056258,42.351376],[-71.05624,42.351363],[-71.055407,42.351402],[-71.055393,42.351424],[-71.054986,42.351443],[-71.054968,42.351456],[-71.054986,42.35147],[-71.05537,42.351452],[-71.055381,42.351462],[-71.056221,42.351424],[-71.056239,42.351411],[-71.056221,42.351398],[-71.055953,42.35141],[-71.05624,42.351389],[-71.056258,42.351376]]],[[[-71.056248,42.35305],[-71.05623,42.353037],[-71.055455,42.353073],[-71.055436,42.353086],[-71.055455,42.3531],[-71.05623,42.353063],[-71.056248,42.35305]]],[[[-71.056226,42.350933],[-71.056208,42.35092],[-71.055259,42.350964],[-71.055241,42.350977],[-71.055259,42.350991],[-71.056208,42.350946],[-71.056226,42.350933]]],[[[-71.056208,42.35145],[-71.05619,42.351437],[-71.055357,42.351476],[-71.055339,42.351489],[-71.054953,42.351513],[-71.054935,42.351526],[-71.054953,42.35154],[-71.055902,42.351495],[-71.05592,42.351482],[-71.05619,42.351463],[-71.056208,42.35145]]],[[[-71.056148,42.351145],[-71.05613,42.351132],[-71.055181,42.351176],[-71.055163,42.351189],[-71.055181,42.351203],[-71.05613,42.351158],[-71.056148,42.351145]]],[[[-71.056078,42.35171],[-71.05606,42.351697],[-71.055227,42.351736],[-71.054841,42.351758],[-71.054823,42.351771],[-71.054841,42.351785],[-71.05579,42.35174],[-71.05606,42.351723],[-71.056078,42.35171]]],[[[-71.055977,42.351355],[-71.055959,42.351342],[-71.05501,42.351386],[-71.054992,42.351399],[-71.05501,42.351413],[-71.055959,42.351368],[-71.055977,42.351355]]],[[[-71.055888,42.351561],[-71.05587,42.351548],[-71.054921,42.351592],[-71.054903,42.351605],[-71.054921,42.351619],[-71.05587,42.351574],[-71.055888,42.351561]]],[[[-71.055869,42.352226],[-71.055854,42.352201],[-71.05582,42.35219],[-71.0545,42.352252],[-71.054466,42.352262],[-71.054455,42.352302],[-71.054418,42.352338],[-71.054432,42.352363],[-71.054466,42.352374],[-71.055786,42.352312],[-71.05582,42.352301],[-71.055831,42.352262],[-71.055869,42.352226]]],[[[-71.055859,42.351622],[-71.055841,42.351609],[-71.054892,42.351653],[-71.054874,42.351666],[-71.054892,42.35168],[-71.055841,42.351635],[-71.055859,42.351622]]],[[[-71.055788,42.353336],[-71.055756,42.353312],[-71.054519,42.35337],[-71.054489,42.353385],[-71.054489,42.353403],[-71.054519,42.353418],[-71.055756,42.35336],[-71.055788,42.353336]]],[[[-71.055788,42.351776],[-71.05577,42.351763],[-71.054821,42.351807],[-71.054803,42.35182],[-71.054821,42.351834],[-71.05577,42.351789],[-71.055788,42.351776]]],[[[-71.055724,42.353394],[-71.055695,42.353372],[-71.054515,42.353428],[-71.054486,42.353449],[-71.054515,42.353471],[-71.054607,42.353467],[-71.0546,42.353477],[-71.05462,42.353492],[-71.055626,42.353444],[-71.05564,42.35342],[-71.055706,42.353414],[-71.055724,42.353394]]],[[[-71.055558,42.353497],[-71.05554,42.353484],[-71.054591,42.353528],[-71.054573,42.353541],[-71.054591,42.353555],[-71.05554,42.35351],[-71.055558,42.353497]]],[[[-71.055498,42.35353],[-71.05548,42.353517],[-71.054647,42.353556],[-71.054629,42.353569],[-71.054647,42.353583],[-71.05548,42.353543],[-71.055498,42.35353]]],[[[-71.055262,42.353653],[-71.055244,42.35364],[-71.054469,42.353676],[-71.05403,42.353706],[-71.054001,42.353727],[-71.054019,42.353747],[-71.054084,42.353746],[-71.054106,42.353767],[-71.05517,42.353717],[-71.055231,42.353687],[-71.055262,42.353653]]]]},"properties":{"kind":"tree"}}]}