{"type":"FeatureCollection","features":[{"type":"Feature","geometry":{"type":"Polygon","coordinates":[[[-71.07201,42.354409],[-71.071987,42.354275],[-71.071727,42.353689],[-71.070943,42.353282],[-71.070939,42.353249],[-71.070789,42.353171],[-71.07093,42.353164],[-71.070912,42.352944],[-71.070664,42.352815],[-71.070896,42.352802],[-71.070861,42.352473],[-71.070756,42.352352],[-71.070424,42.35218],[-71.070461,42.352003],[-71.070601,42.352076],[-71.07067,42.352084],[-71.070714,42.352047],[-71.070723,42.352005],[-71.070116,42.35169],[-71.070162,42.351668],[-71.069934,42.351403],[-71.066805,42.349776],[-71.066827,42.349696],[-71.068878,42.35076],[-71.068997,42.350777],[-71.069004,42.350753],[-71.06942,42.350969],[-71.069785,42.351025],[-71.069824,42.350967],[-71.069862,42.350778],[-71.068916,42.350287],[-71.068972,42.35026],[-71.068964,42.350254],[-71.067953,42.349729],[-71.068039,42.349687],[-71.070897,42.351169],[-71.071435,42.351232],[-71.071463,42.351112],[-71.070934,42.350838],[-71.070975,42.350647],[-71.068511,42.349367],[-71.068512,42.349333],[-71.06845,42.349299],[-71.065257,42.347643],[-71.064894,42.347587],[-71.064503,42.347783],[-71.064378,42.348084],[-71.064088,42.347938],[-71.063968,42.347919],[-71.063883,42.347989],[-71.063856,42.347985],[-71.063606,42.347866],[-71.06346,42.347843],[-71.063403,42.348052],[-71.063301,42.347999],[-71.062961,42.347921],[-71.062929,42.348],[-71.063057,42.348066],[-71.062855,42.347962],[-71.062735,42.347939],[-71.062689,42.348052],[-71.062867,42.348159],[-71.061866,42.34764],[-71.061712,42.347604],[-71.061566,42.347954],[-71.061555,42.348046],[-71.061874,42.348211],[-71.061784,42.348434],[-71.06164,42.348359],[-71.06151,42.34833],[-71.061011,42.348097],[-71.060549,42.348739],[-71.060875,42.348908],[-71.060744,42.349244],[-71.061601,42.349688],[-71.061406,42.349608],[-71.060443,42.349109],[-71.060321,42.349063],[-71.060189,42.349368],[-71.056673,42.347544],[-71.055908,42.347262],[-71.054533,42.349309],[-71.054519,42.349436],[-71.054447,42.34941],[-71.053477,42.350853],[-71.055022,42.351654],[-71.054479,42.351779],[-71.054307,42.351954],[-71.057259,42.35349],[-71.057229,42.35354],[-71.056948,42.353395],[-71.056904,42.353401],[-71.056638,42.353263],[-71.056242,42.353099],[-71.055998,42.353225],[-71.056026,42.35333],[-71.0565,42.353576],[-71.056468,42.35359],[-71.055897,42.353294],[-71.055573,42.353469],[-71.055611,42.353508],[-71.055589,42.353497],[-71.055421,42.353589],[-71.055387,42.353626],[-71.055342,42.353603],[-71.054915,42.353838],[-71.055095,42.354019],[-71.054889,42.353912],[-71.054793,42.353902],[-71.054378,42.354122],[-71.054355,42.354162],[-71.054364,42.354206],[-71.054586,42.35444],[-71.054619,42.354471],[-71.054839,42.354585],[-71.054775,42.354643],[-71.05498,42.354839],[-71.055633,42.355178],[-71.055688,42.355479],[-71.060669,42.358062],[-71.060784,42.358067],[-71.061239,42.358023],[-71.061345,42.357995],[-71.061268,42.357572],[-71.061547,42.357716],[-71.06233,42.357657],[-71.06231,42.357506],[-71.061162,42.356911],[-71.061166,42.35686],[-71.061444,42.357004],[-71.061718,42.356977],[-71.062895,42.357581],[-71.063261,42.3576],[-71.063343,42.35756],[-71.063523,42.357653],[-71.064209,42.357951],[-71.064619,42.357571],[-71.06436,42.357367],[-71.065109,42.357755],[-71.065307,42.357611],[-71.065666,42.357797],[-71.065895,42.357584],[-71.066354,42.357816],[-71.066526,42.357629],[-71.066091,42.357401],[-71.066197,42.35729],[-71.066777,42.35759],[-71.066942,42.357414],[-71.066792,42.357336],[-71.067008,42.357448],[-71.067036,42.357424],[-71.067571,42.357701],[-71.067679,42.357587],[-71.068099,42.357805],[-71.068158,42.357728],[-71.066595,42.356915],[-71.06664,42.356872],[-71.068192,42.357636],[-71.068236,42.357627],[-71.068833,42.356526],[-71.068843,42.356479],[-71.068532,42.356318],[-71.068542,42.3563],[-71.068626,42.356343],[-71.068873,42.356416],[-71.068979,42.356217],[-71.068661,42.356053],[-71.06868,42.355971],[-71.068416,42.355823],[-71.069127,42.355879],[-71.06929,42.355423],[-71.06923,42.355392],[-71.06929,42.355395],[-71.069334,42.355227],[-71.069354,42.355018],[-71.069037,42.354845],[-71.06909,42.354846],[-71.069093,42.354827],[-71.069153,42.354858],[-71.06943,42.354866],[-71.069465,42.354846],[-71.069476,42.354801],[-71.069664,42.354898],[-71.070866,42.354965],[-71.070873,42.354931],[-71.070948,42.35497],[-71.071044,42.354975],[-71.07106,42.354753],[-71.070882,42.354661],[-71.07092,42.354331],[-71.071827,42.354454],[-71.07201,42.354409]],[[-71.060994,42.350611],[-71.060899,42.350587],[-71.060887,42.350613],[-71.060747,42.35054],[-71.060492,42.350469],[-71.060499,42.350452],[-71.060466,42.350435],[-71.060501,42.350355],[-71.060994,42.350611]]]},"properties":{"kind":"building"}},{"type":"Feature","geometry":{"type":"MultiPolygon","coordinates":[[[[-71.070131,42.355563],[-71.07012,42.355522],[-71.070088,42.355487],[-71.069045,42.354946],[-71.069113,42.354906],[-71.069185,42.354917],[-71.06926,42.354894],[-71.069685,42.35511],[-71.069731,42.355117],[-71.069777,42.35511],[-71.069842,42.355062],[-71.069959,42.355093],[-71.070062,42.355062],[-71.070094,42.355027],[-71.070105,42.354985],[-71.070094,42.354944],[-71.070062,42.354909],[-71.068387,42.354038],[-71.068461,42.354029],[-71.068539,42.354058],[-71.068591,42.354042],[-71.068645,42.354062],[-71.068702,42.354062],[-71.068743,42.354032],[-71.068748,42.354011],[-71.068726,42.353972],[-71.065976,42.352546],[-71.065894,42.352558],[-71.065812,42.352534],[-71.065766,42.352547],[-71.065688,42.352518],[-71.065635,42.352534],[-71.065619,42.352552],[-71.065619,42.352593],[-71.064563,42.352045],[-71.064537,42.352045],[-71.064537,42.352065],[-71.06556,42.352595],[-71.065362,42.35251],[-71.064559,42.352094],[-71.064526,42.352104],[-71.065314,42.35252],[-71.065288,42.352533],[-71.064543,42.35215],[-71.064512,42.35216],[-71.065265,42.352558],[-71.065257,42.352587],[-71.065281,42.352634],[-71.065049,42.352515],[-71.065012,42.352509],[-71.064943,42.35253],[-71.064915,42.352581],[-71.064943,42.352632],[-71.065159,42.352744],[-71.065124,42.352745],[-71.065092,42.352768],[-71.065105,42.352816],[-71.065081,42.352852],[-71.065094,42.352876],[-71.065032,42.352908],[-71.065032,42.352948],[-71.065177,42.353032],[-71.065192,42.353087],[-71.065373,42.353181],[-71.065371,42.353223],[-71.064791,42.352933],[-71.064745,42.352926],[-71.06466,42.352952],[-71.064625,42.353015],[-71.064656,42.353073],[-71.064658,42.353148],[-71.064809,42.353259],[-71.064757,42.353275],[-71.064701,42.353248],[-71.064617,42.353248],[-71.064557,42.353292],[-71.064549,42.353323],[-71.064581,42.353381],[-71.0653,42.353753],[-71.065281,42.353784],[-71.06467,42.353467],[-71.064592,42.353467],[-71.06456,42.353483],[-71.064534,42.353524],[-71.064083,42.35329],[-71.06392,42.353251],[-71.063897,42.353268],[-71.065253,42.353979],[-71.065269,42.354004],[-71.067779,42.355305],[-71.06785,42.355295],[-71.067991,42.355353],[-71.068062,42.355331],[-71.068092,42.355279],[-71.068062,42.355226],[-71.068006,42.355197],[-71.06803,42.35517],[-71.068215,42.355264],[-71.068299,42.355264],[-71.068348,42.355232],[-71.069036,42.355587],[-71.069083,42.355594],[-71.069169,42.355568],[-71.069465,42.35572],[-71.069521,42.355728],[-71.069624,42.355697],[-71.069656,42.355662],[-71.069667,42.35562],[-71.069656,42.355579],[-71.069624,42.355544],[-71.069468,42.355463],[-71.06948,42.355431],[-71.069929,42.355663],[-71.070041,42.355663],[-71.070088,42.35564],[-71.07012,42.355605],[-71.070131,42.355563]]],[[[-71.069938,42.35658],[-71.0699,42.356513],[-71.067619,42.355322],[-71.06765,42.355282],[-71.067631,42.355248],[-71.064044,42.35338],[-71.064011,42.35339],[-71.06391,42.353361],[-71.063892,42.353374],[-71.064358,42.353623],[-71.064358,42.353658],[-71.064324,42.353692],[-71.064332,42.353737],[-71.064296,42.353748],[-71.06428,42.353777],[-71.064324,42.35382],[-71.064276,42.353837],[-71.064252,42.353881],[-71.063993,42.35375],[-71.063967,42.35375],[-71.063967,42.35377],[-71.064249,42.353916],[-71.064238,42.353945],[-71.064262,42.353987],[-71.064437,42.354078],[-71.064295,42.354023],[-71.064221,42.354059],[-71.062756,42.353294],[-71.062717,42.353306],[-71.064183,42.354075],[-71.064216,42.354075],[-71.06422,42.354106],[-71.06389,42.353943],[-71.06386,42.353958],[-71.063867,42.353984],[-71.06414,42.354126],[-71.064103,42.354172],[-71.064147,42.354222],[-71.064079,42.354247],[-71.063808,42.354106],[-71.06378,42.354102],[-71.063766,42.354127],[-71.064078,42.354292],[-71.064161,42.35436],[-71.064917,42.354756],[-71.064894,42.354764],[-71.064067,42.354344],[-71.063979,42.354357],[-71.063955,42.354399],[-71.063968,42.35443],[-71.063903,42.354482],[-71.063892,42.354523],[-71.063903,42.354564],[-71.063935,42.354599],[-71.064157,42.354715],[-71.064173,42.354742],[-71.064234,42.354773],[-71.064252,42.354818],[-71.0669,42.356191],[-71.066976,42.356203],[-71.068207,42.356841],[-71.068286,42.356841],[-71.06832,42.356824],[-71.06835,42.35677],[-71.06832,42.356716],[-71.068246,42.356677],[-71.068257,42.356635],[-71.068246,42.356594],[-71.068214,42.356559],[-71.066991,42.355924],[-71.067158,42.356],[-71.067201,42.356],[-71.067235,42.355963],[-71.068281,42.356496],[-71.068393,42.356496],[-71.068457,42.356455],[-71.069428,42.356957],[-71.069522,42.356957],[-71.069562,42.356938],[-71.069598,42.356873],[-71.069562,42.356809],[-71.068611,42.356316],[-71.068595,42.356268],[-71.068098,42.356011],[-71.068144,42.355974],[-71.068152,42.355944],[-71.06812,42.355888],[-71.067328,42.355477],[-71.067354,42.355465],[-71.067624,42.355604],[-71.067691,42.355604],[-71.069758,42.356669],[-71.069858,42.356669],[-71.0699,42.356648],[-71.069938,42.35658]]],[[[-71.068319,42.349329],[-71.0683,42.349295],[-71.065811,42.348004],[-71.06574,42.347994],[-71.065705,42.34802],[-71.065719,42.348072],[-71.068208,42.349363],[-71.068279,42.349373],[-71.068319,42.349329]]],[[[-71.068069,42.349655],[-71.068052,42.349624],[-71.067959,42.349576],[-71.067943,42.349534],[-71.065534,42.348284],[-71.065466,42.348274],[-71.065433,42.348299],[-71.065446,42.348348],[-71.065623,42.34844],[-71.065639,42.348477],[-71.067969,42.349685],[-71.068033,42.349695],[-71.068069,42.349655]]],[[[-71.068041,42.349348],[-71.068025,42.349319],[-71.065756,42.348142],[-71.065714,42.348142],[-71.065684,42.348164],[-71.065543,42.3481],[-71.065512,42.34811],[-71.067965,42.349385],[-71.068007,42.349385],[-71.068041,42.349348]]],[[[-71.067472,42.350156],[-71.067457,42.35013],[-71.065364,42.349045],[-71.065311,42.349037],[-71.065285,42.349056],[-71.065296,42.349095],[-71.0655,42.349201],[-71.065465,42.349222],[-71.065476,42.349261],[-71.067286,42.3502],[-71.067339,42.350208],[-71.067369,42.350175],[-71.067442,42.350189],[-71.067472,42.350156]]],[[[-71.067243,42.349729],[-71.067229,42.349703],[-71.06591,42.34902],[-71.065919,42.349002],[-71.064852,42.348446],[-71.064821,42.348456],[-71.065383,42.348754],[-71.06535,42.348765],[-71.065336,42.348789],[-71.064616,42.348415],[-71.064585,42.348425],[-71.065573,42.348945],[-71.065563,42.348962],[-71.066551,42.349477],[-71.066582,42.349468],[-71.065673,42.348989],[-71.067175,42.349762],[-71.067213,42.349762],[-71.067243,42.349729]]],[[[-71.067172,42.349861],[-71.067161,42.349843],[-71.065385,42.348921],[-71.065346,42.348916],[-71.065327,42.34893],[-71.065335,42.348959],[-71.067111,42.34988],[-71.06715,42.349886],[-71.067172,42.349861]]],[[[-71.066942,42.349203],[-71.065476,42.348434],[-71.065437,42.348446],[-71.066903,42.349215],[-71.066942,42.349203]]],[[[-71.066927,42.356244],[-71.066902,42.3562],[-71.06391,42.354649],[-71.063818,42.354663],[-71.0638,42.354683],[-71.063799,42.354727],[-71.063772,42.354739],[-71.06375,42.354776],[-71.063539,42.354667],[-71.063501,42.354667],[-71.063475,42.354686],[-71.063486,42.354725],[-71.065296,42.355664],[-71.06533,42.355675],[-71.065375,42.355653],[-71.066603,42.356288],[-71.066663,42.356288],[-71.066705,42.356257],[-71.066842,42.356307],[-71.066902,42.356288],[-71.066927,42.356244]]],[[[-71.06681,42.351857],[-71.065583,42.351213],[-71.065552,42.351223],[-71.066779,42.351866],[-71.06681,42.351857]]],[[[-71.066792,42.348845],[-71.065723,42.348283],[-71.065692,42.348293],[-71.066761,42.348854],[-71.066792,42.348845]]],[[[-71.066715,42.351518],[-71.065168,42.350706],[-71.065126,42.350713],[-71.065126,42.350727],[-71.06667,42.351532],[-71.066699,42.351536],[-71.066715,42.351518]]],[[[-71.06669,42.351582],[-71.065143,42.35077],[-71.065101,42.350777],[-71.065101,42.350791],[-71.066645,42.351596],[-71.066674,42.3516],[-71.06669,42.351582]]],[[[-71.066547,42.349605],[-71.065557,42.349084],[-71.065526,42.349094],[-71.066515,42.349614],[-71.066547,42.349605]]],[[[-71.066511,42.351803],[-71.065363,42.3512],[-71.065332,42.35121],[-71.06648,42.351812],[-71.066511,42.351803]]],[[[-71.06651,42.351569],[-71.065124,42.350843],[-71.065091,42.350853],[-71.066476,42.351579],[-71.06651,42.351569]]],[[[-71.066332,42.351762],[-71.065263,42.3512],[-71.065232,42.35121],[-71.066301,42.351771],[-71.066332,42.351762]]],[[[-71.066087,42.351903],[-71.065297,42.351486],[-71.065296,42.351467],[-71.064649,42.351131],[-71.064651,42.351111],[-71.060827,42.349137],[-71.060749,42.349125],[-71.06071,42.349154],[-71.06071,42.349194],[-71.060725,42.349211],[-71.061353,42.349537],[-71.061367,42.349559],[-71.063177,42.350498],[-71.063254,42.350523],[-71.063242,42.350546],[-71.063343,42.350598],[-71.063333,42.350615],[-71.063897,42.35091],[-71.063243,42.350572],[-71.063217,42.350572],[-71.063217,42.350592],[-71.064518,42.351266],[-71.064549,42.351257],[-71.065775,42.351892],[-71.065804,42.351892],[-71.065828,42.351865],[-71.065761,42.351816],[-71.065777,42.351803],[-71.06577,42.351777],[-71.065195,42.351479],[-71.066056,42.351912],[-71.066087,42.351903]],[[-71.064913,42.351301],[-71.063572,42.350618],[-71.063572,42.350592],[-71.064913,42.351301]],[[-71.064026,42.350899],[-71.064018,42.350912],[-71.063404,42.350597],[-71.063527,42.350641],[-71.064026,42.350899]]],[[[-71.065688,42.352378],[-71.064619,42.351816],[-71.064588,42.351826],[-71.065657,42.352387],[-71.065688,42.352378]]],[[[-71.065668,42.349477],[-71.064202,42.348708],[-71.064163,42.34872],[-71.065629,42.349489],[-71.065668,42.349477]]],[[[-71.0655,42.348951],[-71.064431,42.348389],[-71.0644,42.348399],[-71.065469,42.34896],[-71.0655,42.348951]]],[[[-71.065469,42.349515],[-71.065269,42.349404],[-71.065294,42.349385],[-71.06391,42.348665],[-71.063877,42.348675],[-71.064157,42.348827],[-71.064133,42.348845],[-71.065438,42.349524],[-71.065469,42.349515]]],[[[-71.065405,42.351763],[-71.065395,42.351746],[-71.063223,42.35062],[-71.063192,42.35063],[-71.063645,42.350874],[-71.063193,42.350667],[-71.063162,42.350677],[-71.0635,42.350875],[-71.063173,42.350717],[-71.063147,42.350717],[-71.063147,42.350737],[-71.06488,42.351638],[-71.064909,42.351642],[-71.064923,42.351617],[-71.065059,42.351681],[-71.065083,42.351669],[-71.065067,42.351643],[-71.06536,42.351785],[-71.065384,42.351785],[-71.065405,42.351763]]],[[[-71.065352,42.3495],[-71.063886,42.348731],[-71.063847,42.348743],[-71.065313,42.349512],[-71.065352,42.3495]]],[[[-71.065319,42.355739],[-71.065305,42.355713],[-71.063494,42.354775],[-71.063441,42.354767],[-71.063415,42.354786],[-71.063426,42.354825],[-71.065236,42.355764],[-71.065289,42.355772],[-71.065319,42.355739]]],[[[-71.06526,42.349586],[-71.063874,42.34886],[-71.063841,42.34887],[-71.065226,42.349596],[-71.06526,42.349586]]],[[[-71.06507,42.350476],[-71.063684,42.34975],[-71.063651,42.34976],[-71.065036,42.350486],[-71.06507,42.350476]]],[[[-71.06496,42.350666],[-71.064429,42.350383],[-71.064418,42.350354],[-71.06343,42.349842],[-71.063189,42.349702],[-71.061017,42.348575],[-71.06096,42.348567],[-71.060932,42.348587],[-71.060943,42.348629],[-71.064255,42.350348],[-71.064372,42.350405],[-71.064404,42.350405],[-71.064926,42.350676],[-71.06496,42.350666]]],[[[-71.064937,42.349345],[-71.063868,42.348783],[-71.063837,42.348793],[-71.064906,42.349354],[-71.064937,42.349345]]],[[[-71.064933,42.350529],[-71.063627,42.349844],[-71.063596,42.349854],[-71.064902,42.350538],[-71.064933,42.350529]]],[[[-71.064885,42.3497],[-71.064244,42.34936],[-71.064264,42.349335],[-71.064253,42.349315],[-71.062398,42.348353],[-71.062355,42.348346],[-71.062334,42.348362],[-71.062342,42.348393],[-71.063786,42.349153],[-71.064854,42.349709],[-71.064885,42.3497]]],[[[-71.064872,42.348979],[-71.063803,42.348417],[-71.063772,42.348427],[-71.0637,42.348397],[-71.063682,42.34841],[-71.064751,42.348971],[-71.064782,42.348962],[-71.064853,42.348992],[-71.064872,42.348979]]],[[[-71.064849,42.350675],[-71.063543,42.34999],[-71.063512,42.35],[-71.064818,42.350684],[-71.064849,42.350675]]],[[[-71.064832,42.349845],[-71.061823,42.348281],[-71.061795,42.34828],[-71.061434,42.348108],[-71.061386,42.348108],[-71.061353,42.348133],[-71.061366,42.348182],[-71.061545,42.348275],[-71.06142,42.348224],[-71.06139,42.348239],[-71.061397,42.348265],[-71.063105,42.34915],[-71.063129,42.34915],[-71.06382,42.349502],[-71.063862,42.349502],[-71.063892,42.34948],[-71.063892,42.349449],[-71.063866,42.349429],[-71.064788,42.349896],[-71.064819,42.349887],[-71.063879,42.349393],[-71.063864,42.349368],[-71.064801,42.349854],[-71.064832,42.349845]]],[[[-71.064759,42.351093],[-71.063453,42.350408],[-71.063422,42.350418],[-71.064728,42.351102],[-71.064759,42.351093]]],[[[-71.06468,42.350814],[-71.063453,42.35017],[-71.063422,42.35018],[-71.064649,42.350823],[-71.06468,42.350814]]],[[[-71.06465,42.35088],[-71.063423,42.350236],[-71.063392,42.350246],[-71.064619,42.350889],[-71.06465,42.35088]]],[[[-71.064625,42.350914],[-71.063398,42.35027],[-71.063372,42.35027],[-71.062965,42.350062],[-71.062657,42.349896],[-71.062659,42.349884],[-71.061433,42.349245],[-71.06132,42.349206],[-71.061291,42.349228],[-71.061851,42.34953],[-71.061843,42.349548],[-71.061858,42.349573],[-71.063668,42.350512],[-71.063721,42.35052],[-71.063751,42.350487],[-71.064594,42.350923],[-71.064625,42.350914]]],[[[-71.06453,42.351481],[-71.063144,42.350755],[-71.063111,42.350765],[-71.064496,42.351491],[-71.06453,42.351481]]],[[[-71.064287,42.352831],[-71.063139,42.352228],[-71.063108,42.352238],[-71.064256,42.35284],[-71.064287,42.352831]]],[[[-71.064226,42.352843],[-71.063078,42.35224],[-71.063047,42.35225],[-71.064195,42.352852],[-71.064226,42.352843]]],[[[-71.06421,42.354018],[-71.062824,42.353292],[-71.062791,42.353302],[-71.064177,42.354028],[-71.06421,42.354018]]],[[[-71.06421,42.35393],[-71.062824,42.353204],[-71.062791,42.353214],[-71.062744,42.353193],[-71.062725,42.353207],[-71.064111,42.353933],[-71.064144,42.353923],[-71.06419,42.353944],[-71.06421,42.35393]]],[[[-71.064177,42.349193],[-71.062551,42.348339],[-71.062519,42.348334],[-71.062501,42.348354],[-71.064127,42.349208],[-71.064159,42.349213],[-71.064177,42.349193]]],[[[-71.064144,42.352854],[-71.062917,42.35221],[-71.062886,42.35222],[-71.06295,42.35226],[-71.062843,42.352205],[-71.062812,42.352215],[-71.06396,42.352817],[-71.063991,42.352808],[-71.064126,42.352867],[-71.064144,42.352854]]],[[[-71.063922,42.349314],[-71.062456,42.348545],[-71.062417,42.348557],[-71.063883,42.349326],[-71.063922,42.349314]]],[[[-71.063779,42.351391],[-71.063766,42.351367],[-71.063604,42.351283],[-71.063641,42.351265],[-71.063633,42.351234],[-71.0627,42.35075],[-71.062687,42.35073],[-71.060499,42.34959],[-71.060468,42.3496],[-71.060533,42.349641],[-71.06015,42.349443],[-71.060099,42.349459],[-71.060107,42.34949],[-71.061082,42.349996],[-71.061056,42.350015],[-71.060101,42.349536],[-71.060069,42.349541],[-71.060069,42.349571],[-71.06048,42.349784],[-71.060493,42.349819],[-71.062682,42.350954],[-71.062722,42.350954],[-71.06275,42.350933],[-71.063716,42.351421],[-71.063751,42.351421],[-71.063779,42.351391]]],[[[-71.063627,42.349651],[-71.063614,42.349629],[-71.06168,42.348626],[-71.061634,42.348619],[-71.061611,42.348636],[-71.06162,42.34867],[-71.063555,42.349673],[-71.063601,42.34968],[-71.063627,42.349651]]],[[[-71.063579,42.349715],[-71.063566,42.349691],[-71.061552,42.348646],[-71.061503,42.348639],[-71.061478,42.348657],[-71.061488,42.348694],[-71.063502,42.349738],[-71.063551,42.349745],[-71.063579,42.349715]]],[[[-71.063569,42.354546],[-71.063555,42.35452],[-71.061744,42.353582],[-71.061597,42.35354],[-71.060834,42.353154],[-71.059652,42.35253],[-71.05966,42.352513],[-71.058593,42.351957],[-71.058491,42.351968],[-71.058451,42.352018],[-71.058451,42.352042],[-71.058392,42.35206],[-71.058408,42.352098],[-71.060746,42.353332],[-71.060822,42.353341],[-71.061537,42.353711],[-71.061562,42.353711],[-71.061562,42.353692],[-71.061491,42.353655],[-71.062035,42.353932],[-71.062061,42.353932],[-71.063257,42.354551],[-71.06329,42.354541],[-71.061983,42.35385],[-71.060918,42.35332],[-71.060831,42.353292],[-71.060497,42.353127],[-71.060486,42.353095],[-71.060427,42.353064],[-71.060461,42.353048],[-71.06076,42.353202],[-71.060803,42.353202],[-71.060827,42.353186],[-71.063486,42.354571],[-71.063539,42.354579],[-71.063569,42.354546]]],[[[-71.063256,42.349885],[-71.06324,42.349856],[-71.060989,42.348688],[-71.060929,42.348679],[-71.060899,42.348701],[-71.060911,42.348746],[-71.063039,42.349867],[-71.063201,42.349925],[-71.06324,42.349914],[-71.063256,42.349885]]],[[[-71.063157,42.350833],[-71.063144,42.350811],[-71.062772,42.350618],[-71.062784,42.350605],[-71.062883,42.350645],[-71.062896,42.350622],[-71.061618,42.349967],[-71.06162,42.349953],[-71.060553,42.349397],[-71.060522,42.349407],[-71.060634,42.349472],[-71.060613,42.34948],[-71.06053,42.34944],[-71.060512,42.349453],[-71.060598,42.349504],[-71.060612,42.349531],[-71.061148,42.34981],[-71.060533,42.349493],[-71.060507,42.349493],[-71.060507,42.349513],[-71.063085,42.350855],[-71.063131,42.350862],[-71.063157,42.350833]]],[[[-71.063015,42.34999],[-71.061946,42.349428],[-71.061915,42.349438],[-71.062984,42.349999],[-71.063015,42.34999]]],[[[-71.062992,42.350432],[-71.061923,42.34987],[-71.061892,42.34988],[-71.062961,42.350441],[-71.062992,42.350432]]],[[[-71.062962,42.350478],[-71.061893,42.349916],[-71.061671,42.349825],[-71.061686,42.349821],[-71.061686,42.349802],[-71.060623,42.34925],[-71.060592,42.34926],[-71.061267,42.349617],[-71.061251,42.34962],[-71.060603,42.34929],[-71.060577,42.34929],[-71.060577,42.34931],[-71.060668,42.349356],[-71.06065,42.349365],[-71.06057,42.349329],[-71.060557,42.349352],[-71.060636,42.349392],[-71.06065,42.349415],[-71.06184,42.350033],[-71.061837,42.350054],[-71.062901,42.350605],[-71.062932,42.350596],[-71.062499,42.350364],[-71.062527,42.350355],[-71.062925,42.350561],[-71.06295,42.350561],[-71.06295,42.350542],[-71.062542,42.35033],[-71.062529,42.350303],[-71.061669,42.349858],[-71.062394,42.350232],[-71.06242,42.350232],[-71.062931,42.350487],[-71.062962,42.350478]]],[[[-71.062952,42.351707],[-71.061486,42.350938],[-71.061447,42.35095],[-71.062913,42.351719],[-71.062952,42.351707]]],[[[-71.062877,42.34983],[-71.062864,42.349808],[-71.06093,42.348805],[-71.060884,42.348798],[-71.060861,42.348815],[-71.06087,42.348849],[-71.062805,42.349852],[-71.062851,42.349859],[-71.062877,42.34983]]],[[[-71.062862,42.350752],[-71.061793,42.35019],[-71.061762,42.3502],[-71.062831,42.350761],[-71.062862,42.350752]]],[[[-71.062674,42.349389],[-71.061605,42.348827],[-71.061574,42.348837],[-71.062643,42.349398],[-71.062674,42.349389]]],[[[-71.062672,42.349052],[-71.061603,42.34849],[-71.061572,42.3485],[-71.062641,42.349061],[-71.062672,42.349052]]],[[[-71.062482,42.351674],[-71.061413,42.351112],[-71.061382,42.351122],[-71.062451,42.351683],[-71.062482,42.351674]]],[[[-71.062461,42.351732],[-71.061392,42.35117],[-71.061361,42.35118],[-71.06243,42.351741],[-71.062461,42.351732]]],[[[-71.062435,42.351792],[-71.061366,42.35123],[-71.061335,42.35124],[-71.062404,42.351801],[-71.062435,42.351792]]],[[[-71.062416,42.351841],[-71.061347,42.351279],[-71.061316,42.351289],[-71.062385,42.35185],[-71.062416,42.351841]]],[[[-71.062302,42.355326],[-71.061233,42.354764],[-71.061202,42.354774],[-71.062271,42.355335],[-71.062302,42.355326]]],[[[-71.062274,42.354367],[-71.062263,42.354347],[-71.061478,42.35394],[-71.06148,42.353926],[-71.060413,42.35337],[-71.060344,42.353394],[-71.060352,42.353425],[-71.062208,42.354388],[-71.06225,42.354394],[-71.062274,42.354367]]],[[[-71.062252,42.355468],[-71.061183,42.354906],[-71.061152,42.354916],[-71.062221,42.355477],[-71.062252,42.355468]]],[[[-71.062124,42.351089],[-71.06211,42.351063],[-71.061349,42.350669],[-71.06136,42.350651],[-71.060293,42.350095],[-71.060267,42.350095],[-71.060267,42.350114],[-71.06022,42.350136],[-71.060231,42.350175],[-71.062041,42.351114],[-71.062094,42.351122],[-71.062124,42.351089]]],[[[-71.062119,42.354455],[-71.062106,42.354431],[-71.060458,42.353574],[-71.06048,42.353556],[-71.05957,42.353082],[-71.059626,42.353092],[-71.059847,42.353206],[-71.059874,42.353206],[-71.059874,42.353186],[-71.058494,42.35247],[-71.058461,42.35248],[-71.058533,42.352525],[-71.05837,42.352457],[-71.058371,42.352443],[-71.057304,42.351887],[-71.057278,42.351887],[-71.056253,42.351366],[-71.056222,42.351376],[-71.05737,42.351978],[-71.057396,42.351978],[-71.058354,42.352462],[-71.058353,42.352475],[-71.059382,42.353011],[-71.058423,42.352518],[-71.058282,42.352462],[-71.056234,42.351401],[-71.056203,42.351411],[-71.058243,42.352471],[-71.057742,42.352212],[-71.0577,42.352219],[-71.057605,42.35217],[-71.05751,42.352141],[-71.05749,42.352148],[-71.057351,42.35209],[-71.057311,42.35211],[-71.058937,42.352964],[-71.058969,42.352969],[-71.058986,42.352952],[-71.059201,42.353049],[-71.059233,42.353044],[-71.059326,42.353073],[-71.059326,42.353054],[-71.059285,42.353033],[-71.059406,42.353081],[-71.059406,42.353062],[-71.059338,42.353027],[-71.05954,42.35313],[-71.059571,42.353121],[-71.059795,42.353231],[-71.059741,42.353248],[-71.059423,42.35309],[-71.059392,42.3531],[-71.062042,42.354478],[-71.062091,42.354485],[-71.062119,42.354455]]],[[[-71.062102,42.349042],[-71.061033,42.34848],[-71.061002,42.34849],[-71.062071,42.349051],[-71.062102,42.349042]]],[[[-71.061907,42.352047],[-71.061894,42.352025],[-71.05996,42.351022],[-71.059914,42.351015],[-71.059891,42.351032],[-71.0599,42.351066],[-71.061835,42.352069],[-71.061881,42.352076],[-71.061907,42.352047]]],[[[-71.061862,42.350565],[-71.061851,42.350547],[-71.060075,42.349625],[-71.060036,42.34962],[-71.060017,42.349634],[-71.060025,42.349663],[-71.061801,42.350584],[-71.06184,42.35059],[-71.061862,42.350565]]],[[[-71.061651,42.353876],[-71.061395,42.353736],[-71.061385,42.353696],[-71.059574,42.352758],[-71.059521,42.35275],[-71.059495,42.352769],[-71.059506,42.352808],[-71.061316,42.353747],[-71.061369,42.353755],[-71.06162,42.353885],[-71.061651,42.353876]]],[[[-71.061568,42.350108],[-71.060499,42.349546],[-71.060468,42.349556],[-71.061537,42.350117],[-71.061568,42.350108]]],[[[-71.061531,42.350477],[-71.060383,42.349874],[-71.060352,42.349884],[-71.0615,42.350486],[-71.061531,42.350477]]],[[[-71.061459,42.352649],[-71.061445,42.352623],[-71.059634,42.351685],[-71.059581,42.351677],[-71.059448,42.351613],[-71.05941,42.351615],[-71.059093,42.35145],[-71.059062,42.35146],[-71.059511,42.3517],[-71.059511,42.35172],[-71.060892,42.352436],[-71.060918,42.352437],[-71.061392,42.352682],[-71.061429,42.352682],[-71.061459,42.352649]]],[[[-71.06144,42.351933],[-71.059893,42.351121],[-71.059851,42.351128],[-71.059851,42.351142],[-71.061395,42.351947],[-71.061424,42.351951],[-71.06144,42.351933]]],[[[-71.061422,42.353999],[-71.060353,42.353437],[-71.060322,42.353447],[-71.061391,42.354008],[-71.061422,42.353999]]],[[[-71.061382,42.350589],[-71.060313,42.350027],[-71.060282,42.350037],[-71.061351,42.350598],[-71.061382,42.350589]]],[[[-71.06132,42.3558],[-71.06127,42.355753],[-71.061176,42.355704],[-71.061166,42.355636],[-71.059389,42.354714],[-71.05935,42.354709],[-71.059331,42.354723],[-71.059331,42.354743],[-71.059369,42.354767],[-71.059377,42.354791],[-71.059522,42.354879],[-71.059527,42.354907],[-71.059619,42.354969],[-71.061247,42.355813],[-71.0613,42.355822],[-71.06132,42.3558]]],[[[-71.061312,42.352376],[-71.061297,42.35235],[-71.061249,42.352325],[-71.061237,42.35229],[-71.059129,42.351197],[-71.059076,42.351205],[-71.059061,42.35123],[-71.059076,42.351255],[-71.059124,42.35128],[-71.059125,42.351304],[-71.059149,42.351322],[-71.05911,42.351329],[-71.058283,42.3509],[-71.058189,42.350877],[-71.056641,42.350074],[-71.056601,42.350094],[-71.056816,42.350217],[-71.056803,42.35024],[-71.057867,42.350791],[-71.057898,42.350782],[-71.058791,42.351238],[-71.058861,42.351254],[-71.059094,42.351367],[-71.059502,42.351588],[-71.059507,42.351617],[-71.061215,42.352502],[-71.061257,42.352489],[-71.061282,42.352443],[-71.061254,42.35241],[-71.061297,42.352401],[-71.061312,42.352376]]],[[[-71.060846,42.352461],[-71.0606,42.352325],[-71.060597,42.352302],[-71.059058,42.351503],[-71.059016,42.35151],[-71.059016,42.351524],[-71.059343,42.351697],[-71.059343,42.35171],[-71.060807,42.352473],[-71.060846,42.352461]]],[[[-71.06079,42.355265],[-71.06078,42.355248],[-71.060333,42.355016],[-71.060334,42.354996],[-71.058954,42.35428],[-71.058921,42.35429],[-71.059038,42.354368],[-71.059037,42.354402],[-71.060745,42.355287],[-71.06077,42.355287],[-71.06079,42.355265]]],[[[-71.060782,42.352537],[-71.060771,42.352507],[-71.058995,42.351585],[-71.058956,42.35158],[-71.058937,42.351594],[-71.058945,42.351623],[-71.060721,42.352544],[-71.060759,42.352554],[-71.060782,42.352537]]],[[[-71.060662,42.352659],[-71.060651,42.352641],[-71.058875,42.351719],[-71.058836,42.351714],[-71.058817,42.351728],[-71.058825,42.351757],[-71.060601,42.352678],[-71.06064,42.352684],[-71.060662,42.352659]]],[[[-71.06062,42.35257],[-71.06061,42.352553],[-71.058913,42.351673],[-71.05889,42.351666],[-71.05886,42.351681],[-71.058867,42.351707],[-71.060564,42.352587],[-71.060599,42.352592],[-71.06062,42.35257]]],[[[-71.060612,42.352701],[-71.060601,42.352683],[-71.058825,42.351761],[-71.058786,42.351756],[-71.058767,42.35177],[-71.058775,42.351799],[-71.060551,42.35272],[-71.06059,42.352726],[-71.060612,42.352701]]],[[[-71.06061,42.352807],[-71.060599,42.352787],[-71.059911,42.35243],[-71.05992,42.352414],[-71.058773,42.351816],[-71.058701,42.351818],[-71.05868,42.351834],[-71.058688,42.351865],[-71.060544,42.352828],[-71.060586,42.352834],[-71.06061,42.352807]]],[[[-71.060582,42.351649],[-71.059513,42.351087],[-71.059482,42.351097],[-71.060551,42.351658],[-71.060582,42.351649]]],[[[-71.060542,42.351722],[-71.059473,42.35116],[-71.059442,42.35117],[-71.060511,42.351731],[-71.060542,42.351722]]],[[[-71.06039,42.352786],[-71.06038,42.352769],[-71.058672,42.351884],[-71.058637,42.351889],[-71.05863,42.351915],[-71.058597,42.35193],[-71.060063,42.352699],[-71.060102,42.352687],[-71.060345,42.352808],[-71.060369,42.352808],[-71.06039,42.352786]]],[[[-71.060248,42.353846],[-71.059179,42.353284],[-71.059148,42.353294],[-71.060217,42.353855],[-71.060248,42.353846]]],[[[-71.06017,42.35228],[-71.058943,42.351636],[-71.058912,42.351646],[-71.060139,42.352289],[-71.06017,42.35228]]],[[[-71.060152,42.353839],[-71.059083,42.353277],[-71.059052,42.353287],[-71.058027,42.352758],[-71.057996,42.352768],[-71.060031,42.353844],[-71.060062,42.353835],[-71.059094,42.353326],[-71.060121,42.353848],[-71.060152,42.353839]]],[[[-71.059928,42.35382],[-71.058859,42.353258],[-71.058828,42.353268],[-71.059897,42.353829],[-71.059928,42.35382]]],[[[-71.059822,42.35382],[-71.058753,42.353258],[-71.058722,42.353268],[-71.058003,42.352895],[-71.057972,42.352905],[-71.059041,42.353466],[-71.059072,42.353457],[-71.059791,42.353829],[-71.059822,42.35382]]],[[[-71.059531,42.35269],[-71.058383,42.352087],[-71.058352,42.352097],[-71.0595,42.352699],[-71.059531,42.35269]]],[[[-71.059102,42.353217],[-71.05815,42.352716],[-71.058164,42.352712],[-71.058164,42.352693],[-71.056863,42.352018],[-71.056832,42.352028],[-71.056717,42.351984],[-71.055883,42.351551],[-71.055852,42.351561],[-71.057158,42.352245],[-71.057184,42.352246],[-71.057939,42.352637],[-71.05797,42.352628],[-71.058021,42.352652],[-71.058007,42.352655],[-71.058007,42.352675],[-71.059071,42.353226],[-71.059102,42.353217]]],[[[-71.058719,42.350783],[-71.058669,42.350745],[-71.058684,42.350722],[-71.058673,42.350702],[-71.058095,42.350402],[-71.058096,42.350382],[-71.057033,42.34983],[-71.057007,42.34983],[-71.056805,42.349733],[-71.056754,42.349749],[-71.056762,42.34978],[-71.056967,42.349886],[-71.05696,42.349912],[-71.05676,42.349816],[-71.05673,42.349831],[-71.056737,42.349857],[-71.058445,42.350742],[-71.05848,42.350737],[-71.058487,42.350711],[-71.058675,42.350805],[-71.058699,42.350805],[-71.058719,42.350783]]],[[[-71.058584,42.350854],[-71.05857,42.350828],[-71.056759,42.34989],[-71.056706,42.349882],[-71.05668,42.349901],[-71.056691,42.34994],[-71.058501,42.350879],[-71.058554,42.350887],[-71.058584,42.350854]]],[[[-71.058539,42.350945],[-71.058525,42.350919],[-71.056714,42.349981],[-71.056661,42.349973],[-71.056635,42.349992],[-71.056646,42.350031],[-71.058456,42.35097],[-71.058509,42.350978],[-71.058539,42.350945]]],[[[-71.05852,42.351559],[-71.057293,42.350915],[-71.057262,42.350925],[-71.056638,42.350603],[-71.056607,42.350613],[-71.057913,42.351297],[-71.057944,42.351288],[-71.058489,42.351568],[-71.05852,42.351559]]],[[[-71.058491,42.3523],[-71.057421,42.351738],[-71.057422,42.351718],[-71.056359,42.351166],[-71.056328,42.351176],[-71.057319,42.351697],[-71.057317,42.351717],[-71.05846,42.352309],[-71.058491,42.3523]]],[[[-71.05849,42.351697],[-71.057263,42.351053],[-71.057232,42.351063],[-71.058459,42.351706],[-71.05849,42.351697]]],[[[-71.058402,42.352302],[-71.056143,42.351135],[-71.056112,42.351145],[-71.058371,42.352311],[-71.058402,42.352302]]],[[[-71.058369,42.351773],[-71.058355,42.351747],[-71.056544,42.350809],[-71.056491,42.350801],[-71.056465,42.35082],[-71.056476,42.350859],[-71.058286,42.351798],[-71.058339,42.351806],[-71.058369,42.351773]]],[[[-71.05832,42.351065],[-71.05831,42.351048],[-71.056613,42.350168],[-71.05659,42.350161],[-71.05656,42.350176],[-71.056567,42.350202],[-71.056767,42.350317],[-71.057831,42.350868],[-71.058275,42.351087],[-71.058299,42.351087],[-71.05832,42.351065]]],[[[-71.058272,42.351962],[-71.057203,42.3514],[-71.057177,42.3514],[-71.056221,42.350923],[-71.05619,42.350933],[-71.057496,42.351617],[-71.057522,42.351617],[-71.057522,42.351599],[-71.058241,42.351971],[-71.058272,42.351962]]],[[[-71.058262,42.351102],[-71.057193,42.35054],[-71.057162,42.35055],[-71.058231,42.351111],[-71.058262,42.351102]]],[[[-71.058211,42.351184],[-71.057142,42.350622],[-71.057111,42.350632],[-71.05818,42.351193],[-71.058211,42.351184]]],[[[-71.058165,42.354001],[-71.056479,42.353117],[-71.05637,42.353073],[-71.056347,42.35309],[-71.05623,42.353037],[-71.056212,42.35305],[-71.057281,42.353611],[-71.057312,42.353602],[-71.05812,42.354015],[-71.058149,42.354019],[-71.058165,42.354001]]],[[[-71.058158,42.351085],[-71.057089,42.350523],[-71.057058,42.350533],[-71.058127,42.351094],[-71.058158,42.351085]]],[[[-71.057909,42.351355],[-71.056603,42.35067],[-71.056572,42.35068],[-71.057878,42.351364],[-71.057909,42.351355]]],[[[-71.057845,42.355468],[-71.056298,42.354656],[-71.056256,42.354663],[-71.056256,42.354677],[-71.0578,42.355482],[-71.057829,42.355486],[-71.057845,42.355468]]],[[[-71.057769,42.352595],[-71.056073,42.3517],[-71.056042,42.35171],[-71.055854,42.351612],[-71.055823,42.351622],[-71.057341,42.35242],[-71.057367,42.35242],[-71.057738,42.352604],[-71.057769,42.352595]]],[[[-71.057699,42.351772],[-71.056393,42.351087],[-71.056362,42.351097],[-71.057668,42.351781],[-71.057699,42.351772]]],[[[-71.05769,42.355466],[-71.056304,42.35474],[-71.056271,42.35475],[-71.057657,42.355476],[-71.05769,42.355466]]],[[[-71.057679,42.353165],[-71.057665,42.353139],[-71.055839,42.352193],[-71.055786,42.352201],[-71.055775,42.35224],[-71.055741,42.352262],[-71.055752,42.352301],[-71.057578,42.353248],[-71.057631,42.35324],[-71.057641,42.353201],[-71.057679,42.353165]]],[[[-71.057639,42.355605],[-71.056333,42.35492],[-71.056302,42.35493],[-71.057608,42.355614],[-71.057639,42.355605]]],[[[-71.057629,42.355511],[-71.056323,42.354826],[-71.056292,42.354836],[-71.057598,42.35552],[-71.057629,42.355511]]],[[[-71.057557,42.351517],[-71.056251,42.350832],[-71.05622,42.350842],[-71.057526,42.351526],[-71.057557,42.351517]]],[[[-71.057487,42.351711],[-71.056181,42.351026],[-71.05615,42.351036],[-71.057456,42.35172],[-71.057487,42.351711]]],[[[-71.057486,42.354216],[-71.057476,42.354199],[-71.055779,42.353319],[-71.055744,42.353314],[-71.055726,42.353327],[-71.055733,42.353353],[-71.05743,42.354233],[-71.057466,42.354238],[-71.057486,42.354216]]],[[[-71.057351,42.352043],[-71.056203,42.35144],[-71.056172,42.351449],[-71.055972,42.351345],[-71.055941,42.351355],[-71.057247,42.352039],[-71.057278,42.352031],[-71.057333,42.352056],[-71.057351,42.352043]]],[[[-71.057342,42.354233],[-71.055716,42.353379],[-71.055684,42.353374],[-71.055666,42.353394],[-71.057292,42.354248],[-71.057324,42.354253],[-71.057342,42.354233]]],[[[-71.057254,42.352087],[-71.055948,42.351402],[-71.055917,42.351412],[-71.057223,42.352096],[-71.057254,42.352087]]],[[[-71.057221,42.352157],[-71.055915,42.351472],[-71.055884,42.351482],[-71.05719,42.352166],[-71.057221,42.352157]]],[[[-71.057109,42.352402],[-71.055803,42.351717],[-71.055772,42.351727],[-71.057078,42.352411],[-71.057109,42.352402]]],[[[-71.057089,42.352451],[-71.055783,42.351766],[-71.055752,42.351776],[-71.057058,42.35246],[-71.057089,42.352451]]],[[[-71.057026,42.354146],[-71.05564,42.35342],[-71.055607,42.35343],[-71.056993,42.354156],[-71.057026,42.354146]]],[[[-71.056859,42.354172],[-71.055553,42.353487],[-71.055522,42.353497],[-71.056828,42.354181],[-71.056859,42.354172]]],[[[-71.056857,42.354511],[-71.056312,42.354217],[-71.056324,42.354199],[-71.055257,42.353643],[-71.055199,42.353652],[-71.055181,42.353672],[-71.056807,42.354526],[-71.056839,42.354531],[-71.056857,42.354511]]],[[[-71.056652,42.354457],[-71.055186,42.353688],[-71.055147,42.3537],[-71.056613,42.354469],[-71.056652,42.354457]]],[[[-71.056641,42.354123],[-71.055493,42.35352],[-71.055462,42.35353],[-71.05661,42.354132],[-71.056641,42.354123]]]]},"properties":{"kind":"tree"}}]}