{"type":"FeatureCollection","features":[{"type":"Feature","geometry":{"type":"MultiPolygon","coordinates":[[[[-71.068105,42.352843],[-71.068082,42.352709],[-71.067822,42.352123],[-71.067217,42.351551],[-71.067317,42.351544],[-71.067307,42.351446],[-71.067346,42.351393],[-71.067295,42.351334],[-71.067282,42.351215],[-71.067177,42.351094],[-71.066298,42.350263],[-71.066327,42.350121],[-71.066383,42.350158],[-71.06646,42.350134],[-71.066467,42.350067],[-71.066422,42.349935],[-71.066338,42.349803],[-71.066114,42.349592],[-71.06612,42.349576],[-71.066312,42.349757],[-71.066376,42.349737],[-71.06632,42.349639],[-71.066146,42.349475],[-71.066155,42.349399],[-71.065305,42.348595],[-71.065558,42.348538],[-71.065562,42.348518],[-71.065454,42.348398],[-71.065585,42.348279],[-71.06559,42.348253],[-71.06573,42.348154],[-71.065731,42.348067],[-71.065319,42.347677],[-71.065257,42.347643],[-71.064894,42.347587],[-71.064503,42.347783],[-71.064389,42.348045],[-71.06435,42.348185],[-71.064113,42.347947],[-71.063968,42.347919],[-71.063883,42.347989],[-71.063856,42.347985],[-71.06383,42.348078],[-71.063606,42.347866],[-71.06346,42.347843],[-71.063394,42.348087],[-71.063301,42.347999],[-71.062961,42.347921],[-71.062929,42.348],[-71.063094,42.348156],[-71.063072,42.348153],[-71.062855,42.347962],[-71.062735,42.347939],[-71.062689,42.348052],[-71.062766,42.348129],[-71.062667,42.348107],[-71.062651,42.348147],[-71.062446,42.347953],[-71.062105,42.347866],[-71.061866,42.34764],[-71.061712,42.347604],[-71.061566,42.347954],[-71.061555,42.348046],[-71.061834,42.34831],[-71.061766,42.348478],[-71.06164,42.348359],[-71.061414,42.348308],[-71.061409,42.348319],[-71.061312,42.348227],[-71.061184,42.348198],[-71.06117,42.348215],[-71.061068,42.348118],[-71.061011,42.348097],[-71.060549,42.348739],[-71.060836,42.34901],[-71.060744,42.349244],[-71.061036,42.34952],[-71.061285,42.349622],[-71.061203,42.349828],[-71.060443,42.349109],[-71.060321,42.349063],[-71.060204,42.349326],[-71.059925,42.350048],[-71.060387,42.350485],[-71.060381,42.350499],[-71.0604,42.350521],[-71.06026,42.350485],[-71.060255,42.350498],[-71.060116,42.350367],[-71.059867,42.350296],[-71.059797,42.350488],[-71.059471,42.35018],[-71.059395,42.350163],[-71.059452,42.350018],[-71.059423,42.349985],[-71.059471,42.349872],[-71.059318,42.349726],[-71.059179,42.349693],[-71.05916,42.349736],[-71.058071,42.348706],[-71.057613,42.348605],[-71.057529,42.348814],[-71.058031,42.349289],[-71.057926,42.349266],[-71.057859,42.349433],[-71.057973,42.349541],[-71.057962,42.349568],[-71.057872,42.349548],[-71.057853,42.349597],[-71.057982,42.349719],[-71.058072,42.349739],[-71.058261,42.349918],[-71.057874,42.34983],[-71.057692,42.349925],[-71.057505,42.349748],[-71.057311,42.349706],[-71.056775,42.349199],[-71.056596,42.349149],[-71.056474,42.349184],[-71.057203,42.348095],[-71.057193,42.348036],[-71.056673,42.347544],[-71.055908,42.347262],[-71.054533,42.349309],[-71.054519,42.349436],[-71.054447,42.34941],[-71.053477,42.350853],[-71.05436,42.351688],[-71.054557,42.351761],[-71.054479,42.351779],[-71.054307,42.351954],[-71.055145,42.352746],[-71.055671,42.353024],[-71.055831,42.353075],[-71.055999,42.3531],[-71.056176,42.35306],[-71.056296,42.35297],[-71.056347,42.352908],[-71.056834,42.353368],[-71.056861,42.353373],[-71.056928,42.353349],[-71.057193,42.353599],[-71.057182,42.353616],[-71.056948,42.353395],[-71.056816,42.353425],[-71.056638,42.353263],[-71.056242,42.353099],[-71.055998,42.353225],[-71.056026,42.35333],[-71.056356,42.353642],[-71.05631,42.353684],[-71.055897,42.353294],[-71.055573,42.353469],[-71.055617,42.353515],[-71.055589,42.353497],[-71.055421,42.353589],[-71.055377,42.353636],[-71.055342,42.353603],[-71.054915,42.353838],[-71.055335,42.35425],[-71.055276,42.35427],[-71.054903,42.35392],[-71.054834,42.353899],[-71.054776,42.353908],[-71.054391,42.354111],[-71.054359,42.354149],[-71.054358,42.354189],[-71.054586,42.35444],[-71.054788,42.354631],[-71.054775,42.354643],[-71.05498,42.354839],[-71.056132,42.355928],[-71.056151,42.35592],[-71.058163,42.357822],[-71.05823,42.357836],[-71.058318,42.357788],[-71.059532,42.358923],[-71.059984,42.358879],[-71.059883,42.3583],[-71.058344,42.356845],[-71.058337,42.356808],[-71.059797,42.358189],[-71.06058,42.35813],[-71.06056,42.357979],[-71.058144,42.355694],[-71.058184,42.355682],[-71.058173,42.355577],[-71.058279,42.355678],[-71.058356,42.355704],[-71.058471,42.355689],[-71.058577,42.355651],[-71.058657,42.355701],[-71.058849,42.355704],[-71.060091,42.356878],[-71.060181,42.356909],[-71.060383,42.3571],[-71.060537,42.357151],[-71.060917,42.35751],[-71.061277,42.357635],[-71.06136,42.357499],[-71.061624,42.357605],[-71.06187,42.357391],[-71.061933,42.357313],[-71.060461,42.355916],[-71.060545,42.355747],[-71.060254,42.355473],[-71.060387,42.355494],[-71.06072,42.355758],[-71.06083,42.355836],[-71.060846,42.355824],[-71.060873,42.355833],[-71.061383,42.356217],[-71.06144,42.356176],[-71.061487,42.35622],[-71.061712,42.356235],[-71.061892,42.356405],[-71.062463,42.356443],[-71.062482,42.356285],[-71.062853,42.356303],[-71.062809,42.355928],[-71.062958,42.35576],[-71.062908,42.355713],[-71.063086,42.355622],[-71.063341,42.355862],[-71.063431,42.355913],[-71.063582,42.355755],[-71.063809,42.355876],[-71.063834,42.355852],[-71.063862,42.355878],[-71.064327,42.356108],[-71.064371,42.356099],[-71.064426,42.355998],[-71.065213,42.356742],[-71.065443,42.356812],[-71.065523,42.356888],[-71.065764,42.356959],[-71.065856,42.356788],[-71.066172,42.357076],[-71.066658,42.357074],[-71.066697,42.356821],[-71.065248,42.35545],[-71.065307,42.355348],[-71.066382,42.356365],[-71.066461,42.356403],[-71.066645,42.356406],[-71.066816,42.356537],[-71.06692,42.356568],[-71.066974,42.356471],[-71.066888,42.356072],[-71.066774,42.355949],[-71.065325,42.354578],[-71.065373,42.354405],[-71.065395,42.354407],[-71.065436,42.354358],[-71.06572,42.354622],[-71.065755,42.354637],[-71.065812,42.354623],[-71.065825,42.35458],[-71.065665,42.354422],[-71.066214,42.354483],[-71.066249,42.354295],[-71.066233,42.354137],[-71.066151,42.354059],[-71.066482,42.354101],[-71.066661,42.354269],[-71.066873,42.354293],[-71.06693,42.35409],[-71.067063,42.353986],[-71.067088,42.353901],[-71.066622,42.35346],[-71.066661,42.353462],[-71.066683,42.353308],[-71.066812,42.35343],[-71.067009,42.353445],[-71.067056,42.353157],[-71.067034,42.353136],[-71.067138,42.353133],[-71.067122,42.352843],[-71.067045,42.35277],[-71.067922,42.352888],[-71.068105,42.352843]],[[-71.064264,42.34861],[-71.064221,42.348724],[-71.064069,42.34858],[-71.064264,42.34861]],[[-71.063888,42.348157],[-71.063882,42.348156],[-71.063884,42.348149],[-71.063888,42.348157]],[[-71.063618,42.348432],[-71.063599,42.348497],[-71.063383,42.348293],[-71.063392,42.348283],[-71.063483,42.348305],[-71.063618,42.348432]],[[-71.062492,42.349419],[-71.062398,42.349376],[-71.062408,42.349338],[-71.062492,42.349419]],[[-71.062381,42.348827],[-71.062274,42.349088],[-71.062186,42.349005],[-71.06229,42.348747],[-71.062381,42.348827]],[[-71.061596,42.352552],[-71.061487,42.352561],[-71.061492,42.352631],[-71.061476,42.352447],[-71.061596,42.352552]],[[-71.060699,42.353272],[-71.06063,42.353339],[-71.060413,42.353134],[-71.060444,42.353136],[-71.060426,42.353013],[-71.060699,42.353272]],[[-71.060541,42.351715],[-71.06052,42.351719],[-71.06042,42.351625],[-71.060541,42.351715]],[[-71.060105,42.350879],[-71.059992,42.351119],[-71.060082,42.350874],[-71.060105,42.350879]],[[-71.059984,42.351311],[-71.059912,42.351296],[-71.059927,42.351257],[-71.059984,42.351311]],[[-71.059799,42.351968],[-71.059626,42.351804],[-71.059399,42.351845],[-71.059494,42.35169],[-71.059542,42.351578],[-71.059463,42.351503],[-71.059729,42.351563],[-71.059799,42.351968]],[[-71.059441,42.352215],[-71.059248,42.352033],[-71.059385,42.351865],[-71.059441,42.352215]],[[-71.058967,42.352532],[-71.058718,42.352299],[-71.05879,42.35231],[-71.058775,42.35235],[-71.058967,42.352532]],[[-71.056614,42.35145],[-71.056294,42.351331],[-71.056079,42.351765],[-71.056418,42.352085],[-71.056203,42.352031],[-71.055768,42.35162],[-71.055498,42.351545],[-71.055159,42.351623],[-71.055628,42.350938],[-71.055985,42.351226],[-71.056043,42.351242],[-71.056059,42.35121],[-71.0562,42.351231],[-71.056206,42.351218],[-71.056395,42.351213],[-71.056411,42.351228],[-71.056401,42.351249],[-71.056614,42.35145]]],[[[-71.067299,42.349301],[-71.065995,42.348062],[-71.065837,42.348044],[-71.065752,42.348444],[-71.065809,42.348499],[-71.065804,42.348522],[-71.066928,42.349585],[-71.067024,42.349596],[-71.067034,42.349525],[-71.066961,42.349456],[-71.066966,42.34943],[-71.067051,42.349439],[-71.067059,42.349396],[-71.067271,42.349421],[-71.067299,42.349301]]]]},"properties":{"kind":"building"}},{"type":"Feature","geometry":{"type":"MultiPolygon","coordinates":[[[[-71.066584,42.353949],[-71.066573,42.353907],[-71.066542,42.353872],[-71.06631,42.353653],[-71.066332,42.35361],[-71.066318,42.353576],[-71.066392,42.353596],[-71.066438,42.35359],[-71.066503,42.353542],[-71.066512,42.353508],[-71.06649,42.35346],[-71.066547,42.353412],[-71.066558,42.353371],[-71.066547,42.353329],[-71.066178,42.352975],[-71.066227,42.35295],[-71.066271,42.352981],[-71.066328,42.352981],[-71.066368,42.352951],[-71.066368,42.352909],[-71.066,42.352558],[-71.065947,42.352542],[-71.065885,42.352569],[-71.065841,42.352538],[-71.065759,42.35255],[-71.065688,42.352518],[-71.065619,42.352552],[-71.065613,42.352573],[-71.065634,42.35261],[-71.065574,42.352593],[-71.065516,42.35261],[-71.065401,42.352516],[-71.065321,42.352516],[-71.065288,42.352533],[-71.065257,42.352587],[-71.065265,42.352616],[-71.065475,42.352818],[-71.065465,42.352849],[-71.065511,42.352917],[-71.065496,42.352923],[-71.065081,42.35253],[-71.065049,42.352515],[-71.064975,42.352515],[-71.064922,42.352553],[-71.064922,42.352609],[-71.065091,42.352772],[-71.065105,42.352816],[-71.065081,42.352852],[-71.065094,42.352876],[-71.065032,42.352908],[-71.065032,42.352948],[-71.065295,42.3532],[-71.065265,42.353195],[-71.065197,42.353132],[-71.065148,42.353125],[-71.06512,42.353156],[-71.065175,42.35322],[-71.065152,42.353238],[-71.06483,42.352952],[-71.064791,42.352933],[-71.064699,42.352933],[-71.064634,42.352981],[-71.064625,42.353015],[-71.064656,42.353073],[-71.064658,42.353148],[-71.064776,42.353265],[-71.064757,42.353275],[-71.064659,42.353241],[-71.064581,42.353265],[-71.064549,42.353323],[-71.064557,42.353354],[-71.064676,42.35347],[-71.064592,42.353467],[-71.064538,42.353508],[-71.06453,42.353536],[-71.06456,42.353589],[-71.064904,42.353914],[-71.064823,42.353905],[-71.064715,42.353844],[-71.064464,42.353606],[-71.064418,42.353592],[-71.064358,42.353622],[-71.064358,42.353658],[-71.064319,42.35371],[-71.064332,42.353737],[-71.064284,42.353761],[-71.064284,42.353793],[-71.064313,42.353822],[-71.064258,42.353857],[-71.064258,42.353905],[-71.064238,42.353945],[-71.0643,42.354024],[-71.064238,42.354041],[-71.064214,42.354083],[-71.06422,42.354106],[-71.064296,42.354181],[-71.064207,42.354121],[-71.064149,42.354121],[-71.064117,42.354143],[-71.063913,42.35395],[-71.063878,42.353945],[-71.06386,42.353958],[-71.063867,42.353984],[-71.064086,42.354191],[-71.064138,42.354223],[-71.064074,42.354252],[-71.064088,42.354304],[-71.064349,42.35455],[-71.064363,42.354593],[-71.064664,42.354877],[-71.064754,42.354922],[-71.064734,42.354932],[-71.064067,42.354344],[-71.063979,42.354357],[-71.063955,42.354399],[-71.063968,42.35443],[-71.063903,42.354482],[-71.063892,42.354523],[-71.063903,42.354564],[-71.063935,42.354599],[-71.064461,42.355097],[-71.064508,42.35512],[-71.064578,42.355127],[-71.064618,42.355153],[-71.064672,42.355153],[-71.064717,42.355104],[-71.064696,42.355067],[-71.064707,42.355008],[-71.065178,42.355461],[-71.065212,42.355477],[-71.065251,42.355483],[-71.065325,42.355461],[-71.065347,42.355436],[-71.065347,42.355377],[-71.064835,42.354883],[-71.064918,42.354862],[-71.065198,42.355108],[-71.065308,42.35511],[-71.065373,42.35509],[-71.065501,42.355166],[-71.065565,42.355162],[-71.065609,42.355203],[-71.065661,42.355219],[-71.065714,42.355203],[-71.065733,42.355153],[-71.065979,42.355386],[-71.066066,42.355412],[-71.066113,42.355405],[-71.06618,42.355356],[-71.06618,42.355286],[-71.065647,42.354779],[-71.065607,42.354759],[-71.065513,42.354759],[-71.065444,42.354711],[-71.065392,42.354711],[-71.065219,42.354587],[-71.065232,42.354545],[-71.065145,42.354461],[-71.065171,42.354451],[-71.065185,42.354426],[-71.065123,42.354355],[-71.065132,42.354346],[-71.06532,42.354504],[-71.065383,42.354494],[-71.065396,42.354447],[-71.065292,42.354347],[-71.065308,42.354313],[-71.065302,42.35429],[-71.065002,42.354003],[-71.065044,42.354018],[-71.065372,42.354329],[-71.065469,42.354389],[-71.065532,42.354379],[-71.065545,42.354332],[-71.065159,42.353973],[-71.065158,42.353918],[-71.065072,42.353833],[-71.065166,42.353838],[-71.065209,42.353812],[-71.065261,42.35385],[-71.065315,42.35385],[-71.065632,42.354138],[-71.065729,42.354183],[-71.06578,42.354158],[-71.065916,42.354279],[-71.065969,42.354271],[-71.065979,42.354232],[-71.066125,42.354362],[-71.066159,42.354373],[-71.066194,42.354362],[-71.066204,42.354323],[-71.065983,42.354112],[-71.066193,42.354308],[-71.066236,42.354314],[-71.066257,42.354299],[-71.066257,42.354277],[-71.066061,42.35409],[-71.066109,42.354047],[-71.06612,42.354006],[-71.066109,42.353964],[-71.065936,42.353795],[-71.065926,42.353759],[-71.065879,42.35371],[-71.065942,42.353726],[-71.066003,42.353711],[-71.066335,42.354025],[-71.066382,42.354048],[-71.066494,42.354048],[-71.066542,42.354025],[-71.066573,42.35399],[-71.066584,42.353949]],[[-71.064853,42.3543],[-71.064801,42.354252],[-71.064802,42.354248],[-71.064853,42.3543]],[[-71.064819,42.354911],[-71.064814,42.35491],[-71.064816,42.354909],[-71.064819,42.354911]]],[[[-71.066391,42.354966],[-71.066353,42.354898],[-71.065827,42.3544],[-71.065785,42.354379],[-71.065685,42.354379],[-71.065615,42.354431],[-71.065615,42.354505],[-71.065643,42.354536],[-71.066169,42.355034],[-71.066261,42.355062],[-71.066311,42.355054],[-71.066353,42.355034],[-71.066391,42.354966]]],[[[-71.066378,42.355286],[-71.066358,42.35525],[-71.066026,42.354936],[-71.065952,42.354925],[-71.065915,42.354953],[-71.065915,42.354991],[-71.06593,42.355008],[-71.066262,42.355321],[-71.066336,42.355332],[-71.066378,42.355286]]],[[[-71.066151,42.348342],[-71.066132,42.348308],[-71.065811,42.348004],[-71.06574,42.347994],[-71.065705,42.34802],[-71.065719,42.348072],[-71.066041,42.348376],[-71.066111,42.348386],[-71.066151,42.348342]]],[[[-71.066081,42.348455],[-71.065774,42.348151],[-71.065714,42.348142],[-71.065684,42.348164],[-71.065696,42.348209],[-71.065987,42.348484],[-71.066047,42.348493],[-71.066081,42.348455]]],[[[-71.06604,42.348731],[-71.065721,42.348415],[-71.065662,42.348405],[-71.065514,42.348274],[-71.065466,42.348274],[-71.065433,42.348299],[-71.065446,42.348348],[-71.065758,42.348643],[-71.065825,42.348653],[-71.065959,42.348771],[-71.066003,42.348771],[-71.06604,42.348731]]],[[[-71.065866,42.348423],[-71.065723,42.348283],[-71.065697,42.348283],[-71.065697,42.348303],[-71.065834,42.348432],[-71.065866,42.348423]]],[[[-71.065793,42.349457],[-71.065364,42.349045],[-71.065311,42.349037],[-71.065285,42.349056],[-71.065296,42.349095],[-71.065709,42.349483],[-71.065762,42.34949],[-71.065793,42.349457]]],[[[-71.065746,42.351372],[-71.065583,42.351213],[-71.065557,42.351213],[-71.065557,42.351233],[-71.065715,42.351382],[-71.065746,42.351372]]],[[[-71.065725,42.349077],[-71.065652,42.348986],[-71.065418,42.348765],[-71.065365,42.348757],[-71.065339,42.348776],[-71.06535,42.348815],[-71.065583,42.349037],[-71.065636,42.349044],[-71.065707,42.349091],[-71.065725,42.349077]]],[[[-71.065701,42.354274],[-71.065682,42.35424],[-71.065269,42.35386],[-71.065201,42.35385],[-71.065168,42.353875],[-71.065181,42.353924],[-71.065591,42.354308],[-71.065661,42.354318],[-71.065701,42.354274]]],[[[-71.065689,42.349214],[-71.065385,42.348921],[-71.065346,42.348916],[-71.065327,42.34893],[-71.065335,42.348959],[-71.065564,42.349176],[-71.065603,42.349181],[-71.065658,42.349224],[-71.065689,42.349214]]],[[[-71.065686,42.34824],[-71.065543,42.3481],[-71.065517,42.3481],[-71.065517,42.34812],[-71.065654,42.348249],[-71.065686,42.34824]]],[[[-71.065671,42.348624],[-71.065476,42.348434],[-71.065444,42.348434],[-71.065444,42.348458],[-71.065632,42.348636],[-71.065671,42.348624]]],[[[-71.065516,42.35135],[-71.065363,42.3512],[-71.065337,42.3512],[-71.065337,42.35122],[-71.065485,42.351359],[-71.065516,42.35135]]],[[[-71.065406,42.35134],[-71.065263,42.3512],[-71.065237,42.3512],[-71.065237,42.35122],[-71.065374,42.351349],[-71.065406,42.35134]]],[[[-71.065375,42.350908],[-71.065168,42.350706],[-71.065126,42.350713],[-71.065126,42.350727],[-71.06533,42.350922],[-71.065359,42.350926],[-71.065375,42.350908]]],[[[-71.06535,42.350972],[-71.065143,42.35077],[-71.065101,42.350777],[-71.065101,42.350791],[-71.065305,42.350986],[-71.065334,42.35099],[-71.06535,42.350972]]],[[[-71.065308,42.351022],[-71.065124,42.350843],[-71.065096,42.350843],[-71.065096,42.350863],[-71.065275,42.351032],[-71.065308,42.351022]]],[[[-71.065092,42.35145],[-71.064939,42.3513],[-71.064913,42.3513],[-71.064913,42.35132],[-71.065061,42.351459],[-71.065092,42.35145]]],[[[-71.064995,42.348586],[-71.064852,42.348446],[-71.064826,42.348446],[-71.064826,42.348466],[-71.064963,42.348595],[-71.064995,42.348586]]],[[[-71.064762,42.351956],[-71.064619,42.351816],[-71.064593,42.351816],[-71.064593,42.351836],[-71.06473,42.351965],[-71.064762,42.351956]]],[[[-71.064759,42.348555],[-71.064616,42.348415],[-71.06459,42.348415],[-71.06459,42.348435],[-71.064727,42.348564],[-71.064759,42.348555]]],[[[-71.064743,42.352273],[-71.064559,42.352094],[-71.064531,42.352094],[-71.064531,42.352114],[-71.06471,42.352283],[-71.064743,42.352273]]],[[[-71.064716,42.352195],[-71.064563,42.352045],[-71.064537,42.352045],[-71.064537,42.352065],[-71.064685,42.352204],[-71.064716,42.352195]]],[[[-71.064686,42.35229],[-71.064543,42.35215],[-71.064517,42.35215],[-71.064517,42.35217],[-71.064654,42.352299],[-71.064686,42.35229]]],[[[-71.064574,42.348529],[-71.064431,42.348389],[-71.064405,42.348389],[-71.064405,42.348409],[-71.064542,42.348538],[-71.064574,42.348529]]],[[[-71.064397,42.348898],[-71.064202,42.348708],[-71.06417,42.348708],[-71.06417,42.348732],[-71.064358,42.34891],[-71.064397,42.348898]]],[[[-71.064376,42.351055],[-71.064233,42.350915],[-71.064207,42.350915],[-71.064207,42.350935],[-71.064344,42.351064],[-71.064376,42.351055]]],[[[-71.064345,42.355069],[-71.064321,42.355025],[-71.063938,42.354663],[-71.063846,42.354649],[-71.0638,42.354683],[-71.063799,42.354727],[-71.063755,42.354758],[-71.063755,42.354802],[-71.064134,42.355164],[-71.064219,42.355176],[-71.064265,42.355131],[-71.064321,42.355113],[-71.064345,42.355069]]],[[[-71.064336,42.348999],[-71.064163,42.34883],[-71.064137,42.34883],[-71.064137,42.34885],[-71.064305,42.349009],[-71.064336,42.348999]]],[[[-71.064302,42.351121],[-71.064073,42.350897],[-71.064038,42.350892],[-71.06402,42.350905],[-71.064027,42.350931],[-71.064246,42.351138],[-71.064282,42.351144],[-71.064302,42.351121]]],[[[-71.064286,42.351044],[-71.064143,42.350904],[-71.064117,42.350904],[-71.064117,42.350924],[-71.064254,42.351053],[-71.064286,42.351044]]],[[[-71.064256,42.353459],[-71.064083,42.35329],[-71.064057,42.35329],[-71.064057,42.35331],[-71.064225,42.353469],[-71.064256,42.353459]]],[[[-71.064228,42.353559],[-71.064126,42.353457],[-71.064125,42.353434],[-71.063936,42.353256],[-71.063904,42.353256],[-71.063904,42.35328],[-71.064195,42.353569],[-71.064228,42.353559]]],[[[-71.064213,42.35113],[-71.063962,42.350883],[-71.063919,42.350876],[-71.063898,42.350892],[-71.063906,42.350923],[-71.064146,42.35115],[-71.064189,42.351156],[-71.064213,42.35113]]],[[[-71.064181,42.353442],[-71.064008,42.353273],[-71.063982,42.353273],[-71.063982,42.353293],[-71.06415,42.353452],[-71.064181,42.353442]]],[[[-71.064166,42.353919],[-71.063993,42.35375],[-71.063967,42.35375],[-71.063967,42.35377],[-71.064135,42.353929],[-71.064166,42.353919]]],[[[-71.064163,42.353555],[-71.063979,42.353376],[-71.063946,42.353386],[-71.063923,42.353364],[-71.063897,42.353364],[-71.063897,42.353384],[-71.064065,42.353543],[-71.064096,42.353533],[-71.064143,42.353569],[-71.064163,42.353555]]],[[[-71.064094,42.348844],[-71.06391,42.348665],[-71.063882,42.348665],[-71.063882,42.348685],[-71.064061,42.348854],[-71.064094,42.348844]]],[[[-71.064081,42.348921],[-71.063886,42.348731],[-71.063854,42.348731],[-71.063854,42.348755],[-71.064042,42.348933],[-71.064081,42.348921]]],[[[-71.064058,42.349039],[-71.063874,42.34886],[-71.063846,42.34886],[-71.063846,42.34888],[-71.064025,42.349049],[-71.064058,42.349039]]],[[[-71.064015,42.354308],[-71.063808,42.354106],[-71.063766,42.354113],[-71.063766,42.354127],[-71.06397,42.354322],[-71.063999,42.354326],[-71.064015,42.354308]]],[[[-71.064011,42.348923],[-71.063868,42.348783],[-71.063842,42.348783],[-71.063842,42.348803],[-71.063979,42.348932],[-71.064011,42.348923]]],[[[-71.063959,42.349278],[-71.063816,42.349138],[-71.06379,42.349138],[-71.06379,42.349158],[-71.063927,42.349287],[-71.063959,42.349278]]],[[[-71.063946,42.348557],[-71.063803,42.348417],[-71.063777,42.348417],[-71.063777,42.348437],[-71.063914,42.348566],[-71.063946,42.348557]]],[[[-71.063927,42.35109],[-71.063698,42.350866],[-71.063663,42.350861],[-71.063645,42.350874],[-71.063652,42.3509],[-71.063871,42.351107],[-71.063907,42.351113],[-71.063927,42.35109]]],[[[-71.063906,42.349423],[-71.063763,42.349283],[-71.063737,42.349283],[-71.063737,42.349303],[-71.063874,42.349432],[-71.063906,42.349423]]],[[[-71.063893,42.349465],[-71.06375,42.349325],[-71.063724,42.349325],[-71.063724,42.349345],[-71.063861,42.349474],[-71.063893,42.349465]]],[[[-71.063868,42.349929],[-71.063684,42.34975],[-71.063656,42.34975],[-71.063656,42.34977],[-71.063835,42.349939],[-71.063868,42.349929]]],[[[-71.063856,42.34854],[-71.063713,42.3484],[-71.063687,42.3484],[-71.063687,42.34842],[-71.063824,42.348549],[-71.063856,42.34854]]],[[[-71.063803,42.354921],[-71.063554,42.354675],[-71.063501,42.354667],[-71.063475,42.354686],[-71.063486,42.354725],[-71.063719,42.354947],[-71.063773,42.354954],[-71.063803,42.354921]]],[[[-71.063801,42.351054],[-71.063606,42.350864],[-71.063567,42.350876],[-71.063524,42.350845],[-71.063243,42.350572],[-71.063217,42.350572],[-71.063217,42.350592],[-71.063373,42.350749],[-71.063223,42.35062],[-71.063197,42.35062],[-71.063197,42.35064],[-71.063362,42.350807],[-71.063336,42.350819],[-71.063336,42.350833],[-71.06354,42.351028],[-71.063583,42.351021],[-71.063559,42.350984],[-71.063592,42.350963],[-71.0637,42.351066],[-71.063729,42.35107],[-71.063744,42.351049],[-71.063779,42.351071],[-71.063801,42.351054]]],[[[-71.0638,42.350013],[-71.063627,42.349844],[-71.063601,42.349844],[-71.063601,42.349864],[-71.063769,42.350023],[-71.0638,42.350013]]],[[[-71.063758,42.350119],[-71.063574,42.34994],[-71.063546,42.34994],[-71.063546,42.34996],[-71.063725,42.350129],[-71.063758,42.350119]]],[[[-71.063743,42.355021],[-71.063494,42.354775],[-71.063441,42.354767],[-71.063415,42.354786],[-71.063426,42.354825],[-71.063659,42.355047],[-71.063713,42.355054],[-71.063743,42.355021]]],[[[-71.063716,42.350159],[-71.063543,42.34999],[-71.063517,42.34999],[-71.063517,42.35001],[-71.063685,42.350169],[-71.063716,42.350159]]],[[[-71.063626,42.350577],[-71.063453,42.350408],[-71.063427,42.350408],[-71.063427,42.350428],[-71.063595,42.350587],[-71.063626,42.350577]]],[[[-71.063616,42.350329],[-71.063453,42.35017],[-71.063427,42.35017],[-71.063427,42.35019],[-71.063585,42.350339],[-71.063616,42.350329]]],[[[-71.063592,42.350636],[-71.063429,42.350477],[-71.063403,42.350477],[-71.063403,42.350497],[-71.063561,42.350646],[-71.063592,42.350636]]],[[[-71.063586,42.350395],[-71.063423,42.350236],[-71.063397,42.350236],[-71.063397,42.350256],[-71.063555,42.350405],[-71.063586,42.350395]]],[[[-71.063561,42.350429],[-71.063398,42.35027],[-71.063372,42.35027],[-71.063372,42.35029],[-71.06353,42.350439],[-71.063561,42.350429]]],[[[-71.063551,42.35069],[-71.063453,42.350592],[-71.063474,42.350574],[-71.063323,42.35043],[-71.063297,42.35043],[-71.063297,42.35045],[-71.06339,42.350537],[-71.063368,42.350545],[-71.063293,42.350473],[-71.063267,42.350473],[-71.063267,42.350493],[-71.063425,42.350642],[-71.063451,42.350642],[-71.06352,42.350699],[-71.063551,42.35069]]],[[[-71.063516,42.35075],[-71.063363,42.3506],[-71.063268,42.350526],[-71.063242,42.350526],[-71.063242,42.350546],[-71.0634,42.350695],[-71.063485,42.350759],[-71.063516,42.35075]]],[[[-71.063336,42.350876],[-71.063173,42.350717],[-71.063147,42.350717],[-71.063147,42.350737],[-71.063305,42.350886],[-71.063336,42.350876]]],[[[-71.063328,42.350934],[-71.063144,42.350755],[-71.063116,42.350755],[-71.063116,42.350775],[-71.063295,42.350944],[-71.063328,42.350934]]],[[[-71.063325,42.350797],[-71.063193,42.350667],[-71.063167,42.350667],[-71.063167,42.350687],[-71.063294,42.350807],[-71.063325,42.350797]]],[[[-71.063292,42.352378],[-71.063139,42.352228],[-71.063113,42.352228],[-71.063113,42.352248],[-71.063261,42.352387],[-71.063292,42.352378]]],[[[-71.063231,42.35239],[-71.063078,42.35224],[-71.063052,42.35224],[-71.063052,42.35226],[-71.0632,42.352399],[-71.063231,42.35239]]],[[[-71.063131,42.352393],[-71.062978,42.352243],[-71.062891,42.35221],[-71.062891,42.35223],[-71.063049,42.352379],[-71.063075,42.352379],[-71.063113,42.352406],[-71.063131,42.352393]]],[[[-71.063008,42.353471],[-71.062927,42.353389],[-71.06294,42.35337],[-71.062758,42.353197],[-71.06273,42.353197],[-71.06273,42.353217],[-71.062805,42.353288],[-71.062792,42.353308],[-71.062975,42.353481],[-71.063008,42.353471]]],[[[-71.063008,42.353383],[-71.062824,42.353204],[-71.062796,42.353204],[-71.062796,42.353224],[-71.062975,42.353393],[-71.063008,42.353383]]],[[[-71.062996,42.352355],[-71.062843,42.352205],[-71.062817,42.352205],[-71.062817,42.352225],[-71.062965,42.352364],[-71.062996,42.352355]]],[[[-71.062951,42.353484],[-71.062756,42.353294],[-71.062724,42.353294],[-71.062724,42.353318],[-71.062912,42.353496],[-71.062951,42.353484]]],[[[-71.062768,42.348552],[-71.062551,42.348339],[-71.062509,42.348339],[-71.062509,42.348369],[-71.062718,42.348567],[-71.06275,42.348572],[-71.062768,42.348552]]],[[[-71.062746,42.349609],[-71.062484,42.349351],[-71.062438,42.349344],[-71.062366,42.349294],[-71.062311,42.349311],[-71.06232,42.349345],[-71.06257,42.349581],[-71.062616,42.349588],[-71.062688,42.349638],[-71.06272,42.349638],[-71.062746,42.349609]]],[[[-71.062651,42.348735],[-71.062456,42.348545],[-71.062424,42.348545],[-71.062424,42.348569],[-71.062612,42.348747],[-71.062651,42.348735]]],[[[-71.062649,42.3486],[-71.062398,42.348353],[-71.062355,42.348346],[-71.062334,42.348362],[-71.062342,42.348393],[-71.062582,42.34862],[-71.062625,42.348626],[-71.062649,42.3486]]],[[[-71.062218,42.353921],[-71.062034,42.353742],[-71.062006,42.353742],[-71.062006,42.353762],[-71.062185,42.353931],[-71.062218,42.353921]]],[[[-71.062175,42.349769],[-71.061926,42.349523],[-71.061873,42.349515],[-71.061847,42.349534],[-71.061858,42.349573],[-71.062091,42.349795],[-71.062144,42.349802],[-71.062175,42.349769]]],[[[-71.062144,42.349436],[-71.062001,42.349296],[-71.061975,42.349296],[-71.061975,42.349316],[-71.062112,42.349445],[-71.062144,42.349436]]],[[[-71.062126,42.35399],[-71.061983,42.35385],[-71.061998,42.353811],[-71.06182,42.353643],[-71.061729,42.353574],[-71.061676,42.353582],[-71.061623,42.35354],[-71.061597,42.35354],[-71.061597,42.35356],[-71.061873,42.353819],[-71.061742,42.353728],[-71.061711,42.353738],[-71.061854,42.353877],[-71.061879,42.353877],[-71.061935,42.353922],[-71.06196,42.353922],[-71.062055,42.354004],[-71.062114,42.354002],[-71.062126,42.35399]]],[[[-71.062112,42.348558],[-71.061838,42.348288],[-71.061789,42.348281],[-71.061764,42.348299],[-71.061774,42.348336],[-71.062034,42.348582],[-71.062084,42.348589],[-71.062112,42.348558]]],[[[-71.062103,42.353869],[-71.061919,42.35369],[-71.061891,42.35369],[-71.061891,42.35371],[-71.06207,42.353879],[-71.062103,42.353869]]],[[[-71.062089,42.349568],[-71.061946,42.349428],[-71.06192,42.349428],[-71.06192,42.349448],[-71.062057,42.349577],[-71.062089,42.349568]]],[[[-71.062066,42.35001],[-71.061974,42.349918],[-71.061996,42.349901],[-71.061996,42.349873],[-71.061751,42.349641],[-71.061698,42.349633],[-71.061668,42.349666],[-71.061533,42.349543],[-71.061483,42.349534],[-71.061363,42.34942],[-71.061337,42.34942],[-71.061337,42.34944],[-71.061399,42.349498],[-71.061356,42.34952],[-71.061356,42.349548],[-71.0616,42.349781],[-71.061665,42.349783],[-71.061733,42.349825],[-71.061767,42.349815],[-71.061782,42.349789],[-71.062034,42.350019],[-71.062066,42.35001]]],[[[-71.062036,42.350056],[-71.061893,42.349916],[-71.061867,42.349916],[-71.061867,42.349936],[-71.062004,42.350065],[-71.062036,42.350056]]],[[[-71.06203,42.35013],[-71.061887,42.34999],[-71.061861,42.34999],[-71.061861,42.35001],[-71.061998,42.350139],[-71.06203,42.35013]]],[[[-71.062029,42.350519],[-71.061778,42.350272],[-71.061722,42.350272],[-71.061711,42.350292],[-71.061722,42.350312],[-71.061678,42.350333],[-71.061688,42.35037],[-71.061948,42.350616],[-71.06198,42.350626],[-71.062022,42.350605],[-71.062022,42.350579],[-71.06199,42.350547],[-71.062029,42.350519]]],[[[-71.062006,42.350174],[-71.061863,42.350034],[-71.061837,42.350034],[-71.061837,42.350054],[-71.061974,42.350183],[-71.062006,42.350174]]],[[[-71.061976,42.35021],[-71.061833,42.35007],[-71.061807,42.35007],[-71.061807,42.35009],[-71.061944,42.350219],[-71.061976,42.35021]]],[[[-71.061951,42.350275],[-71.061819,42.350145],[-71.061793,42.350145],[-71.061793,42.350165],[-71.06192,42.350285],[-71.061951,42.350275]]],[[[-71.061942,42.348884],[-71.06168,42.348626],[-71.061634,42.348619],[-71.061611,42.348636],[-71.06162,42.34867],[-71.06187,42.348906],[-71.061916,42.348913],[-71.061942,42.348884]]],[[[-71.061936,42.348572],[-71.061629,42.348268],[-71.061454,42.348118],[-71.061386,42.348108],[-71.061353,42.348133],[-71.061353,42.348167],[-71.061412,42.348225],[-71.06139,42.348239],[-71.06139,42.348257],[-71.061616,42.348472],[-71.061721,42.34849],[-71.06186,42.34861],[-71.061902,42.34861],[-71.061936,42.348572]]],[[[-71.061936,42.35033],[-71.061793,42.35019],[-71.061767,42.35019],[-71.061767,42.35021],[-71.061904,42.350339],[-71.061936,42.35033]]],[[[-71.061826,42.348916],[-71.061552,42.348646],[-71.061503,42.348639],[-71.061478,42.348657],[-71.061488,42.348694],[-71.061748,42.34894],[-71.061798,42.348947],[-71.061826,42.348916]]],[[[-71.061755,42.348333],[-71.061592,42.348174],[-71.061566,42.348174],[-71.061566,42.348194],[-71.061724,42.348343],[-71.061755,42.348333]]],[[[-71.061752,42.34909],[-71.06149,42.348832],[-71.061444,42.348825],[-71.061421,42.348842],[-71.06143,42.348876],[-71.06168,42.349112],[-71.061726,42.349119],[-71.061752,42.34909]]],[[[-71.061748,42.348967],[-71.061605,42.348827],[-71.061579,42.348827],[-71.061579,42.348847],[-71.061716,42.348976],[-71.061748,42.348967]]],[[[-71.061746,42.34863],[-71.061603,42.34849],[-71.061577,42.34849],[-71.061577,42.34851],[-71.061714,42.348639],[-71.061746,42.34863]]],[[[-71.061681,42.351128],[-71.061486,42.350938],[-71.061454,42.350938],[-71.061454,42.350962],[-71.061642,42.35114],[-71.061681,42.351128]]],[[[-71.061596,42.349404],[-71.061433,42.349245],[-71.061407,42.349245],[-71.061407,42.349265],[-71.061565,42.349414],[-71.061596,42.349404]]],[[[-71.061578,42.349221],[-71.061394,42.349042],[-71.061366,42.349042],[-71.061366,42.349062],[-71.061545,42.349231],[-71.061578,42.349221]]],[[[-71.061558,42.349426],[-71.061341,42.349213],[-71.061299,42.349213],[-71.061299,42.349243],[-71.061508,42.349441],[-71.06154,42.349446],[-71.061558,42.349426]]],[[[-71.061556,42.351252],[-71.061413,42.351112],[-71.061387,42.351112],[-71.061387,42.351132],[-71.061524,42.351261],[-71.061556,42.351252]]],[[[-71.061535,42.35131],[-71.061392,42.35117],[-71.061366,42.35117],[-71.061366,42.35119],[-71.061503,42.351319],[-71.061535,42.35131]]],[[[-71.061509,42.35137],[-71.061366,42.35123],[-71.06134,42.35123],[-71.06134,42.35125],[-71.061477,42.351379],[-71.061509,42.35137]]],[[[-71.06149,42.351419],[-71.061347,42.351279],[-71.061321,42.351279],[-71.061321,42.351299],[-71.061458,42.351428],[-71.06149,42.351419]]],[[[-71.061472,42.350066],[-71.06121,42.349808],[-71.061164,42.349801],[-71.061141,42.349818],[-71.06115,42.349852],[-71.0614,42.350088],[-71.061446,42.350095],[-71.061472,42.350066]]],[[[-71.061437,42.350295],[-71.061141,42.350003],[-71.061084,42.349995],[-71.061056,42.350015],[-71.061067,42.350057],[-71.061348,42.350323],[-71.061405,42.350331],[-71.061437,42.350295]]],[[[-71.06143,42.34977],[-71.061277,42.34962],[-71.061251,42.34962],[-71.061251,42.34964],[-71.061399,42.349779],[-71.06143,42.34977]]],[[[-71.061409,42.349818],[-71.061256,42.349668],[-71.06123,42.349668],[-71.06123,42.349688],[-71.061378,42.349827],[-71.061409,42.349818]]],[[[-71.061382,42.3535],[-71.061239,42.35336],[-71.061213,42.35336],[-71.06112,42.353307],[-71.061102,42.35332],[-71.061043,42.353265],[-71.061017,42.353265],[-71.061017,42.353285],[-71.061175,42.353434],[-71.061206,42.353424],[-71.061244,42.353459],[-71.06132,42.353483],[-71.06135,42.353509],[-71.061382,42.3535]]],[[[-71.061376,42.354904],[-71.061233,42.354764],[-71.061207,42.354764],[-71.061207,42.354784],[-71.061345,42.354913],[-71.061376,42.354904]]],[[[-71.061326,42.355046],[-71.061183,42.354906],[-71.061157,42.354906],[-71.061157,42.354926],[-71.061295,42.355055],[-71.061326,42.355046]]],[[[-71.061313,42.348867],[-71.061017,42.348575],[-71.06096,42.348567],[-71.060932,42.348587],[-71.060943,42.348629],[-71.061224,42.348895],[-71.061281,42.348903],[-71.061313,42.348867]]],[[[-71.061296,42.348992],[-71.060989,42.348688],[-71.060929,42.348679],[-71.060899,42.348701],[-71.060911,42.348746],[-71.061202,42.349021],[-71.061262,42.34903],[-71.061296,42.348992]]],[[[-71.061192,42.349063],[-71.06093,42.348805],[-71.060884,42.348798],[-71.060861,42.348815],[-71.06087,42.348849],[-71.06112,42.349085],[-71.061166,42.349092],[-71.061192,42.349063]]],[[[-71.061189,42.349497],[-71.061169,42.34946],[-71.060827,42.349137],[-71.060749,42.349125],[-71.06071,42.349154],[-71.06071,42.349194],[-71.060725,42.349211],[-71.061068,42.349535],[-71.061145,42.349546],[-71.061189,42.349497]]],[[[-71.061176,42.34862],[-71.061033,42.34848],[-71.061007,42.34848],[-71.061007,42.3485],[-71.061144,42.348629],[-71.061176,42.34862]]],[[[-71.061126,42.353493],[-71.060983,42.353353],[-71.060831,42.353292],[-71.060831,42.353312],[-71.060968,42.353441],[-71.060994,42.353441],[-71.061094,42.353502],[-71.061126,42.353493]]],[[[-71.061076,42.35335],[-71.060933,42.35321],[-71.060907,42.35321],[-71.060907,42.35323],[-71.061044,42.353359],[-71.061076,42.35335]]],[[[-71.060967,42.349611],[-71.060757,42.349401],[-71.06076,42.34938],[-71.060623,42.34925],[-71.060597,42.34925],[-71.060597,42.34927],[-71.060687,42.349354],[-71.06059,42.349287],[-71.060572,42.3493],[-71.060643,42.349372],[-71.060637,42.349384],[-71.060583,42.349332],[-71.060557,42.349332],[-71.060557,42.349352],[-71.060883,42.349637],[-71.060936,42.349644],[-71.060967,42.349611]]],[[[-71.060965,42.349762],[-71.06068,42.349481],[-71.060632,42.349472],[-71.060553,42.349397],[-71.060527,42.349397],[-71.060527,42.349417],[-71.060604,42.349489],[-71.060543,42.349443],[-71.060517,42.349443],[-71.060517,42.349463],[-71.060882,42.349787],[-71.060935,42.349795],[-71.060965,42.349762]]],[[[-71.060879,42.349926],[-71.060499,42.349546],[-71.060473,42.349546],[-71.060473,42.349566],[-71.060547,42.349636],[-71.060486,42.349587],[-71.060468,42.3496],[-71.060518,42.349652],[-71.06047,42.349627],[-71.060452,42.34964],[-71.060594,42.349779],[-71.060796,42.349951],[-71.060849,42.349959],[-71.060879,42.349926]]],[[[-71.060863,42.350057],[-71.060567,42.349765],[-71.06051,42.349757],[-71.060482,42.349777],[-71.060493,42.349819],[-71.060774,42.350085],[-71.060831,42.350093],[-71.060863,42.350057]]],[[[-71.060736,42.35317],[-71.060593,42.35303],[-71.060567,42.35303],[-71.060513,42.352987],[-71.060437,42.352964],[-71.060437,42.352984],[-71.060585,42.353123],[-71.06065,42.353136],[-71.060704,42.353179],[-71.060736,42.35317]]],[[[-71.060686,42.349643],[-71.060533,42.349493],[-71.060507,42.349493],[-71.060507,42.349513],[-71.060655,42.349652],[-71.060686,42.349643]]],[[[-71.060659,42.353632],[-71.06055,42.35352],[-71.06055,42.3535],[-71.060413,42.35337],[-71.060344,42.353394],[-71.060352,42.353425],[-71.060592,42.353652],[-71.060635,42.353658],[-71.060659,42.353632]]],[[[-71.060656,42.353423],[-71.060503,42.353273],[-71.060477,42.353273],[-71.060477,42.353293],[-71.060625,42.353432],[-71.060656,42.353423]]],[[[-71.060642,42.35328],[-71.060499,42.35314],[-71.060475,42.35314],[-71.060369,42.35306],[-71.060343,42.35306],[-71.060343,42.35308],[-71.06048,42.353209],[-71.060559,42.35324],[-71.06061,42.353289],[-71.060642,42.35328]]],[[[-71.060548,42.350371],[-71.060428,42.350246],[-71.06043,42.350225],[-71.060293,42.350095],[-71.060267,42.350095],[-71.060267,42.350114],[-71.06022,42.350136],[-71.060231,42.350175],[-71.060464,42.350397],[-71.060518,42.350404],[-71.060548,42.350371]]],[[[-71.060536,42.350024],[-71.060383,42.349874],[-71.060357,42.349874],[-71.060357,42.349894],[-71.060505,42.350033],[-71.060536,42.350024]]],[[[-71.060496,42.353577],[-71.060353,42.353437],[-71.060327,42.353437],[-71.060327,42.353457],[-71.060464,42.353586],[-71.060496,42.353577]]],[[[-71.060456,42.350167],[-71.060313,42.350027],[-71.060287,42.350027],[-71.060287,42.350047],[-71.060424,42.350176],[-71.060456,42.350167]]],[[[-71.060414,42.349697],[-71.060163,42.34945],[-71.06012,42.349443],[-71.060099,42.349459],[-71.060107,42.34949],[-71.060347,42.349717],[-71.06039,42.349723],[-71.060414,42.349697]]],[[[-71.060366,42.353656],[-71.060092,42.353386],[-71.060043,42.353379],[-71.060018,42.353397],[-71.060028,42.353434],[-71.060288,42.35368],[-71.060338,42.353687],[-71.060366,42.353656]]],[[[-71.060328,42.349754],[-71.060111,42.349541],[-71.060069,42.349541],[-71.060069,42.349571],[-71.060278,42.349769],[-71.06031,42.349774],[-71.060328,42.349754]]],[[[-71.060315,42.349861],[-71.060075,42.349625],[-71.060036,42.34962],[-71.060017,42.349634],[-71.060025,42.349663],[-71.060254,42.34988],[-71.060293,42.349885],[-71.060315,42.349861]]],[[[-71.060296,42.353092],[-71.060153,42.352952],[-71.060127,42.352952],[-71.060127,42.352972],[-71.060264,42.353101],[-71.060296,42.353092]]],[[[-71.060222,42.35128],[-71.05996,42.351022],[-71.059914,42.351015],[-71.059891,42.351032],[-71.0599,42.351066],[-71.06015,42.351302],[-71.060196,42.351309],[-71.060222,42.35128]]],[[[-71.0601,42.351323],[-71.059893,42.351121],[-71.059851,42.351128],[-71.059851,42.351142],[-71.060055,42.351337],[-71.060084,42.351341],[-71.0601,42.351323]]],[[[-71.060072,42.353496],[-71.05981,42.353238],[-71.059764,42.353231],[-71.059741,42.353248],[-71.05975,42.353282],[-71.06,42.353518],[-71.060046,42.353525],[-71.060072,42.353496]]],[[[-71.059906,42.352893],[-71.059753,42.352743],[-71.059727,42.352743],[-71.059727,42.352763],[-71.059875,42.352902],[-71.059906,42.352893]]],[[[-71.059883,42.351931],[-71.059777,42.351819],[-71.059772,42.35179],[-71.059553,42.351583],[-71.059518,42.351578],[-71.0595,42.351591],[-71.0595,42.351609],[-71.059574,42.35168],[-71.059551,42.35171],[-71.059457,42.351621],[-71.059445,42.351587],[-71.059485,42.35156],[-71.059485,42.351532],[-71.059183,42.35123],[-71.05911,42.351194],[-71.059065,42.351216],[-71.059065,42.351244],[-71.059136,42.351315],[-71.059095,42.351343],[-71.059095,42.351371],[-71.059376,42.351638],[-71.05941,42.351649],[-71.05961,42.351829],[-71.059799,42.351957],[-71.059853,42.351964],[-71.059883,42.351931]]],[[[-71.059878,42.355152],[-71.059661,42.354939],[-71.05955,42.354866],[-71.059389,42.354714],[-71.05935,42.354709],[-71.059331,42.354723],[-71.059339,42.354752],[-71.059596,42.354998],[-71.059786,42.355144],[-71.059849,42.355173],[-71.059878,42.355152]]],[[[-71.059836,42.352877],[-71.059683,42.352727],[-71.059657,42.352727],[-71.059657,42.352747],[-71.059805,42.352886],[-71.059836,42.352877]]],[[[-71.059823,42.353004],[-71.059574,42.352758],[-71.059521,42.35275],[-71.059495,42.352769],[-71.059506,42.352808],[-71.059739,42.35303],[-71.059793,42.353037],[-71.059823,42.353004]]],[[[-71.059782,42.35287],[-71.059629,42.35272],[-71.059603,42.35272],[-71.059603,42.35274],[-71.059751,42.352879],[-71.059782,42.35287]]],[[[-71.059656,42.351227],[-71.059513,42.351087],[-71.059487,42.351087],[-71.059487,42.351107],[-71.059624,42.351236],[-71.059656,42.351227]]],[[[-71.059616,42.3513],[-71.059473,42.35116],[-71.059447,42.35116],[-71.059447,42.35118],[-71.059584,42.351309],[-71.059616,42.3513]]],[[[-71.059575,42.351882],[-71.05938,42.351692],[-71.059348,42.351692],[-71.059348,42.351716],[-71.059536,42.351894],[-71.059575,42.351882]]],[[[-71.059566,42.35323],[-71.059423,42.35309],[-71.059397,42.35309],[-71.059397,42.35311],[-71.059534,42.353239],[-71.059566,42.35323]]],[[[-71.059556,42.35314],[-71.059413,42.353],[-71.059387,42.353],[-71.059387,42.35302],[-71.059524,42.353149],[-71.059556,42.35314]]],[[[-71.059511,42.351958],[-71.059316,42.351768],[-71.059284,42.351768],[-71.059284,42.351792],[-71.059472,42.35197],[-71.059511,42.351958]]],[[[-71.059322,42.353424],[-71.059179,42.353284],[-71.059153,42.353284],[-71.059153,42.353304],[-71.05929,42.353433],[-71.059322,42.353424]]],[[[-71.059312,42.354592],[-71.059083,42.354368],[-71.058954,42.35428],[-71.058926,42.35428],[-71.058926,42.3543],[-71.059256,42.354609],[-71.059292,42.354615],[-71.059312,42.354592]]],[[[-71.059265,42.351705],[-71.059058,42.351503],[-71.059016,42.35151],[-71.059016,42.351524],[-71.05922,42.351719],[-71.059249,42.351723],[-71.059265,42.351705]]],[[[-71.059236,42.35159],[-71.059093,42.35145],[-71.059067,42.35145],[-71.059067,42.35147],[-71.059204,42.351599],[-71.059236,42.35159]]],[[[-71.059235,42.351821],[-71.058995,42.351585],[-71.058956,42.35158],[-71.058937,42.351594],[-71.058945,42.351623],[-71.059174,42.35184],[-71.059213,42.351845],[-71.059235,42.351821]]],[[[-71.059226,42.353417],[-71.059083,42.353277],[-71.059057,42.353277],[-71.059057,42.353297],[-71.059194,42.353426],[-71.059226,42.353417]]],[[[-71.059142,42.351897],[-71.058913,42.351673],[-71.05889,42.351666],[-71.05886,42.351681],[-71.058867,42.351707],[-71.059086,42.351914],[-71.059122,42.35192],[-71.059142,42.351897]]],[[[-71.059136,42.353413],[-71.058993,42.353273],[-71.058967,42.353273],[-71.058967,42.353293],[-71.059104,42.353422],[-71.059136,42.353413]]],[[[-71.059115,42.351955],[-71.058875,42.351719],[-71.058836,42.351714],[-71.058817,42.351728],[-71.058825,42.351757],[-71.059054,42.351974],[-71.059093,42.351979],[-71.059115,42.351955]]],[[[-71.059106,42.351795],[-71.058943,42.351636],[-71.058917,42.351636],[-71.058917,42.351656],[-71.059075,42.351805],[-71.059106,42.351795]]],[[[-71.059065,42.351997],[-71.058825,42.351761],[-71.058786,42.351756],[-71.058767,42.35177],[-71.058775,42.351799],[-71.059004,42.352016],[-71.059043,42.352021],[-71.059065,42.351997]]],[[[-71.059002,42.353398],[-71.058859,42.353258],[-71.058833,42.353258],[-71.058833,42.353278],[-71.05897,42.353407],[-71.059002,42.353398]]],[[[-71.058995,42.352072],[-71.058907,42.351979],[-71.058921,42.351956],[-71.058773,42.351816],[-71.058701,42.351818],[-71.05868,42.351834],[-71.058688,42.351865],[-71.058928,42.352092],[-71.058971,42.352098],[-71.058995,42.352072]]],[[[-71.058912,42.352113],[-71.058683,42.351889],[-71.058648,42.351884],[-71.05863,42.351915],[-71.058604,42.351918],[-71.058604,42.351942],[-71.058792,42.35212],[-71.058831,42.352108],[-71.058879,42.352137],[-71.058912,42.352113]]],[[[-71.058896,42.353398],[-71.058753,42.353258],[-71.058727,42.353258],[-71.058727,42.353278],[-71.058864,42.353407],[-71.058896,42.353398]]],[[[-71.058876,42.352272],[-71.058719,42.35211],[-71.05873,42.352087],[-71.058593,42.351957],[-71.058491,42.351968],[-71.058451,42.352018],[-71.058451,42.352042],[-71.058392,42.35206],[-71.058408,42.352098],[-71.058683,42.352351],[-71.058732,42.352344],[-71.058746,42.35232],[-71.058732,42.352296],[-71.058769,42.352289],[-71.0588,42.35231],[-71.058842,42.35231],[-71.058876,42.352272]]],[[[-71.058706,42.35266],[-71.058563,42.35252],[-71.058494,42.35247],[-71.058466,42.35247],[-71.058488,42.352511],[-71.058477,42.352534],[-71.058614,42.352663],[-71.058687,42.352673],[-71.058706,42.35266]]],[[[-71.058576,42.352668],[-71.05852,42.35261],[-71.05852,42.35259],[-71.058383,42.35246],[-71.058357,42.35246],[-71.058397,42.352538],[-71.058545,42.352677],[-71.058576,42.352668]]],[[[-71.058536,42.352237],[-71.058383,42.352087],[-71.058357,42.352087],[-71.058357,42.352107],[-71.058505,42.352246],[-71.058536,42.352237]]],[[[-71.058486,42.35265],[-71.058343,42.35251],[-71.058273,42.352457],[-71.058247,42.352457],[-71.058247,42.352477],[-71.058384,42.352606],[-71.058454,42.352659],[-71.058486,42.35265]]],[[[-71.058426,42.35104],[-71.058283,42.3509],[-71.058252,42.35091],[-71.058213,42.350877],[-71.058187,42.350877],[-71.058187,42.350897],[-71.058324,42.351026],[-71.058356,42.351017],[-71.058407,42.351053],[-71.058426,42.35104]]],[[[-71.058406,42.352642],[-71.058263,42.352502],[-71.058237,42.352502],[-71.058237,42.352522],[-71.058374,42.352651],[-71.058406,42.352642]]],[[[-71.058176,42.352795],[-71.058033,42.352655],[-71.058007,42.352655],[-71.058007,42.352675],[-71.058144,42.352804],[-71.058176,42.352795]]],[[[-71.05817,42.352898],[-71.058027,42.352758],[-71.058001,42.352758],[-71.058001,42.352778],[-71.058138,42.352907],[-71.05817,42.352898]]],[[[-71.058146,42.353035],[-71.058003,42.352895],[-71.057977,42.352895],[-71.057977,42.352915],[-71.058114,42.353044],[-71.058146,42.353035]]],[[[-71.057949,42.352414],[-71.057742,42.352212],[-71.0577,42.352219],[-71.0577,42.352233],[-71.057904,42.352428],[-71.057933,42.352432],[-71.057949,42.352414]]],[[[-71.057941,42.350823],[-71.057798,42.350683],[-71.057727,42.350667],[-71.057727,42.350687],[-71.057864,42.350816],[-71.057922,42.350836],[-71.057941,42.350823]]],[[[-71.057832,42.352388],[-71.057615,42.352175],[-71.057567,42.352183],[-71.057528,42.352146],[-71.057486,42.352153],[-71.05743,42.352121],[-71.057406,42.352133],[-71.057351,42.35209],[-71.057311,42.35211],[-71.057528,42.352323],[-71.05756,42.352328],[-71.057578,42.35231],[-71.057629,42.352347],[-71.057653,42.352335],[-71.057709,42.352367],[-71.057732,42.352356],[-71.057792,42.352408],[-71.057832,42.352388]]],[[[-71.057552,42.350533],[-71.057409,42.350393],[-71.057383,42.350393],[-71.057383,42.350413],[-71.05752,42.350542],[-71.057552,42.350533]]],[[[-71.057536,42.350624],[-71.057393,42.350484],[-71.057367,42.350484],[-71.057367,42.350504],[-71.057504,42.350633],[-71.057536,42.350624]]],[[[-71.057496,42.351847],[-71.057343,42.351697],[-71.057317,42.351697],[-71.057317,42.351717],[-71.057465,42.351856],[-71.057496,42.351847]]],[[[-71.057476,42.35188],[-71.057333,42.35174],[-71.057307,42.35174],[-71.057307,42.35176],[-71.057444,42.351889],[-71.057476,42.35188]]],[[[-71.057456,42.351074],[-71.057293,42.350915],[-71.057267,42.350915],[-71.057267,42.350935],[-71.057425,42.351084],[-71.057456,42.351074]]],[[[-71.057447,42.352027],[-71.057304,42.351887],[-71.057278,42.351887],[-71.057278,42.351907],[-71.057415,42.352036],[-71.057447,42.352027]]],[[[-71.057426,42.351212],[-71.057263,42.351053],[-71.057237,42.351053],[-71.057237,42.351073],[-71.057395,42.351222],[-71.057426,42.351212]]],[[[-71.057425,42.352075],[-71.057293,42.351945],[-71.057267,42.351945],[-71.057267,42.351965],[-71.057394,42.352085],[-71.057425,42.352075]]],[[[-71.057346,42.35154],[-71.057203,42.3514],[-71.057177,42.3514],[-71.057177,42.35142],[-71.057314,42.351549],[-71.057346,42.35154]]],[[[-71.057336,42.35068],[-71.057193,42.35054],[-71.057167,42.35054],[-71.057167,42.35056],[-71.057304,42.350689],[-71.057336,42.35068]]],[[[-71.057285,42.350762],[-71.057142,42.350622],[-71.057116,42.350622],[-71.057116,42.350642],[-71.057253,42.350771],[-71.057285,42.350762]]],[[[-71.057242,42.35011],[-71.057013,42.349886],[-71.056978,42.349881],[-71.056818,42.34974],[-71.056775,42.349733],[-71.056754,42.349749],[-71.056762,42.34978],[-71.057002,42.350007],[-71.057057,42.350007],[-71.057197,42.350133],[-71.057222,42.350133],[-71.057242,42.35011]]],[[[-71.057232,42.350663],[-71.057089,42.350523],[-71.057063,42.350523],[-71.057063,42.350543],[-71.0572,42.350672],[-71.057232,42.350663]]],[[[-71.057176,42.34997],[-71.057033,42.34983],[-71.057007,42.34983],[-71.057007,42.34985],[-71.057144,42.349979],[-71.057176,42.34997]]],[[[-71.057036,42.352187],[-71.056863,42.352018],[-71.056837,42.352018],[-71.056837,42.352038],[-71.057005,42.352197],[-71.057036,42.352187]]],[[[-71.057012,42.350047],[-71.056783,42.349823],[-71.056748,42.349818],[-71.05673,42.349831],[-71.056737,42.349857],[-71.056956,42.350064],[-71.056992,42.35007],[-71.057012,42.350047]]],[[[-71.057008,42.350136],[-71.056759,42.34989],[-71.056706,42.349882],[-71.05668,42.349901],[-71.056691,42.34994],[-71.056924,42.350162],[-71.056977,42.350169],[-71.057008,42.350136]]],[[[-71.056972,42.35036],[-71.056829,42.35022],[-71.056803,42.35022],[-71.056651,42.350079],[-71.056609,42.350079],[-71.056609,42.350109],[-71.056818,42.350307],[-71.056866,42.350299],[-71.05694,42.350369],[-71.056972,42.35036]]],[[[-71.056963,42.350227],[-71.056714,42.349981],[-71.056661,42.349973],[-71.056635,42.349992],[-71.056646,42.350031],[-71.056879,42.350253],[-71.056932,42.35026],[-71.056963,42.350227]]],[[[-71.056936,42.350437],[-71.056793,42.350297],[-71.056762,42.350307],[-71.056613,42.350168],[-71.05659,42.350161],[-71.05656,42.350176],[-71.056567,42.350202],[-71.056786,42.350409],[-71.056822,42.350415],[-71.05684,42.350385],[-71.056904,42.350446],[-71.056936,42.350437]]],[[[-71.056906,42.352143],[-71.056743,42.351984],[-71.056717,42.351984],[-71.056717,42.352004],[-71.056875,42.352153],[-71.056906,42.352143]]],[[[-71.056825,42.353391],[-71.056618,42.353189],[-71.056526,42.353155],[-71.056479,42.353117],[-71.056451,42.353117],[-71.056451,42.353137],[-71.05663,42.353306],[-71.056657,42.353306],[-71.05678,42.353405],[-71.056809,42.353409],[-71.056825,42.353391]]],[[[-71.056811,42.350772],[-71.056638,42.350603],[-71.056612,42.350603],[-71.056612,42.350623],[-71.05678,42.350782],[-71.056811,42.350772]]],[[[-71.056793,42.351055],[-71.056544,42.350809],[-71.056491,42.350801],[-71.056465,42.35082],[-71.056476,42.350859],[-71.056709,42.351081],[-71.056763,42.351088],[-71.056793,42.351055]]],[[[-71.056776,42.350839],[-71.056603,42.35067],[-71.056577,42.35067],[-71.056577,42.35069],[-71.056745,42.350849],[-71.056776,42.350839]]],[[[-71.056636,42.352079],[-71.056463,42.35191],[-71.056437,42.35191],[-71.056437,42.35193],[-71.056605,42.352089],[-71.056636,42.352079]]],[[[-71.056581,42.353268],[-71.056386,42.353078],[-71.056354,42.353078],[-71.056354,42.353102],[-71.056542,42.35328],[-71.056581,42.353268]]],[[[-71.056566,42.351256],[-71.056221,42.350923],[-71.056195,42.350923],[-71.056195,42.350943],[-71.056535,42.351266],[-71.056566,42.351256]]],[[[-71.056566,42.35116],[-71.056423,42.35102],[-71.056397,42.35102],[-71.056397,42.35104],[-71.056534,42.351169],[-71.056566,42.35116]]],[[[-71.056515,42.35202],[-71.056383,42.35189],[-71.056357,42.35189],[-71.056357,42.35191],[-71.056484,42.35203],[-71.056515,42.35202]]],[[[-71.056506,42.355089],[-71.056333,42.35492],[-71.056307,42.35492],[-71.056307,42.35494],[-71.056475,42.355099],[-71.056506,42.355089]]],[[[-71.056505,42.354858],[-71.056298,42.354656],[-71.056256,42.354663],[-71.056256,42.354677],[-71.05646,42.354872],[-71.056489,42.354876],[-71.056505,42.354858]]],[[[-71.056502,42.351306],[-71.056359,42.351166],[-71.056333,42.351166],[-71.056181,42.351026],[-71.056155,42.351026],[-71.056155,42.351046],[-71.056323,42.351205],[-71.056349,42.351205],[-71.05647,42.351315],[-71.056502,42.351306]]],[[[-71.056496,42.354995],[-71.056323,42.354826],[-71.056297,42.354826],[-71.056297,42.354846],[-71.056465,42.355005],[-71.056496,42.354995]]],[[[-71.056488,42.354919],[-71.056304,42.35474],[-71.056276,42.35474],[-71.056276,42.35476],[-71.056455,42.354929],[-71.056488,42.354919]]],[[[-71.056424,42.351001],[-71.056251,42.350832],[-71.056225,42.350832],[-71.056225,42.350852],[-71.056393,42.351011],[-71.056424,42.351001]]],[[[-71.056406,42.351516],[-71.056253,42.351366],[-71.056227,42.351366],[-71.056227,42.351386],[-71.056375,42.351525],[-71.056406,42.351516]]],[[[-71.056387,42.351551],[-71.056234,42.351401],[-71.056208,42.351401],[-71.056208,42.351421],[-71.056356,42.35156],[-71.056387,42.351551]]],[[[-71.056386,42.35318],[-71.056243,42.35304],[-71.056217,42.35304],[-71.056217,42.35306],[-71.056354,42.353189],[-71.056386,42.35318]]],[[[-71.056356,42.35159],[-71.056203,42.35144],[-71.056177,42.35144],[-71.056177,42.35146],[-71.056325,42.351599],[-71.056356,42.35159]]],[[[-71.056316,42.351304],[-71.056143,42.351135],[-71.056117,42.351135],[-71.056117,42.351155],[-71.056285,42.351314],[-71.056316,42.351304]]],[[[-71.056226,42.35185],[-71.056073,42.3517],[-71.056047,42.3517],[-71.055883,42.351551],[-71.055857,42.351551],[-71.055857,42.351571],[-71.056025,42.35173],[-71.056051,42.35173],[-71.056195,42.351859],[-71.056226,42.35185]]],[[[-71.056145,42.351514],[-71.055972,42.351345],[-71.055946,42.351345],[-71.055946,42.351365],[-71.056114,42.351524],[-71.056145,42.351514]]],[[[-71.056121,42.351571],[-71.055948,42.351402],[-71.055922,42.351402],[-71.055922,42.351422],[-71.05609,42.351581],[-71.056121,42.351571]]],[[[-71.056103,42.352447],[-71.055854,42.352201],[-71.05582,42.35219],[-71.055786,42.352201],[-71.055775,42.35224],[-71.055741,42.352262],[-71.055752,42.352301],[-71.055985,42.352523],[-71.05602,42.352533],[-71.056054,42.352523],[-71.056065,42.352483],[-71.056103,42.352447]]],[[[-71.056088,42.351641],[-71.055915,42.351472],[-71.055889,42.351472],[-71.055889,42.351492],[-71.056057,42.351651],[-71.056088,42.351641]]],[[[-71.056027,42.351781],[-71.055854,42.351612],[-71.055828,42.351612],[-71.055828,42.351632],[-71.055996,42.351791],[-71.056027,42.351781]]],[[[-71.056008,42.353543],[-71.055779,42.353319],[-71.055744,42.353314],[-71.055726,42.353327],[-71.055733,42.353353],[-71.055952,42.35356],[-71.055988,42.353566],[-71.056008,42.353543]]],[[[-71.055976,42.351886],[-71.055803,42.351717],[-71.055777,42.351717],[-71.055777,42.351737],[-71.055945,42.351896],[-71.055976,42.351886]]],[[[-71.055956,42.351935],[-71.055783,42.351766],[-71.055757,42.351766],[-71.055757,42.351786],[-71.055925,42.351945],[-71.055956,42.351935]]],[[[-71.055933,42.353592],[-71.055716,42.353379],[-71.055674,42.353379],[-71.055674,42.353409],[-71.055883,42.353607],[-71.055915,42.353612],[-71.055933,42.353592]]],[[[-71.055824,42.353599],[-71.05564,42.35342],[-71.055612,42.35342],[-71.055612,42.35344],[-71.055791,42.353609],[-71.055824,42.353599]]],[[[-71.055726,42.353656],[-71.055553,42.353487],[-71.055527,42.353487],[-71.055527,42.353507],[-71.055695,42.353666],[-71.055726,42.353656]]],[[[-71.055646,42.35367],[-71.055493,42.35352],[-71.055467,42.35352],[-71.055467,42.35354],[-71.055615,42.353679],[-71.055646,42.35367]]],[[[-71.055448,42.35387],[-71.055378,42.353796],[-71.055398,42.353778],[-71.055257,42.353643],[-71.055189,42.353657],[-71.055189,42.353687],[-71.055398,42.353885],[-71.05543,42.35389],[-71.055448,42.35387]]],[[[-71.055381,42.353878],[-71.055186,42.353688],[-71.055154,42.353688],[-71.055154,42.353712],[-71.055342,42.35389],[-71.055381,42.353878]]]]},"properties":{"kind":"tree"}}]}