{"type":"FeatureCollection","features":[{"type":"Feature","geometry":{"type":"MultiPolygon","coordinates":[[[[-71.067774,42.352717],[-71.067751,42.352583],[-71.067491,42.351997],[-71.066872,42.351256],[-71.06685,42.351051],[-71.066114,42.350168],[-71.066138,42.350049],[-71.066151,42.350065],[-71.06621,42.350071],[-71.066235,42.350102],[-71.066312,42.350078],[-71.066323,42.350041],[-71.06629,42.349932],[-71.066324,42.349921],[-71.066235,42.349764],[-71.066006,42.349489],[-71.065714,42.349455],[-71.065762,42.34925],[-71.065185,42.348558],[-71.065222,42.348587],[-71.065516,42.348522],[-71.06552,42.348502],[-71.065427,42.34839],[-71.065551,42.348266],[-71.06556,42.348222],[-71.065525,42.348161],[-71.065629,42.348071],[-71.065638,42.348033],[-71.0656,42.347957],[-71.065483,42.347819],[-71.065431,42.347811],[-71.065319,42.347677],[-71.065257,42.347643],[-71.064894,42.347587],[-71.064503,42.347783],[-71.064389,42.348045],[-71.06434,42.34822],[-71.06445,42.348351],[-71.064445,42.348366],[-71.064188,42.348058],[-71.064192,42.348042],[-71.064113,42.347947],[-71.063968,42.347919],[-71.063883,42.347989],[-71.063856,42.347985],[-71.063829,42.348081],[-71.063888,42.348157],[-71.06379,42.348139],[-71.063801,42.3481],[-71.063606,42.347866],[-71.06346,42.347843],[-71.063391,42.348097],[-71.063301,42.347999],[-71.062961,42.347921],[-71.062929,42.348],[-71.063054,42.34815],[-71.063033,42.348147],[-71.062909,42.347999],[-71.062855,42.347962],[-71.062735,42.347939],[-71.062689,42.348052],[-71.062746,42.348124],[-71.062667,42.348107],[-71.06264,42.348175],[-71.062716,42.348266],[-71.062706,42.348265],[-71.062446,42.347953],[-71.062043,42.347853],[-71.061866,42.34764],[-71.061712,42.347604],[-71.061566,42.347954],[-71.061555,42.348046],[-71.061815,42.348357],[-71.061757,42.3485],[-71.06164,42.348359],[-71.061414,42.348308],[-71.061402,42.348335],[-71.061312,42.348227],[-71.061184,42.348198],[-71.061159,42.348227],[-71.061068,42.348118],[-71.061011,42.348097],[-71.060549,42.348739],[-71.060816,42.34906],[-71.060744,42.349244],[-71.060946,42.349486],[-71.061285,42.349624],[-71.061196,42.349845],[-71.061333,42.350009],[-71.061316,42.350019],[-71.061242,42.350003],[-71.061237,42.350016],[-71.061177,42.349988],[-71.060443,42.349109],[-71.060321,42.349063],[-71.060204,42.349326],[-71.059925,42.350048],[-71.060296,42.350493],[-71.06026,42.350485],[-71.060245,42.350522],[-71.060116,42.350367],[-71.059867,42.350296],[-71.059794,42.350499],[-71.059827,42.350538],[-71.059811,42.350581],[-71.059471,42.35018],[-71.059047,42.350086],[-71.058996,42.350102],[-71.05899,42.350118],[-71.058942,42.350061],[-71.059026,42.349857],[-71.058071,42.348706],[-71.057613,42.348605],[-71.057529,42.348814],[-71.05792,42.349282],[-71.057859,42.349433],[-71.057965,42.34956],[-71.057872,42.349548],[-71.057853,42.349597],[-71.057942,42.349704],[-71.058032,42.349724],[-71.05818,42.349902],[-71.057874,42.34983],[-71.057688,42.349927],[-71.057681,42.349959],[-71.057505,42.349748],[-71.057148,42.34967],[-71.057152,42.349651],[-71.056775,42.349199],[-71.056596,42.349149],[-71.056226,42.349255],[-71.057043,42.348034],[-71.057033,42.347975],[-71.056673,42.347544],[-71.055908,42.347262],[-71.054533,42.349309],[-71.054519,42.349436],[-71.054447,42.34941],[-71.053477,42.350853],[-71.054087,42.351585],[-71.054561,42.35176],[-71.054479,42.351779],[-71.054307,42.351954],[-71.054886,42.352648],[-71.055412,42.352926],[-71.055572,42.352977],[-71.05574,42.353002],[-71.055917,42.352962],[-71.056037,42.352872],[-71.05614,42.352739],[-71.056545,42.353224],[-71.056242,42.353099],[-71.055998,42.353225],[-71.056026,42.35333],[-71.056313,42.353674],[-71.05633,42.353813],[-71.055897,42.353294],[-71.055573,42.353469],[-71.055605,42.353507],[-71.055589,42.353497],[-71.055421,42.353589],[-71.055376,42.353638],[-71.055342,42.353603],[-71.054915,42.353838],[-71.055276,42.354271],[-71.055239,42.354284],[-71.05493,42.353943],[-71.054889,42.353912],[-71.054834,42.353899],[-71.054776,42.353908],[-71.054391,42.354111],[-71.054355,42.354162],[-71.054364,42.354206],[-71.056843,42.357175],[-71.05707,42.357408],[-71.05712,42.357422],[-71.057187,42.357406],[-71.057353,42.35726],[-71.058978,42.359208],[-71.05943,42.359164],[-71.059329,42.358585],[-71.057712,42.356646],[-71.057679,42.356467],[-71.058801,42.357812],[-71.059584,42.357753],[-71.059564,42.357602],[-71.057795,42.355481],[-71.05789,42.355469],[-71.058,42.35543],[-71.058091,42.355318],[-71.057936,42.355087],[-71.059133,42.356516],[-71.059282,42.356566],[-71.059425,42.356738],[-71.059504,42.356764],[-71.059762,42.357073],[-71.060122,42.357198],[-71.060306,42.356896],[-71.06052,42.357152],[-71.060594,42.357207],[-71.060886,42.357326],[-71.061132,42.357112],[-71.061195,42.357034],[-71.060009,42.355612],[-71.060091,42.355536],[-71.060217,42.35558],[-71.060413,42.355814],[-71.060619,42.355827],[-71.061023,42.356312],[-71.061105,42.356318],[-71.061201,42.356432],[-71.061661,42.356458],[-71.061683,42.356243],[-71.061617,42.356165],[-71.061627,42.356078],[-71.061464,42.355882],[-71.061779,42.355897],[-71.061767,42.355788],[-71.061883,42.355844],[-71.062055,42.355657],[-71.062009,42.355602],[-71.062037,42.355586],[-71.062139,42.355709],[-71.062415,42.355852],[-71.062745,42.3555],[-71.062634,42.355367],[-71.062763,42.355517],[-71.062875,42.35558],[-71.062906,42.355553],[-71.063082,42.355764],[-71.063172,42.355815],[-71.063327,42.355652],[-71.063983,42.355978],[-71.064027,42.355969],[-71.064064,42.355901],[-71.064559,42.356495],[-71.064745,42.356556],[-71.064791,42.356611],[-71.065032,42.356682],[-71.065049,42.356649],[-71.065543,42.356652],[-71.065582,42.356399],[-71.064668,42.355283],[-71.064734,42.355303],[-71.065269,42.355944],[-71.065348,42.355982],[-71.065517,42.355985],[-71.065688,42.35619],[-71.065789,42.356255],[-71.065893,42.356286],[-71.065947,42.356189],[-71.065861,42.35579],[-71.065743,42.355648],[-71.065745,42.355614],[-71.064589,42.354229],[-71.065008,42.35426],[-71.065075,42.35418],[-71.06509,42.35414],[-71.065396,42.354173],[-71.065431,42.353985],[-71.065415,42.353827],[-71.06535,42.35375],[-71.065658,42.353789],[-71.065781,42.353936],[-71.065993,42.35396],[-71.066029,42.353832],[-71.066239,42.353674],[-71.066264,42.353589],[-71.066033,42.353312],[-71.066303,42.353326],[-71.066329,42.353136],[-71.066465,42.353298],[-71.066662,42.353313],[-71.066709,42.353025],[-71.066664,42.352971],[-71.066708,42.35297],[-71.066692,42.35268],[-71.066655,42.352635],[-71.067591,42.352762],[-71.067774,42.352717]],[[-71.065519,42.349472],[-71.065516,42.349485],[-71.065503,42.349469],[-71.065519,42.349472]],[[-71.065437,42.349854],[-71.06542,42.349918],[-71.065361,42.34983],[-71.065437,42.349854]],[[-71.064765,42.349555],[-71.064716,42.349547],[-71.064724,42.349517],[-71.06467,42.349453],[-71.064765,42.349555]],[[-71.064263,42.348614],[-71.064202,42.348771],[-71.064015,42.348547],[-71.064231,42.34858],[-71.064263,42.348614]],[[-71.063604,42.34848],[-71.063592,42.348521],[-71.063476,42.348381],[-71.063417,42.348372],[-71.063321,42.348257],[-71.06344,42.348283],[-71.063604,42.34848]],[[-71.062406,42.34938],[-71.062233,42.349284],[-71.062265,42.34921],[-71.062406,42.34938]],[[-71.062324,42.348968],[-71.062241,42.349144],[-71.062081,42.348953],[-71.062156,42.348766],[-71.062324,42.348968]],[[-71.061861,42.352529],[-71.061803,42.352534],[-71.061774,42.352479],[-71.061817,42.352477],[-71.061861,42.352529]],[[-71.06157,42.352554],[-71.061487,42.352561],[-71.061498,42.352734],[-71.061369,42.352579],[-71.061366,42.352424],[-71.061452,42.352411],[-71.06157,42.352554]],[[-71.061369,42.351938],[-71.061357,42.351923],[-71.061366,42.351926],[-71.061369,42.351938]],[[-71.060648,42.35332],[-71.060554,42.353422],[-71.060325,42.353148],[-71.060219,42.353094],[-71.060185,42.353052],[-71.060229,42.353055],[-71.060196,42.352837],[-71.060103,42.352725],[-71.060094,42.352665],[-71.060156,42.352654],[-71.060133,42.352498],[-71.060274,42.35264],[-71.060188,42.352643],[-71.060197,42.35274],[-71.060277,42.352836],[-71.060268,42.352864],[-71.060648,42.35332]],[[-71.060521,42.351719],[-71.060476,42.351726],[-71.060377,42.351608],[-71.060362,42.351559],[-71.060417,42.351566],[-71.060432,42.351612],[-71.060521,42.351719]],[[-71.060117,42.351342],[-71.059758,42.351262],[-71.059722,42.351229],[-71.059906,42.350774],[-71.059956,42.350834],[-71.060037,42.350852],[-71.060089,42.350914],[-71.059972,42.351168],[-71.060117,42.351342]],[[-71.059809,42.352023],[-71.059626,42.351804],[-71.059386,42.351848],[-71.059451,42.352282],[-71.059226,42.352012],[-71.059026,42.352083],[-71.058873,42.352183],[-71.058814,42.352257],[-71.058775,42.35235],[-71.058922,42.352526],[-71.058709,42.352529],[-71.058726,42.352461],[-71.058525,42.35222],[-71.058618,42.352235],[-71.058681,42.35208],[-71.058711,42.352107],[-71.058907,42.35215],[-71.059119,42.351945],[-71.059305,42.35169],[-71.059387,42.351519],[-71.059323,42.351443],[-71.059565,42.351497],[-71.05962,42.351481],[-71.05969,42.351309],[-71.059724,42.35135],[-71.059709,42.351391],[-71.059809,42.352023]],[[-71.057017,42.350616],[-71.05694,42.350597],[-71.056864,42.350601],[-71.05691,42.350488],[-71.057017,42.350616]],[[-71.056543,42.351419],[-71.056294,42.351331],[-71.056079,42.351765],[-71.056327,42.352062],[-71.056202,42.352031],[-71.056132,42.352056],[-71.055768,42.35162],[-71.055498,42.351545],[-71.05473,42.351721],[-71.054951,42.351438],[-71.055378,42.350801],[-71.055595,42.350979],[-71.055716,42.351124],[-71.055774,42.35114],[-71.055788,42.351113],[-71.055963,42.351155],[-71.056198,42.35115],[-71.056261,42.351225],[-71.056347,42.351249],[-71.056397,42.351148],[-71.056449,42.351143],[-71.056401,42.351249],[-71.056543,42.351419]]],[[[-71.067047,42.349205],[-71.066483,42.348529],[-71.066374,42.348516],[-71.065995,42.348062],[-71.065837,42.348044],[-71.065752,42.348444],[-71.066582,42.349454],[-71.066678,42.349465],[-71.066688,42.349394],[-71.066637,42.349333],[-71.066644,42.349299],[-71.066696,42.349305],[-71.066699,42.349288],[-71.067019,42.349325],[-71.067047,42.349205]]],[[[-71.066293,42.349706],[-71.066237,42.349608],[-71.066051,42.349385],[-71.065989,42.349405],[-71.066043,42.349503],[-71.066229,42.349726],[-71.066293,42.349706]]],[[[-71.065746,42.354564],[-71.065554,42.354318],[-71.065508,42.354299],[-71.06545,42.354322],[-71.06545,42.354366],[-71.065639,42.354591],[-71.065708,42.354604],[-71.065746,42.354564]]],[[[-71.059424,42.349854],[-71.059318,42.349726],[-71.059179,42.349693],[-71.059105,42.349866],[-71.059211,42.349993],[-71.05935,42.350026],[-71.059424,42.349854]]]]},"properties":{"kind":"building"}},{"type":"Feature","geometry":{"type":"MultiPolygon","coordinates":[[[[-71.066422,42.353887],[-71.066411,42.353846],[-71.066197,42.353589],[-71.066197,42.353535],[-71.066285,42.353532],[-71.06635,42.353484],[-71.066359,42.35345],[-71.066333,42.353396],[-71.066385,42.353351],[-71.066396,42.353309],[-71.066385,42.353268],[-71.066099,42.352925],[-71.06612,42.352908],[-71.066162,42.35294],[-71.066219,42.35294],[-71.06626,42.35291],[-71.06626,42.352868],[-71.066,42.352558],[-71.065947,42.352542],[-71.065883,42.35257],[-71.065841,42.352538],[-71.065759,42.35255],[-71.065688,42.352518],[-71.065619,42.352552],[-71.065613,42.352573],[-71.065632,42.352609],[-71.065574,42.352593],[-71.06551,42.352612],[-71.065401,42.352516],[-71.065321,42.352516],[-71.065288,42.352533],[-71.065257,42.352587],[-71.065265,42.352616],[-71.065506,42.352918],[-71.065463,42.35295],[-71.065463,42.352996],[-71.065412,42.353032],[-71.065377,42.35298],[-71.065403,42.352932],[-71.065395,42.352905],[-71.065102,42.352553],[-71.065049,42.352515],[-71.064975,42.352515],[-71.064922,42.352553],[-71.064922,42.352609],[-71.065102,42.352824],[-71.065081,42.352852],[-71.065093,42.352876],[-71.065047,42.352891],[-71.065027,42.352928],[-71.065179,42.353125],[-71.065133,42.353132],[-71.06512,42.353156],[-71.065169,42.353223],[-71.065146,42.353244],[-71.065096,42.353185],[-71.065018,42.353161],[-71.06483,42.352952],[-71.064791,42.352933],[-71.064699,42.352933],[-71.064634,42.352981],[-71.064625,42.353015],[-71.064656,42.353075],[-71.064658,42.353148],[-71.064762,42.353273],[-71.064751,42.353281],[-71.064701,42.353248],[-71.064617,42.353248],[-71.064557,42.353292],[-71.064549,42.353323],[-71.064557,42.353354],[-71.064649,42.353464],[-71.06456,42.353483],[-71.06453,42.353536],[-71.064538,42.353564],[-71.064822,42.353905],[-71.064808,42.353912],[-71.064737,42.353847],[-71.064677,42.353847],[-71.064464,42.353606],[-71.064418,42.353592],[-71.064372,42.353606],[-71.064358,42.353658],[-71.064324,42.353692],[-71.064331,42.353737],[-71.064284,42.353761],[-71.064284,42.353793],[-71.064309,42.353823],[-71.064258,42.353857],[-71.064258,42.353905],[-71.064238,42.353945],[-71.06429,42.354024],[-71.064238,42.354041],[-71.064214,42.354083],[-71.064281,42.354179],[-71.064207,42.354121],[-71.064149,42.354121],[-71.064103,42.354172],[-71.064133,42.354222],[-71.064088,42.354236],[-71.064069,42.35427],[-71.064296,42.354555],[-71.064344,42.354583],[-71.064404,42.354655],[-71.064353,42.354608],[-71.064297,42.354599],[-71.064111,42.354376],[-71.064067,42.354344],[-71.063979,42.354357],[-71.063955,42.354399],[-71.063968,42.35443],[-71.063903,42.354482],[-71.063892,42.354523],[-71.063903,42.354564],[-71.064267,42.355001],[-71.064346,42.355059],[-71.064453,42.35506],[-71.064512,42.355113],[-71.06459,42.355102],[-71.064606,42.355085],[-71.064606,42.355044],[-71.064545,42.354971],[-71.064544,42.354944],[-71.064601,42.354977],[-71.06464,42.354965],[-71.064656,42.354936],[-71.064595,42.354852],[-71.064627,42.354853],[-71.064651,42.354881],[-71.064688,42.354892],[-71.064725,42.354881],[-71.064737,42.354841],[-71.064795,42.354911],[-71.064734,42.354932],[-71.064711,42.354957],[-71.064711,42.355015],[-71.065018,42.355384],[-71.065075,42.355425],[-71.065114,42.355431],[-71.065188,42.355409],[-71.06521,42.355384],[-71.06521,42.355325],[-71.064903,42.354957],[-71.064834,42.354913],[-71.064738,42.354792],[-71.064803,42.35483],[-71.064845,42.354817],[-71.06486,42.354791],[-71.065108,42.355074],[-71.065219,42.355058],[-71.065264,42.355025],[-71.065322,42.355092],[-71.065395,42.355126],[-71.065463,42.35512],[-71.0655,42.355162],[-71.065553,42.355178],[-71.065622,42.355144],[-71.065609,42.355087],[-71.065823,42.355327],[-71.06591,42.355353],[-71.065957,42.355346],[-71.066024,42.355297],[-71.066024,42.355227],[-71.065647,42.354779],[-71.06556,42.354752],[-71.065502,42.354764],[-71.065444,42.354711],[-71.065381,42.354717],[-71.065327,42.354655],[-71.065204,42.354611],[-71.065145,42.35454],[-71.065145,42.354512],[-71.065074,42.354426],[-71.065098,42.354408],[-71.065098,42.35438],[-71.065032,42.354286],[-71.065097,42.354327],[-71.065208,42.354459],[-71.065272,42.354469],[-71.065308,42.354429],[-71.065191,42.354277],[-71.065187,42.354246],[-71.064954,42.353967],[-71.065002,42.353949],[-71.065032,42.353896],[-71.064957,42.353786],[-71.065023,42.353784],[-71.065082,42.35374],[-71.065155,42.35381],[-71.065233,42.353799],[-71.065249,42.353782],[-71.065249,42.353741],[-71.065172,42.353649],[-71.065282,42.353781],[-71.065285,42.353808],[-71.065529,42.3541],[-71.065639,42.354149],[-71.065678,42.354137],[-71.065693,42.354112],[-71.065832,42.354247],[-71.065885,42.35424],[-71.065896,42.3542],[-71.065921,42.354196],[-71.066042,42.354331],[-71.066076,42.354341],[-71.06611,42.354331],[-71.066121,42.354291],[-71.065923,42.354056],[-71.06586,42.354045],[-71.065915,42.354021],[-71.065947,42.353986],[-71.065958,42.353944],[-71.065947,42.353903],[-71.065744,42.35366],[-71.065841,42.353666],[-71.065892,42.353631],[-71.066173,42.353964],[-71.06622,42.353987],[-71.066332,42.353987],[-71.066379,42.353964],[-71.066411,42.353929],[-71.066422,42.353887]],[[-71.065436,42.353129],[-71.065421,42.353137],[-71.06537,42.353076],[-71.065402,42.353058],[-71.065408,42.353095],[-71.065436,42.353129]],[[-71.064957,42.354431],[-71.064899,42.354414],[-71.064839,42.354345],[-71.064886,42.354357],[-71.064957,42.354431]],[[-71.064615,42.354497],[-71.064571,42.354449],[-71.064594,42.354443],[-71.064615,42.354497]]],[[[-71.066276,42.355247],[-71.066078,42.354997],[-71.066149,42.354993],[-71.066191,42.354972],[-71.066219,42.354941],[-71.066219,42.354868],[-71.065827,42.3544],[-71.065735,42.354372],[-71.065643,42.3544],[-71.065605,42.354468],[-71.065615,42.354505],[-71.065965,42.354924],[-71.065915,42.354953],[-71.065915,42.354991],[-71.066159,42.355283],[-71.066234,42.355294],[-71.066276,42.355247]]],[[[-71.066186,42.35426],[-71.066009,42.354041],[-71.065953,42.354041],[-71.065945,42.354072],[-71.066119,42.35428],[-71.066162,42.354286],[-71.066186,42.35426]]],[[[-71.066052,42.348305],[-71.065811,42.348004],[-71.06574,42.347994],[-71.065705,42.34802],[-71.065705,42.348056],[-71.065942,42.348338],[-71.066012,42.348349],[-71.066052,42.348305]]],[[[-71.065991,42.348421],[-71.065774,42.348151],[-71.065714,42.348142],[-71.065684,42.348164],[-71.065684,42.348196],[-71.065897,42.34845],[-71.065957,42.348459],[-71.065991,42.348421]]],[[[-71.065947,42.348696],[-71.065721,42.348415],[-71.06568,42.348403],[-71.065643,42.348413],[-71.065514,42.348274],[-71.065466,42.348274],[-71.065433,42.348299],[-71.065433,42.348333],[-71.065662,42.348606],[-71.065705,42.34862],[-71.065747,42.348607],[-71.065866,42.348736],[-71.065911,42.348736],[-71.065947,42.348696]]],[[[-71.065823,42.348407],[-71.065727,42.348288],[-71.065693,42.348288],[-71.065788,42.348412],[-71.065812,42.348419],[-71.065823,42.348407]]],[[[-71.06572,42.34943],[-71.065544,42.349211],[-71.065497,42.349202],[-71.065364,42.349045],[-71.065311,42.349037],[-71.065285,42.349056],[-71.065285,42.349084],[-71.065472,42.349308],[-71.06553,42.349328],[-71.065637,42.349455],[-71.06569,42.349463],[-71.06572,42.34943]]],[[[-71.065697,42.351354],[-71.065587,42.351218],[-71.065553,42.351218],[-71.065662,42.351359],[-71.065686,42.351366],[-71.065697,42.351354]]],[[[-71.065686,42.349062],[-71.065418,42.348765],[-71.065365,42.348757],[-71.065339,42.348776],[-71.065339,42.348804],[-71.065511,42.349009],[-71.065546,42.34902],[-71.065591,42.348998],[-71.065661,42.349075],[-71.065686,42.349062]]],[[[-71.06565,42.349199],[-71.065561,42.349089],[-71.065527,42.349089],[-71.065385,42.348921],[-71.065346,42.348916],[-71.065327,42.34893],[-71.065327,42.34895],[-71.065494,42.349149],[-71.065532,42.349155],[-71.065552,42.34914],[-71.065625,42.349212],[-71.06565,42.349199]]],[[[-71.065643,42.348224],[-71.065547,42.348105],[-71.065513,42.348105],[-71.065608,42.348229],[-71.065632,42.348236],[-71.065643,42.348224]]],[[[-71.065613,42.348602],[-71.065481,42.34844],[-71.065439,42.34844],[-71.065569,42.348609],[-71.065599,42.348618],[-71.065613,42.348602]]],[[[-71.065602,42.354237],[-71.065361,42.353936],[-71.065323,42.353923],[-71.065249,42.35385],[-71.065201,42.35385],[-71.065168,42.353875],[-71.065168,42.353909],[-71.065383,42.354168],[-71.065492,42.35427],[-71.065562,42.354281],[-71.065602,42.354237]]],[[[-71.06547,42.351332],[-71.065367,42.351205],[-71.065333,42.351205],[-71.065435,42.351338],[-71.065459,42.351345],[-71.06547,42.351332]]],[[[-71.065457,42.354314],[-71.065244,42.354047],[-71.065197,42.354022],[-71.065142,42.353957],[-71.065071,42.353947],[-71.065036,42.353973],[-71.065036,42.354009],[-71.065273,42.354291],[-71.065398,42.354357],[-71.06544,42.354344],[-71.065457,42.354314]]],[[[-71.065363,42.351324],[-71.065267,42.351205],[-71.065233,42.351205],[-71.065328,42.351329],[-71.065352,42.351336],[-71.065363,42.351324]]],[[[-71.065313,42.350885],[-71.065174,42.350713],[-71.06515,42.350701],[-71.065126,42.350713],[-71.065264,42.350892],[-71.065287,42.350904],[-71.065313,42.350885]]],[[[-71.065288,42.350949],[-71.065149,42.350777],[-71.065125,42.350765],[-71.065101,42.350777],[-71.065239,42.350956],[-71.065262,42.350968],[-71.065288,42.350949]]],[[[-71.065253,42.351001],[-71.065128,42.350847],[-71.065092,42.350847],[-71.065215,42.351006],[-71.065241,42.351014],[-71.065253,42.351001]]],[[[-71.065046,42.351432],[-71.064943,42.351305],[-71.064909,42.351305],[-71.065011,42.351438],[-71.065035,42.351445],[-71.065046,42.351432]]],[[[-71.064952,42.34857],[-71.064856,42.348451],[-71.064822,42.348451],[-71.064917,42.348575],[-71.064941,42.348582],[-71.064952,42.34857]]],[[[-71.064719,42.35194],[-71.064623,42.351821],[-71.064589,42.351821],[-71.064684,42.351945],[-71.064708,42.351952],[-71.064719,42.35194]]],[[[-71.064716,42.348539],[-71.06462,42.34842],[-71.064586,42.34842],[-71.064681,42.348544],[-71.064705,42.348551],[-71.064716,42.348539]]],[[[-71.064688,42.352252],[-71.064563,42.352098],[-71.064527,42.352098],[-71.06465,42.352257],[-71.064676,42.352265],[-71.064688,42.352252]]],[[[-71.06467,42.352177],[-71.064567,42.35205],[-71.064533,42.35205],[-71.064635,42.352183],[-71.064659,42.35219],[-71.06467,42.352177]]],[[[-71.064643,42.352274],[-71.064547,42.352155],[-71.064513,42.352155],[-71.064608,42.352279],[-71.064632,42.352286],[-71.064643,42.352274]]],[[[-71.064531,42.348513],[-71.064435,42.348394],[-71.064401,42.348394],[-71.064496,42.348518],[-71.06452,42.348525],[-71.064531,42.348513]]],[[[-71.064339,42.348876],[-71.064207,42.348714],[-71.064165,42.348714],[-71.064295,42.348883],[-71.064325,42.348892],[-71.064339,42.348876]]],[[[-71.064333,42.351039],[-71.064237,42.35092],[-71.064203,42.35092],[-71.064298,42.351044],[-71.064322,42.351051],[-71.064333,42.351039]]],[[[-71.064285,42.348979],[-71.064167,42.348835],[-71.064133,42.348835],[-71.064249,42.348985],[-71.064273,42.348992],[-71.064285,42.348979]]],[[[-71.064243,42.351028],[-71.064147,42.350909],[-71.064113,42.350909],[-71.064208,42.351033],[-71.064232,42.35104],[-71.064243,42.351028]]],[[[-71.064234,42.351096],[-71.064073,42.350897],[-71.064027,42.350897],[-71.06402,42.350923],[-71.064179,42.351113],[-71.064214,42.351118],[-71.064234,42.351096]]],[[[-71.064227,42.355024],[-71.063938,42.354663],[-71.063846,42.354649],[-71.0638,42.354683],[-71.063799,42.354727],[-71.063755,42.354758],[-71.063755,42.354802],[-71.064023,42.355121],[-71.064108,42.355134],[-71.064154,42.355085],[-71.064203,42.355069],[-71.064227,42.355024]]],[[[-71.064205,42.353439],[-71.064087,42.353295],[-71.064053,42.353295],[-71.064169,42.353445],[-71.064193,42.353452],[-71.064205,42.353439]]],[[[-71.064173,42.353538],[-71.063941,42.353262],[-71.063899,42.353262],[-71.064135,42.353543],[-71.064161,42.353551],[-71.064173,42.353538]]],[[[-71.064139,42.351102],[-71.063962,42.350883],[-71.063906,42.350883],[-71.063898,42.350914],[-71.064072,42.351122],[-71.064115,42.351128],[-71.064139,42.351102]]],[[[-71.06413,42.353422],[-71.064012,42.353278],[-71.063978,42.353278],[-71.064094,42.353428],[-71.064118,42.353435],[-71.06413,42.353422]]],[[[-71.064115,42.353899],[-71.063997,42.353755],[-71.063963,42.353755],[-71.064079,42.353905],[-71.064103,42.353912],[-71.064115,42.353899]]],[[[-71.064108,42.353534],[-71.063983,42.35338],[-71.063947,42.35338],[-71.06407,42.353539],[-71.064096,42.353547],[-71.064108,42.353534]]],[[[-71.064074,42.354149],[-71.063913,42.35395],[-71.063867,42.35395],[-71.06386,42.353976],[-71.064019,42.354166],[-71.064054,42.354171],[-71.064074,42.354149]]],[[[-71.064045,42.353513],[-71.063927,42.353369],[-71.063893,42.353369],[-71.064009,42.353519],[-71.064033,42.353526],[-71.064045,42.353513]]],[[[-71.064039,42.348823],[-71.063914,42.348669],[-71.063878,42.348669],[-71.064001,42.348828],[-71.064027,42.348836],[-71.064039,42.348823]]],[[[-71.064023,42.348899],[-71.063891,42.348737],[-71.063849,42.348737],[-71.063979,42.348906],[-71.064009,42.348915],[-71.064023,42.348899]]],[[[-71.064003,42.349018],[-71.063878,42.348864],[-71.063842,42.348864],[-71.063965,42.349023],[-71.063991,42.349031],[-71.064003,42.349018]]],[[[-71.063968,42.348907],[-71.063872,42.348788],[-71.063838,42.348788],[-71.063933,42.348912],[-71.063957,42.348919],[-71.063968,42.348907]]],[[[-71.063953,42.354285],[-71.063814,42.354113],[-71.06379,42.354101],[-71.063766,42.354113],[-71.063904,42.354292],[-71.063927,42.354304],[-71.063953,42.354285]]],[[[-71.063916,42.349262],[-71.06382,42.349143],[-71.063786,42.349143],[-71.063881,42.349267],[-71.063905,42.349274],[-71.063916,42.349262]]],[[[-71.063903,42.348541],[-71.063807,42.348422],[-71.063773,42.348422],[-71.063868,42.348546],[-71.063892,42.348553],[-71.063903,42.348541]]],[[[-71.063863,42.349407],[-71.063767,42.349288],[-71.063733,42.349288],[-71.063828,42.349412],[-71.063852,42.349419],[-71.063863,42.349407]]],[[[-71.063859,42.351065],[-71.063698,42.350866],[-71.063652,42.350866],[-71.063645,42.350892],[-71.063804,42.351082],[-71.063839,42.351087],[-71.063859,42.351065]]],[[[-71.06385,42.349449],[-71.063754,42.34933],[-71.06372,42.34933],[-71.063815,42.349454],[-71.063839,42.349461],[-71.06385,42.349449]]],[[[-71.063813,42.348524],[-71.063717,42.348405],[-71.063683,42.348405],[-71.063778,42.348529],[-71.063802,42.348536],[-71.063813,42.348524]]],[[[-71.063813,42.349908],[-71.063688,42.349754],[-71.063652,42.349754],[-71.063775,42.349913],[-71.063801,42.349921],[-71.063813,42.349908]]],[[[-71.063749,42.349993],[-71.063631,42.349849],[-71.063597,42.349849],[-71.063713,42.349999],[-71.063737,42.350006],[-71.063749,42.349993]]],[[[-71.063743,42.351032],[-71.063611,42.35087],[-71.063569,42.35087],[-71.063699,42.351039],[-71.063729,42.351048],[-71.063743,42.351032]]],[[[-71.06373,42.354894],[-71.063554,42.354675],[-71.063501,42.354667],[-71.063475,42.354686],[-71.063475,42.354714],[-71.063647,42.354919],[-71.0637,42.354927],[-71.06373,42.354894]]],[[[-71.063703,42.350098],[-71.063578,42.349944],[-71.063542,42.349944],[-71.063665,42.350103],[-71.063691,42.350111],[-71.063703,42.350098]]],[[[-71.063683,42.351029],[-71.063544,42.350857],[-71.06352,42.350845],[-71.063496,42.350857],[-71.063634,42.351036],[-71.063657,42.351048],[-71.063683,42.351029]]],[[[-71.06367,42.354994],[-71.063494,42.354775],[-71.063441,42.354767],[-71.063415,42.354786],[-71.063415,42.354814],[-71.063587,42.355019],[-71.06364,42.355027],[-71.06367,42.354994]]],[[[-71.063665,42.350139],[-71.063547,42.349995],[-71.063513,42.349995],[-71.063629,42.350145],[-71.063653,42.350152],[-71.063665,42.350139]]],[[[-71.063575,42.350557],[-71.063457,42.350413],[-71.063423,42.350413],[-71.063539,42.350563],[-71.063563,42.35057],[-71.063575,42.350557]]],[[[-71.063567,42.350311],[-71.063457,42.350175],[-71.063423,42.350175],[-71.063532,42.350316],[-71.063556,42.350323],[-71.063567,42.350311]]],[[[-71.063543,42.350618],[-71.063433,42.350482],[-71.063399,42.350482],[-71.063508,42.350623],[-71.063532,42.35063],[-71.063543,42.350618]]],[[[-71.063537,42.350377],[-71.063427,42.350241],[-71.063393,42.350241],[-71.063502,42.350382],[-71.063526,42.350389],[-71.063537,42.350377]]],[[[-71.063528,42.350938],[-71.063472,42.350866],[-71.063493,42.350852],[-71.063368,42.350698],[-71.063343,42.350691],[-71.063247,42.350577],[-71.063213,42.350577],[-71.063329,42.350727],[-71.063361,42.350744],[-71.063333,42.35075],[-71.063217,42.350618],[-71.063193,42.350635],[-71.063309,42.350775],[-71.063356,42.350807],[-71.063334,42.350826],[-71.063488,42.351009],[-71.063521,42.350998],[-71.063501,42.350959],[-71.063528,42.350938]]],[[[-71.063512,42.350411],[-71.063402,42.350275],[-71.063368,42.350275],[-71.063477,42.350416],[-71.063501,42.350423],[-71.063512,42.350411]]],[[[-71.063505,42.350672],[-71.063327,42.350435],[-71.063293,42.350435],[-71.06347,42.350678],[-71.063494,42.350685],[-71.063505,42.350672]]],[[[-71.06347,42.350732],[-71.063385,42.350627],[-71.063406,42.350609],[-71.063297,42.350478],[-71.063263,42.350478],[-71.063354,42.350597],[-71.063333,42.350605],[-71.063262,42.350524],[-71.063238,42.350541],[-71.063347,42.350672],[-71.063381,42.350672],[-71.063445,42.350745],[-71.06347,42.350732]]],[[[-71.063287,42.350858],[-71.063177,42.350722],[-71.063143,42.350722],[-71.063252,42.350863],[-71.063276,42.35087],[-71.063287,42.350858]]],[[[-71.063286,42.350782],[-71.063197,42.350672],[-71.063163,42.350672],[-71.063251,42.350788],[-71.063275,42.350795],[-71.063286,42.350782]]],[[[-71.063273,42.350913],[-71.063148,42.350759],[-71.063112,42.350759],[-71.063235,42.350918],[-71.063261,42.350926],[-71.063273,42.350913]]],[[[-71.063246,42.35236],[-71.063143,42.352233],[-71.063109,42.352233],[-71.063211,42.352366],[-71.063235,42.352373],[-71.063246,42.35236]]],[[[-71.063185,42.352372],[-71.063082,42.352245],[-71.063048,42.352245],[-71.06315,42.352378],[-71.063174,42.352385],[-71.063185,42.352372]]],[[[-71.063085,42.352375],[-71.062982,42.352248],[-71.062948,42.352248],[-71.062911,42.352208],[-71.062887,42.352215],[-71.062996,42.352356],[-71.06303,42.352356],[-71.06306,42.352388],[-71.063085,42.352375]]],[[[-71.062953,42.35345],[-71.062762,42.353201],[-71.062726,42.353201],[-71.062792,42.353308],[-71.062915,42.353455],[-71.062941,42.353463],[-71.062953,42.35345]]],[[[-71.062953,42.353362],[-71.062828,42.353208],[-71.062792,42.353208],[-71.062915,42.353367],[-71.062941,42.353375],[-71.062953,42.353362]]],[[[-71.06295,42.352337],[-71.062847,42.35221],[-71.062813,42.35221],[-71.062915,42.352343],[-71.062939,42.35235],[-71.06295,42.352337]]],[[[-71.062893,42.353462],[-71.062761,42.3533],[-71.062719,42.3533],[-71.062849,42.353469],[-71.062879,42.353478],[-71.062893,42.353462]]],[[[-71.062704,42.348527],[-71.062557,42.348346],[-71.062509,42.348339],[-71.062501,42.348354],[-71.062648,42.348536],[-71.062675,42.348549],[-71.062704,42.348527]]],[[[-71.062669,42.34958],[-71.062484,42.349351],[-71.062424,42.349351],[-71.062366,42.349294],[-71.062311,42.349311],[-71.062311,42.349335],[-71.062493,42.349552],[-71.062553,42.349552],[-71.062611,42.349609],[-71.062643,42.349609],[-71.062669,42.34958]]],[[[-71.062593,42.348713],[-71.062461,42.348551],[-71.062419,42.348551],[-71.062549,42.34872],[-71.062579,42.348729],[-71.062593,42.348713]]],[[[-71.062575,42.348572],[-71.062398,42.348353],[-71.062342,42.348353],[-71.062334,42.348384],[-71.062508,42.348592],[-71.062551,42.348598],[-71.062575,42.348572]]],[[[-71.062163,42.3539],[-71.062038,42.353746],[-71.062002,42.353746],[-71.062125,42.353905],[-71.062151,42.353913],[-71.062163,42.3539]]],[[[-71.062102,42.349742],[-71.061926,42.349523],[-71.061873,42.349515],[-71.061847,42.349534],[-71.061847,42.349562],[-71.062019,42.349767],[-71.062072,42.349775],[-71.062102,42.349742]]],[[[-71.062101,42.34942],[-71.062005,42.349301],[-71.061971,42.349301],[-71.062066,42.349425],[-71.06209,42.349432],[-71.062101,42.34942]]],[[[-71.062083,42.353974],[-71.061987,42.353855],[-71.061953,42.353855],[-71.062048,42.353979],[-71.062072,42.353986],[-71.062083,42.353974]]],[[[-71.062048,42.353848],[-71.061923,42.353694],[-71.061887,42.353694],[-71.06201,42.353853],[-71.062036,42.353861],[-71.062048,42.353848]]],[[[-71.062046,42.349552],[-71.06195,42.349433],[-71.061916,42.349433],[-71.062011,42.349557],[-71.062035,42.349564],[-71.062046,42.349552]]],[[[-71.062033,42.353973],[-71.06191,42.353822],[-71.061949,42.353801],[-71.061824,42.353647],[-71.061729,42.353574],[-71.061691,42.353574],[-71.061666,42.353592],[-71.061617,42.353538],[-71.061593,42.353545],[-71.061888,42.353902],[-71.061912,42.353909],[-71.061922,42.353892],[-71.061876,42.353836],[-71.061995,42.353978],[-71.062021,42.353986],[-71.062033,42.353973]]],[[[-71.062031,42.348528],[-71.061838,42.348288],[-71.061789,42.348281],[-71.061764,42.348299],[-71.061764,42.348325],[-71.061954,42.348551],[-71.062003,42.348559],[-71.062031,42.348528]]],[[[-71.062023,42.349994],[-71.061927,42.349875],[-71.061924,42.349846],[-71.061751,42.349641],[-71.061717,42.34963],[-71.061683,42.349641],[-71.061672,42.34968],[-71.061844,42.349885],[-71.061897,42.349893],[-71.061998,42.350006],[-71.062023,42.349994]]],[[[-71.061993,42.35004],[-71.061897,42.349921],[-71.061863,42.349921],[-71.061958,42.350045],[-71.061982,42.350052],[-71.061993,42.35004]]],[[[-71.061987,42.350114],[-71.061891,42.349995],[-71.061857,42.349995],[-71.061952,42.350119],[-71.061976,42.350126],[-71.061987,42.350114]]],[[[-71.061963,42.350158],[-71.061867,42.350039],[-71.061833,42.350039],[-71.061928,42.350163],[-71.061952,42.35017],[-71.061963,42.350158]]],[[[-71.061955,42.350491],[-71.061778,42.350272],[-71.061722,42.350272],[-71.061711,42.350292],[-71.061722,42.350313],[-71.061688,42.350322],[-71.061678,42.350359],[-71.061868,42.350585],[-71.061932,42.350585],[-71.061945,42.350562],[-71.061917,42.350519],[-71.061955,42.350491]]],[[[-71.061933,42.350194],[-71.061837,42.350075],[-71.061803,42.350075],[-71.061898,42.350199],[-71.061922,42.350206],[-71.061933,42.350194]]],[[[-71.061912,42.35026],[-71.061823,42.35015],[-71.061789,42.35015],[-71.061877,42.350266],[-71.061901,42.350273],[-71.061912,42.35026]]],[[[-71.061893,42.350314],[-71.061797,42.350195],[-71.061763,42.350195],[-71.061858,42.350319],[-71.061882,42.350326],[-71.061893,42.350314]]],[[[-71.061865,42.348535],[-71.061678,42.348326],[-71.061706,42.348315],[-71.061596,42.348179],[-71.061572,42.348172],[-71.061562,42.348189],[-71.061627,42.348267],[-71.061572,42.348259],[-71.061434,42.348108],[-71.061386,42.348108],[-71.061353,42.348133],[-71.061353,42.348167],[-71.061403,42.348228],[-71.06139,42.348257],[-71.061549,42.348447],[-71.061649,42.34845],[-71.06177,42.348576],[-71.061812,42.348576],[-71.061865,42.348535]]],[[[-71.061865,42.348855],[-71.061681,42.348627],[-71.061702,42.348609],[-71.061607,42.348495],[-71.061573,42.348495],[-71.061668,42.348619],[-71.06162,42.348626],[-71.061611,42.34866],[-71.061793,42.348877],[-71.061839,42.348884],[-71.061865,42.348855]]],[[[-71.061842,42.353852],[-71.061746,42.353733],[-71.061712,42.353733],[-71.061807,42.353857],[-71.061831,42.353864],[-71.061842,42.353852]]],[[[-71.061745,42.348886],[-71.061552,42.348646],[-71.061503,42.348639],[-71.061478,42.348657],[-71.061478,42.348683],[-71.061596,42.348824],[-71.061575,42.348842],[-71.06167,42.348956],[-71.061704,42.348956],[-71.061678,42.348914],[-71.061717,42.348917],[-71.061745,42.348886]]],[[[-71.061709,42.349762],[-71.061533,42.349543],[-71.061499,42.349532],[-71.061465,42.349543],[-71.061367,42.349425],[-71.061333,42.349425],[-71.061387,42.3495],[-71.061356,42.34952],[-71.061356,42.349548],[-71.061528,42.349753],[-71.061563,42.349764],[-71.061597,42.349753],[-71.061626,42.349787],[-71.061661,42.349798],[-71.061695,42.349787],[-71.061709,42.349762]]],[[[-71.061675,42.349061],[-71.06149,42.348832],[-71.061444,42.348825],[-71.061421,42.348842],[-71.061421,42.348866],[-71.061603,42.349083],[-71.061649,42.34909],[-71.061675,42.349061]]],[[[-71.061623,42.351106],[-71.061491,42.350944],[-71.061449,42.350944],[-71.061579,42.351113],[-71.061609,42.351122],[-71.061623,42.351106]]],[[[-71.061547,42.349386],[-71.061437,42.34925],[-71.061403,42.34925],[-71.061512,42.349391],[-71.061536,42.349398],[-71.061547,42.349386]]],[[[-71.061523,42.3492],[-71.061398,42.349046],[-71.061362,42.349046],[-71.061485,42.349205],[-71.061511,42.349213],[-71.061523,42.3492]]],[[[-71.061513,42.351236],[-71.061417,42.351117],[-71.061383,42.351117],[-71.061478,42.351241],[-71.061502,42.351248],[-71.061513,42.351236]]],[[[-71.061494,42.349401],[-71.061347,42.34922],[-71.061299,42.349213],[-71.061291,42.349228],[-71.061438,42.34941],[-71.061465,42.349423],[-71.061494,42.349401]]],[[[-71.061492,42.351294],[-71.061396,42.351175],[-71.061362,42.351175],[-71.061457,42.351299],[-71.061481,42.351306],[-71.061492,42.351294]]],[[[-71.061466,42.351354],[-71.06137,42.351235],[-71.061336,42.351235],[-71.061431,42.351359],[-71.061455,42.351366],[-71.061466,42.351354]]],[[[-71.061447,42.351403],[-71.061351,42.351284],[-71.061317,42.351284],[-71.061412,42.351408],[-71.061436,42.351415],[-71.061447,42.351403]]],[[[-71.061395,42.350037],[-71.06121,42.349808],[-71.061164,42.349801],[-71.061141,42.349818],[-71.061141,42.349842],[-71.061323,42.350059],[-71.061369,42.350066],[-71.061395,42.350037]]],[[[-71.061384,42.349752],[-71.061281,42.349625],[-71.061247,42.349625],[-71.061349,42.349758],[-71.061373,42.349765],[-71.061384,42.349752]]],[[[-71.061363,42.3498],[-71.06126,42.349673],[-71.061226,42.349673],[-71.061328,42.349806],[-71.061352,42.349813],[-71.061363,42.3498]]],[[[-71.06135,42.350263],[-71.061141,42.350003],[-71.061084,42.349995],[-71.061056,42.350015],[-71.061056,42.350045],[-71.061261,42.35029],[-71.061318,42.350298],[-71.06135,42.350263]]],[[[-71.061339,42.353484],[-71.061233,42.353358],[-71.061209,42.353365],[-71.061127,42.353308],[-71.061103,42.353315],[-71.061208,42.353446],[-71.061258,42.35347],[-71.061282,42.353463],[-71.061314,42.353496],[-71.061339,42.353484]]],[[[-71.061333,42.354888],[-71.061237,42.354769],[-71.061203,42.354769],[-71.061298,42.354893],[-71.061322,42.3549],[-71.061333,42.354888]]],[[[-71.061283,42.35503],[-71.061187,42.354911],[-71.061153,42.354911],[-71.061248,42.355035],[-71.061272,42.355042],[-71.061283,42.35503]]],[[[-71.061226,42.348835],[-71.061017,42.348575],[-71.06096,42.348567],[-71.060932,42.348587],[-71.060932,42.348617],[-71.061137,42.348862],[-71.061194,42.34887],[-71.061226,42.348835]]],[[[-71.061206,42.348958],[-71.060989,42.348688],[-71.060929,42.348679],[-71.060899,42.348701],[-71.060899,42.348733],[-71.061112,42.348987],[-71.061172,42.348996],[-71.061206,42.348958]]],[[[-71.061157,42.353406],[-71.061047,42.35327],[-71.061013,42.35327],[-71.061122,42.353411],[-71.061146,42.353418],[-71.061157,42.353406]]],[[[-71.061133,42.348604],[-71.061037,42.348485],[-71.061003,42.348485],[-71.061098,42.348609],[-71.061122,42.348616],[-71.061133,42.348604]]],[[[-71.061115,42.349034],[-71.06093,42.348805],[-71.060884,42.348798],[-71.060861,42.348815],[-71.060861,42.348839],[-71.061043,42.349056],[-71.061089,42.349063],[-71.061115,42.349034]]],[[[-71.061084,42.349458],[-71.060827,42.349137],[-71.060749,42.349125],[-71.06071,42.349154],[-71.06071,42.349194],[-71.060962,42.349495],[-71.06104,42.349506],[-71.061084,42.349458]]],[[[-71.061083,42.353477],[-71.060977,42.353351],[-71.060953,42.353358],[-71.060912,42.353318],[-71.060888,42.353325],[-71.060851,42.35329],[-71.060827,42.353297],[-71.060932,42.353428],[-71.060956,42.353421],[-71.061,42.353465],[-71.061024,42.353458],[-71.061058,42.353489],[-71.061083,42.353477]]],[[[-71.061033,42.353334],[-71.060937,42.353215],[-71.060903,42.353215],[-71.060998,42.353339],[-71.061022,42.353346],[-71.061033,42.353334]]],[[[-71.060894,42.349584],[-71.060627,42.349255],[-71.060593,42.349255],[-71.060669,42.349356],[-71.060597,42.349288],[-71.060573,42.349305],[-71.060637,42.349397],[-71.060577,42.34933],[-71.060553,42.349347],[-71.060648,42.349461],[-71.060682,42.349461],[-71.060811,42.349609],[-71.060864,42.349617],[-71.060894,42.349584]]],[[[-71.060882,42.34973],[-71.06068,42.349481],[-71.060627,42.349473],[-71.060547,42.349395],[-71.060523,42.349402],[-71.060598,42.349502],[-71.060537,42.349441],[-71.060513,42.349458],[-71.060615,42.349581],[-71.060649,42.349581],[-71.060799,42.349756],[-71.060852,42.349763],[-71.060882,42.34973]]],[[[-71.060796,42.349894],[-71.060594,42.349645],[-71.060503,42.349551],[-71.060469,42.349551],[-71.060491,42.349587],[-71.060469,42.349605],[-71.060514,42.349659],[-71.060477,42.349628],[-71.060453,42.349645],[-71.060545,42.349756],[-71.060493,42.349765],[-71.060482,42.349807],[-71.060687,42.350052],[-71.060744,42.35006],[-71.060772,42.350039],[-71.060772,42.35001],[-71.060569,42.349767],[-71.06058,42.349761],[-71.060713,42.34992],[-71.060766,42.349927],[-71.060796,42.349894]]],[[[-71.060693,42.353154],[-71.060597,42.353035],[-71.060563,42.353035],[-71.060658,42.353159],[-71.060682,42.353166],[-71.060693,42.353154]]],[[[-71.06064,42.349625],[-71.060537,42.349498],[-71.060503,42.349498],[-71.060605,42.349631],[-71.060629,42.349638],[-71.06064,42.349625]]],[[[-71.060613,42.353111],[-71.060517,42.352992],[-71.060485,42.35299],[-71.060457,42.352962],[-71.060433,42.352969],[-71.060535,42.353102],[-71.060567,42.353103],[-71.060588,42.353123],[-71.060613,42.353111]]],[[[-71.06061,42.353405],[-71.060507,42.353278],[-71.060473,42.353278],[-71.060575,42.353411],[-71.060599,42.353418],[-71.06061,42.353405]]],[[[-71.060599,42.353264],[-71.060503,42.353145],[-71.060469,42.353145],[-71.060427,42.353095],[-71.060363,42.353058],[-71.060339,42.353065],[-71.060434,42.353189],[-71.060498,42.353226],[-71.060522,42.353219],[-71.060574,42.353276],[-71.060599,42.353264]]],[[[-71.060585,42.353604],[-71.060417,42.353375],[-71.060393,42.353368],[-71.060352,42.353385],[-71.060344,42.353416],[-71.060518,42.353624],[-71.060561,42.35363],[-71.060585,42.353604]]],[[[-71.06049,42.350006],[-71.060387,42.349879],[-71.060353,42.349879],[-71.060455,42.350012],[-71.060479,42.350019],[-71.06049,42.350006]]],[[[-71.060475,42.350344],[-71.060297,42.3501],[-71.060273,42.350093],[-71.06022,42.350136],[-71.06022,42.350164],[-71.060392,42.350369],[-71.060445,42.350377],[-71.060475,42.350344]]],[[[-71.060453,42.353561],[-71.060357,42.353442],[-71.060323,42.353442],[-71.060418,42.353566],[-71.060442,42.353573],[-71.060453,42.353561]]],[[[-71.060413,42.350151],[-71.060317,42.350032],[-71.060283,42.350032],[-71.060378,42.350156],[-71.060402,42.350163],[-71.060413,42.350151]]],[[[-71.06034,42.349669],[-71.060163,42.34945],[-71.060107,42.34945],[-71.060099,42.349481],[-71.060273,42.349689],[-71.060316,42.349695],[-71.06034,42.349669]]],[[[-71.060285,42.353626],[-71.060092,42.353386],[-71.060043,42.353379],[-71.060018,42.353397],[-71.060018,42.353423],[-71.060208,42.353649],[-71.060257,42.353657],[-71.060285,42.353626]]],[[[-71.060264,42.349729],[-71.060117,42.349548],[-71.060069,42.349541],[-71.060061,42.349556],[-71.060208,42.349738],[-71.060235,42.349751],[-71.060264,42.349729]]],[[[-71.060253,42.353076],[-71.060157,42.352957],[-71.060123,42.352957],[-71.060218,42.353081],[-71.060242,42.353088],[-71.060253,42.353076]]],[[[-71.060244,42.349834],[-71.060075,42.349625],[-71.060025,42.349625],[-71.060017,42.349654],[-71.060184,42.349853],[-71.060222,42.349859],[-71.060244,42.349834]]],[[[-71.060145,42.351251],[-71.05996,42.351022],[-71.059914,42.351015],[-71.059891,42.351032],[-71.059891,42.351056],[-71.060073,42.351273],[-71.060119,42.35128],[-71.060145,42.351251]]],[[[-71.060038,42.3513],[-71.059899,42.351128],[-71.059875,42.351116],[-71.059851,42.351128],[-71.059989,42.351307],[-71.060012,42.351319],[-71.060038,42.3513]]],[[[-71.059995,42.353467],[-71.05981,42.353238],[-71.059764,42.353231],[-71.059741,42.353248],[-71.059741,42.353272],[-71.059923,42.353489],[-71.059969,42.353496],[-71.059995,42.353467]]],[[[-71.05986,42.352875],[-71.059757,42.352748],[-71.059723,42.352748],[-71.059825,42.352881],[-71.059849,42.352888],[-71.05986,42.352875]]],[[[-71.059814,42.355127],[-71.059667,42.354946],[-71.059573,42.354873],[-71.059538,42.354868],[-71.059389,42.354714],[-71.05935,42.354709],[-71.059331,42.354723],[-71.059331,42.354743],[-71.059529,42.354973],[-71.059579,42.355012],[-71.059614,42.355017],[-71.059719,42.355119],[-71.059785,42.355149],[-71.059814,42.355127]]],[[[-71.05981,42.351904],[-71.059553,42.351583],[-71.059518,42.351578],[-71.0595,42.351591],[-71.0595,42.351609],[-71.059564,42.351686],[-71.059551,42.35171],[-71.05944,42.351609],[-71.059406,42.35162],[-71.059544,42.351799],[-71.059577,42.35181],[-71.059641,42.351871],[-71.059666,42.351863],[-71.059743,42.351937],[-71.05978,42.351937],[-71.05981,42.351904]]],[[[-71.05979,42.352859],[-71.059687,42.352732],[-71.059653,42.352732],[-71.059755,42.352865],[-71.059779,42.352872],[-71.05979,42.352859]]],[[[-71.05975,42.352977],[-71.059574,42.352758],[-71.059521,42.35275],[-71.059495,42.352769],[-71.059495,42.352797],[-71.059667,42.353002],[-71.05972,42.35301],[-71.05975,42.352977]]],[[[-71.059736,42.352852],[-71.059633,42.352725],[-71.059599,42.352725],[-71.059701,42.352858],[-71.059725,42.352865],[-71.059736,42.352852]]],[[[-71.059613,42.351211],[-71.059517,42.351092],[-71.059483,42.351092],[-71.059578,42.351216],[-71.059602,42.351223],[-71.059613,42.351211]]],[[[-71.059573,42.351284],[-71.059477,42.351165],[-71.059443,42.351165],[-71.059538,42.351289],[-71.059562,42.351296],[-71.059573,42.351284]]],[[[-71.059523,42.353214],[-71.059427,42.353095],[-71.059393,42.353095],[-71.059488,42.353219],[-71.059512,42.353226],[-71.059523,42.353214]]],[[[-71.059517,42.35186],[-71.059385,42.351698],[-71.059343,42.351698],[-71.059473,42.351867],[-71.059503,42.351876],[-71.059517,42.35186]]],[[[-71.059513,42.353124],[-71.059417,42.353005],[-71.059383,42.353005],[-71.059478,42.353129],[-71.059502,42.353136],[-71.059513,42.353124]]],[[[-71.059453,42.351936],[-71.059321,42.351774],[-71.059279,42.351774],[-71.059409,42.351943],[-71.059439,42.351952],[-71.059453,42.351936]]],[[[-71.059406,42.351514],[-71.059187,42.351235],[-71.059129,42.351197],[-71.059076,42.351205],[-71.059065,42.351244],[-71.059131,42.351322],[-71.059095,42.351343],[-71.059095,42.351371],[-71.059293,42.351607],[-71.059327,42.351617],[-71.059361,42.351607],[-71.059376,42.351581],[-71.059358,42.35155],[-71.059391,42.35154],[-71.059406,42.351514]]],[[[-71.059279,42.353408],[-71.059183,42.353289],[-71.059149,42.353289],[-71.059244,42.353413],[-71.059268,42.35342],[-71.059279,42.353408]]],[[[-71.059244,42.354567],[-71.059083,42.354368],[-71.059048,42.354363],[-71.058947,42.354277],[-71.058922,42.354284],[-71.059045,42.354443],[-71.059071,42.354451],[-71.059189,42.354584],[-71.059224,42.354589],[-71.059244,42.354567]]],[[[-71.059203,42.351682],[-71.059064,42.35151],[-71.05904,42.351498],[-71.059016,42.35151],[-71.059154,42.351689],[-71.059177,42.351701],[-71.059203,42.351682]]],[[[-71.059193,42.351574],[-71.059097,42.351455],[-71.059063,42.351455],[-71.059158,42.351579],[-71.059182,42.351586],[-71.059193,42.351574]]],[[[-71.059183,42.353401],[-71.059087,42.353282],[-71.059053,42.353282],[-71.059148,42.353406],[-71.059172,42.353413],[-71.059183,42.353401]]],[[[-71.059164,42.351794],[-71.058995,42.351585],[-71.058945,42.351585],[-71.058937,42.351614],[-71.059104,42.351813],[-71.059142,42.351819],[-71.059164,42.351794]]],[[[-71.059093,42.353397],[-71.058997,42.353278],[-71.058963,42.353278],[-71.059058,42.353402],[-71.059082,42.353409],[-71.059093,42.353397]]],[[[-71.059074,42.351872],[-71.058913,42.351673],[-71.058867,42.351673],[-71.05886,42.351699],[-71.059019,42.351889],[-71.059054,42.351894],[-71.059074,42.351872]]],[[[-71.059057,42.351777],[-71.058947,42.351641],[-71.058913,42.351641],[-71.059022,42.351782],[-71.059046,42.351789],[-71.059057,42.351777]]],[[[-71.059044,42.351928],[-71.058875,42.351719],[-71.058825,42.351719],[-71.058817,42.351748],[-71.058984,42.351947],[-71.059022,42.351953],[-71.059044,42.351928]]],[[[-71.058994,42.35197],[-71.058825,42.351761],[-71.058775,42.351761],[-71.058767,42.35179],[-71.058934,42.351989],[-71.058972,42.351995],[-71.058994,42.35197]]],[[[-71.058959,42.353382],[-71.058863,42.353263],[-71.058829,42.353263],[-71.058924,42.353387],[-71.058948,42.353394],[-71.058959,42.353382]]],[[[-71.058921,42.352044],[-71.058858,42.351961],[-71.058879,42.351943],[-71.058777,42.351821],[-71.058688,42.351825],[-71.05868,42.351856],[-71.058854,42.352064],[-71.058897,42.35207],[-71.058921,42.352044]]],[[[-71.058853,42.353382],[-71.058757,42.353263],[-71.058723,42.353263],[-71.058818,42.353387],[-71.058842,42.353394],[-71.058853,42.353382]]],[[[-71.058844,42.352088],[-71.058683,42.351889],[-71.058648,42.351884],[-71.05863,42.351915],[-71.058604,42.351918],[-71.058597,42.35193],[-71.058742,42.352102],[-71.058771,42.352093],[-71.058812,42.352112],[-71.058844,42.352088]]],[[[-71.058786,42.352238],[-71.058675,42.352094],[-71.058693,42.352081],[-71.058587,42.351955],[-71.058491,42.351968],[-71.058451,42.352018],[-71.058451,42.352042],[-71.058392,42.35206],[-71.058398,42.352087],[-71.058603,42.352321],[-71.058652,42.352313],[-71.058665,42.35229],[-71.058654,42.352267],[-71.058752,42.352276],[-71.058786,42.352238]]],[[[-71.058663,42.352644],[-71.058567,42.352525],[-71.058487,42.352467],[-71.058462,42.352474],[-71.058484,42.352511],[-71.058473,42.352529],[-71.058568,42.352643],[-71.058617,42.352638],[-71.058638,42.352656],[-71.058663,42.352644]]],[[[-71.05853,42.35265],[-71.058387,42.352465],[-71.058353,42.352465],[-71.058495,42.352656],[-71.058519,42.352663],[-71.05853,42.35265]]],[[[-71.05849,42.352219],[-71.058387,42.352092],[-71.058353,42.352092],[-71.058455,42.352225],[-71.058479,42.352232],[-71.05849,42.352219]]],[[[-71.058443,42.352634],[-71.058347,42.352515],[-71.058267,42.352455],[-71.058243,42.352462],[-71.058338,42.352586],[-71.058418,42.352646],[-71.058443,42.352634]]],[[[-71.058383,42.351024],[-71.058287,42.350905],[-71.058253,42.350905],[-71.058348,42.351029],[-71.058372,42.351036],[-71.058383,42.351024]]],[[[-71.058363,42.352626],[-71.058267,42.352507],[-71.058233,42.352507],[-71.058328,42.352631],[-71.058352,42.352638],[-71.058363,42.352626]]],[[[-71.058313,42.351001],[-71.058217,42.350882],[-71.058183,42.350882],[-71.058278,42.351006],[-71.058302,42.351013],[-71.058313,42.351001]]],[[[-71.058133,42.352779],[-71.058037,42.35266],[-71.058003,42.35266],[-71.058098,42.352784],[-71.058122,42.352791],[-71.058133,42.352779]]],[[[-71.058127,42.352882],[-71.058031,42.352763],[-71.057997,42.352763],[-71.058092,42.352887],[-71.058116,42.352894],[-71.058127,42.352882]]],[[[-71.058103,42.353019],[-71.058007,42.3529],[-71.057973,42.3529],[-71.058068,42.353024],[-71.058092,42.353031],[-71.058103,42.353019]]],[[[-71.057898,42.350807],[-71.057802,42.350688],[-71.057769,42.350687],[-71.057747,42.350665],[-71.057723,42.350672],[-71.057818,42.350796],[-71.057851,42.350797],[-71.057873,42.350819],[-71.057898,42.350807]]],[[[-71.057887,42.352391],[-71.057748,42.352219],[-71.057724,42.352207],[-71.0577,42.352219],[-71.057838,42.352398],[-71.057861,42.35241],[-71.057887,42.352391]]],[[[-71.057768,42.352363],[-71.057621,42.352182],[-71.057594,42.352168],[-71.057565,42.35219],[-71.05752,42.352142],[-71.057486,42.352153],[-71.057624,42.352332],[-71.057647,42.352344],[-71.057671,42.352332],[-71.057727,42.352383],[-71.057768,42.352363]]],[[[-71.057593,42.352305],[-71.057454,42.352133],[-71.05743,42.352121],[-71.057406,42.352133],[-71.057544,42.352312],[-71.057567,42.352324],[-71.057593,42.352305]]],[[[-71.057514,42.352283],[-71.057367,42.352102],[-71.057319,42.352095],[-71.057311,42.35211],[-71.057458,42.352292],[-71.057485,42.352305],[-71.057514,42.352283]]],[[[-71.057509,42.350517],[-71.057413,42.350398],[-71.057379,42.350398],[-71.057474,42.350522],[-71.057498,42.350529],[-71.057509,42.350517]]],[[[-71.057493,42.350608],[-71.057397,42.350489],[-71.057363,42.350489],[-71.057458,42.350613],[-71.057482,42.35062],[-71.057493,42.350608]]],[[[-71.05745,42.351829],[-71.057347,42.351702],[-71.057313,42.351702],[-71.057415,42.351835],[-71.057439,42.351842],[-71.05745,42.351829]]],[[[-71.057433,42.351864],[-71.057337,42.351745],[-71.057303,42.351745],[-71.057398,42.351869],[-71.057422,42.351876],[-71.057433,42.351864]]],[[[-71.057407,42.351056],[-71.057297,42.35092],[-71.057263,42.35092],[-71.057372,42.351061],[-71.057396,42.351068],[-71.057407,42.351056]]],[[[-71.057404,42.352011],[-71.057308,42.351892],[-71.057274,42.351892],[-71.057369,42.352016],[-71.057393,42.352023],[-71.057404,42.352011]]],[[[-71.057386,42.35206],[-71.057297,42.35195],[-71.057263,42.35195],[-71.057351,42.352066],[-71.057375,42.352073],[-71.057386,42.35206]]],[[[-71.057377,42.351194],[-71.057267,42.351058],[-71.057233,42.351058],[-71.057342,42.351199],[-71.057366,42.351206],[-71.057377,42.351194]]],[[[-71.057303,42.351524],[-71.057207,42.351405],[-71.057173,42.351405],[-71.057268,42.351529],[-71.057292,42.351536],[-71.057303,42.351524]]],[[[-71.057293,42.350664],[-71.057197,42.350545],[-71.057163,42.350545],[-71.057258,42.350669],[-71.057282,42.350676],[-71.057293,42.350664]]],[[[-71.057242,42.350746],[-71.057174,42.35066],[-71.057189,42.350647],[-71.057093,42.350528],[-71.057059,42.350528],[-71.057126,42.350619],[-71.057111,42.350632],[-71.057207,42.350751],[-71.057231,42.350758],[-71.057242,42.350746]]],[[[-71.057174,42.350085],[-71.057013,42.349886],[-71.056978,42.349881],[-71.056959,42.349908],[-71.056818,42.34974],[-71.056775,42.349733],[-71.056754,42.349749],[-71.056754,42.349771],[-71.056928,42.349979],[-71.056971,42.349985],[-71.056995,42.349959],[-71.057119,42.350102],[-71.057154,42.350107],[-71.057174,42.350085]]],[[[-71.057133,42.349954],[-71.057037,42.349835],[-71.057003,42.349835],[-71.057098,42.349959],[-71.057122,42.349966],[-71.057133,42.349954]]],[[[-71.056985,42.352167],[-71.056867,42.352023],[-71.056833,42.352023],[-71.056949,42.352173],[-71.056973,42.35218],[-71.056985,42.352167]]],[[[-71.056944,42.350022],[-71.056783,42.349823],[-71.056737,42.349823],[-71.05673,42.349849],[-71.056889,42.350039],[-71.056924,42.350044],[-71.056944,42.350022]]],[[[-71.056935,42.350109],[-71.056759,42.34989],[-71.056706,42.349882],[-71.05668,42.349901],[-71.05668,42.349929],[-71.056852,42.350134],[-71.056905,42.350142],[-71.056935,42.350109]]],[[[-71.056929,42.350344],[-71.056842,42.350236],[-71.056887,42.350214],[-71.056887,42.350186],[-71.056714,42.349981],[-71.05668,42.34997],[-71.056646,42.349981],[-71.056635,42.35002],[-71.056797,42.350214],[-71.056799,42.350235],[-71.056894,42.350349],[-71.056918,42.350356],[-71.056929,42.350344]]],[[[-71.056893,42.350421],[-71.056797,42.350302],[-71.056763,42.350302],[-71.056858,42.350426],[-71.056882,42.350433],[-71.056893,42.350421]]],[[[-71.056857,42.352125],[-71.056747,42.351989],[-71.056713,42.351989],[-71.056822,42.35213],[-71.056846,42.352137],[-71.056857,42.352125]]],[[[-71.056804,42.350267],[-71.056657,42.350086],[-71.056609,42.350079],[-71.056601,42.350094],[-71.056748,42.350276],[-71.056775,42.350289],[-71.056804,42.350267]]],[[[-71.056774,42.350367],[-71.056613,42.350168],[-71.056567,42.350168],[-71.05656,42.350194],[-71.056719,42.350384],[-71.056754,42.350389],[-71.056774,42.350367]]],[[[-71.056763,42.353368],[-71.056624,42.353196],[-71.056547,42.353152],[-71.056522,42.353159],[-71.056472,42.353114],[-71.056447,42.353121],[-71.05657,42.35328],[-71.056606,42.35328],[-71.056728,42.353386],[-71.056763,42.353368]]],[[[-71.05676,42.350752],[-71.056642,42.350608],[-71.056608,42.350608],[-71.056724,42.350758],[-71.056748,42.350765],[-71.05676,42.350752]]],[[[-71.056725,42.350819],[-71.056607,42.350675],[-71.056573,42.350675],[-71.056689,42.350825],[-71.056713,42.350832],[-71.056725,42.350819]]],[[[-71.05672,42.351028],[-71.056544,42.350809],[-71.056491,42.350801],[-71.056465,42.35082],[-71.056465,42.350848],[-71.056637,42.351053],[-71.05669,42.351061],[-71.05672,42.351028]]],[[[-71.056585,42.352059],[-71.056467,42.351915],[-71.056433,42.351915],[-71.056549,42.352065],[-71.056573,42.352072],[-71.056585,42.352059]]],[[[-71.056523,42.351144],[-71.056427,42.351025],[-71.056393,42.351025],[-71.056488,42.351149],[-71.056512,42.351156],[-71.056523,42.351144]]],[[[-71.056523,42.353246],[-71.056391,42.353084],[-71.056349,42.353084],[-71.056479,42.353253],[-71.056509,42.353262],[-71.056523,42.353246]]],[[[-71.056515,42.351236],[-71.056397,42.351092],[-71.056363,42.351092],[-71.056479,42.351242],[-71.056503,42.351249],[-71.056515,42.351236]]],[[[-71.056476,42.352005],[-71.056387,42.351895],[-71.056353,42.351895],[-71.056441,42.352011],[-71.056465,42.352018],[-71.056476,42.352005]]],[[[-71.056459,42.35129],[-71.056363,42.351171],[-71.056329,42.351171],[-71.056424,42.351295],[-71.056448,42.351302],[-71.056459,42.35129]]],[[[-71.056455,42.355069],[-71.056337,42.354925],[-71.056303,42.354925],[-71.056419,42.355075],[-71.056443,42.355082],[-71.056455,42.355069]]],[[[-71.056445,42.354975],[-71.056327,42.354831],[-71.056293,42.354831],[-71.056409,42.354981],[-71.056433,42.354988],[-71.056445,42.354975]]],[[[-71.056443,42.354835],[-71.056304,42.354663],[-71.05628,42.354651],[-71.056256,42.354663],[-71.056394,42.354842],[-71.056417,42.354854],[-71.056443,42.354835]]],[[[-71.056433,42.354898],[-71.056308,42.354744],[-71.056272,42.354744],[-71.056395,42.354903],[-71.056421,42.354911],[-71.056433,42.354898]]],[[[-71.056373,42.350981],[-71.056255,42.350837],[-71.056221,42.350837],[-71.056337,42.350987],[-71.056361,42.350994],[-71.056373,42.350981]]],[[[-71.05636,42.351498],[-71.056257,42.351371],[-71.056223,42.351371],[-71.056325,42.351504],[-71.056349,42.351511],[-71.05636,42.351498]]],[[[-71.056343,42.353164],[-71.056247,42.353045],[-71.056213,42.353045],[-71.056308,42.353169],[-71.056332,42.353176],[-71.056343,42.353164]]],[[[-71.056343,42.351072],[-71.056225,42.350928],[-71.056191,42.350928],[-71.056307,42.351078],[-71.056331,42.351085],[-71.056343,42.351072]]],[[[-71.056341,42.351533],[-71.056238,42.351406],[-71.056204,42.351406],[-71.056306,42.351539],[-71.05633,42.351546],[-71.056341,42.351533]]],[[[-71.05631,42.351572],[-71.056207,42.351445],[-71.056173,42.351445],[-71.056275,42.351578],[-71.056299,42.351585],[-71.05631,42.351572]]],[[[-71.056303,42.351175],[-71.056185,42.351031],[-71.056151,42.351031],[-71.056267,42.351181],[-71.056291,42.351188],[-71.056303,42.351175]]],[[[-71.056265,42.351284],[-71.056147,42.35114],[-71.056113,42.35114],[-71.056229,42.35129],[-71.056253,42.351297],[-71.056265,42.351284]]],[[[-71.05618,42.351832],[-71.056077,42.351705],[-71.056043,42.351705],[-71.056145,42.351838],[-71.056169,42.351845],[-71.05618,42.351832]]],[[[-71.056094,42.351494],[-71.055976,42.35135],[-71.055942,42.35135],[-71.056058,42.3515],[-71.056082,42.351507],[-71.056094,42.351494]]],[[[-71.05607,42.351551],[-71.055952,42.351407],[-71.055918,42.351407],[-71.056034,42.351557],[-71.056058,42.351564],[-71.05607,42.351551]]],[[[-71.056037,42.351621],[-71.055919,42.351477],[-71.055885,42.351477],[-71.056001,42.351627],[-71.056025,42.351634],[-71.056037,42.351621]]],[[[-71.05603,42.35242],[-71.055854,42.352201],[-71.05582,42.35219],[-71.055786,42.352201],[-71.055775,42.35224],[-71.055741,42.352262],[-71.055741,42.35229],[-71.055913,42.352495],[-71.055948,42.352506],[-71.055982,42.352495],[-71.055993,42.352456],[-71.05603,42.35242]]],[[[-71.056005,42.3517],[-71.055887,42.351556],[-71.055853,42.351556],[-71.055969,42.351706],[-71.055993,42.351713],[-71.056005,42.3517]]],[[[-71.055976,42.351761],[-71.055858,42.351617],[-71.055824,42.351617],[-71.05594,42.351767],[-71.055964,42.351774],[-71.055976,42.351761]]],[[[-71.05594,42.353518],[-71.055779,42.353319],[-71.055733,42.353319],[-71.055726,42.353345],[-71.055885,42.353535],[-71.05592,42.35354],[-71.05594,42.353518]]],[[[-71.055925,42.351866],[-71.055807,42.351722],[-71.055773,42.351722],[-71.055889,42.351872],[-71.055913,42.351879],[-71.055925,42.351866]]],[[[-71.055905,42.351915],[-71.055787,42.351771],[-71.055753,42.351771],[-71.055869,42.351921],[-71.055893,42.351928],[-71.055905,42.351915]]],[[[-71.055869,42.353567],[-71.055722,42.353386],[-71.055674,42.353379],[-71.055666,42.353394],[-71.055813,42.353576],[-71.05584,42.353589],[-71.055869,42.353567]]],[[[-71.055769,42.353578],[-71.055644,42.353424],[-71.055608,42.353424],[-71.055731,42.353583],[-71.055757,42.353591],[-71.055769,42.353578]]],[[[-71.055675,42.353636],[-71.055557,42.353492],[-71.055523,42.353492],[-71.055639,42.353642],[-71.055663,42.353649],[-71.055675,42.353636]]],[[[-71.0556,42.353652],[-71.055497,42.353525],[-71.055463,42.353525],[-71.055565,42.353658],[-71.055589,42.353665],[-71.0556,42.353652]]],[[[-71.055384,42.353845],[-71.055334,42.35378],[-71.055356,42.353762],[-71.055261,42.353648],[-71.055237,42.353641],[-71.055189,42.353657],[-71.055181,42.353672],[-71.055328,42.353854],[-71.055355,42.353867],[-71.055384,42.353845]]],[[[-71.055323,42.353856],[-71.055191,42.353694],[-71.055149,42.353694],[-71.055279,42.353863],[-71.055309,42.353872],[-71.055323,42.353856]]]]},"properties":{"kind":"tree"}}]}