{"type":"FeatureCollection","features":[{"type":"Feature","geometry":{"type":"MultiPolygon","coordinates":[[[[-71.067544,42.352643],[-71.067521,42.352509],[-71.067261,42.351923],[-71.066747,42.351106],[-71.06657,42.351127],[-71.066551,42.350955],[-71.065994,42.35007],[-71.066007,42.350007],[-71.066036,42.350024],[-71.066095,42.35002],[-71.066133,42.350069],[-71.06621,42.350045],[-71.066221,42.350008],[-71.066194,42.349917],[-71.066254,42.349898],[-71.066006,42.349489],[-71.06562,42.349445],[-71.065521,42.349461],[-71.065495,42.349582],[-71.065413,42.349452],[-71.065453,42.349352],[-71.065491,42.349163],[-71.065419,42.349049],[-71.065416,42.34895],[-71.065372,42.348836],[-71.065279,42.348688],[-71.065176,42.348663],[-71.065027,42.348426],[-71.065146,42.348558],[-71.06517,42.348546],[-71.065194,42.348578],[-71.065488,42.348513],[-71.065492,42.348493],[-71.065407,42.348368],[-71.065527,42.348258],[-71.065536,42.348214],[-71.065492,42.348128],[-71.065595,42.348061],[-71.065604,42.348023],[-71.065566,42.347947],[-71.065483,42.347819],[-71.065406,42.347807],[-71.065319,42.347677],[-71.065257,42.347643],[-71.064894,42.347587],[-71.064503,42.347783],[-71.064389,42.348045],[-71.06434,42.34822],[-71.064553,42.348566],[-71.064478,42.348558],[-71.064162,42.348055],[-71.064168,42.348034],[-71.064113,42.347947],[-71.063968,42.347919],[-71.063883,42.347989],[-71.063856,42.347985],[-71.063829,42.348081],[-71.063875,42.348154],[-71.063727,42.348129],[-71.063741,42.348081],[-71.063606,42.347866],[-71.06346,42.347843],[-71.063382,42.348128],[-71.063301,42.347999],[-71.062961,42.347921],[-71.062929,42.348],[-71.063021,42.348145],[-71.062999,42.348142],[-71.062909,42.347999],[-71.062855,42.347962],[-71.062735,42.347939],[-71.062689,42.348052],[-71.062729,42.348121],[-71.062667,42.348107],[-71.06264,42.348175],[-71.062696,42.348263],[-71.062636,42.348255],[-71.062446,42.347953],[-71.061993,42.347842],[-71.061866,42.34764],[-71.061712,42.347604],[-71.061566,42.347954],[-71.061555,42.348046],[-71.06179,42.348419],[-71.061746,42.348528],[-71.06164,42.348359],[-71.061414,42.348308],[-71.061394,42.348357],[-71.061312,42.348227],[-71.061184,42.348198],[-71.061147,42.348242],[-71.061068,42.348118],[-71.061011,42.348097],[-71.060549,42.348739],[-71.060791,42.349124],[-71.060744,42.349244],[-71.060884,42.349466],[-71.061044,42.349526],[-71.061215,42.349798],[-71.061196,42.349845],[-71.061304,42.350017],[-71.061242,42.350003],[-71.061236,42.350019],[-71.061223,42.349999],[-71.061162,42.349985],[-71.061139,42.350043],[-71.061178,42.350105],[-71.061122,42.35014],[-71.060567,42.349259],[-71.060443,42.349109],[-71.060321,42.349063],[-71.060204,42.349326],[-71.059925,42.350048],[-71.060236,42.350543],[-71.060233,42.350552],[-71.060116,42.350367],[-71.059867,42.350296],[-71.059794,42.350499],[-71.059824,42.350547],[-71.059789,42.350634],[-71.059905,42.350818],[-71.059969,42.350832],[-71.060048,42.350957],[-71.060068,42.350962],[-71.059972,42.351168],[-71.060075,42.351332],[-71.059977,42.351309],[-71.059972,42.351322],[-71.059962,42.351307],[-71.059758,42.351262],[-71.059709,42.351391],[-71.059814,42.352103],[-71.059626,42.351804],[-71.059386,42.351848],[-71.059468,42.352397],[-71.059226,42.352012],[-71.058965,42.352116],[-71.058906,42.352152],[-71.058814,42.352257],[-71.058775,42.35235],[-71.058885,42.352524],[-71.058498,42.352534],[-71.058537,42.3524],[-71.058395,42.352175],[-71.058468,42.352186],[-71.058549,42.351986],[-71.058603,42.352072],[-71.058799,42.352115],[-71.059011,42.35191],[-71.059179,42.351685],[-71.059279,42.351484],[-71.059232,42.351409],[-71.059435,42.351455],[-71.05949,42.351439],[-71.059796,42.350682],[-71.059505,42.350215],[-71.059471,42.35018],[-71.059047,42.350086],[-71.058996,42.350102],[-71.058927,42.350273],[-71.058929,42.350249],[-71.058689,42.349867],[-71.058731,42.349762],[-71.058071,42.348706],[-71.057613,42.348605],[-71.057529,42.348814],[-71.057882,42.349375],[-71.057859,42.349433],[-71.057941,42.349563],[-71.057872,42.349548],[-71.057853,42.349597],[-71.057915,42.349695],[-71.058005,42.349715],[-71.058114,42.349889],[-71.057874,42.34983],[-71.057688,42.349927],[-71.05767,42.350011],[-71.057505,42.349748],[-71.057133,42.349667],[-71.057093,42.349758],[-71.057027,42.349652],[-71.057036,42.349614],[-71.056775,42.349199],[-71.056596,42.349149],[-71.056059,42.349303],[-71.056932,42.347998],[-71.056922,42.347939],[-71.056673,42.347544],[-71.055908,42.347262],[-71.054533,42.349309],[-71.054519,42.349436],[-71.054447,42.34941],[-71.053477,42.350853],[-71.053899,42.351524],[-71.05448,42.351739],[-71.054763,42.351377],[-71.055223,42.350691],[-71.055286,42.350792],[-71.055429,42.350902],[-71.055531,42.351064],[-71.055589,42.35108],[-71.055609,42.351041],[-71.05578,42.35111],[-71.056055,42.351113],[-71.056091,42.35117],[-71.056177,42.351194],[-71.056219,42.351109],[-71.056373,42.351105],[-71.056457,42.351128],[-71.056401,42.351249],[-71.056497,42.351401],[-71.056294,42.351331],[-71.056079,42.351765],[-71.056255,42.352044],[-71.056202,42.352031],[-71.056059,42.352083],[-71.055768,42.35162],[-71.055498,42.351545],[-71.054479,42.351779],[-71.054307,42.351954],[-71.054708,42.352591],[-71.055234,42.352869],[-71.055394,42.35292],[-71.055562,42.352945],[-71.055739,42.352905],[-71.055859,42.352815],[-71.05595,42.352706],[-71.05601,42.352586],[-71.056364,42.353149],[-71.056242,42.353099],[-71.055998,42.353225],[-71.056026,42.35333],[-71.05633,42.353813],[-71.056345,42.353902],[-71.056492,42.354137],[-71.056413,42.354145],[-71.056278,42.353899],[-71.055897,42.353294],[-71.055573,42.353469],[-71.055592,42.353499],[-71.055421,42.353589],[-71.055376,42.353638],[-71.055342,42.353603],[-71.054915,42.353838],[-71.055205,42.354299],[-71.055073,42.354096],[-71.05493,42.353943],[-71.054851,42.353901],[-71.054776,42.353908],[-71.054391,42.354111],[-71.054359,42.354149],[-71.054358,42.354189],[-71.056059,42.3569],[-71.056327,42.357171],[-71.056381,42.357179],[-71.056431,42.357163],[-71.056631,42.356986],[-71.056681,42.357057],[-71.056782,42.357083],[-71.056852,42.35714],[-71.056889,42.357134],[-71.058331,42.359426],[-71.058783,42.359382],[-71.058682,42.358803],[-71.057283,42.35658],[-71.057222,42.356244],[-71.057162,42.356148],[-71.057141,42.356049],[-71.058112,42.357589],[-71.058895,42.35753],[-71.058875,42.357379],[-71.057572,42.355309],[-71.057614,42.355289],[-71.057666,42.355218],[-71.058362,42.356325],[-71.058688,42.356407],[-71.058762,42.356524],[-71.058785,42.356531],[-71.058964,42.356816],[-71.059324,42.356941],[-71.059535,42.356594],[-71.059303,42.356226],[-71.059314,42.356203],[-71.059292,42.356168],[-71.059332,42.356103],[-71.05905,42.355654],[-71.059215,42.355726],[-71.060009,42.356987],[-71.060083,42.357042],[-71.060375,42.357161],[-71.060621,42.356947],[-71.060684,42.356869],[-71.060154,42.356027],[-71.060211,42.356031],[-71.060276,42.356134],[-71.060736,42.35616],[-71.060753,42.355986],[-71.060772,42.356],[-71.060949,42.355872],[-71.060999,42.355701],[-71.061285,42.355435],[-71.061412,42.355636],[-71.061725,42.355793],[-71.06189,42.355614],[-71.061901,42.355632],[-71.062177,42.355775],[-71.062353,42.355587],[-71.062457,42.35564],[-71.062624,42.355461],[-71.062553,42.355349],[-71.062638,42.355477],[-71.06275,42.35554],[-71.062781,42.355513],[-71.062902,42.355706],[-71.062992,42.355757],[-71.063152,42.35559],[-71.063267,42.355651],[-71.06328,42.355671],[-71.063745,42.355901],[-71.063789,42.355892],[-71.063803,42.355866],[-71.064107,42.356349],[-71.064254,42.356398],[-71.064284,42.356447],[-71.064525,42.356518],[-71.064587,42.356404],[-71.064772,42.356403],[-71.064811,42.35615],[-71.064764,42.356075],[-71.064814,42.355982],[-71.064688,42.355781],[-71.064719,42.355741],[-71.064734,42.355736],[-71.064849,42.355919],[-71.06495,42.355984],[-71.065054,42.356015],[-71.065108,42.355918],[-71.065022,42.355519],[-71.06497,42.355436],[-71.064974,42.355365],[-71.064664,42.354871],[-71.064711,42.354767],[-71.064318,42.354142],[-71.06474,42.354174],[-71.064807,42.354094],[-71.064838,42.354008],[-71.064827,42.35399],[-71.064852,42.35387],[-71.064979,42.353876],[-71.065014,42.353725],[-71.064925,42.353585],[-71.065088,42.353605],[-71.065173,42.35374],[-71.065385,42.353764],[-71.065419,42.353643],[-71.065465,42.353649],[-71.065669,42.35349],[-71.065694,42.353405],[-71.065559,42.353191],[-71.065618,42.353194],[-71.065637,42.353224],[-71.066055,42.353246],[-71.066089,42.353004],[-71.066225,42.353221],[-71.066422,42.353236],[-71.066469,42.352948],[-71.066421,42.352871],[-71.066432,42.352729],[-71.0664,42.352679],[-71.066395,42.352584],[-71.066376,42.352554],[-71.067361,42.352688],[-71.067544,42.352643]],[[-71.065463,42.349731],[-71.065401,42.349986],[-71.065287,42.349805],[-71.065463,42.349731]],[[-71.064667,42.34954],[-71.064436,42.349504],[-71.064455,42.34943],[-71.064434,42.349396],[-71.064464,42.349288],[-71.064409,42.3492],[-71.064458,42.349207],[-71.064667,42.34954]],[[-71.064229,42.348703],[-71.064179,42.348835],[-71.063987,42.34853],[-71.064124,42.348551],[-71.064229,42.348703]],[[-71.064065,42.350421],[-71.064064,42.350422],[-71.064065,42.35042],[-71.064065,42.350421]],[[-71.063606,42.348473],[-71.063584,42.348552],[-71.063476,42.348381],[-71.063369,42.348365],[-71.063295,42.348246],[-71.063401,42.348269],[-71.063405,42.348256],[-71.063534,42.348462],[-71.063606,42.348473]],[[-71.062515,42.348751],[-71.062445,42.348732],[-71.06245,42.348718],[-71.062502,42.34873],[-71.062515,42.348751]],[[-71.062403,42.348768],[-71.062289,42.349058],[-71.062234,42.34916],[-71.062348,42.349353],[-71.062233,42.349284],[-71.062169,42.349306],[-71.062155,42.349337],[-71.062166,42.349359],[-71.062113,42.349489],[-71.062047,42.349385],[-71.062157,42.349147],[-71.062011,42.348914],[-71.062046,42.348827],[-71.062142,42.348978],[-71.062261,42.349006],[-71.062375,42.348762],[-71.062403,42.348768]],[[-71.061778,42.352536],[-71.061753,42.352539],[-71.061745,42.35249],[-71.061714,42.352442],[-71.061778,42.352536]],[[-71.061548,42.352307],[-71.061522,42.35231],[-71.061256,42.351887],[-71.061363,42.351909],[-71.061394,42.352062],[-71.061548,42.352307]],[[-71.061546,42.352556],[-71.061487,42.352561],[-71.061506,42.35285],[-71.061336,42.35258],[-71.061309,42.352582],[-71.061291,42.352553],[-71.061286,42.352377],[-71.06138,42.352518],[-71.061506,42.352492],[-71.061546,42.352556]],[[-71.06069,42.352437],[-71.060637,42.352353],[-71.060661,42.352345],[-71.06069,42.352437]],[[-71.060607,42.353364],[-71.06052,42.353458],[-71.060325,42.353148],[-71.060198,42.353083],[-71.060156,42.353018],[-71.060076,42.352976],[-71.060048,42.352789],[-71.059973,42.352671],[-71.059965,42.352613],[-71.060005,42.352606],[-71.059968,42.35236],[-71.060075,42.352529],[-71.060172,42.352522],[-71.060246,42.352641],[-71.060188,42.352643],[-71.060197,42.35274],[-71.060571,42.353346],[-71.060607,42.353364]],[[-71.060591,42.352121],[-71.060471,42.351793],[-71.060348,42.351597],[-71.060329,42.351537],[-71.060414,42.351555],[-71.060432,42.351612],[-71.060501,42.351722],[-71.06047,42.351727],[-71.060591,42.352121]],[[-71.058591,42.351117],[-71.058562,42.351188],[-71.058514,42.351112],[-71.058519,42.351101],[-71.058591,42.351117]],[[-71.058023,42.352809],[-71.057974,42.353064],[-71.057833,42.35284],[-71.05784,42.352799],[-71.057804,42.352741],[-71.058023,42.352809]],[[-71.057052,42.349852],[-71.05695,42.350087],[-71.056938,42.350087],[-71.057052,42.349852]],[[-71.056963,42.350603],[-71.056835,42.350604],[-71.056722,42.350628],[-71.056822,42.350379],[-71.056963,42.350603]],[[-71.056422,42.35429],[-71.056397,42.354249],[-71.056414,42.354241],[-71.056422,42.35429]]],[[[-71.066873,42.349149],[-71.066483,42.348529],[-71.066273,42.348504],[-71.065995,42.348062],[-71.065837,42.348044],[-71.065752,42.348444],[-71.066342,42.349377],[-71.066438,42.349388],[-71.066448,42.349317],[-71.066413,42.349261],[-71.066421,42.349222],[-71.066845,42.349269],[-71.066873,42.349149]]],[[[-71.066236,42.349687],[-71.066051,42.349385],[-71.065989,42.349405],[-71.066172,42.349707],[-71.066236,42.349687]]],[[[-71.06569,42.354546],[-71.065554,42.354318],[-71.065508,42.354299],[-71.06545,42.354322],[-71.065445,42.354357],[-71.065583,42.354573],[-71.065652,42.354586],[-71.06569,42.354546]]],[[[-71.059391,42.349844],[-71.059318,42.349726],[-71.059179,42.349693],[-71.059105,42.349866],[-71.059178,42.349983],[-71.059317,42.350016],[-71.059391,42.349844]]]]},"properties":{"kind":"building"}},{"type":"Feature","geometry":{"type":"MultiPolygon","coordinates":[[[[-71.06631,42.353851],[-71.066299,42.35381],[-71.066109,42.353509],[-71.066179,42.353498],[-71.066244,42.35345],[-71.066253,42.353416],[-71.066228,42.353356],[-71.066273,42.353314],[-71.066284,42.353273],[-71.066273,42.353232],[-71.066068,42.352906],[-71.066116,42.35292],[-71.066168,42.352904],[-71.066184,42.352886],[-71.066184,42.352844],[-71.066,42.352558],[-71.065947,42.352542],[-71.065883,42.352571],[-71.065841,42.352538],[-71.065759,42.35255],[-71.065688,42.352518],[-71.065619,42.352552],[-71.065627,42.352607],[-71.065574,42.352593],[-71.065499,42.352624],[-71.065434,42.352533],[-71.065401,42.352516],[-71.065321,42.352516],[-71.065288,42.352533],[-71.065257,42.352587],[-71.065265,42.352616],[-71.06547,42.352942],[-71.065463,42.352996],[-71.065408,42.353037],[-71.0654,42.353066],[-71.065431,42.353132],[-71.065385,42.353162],[-71.065386,42.353139],[-71.065327,42.353046],[-71.065348,42.353014],[-71.065303,42.352932],[-71.065305,42.352876],[-71.065102,42.352553],[-71.065049,42.352515],[-71.064975,42.352515],[-71.064922,42.352553],[-71.064915,42.352581],[-71.065091,42.352876],[-71.065047,42.352891],[-71.065027,42.352928],[-71.065144,42.353127],[-71.06512,42.353156],[-71.06516,42.353228],[-71.065143,42.353248],[-71.065096,42.353185],[-71.06506,42.353168],[-71.064991,42.353165],[-71.06483,42.352952],[-71.064745,42.352926],[-71.06466,42.352952],[-71.064625,42.353015],[-71.064654,42.353081],[-71.064658,42.353148],[-71.064729,42.353262],[-71.064659,42.353241],[-71.064617,42.353248],[-71.064557,42.353292],[-71.064557,42.353354],[-71.064625,42.353462],[-71.06456,42.353483],[-71.06453,42.353536],[-71.064714,42.353843],[-71.064652,42.353859],[-71.064591,42.353801],[-71.064464,42.353606],[-71.064418,42.353592],[-71.064372,42.353606],[-71.064358,42.353658],[-71.064324,42.353692],[-71.06433,42.353737],[-71.064284,42.353761],[-71.064304,42.353824],[-71.064258,42.353857],[-71.064258,42.353905],[-71.064238,42.353945],[-71.06428,42.354025],[-71.064238,42.354041],[-71.064214,42.354083],[-71.064264,42.354176],[-71.064207,42.354121],[-71.064149,42.354121],[-71.064103,42.354172],[-71.064128,42.354223],[-71.064088,42.354236],[-71.064069,42.35427],[-71.064228,42.354533],[-71.064277,42.354561],[-71.064301,42.354599],[-71.064268,42.35462],[-71.064111,42.354376],[-71.064036,42.354339],[-71.063961,42.354376],[-71.063967,42.354431],[-71.063903,42.354482],[-71.063892,42.354523],[-71.063903,42.354564],[-71.064186,42.354999],[-71.06429,42.355031],[-71.064369,42.355011],[-71.064439,42.35509],[-71.064494,42.35509],[-71.064538,42.355041],[-71.064448,42.354886],[-71.064518,42.354954],[-71.064578,42.354945],[-71.06459,42.354901],[-71.064548,42.354834],[-71.064569,42.354831],[-71.064608,42.35487],[-71.064665,42.354862],[-71.064676,42.35482],[-71.064631,42.354747],[-71.064662,42.354745],[-71.064779,42.354913],[-71.064711,42.354957],[-71.064711,42.355015],[-71.064924,42.355353],[-71.06498,42.355395],[-71.06502,42.355401],[-71.065093,42.355378],[-71.065115,42.355353],[-71.065115,42.355294],[-71.064903,42.354957],[-71.06488,42.354932],[-71.064807,42.354909],[-71.064748,42.354808],[-71.064792,42.354784],[-71.064841,42.354851],[-71.064916,42.354874],[-71.065028,42.355045],[-71.065088,42.355054],[-71.065162,42.355015],[-71.065185,42.354981],[-71.065244,42.355067],[-71.065322,42.355103],[-71.065393,42.355095],[-71.065425,42.355138],[-71.065478,42.355154],[-71.065546,42.35512],[-71.065537,42.355063],[-71.06556,42.355058],[-71.065715,42.355292],[-71.065802,42.355319],[-71.065849,42.355312],[-71.065916,42.355262],[-71.065916,42.355193],[-71.065674,42.354808],[-71.065607,42.354759],[-71.06556,42.354752],[-71.065498,42.354766],[-71.065444,42.354711],[-71.065374,42.35472],[-71.065327,42.354655],[-71.065232,42.354615],[-71.065172,42.354615],[-71.065028,42.354402],[-71.065044,42.354376],[-71.065,42.354298],[-71.065053,42.3543],[-71.065131,42.354424],[-71.065163,42.354448],[-71.065207,42.354448],[-71.065243,42.354408],[-71.065095,42.354162],[-71.065063,42.354139],[-71.064911,42.353918],[-71.064939,42.353866],[-71.064882,42.353758],[-71.064959,42.353734],[-71.064992,42.353676],[-71.065059,42.353775],[-71.06511,42.353791],[-71.06516,42.353775],[-71.065176,42.353758],[-71.065176,42.353718],[-71.065105,42.353605],[-71.065323,42.353922],[-71.065269,42.35386],[-71.065225,42.353846],[-71.065168,42.353875],[-71.065168,42.353909],[-71.065317,42.354146],[-71.065372,42.354174],[-71.065423,42.354248],[-71.065494,42.354259],[-71.065534,42.354214],[-71.065366,42.353942],[-71.065459,42.354077],[-71.065518,42.35409],[-71.065538,42.354117],[-71.065577,42.354129],[-71.065616,42.354117],[-71.065632,42.35409],[-71.065682,42.354118],[-71.065775,42.354229],[-71.065828,42.354221],[-71.065838,42.354182],[-71.065886,42.354162],[-71.065973,42.3543],[-71.066018,42.354323],[-71.066053,42.354312],[-71.066063,42.354273],[-71.065923,42.354056],[-71.065889,42.354045],[-71.065847,42.354064],[-71.065799,42.353987],[-71.065835,42.353949],[-71.065846,42.353908],[-71.065835,42.353867],[-71.065691,42.353639],[-71.065777,42.353616],[-71.065812,42.353549],[-71.066029,42.353892],[-71.066108,42.353951],[-71.06622,42.353951],[-71.066267,42.353927],[-71.066299,42.353892],[-71.06631,42.353851]],[[-71.064924,42.354418],[-71.06485,42.354428],[-71.064786,42.354327],[-71.064858,42.354314],[-71.064924,42.354418]],[[-71.064611,42.354496],[-71.064584,42.354495],[-71.06451,42.354419],[-71.064548,42.354389],[-71.064554,42.354366],[-71.064512,42.354286],[-71.064571,42.354378],[-71.064611,42.354496]]],[[[-71.066205,42.355224],[-71.066042,42.354954],[-71.066107,42.354905],[-71.066107,42.354831],[-71.065855,42.354431],[-71.065785,42.354379],[-71.065685,42.354379],[-71.065643,42.3544],[-71.065605,42.354468],[-71.065615,42.354505],[-71.065867,42.354905],[-71.065919,42.354948],[-71.065915,42.354991],[-71.066074,42.355244],[-71.066137,42.355275],[-71.066185,42.35526],[-71.066205,42.355224]]],[[[-71.066135,42.354243],[-71.066017,42.35405],[-71.065996,42.354034],[-71.065953,42.354041],[-71.065945,42.354072],[-71.06606,42.354254],[-71.066096,42.354272],[-71.066135,42.354243]]],[[[-71.065984,42.348282],[-71.065811,42.348004],[-71.065765,42.34799],[-71.065719,42.348004],[-71.065705,42.348056],[-71.065761,42.348145],[-71.065696,42.348151],[-71.065684,42.348196],[-71.065835,42.34843],[-71.065874,42.348442],[-71.065913,42.34843],[-71.065929,42.348401],[-71.065885,42.348323],[-71.065944,42.348327],[-71.065984,42.348282]]],[[[-71.065882,42.348675],[-71.065721,42.348415],[-71.06568,42.348403],[-71.065628,42.348427],[-71.065547,42.348299],[-71.065514,42.348274],[-71.065466,42.348274],[-71.065433,42.348299],[-71.065433,42.348333],[-71.065595,42.348585],[-71.065639,42.348598],[-71.065695,42.348572],[-71.06577,42.348691],[-71.065802,42.348715],[-71.065846,42.348715],[-71.065882,42.348675]]],[[[-71.065794,42.348397],[-71.065727,42.348288],[-71.065693,42.348288],[-71.065759,42.348403],[-71.065783,42.34841],[-71.065794,42.348397]]],[[[-71.065671,42.349414],[-71.065544,42.349211],[-71.06551,42.3492],[-71.065476,42.349211],[-71.065364,42.349045],[-71.06533,42.349034],[-71.065296,42.349045],[-71.065285,42.349084],[-71.065425,42.349301],[-71.065459,42.349312],[-71.065494,42.349301],[-71.065603,42.349447],[-71.06564,42.349447],[-71.065671,42.349414]]],[[[-71.065664,42.351343],[-71.065587,42.351218],[-71.065553,42.351218],[-71.065629,42.351348],[-71.065652,42.351355],[-71.065664,42.351343]]],[[[-71.065659,42.349054],[-71.065597,42.348952],[-71.065563,42.348952],[-71.065624,42.349059],[-71.065648,42.349066],[-71.065659,42.349054]]],[[[-71.065623,42.349191],[-71.065561,42.349089],[-71.065527,42.349089],[-71.065588,42.349196],[-71.065612,42.349203],[-71.065623,42.349191]]],[[[-71.065614,42.348214],[-71.065547,42.348105],[-71.065513,42.348105],[-71.065579,42.34822],[-71.065603,42.348227],[-71.065614,42.348214]]],[[[-71.065573,42.348589],[-71.065481,42.34844],[-71.065439,42.34844],[-71.065529,42.348596],[-71.065559,42.348605],[-71.065573,42.348589]]],[[[-71.065545,42.348968],[-71.065418,42.348765],[-71.065384,42.348754],[-71.06535,42.348765],[-71.065339,42.348804],[-71.065461,42.348993],[-71.065514,42.349001],[-71.065545,42.348968]]],[[[-71.065505,42.349114],[-71.065393,42.34893],[-71.065374,42.348916],[-71.065335,42.348921],[-71.065327,42.34895],[-71.065437,42.349125],[-71.06547,42.349141],[-71.065505,42.349114]]],[[[-71.065439,42.351322],[-71.065367,42.351205],[-71.065333,42.351205],[-71.065404,42.351327],[-71.065428,42.351335],[-71.065439,42.351322]]],[[[-71.065392,42.354293],[-71.065231,42.354033],[-71.06519,42.354021],[-71.065121,42.353947],[-71.06505,42.353957],[-71.065036,42.354009],[-71.065204,42.354269],[-71.065263,42.354282],[-71.065293,42.354323],[-71.065334,42.354336],[-71.065375,42.354323],[-71.065392,42.354293]]],[[[-71.065334,42.351314],[-71.065267,42.351205],[-71.065233,42.351205],[-71.065299,42.35132],[-71.065323,42.351327],[-71.065334,42.351314]]],[[[-71.065271,42.350871],[-71.065174,42.350713],[-71.06515,42.350701],[-71.065126,42.350713],[-71.065221,42.350878],[-71.065245,42.35089],[-71.065271,42.350871]]],[[[-71.065246,42.350935],[-71.065149,42.350777],[-71.065125,42.350765],[-71.065101,42.350777],[-71.065196,42.350942],[-71.06522,42.350954],[-71.065246,42.350935]]],[[[-71.065215,42.350989],[-71.065128,42.350847],[-71.065092,42.350847],[-71.065177,42.350994],[-71.065203,42.351002],[-71.065215,42.350989]]],[[[-71.065015,42.351422],[-71.064943,42.351305],[-71.064909,42.351305],[-71.06498,42.351427],[-71.065004,42.351435],[-71.065015,42.351422]]],[[[-71.064923,42.34856],[-71.064856,42.348451],[-71.064822,42.348451],[-71.064888,42.348566],[-71.064912,42.348573],[-71.064923,42.34856]]],[[[-71.06469,42.35193],[-71.064623,42.351821],[-71.064589,42.351821],[-71.064655,42.351936],[-71.064679,42.351943],[-71.06469,42.35193]]],[[[-71.064687,42.348529],[-71.06462,42.34842],[-71.064586,42.34842],[-71.064652,42.348535],[-71.064676,42.348542],[-71.064687,42.348529]]],[[[-71.06465,42.35224],[-71.064614,42.35218],[-71.064637,42.352162],[-71.064567,42.35205],[-71.064543,42.352043],[-71.064533,42.35206],[-71.064552,42.352091],[-71.064527,42.35211],[-71.064612,42.352245],[-71.064638,42.352253],[-71.06465,42.35224]]],[[[-71.064614,42.352264],[-71.064547,42.352155],[-71.064513,42.352155],[-71.064579,42.35227],[-71.064603,42.352277],[-71.064614,42.352264]]],[[[-71.064502,42.348503],[-71.064435,42.348394],[-71.064401,42.348394],[-71.064467,42.348509],[-71.064491,42.348516],[-71.064502,42.348503]]],[[[-71.064304,42.351029],[-71.064237,42.35092],[-71.064203,42.35092],[-71.064269,42.351035],[-71.064293,42.351042],[-71.064304,42.351029]]],[[[-71.064299,42.348863],[-71.064207,42.348714],[-71.064165,42.348714],[-71.064255,42.34887],[-71.064285,42.348879],[-71.064299,42.348863]]],[[[-71.064249,42.348968],[-71.064167,42.348835],[-71.064133,42.348835],[-71.064214,42.348973],[-71.064237,42.34898],[-71.064249,42.348968]]],[[[-71.064214,42.351018],[-71.064147,42.350909],[-71.064113,42.350909],[-71.064179,42.351024],[-71.064203,42.351031],[-71.064214,42.351018]]],[[[-71.064187,42.351081],[-71.06408,42.350905],[-71.064062,42.350892],[-71.064027,42.350897],[-71.06402,42.350923],[-71.064125,42.35109],[-71.064155,42.351105],[-71.064187,42.351081]]],[[[-71.064169,42.353428],[-71.064087,42.353295],[-71.064053,42.353295],[-71.064134,42.353433],[-71.064157,42.35344],[-71.064169,42.353428]]],[[[-71.064146,42.354998],[-71.063938,42.354663],[-71.063878,42.354645],[-71.063818,42.354663],[-71.0638,42.354683],[-71.063799,42.354727],[-71.063755,42.354758],[-71.063755,42.354802],[-71.063945,42.355096],[-71.06403,42.355109],[-71.064078,42.355058],[-71.064121,42.355042],[-71.064146,42.354998]]],[[[-71.064135,42.353526],[-71.064073,42.353424],[-71.064094,42.353411],[-71.064012,42.353278],[-71.063988,42.353271],[-71.063978,42.353288],[-71.064033,42.353376],[-71.063941,42.353262],[-71.063899,42.353262],[-71.063961,42.353372],[-71.063947,42.353392],[-71.064032,42.353527],[-71.064058,42.353535],[-71.064068,42.353516],[-71.064013,42.353428],[-71.064026,42.353423],[-71.064097,42.353531],[-71.064123,42.353539],[-71.064135,42.353526]]],[[[-71.064088,42.351085],[-71.06397,42.350892],[-71.063949,42.350876],[-71.063906,42.350883],[-71.063898,42.350914],[-71.064013,42.351096],[-71.064049,42.351114],[-71.064088,42.351085]]],[[[-71.064079,42.353888],[-71.063997,42.353755],[-71.063963,42.353755],[-71.064044,42.353893],[-71.064067,42.3539],[-71.064079,42.353888]]],[[[-71.064027,42.354134],[-71.06392,42.353958],[-71.063902,42.353945],[-71.063867,42.35395],[-71.06386,42.353976],[-71.063965,42.354143],[-71.063995,42.354158],[-71.064027,42.354134]]],[[[-71.064009,42.353502],[-71.063927,42.353369],[-71.063893,42.353369],[-71.063974,42.353507],[-71.063997,42.353514],[-71.064009,42.353502]]],[[[-71.064001,42.348811],[-71.063914,42.348669],[-71.063878,42.348669],[-71.063963,42.348816],[-71.063989,42.348824],[-71.064001,42.348811]]],[[[-71.063983,42.348886],[-71.063891,42.348737],[-71.063849,42.348737],[-71.063939,42.348893],[-71.063969,42.348902],[-71.063983,42.348886]]],[[[-71.063965,42.349006],[-71.063878,42.348864],[-71.063842,42.348864],[-71.063927,42.349011],[-71.063953,42.349019],[-71.063965,42.349006]]],[[[-71.063939,42.348897],[-71.063872,42.348788],[-71.063838,42.348788],[-71.063904,42.348903],[-71.063928,42.34891],[-71.063939,42.348897]]],[[[-71.063911,42.354271],[-71.063814,42.354113],[-71.06379,42.354101],[-71.063766,42.354113],[-71.063861,42.354278],[-71.063885,42.35429],[-71.063911,42.354271]]],[[[-71.063887,42.349252],[-71.06382,42.349143],[-71.063786,42.349143],[-71.063852,42.349258],[-71.063876,42.349265],[-71.063887,42.349252]]],[[[-71.063874,42.348531],[-71.063807,42.348422],[-71.063773,42.348422],[-71.063839,42.348537],[-71.063863,42.348544],[-71.063874,42.348531]]],[[[-71.063834,42.349397],[-71.063767,42.349288],[-71.063733,42.349288],[-71.063751,42.349327],[-71.063719,42.349335],[-71.063786,42.349445],[-71.06382,42.349445],[-71.063801,42.349406],[-71.063834,42.349397]]],[[[-71.063812,42.35105],[-71.063705,42.350874],[-71.063687,42.350861],[-71.063652,42.350866],[-71.063645,42.350892],[-71.06375,42.351059],[-71.06378,42.351074],[-71.063812,42.35105]]],[[[-71.063784,42.348514],[-71.063717,42.348405],[-71.063683,42.348405],[-71.063749,42.34852],[-71.063773,42.348527],[-71.063784,42.348514]]],[[[-71.063775,42.349896],[-71.063688,42.349754],[-71.063652,42.349754],[-71.063737,42.349901],[-71.063763,42.349909],[-71.063775,42.349896]]],[[[-71.063713,42.349982],[-71.063631,42.349849],[-71.063597,42.349849],[-71.063678,42.349987],[-71.063701,42.349994],[-71.063713,42.349982]]],[[[-71.063703,42.351019],[-71.063611,42.35087],[-71.063569,42.35087],[-71.063659,42.351026],[-71.063689,42.351035],[-71.063703,42.351019]]],[[[-71.063681,42.354878],[-71.063554,42.354675],[-71.06352,42.354664],[-71.063486,42.354675],[-71.063475,42.354714],[-71.063597,42.354903],[-71.063651,42.354911],[-71.063681,42.354878]]],[[[-71.063665,42.350086],[-71.063578,42.349944],[-71.063542,42.349944],[-71.063627,42.350091],[-71.063653,42.350099],[-71.063665,42.350086]]],[[[-71.063641,42.351015],[-71.063544,42.350857],[-71.06352,42.350845],[-71.063496,42.350857],[-71.063591,42.351022],[-71.063615,42.351034],[-71.063641,42.351015]]],[[[-71.063629,42.350128],[-71.063547,42.349995],[-71.063513,42.349995],[-71.063594,42.350133],[-71.063617,42.35014],[-71.063629,42.350128]]],[[[-71.063621,42.354978],[-71.063494,42.354775],[-71.06346,42.354764],[-71.063426,42.354775],[-71.063415,42.354814],[-71.063537,42.355003],[-71.063591,42.355011],[-71.063621,42.354978]]],[[[-71.063539,42.350546],[-71.063457,42.350413],[-71.063477,42.350395],[-71.063402,42.350275],[-71.063378,42.350268],[-71.063368,42.350285],[-71.063444,42.350405],[-71.063423,42.350423],[-71.063504,42.350551],[-71.063527,42.350558],[-71.063539,42.350546]]],[[[-71.063534,42.3503],[-71.063457,42.350175],[-71.063423,42.350175],[-71.063499,42.350305],[-71.063522,42.350312],[-71.063534,42.3503]]],[[[-71.06351,42.350607],[-71.063433,42.350482],[-71.063399,42.350482],[-71.063475,42.350612],[-71.063498,42.350619],[-71.06351,42.350607]]],[[[-71.063504,42.350366],[-71.063427,42.350241],[-71.063393,42.350241],[-71.063469,42.350371],[-71.063492,42.350378],[-71.063504,42.350366]]],[[[-71.063483,42.350924],[-71.063442,42.350853],[-71.063453,42.350834],[-71.063368,42.350698],[-71.063343,42.350691],[-71.063332,42.35071],[-71.063353,42.350744],[-71.063325,42.350765],[-71.063349,42.350809],[-71.063336,42.350833],[-71.063445,42.350995],[-71.063479,42.350984],[-71.063463,42.350944],[-71.063483,42.350924]]],[[[-71.063474,42.350662],[-71.063327,42.350435],[-71.063293,42.350435],[-71.063439,42.350667],[-71.063463,42.350675],[-71.063474,42.350662]]],[[[-71.063439,42.350722],[-71.063297,42.350478],[-71.063273,42.350471],[-71.063263,42.350488],[-71.063404,42.350727],[-71.063428,42.350735],[-71.063439,42.350722]]],[[[-71.063349,42.350656],[-71.063272,42.350531],[-71.063238,42.350531],[-71.063314,42.350661],[-71.063337,42.350668],[-71.063349,42.350656]]],[[[-71.063329,42.35071],[-71.063247,42.350577],[-71.063213,42.350577],[-71.063294,42.350715],[-71.063317,42.350722],[-71.063329,42.35071]]],[[[-71.063309,42.350758],[-71.063227,42.350625],[-71.063193,42.350625],[-71.063274,42.350763],[-71.063297,42.35077],[-71.063309,42.350758]]],[[[-71.063259,42.350774],[-71.063197,42.350672],[-71.063163,42.350672],[-71.063224,42.350779],[-71.063248,42.350786],[-71.063259,42.350774]]],[[[-71.063254,42.350847],[-71.063177,42.350722],[-71.063143,42.350722],[-71.063219,42.350852],[-71.063242,42.350859],[-71.063254,42.350847]]],[[[-71.063235,42.350901],[-71.063148,42.350759],[-71.063112,42.350759],[-71.063197,42.350906],[-71.063223,42.350914],[-71.063235,42.350901]]],[[[-71.063215,42.35235],[-71.063143,42.352233],[-71.063109,42.352233],[-71.06318,42.352355],[-71.063204,42.352363],[-71.063215,42.35235]]],[[[-71.063154,42.352362],[-71.063082,42.352245],[-71.063048,42.352245],[-71.063119,42.352367],[-71.063143,42.352375],[-71.063154,42.352362]]],[[[-71.063054,42.352365],[-71.062982,42.352248],[-71.062948,42.352248],[-71.063019,42.35237],[-71.063043,42.352378],[-71.063054,42.352365]]],[[[-71.062998,42.35234],[-71.062921,42.352215],[-71.062887,42.352215],[-71.062963,42.352345],[-71.062986,42.352352],[-71.062998,42.35234]]],[[[-71.062919,42.352327],[-71.062847,42.35221],[-71.062813,42.35221],[-71.062884,42.352332],[-71.062908,42.35234],[-71.062919,42.352327]]],[[[-71.062915,42.353438],[-71.062762,42.353201],[-71.062726,42.353201],[-71.062877,42.353443],[-71.062903,42.353451],[-71.062915,42.353438]]],[[[-71.062915,42.35335],[-71.062828,42.353208],[-71.062792,42.353208],[-71.062877,42.353355],[-71.062903,42.353363],[-71.062915,42.35335]]],[[[-71.062853,42.353449],[-71.062761,42.3533],[-71.062719,42.3533],[-71.062809,42.353456],[-71.062839,42.353465],[-71.062853,42.353449]]],[[[-71.062659,42.348513],[-71.062557,42.348346],[-71.062509,42.348339],[-71.062501,42.348354],[-71.062603,42.348521],[-71.06263,42.348534],[-71.062659,42.348513]]],[[[-71.062616,42.349563],[-71.062484,42.349351],[-71.062424,42.349351],[-71.062366,42.349294],[-71.062311,42.349311],[-71.062311,42.349335],[-71.06244,42.349535],[-71.062499,42.349535],[-71.062557,42.349592],[-71.06259,42.349592],[-71.062616,42.349563]]],[[[-71.062553,42.3487],[-71.062482,42.348584],[-71.062512,42.348576],[-71.062521,42.348544],[-71.062398,42.348353],[-71.062342,42.348353],[-71.062334,42.348384],[-71.062433,42.348541],[-71.062419,42.348563],[-71.062509,42.348707],[-71.062539,42.348716],[-71.062553,42.3487]]],[[[-71.062125,42.353888],[-71.062038,42.353746],[-71.062002,42.353746],[-71.062087,42.353893],[-71.062113,42.353901],[-71.062125,42.353888]]],[[[-71.062072,42.34941],[-71.062005,42.349301],[-71.061971,42.349301],[-71.062037,42.349416],[-71.062061,42.349423],[-71.062072,42.34941]]],[[[-71.062054,42.353964],[-71.061987,42.353855],[-71.061953,42.353855],[-71.062019,42.35397],[-71.062043,42.353977],[-71.062054,42.353964]]],[[[-71.062053,42.349726],[-71.061926,42.349523],[-71.061892,42.349512],[-71.061858,42.349523],[-71.061847,42.349562],[-71.061969,42.349751],[-71.062022,42.349759],[-71.062053,42.349726]]],[[[-71.062017,42.349542],[-71.06195,42.349433],[-71.061916,42.349433],[-71.061982,42.349548],[-71.062006,42.349555],[-71.062017,42.349542]]],[[[-71.06201,42.353836],[-71.061923,42.353694],[-71.061887,42.353694],[-71.061972,42.353841],[-71.061998,42.353849],[-71.06201,42.353836]]],[[[-71.061995,42.353961],[-71.061908,42.353819],[-71.061872,42.353819],[-71.061957,42.353966],[-71.061983,42.353974],[-71.061995,42.353961]]],[[[-71.061994,42.349984],[-71.061927,42.349875],[-71.061893,42.349875],[-71.061959,42.34999],[-71.061983,42.349997],[-71.061994,42.349984]]],[[[-71.061976,42.34851],[-71.061838,42.348288],[-71.061774,42.348288],[-71.061764,42.348325],[-71.061898,42.348534],[-71.061948,42.348541],[-71.061976,42.34851]]],[[[-71.061964,42.35003],[-71.061897,42.349921],[-71.061863,42.349921],[-71.061929,42.350036],[-71.061953,42.350043],[-71.061964,42.35003]]],[[[-71.061958,42.350104],[-71.061891,42.349995],[-71.061857,42.349995],[-71.061923,42.35011],[-71.061947,42.350117],[-71.061958,42.350104]]],[[[-71.061934,42.350148],[-71.061867,42.350039],[-71.061833,42.350039],[-71.061899,42.350154],[-71.061923,42.350161],[-71.061934,42.350148]]],[[[-71.061911,42.353789],[-71.061824,42.353647],[-71.061789,42.353647],[-71.061744,42.353582],[-71.061691,42.353574],[-71.061665,42.353593],[-71.061617,42.353538],[-71.061593,42.353545],[-71.061669,42.353675],[-71.06173,42.353725],[-71.061711,42.353738],[-71.061778,42.353848],[-71.061812,42.353848],[-71.061798,42.353815],[-71.061813,42.353819],[-71.061859,42.353893],[-71.061883,42.3539],[-71.061893,42.353882],[-71.061849,42.353814],[-71.06187,42.353788],[-71.061891,42.353803],[-71.061911,42.353789]]],[[[-71.061904,42.350184],[-71.061837,42.350075],[-71.061803,42.350075],[-71.061869,42.35019],[-71.061893,42.350197],[-71.061904,42.350184]]],[[[-71.061904,42.350474],[-71.061786,42.350281],[-71.061765,42.350265],[-71.061722,42.350272],[-71.061711,42.350292],[-71.06172,42.350312],[-71.061678,42.350333],[-71.061678,42.350359],[-71.061812,42.350568],[-71.061877,42.350568],[-71.06189,42.350544],[-71.061868,42.350502],[-71.061904,42.350474]]],[[[-71.061885,42.350252],[-71.061823,42.35015],[-71.061789,42.35015],[-71.06185,42.350257],[-71.061874,42.350264],[-71.061885,42.350252]]],[[[-71.061878,42.349844],[-71.061751,42.349641],[-71.061717,42.34963],[-71.061683,42.349641],[-71.061672,42.34968],[-71.061794,42.349869],[-71.061847,42.349877],[-71.061878,42.349844]]],[[[-71.061864,42.350304],[-71.061797,42.350195],[-71.061763,42.350195],[-71.061829,42.35031],[-71.061853,42.350317],[-71.061864,42.350304]]],[[[-71.061836,42.348525],[-71.061769,42.348416],[-71.061735,42.348416],[-71.061801,42.348531],[-71.061825,42.348538],[-71.061836,42.348525]]],[[[-71.061812,42.348838],[-71.061666,42.348619],[-71.061673,42.348599],[-71.061607,42.348495],[-71.061583,42.348488],[-71.061573,42.348505],[-71.061649,42.348617],[-71.061611,42.348636],[-71.061611,42.34866],[-71.061731,42.34885],[-71.06177,42.348869],[-71.061799,42.34886],[-71.061812,42.348838]]],[[[-71.061784,42.348518],[-71.061596,42.348179],[-71.061572,42.348172],[-71.061562,42.348189],[-71.061606,42.348259],[-71.061552,42.348268],[-71.061454,42.348118],[-71.06141,42.348104],[-71.061366,42.348118],[-71.061348,42.34815],[-71.061395,42.348234],[-71.061388,42.348248],[-71.061502,42.348432],[-71.061603,42.348419],[-71.061678,42.348534],[-71.061708,42.348556],[-71.06175,42.348556],[-71.061784,42.348518]]],[[[-71.06169,42.348868],[-71.061552,42.348646],[-71.061488,42.348646],[-71.061478,42.348683],[-71.061651,42.348954],[-71.061675,42.348947],[-71.061652,42.3489],[-71.06169,42.348868]]],[[[-71.06166,42.349746],[-71.061533,42.349543],[-71.061499,42.349532],[-71.061465,42.349543],[-71.061367,42.349425],[-71.061333,42.349425],[-71.061376,42.349504],[-71.061356,42.34952],[-71.061356,42.349548],[-71.061478,42.349737],[-71.061513,42.349748],[-71.061547,42.349737],[-71.061576,42.349771],[-71.061611,42.349782],[-71.061645,42.349771],[-71.06166,42.349746]]],[[[-71.061622,42.349044],[-71.061499,42.348842],[-71.061476,42.348825],[-71.06143,42.348832],[-71.061421,42.348866],[-71.061541,42.349056],[-71.06158,42.349075],[-71.061609,42.349066],[-71.061622,42.349044]]],[[[-71.061583,42.351093],[-71.061491,42.350944],[-71.061449,42.350944],[-71.061539,42.3511],[-71.061569,42.351109],[-71.061583,42.351093]]],[[[-71.061514,42.349375],[-71.061437,42.34925],[-71.061403,42.34925],[-71.061479,42.34938],[-71.061502,42.349387],[-71.061514,42.349375]]],[[[-71.061485,42.349188],[-71.061398,42.349046],[-71.061362,42.349046],[-71.061447,42.349193],[-71.061473,42.349201],[-71.061485,42.349188]]],[[[-71.061484,42.351226],[-71.061417,42.351117],[-71.061383,42.351117],[-71.061449,42.351232],[-71.061473,42.351239],[-71.061484,42.351226]]],[[[-71.061463,42.351284],[-71.061396,42.351175],[-71.061362,42.351175],[-71.061428,42.35129],[-71.061452,42.351297],[-71.061463,42.351284]]],[[[-71.061449,42.349387],[-71.061347,42.34922],[-71.061299,42.349213],[-71.061291,42.349228],[-71.061393,42.349395],[-71.06142,42.349408],[-71.061449,42.349387]]],[[[-71.061437,42.351344],[-71.06137,42.351235],[-71.061336,42.351235],[-71.061402,42.35135],[-71.061426,42.351357],[-71.061437,42.351344]]],[[[-71.061418,42.351393],[-71.061351,42.351284],[-71.061317,42.351284],[-71.061383,42.351399],[-71.061407,42.351406],[-71.061418,42.351393]]],[[[-71.061353,42.349742],[-71.061281,42.349625],[-71.061247,42.349625],[-71.061318,42.349747],[-71.061342,42.349755],[-71.061353,42.349742]]],[[[-71.061342,42.35002],[-71.061219,42.349818],[-71.061196,42.349801],[-71.06115,42.349808],[-71.061141,42.349842],[-71.061261,42.350032],[-71.0613,42.350051],[-71.061329,42.350042],[-71.061342,42.35002]]],[[[-71.061332,42.34979],[-71.06126,42.349673],[-71.061226,42.349673],[-71.061297,42.349795],[-71.061321,42.349803],[-71.061332,42.34979]]],[[[-71.06131,42.353474],[-71.061243,42.353365],[-71.061209,42.353365],[-71.061177,42.353332],[-71.061153,42.353339],[-71.061127,42.353308],[-71.061103,42.353315],[-71.061169,42.35343],[-71.061203,42.35343],[-71.061229,42.353461],[-71.061253,42.353454],[-71.061285,42.353487],[-71.06131,42.353474]]],[[[-71.061304,42.354878],[-71.061237,42.354769],[-71.061203,42.354769],[-71.061269,42.354884],[-71.061293,42.354891],[-71.061304,42.354878]]],[[[-71.06129,42.350243],[-71.061141,42.350003],[-71.061104,42.349992],[-71.061067,42.350003],[-71.061056,42.350045],[-71.061202,42.350271],[-71.061258,42.350279],[-71.06129,42.350243]]],[[[-71.061254,42.35502],[-71.061187,42.354911],[-71.061153,42.354911],[-71.061219,42.355026],[-71.061243,42.355033],[-71.061254,42.35502]]],[[[-71.061166,42.348815],[-71.061017,42.348575],[-71.06098,42.348564],[-71.060943,42.348575],[-71.060932,42.348617],[-71.060972,42.34868],[-71.060911,42.348688],[-71.060899,42.348733],[-71.06105,42.348967],[-71.061089,42.348979],[-71.06114,42.348954],[-71.06114,42.348923],[-71.061095,42.348851],[-71.061151,42.348843],[-71.061166,42.348815]]],[[[-71.061124,42.353395],[-71.061047,42.35327],[-71.061013,42.35327],[-71.061089,42.3534],[-71.061113,42.353407],[-71.061124,42.353395]]],[[[-71.061104,42.348594],[-71.061037,42.348485],[-71.061003,42.348485],[-71.061069,42.3486],[-71.061093,42.348607],[-71.061104,42.348594]]],[[[-71.061062,42.349017],[-71.060939,42.348815],[-71.060916,42.348798],[-71.06087,42.348805],[-71.060861,42.348839],[-71.060981,42.349029],[-71.06102,42.349048],[-71.061049,42.349039],[-71.061062,42.349017]]],[[[-71.061054,42.353467],[-71.060987,42.353358],[-71.060953,42.353358],[-71.061019,42.353473],[-71.061043,42.35348],[-71.061054,42.353467]]],[[[-71.061011,42.349434],[-71.060827,42.349137],[-71.060776,42.349121],[-71.060725,42.349137],[-71.060705,42.349174],[-71.06071,42.349194],[-71.060889,42.349471],[-71.060967,42.349483],[-71.061011,42.349434]]],[[[-71.061004,42.353324],[-71.060937,42.353215],[-71.060903,42.353215],[-71.060969,42.35333],[-71.060993,42.353337],[-71.061004,42.353324]]],[[[-71.060994,42.353442],[-71.060922,42.353325],[-71.060888,42.353325],[-71.060959,42.353447],[-71.060983,42.353455],[-71.060994,42.353442]]],[[[-71.060928,42.353406],[-71.060861,42.353297],[-71.060827,42.353297],[-71.060893,42.353412],[-71.060917,42.353419],[-71.060928,42.353406]]],[[[-71.060845,42.349568],[-71.060729,42.349376],[-71.06069,42.349355],[-71.060627,42.349255],[-71.060593,42.349255],[-71.060654,42.349362],[-71.060597,42.349288],[-71.060573,42.349305],[-71.060751,42.349582],[-71.060796,42.349604],[-71.06083,42.349593],[-71.060845,42.349568]]],[[[-71.060824,42.349712],[-71.06068,42.349481],[-71.060646,42.34947],[-71.060612,42.349481],[-71.060557,42.349402],[-71.060523,42.349402],[-71.060543,42.349443],[-71.060512,42.349453],[-71.060584,42.34957],[-71.060617,42.34957],[-71.060593,42.349521],[-71.060741,42.349737],[-71.060794,42.349745],[-71.060824,42.349712]]],[[[-71.060738,42.349876],[-71.060605,42.349656],[-71.06056,42.349634],[-71.060503,42.349551],[-71.060469,42.349551],[-71.060485,42.349587],[-71.060468,42.3496],[-71.060512,42.349674],[-71.060477,42.349628],[-71.060453,42.349645],[-71.060519,42.34975],[-71.060482,42.349777],[-71.060482,42.349807],[-71.060628,42.350033],[-71.060664,42.350044],[-71.060712,42.35002],[-71.060712,42.349991],[-71.060656,42.349902],[-71.060708,42.349909],[-71.060738,42.349876]],[[-71.060566,42.349764],[-71.06055,42.349757],[-71.060554,42.349745],[-71.060566,42.349764]]],[[[-71.060664,42.353144],[-71.060597,42.353035],[-71.060563,42.353035],[-71.060629,42.35315],[-71.060653,42.353157],[-71.060664,42.353144]]],[[[-71.060654,42.349446],[-71.060587,42.349337],[-71.060553,42.349337],[-71.060619,42.349452],[-71.060643,42.349459],[-71.060654,42.349446]]],[[[-71.060609,42.349615],[-71.060537,42.349498],[-71.060503,42.349498],[-71.060574,42.34962],[-71.060598,42.349628],[-71.060609,42.349615]]],[[[-71.060584,42.353101],[-71.060517,42.352992],[-71.060483,42.352992],[-71.060457,42.352962],[-71.060433,42.352969],[-71.060504,42.353091],[-71.060537,42.353091],[-71.060559,42.353114],[-71.060584,42.353101]]],[[[-71.060579,42.353395],[-71.060507,42.353278],[-71.060473,42.353278],[-71.060544,42.3534],[-71.060568,42.353408],[-71.060579,42.353395]]],[[[-71.06057,42.353254],[-71.060503,42.353145],[-71.060469,42.353145],[-71.060535,42.35326],[-71.060559,42.353267],[-71.06057,42.353254]]],[[[-71.060534,42.353587],[-71.060417,42.353375],[-71.060393,42.353368],[-71.060352,42.353385],[-71.060344,42.353416],[-71.060459,42.353598],[-71.060495,42.353616],[-71.060534,42.353587]]],[[[-71.060494,42.353204],[-71.060427,42.353095],[-71.060393,42.353095],[-71.060363,42.353058],[-71.060339,42.353065],[-71.060405,42.35318],[-71.060439,42.35318],[-71.060469,42.353217],[-71.060494,42.353204]]],[[[-71.060459,42.349996],[-71.060387,42.349879],[-71.060353,42.349879],[-71.060424,42.350001],[-71.060448,42.350009],[-71.060459,42.349996]]],[[[-71.060426,42.350328],[-71.060297,42.3501],[-71.060273,42.350093],[-71.060231,42.350125],[-71.06022,42.350164],[-71.060342,42.350353],[-71.060395,42.350361],[-71.060426,42.350328]]],[[[-71.060424,42.353551],[-71.060357,42.353442],[-71.060323,42.353442],[-71.060389,42.353557],[-71.060413,42.353564],[-71.060424,42.353551]]],[[[-71.060384,42.350141],[-71.060317,42.350032],[-71.060283,42.350032],[-71.060349,42.350147],[-71.060373,42.350154],[-71.060384,42.350141]]],[[[-71.060289,42.349652],[-71.060171,42.349459],[-71.06015,42.349443],[-71.060107,42.34945],[-71.060099,42.349481],[-71.060214,42.349663],[-71.06025,42.349681],[-71.060289,42.349652]]],[[[-71.06023,42.353608],[-71.060092,42.353386],[-71.060028,42.353386],[-71.060018,42.353423],[-71.060152,42.353632],[-71.060202,42.353639],[-71.06023,42.353608]]],[[[-71.060224,42.353066],[-71.060157,42.352957],[-71.060123,42.352957],[-71.060189,42.353072],[-71.060213,42.353079],[-71.060224,42.353066]]],[[[-71.060219,42.349715],[-71.060117,42.349548],[-71.060069,42.349541],[-71.060061,42.349556],[-71.060163,42.349723],[-71.06019,42.349736],[-71.060219,42.349715]]],[[[-71.060195,42.349818],[-71.060083,42.349634],[-71.060064,42.34962],[-71.060025,42.349625],[-71.060017,42.349654],[-71.060127,42.349829],[-71.06016,42.349845],[-71.060195,42.349818]]],[[[-71.060092,42.351234],[-71.059969,42.351032],[-71.059946,42.351015],[-71.0599,42.351022],[-71.059891,42.351056],[-71.060011,42.351246],[-71.06005,42.351265],[-71.060079,42.351256],[-71.060092,42.351234]]],[[[-71.059996,42.351286],[-71.059899,42.351128],[-71.059875,42.351116],[-71.059851,42.351128],[-71.059946,42.351293],[-71.05997,42.351305],[-71.059996,42.351286]]],[[[-71.059942,42.35345],[-71.059819,42.353248],[-71.059796,42.353231],[-71.05975,42.353238],[-71.059741,42.353272],[-71.059861,42.353462],[-71.0599,42.353481],[-71.059929,42.353472],[-71.059942,42.35345]]],[[[-71.059829,42.352865],[-71.059757,42.352748],[-71.059723,42.352748],[-71.059794,42.35287],[-71.059818,42.352878],[-71.059829,42.352865]]],[[[-71.059769,42.355113],[-71.059667,42.354946],[-71.059573,42.354873],[-71.059527,42.354873],[-71.059389,42.354714],[-71.059339,42.354714],[-71.059331,42.354743],[-71.059441,42.354918],[-71.059482,42.354958],[-71.059542,42.355002],[-71.059578,42.354997],[-71.059625,42.355066],[-71.059672,42.355104],[-71.05974,42.355134],[-71.059769,42.355113]]],[[[-71.059761,42.351888],[-71.059645,42.351696],[-71.059553,42.351583],[-71.059507,42.351583],[-71.0595,42.351609],[-71.059555,42.351697],[-71.059555,42.351724],[-71.059532,42.351697],[-71.059507,42.351704],[-71.05944,42.351609],[-71.059406,42.35162],[-71.059501,42.351785],[-71.059525,42.351797],[-71.059549,42.351785],[-71.059603,42.351859],[-71.059628,42.35184],[-71.059693,42.351921],[-71.05973,42.351921],[-71.059761,42.351888]]],[[[-71.059759,42.352849],[-71.059687,42.352732],[-71.059653,42.352732],[-71.059724,42.352854],[-71.059748,42.352862],[-71.059759,42.352849]]],[[[-71.059705,42.352842],[-71.059633,42.352725],[-71.059599,42.352725],[-71.05967,42.352847],[-71.059694,42.352855],[-71.059705,42.352842]]],[[[-71.059701,42.352961],[-71.059574,42.352758],[-71.05954,42.352747],[-71.059506,42.352758],[-71.059495,42.352797],[-71.059617,42.352986],[-71.059671,42.352994],[-71.059701,42.352961]]],[[[-71.059584,42.351201],[-71.059517,42.351092],[-71.059483,42.351092],[-71.059549,42.351207],[-71.059573,42.351214],[-71.059584,42.351201]]],[[[-71.059544,42.351274],[-71.059477,42.351165],[-71.059443,42.351165],[-71.059509,42.35128],[-71.059533,42.351287],[-71.059544,42.351274]]],[[[-71.059494,42.353204],[-71.059427,42.353095],[-71.059393,42.353095],[-71.059459,42.35321],[-71.059483,42.353217],[-71.059494,42.353204]]],[[[-71.059484,42.353114],[-71.059417,42.353005],[-71.059383,42.353005],[-71.059449,42.35312],[-71.059473,42.353127],[-71.059484,42.353114]]],[[[-71.059477,42.351847],[-71.059385,42.351698],[-71.059343,42.351698],[-71.059433,42.351854],[-71.059463,42.351863],[-71.059477,42.351847]]],[[[-71.059413,42.351923],[-71.059321,42.351774],[-71.059279,42.351774],[-71.059369,42.35193],[-71.059399,42.351939],[-71.059413,42.351923]]],[[[-71.059348,42.351496],[-71.059187,42.351235],[-71.059129,42.351197],[-71.059076,42.351205],[-71.059065,42.351244],[-71.059117,42.351326],[-71.059095,42.351343],[-71.059095,42.351371],[-71.059235,42.351588],[-71.059269,42.351599],[-71.059304,42.351588],[-71.059318,42.351563],[-71.059303,42.351531],[-71.059334,42.351521],[-71.059348,42.351496]]],[[[-71.05925,42.353398],[-71.059183,42.353289],[-71.059149,42.353289],[-71.059215,42.353404],[-71.059239,42.353411],[-71.05925,42.353398]]],[[[-71.059197,42.354552],[-71.059083,42.354368],[-71.059048,42.354363],[-71.059007,42.35432],[-71.058984,42.354326],[-71.058947,42.354277],[-71.058922,42.354284],[-71.059007,42.354431],[-71.059043,42.354432],[-71.059142,42.354569],[-71.059177,42.354574],[-71.059197,42.354552]]],[[[-71.059164,42.351564],[-71.059097,42.351455],[-71.059063,42.351455],[-71.059129,42.35157],[-71.059153,42.351577],[-71.059164,42.351564]]],[[[-71.059161,42.351668],[-71.059064,42.35151],[-71.05904,42.351498],[-71.059016,42.35151],[-71.059111,42.351675],[-71.059135,42.351687],[-71.059161,42.351668]]],[[[-71.059154,42.353391],[-71.059087,42.353282],[-71.059053,42.353282],[-71.059119,42.353397],[-71.059143,42.353404],[-71.059154,42.353391]]],[[[-71.059115,42.351778],[-71.059003,42.351594],[-71.058984,42.35158],[-71.058945,42.351585],[-71.058937,42.351614],[-71.059047,42.351789],[-71.05908,42.351805],[-71.059115,42.351778]]],[[[-71.059064,42.353387],[-71.058997,42.353278],[-71.058963,42.353278],[-71.059029,42.353393],[-71.059053,42.3534],[-71.059064,42.353387]]],[[[-71.059027,42.351857],[-71.058902,42.351668],[-71.05886,42.351681],[-71.058872,42.351718],[-71.058836,42.351714],[-71.058817,42.351728],[-71.058826,42.351762],[-71.0588,42.351754],[-71.058767,42.35177],[-71.058767,42.35179],[-71.058896,42.351979],[-71.058943,42.351965],[-71.058934,42.35193],[-71.058985,42.351931],[-71.058995,42.351912],[-71.058976,42.351876],[-71.059007,42.351879],[-71.059027,42.351857]]],[[[-71.059024,42.351766],[-71.058947,42.351641],[-71.058913,42.351641],[-71.058989,42.351771],[-71.059012,42.351778],[-71.059024,42.351766]]],[[[-71.05893,42.353372],[-71.058863,42.353263],[-71.058829,42.353263],[-71.058895,42.353378],[-71.058919,42.353385],[-71.05893,42.353372]]],[[[-71.05887,42.352027],[-71.058826,42.351951],[-71.058847,42.351933],[-71.058777,42.351821],[-71.058688,42.351825],[-71.05868,42.351856],[-71.058795,42.352038],[-71.058831,42.352056],[-71.05887,42.352027]]],[[[-71.058824,42.353372],[-71.058757,42.353263],[-71.058723,42.353263],[-71.058789,42.353378],[-71.058813,42.353385],[-71.058824,42.353372]]],[[[-71.058797,42.352073],[-71.058683,42.351889],[-71.058648,42.351884],[-71.05863,42.351915],[-71.058604,42.351918],[-71.058597,42.35193],[-71.058689,42.35208],[-71.058765,42.352097],[-71.058797,42.352073]]],[[[-71.058724,42.352218],[-71.058646,42.352085],[-71.058664,42.352071],[-71.058587,42.351955],[-71.058491,42.351968],[-71.058451,42.352018],[-71.058451,42.352042],[-71.058392,42.35206],[-71.058523,42.352285],[-71.058547,42.352303],[-71.058597,42.352296],[-71.05861,42.352272],[-71.058601,42.35225],[-71.05869,42.352256],[-71.058724,42.352218]]],[[[-71.058634,42.352634],[-71.058567,42.352525],[-71.058533,42.352525],[-71.058487,42.352467],[-71.058462,42.352474],[-71.058472,42.352524],[-71.058539,42.352634],[-71.058563,42.352641],[-71.058584,42.352617],[-71.058609,42.352647],[-71.058634,42.352634]]],[[[-71.058499,42.35264],[-71.058387,42.352465],[-71.058353,42.352465],[-71.058464,42.352645],[-71.058488,42.352653],[-71.058499,42.35264]]],[[[-71.058459,42.352209],[-71.058387,42.352092],[-71.058353,42.352092],[-71.058424,42.352214],[-71.058448,42.352222],[-71.058459,42.352209]]],[[[-71.058414,42.352624],[-71.058347,42.352515],[-71.058313,42.352515],[-71.058267,42.352455],[-71.058243,42.352462],[-71.058262,42.352502],[-71.058232,42.352512],[-71.058299,42.352622],[-71.058333,42.352622],[-71.058314,42.352581],[-71.058339,42.352581],[-71.058389,42.352637],[-71.058414,42.352624]]],[[[-71.058354,42.351014],[-71.058287,42.350905],[-71.058253,42.350905],[-71.058319,42.35102],[-71.058343,42.351027],[-71.058354,42.351014]]],[[[-71.058284,42.350991],[-71.058217,42.350882],[-71.058183,42.350882],[-71.058249,42.350997],[-71.058273,42.351004],[-71.058284,42.350991]]],[[[-71.058104,42.352769],[-71.058037,42.35266],[-71.058003,42.35266],[-71.058069,42.352775],[-71.058093,42.352782],[-71.058104,42.352769]]],[[[-71.058098,42.352872],[-71.058031,42.352763],[-71.057997,42.352763],[-71.058063,42.352878],[-71.058087,42.352885],[-71.058098,42.352872]]],[[[-71.058074,42.353009],[-71.058007,42.3529],[-71.057973,42.3529],[-71.058039,42.353015],[-71.058063,42.353022],[-71.058074,42.353009]]],[[[-71.057869,42.350797],[-71.057802,42.350688],[-71.057768,42.350688],[-71.057747,42.350665],[-71.057723,42.350672],[-71.057789,42.350787],[-71.057823,42.350787],[-71.057844,42.35081],[-71.057869,42.350797]]],[[[-71.057845,42.352377],[-71.057748,42.352219],[-71.057724,42.352207],[-71.0577,42.352219],[-71.057795,42.352384],[-71.057819,42.352396],[-71.057845,42.352377]]],[[[-71.057723,42.352349],[-71.057621,42.352182],[-71.057573,42.352175],[-71.057565,42.35219],[-71.057667,42.352357],[-71.057694,42.35237],[-71.057723,42.352349]]],[[[-71.057631,42.352311],[-71.057534,42.352153],[-71.05751,42.352141],[-71.057486,42.352153],[-71.057581,42.352318],[-71.057605,42.35233],[-71.057631,42.352311]]],[[[-71.057551,42.352291],[-71.057454,42.352133],[-71.05743,42.352121],[-71.057406,42.352133],[-71.057501,42.352298],[-71.057525,42.35231],[-71.057551,42.352291]]],[[[-71.05748,42.350507],[-71.057413,42.350398],[-71.057379,42.350398],[-71.057445,42.350513],[-71.057469,42.35052],[-71.05748,42.350507]]],[[[-71.057469,42.352269],[-71.057367,42.352102],[-71.057319,42.352095],[-71.057311,42.35211],[-71.057413,42.352277],[-71.05744,42.35229],[-71.057469,42.352269]]],[[[-71.057464,42.350598],[-71.057397,42.350489],[-71.057363,42.350489],[-71.057429,42.350604],[-71.057453,42.350611],[-71.057464,42.350598]]],[[[-71.057419,42.351819],[-71.057347,42.351702],[-71.057313,42.351702],[-71.05733,42.351739],[-71.057302,42.35175],[-71.057369,42.35186],[-71.057403,42.35186],[-71.057391,42.35183],[-71.057419,42.351819]]],[[[-71.057375,42.352001],[-71.057308,42.351892],[-71.057274,42.351892],[-71.05734,42.352007],[-71.057364,42.352014],[-71.057375,42.352001]]],[[[-71.057374,42.351045],[-71.057297,42.35092],[-71.057263,42.35092],[-71.057339,42.35105],[-71.057362,42.351057],[-71.057374,42.351045]]],[[[-71.057359,42.352052],[-71.057297,42.35195],[-71.057263,42.35195],[-71.057324,42.352057],[-71.057348,42.352064],[-71.057359,42.352052]]],[[[-71.057344,42.351183],[-71.057267,42.351058],[-71.057233,42.351058],[-71.057309,42.351188],[-71.057332,42.351195],[-71.057344,42.351183]]],[[[-71.057274,42.351514],[-71.057207,42.351405],[-71.057173,42.351405],[-71.057239,42.35152],[-71.057263,42.351527],[-71.057274,42.351514]]],[[[-71.057264,42.350654],[-71.057197,42.350545],[-71.057163,42.350545],[-71.057229,42.35066],[-71.057253,42.350667],[-71.057264,42.350654]]],[[[-71.057213,42.350736],[-71.057093,42.350528],[-71.057069,42.350521],[-71.057059,42.350538],[-71.057178,42.350742],[-71.057202,42.350749],[-71.057213,42.350736]]],[[[-71.057127,42.35007],[-71.05702,42.349894],[-71.057002,42.349881],[-71.056967,42.349886],[-71.05696,42.349912],[-71.057065,42.350079],[-71.057095,42.350094],[-71.057127,42.35007]]],[[[-71.057104,42.349944],[-71.057037,42.349835],[-71.057003,42.349835],[-71.057069,42.34995],[-71.057093,42.349957],[-71.057104,42.349944]]],[[[-71.056949,42.352156],[-71.056867,42.352023],[-71.056833,42.352023],[-71.056914,42.352161],[-71.056937,42.352168],[-71.056949,42.352156]]],[[[-71.056944,42.349942],[-71.056826,42.349749],[-71.056805,42.349733],[-71.056762,42.34974],[-71.056754,42.349771],[-71.056869,42.349953],[-71.056905,42.349971],[-71.056944,42.349942]]],[[[-71.0569,42.350334],[-71.056833,42.350225],[-71.056799,42.350225],[-71.056865,42.35034],[-71.056889,42.350347],[-71.0569,42.350334]]],[[[-71.056897,42.350007],[-71.05679,42.349831],[-71.05676,42.349816],[-71.05673,42.349831],[-71.056754,42.349887],[-71.056706,42.349882],[-71.05668,42.349901],[-71.05668,42.349929],[-71.056712,42.349979],[-71.056661,42.349973],[-71.056631,42.350006],[-71.056747,42.350198],[-71.056792,42.35022],[-71.056826,42.350209],[-71.056841,42.350184],[-71.056805,42.35012],[-71.056855,42.350126],[-71.056882,42.350107],[-71.056882,42.350079],[-71.056849,42.350027],[-71.056877,42.350029],[-71.056897,42.350007]]],[[[-71.056864,42.350411],[-71.056797,42.350302],[-71.056763,42.350302],[-71.056829,42.350417],[-71.056853,42.350424],[-71.056864,42.350411]]],[[[-71.056824,42.352114],[-71.056747,42.351989],[-71.056713,42.351989],[-71.056789,42.352119],[-71.056812,42.352126],[-71.056824,42.352114]]],[[[-71.056759,42.350253],[-71.056657,42.350086],[-71.056609,42.350079],[-71.056601,42.350094],[-71.056703,42.350261],[-71.05673,42.350274],[-71.056759,42.350253]]],[[[-71.056727,42.350352],[-71.05662,42.350176],[-71.056602,42.350163],[-71.056567,42.350168],[-71.05656,42.350194],[-71.056665,42.350361],[-71.056695,42.350376],[-71.056727,42.350352]]],[[[-71.056724,42.350741],[-71.056642,42.350608],[-71.056608,42.350608],[-71.056689,42.350746],[-71.056712,42.350753],[-71.056724,42.350741]]],[[[-71.056721,42.353354],[-71.056624,42.353196],[-71.0566,42.353184],[-71.056579,42.353193],[-71.056547,42.353152],[-71.056522,42.353159],[-71.056607,42.353306],[-71.056633,42.353314],[-71.056685,42.353372],[-71.056721,42.353354]]],[[[-71.056689,42.350808],[-71.056607,42.350675],[-71.056573,42.350675],[-71.056654,42.350813],[-71.056677,42.35082],[-71.056689,42.350808]]],[[[-71.056671,42.351012],[-71.056544,42.350809],[-71.05651,42.350798],[-71.056476,42.350809],[-71.056465,42.350848],[-71.056587,42.351037],[-71.05664,42.351045],[-71.056671,42.351012]]],[[[-71.05657,42.353263],[-71.056483,42.353121],[-71.056447,42.353121],[-71.056532,42.353268],[-71.056558,42.353276],[-71.05657,42.353263]]],[[[-71.056549,42.352048],[-71.056467,42.351915],[-71.056433,42.351915],[-71.056514,42.352053],[-71.056537,42.35206],[-71.056549,42.352048]]],[[[-71.056494,42.351134],[-71.056427,42.351025],[-71.056393,42.351025],[-71.056459,42.35114],[-71.056483,42.351147],[-71.056494,42.351134]]],[[[-71.056483,42.353233],[-71.056391,42.353084],[-71.056349,42.353084],[-71.056439,42.35324],[-71.056469,42.353249],[-71.056483,42.353233]]],[[[-71.056479,42.351225],[-71.056397,42.351092],[-71.056363,42.351092],[-71.056444,42.35123],[-71.056467,42.351237],[-71.056479,42.351225]]],[[[-71.056449,42.351997],[-71.056387,42.351895],[-71.056353,42.351895],[-71.056414,42.352002],[-71.056438,42.352009],[-71.056449,42.351997]]],[[[-71.05643,42.35128],[-71.056363,42.351171],[-71.056329,42.351171],[-71.056395,42.351286],[-71.056419,42.351293],[-71.05643,42.35128]]],[[[-71.056419,42.355058],[-71.056337,42.354925],[-71.056303,42.354925],[-71.056384,42.355063],[-71.056407,42.35507],[-71.056419,42.355058]]],[[[-71.056409,42.354964],[-71.05637,42.354899],[-71.056393,42.35488],[-71.056368,42.354839],[-71.056399,42.354828],[-71.056399,42.354814],[-71.056304,42.354663],[-71.05627,42.354652],[-71.056256,42.354677],[-71.056293,42.354736],[-71.056272,42.354756],[-71.056315,42.354823],[-71.056293,42.354841],[-71.056374,42.354969],[-71.056397,42.354976],[-71.056409,42.354964]]],[[[-71.056337,42.35097],[-71.056255,42.350837],[-71.056221,42.350837],[-71.056302,42.350975],[-71.056325,42.350982],[-71.056337,42.35097]]],[[[-71.056329,42.351488],[-71.056257,42.351371],[-71.056223,42.351371],[-71.056294,42.351493],[-71.056318,42.351501],[-71.056329,42.351488]]],[[[-71.056314,42.353154],[-71.056247,42.353045],[-71.056213,42.353045],[-71.056279,42.35316],[-71.056303,42.353167],[-71.056314,42.353154]]],[[[-71.05631,42.351523],[-71.056238,42.351406],[-71.056204,42.351406],[-71.056275,42.351528],[-71.056299,42.351536],[-71.05631,42.351523]]],[[[-71.056307,42.351061],[-71.056225,42.350928],[-71.056191,42.350928],[-71.056272,42.351066],[-71.056295,42.351073],[-71.056307,42.351061]]],[[[-71.056279,42.351562],[-71.056207,42.351445],[-71.056173,42.351445],[-71.056244,42.351567],[-71.056268,42.351575],[-71.056279,42.351562]]],[[[-71.056267,42.351164],[-71.056185,42.351031],[-71.056151,42.351031],[-71.056232,42.351169],[-71.056255,42.351176],[-71.056267,42.351164]]],[[[-71.056229,42.351273],[-71.056147,42.35114],[-71.056113,42.35114],[-71.056194,42.351278],[-71.056217,42.351285],[-71.056229,42.351273]]],[[[-71.056149,42.351822],[-71.056077,42.351705],[-71.056043,42.351705],[-71.056114,42.351827],[-71.056138,42.351835],[-71.056149,42.351822]]],[[[-71.056058,42.351483],[-71.055976,42.35135],[-71.055942,42.35135],[-71.056023,42.351488],[-71.056046,42.351495],[-71.056058,42.351483]]],[[[-71.056034,42.35154],[-71.055952,42.351407],[-71.055918,42.351407],[-71.055999,42.351545],[-71.056022,42.351552],[-71.056034,42.35154]]],[[[-71.056001,42.35161],[-71.055919,42.351477],[-71.055885,42.351477],[-71.055966,42.351615],[-71.055989,42.351622],[-71.056001,42.35161]]],[[[-71.055981,42.352404],[-71.055854,42.352201],[-71.05582,42.35219],[-71.055786,42.352201],[-71.055775,42.35224],[-71.055741,42.352262],[-71.055741,42.35229],[-71.055863,42.352479],[-71.055898,42.35249],[-71.055932,42.352479],[-71.055943,42.35244],[-71.055981,42.352404]]],[[[-71.055969,42.351689],[-71.055887,42.351556],[-71.055853,42.351556],[-71.055934,42.351694],[-71.055957,42.351701],[-71.055969,42.351689]]],[[[-71.05594,42.35175],[-71.055858,42.351617],[-71.055824,42.351617],[-71.055905,42.351755],[-71.055928,42.351762],[-71.05594,42.35175]]],[[[-71.055893,42.353503],[-71.055786,42.353327],[-71.055768,42.353314],[-71.055733,42.353319],[-71.055726,42.353345],[-71.055831,42.353512],[-71.055861,42.353527],[-71.055893,42.353503]]],[[[-71.055889,42.351855],[-71.055807,42.351722],[-71.055773,42.351722],[-71.055854,42.35186],[-71.055877,42.351867],[-71.055889,42.351855]]],[[[-71.055869,42.351904],[-71.055787,42.351771],[-71.055753,42.351771],[-71.055834,42.351909],[-71.055857,42.351916],[-71.055869,42.351904]]],[[[-71.055824,42.353553],[-71.055722,42.353386],[-71.055674,42.353379],[-71.055666,42.353394],[-71.055768,42.353561],[-71.055795,42.353574],[-71.055824,42.353553]]],[[[-71.055731,42.353566],[-71.055644,42.353424],[-71.055608,42.353424],[-71.055693,42.353571],[-71.055719,42.353579],[-71.055731,42.353566]]],[[[-71.055639,42.353625],[-71.055557,42.353492],[-71.055523,42.353492],[-71.055604,42.35363],[-71.055627,42.353637],[-71.055639,42.353625]]],[[[-71.055569,42.353642],[-71.055497,42.353525],[-71.055463,42.353525],[-71.055534,42.353647],[-71.055558,42.353655],[-71.055569,42.353642]]],[[[-71.055339,42.353831],[-71.055304,42.35377],[-71.055327,42.353752],[-71.055261,42.353648],[-71.055237,42.353641],[-71.055189,42.353657],[-71.055181,42.353672],[-71.055283,42.353839],[-71.05531,42.353852],[-71.055339,42.353831]]],[[[-71.055283,42.353843],[-71.055191,42.353694],[-71.055149,42.353694],[-71.055239,42.35385],[-71.055269,42.353859],[-71.055283,42.353843]]]]},"properties":{"kind":"tree"}}]}