{"type":"FeatureCollection","features":[{"type":"Feature","geometry":{"type":"MultiPolygon","coordinates":[[[[-71.067219,42.352573],[-71.067007,42.351692],[-71.066747,42.351106],[-71.06616,42.351175],[-71.066127,42.350863],[-71.065904,42.349979],[-71.065927,42.349959],[-71.065988,42.350038],[-71.066065,42.350014],[-71.066076,42.349977],[-71.06605,42.349874],[-71.066065,42.3499],[-71.066153,42.349876],[-71.066105,42.349685],[-71.066154,42.34967],[-71.066107,42.349483],[-71.066051,42.349385],[-71.065989,42.349405],[-71.066014,42.349502],[-71.066006,42.349489],[-71.06562,42.349445],[-71.065521,42.349461],[-71.065431,42.349881],[-71.065343,42.350191],[-71.065369,42.35031],[-71.065343,42.350305],[-71.065189,42.349696],[-71.065321,42.349633],[-71.065216,42.34922],[-71.065313,42.34921],[-71.065364,42.349022],[-71.065357,42.348937],[-71.065279,42.348688],[-71.064992,42.348617],[-71.064939,42.348419],[-71.064956,42.348431],[-71.06499,42.348409],[-71.065113,42.348551],[-71.065137,42.348539],[-71.065153,42.348569],[-71.065447,42.348504],[-71.065427,42.34839],[-71.065389,42.348347],[-71.065494,42.348251],[-71.065503,42.348207],[-71.065475,42.348101],[-71.065548,42.34805],[-71.065557,42.348012],[-71.065529,42.347903],[-71.065491,42.347827],[-71.065346,42.347782],[-71.065319,42.347677],[-71.065257,42.347643],[-71.064894,42.347587],[-71.064503,42.347783],[-71.064389,42.348045],[-71.06434,42.34822],[-71.064412,42.348506],[-71.06447,42.348504],[-71.064484,42.348559],[-71.064341,42.348545],[-71.064334,42.348568],[-71.064275,42.348582],[-71.064251,42.348646],[-71.064229,42.34856],[-71.064236,42.348533],[-71.064121,42.348071],[-71.064133,42.348026],[-71.064113,42.347947],[-71.063968,42.347919],[-71.063883,42.347989],[-71.063856,42.347985],[-71.063829,42.348081],[-71.063846,42.348148],[-71.06364,42.348116],[-71.063656,42.348062],[-71.063606,42.347866],[-71.06346,42.347843],[-71.063365,42.348193],[-71.06341,42.348371],[-71.063297,42.348354],[-71.063268,42.34824],[-71.063325,42.348252],[-71.063344,42.348183],[-71.063301,42.347999],[-71.062961,42.347921],[-71.062929,42.348],[-71.062964,42.348137],[-71.062946,42.348134],[-71.062909,42.347999],[-71.062855,42.347962],[-71.062735,42.347939],[-71.062689,42.348052],[-71.062703,42.348115],[-71.062667,42.348107],[-71.06264,42.348175],[-71.062661,42.348258],[-71.062604,42.34825],[-71.062553,42.348378],[-71.062446,42.347953],[-71.061926,42.347827],[-71.061917,42.347843],[-71.061866,42.34764],[-71.061712,42.347604],[-71.061566,42.347954],[-71.061555,42.348046],[-71.061634,42.348358],[-71.061414,42.348308],[-71.061385,42.348414],[-71.061418,42.348543],[-71.061365,42.348369],[-71.061346,42.348361],[-71.061312,42.348227],[-71.061184,42.348198],[-71.061147,42.348242],[-71.061138,42.348307],[-71.06112,42.348323],[-71.061068,42.348118],[-71.061011,42.348097],[-71.060549,42.348739],[-71.06086,42.34997],[-71.06074,42.349943],[-71.060567,42.349259],[-71.060443,42.349109],[-71.060321,42.349063],[-71.060204,42.349326],[-71.059925,42.350048],[-71.059997,42.350333],[-71.059867,42.350296],[-71.059794,42.350499],[-71.059813,42.350575],[-71.059789,42.350634],[-71.059831,42.350802],[-71.059869,42.35081],[-71.059898,42.350925],[-71.060068,42.350961],[-71.059972,42.351168],[-71.06001,42.351317],[-71.059977,42.351309],[-71.059968,42.351331],[-71.059962,42.351307],[-71.059758,42.351262],[-71.059709,42.351391],[-71.059817,42.35212],[-71.059911,42.352494],[-71.060127,42.352476],[-71.060035,42.351874],[-71.060045,42.351841],[-71.060134,42.35222],[-71.060118,42.352221],[-71.060161,42.352505],[-71.060238,42.352904],[-71.060263,42.352907],[-71.060379,42.353305],[-71.060569,42.353399],[-71.060429,42.353558],[-71.060325,42.353148],[-71.060198,42.353083],[-71.060156,42.353018],[-71.059856,42.352863],[-71.059751,42.352297],[-71.059626,42.351804],[-71.059386,42.351848],[-71.059478,42.352461],[-71.059556,42.352772],[-71.059559,42.352814],[-71.059531,42.352816],[-71.059577,42.353108],[-71.059632,42.353326],[-71.059657,42.353324],[-71.059686,42.353436],[-71.059576,42.353397],[-71.059226,42.352012],[-71.058965,42.352116],[-71.058906,42.352152],[-71.058834,42.352228],[-71.058775,42.35235],[-71.058819,42.352526],[-71.058209,42.352541],[-71.05827,42.352352],[-71.058216,42.352134],[-71.058255,42.35214],[-71.058392,42.351806],[-71.05845,42.352039],[-71.058646,42.352082],[-71.058757,42.351982],[-71.058926,42.351795],[-71.059044,42.351622],[-71.059126,42.351451],[-71.059109,42.351383],[-71.05925,42.351415],[-71.059305,42.351399],[-71.059611,42.350642],[-71.059505,42.350215],[-71.059471,42.35018],[-71.059047,42.350086],[-71.058996,42.350102],[-71.058871,42.350411],[-71.058776,42.350034],[-71.05855,42.349984],[-71.058454,42.349605],[-71.058471,42.349562],[-71.058424,42.349376],[-71.058229,42.349333],[-71.058071,42.348706],[-71.057613,42.348605],[-71.057529,42.348814],[-71.057772,42.349774],[-71.057995,42.349824],[-71.058005,42.349861],[-71.057874,42.34983],[-71.057688,42.349927],[-71.057626,42.350226],[-71.057505,42.349748],[-71.057133,42.349667],[-71.05695,42.350087],[-71.056922,42.350095],[-71.056797,42.350339],[-71.056863,42.350601],[-71.056678,42.350643],[-71.05656,42.350888],[-71.056577,42.350956],[-71.056543,42.350948],[-71.056401,42.351249],[-71.056433,42.351378],[-71.056294,42.351331],[-71.056079,42.351765],[-71.056151,42.35205],[-71.05594,42.352127],[-71.055911,42.352187],[-71.055768,42.35162],[-71.055498,42.351545],[-71.054479,42.351779],[-71.054307,42.351954],[-71.054454,42.352536],[-71.05498,42.352814],[-71.05514,42.352865],[-71.055308,42.35289],[-71.055485,42.35285],[-71.055605,42.35276],[-71.055696,42.352651],[-71.055849,42.352339],[-71.056064,42.35319],[-71.055998,42.353225],[-71.056338,42.354571],[-71.056363,42.354664],[-71.056445,42.354698],[-71.057133,42.357377],[-71.057916,42.357318],[-71.057896,42.357167],[-71.057635,42.356134],[-71.057728,42.356165],[-71.05783,42.35657],[-71.05819,42.356695],[-71.058401,42.356348],[-71.058318,42.356019],[-71.058391,42.355899],[-71.058376,42.355837],[-71.058491,42.355851],[-71.058554,42.355829],[-71.05864,42.355745],[-71.058553,42.355402],[-71.058571,42.355412],[-71.058619,42.355373],[-71.058657,42.355527],[-71.058838,42.355606],[-71.058875,42.355752],[-71.058939,42.355757],[-71.058962,42.355849],[-71.059037,42.355853],[-71.059283,42.356829],[-71.059357,42.356884],[-71.059649,42.357003],[-71.059895,42.356789],[-71.059958,42.356711],[-71.05966,42.355531],[-71.059753,42.355445],[-71.059747,42.355418],[-71.060417,42.355923],[-71.060594,42.355795],[-71.060664,42.355557],[-71.060798,42.355663],[-71.06113,42.355354],[-71.061189,42.355588],[-71.061502,42.355745],[-71.061638,42.355597],[-71.06184,42.355702],[-71.062028,42.355496],[-71.062152,42.355561],[-71.062168,42.355544],[-71.062284,42.355603],[-71.062451,42.355424],[-71.062429,42.355338],[-71.06246,42.355438],[-71.062572,42.355501],[-71.062603,42.355474],[-71.062648,42.355651],[-71.062738,42.355702],[-71.062899,42.355533],[-71.062876,42.355445],[-71.062898,42.355423],[-71.062942,42.355598],[-71.063029,42.355641],[-71.063156,42.356146],[-71.063191,42.356168],[-71.063454,42.356167],[-71.063465,42.356209],[-71.063553,42.356242],[-71.063566,42.356291],[-71.063807,42.356362],[-71.064095,42.355826],[-71.064048,42.35564],[-71.064077,42.355601],[-71.06395,42.355097],[-71.064005,42.355114],[-71.064045,42.355078],[-71.064109,42.354961],[-71.064119,42.354914],[-71.064104,42.354854],[-71.064154,42.354868],[-71.06426,42.354669],[-71.064109,42.354072],[-71.06436,42.354091],[-71.064427,42.354011],[-71.064458,42.353925],[-71.064421,42.353777],[-71.064555,42.353784],[-71.06459,42.353633],[-71.064554,42.35346],[-71.064655,42.353473],[-71.064859,42.353314],[-71.064884,42.353229],[-71.064765,42.35276],[-71.06478,42.352701],[-71.064881,42.3531],[-71.065278,42.35312],[-71.065285,42.353148],[-71.065703,42.35317],[-71.065741,42.352896],[-71.065821,42.352902],[-71.065885,42.353147],[-71.066082,42.353162],[-71.066125,42.3529],[-71.066192,42.352903],[-71.066209,42.352681],[-71.066163,42.3525],[-71.067036,42.352618],[-71.067219,42.352573]],[[-71.065295,42.350354],[-71.065227,42.350588],[-71.065243,42.350653],[-71.06521,42.350652],[-71.065154,42.350852],[-71.065094,42.350616],[-71.065179,42.350629],[-71.065254,42.350347],[-71.065295,42.350354]],[[-71.064503,42.349514],[-71.064416,42.349501],[-71.064395,42.349572],[-71.06405,42.349519],[-71.064135,42.349217],[-71.063969,42.348557],[-71.064047,42.348767],[-71.064195,42.34879],[-71.064127,42.348996],[-71.064168,42.349158],[-71.064423,42.349197],[-71.064503,42.349514]],[[-71.063741,42.350391],[-71.063648,42.350379],[-71.06367,42.350312],[-71.063741,42.350391]],[[-71.063608,42.348466],[-71.063549,42.348672],[-71.063493,42.348449],[-71.063608,42.348466]],[[-71.063558,42.34904],[-71.063514,42.349033],[-71.063536,42.34895],[-71.063558,42.34904]],[[-71.063499,42.351092],[-71.063345,42.351076],[-71.063405,42.350863],[-71.063441,42.350869],[-71.063499,42.351092]],[[-71.062813,42.351966],[-71.062787,42.352095],[-71.062751,42.351953],[-71.062813,42.351966]],[[-71.062472,42.348739],[-71.062425,42.348727],[-71.062409,42.348753],[-71.062289,42.349058],[-71.062234,42.34916],[-71.062268,42.349302],[-71.062233,42.349284],[-71.062169,42.349306],[-71.062155,42.349337],[-71.062163,42.349368],[-71.062062,42.349613],[-71.061975,42.34927],[-71.061926,42.349259],[-71.061991,42.349111],[-71.061927,42.348858],[-71.062008,42.34867],[-71.062322,42.34875],[-71.062343,42.348696],[-71.06246,42.348723],[-71.062472,42.348739]],[[-71.062245,42.351561],[-71.062189,42.351549],[-71.06216,42.351408],[-71.06221,42.35142],[-71.062245,42.351561]],[[-71.061762,42.352538],[-71.061681,42.352545],[-71.061674,42.352503],[-71.061751,42.3525],[-71.061762,42.352538]],[[-71.061676,42.348685],[-71.061595,42.348907],[-71.061608,42.348847],[-71.061676,42.348685]],[[-71.061587,42.348952],[-71.061581,42.348951],[-71.061585,42.348942],[-71.061587,42.348952]],[[-71.06155,42.353205],[-71.061528,42.35321],[-71.061513,42.353281],[-71.061336,42.35258],[-71.061197,42.352592],[-71.061181,42.35253],[-71.061182,42.352427],[-71.061245,42.352414],[-71.061222,42.352263],[-71.06112,42.351857],[-71.061188,42.351871],[-71.061214,42.351861],[-71.061306,42.351627],[-71.061465,42.352344],[-71.061454,42.352351],[-71.0615,42.35256],[-71.061487,42.352561],[-71.061521,42.353084],[-71.06155,42.353205]],[[-71.061548,42.353683],[-71.06154,42.353679],[-71.061537,42.35365],[-71.061548,42.353683]],[[-71.061536,42.34904],[-71.061508,42.349079],[-71.061483,42.349003],[-71.061533,42.349014],[-71.061536,42.34904]],[[-71.06148,42.351073],[-71.061352,42.351379],[-71.061393,42.351539],[-71.061339,42.351541],[-71.061228,42.351076],[-71.061255,42.351073],[-71.06126,42.351091],[-71.06138,42.351119],[-71.061414,42.35106],[-71.06148,42.351073]],[[-71.061422,42.349289],[-71.061419,42.349296],[-71.061417,42.34929],[-71.061422,42.349289]],[[-71.061374,42.349595],[-71.061348,42.349585],[-71.061362,42.349549],[-71.061374,42.349595]],[[-71.061238,42.350012],[-71.061231,42.35003],[-71.061223,42.349999],[-71.061179,42.349989],[-71.061212,42.34991],[-71.061238,42.350012]],[[-71.061171,42.35011],[-71.06109,42.35016],[-71.061039,42.350284],[-71.060992,42.350095],[-71.061122,42.350126],[-71.061146,42.35007],[-71.061155,42.350106],[-71.061171,42.35011]],[[-71.060794,42.352012],[-71.060742,42.351969],[-71.060727,42.35192],[-71.060764,42.351914],[-71.060794,42.352012]],[[-71.06071,42.352623],[-71.060639,42.352628],[-71.0605,42.352135],[-71.060488,42.352137],[-71.060397,42.351813],[-71.060295,42.35153],[-71.06033,42.351538],[-71.060343,42.351519],[-71.060398,42.351531],[-71.06071,42.352623]],[[-71.060665,42.351177],[-71.060659,42.351192],[-71.060655,42.351174],[-71.060665,42.351177]],[[-71.060648,42.351456],[-71.060609,42.351448],[-71.060632,42.351392],[-71.060648,42.351456]],[[-71.060242,42.351836],[-71.060215,42.35184],[-71.060226,42.351783],[-71.060242,42.351836]],[[-71.058582,42.351137],[-71.058508,42.351324],[-71.058453,42.351109],[-71.058582,42.351137]],[[-71.058019,42.352835],[-71.057947,42.353231],[-71.057986,42.353387],[-71.057962,42.353437],[-71.057796,42.352781],[-71.057688,42.352735],[-71.05756,42.352748],[-71.05737,42.352854],[-71.057398,42.352703],[-71.057214,42.351974],[-71.057268,42.351962],[-71.057394,42.351327],[-71.057418,42.351333],[-71.057378,42.351533],[-71.057399,42.351615],[-71.057355,42.351608],[-71.057276,42.352035],[-71.057431,42.35265],[-71.058019,42.352835]],[[-71.057584,42.350763],[-71.057558,42.350757],[-71.057527,42.350772],[-71.057512,42.35085],[-71.057523,42.350751],[-71.057584,42.350763]],[[-71.057225,42.353547],[-71.057163,42.353648],[-71.057135,42.353536],[-71.057198,42.353442],[-71.057225,42.353547]]],[[[-71.066626,42.349096],[-71.066483,42.348529],[-71.066102,42.348484],[-71.065995,42.348062],[-71.065837,42.348044],[-71.065752,42.348444],[-71.065936,42.349175],[-71.06597,42.349179],[-71.066001,42.349303],[-71.066097,42.349314],[-71.066102,42.349158],[-71.066598,42.349216],[-71.066626,42.349096]]],[[[-71.065611,42.354529],[-71.065554,42.354318],[-71.065508,42.354299],[-71.065458,42.354314],[-71.065443,42.354342],[-71.065496,42.354548],[-71.06556,42.354572],[-71.065596,42.354557],[-71.065611,42.354529]]],[[[-71.059345,42.349834],[-71.059318,42.349726],[-71.059179,42.349693],[-71.059105,42.349866],[-71.059132,42.349973],[-71.059271,42.350006],[-71.059345,42.349834]]],[[[-71.057171,42.359032],[-71.05707,42.358453],[-71.05667,42.356869],[-71.056728,42.356854],[-71.056593,42.356108],[-71.056369,42.355221],[-71.056411,42.355215],[-71.056295,42.354568],[-71.056064,42.353622],[-71.055897,42.353294],[-71.055573,42.353469],[-71.055581,42.353501],[-71.055421,42.353589],[-71.055376,42.353638],[-71.055342,42.353603],[-71.054915,42.353838],[-71.054946,42.35396],[-71.054889,42.353912],[-71.054834,42.353899],[-71.054776,42.353908],[-71.054391,42.354111],[-71.054359,42.354149],[-71.054358,42.354189],[-71.054986,42.356667],[-71.055254,42.356938],[-71.055308,42.356946],[-71.055358,42.35693],[-71.055603,42.356713],[-71.055826,42.356917],[-71.055929,42.35689],[-71.056026,42.356818],[-71.056052,42.356921],[-71.056167,42.356926],[-71.056719,42.359076],[-71.057171,42.359032]]],[[[-71.056884,42.349716],[-71.05686,42.349623],[-71.056871,42.349578],[-71.056775,42.349199],[-71.056596,42.349149],[-71.055836,42.349366],[-71.056774,42.347964],[-71.056673,42.347544],[-71.055908,42.347262],[-71.054533,42.349309],[-71.054519,42.349436],[-71.054447,42.34941],[-71.053477,42.350853],[-71.053632,42.351466],[-71.054213,42.351681],[-71.054496,42.351319],[-71.055051,42.350481],[-71.055121,42.350756],[-71.055224,42.350836],[-71.055267,42.351007],[-71.055325,42.351023],[-71.055365,42.350945],[-71.055535,42.351052],[-71.055648,42.351079],[-71.055841,42.351079],[-71.05585,42.351118],[-71.055936,42.351142],[-71.055969,42.351075],[-71.056197,42.351069],[-71.056326,42.351104],[-71.056379,42.351085],[-71.056397,42.351048],[-71.056413,42.350893],[-71.05653,42.35066],[-71.056731,42.350161],[-71.056795,42.349899],[-71.056884,42.349716]]]]},"properties":{"kind":"building"}},{"type":"Feature","geometry":{"type":"MultiPolygon","coordinates":[[[[-71.06615,42.353816],[-71.066058,42.353451],[-71.066094,42.353417],[-71.066103,42.353383],[-71.066087,42.353318],[-71.066122,42.353285],[-71.066131,42.353253],[-71.066039,42.352892],[-71.066083,42.352842],[-71.066016,42.352576],[-71.066,42.352558],[-71.065947,42.352542],[-71.065882,42.352572],[-71.065841,42.352538],[-71.065759,42.35255],[-71.065717,42.352522],[-71.065659,42.352522],[-71.065619,42.352552],[-71.065621,42.352604],[-71.065539,42.352598],[-71.06551,42.352612],[-71.065483,42.35266],[-71.065457,42.352558],[-71.065434,42.352533],[-71.065361,42.35251],[-71.065288,42.352533],[-71.065257,42.352587],[-71.065343,42.352925],[-71.065399,42.352966],[-71.065458,42.35297],[-71.065463,42.352996],[-71.065408,42.353037],[-71.0654,42.353066],[-71.065418,42.353138],[-71.065375,42.353174],[-71.065374,42.353233],[-71.06535,42.353218],[-71.065303,42.353032],[-71.065271,42.352957],[-71.06525,42.352941],[-71.0652,42.352768],[-71.06515,42.352742],[-71.065102,42.352553],[-71.065049,42.352515],[-71.064975,42.352515],[-71.064943,42.35253],[-71.064915,42.352581],[-71.064996,42.352903],[-71.065027,42.352931],[-71.065091,42.353183],[-71.065018,42.353161],[-71.064957,42.353177],[-71.064928,42.353066],[-71.064865,42.353015],[-71.06483,42.352952],[-71.064791,42.352933],[-71.064699,42.352933],[-71.064634,42.352981],[-71.064625,42.353015],[-71.064682,42.353245],[-71.064617,42.353248],[-71.064557,42.353292],[-71.064549,42.353323],[-71.064586,42.353471],[-71.064538,42.353508],[-71.06453,42.353536],[-71.064598,42.353805],[-71.064526,42.3538],[-71.064464,42.353606],[-71.064393,42.353596],[-71.064358,42.353622],[-71.06436,42.353666],[-71.064324,42.353692],[-71.064326,42.353738],[-71.064284,42.353761],[-71.064293,42.353829],[-71.064252,42.353881],[-71.064258,42.353906],[-71.064238,42.353945],[-71.064259,42.35403],[-71.06422,42.35406],[-71.064226,42.354131],[-71.064149,42.354121],[-71.064109,42.354151],[-71.064117,42.354225],[-71.064088,42.354236],[-71.064069,42.35427],[-71.064091,42.354355],[-71.064036,42.354339],[-71.063979,42.354357],[-71.063955,42.354399],[-71.063963,42.354433],[-71.063903,42.354482],[-71.063892,42.354523],[-71.063926,42.354657],[-71.063878,42.354645],[-71.063818,42.354663],[-71.0638,42.354683],[-71.063799,42.354727],[-71.063755,42.354758],[-71.063749,42.35478],[-71.063819,42.355054],[-71.063861,42.355085],[-71.06392,42.355085],[-71.063946,42.355072],[-71.063968,42.355032],[-71.064005,42.355017],[-71.06403,42.354973],[-71.06413,42.354996],[-71.064186,42.354988],[-71.064244,42.354953],[-71.064275,42.354954],[-71.064313,42.355056],[-71.06439,42.355067],[-71.064434,42.355019],[-71.064411,42.354924],[-71.064451,42.354938],[-71.064502,42.354913],[-71.064484,42.354809],[-71.064523,42.354851],[-71.064563,42.354851],[-71.064591,42.354831],[-71.064572,42.354725],[-71.064584,42.354723],[-71.064607,42.354777],[-71.06467,42.354786],[-71.064703,42.354821],[-71.064732,42.354902],[-71.064763,42.354892],[-71.06475,42.35484],[-71.06482,42.354838],[-71.064854,42.354821],[-71.064883,42.354935],[-71.064847,42.354915],[-71.064767,42.354915],[-71.064711,42.354957],[-71.064703,42.354986],[-71.064789,42.355324],[-71.064845,42.355365],[-71.064925,42.355365],[-71.064981,42.355324],[-71.064989,42.355295],[-71.064911,42.354989],[-71.06494,42.355026],[-71.064979,42.355038],[-71.065018,42.355026],[-71.06506,42.354967],[-71.065067,42.354941],[-71.065024,42.354773],[-71.065039,42.354826],[-71.065072,42.35485],[-71.065118,42.355025],[-71.065135,42.355043],[-71.065219,42.35508],[-71.065295,42.35507],[-71.065318,42.355115],[-71.065371,42.355131],[-71.06544,42.355097],[-71.065436,42.355038],[-71.065476,42.355039],[-71.065535,42.355229],[-71.065562,42.355259],[-71.065649,42.355285],[-71.065736,42.355259],[-71.065772,42.355194],[-71.065674,42.354808],[-71.065607,42.354759],[-71.06556,42.354752],[-71.065489,42.35477],[-71.065481,42.354739],[-71.065444,42.354711],[-71.065392,42.354711],[-71.065362,42.354731],[-71.065327,42.354655],[-71.065232,42.354615],[-71.065147,42.354627],[-71.065124,42.354668],[-71.065131,42.354694],[-71.065062,42.354441],[-71.065029,42.354416],[-71.064986,42.354415],[-71.064951,42.354279],[-71.064994,42.354242],[-71.06504,42.354405],[-71.065094,42.354431],[-71.065135,42.354419],[-71.065152,42.354388],[-71.065118,42.354254],[-71.065177,42.354259],[-71.065189,42.35429],[-71.06522,42.354313],[-71.065284,42.354304],[-71.065301,42.354273],[-71.065271,42.354153],[-71.065296,42.354151],[-71.065326,42.354227],[-71.065371,42.354241],[-71.065417,42.354227],[-71.065436,42.354193],[-71.065405,42.35407],[-71.065432,42.354066],[-71.065468,42.354107],[-71.065528,42.354098],[-71.065544,42.354069],[-71.065521,42.353979],[-71.065549,42.354076],[-71.065597,42.354099],[-71.065634,42.354088],[-71.065677,42.354203],[-71.06573,42.354211],[-71.065756,42.354192],[-71.065756,42.354162],[-71.065807,42.354141],[-71.06576,42.353925],[-71.065715,42.353903],[-71.06567,42.353925],[-71.065686,42.353873],[-71.065616,42.353596],[-71.065719,42.353493],[-71.065711,42.353403],[-71.065735,42.353406],[-71.065761,42.353456],[-71.065869,42.353858],[-71.065901,42.353893],[-71.066004,42.353924],[-71.06606,42.353916],[-71.066108,42.353893],[-71.066139,42.353858],[-71.06615,42.353816]],[[-71.065314,42.353922],[-71.065295,42.353925],[-71.065291,42.35391],[-71.065314,42.353922]],[[-71.065196,42.354022],[-71.065169,42.354024],[-71.065156,42.353973],[-71.065121,42.353947],[-71.06505,42.353957],[-71.065031,42.353991],[-71.065069,42.354142],[-71.065019,42.354139],[-71.064987,42.354162],[-71.064929,42.353937],[-71.064885,42.353905],[-71.064797,42.353918],[-71.064781,42.353887],[-71.064808,42.353837],[-71.064779,42.353722],[-71.064843,42.353677],[-71.064839,42.353597],[-71.064895,42.353598],[-71.06494,42.353736],[-71.064979,42.353764],[-71.065057,42.353753],[-71.065077,42.353716],[-71.065059,42.353641],[-71.065088,42.353646],[-71.065196,42.354022]],[[-71.065143,42.353248],[-71.065132,42.353259],[-71.06512,42.353212],[-71.065143,42.353248]],[[-71.064882,42.354417],[-71.064842,42.354432],[-71.064818,42.354474],[-71.064852,42.354608],[-71.06476,42.354289],[-71.064811,42.354288],[-71.064842,42.354268],[-71.064882,42.354417]],[[-71.064498,42.354433],[-71.064454,42.354458],[-71.06442,42.354257],[-71.064449,42.354238],[-71.064498,42.354433]]],[[[-71.066104,42.355202],[-71.066041,42.354953],[-71.066004,42.354925],[-71.06593,42.354936],[-71.06591,42.354972],[-71.065973,42.355222],[-71.066036,42.355253],[-71.066084,42.355238],[-71.066104,42.355202]]],[[[-71.066062,42.354227],[-71.066009,42.354041],[-71.065966,42.354034],[-71.065945,42.35405],[-71.06596,42.354133],[-71.065923,42.354056],[-71.06587,42.354048],[-71.065844,42.354067],[-71.065902,42.354294],[-71.065936,42.354305],[-71.065989,42.354292],[-71.066001,42.354283],[-71.065995,42.354248],[-71.066038,42.354254],[-71.066062,42.354227]]],[[[-71.065957,42.354833],[-71.065855,42.354431],[-71.065785,42.354379],[-71.065685,42.354379],[-71.065643,42.3544],[-71.065605,42.354468],[-71.065707,42.35487],[-71.065778,42.354922],[-71.065827,42.354929],[-71.065919,42.354901],[-71.065957,42.354833]]],[[[-71.065886,42.348261],[-71.065825,42.34802],[-71.06579,42.347994],[-71.065719,42.348004],[-71.0657,42.348038],[-71.065726,42.348141],[-71.065696,42.348151],[-71.06568,42.34818],[-71.065721,42.348398],[-71.065786,42.348423],[-71.065825,42.348411],[-71.065841,42.348382],[-71.065823,42.348309],[-71.065867,42.348295],[-71.065886,42.348261]]],[[[-71.065791,42.348655],[-71.065734,42.348429],[-71.065702,42.348406],[-71.065639,42.348415],[-71.065622,42.348446],[-71.065679,42.348672],[-71.065733,42.348698],[-71.065774,42.348686],[-71.065791,42.348655]]],[[[-71.065621,42.349045],[-71.065598,42.348957],[-71.065567,42.348947],[-71.065584,42.349045],[-71.065602,42.349059],[-71.065621,42.349045]]],[[[-71.065616,42.351333],[-71.065588,42.351223],[-71.065557,42.351213],[-71.065579,42.351333],[-71.065598,42.351346],[-71.065616,42.351333]]],[[[-71.065606,42.348532],[-71.065547,42.348299],[-71.065514,42.348274],[-71.065446,42.348284],[-71.065428,42.348316],[-71.065457,42.34843],[-71.065437,42.348446],[-71.065477,42.348589],[-71.065568,42.348574],[-71.065606,42.348532]]],[[[-71.0656,42.349398],[-71.065555,42.349222],[-71.065529,42.349203],[-71.065476,42.349211],[-71.065461,42.349236],[-71.065506,42.349412],[-71.065551,42.349434],[-71.065585,42.349424],[-71.0656,42.349398]]],[[[-71.065585,42.349182],[-71.065562,42.349094],[-71.065531,42.349084],[-71.065548,42.349182],[-71.065566,42.349196],[-71.065585,42.349182]]],[[[-71.065572,42.348205],[-71.065548,42.34811],[-71.065517,42.3481],[-71.065536,42.348205],[-71.065554,42.348219],[-71.065572,42.348205]]],[[[-71.065474,42.348952],[-71.065429,42.348776],[-71.065403,42.348757],[-71.06535,42.348765],[-71.065335,42.34879],[-71.065367,42.348915],[-71.065335,42.348921],[-71.065324,42.34894],[-71.065349,42.349037],[-71.065311,42.349037],[-71.065281,42.34907],[-71.065332,42.349272],[-71.065359,42.349291],[-71.065396,42.349291],[-71.065422,42.349272],[-71.065392,42.349125],[-71.065425,42.349118],[-71.065436,42.349099],[-71.065407,42.348986],[-71.065459,42.348978],[-71.065474,42.348952]]],[[[-71.065394,42.351313],[-71.065368,42.35121],[-71.065337,42.3512],[-71.065358,42.351313],[-71.065376,42.351326],[-71.065394,42.351313]]],[[[-71.065292,42.351305],[-71.065268,42.35121],[-71.065237,42.3512],[-71.065256,42.351305],[-71.065274,42.351319],[-71.065292,42.351305]]],[[[-71.065211,42.350858],[-71.065176,42.35072],[-71.06514,42.350702],[-71.065126,42.350713],[-71.065136,42.350767],[-71.065101,42.350777],[-71.065113,42.350839],[-71.065092,42.350847],[-71.065128,42.350987],[-71.065155,42.350987],[-71.065151,42.35094],[-71.065184,42.350929],[-71.065174,42.350875],[-71.065211,42.350858]]],[[[-71.06497,42.351413],[-71.064944,42.35131],[-71.064913,42.3513],[-71.064934,42.351413],[-71.064952,42.351426],[-71.06497,42.351413]]],[[[-71.064881,42.348551],[-71.064857,42.348456],[-71.064826,42.348446],[-71.064845,42.348551],[-71.064863,42.348565],[-71.064881,42.348551]]],[[[-71.064648,42.351921],[-71.064624,42.351826],[-71.064593,42.351816],[-71.064612,42.351921],[-71.06463,42.351935],[-71.064648,42.351921]]],[[[-71.064645,42.34852],[-71.064621,42.348425],[-71.06459,42.348415],[-71.064609,42.34852],[-71.064627,42.348534],[-71.064645,42.34852]]],[[[-71.064596,42.352228],[-71.064568,42.352055],[-71.06455,42.352042],[-71.064532,42.352055],[-71.064537,42.352147],[-71.064513,42.352155],[-71.064541,42.352265],[-71.064567,42.352265],[-71.064569,42.352241],[-71.064596,42.352228]]],[[[-71.06446,42.348494],[-71.064436,42.348399],[-71.064405,42.348389],[-71.064424,42.348494],[-71.064442,42.348508],[-71.06446,42.348494]]],[[[-71.064262,42.35102],[-71.064238,42.350925],[-71.064207,42.350915],[-71.064226,42.35102],[-71.064244,42.351034],[-71.064262,42.35102]]],[[[-71.064242,42.348851],[-71.064209,42.34872],[-71.06417,42.348708],[-71.064196,42.348851],[-71.064219,42.348868],[-71.064242,42.348851]]],[[[-71.064198,42.348957],[-71.064168,42.34884],[-71.064137,42.34883],[-71.064161,42.348957],[-71.064179,42.34897],[-71.064198,42.348957]]],[[[-71.064172,42.351009],[-71.064148,42.350914],[-71.064117,42.350904],[-71.064136,42.351009],[-71.064154,42.351023],[-71.064172,42.351009]]],[[[-71.064121,42.351066],[-71.064082,42.350914],[-71.064062,42.350892],[-71.064027,42.350897],[-71.064056,42.351066],[-71.064088,42.35109],[-71.064121,42.351066]]],[[[-71.064118,42.353417],[-71.064088,42.3533],[-71.064057,42.35329],[-71.064081,42.353417],[-71.064099,42.35343],[-71.064118,42.353417]]],[[[-71.064081,42.353514],[-71.064013,42.353283],[-71.063982,42.353273],[-71.064042,42.353514],[-71.064061,42.353528],[-71.064081,42.353514]]],[[[-71.064028,42.353877],[-71.063998,42.35376],[-71.063967,42.35375],[-71.063991,42.353877],[-71.064009,42.35389],[-71.064028,42.353877]]],[[[-71.064016,42.35351],[-71.063943,42.353268],[-71.063904,42.353256],[-71.063921,42.353364],[-71.063892,42.353374],[-71.063921,42.353491],[-71.063939,42.353504],[-71.063958,42.353491],[-71.063938,42.353411],[-71.063953,42.353416],[-71.063983,42.35352],[-71.064016,42.35351]]],[[[-71.064015,42.351069],[-71.06397,42.350892],[-71.063949,42.350876],[-71.063906,42.350883],[-71.063895,42.350903],[-71.06394,42.35108],[-71.063976,42.351098],[-71.064015,42.351069]]],[[[-71.063961,42.354119],[-71.063922,42.353967],[-71.063902,42.353945],[-71.063867,42.35395],[-71.063896,42.354119],[-71.063928,42.354143],[-71.063961,42.354119]]],[[[-71.063947,42.348799],[-71.063915,42.348675],[-71.063882,42.348665],[-71.063908,42.348799],[-71.063927,42.348813],[-71.063947,42.348799]]],[[[-71.063926,42.348874],[-71.063893,42.348743],[-71.063854,42.348731],[-71.063857,42.34878],[-71.063837,42.348793],[-71.063853,42.348857],[-71.063842,42.348864],[-71.063878,42.349004],[-71.063911,42.348994],[-71.063887,42.3489],[-71.063926,42.348874]]],[[[-71.063851,42.354258],[-71.063816,42.35412],[-71.06378,42.354102],[-71.063766,42.354113],[-71.063799,42.354258],[-71.063825,42.354277],[-71.063851,42.354258]]],[[[-71.063845,42.349243],[-71.063821,42.349148],[-71.06379,42.349138],[-71.063809,42.349243],[-71.063827,42.349257],[-71.063845,42.349243]]],[[[-71.063832,42.348522],[-71.063808,42.348427],[-71.063777,42.348417],[-71.063796,42.348522],[-71.063814,42.348536],[-71.063832,42.348522]]],[[[-71.063792,42.349388],[-71.063768,42.349293],[-71.063737,42.349283],[-71.063739,42.349322],[-71.063719,42.349335],[-71.063748,42.34944],[-71.063774,42.34944],[-71.063772,42.349402],[-71.063792,42.349388]]],[[[-71.063746,42.351035],[-71.063707,42.350883],[-71.063687,42.350861],[-71.063652,42.350866],[-71.063681,42.351035],[-71.063713,42.351059],[-71.063746,42.351035]]],[[[-71.063742,42.348505],[-71.063718,42.34841],[-71.063687,42.3484],[-71.063706,42.348505],[-71.063724,42.348519],[-71.063742,42.348505]]],[[[-71.063721,42.349884],[-71.063689,42.34976],[-71.063656,42.34975],[-71.063682,42.349884],[-71.063701,42.349898],[-71.063721,42.349884]]],[[[-71.063662,42.349971],[-71.063632,42.349854],[-71.063601,42.349844],[-71.063625,42.349971],[-71.063643,42.349984],[-71.063662,42.349971]]],[[[-71.063646,42.351007],[-71.063613,42.350876],[-71.063574,42.350864],[-71.0636,42.351007],[-71.063623,42.351024],[-71.063646,42.351007]]],[[[-71.063611,42.350074],[-71.063579,42.34995],[-71.063546,42.34994],[-71.063572,42.350074],[-71.063591,42.350088],[-71.063611,42.350074]]],[[[-71.06361,42.354862],[-71.063565,42.354686],[-71.063539,42.354667],[-71.063486,42.354675],[-71.063471,42.3547],[-71.06349,42.354772],[-71.063441,42.354767],[-71.063411,42.3548],[-71.063456,42.354976],[-71.063501,42.354998],[-71.063535,42.354988],[-71.06355,42.354962],[-71.063531,42.35489],[-71.06358,42.354896],[-71.06361,42.354862]]],[[[-71.063581,42.351002],[-71.063546,42.350864],[-71.06351,42.350846],[-71.063496,42.350857],[-71.063529,42.351002],[-71.063555,42.351021],[-71.063581,42.351002]]],[[[-71.063578,42.350117],[-71.063548,42.35],[-71.063517,42.34999],[-71.063541,42.350117],[-71.063559,42.35013],[-71.063578,42.350117]]],[[[-71.063488,42.350535],[-71.063458,42.350418],[-71.063427,42.350408],[-71.063451,42.350535],[-71.063469,42.350548],[-71.063488,42.350535]]],[[[-71.063486,42.35029],[-71.063458,42.35018],[-71.063427,42.35017],[-71.063449,42.35029],[-71.063468,42.350303],[-71.063486,42.35029]]],[[[-71.063462,42.350597],[-71.063434,42.350487],[-71.063403,42.350477],[-71.063425,42.350597],[-71.063444,42.35061],[-71.063462,42.350597]]],[[[-71.063456,42.350356],[-71.063428,42.350246],[-71.063397,42.350236],[-71.063398,42.35027],[-71.063367,42.35028],[-71.0634,42.350399],[-71.063426,42.350399],[-71.063425,42.350365],[-71.063456,42.350356]]],[[[-71.063429,42.350653],[-71.063403,42.35055],[-71.063372,42.35054],[-71.063393,42.350653],[-71.063411,42.350666],[-71.063429,42.350653]]],[[[-71.063421,42.350964],[-71.063375,42.350726],[-71.063394,42.350713],[-71.063368,42.35061],[-71.06335,42.350597],[-71.063332,42.35061],[-71.063352,42.35069],[-71.063331,42.350704],[-71.063334,42.350826],[-71.063377,42.350978],[-71.063405,42.350982],[-71.063421,42.350964]]],[[[-71.063354,42.350543],[-71.063328,42.35044],[-71.063297,42.35043],[-71.063318,42.350543],[-71.063336,42.350556],[-71.063354,42.350543]]],[[[-71.063326,42.350593],[-71.063298,42.350483],[-71.063267,42.350473],[-71.063289,42.350593],[-71.063308,42.350606],[-71.063326,42.350593]]],[[[-71.063301,42.350646],[-71.063273,42.350536],[-71.063242,42.350526],[-71.063264,42.350646],[-71.063283,42.350659],[-71.063301,42.350646]]],[[[-71.063278,42.350699],[-71.063248,42.350582],[-71.063217,42.350572],[-71.063221,42.35062],[-71.063192,42.35063],[-71.063227,42.350756],[-71.063252,42.350756],[-71.063248,42.350709],[-71.063278,42.350699]]],[[[-71.063221,42.350765],[-71.063198,42.350677],[-71.063167,42.350667],[-71.063172,42.350717],[-71.063142,42.350727],[-71.063175,42.350846],[-71.063201,42.350846],[-71.06319,42.350775],[-71.063221,42.350765]]],[[[-71.063181,42.350889],[-71.063149,42.350765],[-71.063116,42.350755],[-71.063142,42.350889],[-71.063161,42.350903],[-71.063181,42.350889]]],[[[-71.06317,42.352341],[-71.063144,42.352238],[-71.063113,42.352228],[-71.063134,42.352341],[-71.063152,42.352354],[-71.06317,42.352341]]],[[[-71.063109,42.352353],[-71.063083,42.35225],[-71.063052,42.35224],[-71.063073,42.352353],[-71.063091,42.352366],[-71.063109,42.352353]]],[[[-71.063009,42.352356],[-71.062983,42.352253],[-71.062952,42.352243],[-71.062973,42.352356],[-71.062991,42.352369],[-71.063009,42.352356]]],[[[-71.06295,42.35233],[-71.062922,42.35222],[-71.062891,42.35221],[-71.062913,42.35233],[-71.062932,42.352343],[-71.06295,42.35233]]],[[[-71.062874,42.352318],[-71.062848,42.352215],[-71.062817,42.352205],[-71.062838,42.352318],[-71.062856,42.352331],[-71.062874,42.352318]]],[[[-71.062861,42.353426],[-71.062842,42.353352],[-71.062861,42.353338],[-71.062829,42.353214],[-71.06281,42.3532],[-71.062791,42.353214],[-71.062809,42.353288],[-71.062791,42.353302],[-71.062828,42.353436],[-71.062861,42.353426]]],[[[-71.062796,42.353437],[-71.062773,42.353345],[-71.062793,42.353336],[-71.062763,42.353207],[-71.062744,42.353193],[-71.062725,42.353207],[-71.062745,42.35329],[-71.062719,42.3533],[-71.06275,42.353437],[-71.062773,42.353454],[-71.062796,42.353437]]],[[[-71.062596,42.348499],[-71.062559,42.348354],[-71.062541,42.348334],[-71.062509,42.348339],[-71.062501,42.348354],[-71.062537,42.348499],[-71.062567,42.348521],[-71.062596,42.348499]]],[[[-71.06254,42.349547],[-71.062493,42.349361],[-71.06247,42.349344],[-71.062424,42.349351],[-71.062412,42.349373],[-71.062459,42.349559],[-71.062498,42.349578],[-71.062528,42.349569],[-71.06254,42.349547]]],[[[-71.062496,42.348688],[-71.062406,42.348362],[-71.062355,42.348346],[-71.062331,42.348373],[-71.062376,42.34855],[-71.062412,42.348568],[-71.062457,42.3487],[-71.062496,42.348688]]],[[[-71.062436,42.349497],[-71.062389,42.349311],[-71.062366,42.349294],[-71.06232,42.349301],[-71.062308,42.349323],[-71.062355,42.349509],[-71.062394,42.349528],[-71.062424,42.349519],[-71.062436,42.349497]]],[[[-71.062071,42.353876],[-71.062039,42.353752],[-71.062006,42.353742],[-71.062032,42.353876],[-71.062051,42.35389],[-71.062071,42.353876]]],[[[-71.06203,42.349401],[-71.062006,42.349306],[-71.061975,42.349296],[-71.061994,42.349401],[-71.062012,42.349415],[-71.06203,42.349401]]],[[[-71.062012,42.353955],[-71.061988,42.35386],[-71.061957,42.35385],[-71.061976,42.353955],[-71.061994,42.353969],[-71.062012,42.353955]]],[[[-71.061982,42.34971],[-71.061937,42.349534],[-71.061911,42.349515],[-71.061858,42.349523],[-71.061843,42.349548],[-71.061888,42.349724],[-71.061933,42.349746],[-71.061967,42.349736],[-71.061982,42.34971]]],[[[-71.061975,42.349533],[-71.061951,42.349438],[-71.06192,42.349428],[-71.061939,42.349533],[-71.061957,42.349547],[-71.061975,42.349533]]],[[[-71.061956,42.353824],[-71.061924,42.3537],[-71.061891,42.35369],[-71.061917,42.353824],[-71.061936,42.353838],[-71.061956,42.353824]]],[[[-71.061952,42.349975],[-71.061928,42.34988],[-71.061897,42.34987],[-71.061916,42.349975],[-71.061934,42.349989],[-71.061952,42.349975]]],[[[-71.061941,42.353949],[-71.061909,42.353825],[-71.061876,42.353815],[-71.061902,42.353949],[-71.061921,42.353963],[-71.061941,42.353949]]],[[[-71.061922,42.350021],[-71.061898,42.349926],[-71.061867,42.349916],[-71.061877,42.349987],[-71.061857,42.349995],[-71.061865,42.350037],[-71.061832,42.350044],[-71.061861,42.350149],[-71.061892,42.350139],[-71.061883,42.350103],[-71.061916,42.350095],[-71.061901,42.350034],[-71.061922,42.350021]]],[[[-71.061897,42.348493],[-71.061848,42.348299],[-71.061823,42.348281],[-71.061774,42.348288],[-71.061761,42.348312],[-71.06181,42.348506],[-71.061852,42.348526],[-71.061884,42.348516],[-71.061897,42.348493]]],[[[-71.061862,42.350175],[-71.061838,42.35008],[-71.061807,42.35007],[-71.061818,42.350145],[-71.061788,42.350155],[-71.061815,42.350253],[-71.061841,42.350253],[-71.061832,42.350185],[-71.061862,42.350175]]],[[[-71.061857,42.353777],[-71.06182,42.353643],[-71.061787,42.353653],[-71.061816,42.35377],[-71.061803,42.353771],[-71.061755,42.353593],[-71.061729,42.353574],[-71.061676,42.353582],[-71.061661,42.353607],[-71.061706,42.353783],[-71.06174,42.353843],[-71.061766,42.353843],[-71.061764,42.353804],[-71.061793,42.353787],[-71.061816,42.353878],[-71.061847,42.353888],[-71.06183,42.35379],[-71.061857,42.353777]]],[[[-71.061831,42.350458],[-71.061792,42.350306],[-71.061822,42.350295],[-71.061798,42.3502],[-71.06178,42.350187],[-71.061762,42.3502],[-71.061781,42.350275],[-71.06175,42.350263],[-71.061722,42.350272],[-71.061716,42.350313],[-71.061688,42.350322],[-71.061675,42.350346],[-71.061724,42.35054],[-71.061766,42.35056],[-71.061798,42.35055],[-71.061811,42.350527],[-71.061801,42.350486],[-71.061831,42.350458]]],[[[-71.061807,42.349828],[-71.061762,42.349652],[-71.061736,42.349633],[-71.061683,42.349641],[-71.061668,42.349666],[-71.061713,42.349842],[-71.061758,42.349864],[-71.061792,42.349854],[-71.061807,42.349828]]],[[[-71.061794,42.348516],[-71.06177,42.348421],[-71.061739,42.348411],[-71.061758,42.348516],[-71.061776,42.34853],[-71.061794,42.348516]]],[[[-71.061736,42.348822],[-71.061689,42.348636],[-71.061666,42.348619],[-71.06162,42.348626],[-71.061608,42.348648],[-71.061655,42.348834],[-71.061694,42.348853],[-71.061724,42.348844],[-71.061736,42.348822]]],[[[-71.061696,42.348499],[-71.061641,42.348281],[-71.061617,42.348262],[-71.061592,42.348174],[-71.061566,42.348174],[-71.061579,42.348258],[-71.061551,42.348268],[-71.061535,42.348297],[-71.061601,42.348605],[-71.061632,42.348595],[-71.061617,42.348535],[-71.061662,42.348537],[-71.061696,42.348499]]],[[[-71.061656,42.35366],[-71.061628,42.35355],[-71.061597,42.35354],[-71.061619,42.35366],[-71.061638,42.353673],[-71.061656,42.35366]]],[[[-71.061634,42.348932],[-71.061562,42.348657],[-71.061537,42.348639],[-71.061503,42.348639],[-71.061475,42.34867],[-71.061524,42.348864],[-71.061548,42.348882],[-71.061583,42.348882],[-71.061603,42.348942],[-71.061634,42.348932]]],[[[-71.061589,42.34973],[-71.061544,42.349554],[-71.061499,42.349532],[-71.061455,42.349554],[-71.061435,42.349509],[-71.061386,42.3495],[-71.061363,42.34942],[-71.061337,42.34942],[-71.061397,42.34971],[-71.061442,42.349732],[-71.061486,42.349711],[-71.061506,42.349756],[-71.06154,42.349766],[-71.061574,42.349756],[-71.061589,42.34973]]],[[[-71.061546,42.349028],[-71.061499,42.348842],[-71.061476,42.348825],[-71.06143,42.348832],[-71.061418,42.348854],[-71.061465,42.34904],[-71.061504,42.349059],[-71.061534,42.34905],[-71.061546,42.349028]]],[[[-71.061526,42.348366],[-71.061467,42.348133],[-71.061434,42.348108],[-71.061366,42.348118],[-71.061348,42.34815],[-71.061408,42.348384],[-71.061435,42.348417],[-71.061471,42.348422],[-71.061526,42.348366]]],[[[-71.061526,42.351081],[-71.061493,42.35095],[-71.061454,42.350938],[-71.06148,42.351081],[-71.061503,42.351098],[-71.061526,42.351081]]],[[[-71.061466,42.349365],[-71.061438,42.349255],[-71.061407,42.349245],[-71.061429,42.349365],[-71.061448,42.349378],[-71.061466,42.349365]]],[[[-71.061442,42.351217],[-71.061418,42.351122],[-71.061387,42.351112],[-71.061395,42.351174],[-71.061362,42.351175],[-71.06139,42.351285],[-71.061421,42.351275],[-71.061408,42.351224],[-71.061431,42.35123],[-71.061442,42.351217]]],[[[-71.061431,42.349176],[-71.061399,42.349052],[-71.061366,42.349042],[-71.061392,42.349176],[-71.061411,42.34919],[-71.061431,42.349176]]],[[[-71.061395,42.351335],[-71.061371,42.35124],[-71.06134,42.35123],[-71.061344,42.351278],[-71.061316,42.351289],[-71.061345,42.351394],[-71.061371,42.351394],[-71.061367,42.351346],[-71.061395,42.351335]]],[[[-71.061386,42.349373],[-71.061349,42.349228],[-71.061331,42.349208],[-71.061299,42.349213],[-71.061291,42.349228],[-71.061327,42.349373],[-71.061357,42.349395],[-71.061386,42.349373]]],[[[-71.061308,42.349733],[-71.061282,42.34963],[-71.061251,42.34962],[-71.061255,42.349668],[-71.061225,42.349678],[-71.061256,42.34979],[-71.061282,42.34979],[-71.061278,42.349742],[-71.061308,42.349733]]],[[[-71.061268,42.353465],[-71.061244,42.35337],[-71.061213,42.35336],[-71.061232,42.353465],[-71.06125,42.353479],[-71.061268,42.353465]]],[[[-71.061266,42.350004],[-71.061219,42.349818],[-71.061196,42.349801],[-71.06115,42.349808],[-71.061138,42.34983],[-71.061185,42.350016],[-71.061224,42.350035],[-71.061254,42.350026],[-71.061266,42.350004]]],[[[-71.061262,42.354869],[-71.061238,42.354774],[-71.061207,42.354764],[-71.061226,42.354869],[-71.061244,42.354883],[-71.061262,42.354869]]],[[[-71.061212,42.355011],[-71.061188,42.354916],[-71.061157,42.354906],[-71.061176,42.355011],[-71.061194,42.355025],[-71.061212,42.355011]]],[[[-71.061212,42.353439],[-71.061188,42.353344],[-71.061157,42.353334],[-71.061176,42.353439],[-71.061194,42.353453],[-71.061212,42.353439]]],[[[-71.061205,42.350225],[-71.061152,42.350015],[-71.061124,42.349995],[-71.061067,42.350003],[-71.061052,42.35003],[-71.061105,42.35024],[-71.061153,42.350263],[-71.06119,42.350252],[-71.061205,42.350225]]],[[[-71.061162,42.353415],[-71.061138,42.35332],[-71.061107,42.35331],[-71.061126,42.353415],[-71.061144,42.353429],[-71.061162,42.353415]]],[[[-71.061081,42.348797],[-71.061032,42.348602],[-71.061062,42.348585],[-71.061038,42.34849],[-71.06102,42.348477],[-71.061002,42.34849],[-71.061026,42.348585],[-71.06098,42.348564],[-71.060932,42.348587],[-71.060947,42.348677],[-71.060911,42.348688],[-71.060895,42.348717],[-71.060915,42.348798],[-71.06087,42.348805],[-71.060858,42.348827],[-71.060914,42.349023],[-71.060974,42.349023],[-71.060986,42.349001],[-71.060974,42.348954],[-71.061022,42.348957],[-71.061052,42.348935],[-71.061035,42.348834],[-71.061066,42.348824],[-71.061081,42.348797]]],[[[-71.061076,42.353385],[-71.061048,42.353275],[-71.061017,42.353265],[-71.061039,42.353385],[-71.061058,42.353398],[-71.061076,42.353385]]],[[[-71.061012,42.353458],[-71.060988,42.353363],[-71.060957,42.353353],[-71.060976,42.353458],[-71.060994,42.353472],[-71.061012,42.353458]]],[[[-71.060962,42.353315],[-71.060938,42.35322],[-71.060907,42.35321],[-71.060926,42.353315],[-71.060944,42.353329],[-71.060962,42.353315]]],[[[-71.060949,42.353433],[-71.060923,42.35333],[-71.060892,42.35332],[-71.060913,42.353433],[-71.060931,42.353446],[-71.060949,42.353433]]],[[[-71.060907,42.349412],[-71.060842,42.349154],[-71.060803,42.349125],[-71.060725,42.349137],[-71.060705,42.349174],[-71.06077,42.349432],[-71.060836,42.349464],[-71.060887,42.349449],[-71.060907,42.349412]]],[[[-71.060886,42.353397],[-71.060862,42.353302],[-71.060831,42.353292],[-71.06085,42.353397],[-71.060868,42.353411],[-71.060886,42.353397]]],[[[-71.060774,42.349552],[-71.060729,42.349376],[-71.060703,42.349357],[-71.06065,42.349365],[-71.060635,42.34939],[-71.060656,42.349471],[-71.060612,42.349481],[-71.060597,42.349506],[-71.060659,42.349719],[-71.060693,42.34973],[-71.060738,42.349708],[-71.060715,42.349587],[-71.060759,42.349578],[-71.060774,42.349552]]],[[[-71.060656,42.349858],[-71.060605,42.349656],[-71.060579,42.349637],[-71.060527,42.349644],[-71.060504,42.349556],[-71.060473,42.349546],[-71.060475,42.349627],[-71.060453,42.349635],[-71.060481,42.349745],[-71.060507,42.349745],[-71.060505,42.349708],[-71.060517,42.349708],[-71.060533,42.349754],[-71.060493,42.349765],[-71.060478,42.349792],[-71.060543,42.350014],[-71.060579,42.350025],[-71.060627,42.350002],[-71.060608,42.349894],[-71.060642,42.349883],[-71.060656,42.349858]]],[[[-71.060652,42.349355],[-71.060628,42.34926],[-71.060597,42.34925],[-71.060599,42.349289],[-71.060573,42.349295],[-71.06058,42.349331],[-71.060553,42.349337],[-71.060581,42.349447],[-71.060607,42.349447],[-71.060605,42.349407],[-71.060631,42.349401],[-71.060625,42.349367],[-71.060652,42.349355]]],[[[-71.060622,42.353135],[-71.060598,42.35304],[-71.060567,42.35303],[-71.060586,42.353135],[-71.060604,42.353149],[-71.060622,42.353135]]],[[[-71.060582,42.349502],[-71.060558,42.349407],[-71.060527,42.349397],[-71.06053,42.34944],[-71.060512,42.349453],[-71.060521,42.34949],[-71.060502,42.349503],[-71.060533,42.349615],[-71.060564,42.349606],[-71.060555,42.349569],[-71.060574,42.349556],[-71.060564,42.349516],[-71.060582,42.349502]]],[[[-71.060542,42.353092],[-71.060518,42.352997],[-71.060487,42.352987],[-71.060506,42.353092],[-71.060524,42.353106],[-71.060542,42.353092]]],[[[-71.060534,42.353386],[-71.060508,42.353283],[-71.060477,42.353273],[-71.060498,42.353386],[-71.060516,42.353399],[-71.060534,42.353386]]],[[[-71.060528,42.353245],[-71.060504,42.35315],[-71.060473,42.35314],[-71.060492,42.353245],[-71.06051,42.353259],[-71.060528,42.353245]]],[[[-71.060494,42.353077],[-71.060468,42.352974],[-71.060437,42.352964],[-71.060458,42.353077],[-71.060476,42.35309],[-71.060494,42.353077]]],[[[-71.060461,42.353571],[-71.060413,42.35337],[-71.060352,42.353385],[-71.060349,42.353435],[-71.060323,42.353442],[-71.060351,42.353552],[-71.060377,42.353552],[-71.060407,42.353598],[-71.060437,42.353598],[-71.060461,42.353571]]],[[[-71.060452,42.353195],[-71.060428,42.3531],[-71.060397,42.35309],[-71.060416,42.353195],[-71.060434,42.353209],[-71.060452,42.353195]]],[[[-71.060414,42.349987],[-71.060388,42.349884],[-71.060357,42.349874],[-71.060378,42.349987],[-71.060396,42.35],[-71.060414,42.349987]]],[[[-71.060398,42.353165],[-71.060374,42.35307],[-71.060343,42.35306],[-71.060362,42.353165],[-71.06038,42.353179],[-71.060398,42.353165]]],[[[-71.060355,42.350312],[-71.060314,42.35015],[-71.060342,42.350132],[-71.060318,42.350037],[-71.0603,42.350024],[-71.060282,42.350037],[-71.060306,42.350131],[-71.06028,42.350092],[-71.060216,42.35015],[-71.060261,42.350326],[-71.060306,42.350348],[-71.06034,42.350338],[-71.060355,42.350312]]],[[[-71.060216,42.349636],[-71.060171,42.349459],[-71.06015,42.349443],[-71.060107,42.34945],[-71.060096,42.34947],[-71.060115,42.349546],[-71.060079,42.349536],[-71.060061,42.349556],[-71.06008,42.34963],[-71.060036,42.34962],[-71.060014,42.349644],[-71.060065,42.349822],[-71.06009,42.34983],[-71.060123,42.349813],[-71.060103,42.349713],[-71.060147,42.349716],[-71.060143,42.349649],[-71.060192,42.349663],[-71.060216,42.349636]]],[[[-71.060182,42.353057],[-71.060158,42.352962],[-71.060127,42.352952],[-71.060146,42.353057],[-71.060164,42.353071],[-71.060182,42.353057]]],[[[-71.060151,42.353591],[-71.060102,42.353397],[-71.060077,42.353379],[-71.060028,42.353386],[-71.060015,42.35341],[-71.060064,42.353604],[-71.060106,42.353624],[-71.060138,42.353614],[-71.060151,42.353591]]],[[[-71.060016,42.351218],[-71.059969,42.351032],[-71.059946,42.351015],[-71.0599,42.351022],[-71.059888,42.351044],[-71.059935,42.35123],[-71.059974,42.351249],[-71.060004,42.35124],[-71.060016,42.351218]]],[[[-71.059936,42.351273],[-71.059901,42.351135],[-71.059865,42.351117],[-71.059851,42.351128],[-71.059884,42.351273],[-71.05991,42.351292],[-71.059936,42.351273]]],[[[-71.059882,42.353395],[-71.059858,42.3533],[-71.05983,42.353289],[-71.059819,42.353248],[-71.059796,42.353231],[-71.05975,42.353238],[-71.059738,42.35326],[-71.059785,42.353446],[-71.059824,42.353465],[-71.059854,42.353456],[-71.05986,42.353408],[-71.059882,42.353395]]],[[[-71.059784,42.352856],[-71.059758,42.352753],[-71.059727,42.352743],[-71.059748,42.352856],[-71.059766,42.352869],[-71.059784,42.352856]]],[[[-71.059714,42.35284],[-71.059688,42.352737],[-71.059657,42.352727],[-71.059678,42.35284],[-71.059696,42.352853],[-71.059714,42.35284]]],[[[-71.059706,42.355099],[-71.059661,42.354939],[-71.059629,42.354934],[-71.059613,42.354903],[-71.059562,42.354868],[-71.059527,42.354873],[-71.059565,42.355059],[-71.059666,42.355119],[-71.059706,42.355099]]],[[[-71.05969,42.351872],[-71.059645,42.351696],[-71.059619,42.351677],[-71.059582,42.351677],[-71.059553,42.351583],[-71.059507,42.351583],[-71.059522,42.351696],[-71.059506,42.35171],[-71.059543,42.351844],[-71.059576,42.351834],[-71.059561,42.351775],[-71.059607,42.351898],[-71.05966,42.351906],[-71.05969,42.351872]]],[[[-71.05966,42.352833],[-71.059634,42.35273],[-71.059603,42.35272],[-71.059624,42.352833],[-71.059642,42.352846],[-71.05966,42.352833]]],[[[-71.05963,42.352945],[-71.059585,42.352769],[-71.059559,42.35275],[-71.059506,42.352758],[-71.059491,42.352783],[-71.059536,42.352959],[-71.059581,42.352981],[-71.059615,42.352971],[-71.05963,42.352945]]],[[[-71.059542,42.351192],[-71.059518,42.351097],[-71.059487,42.351087],[-71.059506,42.351192],[-71.059524,42.351206],[-71.059542,42.351192]]],[[[-71.059521,42.354965],[-71.059473,42.354796],[-71.059438,42.354791],[-71.059389,42.354714],[-71.059339,42.354714],[-71.059328,42.354733],[-71.059371,42.354902],[-71.059404,42.354919],[-71.059415,42.354943],[-71.059451,42.354948],[-71.059476,42.354987],[-71.059501,42.354987],[-71.059521,42.354965]]],[[[-71.059502,42.351265],[-71.059478,42.35117],[-71.059447,42.35116],[-71.059466,42.351265],[-71.059484,42.351279],[-71.059502,42.351265]]],[[[-71.059491,42.351765],[-71.059456,42.351627],[-71.05942,42.351609],[-71.059406,42.35162],[-71.059439,42.351765],[-71.059465,42.351784],[-71.059491,42.351765]]],[[[-71.059452,42.353195],[-71.059418,42.35301],[-71.0594,42.352997],[-71.059382,42.35301],[-71.059416,42.353195],[-71.059434,42.353209],[-71.059452,42.353195]]],[[[-71.05942,42.351835],[-71.059387,42.351704],[-71.059348,42.351692],[-71.059374,42.351835],[-71.059397,42.351852],[-71.05942,42.351835]]],[[[-71.059356,42.351911],[-71.059323,42.35178],[-71.059284,42.351768],[-71.05931,42.351911],[-71.059333,42.351928],[-71.059356,42.351911]]],[[[-71.059266,42.351478],[-71.059215,42.351276],[-71.059144,42.351205],[-71.05911,42.351194],[-71.059076,42.351205],[-71.059061,42.35123],[-71.059142,42.351559],[-71.059187,42.351581],[-71.059222,42.35157],[-71.059236,42.351545],[-71.059228,42.351512],[-71.059266,42.351478]]],[[[-71.059208,42.353389],[-71.059184,42.353294],[-71.059153,42.353284],[-71.059172,42.353389],[-71.05919,42.353403],[-71.059208,42.353389]]],[[[-71.059131,42.354537],[-71.059083,42.354368],[-71.059048,42.354363],[-71.05903,42.354376],[-71.059013,42.354322],[-71.058987,42.354322],[-71.059006,42.354427],[-71.059037,42.354437],[-71.059075,42.354554],[-71.059111,42.354559],[-71.059131,42.354537]]],[[[-71.059122,42.351555],[-71.059098,42.35146],[-71.059067,42.35145],[-71.059086,42.351555],[-71.059104,42.351569],[-71.059122,42.351555]]],[[[-71.059112,42.353382],[-71.059088,42.353287],[-71.059057,42.353277],[-71.059076,42.353382],[-71.059094,42.353396],[-71.059112,42.353382]]],[[[-71.059101,42.351655],[-71.059066,42.351517],[-71.05903,42.351499],[-71.059016,42.35151],[-71.059049,42.351655],[-71.059075,42.351674],[-71.059101,42.351655]]],[[[-71.059046,42.351763],[-71.059003,42.351594],[-71.058984,42.35158],[-71.058945,42.351585],[-71.058942,42.351636],[-71.058912,42.351646],[-71.058945,42.351765],[-71.05901,42.35179],[-71.059046,42.351763]]],[[[-71.059022,42.353378],[-71.058998,42.353283],[-71.058967,42.353273],[-71.058986,42.353378],[-71.059004,42.353392],[-71.059022,42.353378]]],[[[-71.058991,42.354414],[-71.058959,42.35429],[-71.058926,42.35428],[-71.058952,42.354414],[-71.058971,42.354428],[-71.058991,42.354414]]],[[[-71.058961,42.351842],[-71.058922,42.35169],[-71.058902,42.351668],[-71.058867,42.351673],[-71.058863,42.351714],[-71.058817,42.351728],[-71.05882,42.351759],[-71.058767,42.35177],[-71.058774,42.351817],[-71.058701,42.351818],[-71.05868,42.351834],[-71.058692,42.351905],[-71.058672,42.351884],[-71.058648,42.351884],[-71.05863,42.351915],[-71.058599,42.351924],[-71.058637,42.352073],[-71.058721,42.352075],[-71.058719,42.352013],[-71.058743,42.352038],[-71.058786,42.352032],[-71.058797,42.352011],[-71.058779,42.351941],[-71.058803,42.351934],[-71.058827,42.351964],[-71.058865,42.351958],[-71.058871,42.351919],[-71.058915,42.351916],[-71.058918,42.351865],[-71.058951,42.351859],[-71.058961,42.351842]]],[[[-71.058888,42.353363],[-71.058864,42.353268],[-71.058833,42.353258],[-71.058852,42.353363],[-71.05887,42.353377],[-71.058888,42.353363]]],[[[-71.058782,42.353363],[-71.058758,42.353268],[-71.058727,42.353258],[-71.058746,42.353363],[-71.058764,42.353377],[-71.058782,42.353363]]],[[[-71.058636,42.352199],[-71.058605,42.352076],[-71.058622,42.352062],[-71.058593,42.351957],[-71.058509,42.351959],[-71.058451,42.352018],[-71.058451,42.352042],[-71.058397,42.35205],[-71.058454,42.352278],[-71.058503,42.352286],[-71.058528,42.352268],[-71.058526,42.352234],[-71.058602,42.352237],[-71.058636,42.352199]]],[[[-71.058592,42.352625],[-71.058568,42.35253],[-71.058537,42.35252],[-71.058556,42.352625],[-71.058574,42.352639],[-71.058592,42.352625]]],[[[-71.058532,42.352619],[-71.058499,42.35248],[-71.058466,42.35247],[-71.058496,42.352619],[-71.058514,42.352633],[-71.058532,42.352619]]],[[[-71.058454,42.352631],[-71.058423,42.352518],[-71.0584,42.352517],[-71.058383,42.35246],[-71.058357,42.35246],[-71.058381,42.352575],[-71.058404,42.352576],[-71.058423,42.35264],[-71.058454,42.352631]]],[[[-71.058414,42.3522],[-71.058388,42.352097],[-71.058357,42.352087],[-71.058378,42.3522],[-71.058396,42.352213],[-71.058414,42.3522]]],[[[-71.058372,42.352615],[-71.058348,42.35252],[-71.058317,42.35251],[-71.058336,42.352615],[-71.058354,42.352629],[-71.058372,42.352615]]],[[[-71.058312,42.351005],[-71.058288,42.35091],[-71.058257,42.3509],[-71.058276,42.351005],[-71.058294,42.351019],[-71.058312,42.351005]]],[[[-71.058302,42.352562],[-71.058278,42.352467],[-71.058247,42.352457],[-71.05825,42.352499],[-71.058232,42.352512],[-71.058261,42.352617],[-71.058287,42.352617],[-71.058284,42.352576],[-71.058302,42.352562]]],[[[-71.058242,42.350982],[-71.058218,42.350887],[-71.058187,42.350877],[-71.058206,42.350982],[-71.058224,42.350996],[-71.058242,42.350982]]],[[[-71.058062,42.35276],[-71.058038,42.352665],[-71.058007,42.352655],[-71.058025,42.352758],[-71.057996,42.352768],[-71.05802,42.352863],[-71.058038,42.352877],[-71.058056,42.352863],[-71.058033,42.352771],[-71.058062,42.35276]]],[[[-71.058032,42.353],[-71.058008,42.352905],[-71.057977,42.352895],[-71.057996,42.353],[-71.058014,42.353014],[-71.058032,42.353]]],[[[-71.057827,42.350788],[-71.057803,42.350693],[-71.057772,42.350683],[-71.057791,42.350788],[-71.057809,42.350802],[-71.057827,42.350788]]],[[[-71.057785,42.352364],[-71.05775,42.352226],[-71.057714,42.352208],[-71.0577,42.352219],[-71.057733,42.352364],[-71.057759,42.352383],[-71.057785,42.352364]]],[[[-71.057782,42.350772],[-71.057758,42.350677],[-71.057727,42.350667],[-71.057746,42.350772],[-71.057764,42.350786],[-71.057782,42.350772]]],[[[-71.05766,42.352335],[-71.057623,42.35219],[-71.057605,42.35217],[-71.057573,42.352175],[-71.057565,42.35219],[-71.057601,42.352335],[-71.057631,42.352357],[-71.05766,42.352335]]],[[[-71.057571,42.352298],[-71.057536,42.35216],[-71.0575,42.352142],[-71.057486,42.352153],[-71.057519,42.352298],[-71.057545,42.352317],[-71.057571,42.352298]]],[[[-71.057491,42.352278],[-71.057456,42.35214],[-71.05742,42.352122],[-71.057406,42.352133],[-71.057439,42.352278],[-71.057465,42.352297],[-71.057491,42.352278]]],[[[-71.057438,42.350498],[-71.057414,42.350403],[-71.057383,42.350393],[-71.057402,42.350498],[-71.05742,42.350512],[-71.057438,42.350498]]],[[[-71.057422,42.350589],[-71.057398,42.350494],[-71.057367,42.350484],[-71.057386,42.350589],[-71.057404,42.350603],[-71.057422,42.350589]]],[[[-71.057406,42.352255],[-71.057369,42.35211],[-71.057351,42.35209],[-71.057319,42.352095],[-71.057311,42.35211],[-71.057347,42.352255],[-71.057377,42.352277],[-71.057406,42.352255]]],[[[-71.057374,42.35181],[-71.057348,42.351707],[-71.057317,42.351697],[-71.057319,42.351737],[-71.057302,42.35175],[-71.057331,42.351855],[-71.057357,42.351855],[-71.057357,42.351823],[-71.057374,42.35181]]],[[[-71.057333,42.351992],[-71.057309,42.351897],[-71.057278,42.351887],[-71.057284,42.351942],[-71.057263,42.35195],[-71.057289,42.352053],[-71.057315,42.352053],[-71.057311,42.352005],[-71.057333,42.351992]]],[[[-71.057326,42.351035],[-71.057298,42.350925],[-71.057267,42.350915],[-71.057289,42.351035],[-71.057308,42.351048],[-71.057326,42.351035]]],[[[-71.057296,42.351173],[-71.057268,42.351063],[-71.057237,42.351053],[-71.057259,42.351173],[-71.057278,42.351186],[-71.057296,42.351173]]],[[[-71.057232,42.351505],[-71.057208,42.35141],[-71.057177,42.3514],[-71.057196,42.351505],[-71.057214,42.351519],[-71.057232,42.351505]]],[[[-71.057222,42.350645],[-71.057198,42.35055],[-71.057167,42.35054],[-71.057186,42.350645],[-71.057204,42.350659],[-71.057222,42.350645]]],[[[-71.057171,42.350727],[-71.057147,42.350632],[-71.057117,42.350622],[-71.057089,42.350523],[-71.057063,42.350523],[-71.057082,42.350628],[-71.057112,42.350638],[-71.05714,42.350737],[-71.057171,42.350727]]],[[[-71.057062,42.349935],[-71.057038,42.34984],[-71.057007,42.34983],[-71.057014,42.349887],[-71.05699,42.349879],[-71.05696,42.349894],[-71.056996,42.350055],[-71.057016,42.350077],[-71.057058,42.350064],[-71.057033,42.349946],[-71.057062,42.349935]]],[[[-71.056898,42.352145],[-71.056868,42.352028],[-71.056837,42.352018],[-71.056861,42.352145],[-71.056879,42.352158],[-71.056898,42.352145]]],[[[-71.056871,42.349926],[-71.056826,42.349749],[-71.056805,42.349733],[-71.056762,42.34974],[-71.056751,42.34976],[-71.056765,42.349817],[-71.05673,42.349831],[-71.056738,42.349881],[-71.056691,42.34989],[-71.056676,42.349915],[-71.056691,42.349972],[-71.056635,42.349992],[-71.05665,42.350078],[-71.056619,42.350074],[-71.056601,42.350094],[-71.056646,42.350254],[-71.056687,42.350254],[-71.056684,42.350191],[-71.056721,42.350204],[-71.056766,42.350182],[-71.056755,42.350112],[-71.056811,42.350091],[-71.056799,42.350016],[-71.056828,42.350001],[-71.056821,42.349954],[-71.05686,42.349947],[-71.056871,42.349926]]],[[[-71.056858,42.350325],[-71.056834,42.35023],[-71.056803,42.35022],[-71.056822,42.350325],[-71.05684,42.350339],[-71.056858,42.350325]]],[[[-71.056822,42.350402],[-71.056798,42.350307],[-71.056767,42.350297],[-71.056786,42.350402],[-71.056804,42.350416],[-71.056822,42.350402]]],[[[-71.056776,42.352104],[-71.056748,42.351994],[-71.056717,42.351984],[-71.056739,42.352104],[-71.056758,42.352117],[-71.056776,42.352104]]],[[[-71.056673,42.35073],[-71.056643,42.350613],[-71.056612,42.350603],[-71.056636,42.35073],[-71.056654,42.350743],[-71.056673,42.35073]]],[[[-71.056661,42.350337],[-71.056622,42.350185],[-71.056602,42.350163],[-71.056567,42.350168],[-71.056596,42.350337],[-71.056628,42.350361],[-71.056661,42.350337]]],[[[-71.056661,42.353341],[-71.056626,42.353203],[-71.05659,42.353185],[-71.056576,42.353196],[-71.056609,42.353341],[-71.056635,42.35336],[-71.056661,42.353341]]],[[[-71.056638,42.350797],[-71.056608,42.35068],[-71.056577,42.35067],[-71.056601,42.350797],[-71.056619,42.35081],[-71.056638,42.350797]]],[[[-71.0566,42.350996],[-71.056555,42.35082],[-71.056529,42.350801],[-71.056476,42.350809],[-71.056461,42.350834],[-71.056506,42.35101],[-71.056551,42.351032],[-71.056585,42.351022],[-71.0566,42.350996]]],[[[-71.056591,42.353289],[-71.056559,42.353165],[-71.056526,42.353155],[-71.056552,42.353289],[-71.056571,42.353303],[-71.056591,42.353289]]],[[[-71.056516,42.353251],[-71.056484,42.353127],[-71.056451,42.353117],[-71.056477,42.353251],[-71.056496,42.353265],[-71.056516,42.353251]]],[[[-71.056498,42.352037],[-71.056468,42.35192],[-71.056437,42.35191],[-71.056461,42.352037],[-71.056479,42.35205],[-71.056498,42.352037]]],[[[-71.056452,42.351125],[-71.056428,42.35103],[-71.056397,42.35102],[-71.056416,42.351125],[-71.056434,42.351139],[-71.056452,42.351125]]],[[[-71.056428,42.351214],[-71.056398,42.351097],[-71.056367,42.351087],[-71.056391,42.351214],[-71.056409,42.351227],[-71.056428,42.351214]]],[[[-71.056426,42.353221],[-71.056393,42.35309],[-71.056354,42.353078],[-71.05638,42.353221],[-71.056403,42.353238],[-71.056426,42.353221]]],[[[-71.056411,42.351988],[-71.056388,42.3519],[-71.056357,42.35189],[-71.056374,42.351988],[-71.056392,42.352002],[-71.056411,42.351988]]],[[[-71.056388,42.351271],[-71.056364,42.351176],[-71.056333,42.351166],[-71.056352,42.351271],[-71.05637,42.351285],[-71.056388,42.351271]]],[[[-71.056368,42.355047],[-71.056306,42.35467],[-71.05627,42.354652],[-71.056256,42.354663],[-71.056331,42.355047],[-71.056349,42.35506],[-71.056368,42.355047]]],[[[-71.056286,42.350959],[-71.056256,42.350842],[-71.056225,42.350832],[-71.056249,42.350959],[-71.056267,42.350972],[-71.056286,42.350959]]],[[[-71.056284,42.351479],[-71.056258,42.351376],[-71.056227,42.351366],[-71.056227,42.351398],[-71.056204,42.351406],[-71.056234,42.351523],[-71.05626,42.351523],[-71.056259,42.351491],[-71.056284,42.351479]]],[[[-71.056272,42.353145],[-71.056248,42.35305],[-71.056217,42.35304],[-71.056236,42.353145],[-71.056254,42.353159],[-71.056272,42.353145]]],[[[-71.056256,42.35105],[-71.056226,42.350933],[-71.056195,42.350923],[-71.056219,42.35105],[-71.056237,42.351063],[-71.056256,42.35105]]],[[[-71.056234,42.351553],[-71.056208,42.35145],[-71.056177,42.35144],[-71.056198,42.351553],[-71.056216,42.351566],[-71.056234,42.351553]]],[[[-71.056216,42.351153],[-71.056186,42.351036],[-71.056155,42.351026],[-71.056179,42.351153],[-71.056197,42.351166],[-71.056216,42.351153]]],[[[-71.056178,42.351262],[-71.056148,42.351145],[-71.056117,42.351135],[-71.056141,42.351262],[-71.056159,42.351275],[-71.056178,42.351262]]],[[[-71.056104,42.351813],[-71.056078,42.35171],[-71.056047,42.3517],[-71.056068,42.351813],[-71.056086,42.351826],[-71.056104,42.351813]]],[[[-71.056007,42.351472],[-71.055977,42.351355],[-71.055946,42.351345],[-71.05597,42.351472],[-71.055988,42.351485],[-71.056007,42.351472]]],[[[-71.055983,42.351529],[-71.055953,42.351412],[-71.055922,42.351402],[-71.055946,42.351529],[-71.055964,42.351542],[-71.055983,42.351529]]],[[[-71.05595,42.351599],[-71.05592,42.351482],[-71.055889,42.351472],[-71.055913,42.351599],[-71.055931,42.351612],[-71.05595,42.351599]]],[[[-71.055918,42.351678],[-71.055888,42.351561],[-71.055857,42.351551],[-71.055881,42.351678],[-71.055899,42.351691],[-71.055918,42.351678]]],[[[-71.05591,42.352388],[-71.055865,42.352212],[-71.055839,42.352193],[-71.055786,42.352201],[-71.055775,42.352242],[-71.055737,42.352276],[-71.055782,42.352452],[-71.055827,42.352474],[-71.055861,42.352464],[-71.055872,42.352423],[-71.05591,42.352388]]],[[[-71.055889,42.351739],[-71.055859,42.351622],[-71.055828,42.351612],[-71.055852,42.351739],[-71.05587,42.351752],[-71.055889,42.351739]]],[[[-71.055838,42.351844],[-71.055808,42.351727],[-71.055777,42.351717],[-71.055782,42.351766],[-71.055752,42.351776],[-71.055787,42.351902],[-71.055812,42.351902],[-71.055808,42.351854],[-71.055838,42.351844]]],[[[-71.055827,42.353488],[-71.055788,42.353336],[-71.055768,42.353314],[-71.055733,42.353319],[-71.055762,42.353488],[-71.055794,42.353512],[-71.055827,42.353488]]],[[[-71.055761,42.353539],[-71.055724,42.353394],[-71.055706,42.353374],[-71.055674,42.353379],[-71.055666,42.353394],[-71.055702,42.353539],[-71.055732,42.353561],[-71.055761,42.353539]]],[[[-71.055677,42.353554],[-71.055645,42.35343],[-71.055612,42.35342],[-71.055638,42.353554],[-71.055657,42.353568],[-71.055677,42.353554]]],[[[-71.055588,42.353614],[-71.055558,42.353497],[-71.055527,42.353487],[-71.055551,42.353614],[-71.055569,42.353627],[-71.055588,42.353614]]],[[[-71.055524,42.353633],[-71.055498,42.35353],[-71.055467,42.35352],[-71.055488,42.353633],[-71.055506,42.353646],[-71.055524,42.353633]]],[[[-71.055286,42.353748],[-71.055257,42.353643],[-71.055189,42.353657],[-71.055185,42.353687],[-71.055147,42.3537],[-71.055187,42.353843],[-71.055267,42.353832],[-71.055262,42.353761],[-71.055286,42.353748]]]]},"properties":{"kind":"tree"}}]}