{"type":"FeatureCollection","features":[{"type":"Feature","geometry":{"type":"MultiPolygon","coordinates":[[[[-71.06703,42.351826],[-71.067007,42.351692],[-71.066747,42.351106],[-71.06597,42.351198],[-71.065991,42.350995],[-71.065959,42.350666],[-71.065948,42.350666],[-71.06593,42.350327],[-71.065904,42.350328],[-71.065916,42.350219],[-71.065896,42.350027],[-71.065946,42.350009],[-71.065968,42.349871],[-71.065983,42.349897],[-71.066071,42.349873],[-71.066107,42.349483],[-71.066051,42.349385],[-71.065989,42.349405],[-71.06598,42.349486],[-71.06562,42.349445],[-71.065521,42.349461],[-71.065431,42.349881],[-71.065343,42.350191],[-71.06533,42.350303],[-71.06531,42.3503],[-71.065139,42.350903],[-71.065104,42.351237],[-71.064967,42.35123],[-71.064712,42.352205],[-71.064777,42.351582],[-71.064799,42.351585],[-71.0649,42.351205],[-71.064962,42.350617],[-71.064987,42.350621],[-71.065061,42.350347],[-71.065085,42.35035],[-71.065097,42.350303],[-71.065169,42.349617],[-71.065127,42.349611],[-71.065168,42.349218],[-71.065265,42.349208],[-71.065316,42.34902],[-71.06533,42.348887],[-71.065323,42.348802],[-71.065279,42.348688],[-71.064844,42.348594],[-71.064862,42.34839],[-71.064917,42.34843],[-71.064958,42.348403],[-71.065086,42.34855],[-71.06511,42.348538],[-71.065119,42.348568],[-71.065413,42.348503],[-71.065427,42.34839],[-71.065377,42.348333],[-71.065467,42.34825],[-71.065484,42.348131],[-71.065458,42.348082],[-71.065509,42.348049],[-71.065529,42.347903],[-71.065483,42.347819],[-71.065392,42.347805],[-71.065371,42.347781],[-71.065316,42.347783],[-71.065319,42.347677],[-71.065257,42.347643],[-71.064894,42.347587],[-71.064503,42.347783],[-71.064389,42.348045],[-71.06434,42.34822],[-71.06431,42.348503],[-71.064346,42.348509],[-71.064431,42.348475],[-71.064422,42.348553],[-71.064341,42.348545],[-71.064334,42.348568],[-71.064275,42.348582],[-71.064138,42.348956],[-71.06411,42.349156],[-71.064355,42.349194],[-71.064348,42.349258],[-71.064389,42.349264],[-71.064357,42.349566],[-71.06379,42.349479],[-71.063867,42.349206],[-71.063912,42.348774],[-71.063997,42.348787],[-71.064023,42.348692],[-71.064113,42.347947],[-71.063968,42.347919],[-71.063883,42.347989],[-71.063856,42.347985],[-71.063822,42.348144],[-71.063572,42.348108],[-71.063606,42.347866],[-71.06346,42.347843],[-71.063365,42.348193],[-71.063347,42.348362],[-71.063236,42.348345],[-71.063246,42.348246],[-71.063262,42.34825],[-71.063281,42.348181],[-71.063301,42.347999],[-71.062961,42.347921],[-71.062929,42.348],[-71.062916,42.348127],[-71.062896,42.348124],[-71.062909,42.347999],[-71.062855,42.347962],[-71.062735,42.347939],[-71.062689,42.348052],[-71.062682,42.34811],[-71.062667,42.348107],[-71.06264,42.348175],[-71.062632,42.348254],[-71.062604,42.34825],[-71.062448,42.348644],[-71.062439,42.348731],[-71.062425,42.348727],[-71.062409,42.348753],[-71.062288,42.349072],[-71.062234,42.34916],[-71.062221,42.349288],[-71.062169,42.349306],[-71.062155,42.349337],[-71.062148,42.349404],[-71.061999,42.349764],[-71.06199,42.34985],[-71.061969,42.349845],[-71.061924,42.349957],[-71.061893,42.350142],[-71.061975,42.34927],[-71.061831,42.349239],[-71.061895,42.34873],[-71.06188,42.348727],[-71.061909,42.348657],[-71.062235,42.348747],[-71.062247,42.348715],[-71.06234,42.34872],[-71.062375,42.348631],[-71.062446,42.347953],[-71.061926,42.347827],[-71.061878,42.347943],[-71.061841,42.348292],[-71.061782,42.348439],[-71.061866,42.34764],[-71.061712,42.347604],[-71.061566,42.347954],[-71.061525,42.348333],[-71.061414,42.348308],[-71.061392,42.348361],[-71.06137,42.348552],[-71.061343,42.348574],[-71.061365,42.348369],[-71.0613,42.348342],[-71.061312,42.348228],[-71.061184,42.348198],[-71.061133,42.348276],[-71.061105,42.348388],[-71.061017,42.348604],[-71.061068,42.348118],[-71.061011,42.348097],[-71.060549,42.348739],[-71.060503,42.349181],[-71.060443,42.349109],[-71.060321,42.349063],[-71.060204,42.349326],[-71.059925,42.350048],[-71.059898,42.350305],[-71.059867,42.350296],[-71.059794,42.350499],[-71.059758,42.350838],[-71.059783,42.350844],[-71.059775,42.35092],[-71.059832,42.350932],[-71.059796,42.35127],[-71.059758,42.351262],[-71.059709,42.351391],[-71.059665,42.351908],[-71.059694,42.352085],[-71.059713,42.352083],[-71.059778,42.352489],[-71.059994,42.352471],[-71.060018,42.352246],[-71.060036,42.352359],[-71.060104,42.352358],[-71.060053,42.352838],[-71.060074,42.352975],[-71.059715,42.352792],[-71.059748,42.352478],[-71.059715,42.35226],[-71.059695,42.352262],[-71.059626,42.351804],[-71.059386,42.351848],[-71.059335,42.352334],[-71.059373,42.352589],[-71.059393,42.352587],[-71.059428,42.352938],[-71.059518,42.352943],[-71.059519,42.353097],[-71.059488,42.353393],[-71.059432,42.35339],[-71.059365,42.353448],[-71.05939,42.353095],[-71.059318,42.352574],[-71.059277,42.352569],[-71.059292,42.352429],[-71.059226,42.352012],[-71.059026,42.352083],[-71.058873,42.352183],[-71.058814,42.352257],[-71.058775,42.35235],[-71.058756,42.352528],[-71.058176,42.352542],[-71.058142,42.35255],[-71.058055,42.352616],[-71.057947,42.353231],[-71.057883,42.353839],[-71.057897,42.353849],[-71.057887,42.354041],[-71.0578,42.354182],[-71.057846,42.353741],[-71.0577,42.353691],[-71.057792,42.352823],[-71.057888,42.352842],[-71.058051,42.352344],[-71.058073,42.352132],[-71.058239,42.35176],[-71.058363,42.351435],[-71.058395,42.351137],[-71.058508,42.351163],[-71.058575,42.350996],[-71.058592,42.350834],[-71.058639,42.350844],[-71.0587,42.350733],[-71.058776,42.350034],[-71.058372,42.349945],[-71.05834,42.350058],[-71.058424,42.349376],[-71.05801,42.349284],[-71.058071,42.348706],[-71.057613,42.348605],[-71.057529,42.348814],[-71.057432,42.349732],[-71.057133,42.349667],[-71.05695,42.350087],[-71.056922,42.350095],[-71.056797,42.350339],[-71.056768,42.350616],[-71.056678,42.350643],[-71.056627,42.350738],[-71.05656,42.350888],[-71.056553,42.350951],[-71.056518,42.350994],[-71.056401,42.351249],[-71.056389,42.351362],[-71.056294,42.351331],[-71.056079,42.351765],[-71.056045,42.352088],[-71.05594,42.352127],[-71.055846,42.352326],[-71.055735,42.353381],[-71.055573,42.353469],[-71.055569,42.353508],[-71.055421,42.353589],[-71.055376,42.353638],[-71.055342,42.353603],[-71.054915,42.353838],[-71.054906,42.353923],[-71.054834,42.353899],[-71.054776,42.353908],[-71.054391,42.354111],[-71.054359,42.354149],[-71.0541,42.356589],[-71.054109,42.356633],[-71.054364,42.356898],[-71.054431,42.356912],[-71.054519,42.356864],[-71.054824,42.35658],[-71.054816,42.356691],[-71.05492,42.356786],[-71.054916,42.356822],[-71.054988,42.356885],[-71.055079,42.356863],[-71.055169,42.356806],[-71.055211,42.356733],[-71.055343,42.356654],[-71.055405,42.356158],[-71.055488,42.356621],[-71.055296,42.358447],[-71.055402,42.359025],[-71.055854,42.358981],[-71.056076,42.356865],[-71.056214,42.356834],[-71.056303,42.355987],[-71.056343,42.355973],[-71.056386,42.355879],[-71.056269,42.356989],[-71.056333,42.357346],[-71.057116,42.357287],[-71.057185,42.356632],[-71.057263,42.356659],[-71.057474,42.356312],[-71.0575,42.356068],[-71.057622,42.355869],[-71.057702,42.355112],[-71.057766,42.355135],[-71.057753,42.355312],[-71.057832,42.355317],[-71.057813,42.355489],[-71.05786,42.355507],[-71.057845,42.355712],[-71.057898,42.355716],[-71.057889,42.355807],[-71.058193,42.355839],[-71.05823,42.355827],[-71.058349,42.355833],[-71.058358,42.355747],[-71.058416,42.35575],[-71.058462,42.355358],[-71.058505,42.355361],[-71.058495,42.355521],[-71.058811,42.355658],[-71.05869,42.356806],[-71.058764,42.356861],[-71.059056,42.35698],[-71.059302,42.356766],[-71.059365,42.356688],[-71.059487,42.355535],[-71.05955,42.355476],[-71.060128,42.355912],[-71.060305,42.355784],[-71.060365,42.355578],[-71.060454,42.355641],[-71.060539,42.355579],[-71.060638,42.355657],[-71.060978,42.35534],[-71.061029,42.355371],[-71.061007,42.355581],[-71.06132,42.355738],[-71.061428,42.35562],[-71.061565,42.355691],[-71.061724,42.355525],[-71.061765,42.355469],[-71.061769,42.355434],[-71.062001,42.355555],[-71.06202,42.355534],[-71.062143,42.355597],[-71.06231,42.355418],[-71.062317,42.355349],[-71.062315,42.355433],[-71.062332,42.355442],[-71.062262,42.356111],[-71.062297,42.356133],[-71.062783,42.356131],[-71.06284,42.355704],[-71.06289,42.355719],[-71.062898,42.355703],[-71.062987,42.355747],[-71.06294,42.356189],[-71.062984,42.356208],[-71.062978,42.356269],[-71.063219,42.35634],[-71.063508,42.355804],[-71.063527,42.355618],[-71.063552,42.355581],[-71.063604,42.355088],[-71.063642,42.3551],[-71.063682,42.355064],[-71.063746,42.354947],[-71.063762,42.354847],[-71.063785,42.354854],[-71.063878,42.354697],[-71.063952,42.354072],[-71.06405,42.354079],[-71.064117,42.353999],[-71.064144,42.353925],[-71.064163,42.353768],[-71.064208,42.353771],[-71.064243,42.35362],[-71.064308,42.353075],[-71.064365,42.353077],[-71.0644,42.353057],[-71.064537,42.35249],[-71.06466,42.352502],[-71.064665,42.352482],[-71.064627,42.352637],[-71.064619,42.35271],[-71.064641,42.352714],[-71.064602,42.353089],[-71.065,42.353109],[-71.064997,42.353137],[-71.065415,42.353159],[-71.065454,42.352881],[-71.065632,42.352895],[-71.065607,42.353136],[-71.065804,42.353151],[-71.065891,42.352488],[-71.065939,42.352496],[-71.065906,42.352826],[-71.065914,42.352891],[-71.065928,42.352892],[-71.06601,42.352896],[-71.06605,42.352512],[-71.06677,42.352607],[-71.066953,42.352562],[-71.06703,42.351826]],[[-71.063838,42.351132],[-71.063729,42.351117],[-71.063731,42.351094],[-71.063838,42.351132]],[[-71.063605,42.348476],[-71.063505,42.348828],[-71.063484,42.349028],[-71.063374,42.349011],[-71.063434,42.348781],[-71.063468,42.348455],[-71.063605,42.348476]],[[-71.063492,42.35044],[-71.063408,42.350576],[-71.063355,42.351077],[-71.06329,42.35107],[-71.063247,42.351288],[-71.063273,42.351069],[-71.063049,42.351044],[-71.063052,42.350973],[-71.063089,42.350842],[-71.063208,42.35086],[-71.063271,42.350729],[-71.063296,42.350733],[-71.063372,42.35043],[-71.063431,42.350426],[-71.063442,42.350383],[-71.063492,42.35044]],[[-71.063241,42.351321],[-71.063238,42.351356],[-71.063234,42.351357],[-71.063241,42.351321]],[[-71.063133,42.35401],[-71.063112,42.354018],[-71.063113,42.354009],[-71.063133,42.35401]],[[-71.062775,42.352157],[-71.062742,42.352452],[-71.062724,42.352454],[-71.06272,42.352488],[-71.062679,42.352486],[-71.062622,42.353019],[-71.062596,42.353543],[-71.062533,42.353622],[-71.062491,42.353619],[-71.062452,42.353666],[-71.062481,42.353535],[-71.062628,42.352137],[-71.062775,42.352157]],[[-71.062253,42.351012],[-71.062248,42.351054],[-71.062236,42.351052],[-71.062241,42.351007],[-71.062253,42.351012]],[[-71.062121,42.351535],[-71.062094,42.351532],[-71.062116,42.351438],[-71.062121,42.351535]],[[-71.061662,42.350667],[-71.06165,42.350777],[-71.061597,42.350765],[-71.061559,42.350898],[-71.061545,42.350895],[-71.061526,42.350931],[-71.061462,42.35114],[-71.061448,42.351138],[-71.061352,42.351379],[-71.061335,42.351541],[-71.061289,42.351543],[-71.061222,42.352184],[-71.061285,42.3525],[-71.061439,42.352494],[-71.061449,42.352601],[-71.061483,42.352598],[-71.061423,42.353168],[-71.061454,42.353639],[-71.061316,42.353581],[-71.06136,42.353145],[-71.061336,42.35258],[-71.061194,42.352592],[-71.061121,42.352806],[-71.061104,42.352801],[-71.061056,42.352854],[-71.061125,42.352254],[-71.061108,42.351986],[-71.061077,42.351783],[-71.061179,42.351525],[-71.061224,42.351101],[-71.061295,42.351113],[-71.06131,42.351075],[-71.06142,42.3511],[-71.06158,42.350715],[-71.061594,42.350721],[-71.061621,42.350655],[-71.061662,42.350667]],[[-71.061605,42.348881],[-71.061583,42.348951],[-71.061552,42.34896],[-71.061349,42.349469],[-71.061337,42.34958],[-71.061307,42.349568],[-71.061196,42.349845],[-71.061181,42.349989],[-71.061162,42.349985],[-71.061139,42.350043],[-71.061132,42.350105],[-71.061166,42.350113],[-71.06109,42.35016],[-71.061001,42.350379],[-71.060977,42.350607],[-71.060904,42.350588],[-71.060966,42.349994],[-71.060719,42.349938],[-71.060897,42.349509],[-71.06095,42.34953],[-71.060969,42.349486],[-71.060963,42.349542],[-71.061174,42.349641],[-71.061224,42.34955],[-71.061242,42.349554],[-71.061307,42.349407],[-71.06134,42.349279],[-71.061403,42.349129],[-71.061416,42.349007],[-71.061449,42.349015],[-71.061494,42.348892],[-71.061586,42.348914],[-71.061605,42.348881]],[[-71.061252,42.348652],[-71.061236,42.348745],[-71.061164,42.348756],[-71.061209,42.348642],[-71.061252,42.348652]],[[-71.061101,42.348875],[-71.061062,42.349283],[-71.061017,42.349264],[-71.061054,42.348944],[-71.060983,42.348926],[-71.060991,42.34885],[-71.061101,42.348875]],[[-71.060634,42.351251],[-71.060611,42.351308],[-71.060596,42.351446],[-71.060506,42.351428],[-71.060562,42.351296],[-71.060569,42.351233],[-71.060634,42.351251]],[[-71.060528,42.353449],[-71.060106,42.353895],[-71.060123,42.35373],[-71.06016,42.353749],[-71.060275,42.353626],[-71.060305,42.353339],[-71.060528,42.353449]],[[-71.060454,42.351881],[-71.060445,42.351968],[-71.060415,42.351873],[-71.060454,42.351881]],[[-71.060434,42.352147],[-71.06043,42.352147],[-71.060431,42.352138],[-71.060434,42.352147]],[[-71.060356,42.35154],[-71.060343,42.351664],[-71.060294,42.351526],[-71.060356,42.35154]],[[-71.060151,42.35185],[-71.060056,42.351864],[-71.060032,42.352094],[-71.060001,42.351909],[-71.060046,42.351905],[-71.060081,42.351689],[-71.060142,42.351679],[-71.060131,42.351785],[-71.060151,42.35185]],[[-71.05826,42.350338],[-71.058156,42.350704],[-71.058212,42.350398],[-71.058234,42.350403],[-71.05826,42.350338]],[[-71.058059,42.351061],[-71.058016,42.351213],[-71.058022,42.35116],[-71.058059,42.351061]],[[-71.057927,42.349765],[-71.057919,42.349841],[-71.057899,42.349836],[-71.057927,42.349765]],[[-71.057914,42.351577],[-71.057895,42.351688],[-71.057885,42.351686],[-71.057829,42.351863],[-71.057879,42.351572],[-71.057914,42.351577]],[[-71.057833,42.34985],[-71.057688,42.349927],[-71.057546,42.350612],[-71.057529,42.350771],[-71.05737,42.35161],[-71.057355,42.351608],[-71.057276,42.352035],[-71.057212,42.352642],[-71.057557,42.352749],[-71.05731,42.352888],[-71.057163,42.352943],[-71.057114,42.352988],[-71.057008,42.353902],[-71.05696,42.353981],[-71.056982,42.353769],[-71.056971,42.353492],[-71.056948,42.353395],[-71.056823,42.353423],[-71.05689,42.353279],[-71.056918,42.353012],[-71.056973,42.353027],[-71.057027,42.352741],[-71.057116,42.351927],[-71.057285,42.351022],[-71.057349,42.350753],[-71.057375,42.350756],[-71.057424,42.350514],[-71.057502,42.349777],[-71.057833,42.34985]],[[-71.056944,42.354324],[-71.056899,42.354751],[-71.056773,42.354756],[-71.056792,42.354577],[-71.056901,42.354542],[-71.056924,42.354317],[-71.056944,42.354324]]],[[[-71.066483,42.348529],[-71.065953,42.348467],[-71.065995,42.348064],[-71.065837,42.348044],[-71.065752,42.348444],[-71.065676,42.349164],[-71.065736,42.349172],[-71.065723,42.349292],[-71.065819,42.349303],[-71.065849,42.349113],[-71.065858,42.349145],[-71.066396,42.349208],[-71.066424,42.349088],[-71.066483,42.348529]]],[[[-71.065565,42.354342],[-71.065554,42.354318],[-71.065521,42.354301],[-71.06545,42.354322],[-71.065424,42.354522],[-71.065449,42.354561],[-71.065495,42.35457],[-71.065539,42.354547],[-71.065565,42.354342]]],[[[-71.06461,42.353278],[-71.064542,42.353266],[-71.0645,42.353439],[-71.064568,42.353453],[-71.06461,42.353278]]],[[[-71.063935,42.354829],[-71.063869,42.354811],[-71.063846,42.35486],[-71.063839,42.35493],[-71.063905,42.354947],[-71.063928,42.354899],[-71.063935,42.354829]]],[[[-71.059505,42.350215],[-71.059471,42.35018],[-71.059047,42.350086],[-71.058996,42.350102],[-71.058689,42.350861],[-71.058672,42.35102],[-71.058633,42.351011],[-71.058362,42.351689],[-71.058326,42.352034],[-71.058522,42.352077],[-71.05871,42.351899],[-71.058865,42.351705],[-71.058969,42.351528],[-71.059008,42.351388],[-71.059099,42.351409],[-71.059154,42.351393],[-71.05946,42.350636],[-71.059505,42.350215]]],[[[-71.059318,42.349726],[-71.059179,42.349693],[-71.059105,42.349866],[-71.059094,42.349971],[-71.059233,42.350004],[-71.059307,42.349832],[-71.059318,42.349726]]],[[[-71.056775,42.349199],[-71.056596,42.349149],[-71.055672,42.349413],[-71.056646,42.347959],[-71.056683,42.347603],[-71.056673,42.347544],[-71.055908,42.347262],[-71.054533,42.349309],[-71.054519,42.349436],[-71.054447,42.34941],[-71.053477,42.350853],[-71.053413,42.351457],[-71.053994,42.351672],[-71.054274,42.351315],[-71.05432,42.351332],[-71.055181,42.350048],[-71.055025,42.350377],[-71.054986,42.350751],[-71.05507,42.350816],[-71.055051,42.350998],[-71.055109,42.351014],[-71.055171,42.350894],[-71.055265,42.350967],[-71.055262,42.351],[-71.05548,42.351069],[-71.055657,42.351075],[-71.055654,42.35111],[-71.05574,42.351134],[-71.055771,42.351072],[-71.056026,42.351065],[-71.056144,42.351097],[-71.056197,42.351078],[-71.056223,42.350999],[-71.056395,42.350655],[-71.056596,42.350156],[-71.056711,42.349709],[-71.056775,42.349199]]],[[[-71.055768,42.35162],[-71.055498,42.351545],[-71.054479,42.351779],[-71.054307,42.351954],[-71.054247,42.352528],[-71.054773,42.352806],[-71.054933,42.352857],[-71.055101,42.352882],[-71.055278,42.352842],[-71.055398,42.352752],[-71.055489,42.352643],[-71.055708,42.352194],[-71.055768,42.35162]]]]},"properties":{"kind":"building"}},{"type":"Feature","geometry":{"type":"MultiPolygon","coordinates":[[[[-71.066058,42.353451],[-71.066047,42.35341],[-71.065983,42.353359],[-71.065989,42.353298],[-71.066013,42.353248],[-71.066048,42.352923],[-71.066021,42.352832],[-71.065999,42.352808],[-71.066022,42.352597],[-71.066,42.352558],[-71.065947,42.352542],[-71.065882,42.352572],[-71.065841,42.352538],[-71.065759,42.35255],[-71.065688,42.352518],[-71.065635,42.352534],[-71.065611,42.352599],[-71.065574,42.352593],[-71.06551,42.352612],[-71.065483,42.35266],[-71.065448,42.353003],[-71.065408,42.353037],[-71.065391,42.353156],[-71.065365,42.353225],[-71.065293,42.353199],[-71.065308,42.353051],[-71.06527,42.353006],[-71.065271,42.352957],[-71.065369,42.352962],[-71.065425,42.352921],[-71.065465,42.352587],[-71.065457,42.352558],[-71.065434,42.352533],[-71.065361,42.35251],[-71.065288,42.352533],[-71.065265,42.352558],[-71.065225,42.352891],[-71.065253,42.352943],[-71.065199,42.352957],[-71.065164,42.353123],[-71.065149,42.353125],[-71.065161,42.353024],[-71.065183,42.352991],[-71.0652,42.352768],[-71.065146,42.352742],[-71.065105,42.352754],[-71.065088,42.352783],[-71.065109,42.352581],[-71.065081,42.35253],[-71.065012,42.352509],[-71.064943,42.35253],[-71.064915,42.352581],[-71.064884,42.352871],[-71.064913,42.352922],[-71.064944,42.352938],[-71.065019,42.352938],[-71.065002,42.353162],[-71.06493,42.353197],[-71.064939,42.353107],[-71.064928,42.353066],[-71.064865,42.353015],[-71.06483,42.352952],[-71.064791,42.352933],[-71.064699,42.352933],[-71.064634,42.352981],[-71.0646,42.353256],[-71.064557,42.353292],[-71.064549,42.353323],[-71.064502,42.353803],[-71.064468,42.35378],[-71.064478,42.353622],[-71.064443,42.353596],[-71.064372,42.353606],[-71.06435,42.35367],[-71.064324,42.353692],[-71.064316,42.353739],[-71.064284,42.353761],[-71.06421,42.354123],[-71.064149,42.354121],[-71.064109,42.354151],[-71.064097,42.354232],[-71.064069,42.35427],[-71.064061,42.354343],[-71.064005,42.354344],[-71.063961,42.354376],[-71.063951,42.354439],[-71.063903,42.354482],[-71.063879,42.354645],[-71.063818,42.354663],[-71.063791,42.35473],[-71.063755,42.354758],[-71.063729,42.35505],[-71.063771,42.355081],[-71.063831,42.355081],[-71.063933,42.354977],[-71.064,42.354991],[-71.064056,42.354983],[-71.064135,42.354925],[-71.06417,42.35495],[-71.064212,42.35495],[-71.064207,42.355015],[-71.064228,42.355053],[-71.064306,42.355064],[-71.064344,42.355035],[-71.064359,42.354932],[-71.0644,42.354932],[-71.06443,42.35491],[-71.06444,42.354842],[-71.064474,42.354852],[-71.064511,42.35484],[-71.06453,42.354772],[-71.064625,42.354833],[-71.064699,42.354835],[-71.064693,42.354891],[-71.064724,42.354901],[-71.064737,42.354819],[-71.064773,42.35476],[-71.064806,42.354449],[-71.064798,42.354419],[-71.064756,42.354384],[-71.064764,42.354303],[-71.06475,42.354274],[-71.064765,42.354256],[-71.064807,42.354272],[-71.064802,42.354369],[-71.064841,42.35439],[-71.064818,42.354474],[-71.064791,42.354729],[-71.064788,42.354912],[-71.064734,42.354932],[-71.064703,42.354986],[-71.064679,42.35532],[-71.064735,42.355361],[-71.064775,42.355367],[-71.064815,42.355361],[-71.064871,42.35532],[-71.064906,42.355035],[-71.064958,42.35501],[-71.064978,42.354839],[-71.065038,42.354848],[-71.065022,42.354999],[-71.065045,42.35504],[-71.065134,42.355077],[-71.06521,42.355067],[-71.065231,42.355111],[-71.065284,42.355127],[-71.065353,42.355093],[-71.065363,42.355029],[-71.065417,42.355032],[-71.0654,42.355189],[-71.06541,42.355224],[-71.065476,42.355274],[-71.065524,42.35528],[-71.065611,42.355254],[-71.065647,42.355189],[-71.065675,42.354921],[-71.065747,42.354917],[-71.065817,42.354865],[-71.065865,42.354468],[-71.065855,42.354431],[-71.065785,42.354379],[-71.065685,42.354379],[-71.065643,42.3544],[-71.065605,42.354468],[-71.065575,42.354754],[-71.065485,42.354773],[-71.065466,42.354722],[-71.065418,42.354708],[-71.065362,42.354731],[-71.065327,42.354655],[-71.065232,42.354615],[-71.065147,42.354627],[-71.065121,42.354694],[-71.065096,42.354698],[-71.065103,42.354592],[-71.065065,42.35455],[-71.065067,42.354458],[-71.065049,42.354426],[-71.065078,42.354385],[-71.065091,42.354256],[-71.065112,42.354248],[-71.065114,42.354287],[-71.065168,42.354313],[-71.065222,42.354287],[-71.065233,42.35421],[-71.065292,42.354238],[-71.065338,42.354224],[-71.065357,42.35419],[-71.065368,42.354084],[-71.065417,42.354107],[-71.065468,42.354082],[-71.065483,42.35396],[-71.06548,42.354073],[-71.065528,42.354097],[-71.065576,42.354073],[-71.065604,42.353962],[-71.065625,42.353756],[-71.065608,42.353725],[-71.065572,42.353714],[-71.065593,42.353513],[-71.065617,42.353489],[-71.06563,42.353403],[-71.065649,42.353401],[-71.065654,42.353434],[-71.065696,42.353465],[-71.065707,42.353529],[-71.065754,42.353564],[-71.065728,42.353811],[-71.065739,42.353853],[-71.065818,42.353911],[-71.065874,42.353919],[-71.06593,42.353911],[-71.066009,42.353853],[-71.066058,42.353451]],[[-71.065275,42.353764],[-71.065265,42.353858],[-71.065249,42.35385],[-71.06526,42.353766],[-71.065275,42.353764]],[[-71.065162,42.353906],[-71.065155,42.353972],[-71.065096,42.353943],[-71.065036,42.353973],[-71.065015,42.354141],[-71.064983,42.354179],[-71.064961,42.354385],[-71.064978,42.354416],[-71.064941,42.354424],[-71.064955,42.354294],[-71.06494,42.354267],[-71.064906,42.354256],[-71.064935,42.35396],[-71.064929,42.353937],[-71.064885,42.353905],[-71.064823,42.353905],[-71.064781,42.353935],[-71.064779,42.353878],[-71.0647,42.353833],[-71.064742,42.353588],[-71.064811,42.353595],[-71.064869,42.353532],[-71.06485,42.353712],[-71.064894,42.353761],[-71.064972,42.35375],[-71.064993,42.353712],[-71.065,42.353641],[-71.065027,42.353637],[-71.065008,42.353819],[-71.065018,42.353854],[-71.065084,42.353904],[-71.065162,42.353906]],[[-71.065115,42.353204],[-71.065114,42.353206],[-71.065114,42.353205],[-71.065115,42.353204]],[[-71.065078,42.352873],[-71.065078,42.352878],[-71.065077,42.352878],[-71.065078,42.352873]],[[-71.064632,42.354289],[-71.064622,42.354357],[-71.064608,42.354357],[-71.064614,42.354296],[-71.064632,42.354289]],[[-71.064446,42.3545],[-71.064443,42.35453],[-71.064385,42.354522],[-71.064392,42.354453],[-71.064446,42.3545]],[[-71.064417,42.354137],[-71.064404,42.354261],[-71.06437,42.354211],[-71.064393,42.354143],[-71.064417,42.354137]]],[[[-71.066046,42.354972],[-71.066004,42.354925],[-71.065952,42.354925],[-71.065915,42.354953],[-71.065886,42.355199],[-71.065928,42.355246],[-71.06598,42.355246],[-71.066017,42.355219],[-71.066046,42.354972]]],[[[-71.06602,42.354061],[-71.065996,42.354034],[-71.065953,42.354041],[-71.065935,42.354132],[-71.065938,42.354081],[-71.065923,42.354056],[-71.06587,42.354048],[-71.065844,42.354067],[-71.065821,42.354266],[-71.065835,42.354292],[-71.06587,42.354302],[-71.065913,42.354282],[-71.065942,42.354291],[-71.065958,42.354253],[-71.066,42.354236],[-71.06602,42.354061]]],[[[-71.06583,42.348038],[-71.06579,42.347994],[-71.06574,42.347994],[-71.065705,42.34802],[-71.065659,42.348379],[-71.065671,42.348404],[-71.065626,42.348429],[-71.0656,42.348652],[-71.065636,42.348692],[-71.065681,42.348692],[-71.065712,42.348669],[-71.065738,42.348446],[-71.065724,42.348418],[-71.065765,42.348395],[-71.065778,42.348297],[-71.065802,42.348277],[-71.06583,42.348038]]],[[[-71.065764,42.353939],[-71.065749,42.353914],[-71.065696,42.353906],[-71.06567,42.353925],[-71.065665,42.353954],[-71.065619,42.353976],[-71.065596,42.354175],[-71.06561,42.354201],[-71.065663,42.354208],[-71.065689,42.354189],[-71.065695,42.35416],[-71.06574,42.354138],[-71.065764,42.353939]]],[[[-71.065598,42.348957],[-71.06558,42.348944],[-71.065562,42.348957],[-71.065558,42.349054],[-71.065589,42.349044],[-71.065598,42.348957]]],[[[-71.065588,42.351223],[-71.06557,42.35121],[-71.065552,42.351223],[-71.06554,42.351331],[-71.065559,42.351345],[-71.065577,42.351331],[-71.065588,42.351223]]],[[[-71.065562,42.349094],[-71.065544,42.349081],[-71.065526,42.349094],[-71.065522,42.349191],[-71.065553,42.349181],[-71.065562,42.349094]]],[[[-71.065559,42.349236],[-71.065529,42.349203],[-71.065491,42.349203],[-71.065465,42.349222],[-71.065444,42.349396],[-71.065475,42.349429],[-71.065512,42.349429],[-71.065538,42.34941],[-71.065559,42.349236]]],[[[-71.065552,42.348316],[-71.065514,42.348274],[-71.065466,42.348274],[-71.065433,42.348299],[-71.065406,42.348529],[-71.06543,42.348587],[-71.065463,42.348587],[-71.065525,42.348547],[-71.065552,42.348316]]],[[[-71.065548,42.34811],[-71.06553,42.348097],[-71.065512,42.34811],[-71.065507,42.348214],[-71.065538,42.348204],[-71.065548,42.34811]]],[[[-71.065433,42.34879],[-71.065403,42.348757],[-71.065365,42.348757],[-71.065339,42.348776],[-71.065314,42.349036],[-71.065281,42.34907],[-71.065262,42.349255],[-71.065292,42.349288],[-71.065329,42.349288],[-71.065355,42.349269],[-71.065391,42.348981],[-71.065416,42.34895],[-71.065433,42.34879]]],[[[-71.065368,42.35121],[-71.06535,42.351197],[-71.065332,42.35121],[-71.065326,42.351321],[-71.065358,42.351311],[-71.065368,42.35121]]],[[[-71.065268,42.35121],[-71.06525,42.351197],[-71.065232,42.35121],[-71.065227,42.351314],[-71.065258,42.351304],[-71.065268,42.35121]]],[[[-71.065176,42.35072],[-71.06515,42.350701],[-71.065126,42.350713],[-71.065119,42.350766],[-71.065099,42.350784],[-71.065083,42.350985],[-71.065111,42.350985],[-71.065141,42.350874],[-71.065162,42.350856],[-71.065176,42.35072]]],[[[-71.064944,42.35131],[-71.064926,42.351297],[-71.064908,42.35131],[-71.064902,42.351421],[-71.064934,42.351411],[-71.064944,42.35131]]],[[[-71.064857,42.348456],[-71.064839,42.348443],[-71.064821,42.348456],[-71.064816,42.34856],[-71.064847,42.34855],[-71.064857,42.348456]]],[[[-71.064624,42.351826],[-71.064606,42.351813],[-71.064588,42.351826],[-71.064583,42.35193],[-71.064614,42.35192],[-71.064624,42.351826]]],[[[-71.064621,42.348425],[-71.064603,42.348412],[-71.064585,42.348425],[-71.06458,42.348529],[-71.064611,42.348519],[-71.064621,42.348425]]],[[[-71.064568,42.352055],[-71.06455,42.352042],[-71.064532,42.352055],[-71.064502,42.352254],[-71.06452,42.352268],[-71.06455,42.352232],[-71.064568,42.352055]]],[[[-71.064436,42.348399],[-71.064418,42.348386],[-71.0644,42.348399],[-71.064395,42.348503],[-71.064426,42.348493],[-71.064436,42.348399]]],[[[-71.064238,42.350925],[-71.06422,42.350912],[-71.064202,42.350925],[-71.064197,42.351029],[-71.064228,42.351019],[-71.064238,42.350925]]],[[[-71.064209,42.34872],[-71.064186,42.348703],[-71.064163,42.34872],[-71.064152,42.348827],[-71.064132,42.34884],[-71.064125,42.348965],[-71.064151,42.348965],[-71.064166,42.348865],[-71.064193,42.348856],[-71.064209,42.34872]]],[[[-71.064148,42.350914],[-71.06413,42.350901],[-71.064112,42.350914],[-71.064107,42.351018],[-71.064138,42.351008],[-71.064148,42.350914]]],[[[-71.064088,42.3533],[-71.064057,42.35329],[-71.064043,42.35338],[-71.064011,42.35339],[-71.064003,42.353522],[-71.064031,42.353522],[-71.064046,42.353425],[-71.064076,42.353415],[-71.064088,42.3533]]],[[[-71.064082,42.350914],[-71.064062,42.350892],[-71.06402,42.350905],[-71.064002,42.351064],[-71.064022,42.351086],[-71.064064,42.351073],[-71.064082,42.350914]]],[[[-71.064013,42.353283],[-71.063982,42.353273],[-71.063967,42.353372],[-71.063946,42.353386],[-71.063933,42.353508],[-71.063952,42.353523],[-71.063972,42.353508],[-71.063982,42.353411],[-71.064001,42.353398],[-71.064013,42.353283]]],[[[-71.063998,42.35376],[-71.06398,42.353747],[-71.063962,42.35376],[-71.06395,42.353875],[-71.063968,42.353889],[-71.063986,42.353875],[-71.063998,42.35376]]],[[[-71.063973,42.350903],[-71.063949,42.350876],[-71.063898,42.350892],[-71.063878,42.351067],[-71.063902,42.351094],[-71.063953,42.351078],[-71.063973,42.350903]]],[[[-71.063943,42.353268],[-71.06392,42.353251],[-71.063897,42.353268],[-71.06388,42.353489],[-71.063898,42.353503],[-71.063916,42.353489],[-71.063943,42.353268]]],[[[-71.063922,42.353967],[-71.063902,42.353945],[-71.06386,42.353958],[-71.063842,42.354117],[-71.063862,42.354139],[-71.063904,42.354126],[-71.063922,42.353967]]],[[[-71.063915,42.348675],[-71.063882,42.348665],[-71.063871,42.348726],[-71.063847,42.348743],[-71.063837,42.348793],[-71.063828,42.348992],[-71.063847,42.349007],[-71.063867,42.348992],[-71.063915,42.348675]]],[[[-71.063821,42.349148],[-71.063803,42.349135],[-71.063785,42.349148],[-71.06378,42.349252],[-71.063811,42.349242],[-71.063821,42.349148]]],[[[-71.063816,42.35412],[-71.06379,42.354101],[-71.063766,42.354113],[-71.063757,42.35427],[-71.0638,42.354263],[-71.063816,42.35412]]],[[[-71.063808,42.348427],[-71.06379,42.348414],[-71.063772,42.348427],[-71.063767,42.348531],[-71.063798,42.348521],[-71.063808,42.348427]]],[[[-71.063768,42.349293],[-71.06375,42.34928],[-71.063732,42.349293],[-71.063714,42.349439],[-71.063745,42.349429],[-71.063768,42.349293]]],[[[-71.063718,42.34841],[-71.0637,42.348397],[-71.063682,42.34841],[-71.063677,42.348514],[-71.063708,42.348504],[-71.063718,42.34841]]],[[[-71.063707,42.350883],[-71.063687,42.350861],[-71.063645,42.350874],[-71.063627,42.351033],[-71.063647,42.351055],[-71.063689,42.351042],[-71.063707,42.350883]]],[[[-71.063689,42.34976],[-71.06367,42.349746],[-71.063651,42.34976],[-71.063638,42.349882],[-71.063657,42.349897],[-71.063677,42.349882],[-71.063689,42.34976]]],[[[-71.063632,42.349854],[-71.063614,42.349841],[-71.063596,42.349854],[-71.063584,42.349969],[-71.063602,42.349983],[-71.06362,42.349969],[-71.063632,42.349854]]],[[[-71.063613,42.350876],[-71.06359,42.350859],[-71.063567,42.350876],[-71.06356,42.351017],[-71.063599,42.351005],[-71.063613,42.350876]]],[[[-71.063579,42.34995],[-71.063546,42.34994],[-71.063537,42.349987],[-71.063513,42.349995],[-71.063505,42.350125],[-71.063531,42.350125],[-71.063539,42.350085],[-71.063565,42.350078],[-71.063579,42.34995]]],[[[-71.063569,42.3547],[-71.063539,42.354667],[-71.063486,42.354675],[-71.063465,42.354765],[-71.063415,42.354786],[-71.063394,42.35496],[-71.063409,42.354986],[-71.063443,42.354996],[-71.063478,42.354986],[-71.063499,42.354895],[-71.063548,42.354874],[-71.063569,42.3547]]],[[[-71.063546,42.350864],[-71.06352,42.350845],[-71.063496,42.350857],[-71.063487,42.351014],[-71.06353,42.351007],[-71.063546,42.350864]]],[[[-71.063458,42.350418],[-71.063427,42.350408],[-71.063392,42.350538],[-71.063368,42.350545],[-71.063362,42.3506],[-71.063332,42.35061],[-71.06331,42.350908],[-71.06332,42.350962],[-71.063346,42.350981],[-71.06337,42.350969],[-71.063386,42.350826],[-71.063363,42.350661],[-71.063387,42.350661],[-71.063397,42.350607],[-71.063421,42.3506],[-71.063428,42.350547],[-71.063446,42.350533],[-71.063458,42.350418]]],[[[-71.063458,42.35018],[-71.063427,42.35017],[-71.063416,42.350233],[-71.063368,42.350275],[-71.063361,42.350398],[-71.063387,42.350398],[-71.063394,42.350367],[-71.063415,42.350359],[-71.063422,42.350301],[-71.063445,42.350293],[-71.063458,42.35018]]],[[[-71.063328,42.35044],[-71.063297,42.35043],[-71.063288,42.350471],[-71.063263,42.350478],[-71.063258,42.350523],[-71.063237,42.350536],[-71.063233,42.350569],[-71.063213,42.350577],[-71.063188,42.350665],[-71.063163,42.350672],[-71.063139,42.350753],[-71.063112,42.350759],[-71.063103,42.350897],[-71.063131,42.350897],[-71.063141,42.350847],[-71.063165,42.35084],[-71.063173,42.350777],[-71.063216,42.350745],[-71.06324,42.350657],[-71.06326,42.350649],[-71.063266,42.350604],[-71.063287,42.350591],[-71.063291,42.350553],[-71.063316,42.350546],[-71.063328,42.35044]]],[[[-71.063144,42.352238],[-71.063126,42.352225],[-71.063108,42.352238],[-71.063102,42.352349],[-71.063134,42.352339],[-71.063144,42.352238]]],[[[-71.063083,42.35225],[-71.063065,42.352237],[-71.063047,42.35225],[-71.063041,42.352361],[-71.063073,42.352351],[-71.063083,42.35225]]],[[[-71.062983,42.352253],[-71.062965,42.35224],[-71.062947,42.352253],[-71.062941,42.352364],[-71.062973,42.352354],[-71.062983,42.352253]]],[[[-71.062922,42.35222],[-71.062904,42.352207],[-71.062886,42.35222],[-71.062874,42.352328],[-71.062893,42.352342],[-71.062911,42.352328],[-71.062922,42.35222]]],[[[-71.062848,42.352215],[-71.06283,42.352202],[-71.062812,42.352215],[-71.062806,42.352326],[-71.062838,42.352316],[-71.062848,42.352215]]],[[[-71.062829,42.353302],[-71.062829,42.353214],[-71.06281,42.3532],[-71.062791,42.353214],[-71.062778,42.353336],[-71.062778,42.353424],[-71.062797,42.353439],[-71.062817,42.353424],[-71.062829,42.353302]]],[[[-71.062763,42.353207],[-71.062744,42.353193],[-71.062725,42.353207],[-71.062704,42.353435],[-71.062726,42.353452],[-71.062749,42.353435],[-71.062763,42.353207]]],[[[-71.062559,42.348354],[-71.06253,42.348332],[-71.062501,42.348354],[-71.062486,42.348497],[-71.062504,42.348517],[-71.062544,42.348497],[-71.062559,42.348354]]],[[[-71.062496,42.349373],[-71.06247,42.349344],[-71.062415,42.349361],[-71.062394,42.349544],[-71.06242,42.349573],[-71.062475,42.349556],[-71.062496,42.349373]]],[[[-71.062463,42.348557],[-71.06244,42.34854],[-71.062417,42.348557],[-71.06241,42.348698],[-71.062449,42.348686],[-71.062463,42.348557]]],[[[-71.062409,42.348373],[-71.062385,42.348346],[-71.062334,42.348362],[-71.062314,42.348537],[-71.062338,42.348564],[-71.062389,42.348548],[-71.062409,42.348373]]],[[[-71.062392,42.349323],[-71.062366,42.349294],[-71.062311,42.349311],[-71.06229,42.349494],[-71.062316,42.349523],[-71.062371,42.349506],[-71.062392,42.349323]]],[[[-71.062039,42.353752],[-71.06202,42.353738],[-71.062001,42.353752],[-71.061988,42.353874],[-71.062007,42.353889],[-71.062027,42.353874],[-71.062039,42.353752]]],[[[-71.062006,42.349306],[-71.061988,42.349293],[-71.06197,42.349306],[-71.061965,42.34941],[-71.061996,42.3494],[-71.062006,42.349306]]],[[[-71.061988,42.35386],[-71.06197,42.353847],[-71.061952,42.35386],[-71.061947,42.353964],[-71.061978,42.353954],[-71.061988,42.35386]]],[[[-71.061951,42.349438],[-71.06192,42.349428],[-71.061907,42.349514],[-71.061873,42.349515],[-71.061847,42.349534],[-71.061826,42.349708],[-71.061857,42.349741],[-71.061894,42.349741],[-71.06192,42.349722],[-71.061951,42.349438]]],[[[-71.061928,42.34988],[-71.061897,42.34987],[-71.061888,42.349914],[-71.061863,42.349921],[-71.061852,42.350031],[-71.061837,42.350034],[-71.061829,42.350069],[-71.061803,42.350075],[-71.061755,42.350264],[-71.061722,42.350272],[-71.061709,42.350314],[-71.061678,42.350333],[-71.061656,42.350524],[-71.061684,42.350555],[-71.061733,42.350548],[-71.061751,42.350481],[-71.061769,42.350467],[-71.061792,42.350255],[-71.061814,42.350247],[-71.061831,42.350149],[-71.061857,42.350143],[-71.061862,42.350107],[-71.061882,42.350094],[-71.061892,42.349986],[-71.061917,42.349979],[-71.061928,42.34988]]],[[[-71.061924,42.3537],[-71.061905,42.353686],[-71.061886,42.3537],[-71.061858,42.353947],[-71.061877,42.353962],[-71.061897,42.353947],[-71.061924,42.3537]]],[[[-71.061851,42.348312],[-71.061823,42.348281],[-71.061789,42.348281],[-71.061764,42.348299],[-71.061751,42.348408],[-71.061734,42.348421],[-71.061729,42.348525],[-71.061805,42.348521],[-71.061829,42.348503],[-71.061851,42.348312]]],[[[-71.061828,42.353783],[-71.061813,42.35377],[-71.061825,42.353653],[-71.061806,42.353639],[-71.061787,42.353653],[-71.061774,42.353775],[-71.061791,42.353789],[-71.061787,42.353887],[-71.061818,42.353877],[-71.061828,42.353783]]],[[[-71.061766,42.349666],[-71.061736,42.349633],[-71.061698,42.349633],[-71.061672,42.349652],[-71.061651,42.349826],[-71.061682,42.349859],[-71.061719,42.349859],[-71.061745,42.34984],[-71.061766,42.349666]]],[[[-71.061759,42.353607],[-71.061744,42.353582],[-71.06171,42.353571],[-71.061676,42.353582],[-71.061661,42.353607],[-71.061644,42.353767],[-71.061659,42.353793],[-71.061704,42.353802],[-71.061701,42.353832],[-71.061719,42.353846],[-71.061737,42.353832],[-71.061759,42.353607]]],[[[-71.061692,42.348648],[-71.061666,42.348619],[-71.061611,42.348636],[-71.061569,42.348941],[-71.0616,42.348931],[-71.061609,42.348845],[-71.061648,42.348848],[-71.061671,42.348831],[-71.061692,42.348648]]],[[[-71.061645,42.348297],[-71.061629,42.348268],[-71.06159,42.348256],[-71.061597,42.348184],[-71.061566,42.348174],[-71.061535,42.348297],[-71.061514,42.348496],[-71.06153,42.348525],[-71.061568,42.348537],[-71.061562,42.348594],[-71.06158,42.348608],[-71.061598,42.348594],[-71.061605,42.348526],[-71.061624,42.348496],[-71.061645,42.348297]]],[[[-71.061628,42.35355],[-71.06161,42.353537],[-71.061592,42.35355],[-71.06158,42.353658],[-71.061599,42.353672],[-71.061617,42.353658],[-71.061628,42.35355]]],[[[-71.061565,42.34867],[-71.061537,42.348639],[-71.061503,42.348639],[-71.061478,42.348657],[-71.061459,42.348823],[-71.06143,42.348832],[-71.061418,42.348854],[-71.0614,42.349025],[-71.061426,42.349054],[-71.061481,42.349037],[-71.061499,42.348881],[-71.061533,42.348872],[-71.061547,42.348848],[-71.061565,42.34867]]],[[[-71.061548,42.349568],[-71.061518,42.349535],[-71.06148,42.349535],[-71.061454,42.349554],[-71.061433,42.349728],[-71.061464,42.349761],[-71.061501,42.349761],[-71.061527,42.349742],[-71.061548,42.349568]]],[[[-71.061493,42.35095],[-71.06147,42.350933],[-71.061447,42.35095],[-71.06144,42.351091],[-71.061479,42.351079],[-71.061493,42.35095]]],[[[-71.061472,42.34815],[-71.061434,42.348108],[-71.061386,42.348108],[-71.061353,42.348133],[-71.061326,42.348363],[-71.061344,42.348395],[-71.061392,42.34842],[-71.061427,42.348415],[-71.061445,42.348381],[-71.061472,42.34815]]],[[[-71.06145,42.349534],[-71.06142,42.349501],[-71.061359,42.349517],[-71.061368,42.34943],[-71.061337,42.34942],[-71.061322,42.349524],[-71.061352,42.349534],[-71.061335,42.349694],[-71.061366,42.349727],[-71.061403,42.349727],[-71.061429,42.349708],[-71.06145,42.349534]]],[[[-71.061438,42.349255],[-71.06142,42.349242],[-71.061402,42.349255],[-71.06139,42.349363],[-71.061409,42.349377],[-71.061427,42.349363],[-71.061438,42.349255]]],[[[-71.061418,42.351122],[-71.061387,42.351112],[-71.061356,42.351227],[-71.061335,42.35124],[-71.061316,42.351289],[-71.061311,42.351393],[-71.061337,42.351393],[-71.061366,42.351287],[-71.061387,42.351274],[-71.061418,42.351122]]],[[[-71.061399,42.349052],[-71.06138,42.349038],[-71.061361,42.349052],[-71.061348,42.349174],[-71.061367,42.349189],[-71.061387,42.349174],[-71.061399,42.349052]]],[[[-71.061349,42.349228],[-71.06132,42.349206],[-71.061291,42.349228],[-71.061276,42.349371],[-71.061294,42.349391],[-71.061334,42.349371],[-71.061349,42.349228]]],[[[-71.061282,42.34963],[-71.061251,42.34962],[-71.061242,42.349665],[-71.061225,42.349678],[-71.061219,42.349789],[-71.061245,42.349789],[-71.061254,42.349744],[-71.061272,42.349731],[-71.061282,42.34963]]],[[[-71.061244,42.35337],[-71.061226,42.353357],[-71.061208,42.35337],[-71.061203,42.353474],[-71.061234,42.353464],[-71.061244,42.35337]]],[[[-71.061238,42.354774],[-71.06122,42.354761],[-71.061202,42.354774],[-71.061197,42.354878],[-71.061228,42.354868],[-71.061238,42.354774]]],[[[-71.061222,42.34983],[-71.061196,42.349801],[-71.061141,42.349818],[-71.061121,42.349994],[-71.061084,42.349995],[-71.061056,42.350015],[-71.061032,42.350222],[-71.061064,42.350258],[-71.061104,42.350258],[-71.061132,42.350237],[-71.061156,42.350031],[-71.061201,42.350013],[-71.061222,42.34983]]],[[[-71.061188,42.354916],[-71.06117,42.354903],[-71.061152,42.354916],[-71.061147,42.35502],[-71.061178,42.35501],[-71.061188,42.354916]]],[[[-71.061188,42.353344],[-71.06117,42.353331],[-71.061152,42.353344],[-71.061147,42.353448],[-71.061178,42.353438],[-71.061188,42.353344]]],[[[-71.061138,42.35332],[-71.06112,42.353307],[-71.061102,42.35332],[-71.061097,42.353424],[-71.061128,42.353414],[-71.061138,42.35332]]],[[[-71.061048,42.353275],[-71.06103,42.353262],[-71.061012,42.353275],[-71.061,42.353383],[-71.061019,42.353397],[-71.061037,42.353383],[-71.061048,42.353275]]],[[[-71.061038,42.34849],[-71.061007,42.34848],[-71.060994,42.348566],[-71.06096,42.348567],[-71.060932,42.348587],[-71.060886,42.348798],[-71.060858,42.348827],[-71.06084,42.348998],[-71.060866,42.349027],[-71.060912,42.34902],[-71.060929,42.348957],[-71.06098,42.348932],[-71.060994,42.348823],[-71.061012,42.348794],[-71.061038,42.34849]]],[[[-71.060988,42.353363],[-71.06097,42.35335],[-71.060952,42.353363],[-71.060947,42.353467],[-71.060978,42.353457],[-71.060988,42.353363]]],[[[-71.060938,42.35322],[-71.06092,42.353207],[-71.060902,42.35322],[-71.060876,42.353431],[-71.060894,42.353445],[-71.060913,42.353431],[-71.060938,42.35322]]],[[[-71.060862,42.353302],[-71.060844,42.353289],[-71.060826,42.353302],[-71.060821,42.353406],[-71.060852,42.353396],[-71.060862,42.353302]]],[[[-71.060847,42.349174],[-71.060803,42.349125],[-71.060749,42.349125],[-71.06071,42.349154],[-71.060686,42.349354],[-71.060639,42.349376],[-71.060627,42.349473],[-71.060597,42.349506],[-71.060583,42.349639],[-71.060541,42.349637],[-71.060515,42.349656],[-71.060502,42.349761],[-71.060478,42.349792],[-71.060458,42.349984],[-71.06049,42.35002],[-71.06053,42.35002],[-71.060558,42.349999],[-71.060603,42.349722],[-71.060645,42.349724],[-71.060671,42.349705],[-71.060687,42.349583],[-71.060712,42.349564],[-71.060726,42.349457],[-71.060779,42.349457],[-71.060817,42.349428],[-71.060847,42.349174]]],[[[-71.060628,42.34926],[-71.060597,42.34925],[-71.060552,42.349342],[-71.060546,42.349394],[-71.060523,42.349402],[-71.060497,42.349546],[-71.060468,42.349556],[-71.060447,42.349744],[-71.060473,42.349744],[-71.060493,42.349699],[-71.060503,42.349617],[-71.060526,42.349609],[-71.060554,42.349449],[-71.060577,42.349441],[-71.060581,42.349407],[-71.060618,42.349354],[-71.060628,42.34926]]],[[[-71.060598,42.35304],[-71.06058,42.353027],[-71.060562,42.35304],[-71.060557,42.353144],[-71.060588,42.353134],[-71.060598,42.35304]]],[[[-71.060518,42.352997],[-71.0605,42.352984],[-71.060482,42.352997],[-71.060477,42.353101],[-71.060508,42.353091],[-71.060518,42.352997]]],[[[-71.060508,42.353283],[-71.06049,42.35327],[-71.060472,42.353283],[-71.060466,42.353394],[-71.060498,42.353384],[-71.060508,42.353283]]],[[[-71.060504,42.35315],[-71.060486,42.353137],[-71.060468,42.35315],[-71.060463,42.353254],[-71.060494,42.353244],[-71.060504,42.35315]]],[[[-71.060468,42.352974],[-71.06045,42.352961],[-71.060432,42.352974],[-71.060426,42.353085],[-71.060458,42.353075],[-71.060468,42.352974]]],[[[-71.060428,42.3531],[-71.06041,42.353087],[-71.060392,42.3531],[-71.060387,42.353204],[-71.060418,42.353194],[-71.060428,42.3531]]],[[[-71.060419,42.353405],[-71.060413,42.35337],[-71.060365,42.353378],[-71.060322,42.353447],[-71.060312,42.353541],[-71.060348,42.353596],[-71.060399,42.35358],[-71.060419,42.353405]]],[[[-71.060388,42.349884],[-71.06037,42.349871],[-71.060352,42.349884],[-71.060346,42.349995],[-71.060378,42.349985],[-71.060388,42.349884]]],[[[-71.060374,42.35307],[-71.060356,42.353057],[-71.060338,42.35307],[-71.060333,42.353174],[-71.060364,42.353164],[-71.060374,42.35307]]],[[[-71.060318,42.350037],[-71.060287,42.350027],[-71.060276,42.350092],[-71.06022,42.350136],[-71.060199,42.35031],[-71.06023,42.350343],[-71.060267,42.350343],[-71.060293,42.350324],[-71.060318,42.350037]]],[[[-71.060174,42.34947],[-71.06015,42.349443],[-71.060107,42.34945],[-71.060089,42.349535],[-71.060061,42.349556],[-71.060054,42.349618],[-71.060017,42.349634],[-71.059998,42.349801],[-71.06002,42.349826],[-71.060066,42.349811],[-71.060078,42.34972],[-71.060104,42.349699],[-71.060108,42.349662],[-71.060154,42.349645],[-71.060174,42.34947]]],[[[-71.060158,42.352962],[-71.06014,42.352949],[-71.060122,42.352962],[-71.060117,42.353066],[-71.060148,42.353056],[-71.060158,42.352962]]],[[[-71.060105,42.35341],[-71.060077,42.353379],[-71.060043,42.353379],[-71.060018,42.353397],[-71.059996,42.353588],[-71.060024,42.353619],[-71.060059,42.353619],[-71.060083,42.353601],[-71.060105,42.35341]]],[[[-71.059972,42.351044],[-71.059946,42.351015],[-71.059891,42.351032],[-71.05988,42.351117],[-71.059851,42.351128],[-71.059842,42.351285],[-71.059871,42.351289],[-71.05989,42.351241],[-71.059928,42.351244],[-71.059951,42.351227],[-71.059972,42.351044]]],[[[-71.059858,42.3533],[-71.05984,42.353287],[-71.059822,42.3533],[-71.059817,42.353404],[-71.059848,42.353394],[-71.059858,42.3533]]],[[[-71.059822,42.35326],[-71.059796,42.353231],[-71.059741,42.353248],[-71.05972,42.353431],[-71.059746,42.35346],[-71.059801,42.353443],[-71.059822,42.35326]]],[[[-71.059758,42.352753],[-71.05974,42.35274],[-71.059722,42.352753],[-71.059716,42.352864],[-71.059748,42.352854],[-71.059758,42.352753]]],[[[-71.059688,42.352737],[-71.05967,42.352724],[-71.059652,42.352737],[-71.059646,42.352848],[-71.059678,42.352838],[-71.059688,42.352737]]],[[[-71.059669,42.354954],[-71.059629,42.354934],[-71.059573,42.354873],[-71.059527,42.354873],[-71.059502,42.35504],[-71.059511,42.355057],[-71.059562,42.355092],[-71.059597,42.355087],[-71.059614,42.355117],[-71.059646,42.355112],[-71.059669,42.354954]]],[[[-71.059649,42.35171],[-71.059619,42.351677],[-71.059581,42.351677],[-71.059555,42.351696],[-71.059534,42.35187],[-71.059565,42.351903],[-71.059602,42.351903],[-71.059628,42.351884],[-71.059649,42.35171]]],[[[-71.059634,42.35273],[-71.059616,42.352717],[-71.059598,42.35273],[-71.059592,42.352841],[-71.059624,42.352831],[-71.059634,42.35273]]],[[[-71.059589,42.352783],[-71.059559,42.35275],[-71.059521,42.35275],[-71.059495,42.352769],[-71.059474,42.352943],[-71.059505,42.352976],[-71.059542,42.352976],[-71.059568,42.352957],[-71.059589,42.352783]]],[[[-71.059562,42.3516],[-71.059542,42.351578],[-71.0595,42.351591],[-71.059482,42.35175],[-71.059493,42.351832],[-71.059512,42.351847],[-71.059532,42.351832],[-71.059562,42.3516]]],[[[-71.059518,42.351097],[-71.059487,42.351087],[-71.059475,42.351163],[-71.059442,42.35117],[-71.059437,42.351274],[-71.059468,42.351264],[-71.059475,42.351199],[-71.059508,42.351191],[-71.059518,42.351097]]],[[[-71.059482,42.354813],[-71.059473,42.354796],[-71.059438,42.354791],[-71.059389,42.354714],[-71.059339,42.354714],[-71.059315,42.3549],[-71.059361,42.354941],[-71.059397,42.354946],[-71.059411,42.35498],[-71.059457,42.35498],[-71.059482,42.354813]]],[[[-71.059456,42.351627],[-71.05943,42.351608],[-71.059406,42.35162],[-71.059397,42.351777],[-71.05944,42.35177],[-71.059456,42.351627]]],[[[-71.059428,42.3531],[-71.05941,42.353087],[-71.059418,42.35301],[-71.059387,42.353],[-71.059372,42.353104],[-71.05939,42.353118],[-71.059387,42.353204],[-71.059418,42.353194],[-71.059428,42.3531]]],[[[-71.059387,42.351704],[-71.059364,42.351687],[-71.059341,42.351704],[-71.059334,42.351845],[-71.059373,42.351833],[-71.059387,42.351704]]],[[[-71.059323,42.35178],[-71.0593,42.351763],[-71.059277,42.35178],[-71.05927,42.351921],[-71.059309,42.351909],[-71.059323,42.35178]]],[[[-71.059219,42.35129],[-71.059183,42.35123],[-71.059159,42.35123],[-71.059129,42.351197],[-71.059091,42.351197],[-71.059065,42.351216],[-71.059042,42.351415],[-71.059072,42.351448],[-71.059057,42.351503],[-71.059016,42.35151],[-71.059005,42.351602],[-71.058984,42.35158],[-71.058945,42.351585],[-71.058909,42.351671],[-71.058867,42.351673],[-71.058855,42.351712],[-71.058825,42.351719],[-71.058813,42.351755],[-71.058767,42.35177],[-71.058761,42.351813],[-71.058688,42.351825],[-71.058673,42.351884],[-71.058637,42.351889],[-71.058627,42.351914],[-71.058599,42.351924],[-71.058594,42.351959],[-71.058491,42.351968],[-71.058447,42.352041],[-71.058397,42.35205],[-71.058388,42.352096],[-71.058377,42.352085],[-71.058353,42.352092],[-71.058341,42.352198],[-71.058372,42.352208],[-71.058383,42.352148],[-71.058376,42.352252],[-71.058389,42.352276],[-71.058439,42.352283],[-71.058463,42.352265],[-71.058469,42.352232],[-71.058548,42.352225],[-71.058564,42.352196],[-71.058577,42.352074],[-71.058657,42.352078],[-71.058679,42.352033],[-71.058726,42.35203],[-71.058745,42.35194],[-71.05877,42.351962],[-71.058797,42.351962],[-71.058821,42.35192],[-71.058866,42.351905],[-71.058872,42.351864],[-71.058904,42.351849],[-71.058914,42.351767],[-71.058953,42.351788],[-71.058986,42.351771],[-71.059,42.351655],[-71.059026,42.351672],[-71.05905,42.35166],[-71.059061,42.351565],[-71.059121,42.351578],[-71.059165,42.351556],[-71.059173,42.351507],[-71.059199,42.351475],[-71.059219,42.35129]]],[[[-71.059184,42.353294],[-71.059166,42.353281],[-71.059148,42.353294],[-71.059143,42.353398],[-71.059174,42.353388],[-71.059184,42.353294]]],[[[-71.059092,42.354385],[-71.059072,42.354363],[-71.05903,42.354376],[-71.059012,42.354535],[-71.059032,42.354557],[-71.059074,42.354544],[-71.059092,42.354385]]],[[[-71.059088,42.353287],[-71.05907,42.353274],[-71.059052,42.353287],[-71.059047,42.353391],[-71.059078,42.353381],[-71.059088,42.353287]]],[[[-71.059018,42.354332],[-71.059,42.354319],[-71.058982,42.354332],[-71.058977,42.354436],[-71.059008,42.354426],[-71.059018,42.354332]]],[[[-71.058998,42.353283],[-71.05898,42.35327],[-71.058962,42.353283],[-71.058957,42.353387],[-71.058988,42.353377],[-71.058998,42.353283]]],[[[-71.058959,42.35429],[-71.05894,42.354276],[-71.058921,42.35429],[-71.058908,42.354412],[-71.058927,42.354427],[-71.058947,42.354412],[-71.058959,42.35429]]],[[[-71.058864,42.353268],[-71.058846,42.353255],[-71.058828,42.353268],[-71.058823,42.353372],[-71.058854,42.353362],[-71.058864,42.353268]]],[[[-71.058758,42.353268],[-71.05874,42.353255],[-71.058722,42.353268],[-71.058717,42.353372],[-71.058748,42.353362],[-71.058758,42.353268]]],[[[-71.058568,42.35253],[-71.05855,42.352517],[-71.058532,42.35253],[-71.058527,42.352634],[-71.058558,42.352624],[-71.058568,42.35253]]],[[[-71.058508,42.352524],[-71.058494,42.35247],[-71.058466,42.35247],[-71.058448,42.352602],[-71.058467,42.352628],[-71.058498,42.352618],[-71.058508,42.352524]]],[[[-71.058428,42.352528],[-71.05841,42.352515],[-71.058392,42.352528],[-71.058386,42.352639],[-71.058418,42.352629],[-71.058428,42.352528]]],[[[-71.058388,42.35247],[-71.058357,42.35246],[-71.058347,42.352515],[-71.058313,42.352515],[-71.058307,42.352624],[-71.058333,42.352624],[-71.058343,42.352569],[-71.058377,42.352569],[-71.058388,42.35247]]],[[[-71.058288,42.35091],[-71.05827,42.350897],[-71.058252,42.35091],[-71.058247,42.351014],[-71.058278,42.351004],[-71.058288,42.35091]]],[[[-71.058278,42.352467],[-71.05826,42.352454],[-71.058242,42.352467],[-71.058222,42.352606],[-71.05824,42.35262],[-71.058258,42.352606],[-71.058278,42.352467]]],[[[-71.058218,42.350887],[-71.0582,42.350874],[-71.058182,42.350887],[-71.058177,42.350991],[-71.058208,42.350981],[-71.058218,42.350887]]],[[[-71.058038,42.352665],[-71.05802,42.352652],[-71.058002,42.352665],[-71.057986,42.352862],[-71.058004,42.352876],[-71.058022,42.352862],[-71.058038,42.352665]]],[[[-71.058008,42.352905],[-71.05799,42.352892],[-71.057972,42.352905],[-71.057967,42.353009],[-71.057998,42.352999],[-71.058008,42.352905]]],[[[-71.057803,42.350693],[-71.057785,42.35068],[-71.057767,42.350693],[-71.057762,42.350797],[-71.057793,42.350787],[-71.057803,42.350693]]],[[[-71.057758,42.350677],[-71.05774,42.350664],[-71.057722,42.350677],[-71.057717,42.350781],[-71.057748,42.350771],[-71.057758,42.350677]]],[[[-71.05775,42.352226],[-71.057724,42.352207],[-71.0577,42.352219],[-71.057691,42.352376],[-71.057734,42.352369],[-71.05775,42.352226]]],[[[-71.057623,42.35219],[-71.057594,42.352168],[-71.057565,42.35219],[-71.05755,42.352333],[-71.057568,42.352353],[-71.057608,42.352333],[-71.057623,42.35219]]],[[[-71.057536,42.35216],[-71.05751,42.352141],[-71.057486,42.352153],[-71.057477,42.35231],[-71.05752,42.352303],[-71.057536,42.35216]]],[[[-71.057456,42.35214],[-71.05743,42.352121],[-71.057406,42.352133],[-71.057397,42.35229],[-71.05744,42.352283],[-71.057456,42.35214]]],[[[-71.057414,42.350403],[-71.057396,42.35039],[-71.057378,42.350403],[-71.057352,42.350588],[-71.05737,42.350602],[-71.057388,42.350588],[-71.057414,42.350403]]],[[[-71.057369,42.35211],[-71.05734,42.352088],[-71.057311,42.35211],[-71.057296,42.352253],[-71.057314,42.352273],[-71.057354,42.352253],[-71.057369,42.35211]]],[[[-71.057348,42.351707],[-71.05733,42.351694],[-71.057312,42.351707],[-71.057292,42.351844],[-71.05731,42.351858],[-71.057338,42.351808],[-71.057348,42.351707]]],[[[-71.057309,42.351897],[-71.057291,42.351884],[-71.057273,42.351897],[-71.057253,42.352042],[-71.057271,42.352056],[-71.057289,42.352042],[-71.057309,42.351897]]],[[[-71.057298,42.350925],[-71.05728,42.350912],[-71.057262,42.350925],[-71.05725,42.351033],[-71.057269,42.351047],[-71.057287,42.351033],[-71.057298,42.350925]]],[[[-71.057268,42.351063],[-71.05725,42.35105],[-71.057232,42.351063],[-71.05722,42.351171],[-71.057239,42.351185],[-71.057257,42.351171],[-71.057268,42.351063]]],[[[-71.057208,42.35141],[-71.05719,42.351397],[-71.057172,42.35141],[-71.057167,42.351514],[-71.057198,42.351504],[-71.057208,42.35141]]],[[[-71.057198,42.35055],[-71.05718,42.350537],[-71.057162,42.35055],[-71.057157,42.350654],[-71.057188,42.350644],[-71.057198,42.35055]]],[[[-71.057147,42.350632],[-71.057129,42.350619],[-71.057111,42.350632],[-71.057106,42.350736],[-71.057137,42.350726],[-71.057147,42.350632]]],[[[-71.057094,42.350533],[-71.057076,42.35052],[-71.057058,42.350533],[-71.057053,42.350637],[-71.057084,42.350627],[-71.057094,42.350533]]],[[[-71.057038,42.34984],[-71.057007,42.34983],[-71.056998,42.34988],[-71.05696,42.349894],[-71.056942,42.350053],[-71.056962,42.350075],[-71.057004,42.350062],[-71.057038,42.34984]]],[[[-71.056868,42.352028],[-71.05685,42.352015],[-71.056832,42.352028],[-71.05682,42.352143],[-71.056838,42.352157],[-71.056856,42.352143],[-71.056868,42.352028]]],[[[-71.056834,42.35023],[-71.056803,42.35022],[-71.056791,42.350296],[-71.056762,42.350307],[-71.056757,42.350411],[-71.056783,42.350411],[-71.056795,42.350335],[-71.056824,42.350324],[-71.056834,42.35023]]],[[[-71.056829,42.34976],[-71.056805,42.349733],[-71.056754,42.349749],[-71.056723,42.349879],[-71.05668,42.349901],[-71.05667,42.349971],[-71.056635,42.349992],[-71.056594,42.350162],[-71.05656,42.350176],[-71.056542,42.350335],[-71.056562,42.350357],[-71.056604,42.350344],[-71.056615,42.350259],[-71.056636,42.350252],[-71.056648,42.3502],[-71.056698,42.350192],[-71.056718,42.35011],[-71.056753,42.350089],[-71.056781,42.349952],[-71.056812,42.349924],[-71.056829,42.34976]]],[[[-71.056748,42.351994],[-71.05673,42.351981],[-71.056712,42.351994],[-71.0567,42.352102],[-71.056719,42.352116],[-71.056737,42.352102],[-71.056748,42.351994]]],[[[-71.056643,42.350613],[-71.056612,42.350603],[-71.056601,42.350669],[-71.056572,42.35068],[-71.056565,42.350805],[-71.056591,42.350805],[-71.056602,42.350739],[-71.056631,42.350728],[-71.056643,42.350613]]],[[[-71.056626,42.353203],[-71.0566,42.353184],[-71.056576,42.353196],[-71.056567,42.353353],[-71.05661,42.353346],[-71.056626,42.353203]]],[[[-71.056559,42.353165],[-71.05654,42.353151],[-71.056521,42.353165],[-71.056508,42.353287],[-71.056527,42.353302],[-71.056547,42.353287],[-71.056559,42.353165]]],[[[-71.056559,42.350834],[-71.056529,42.350801],[-71.056491,42.350801],[-71.056465,42.35082],[-71.056444,42.350994],[-71.056475,42.351027],[-71.056512,42.351027],[-71.056538,42.351008],[-71.056559,42.350834]]],[[[-71.056484,42.353127],[-71.056465,42.353113],[-71.056446,42.353127],[-71.056433,42.353249],[-71.056452,42.353264],[-71.056472,42.353249],[-71.056484,42.353127]]],[[[-71.056468,42.35192],[-71.05645,42.351907],[-71.056432,42.35192],[-71.05642,42.352035],[-71.056438,42.352049],[-71.056456,42.352035],[-71.056468,42.35192]]],[[[-71.056428,42.35103],[-71.056397,42.35102],[-71.056386,42.351084],[-71.056363,42.351092],[-71.056355,42.351164],[-71.056329,42.351171],[-71.056323,42.35128],[-71.056349,42.35128],[-71.056359,42.351224],[-71.056385,42.351217],[-71.056394,42.351137],[-71.056417,42.351129],[-71.056428,42.35103]]],[[[-71.056393,42.35309],[-71.05637,42.353073],[-71.056347,42.35309],[-71.05634,42.353231],[-71.056379,42.353219],[-71.056393,42.35309]]],[[[-71.056388,42.3519],[-71.05637,42.351887],[-71.056352,42.3519],[-71.056348,42.351997],[-71.056379,42.351987],[-71.056388,42.3519]]],[[[-71.056338,42.35493],[-71.05632,42.354917],[-71.056328,42.354836],[-71.05631,42.354823],[-71.056306,42.35467],[-71.05627,42.354652],[-71.056256,42.354663],[-71.05624,42.354806],[-71.056263,42.354825],[-71.056258,42.354872],[-71.056277,42.354887],[-71.05628,42.354951],[-71.056298,42.354965],[-71.05629,42.355045],[-71.056308,42.355059],[-71.056326,42.355045],[-71.056338,42.35493]]],[[[-71.056258,42.351376],[-71.056227,42.351366],[-71.0562,42.351439],[-71.056172,42.35145],[-71.056166,42.351561],[-71.056192,42.351561],[-71.056201,42.351523],[-71.056223,42.351522],[-71.056248,42.351477],[-71.056258,42.351376]]],[[[-71.056256,42.350842],[-71.056238,42.350829],[-71.05622,42.350842],[-71.05618,42.351026],[-71.05615,42.351036],[-71.056139,42.351134],[-71.056113,42.35114],[-71.056105,42.35127],[-71.056136,42.35126],[-71.056146,42.351162],[-71.056173,42.351156],[-71.056184,42.351058],[-71.056214,42.351048],[-71.056222,42.35097],[-71.056243,42.350962],[-71.056256,42.350842]]],[[[-71.056248,42.35305],[-71.05623,42.353037],[-71.056212,42.35305],[-71.056207,42.353154],[-71.056238,42.353144],[-71.056248,42.35305]]],[[[-71.056078,42.35171],[-71.05606,42.351697],[-71.056042,42.35171],[-71.056036,42.351821],[-71.056068,42.351811],[-71.056078,42.35171]]],[[[-71.055977,42.351355],[-71.055946,42.351345],[-71.055936,42.351399],[-71.055917,42.351412],[-71.055911,42.35147],[-71.055885,42.351477],[-71.055877,42.351549],[-71.055853,42.351556],[-71.055847,42.351609],[-71.055824,42.351617],[-71.055816,42.351747],[-71.055842,42.351747],[-71.055852,42.351689],[-71.055875,42.351681],[-71.055883,42.35161],[-71.055907,42.351602],[-71.055914,42.351539],[-71.05594,42.351532],[-71.055946,42.351483],[-71.055965,42.35147],[-71.055977,42.351355]]],[[[-71.055869,42.352226],[-71.055854,42.352201],[-71.055801,42.352193],[-71.055741,42.352262],[-71.05572,42.352436],[-71.055735,42.352462],[-71.055769,42.352472],[-71.055804,42.352462],[-71.05582,42.35242],[-71.055848,42.3524],[-71.055869,42.352226]]],[[[-71.055808,42.351727],[-71.055777,42.351717],[-71.055752,42.351776],[-71.055745,42.351901],[-71.055771,42.351901],[-71.055796,42.351842],[-71.055808,42.351727]]],[[[-71.055788,42.353336],[-71.055779,42.353319],[-71.055744,42.353314],[-71.055726,42.353327],[-71.055719,42.353382],[-71.055674,42.353379],[-71.055659,42.353552],[-71.055701,42.353552],[-71.055713,42.353499],[-71.05574,42.35351],[-71.05577,42.353495],[-71.055788,42.353336]]],[[[-71.055645,42.35343],[-71.055626,42.353416],[-71.055607,42.35343],[-71.055594,42.353552],[-71.055613,42.353567],[-71.055633,42.353552],[-71.055645,42.35343]]],[[[-71.055558,42.353497],[-71.05554,42.353484],[-71.055522,42.353497],[-71.05551,42.353612],[-71.055528,42.353626],[-71.055546,42.353612],[-71.055558,42.353497]]],[[[-71.055498,42.35353],[-71.05548,42.353517],[-71.055462,42.35353],[-71.055456,42.353641],[-71.055488,42.353631],[-71.055498,42.35353]]],[[[-71.055262,42.353653],[-71.055244,42.35364],[-71.055199,42.353652],[-71.055179,42.353685],[-71.055149,42.353694],[-71.05514,42.353841],[-71.055216,42.35383],[-71.05523,42.35376],[-71.055251,42.353752],[-71.055262,42.353653]]]]},"properties":{"kind":"tree"}}]}