{"type":"FeatureCollection","features":[{"type":"Feature","geometry":{"type":"MultiPolygon","coordinates":[[[[-71.06703,42.351826],[-71.067007,42.351692],[-71.066747,42.351106],[-71.065932,42.351202],[-71.065991,42.350995],[-71.065959,42.350666],[-71.065939,42.350666],[-71.065953,42.350615],[-71.06593,42.350327],[-71.065884,42.35033],[-71.065916,42.350219],[-71.065892,42.349993],[-71.065926,42.349876],[-71.065941,42.349902],[-71.066029,42.349878],[-71.066095,42.349646],[-71.066072,42.349605],[-71.066107,42.349483],[-71.066051,42.349385],[-71.065989,42.349405],[-71.065966,42.349485],[-71.06562,42.349445],[-71.065521,42.349461],[-71.065399,42.349889],[-71.065311,42.3503],[-71.065044,42.351233],[-71.064967,42.35123],[-71.064755,42.351958],[-71.064458,42.353104],[-71.064853,42.353123],[-71.06485,42.353152],[-71.065268,42.353174],[-71.065296,42.353076],[-71.065349,42.353087],[-71.065414,42.352895],[-71.065509,42.352902],[-71.065464,42.353151],[-71.065661,42.353166],[-71.065847,42.352516],[-71.065882,42.352521],[-71.065821,42.352738],[-71.065813,42.352835],[-71.065821,42.3529],[-71.065835,42.352901],[-71.065917,42.352905],[-71.06602,42.352542],[-71.066633,42.352621],[-71.066816,42.352576],[-71.06703,42.351826]]],[[[-71.066483,42.348529],[-71.06591,42.348462],[-71.065995,42.348064],[-71.065837,42.348044],[-71.065628,42.348777],[-71.065543,42.349177],[-71.06561,42.349186],[-71.06558,42.349307],[-71.065676,42.349318],[-71.065739,42.349099],[-71.065755,42.349155],[-71.066293,42.349218],[-71.066483,42.348529]]],[[[-71.065565,42.354342],[-71.065554,42.354318],[-71.065521,42.354301],[-71.06545,42.354322],[-71.065391,42.354525],[-71.065406,42.354557],[-71.065462,42.354573],[-71.065506,42.35455],[-71.065565,42.354342]]],[[[-71.065529,42.347903],[-71.065483,42.347819],[-71.065392,42.347805],[-71.065371,42.347781],[-71.065312,42.347783],[-71.065319,42.347677],[-71.065257,42.347643],[-71.064894,42.347587],[-71.064503,42.347783],[-71.064389,42.348045],[-71.064258,42.348508],[-71.064294,42.348514],[-71.064413,42.348466],[-71.064392,42.34855],[-71.064341,42.348545],[-71.064334,42.348568],[-71.064275,42.348582],[-71.064138,42.348956],[-71.064081,42.349159],[-71.064213,42.34918],[-71.064187,42.349274],[-71.064353,42.3493],[-71.064281,42.349554],[-71.063761,42.349475],[-71.06369,42.349408],[-71.063851,42.348796],[-71.063872,42.3488],[-71.064113,42.347947],[-71.063968,42.347919],[-71.063883,42.347989],[-71.063856,42.347985],[-71.063811,42.348142],[-71.063538,42.348106],[-71.063606,42.347866],[-71.06346,42.347843],[-71.063317,42.348357],[-71.063207,42.34834],[-71.063299,42.348007],[-71.062961,42.347921],[-71.062894,42.348124],[-71.062877,42.348122],[-71.062831,42.348283],[-71.062909,42.347999],[-71.062855,42.347962],[-71.062735,42.347939],[-71.062284,42.349077],[-71.062234,42.34916],[-71.062195,42.349297],[-71.062169,42.349306],[-71.062155,42.349337],[-71.062109,42.349498],[-71.061924,42.349957],[-71.061867,42.350158],[-71.061746,42.350372],[-71.061613,42.350769],[-71.061597,42.350765],[-71.06155,42.350896],[-71.06154,42.350894],[-71.06146,42.35114],[-71.061448,42.351138],[-71.061352,42.351379],[-71.061305,42.351542],[-71.061289,42.351543],[-71.061116,42.352149],[-71.061106,42.352027],[-71.061096,42.352029],[-71.061108,42.351986],[-71.061055,42.351636],[-71.061214,42.351115],[-71.061246,42.351118],[-71.061253,42.351099],[-71.061308,42.351112],[-71.061465,42.350733],[-71.061486,42.350689],[-71.061519,42.35068],[-71.061682,42.350297],[-71.061975,42.34927],[-71.061817,42.349237],[-71.061839,42.34916],[-71.061774,42.349145],[-71.061895,42.34873],[-71.061841,42.348718],[-71.061858,42.348674],[-71.06219,42.348751],[-71.062197,42.348732],[-71.062214,42.348733],[-71.062446,42.347953],[-71.061926,42.347827],[-71.061878,42.347943],[-71.061681,42.348634],[-71.061701,42.348638],[-71.061581,42.348951],[-71.061552,42.34896],[-71.061319,42.349573],[-71.061307,42.349568],[-71.061196,42.349845],[-71.06111,42.350148],[-71.06109,42.35016],[-71.061001,42.350379],[-71.060939,42.350597],[-71.060899,42.350587],[-71.060881,42.350626],[-71.06078,42.350981],[-71.060769,42.350979],[-71.060688,42.351125],[-71.060573,42.351441],[-71.060456,42.351418],[-71.06051,42.351283],[-71.060553,42.351296],[-71.060691,42.350957],[-71.060966,42.349994],[-71.060509,42.349891],[-71.06038,42.350207],[-71.060298,42.350494],[-71.06026,42.350485],[-71.059972,42.351168],[-71.059934,42.351301],[-71.059918,42.351297],[-71.059989,42.351075],[-71.060186,42.350596],[-71.060323,42.350114],[-71.060405,42.350133],[-71.060687,42.349455],[-71.060914,42.349534],[-71.061015,42.349231],[-71.061036,42.349247],[-71.060984,42.349342],[-71.060926,42.349546],[-71.061134,42.349645],[-71.061182,42.349574],[-71.061291,42.349319],[-71.061381,42.349017],[-71.061395,42.34902],[-71.061478,42.348845],[-71.061622,42.348496],[-71.061866,42.34764],[-71.061712,42.347604],[-71.061566,42.347954],[-71.061462,42.348319],[-71.061414,42.348308],[-71.061331,42.348575],[-71.061311,42.34857],[-71.061364,42.348374],[-71.061281,42.348337],[-71.061312,42.348228],[-71.061184,42.348198],[-71.061147,42.348242],[-71.061011,42.348618],[-71.060944,42.348853],[-71.061061,42.34888],[-71.061161,42.348647],[-71.061246,42.348667],[-71.061223,42.348747],[-71.061155,42.348757],[-71.061116,42.348821],[-71.061007,42.349208],[-71.060975,42.34921],[-71.061054,42.348944],[-71.060878,42.348902],[-71.060754,42.34922],[-71.061068,42.348118],[-71.061011,42.348097],[-71.060549,42.348739],[-71.060443,42.349109],[-71.060321,42.349063],[-71.060204,42.349326],[-71.059925,42.350048],[-71.059544,42.351385],[-71.059697,42.351433],[-71.05959,42.351807],[-71.059386,42.351848],[-71.059266,42.352267],[-71.059226,42.352012],[-71.059026,42.352083],[-71.058873,42.352183],[-71.058801,42.352281],[-71.058724,42.352528],[-71.058176,42.352542],[-71.058071,42.352594],[-71.057744,42.353706],[-71.057599,42.353658],[-71.057731,42.353195],[-71.057793,42.352802],[-71.05802,42.352072],[-71.05821,42.351619],[-71.058353,42.351165],[-71.058392,42.351174],[-71.058504,42.350852],[-71.058522,42.350856],[-71.058583,42.350745],[-71.058776,42.350034],[-71.058372,42.349945],[-71.057853,42.351787],[-71.057776,42.352039],[-71.05774,42.352029],[-71.057838,42.351684],[-71.057806,42.351679],[-71.057832,42.351587],[-71.05785,42.35159],[-71.058052,42.350873],[-71.058028,42.350867],[-71.058289,42.349924],[-71.058264,42.349919],[-71.058424,42.349376],[-71.057926,42.349266],[-71.057876,42.34939],[-71.05807,42.348711],[-71.057613,42.348605],[-71.057529,42.348814],[-71.057277,42.349698],[-71.057133,42.349667],[-71.05695,42.350087],[-71.056922,42.350095],[-71.056797,42.350339],[-71.056714,42.350631],[-71.056678,42.350643],[-71.056627,42.350738],[-71.056401,42.351249],[-71.056371,42.351355],[-71.056294,42.351331],[-71.056079,42.351765],[-71.05598,42.352112],[-71.05594,42.352127],[-71.055846,42.352326],[-71.055498,42.353547],[-71.055421,42.353589],[-71.055376,42.353638],[-71.055342,42.353603],[-71.054915,42.353838],[-71.054893,42.353914],[-71.054834,42.353899],[-71.054776,42.353908],[-71.054391,42.354111],[-71.054359,42.354149],[-71.05365,42.356634],[-71.053659,42.356678],[-71.053881,42.356912],[-71.053914,42.356943],[-71.053964,42.356957],[-71.054031,42.356941],[-71.054344,42.356664],[-71.054374,42.356625],[-71.054675,42.35557],[-71.054717,42.35561],[-71.054412,42.356694],[-71.054411,42.356732],[-71.054501,42.356814],[-71.054486,42.356865],[-71.054558,42.356928],[-71.054701,42.356879],[-71.054779,42.356795],[-71.054938,42.356695],[-71.055127,42.356078],[-71.055167,42.356088],[-71.055141,42.356181],[-71.055196,42.356493],[-71.054619,42.358515],[-71.054725,42.359093],[-71.055177,42.359049],[-71.055793,42.356893],[-71.055904,42.356873],[-71.055859,42.35703],[-71.055923,42.357387],[-71.056706,42.357328],[-71.056967,42.356411],[-71.056999,42.35636],[-71.05704,42.356214],[-71.057227,42.355909],[-71.057384,42.355361],[-71.057348,42.355495],[-71.057316,42.355766],[-71.057347,42.355768],[-71.057338,42.355863],[-71.057798,42.355889],[-71.057823,42.3558],[-71.057887,42.355804],[-71.05789,42.355793],[-71.057914,42.35584],[-71.058041,42.355855],[-71.058104,42.355833],[-71.05819,42.355749],[-71.058284,42.35542],[-71.058428,42.355429],[-71.058411,42.355529],[-71.058721,42.355664],[-71.058386,42.356837],[-71.05846,42.356892],[-71.058752,42.357011],[-71.058998,42.356797],[-71.059061,42.356719],[-71.059394,42.355552],[-71.059433,42.355516],[-71.059979,42.355927],[-71.060156,42.355799],[-71.060236,42.355524],[-71.060408,42.355646],[-71.060473,42.3556],[-71.060556,42.355665],[-71.060884,42.35536],[-71.060942,42.355395],[-71.060978,42.355362],[-71.060913,42.35559],[-71.061226,42.355747],[-71.061316,42.35565],[-71.061423,42.355706],[-71.061623,42.355484],[-71.061651,42.355388],[-71.061666,42.355396],[-71.061657,42.355425],[-71.061923,42.355563],[-71.061944,42.35554],[-71.061974,42.355555],[-71.061802,42.356157],[-71.061837,42.356179],[-71.062323,42.356177],[-71.062473,42.355652],[-71.062525,42.355597],[-71.062806,42.355742],[-71.062671,42.356216],[-71.062694,42.356229],[-71.062676,42.356299],[-71.062917,42.35637],[-71.063206,42.355834],[-71.063425,42.355109],[-71.063456,42.355118],[-71.063496,42.355082],[-71.06356,42.354965],[-71.063587,42.354871],[-71.063618,42.354842],[-71.063688,42.354716],[-71.063868,42.354094],[-71.06389,42.354095],[-71.063957,42.354015],[-71.063984,42.353941],[-71.064484,42.352263],[-71.065169,42.349617],[-71.065036,42.349597],[-71.065143,42.349221],[-71.06524,42.349211],[-71.06533,42.348887],[-71.065323,42.348802],[-71.065279,42.348688],[-71.064992,42.348617],[-71.064786,42.348588],[-71.064842,42.348391],[-71.064897,42.348432],[-71.064942,42.348402],[-71.065072,42.348551],[-71.065096,42.348539],[-71.065102,42.348569],[-71.065396,42.348504],[-71.065427,42.34839],[-71.065371,42.348326],[-71.065453,42.348251],[-71.065484,42.348131],[-71.065452,42.348075],[-71.065489,42.348051],[-71.065529,42.347903]],[[-71.063738,42.351118],[-71.063644,42.351107],[-71.063647,42.351095],[-71.063738,42.351118]],[[-71.063602,42.348486],[-71.063449,42.349022],[-71.063305,42.349],[-71.063454,42.348464],[-71.063602,42.348486]],[[-71.063422,42.350553],[-71.063268,42.351068],[-71.063049,42.351044],[-71.063024,42.351108],[-71.062961,42.35129],[-71.062414,42.353232],[-71.062415,42.35316],[-71.062389,42.353161],[-71.062426,42.353031],[-71.062451,42.352529],[-71.062549,42.352185],[-71.062675,42.351843],[-71.062958,42.350853],[-71.063083,42.350873],[-71.063145,42.350744],[-71.063161,42.350747],[-71.063267,42.350375],[-71.063422,42.350553]],[[-71.062998,42.349154],[-71.062992,42.349177],[-71.062981,42.349151],[-71.062998,42.349154]],[[-71.06238,42.353753],[-71.062231,42.353931],[-71.06233,42.353586],[-71.062298,42.353744],[-71.06238,42.353753]],[[-71.062155,42.351046],[-71.062094,42.35126],[-71.062146,42.351042],[-71.062155,42.351046]],[[-71.061468,42.352628],[-71.061352,42.353034],[-71.061336,42.35258],[-71.061194,42.352592],[-71.061121,42.352806],[-71.061104,42.352801],[-71.060933,42.352992],[-71.061084,42.352464],[-71.061119,42.352276],[-71.061166,42.352512],[-71.061411,42.352502],[-71.061417,42.352604],[-71.06146,42.3526],[-71.061468,42.352628]],[[-71.060498,42.353482],[-71.06004,42.353961],[-71.06011,42.353717],[-71.060186,42.353635],[-71.060263,42.353366],[-71.060498,42.353482]],[[-71.060424,42.35189],[-71.060422,42.351895],[-71.06042,42.351889],[-71.060424,42.35189]],[[-71.06033,42.351551],[-71.060318,42.351595],[-71.0603,42.351544],[-71.06033,42.351551]],[[-71.060111,42.351685],[-71.060081,42.35179],[-71.060102,42.351857],[-71.060056,42.351864],[-71.060017,42.352002],[-71.059989,42.351833],[-71.060013,42.35175],[-71.060048,42.351747],[-71.060064,42.351691],[-71.060111,42.351685]],[[-71.060077,42.352363],[-71.059939,42.352849],[-71.059948,42.352911],[-71.059666,42.352766],[-71.059743,42.352494],[-71.059926,42.352478],[-71.059963,42.352347],[-71.059966,42.352366],[-71.060077,42.352363]],[[-71.059491,42.352956],[-71.059372,42.353443],[-71.059289,42.353517],[-71.059392,42.353157],[-71.059363,42.352948],[-71.059491,42.352956]],[[-71.059278,42.352569],[-71.059253,42.352566],[-71.059269,42.35251],[-71.059278,42.352569]],[[-71.057917,42.349707],[-71.057882,42.349832],[-71.057688,42.349927],[-71.057556,42.350388],[-71.057373,42.351218],[-71.057398,42.351224],[-71.0571,42.352653],[-71.057501,42.352778],[-71.05731,42.352888],[-71.057163,42.352943],[-71.05712,42.352979],[-71.056969,42.353482],[-71.056948,42.353395],[-71.056816,42.353425],[-71.056618,42.353514],[-71.056769,42.353041],[-71.056787,42.353045],[-71.057078,42.352025],[-71.057141,42.351687],[-71.057112,42.351673],[-71.057156,42.351519],[-71.05732,42.350691],[-71.057303,42.350686],[-71.057348,42.350529],[-71.057488,42.349831],[-71.057713,42.34988],[-71.05781,42.349621],[-71.057844,42.349629],[-71.057827,42.349687],[-71.057917,42.349707]],[[-71.056888,42.351326],[-71.056811,42.351538],[-71.0568,42.351533],[-71.05683,42.35143],[-71.056888,42.351326]],[[-71.054999,42.354478],[-71.054989,42.354513],[-71.054979,42.354505],[-71.054989,42.354468],[-71.054999,42.354478]]],[[[-71.06461,42.353278],[-71.064542,42.353266],[-71.064487,42.353441],[-71.064555,42.353455],[-71.06461,42.353278]]],[[[-71.063935,42.354829],[-71.063869,42.354811],[-71.063826,42.354931],[-71.063892,42.354948],[-71.063935,42.354829]]],[[[-71.059505,42.350215],[-71.059471,42.35018],[-71.059047,42.350086],[-71.058996,42.350102],[-71.058689,42.350861],[-71.058645,42.351014],[-71.058633,42.351011],[-71.058362,42.351689],[-71.058262,42.352041],[-71.058458,42.352084],[-71.058646,42.351906],[-71.05876,42.351769],[-71.05889,42.351565],[-71.058952,42.351401],[-71.059022,42.351416],[-71.059077,42.3514],[-71.059383,42.350643],[-71.059505,42.350215]]],[[[-71.059318,42.349726],[-71.059179,42.349693],[-71.059074,42.349973],[-71.059213,42.350006],[-71.059318,42.349726]]],[[[-71.056775,42.349199],[-71.056596,42.349149],[-71.055596,42.349435],[-71.056579,42.347966],[-71.056683,42.347603],[-71.056673,42.347544],[-71.055908,42.347262],[-71.054533,42.349309],[-71.054499,42.349429],[-71.054447,42.34941],[-71.053477,42.350853],[-71.053301,42.351469],[-71.053882,42.351684],[-71.054183,42.351295],[-71.05429,42.351335],[-71.055175,42.350015],[-71.055244,42.349946],[-71.055025,42.350377],[-71.054916,42.350758],[-71.054995,42.350819],[-71.054941,42.35101],[-71.054999,42.351026],[-71.055073,42.350879],[-71.055176,42.350959],[-71.055161,42.35101],[-71.05525,42.351034],[-71.055258,42.351019],[-71.05541,42.351076],[-71.055564,42.351083],[-71.055553,42.35112],[-71.055639,42.351144],[-71.055671,42.35108],[-71.055927,42.351073],[-71.056051,42.351107],[-71.056104,42.351088],[-71.056325,42.350662],[-71.056526,42.350163],[-71.056662,42.349678],[-71.056775,42.349199]]],[[[-71.055768,42.35162],[-71.055498,42.351545],[-71.054479,42.351779],[-71.054307,42.351954],[-71.05414,42.352538],[-71.054666,42.352816],[-71.054826,42.352867],[-71.054994,42.352892],[-71.055171,42.352852],[-71.055291,42.352762],[-71.055382,42.352653],[-71.055453,42.352512],[-71.055601,42.352204],[-71.055768,42.35162]]]]},"properties":{"kind":"building"}},{"type":"Feature","geometry":{"type":"MultiPolygon","coordinates":[[[[-71.066058,42.353451],[-71.066047,42.35341],[-71.066015,42.353375],[-71.065929,42.353346],[-71.066048,42.352923],[-71.066021,42.352832],[-71.065968,42.352786],[-71.066022,42.352597],[-71.066016,42.352576],[-71.065976,42.352546],[-71.065918,42.352546],[-71.065882,42.352572],[-71.065841,42.352538],[-71.065759,42.35255],[-71.065688,42.352518],[-71.065635,42.352534],[-71.065606,42.352598],[-71.06551,42.352612],[-71.06549,42.352634],[-71.065403,42.352941],[-71.065425,42.352985],[-71.065356,42.35322],[-71.065267,42.353195],[-71.065308,42.353051],[-71.065266,42.353004],[-71.065271,42.352979],[-71.065346,42.352951],[-71.065368,42.352926],[-71.065465,42.352587],[-71.065457,42.352558],[-71.065401,42.352516],[-71.065321,42.352516],[-71.065288,42.352533],[-71.065265,42.352558],[-71.065202,42.352777],[-71.065187,42.352754],[-71.065146,42.352742],[-71.065092,42.352768],[-71.065059,42.352885],[-71.065032,42.352908],[-71.064958,42.353167],[-71.064916,42.353212],[-71.064815,42.353567],[-71.064836,42.353612],[-71.064806,42.353717],[-71.064851,42.353765],[-71.064928,42.353754],[-71.064971,42.353641],[-71.065,42.353627],[-71.064944,42.353826],[-71.06498,42.35389],[-71.065067,42.353917],[-71.065114,42.35391],[-71.065168,42.353876],[-71.065144,42.353959],[-71.065096,42.353943],[-71.065036,42.353973],[-71.064952,42.354284],[-71.064923,42.354259],[-71.06489,42.354258],[-71.064915,42.35417],[-71.064885,42.354137],[-71.064935,42.35396],[-71.064929,42.353937],[-71.064885,42.353905],[-71.064823,42.353905],[-71.064779,42.353937],[-71.064772,42.353963],[-71.064779,42.353878],[-71.064707,42.353842],[-71.064652,42.353859],[-71.064628,42.353903],[-71.064714,42.3536],[-71.064767,42.353599],[-71.064806,42.353571],[-71.064939,42.353107],[-71.064928,42.353066],[-71.064865,42.353015],[-71.06483,42.352952],[-71.064745,42.352926],[-71.06466,42.352952],[-71.064634,42.352981],[-71.064467,42.353609],[-71.064418,42.353592],[-71.064358,42.353622],[-71.06431,42.353741],[-71.064284,42.353761],[-71.064184,42.354118],[-71.064149,42.354121],[-71.064109,42.354151],[-71.064049,42.354341],[-71.064005,42.354344],[-71.063961,42.354376],[-71.063942,42.354443],[-71.063903,42.354482],[-71.063856,42.354648],[-71.063818,42.354663],[-71.063786,42.354732],[-71.063755,42.354758],[-71.063677,42.355033],[-71.063683,42.355055],[-71.063725,42.355086],[-71.063785,42.355086],[-71.06388,42.354998],[-71.063989,42.35499],[-71.064036,42.354966],[-71.064068,42.354931],[-71.064119,42.354753],[-71.064144,42.354757],[-71.064103,42.354932],[-71.064133,42.354954],[-71.064175,42.354954],[-71.064169,42.35504],[-71.064208,42.355068],[-71.064285,42.355057],[-71.06433,42.354937],[-71.064381,42.354927],[-71.064411,42.354849],[-71.064475,42.354844],[-71.064501,42.354781],[-71.064533,42.354822],[-71.064608,42.354845],[-71.064649,42.354839],[-71.064701,42.354804],[-71.064677,42.354888],[-71.064701,42.354905],[-71.064738,42.354802],[-71.064714,42.354785],[-71.064806,42.354449],[-71.064798,42.354419],[-71.064743,42.354377],[-71.064764,42.354303],[-71.064752,42.354276],[-71.06478,42.35428],[-71.064767,42.354372],[-71.064823,42.354393],[-71.064795,42.35449],[-71.064806,42.354513],[-71.064744,42.354734],[-71.064779,42.354782],[-71.064737,42.35493],[-71.064711,42.354957],[-71.064615,42.355296],[-71.064623,42.355325],[-71.064679,42.355367],[-71.064719,42.355373],[-71.064758,42.355367],[-71.064814,42.355325],[-71.064898,42.355032],[-71.064921,42.355014],[-71.064967,42.354853],[-71.065022,42.354842],[-71.064976,42.355004],[-71.064999,42.355045],[-71.065091,42.355081],[-71.065166,42.355071],[-71.065186,42.355116],[-71.065239,42.355132],[-71.065308,42.355098],[-71.065325,42.355036],[-71.065378,42.355036],[-71.065336,42.355196],[-71.065345,42.355231],[-71.065412,42.35528],[-71.065459,42.355287],[-71.065546,42.35526],[-71.065573,42.355231],[-71.06566,42.354927],[-71.065722,42.354903],[-71.06575,42.354872],[-71.065865,42.354468],[-71.065855,42.354431],[-71.065785,42.354379],[-71.065685,42.354379],[-71.065643,42.3544],[-71.065615,42.354431],[-71.065522,42.354757],[-71.065482,42.354774],[-71.065466,42.354722],[-71.065418,42.354708],[-71.065362,42.354731],[-71.065345,42.354722],[-71.065351,42.354697],[-71.065327,42.354655],[-71.065232,42.354615],[-71.065147,42.354627],[-71.065116,42.354695],[-71.065071,42.35471],[-71.065103,42.354592],[-71.065085,42.35456],[-71.065042,42.354547],[-71.065067,42.354458],[-71.065029,42.354416],[-71.065072,42.354276],[-71.065108,42.354314],[-71.065152,42.354314],[-71.065184,42.354291],[-71.065203,42.354225],[-71.065251,42.354242],[-71.065297,42.354228],[-71.065343,42.3541],[-71.06538,42.354111],[-71.065419,42.354099],[-71.065459,42.353989],[-71.06544,42.354062],[-71.065455,42.354089],[-71.065492,42.3541],[-71.06554,42.354077],[-71.065625,42.353756],[-71.065589,42.353716],[-71.065534,42.353721],[-71.065594,42.353508],[-71.065575,42.353458],[-71.065589,42.353407],[-71.065605,42.353405],[-71.065608,42.353439],[-71.06565,42.35347],[-71.065655,42.353534],[-71.06573,42.353575],[-71.065661,42.353818],[-71.065672,42.353859],[-71.065724,42.353904],[-71.065681,42.353914],[-71.065662,42.353954],[-71.065619,42.353976],[-71.065561,42.354179],[-71.065576,42.354204],[-71.06561,42.354215],[-71.065645,42.354204],[-71.065663,42.354163],[-71.065706,42.354141],[-71.06576,42.353925],[-71.065863,42.353918],[-71.065942,42.353859],[-71.066058,42.353451]],[[-71.065227,42.353768],[-71.065204,42.353849],[-71.065181,42.35386],[-71.065207,42.353771],[-71.065227,42.353768]],[[-71.065203,42.352953],[-71.065151,42.353125],[-71.065123,42.353143],[-71.065107,42.353198],[-71.065096,42.353186],[-71.065171,42.352904],[-71.065203,42.352953]],[[-71.065099,42.353369],[-71.065082,42.353408],[-71.065093,42.353367],[-71.065099,42.353369]],[[-71.064959,42.354429],[-71.06492,42.354417],[-71.064925,42.354399],[-71.064959,42.354429]],[[-71.064631,42.35429],[-71.064612,42.354357],[-71.064571,42.354378],[-71.064551,42.354448],[-71.064542,42.354441],[-71.064584,42.354293],[-71.064605,42.354278],[-71.064631,42.35429]],[[-71.064483,42.353699],[-71.064461,42.353778],[-71.064444,42.353776],[-71.06447,42.353685],[-71.064483,42.353699]],[[-71.064437,42.354515],[-71.064363,42.354531],[-71.064335,42.354599],[-71.064321,42.354597],[-71.064353,42.354485],[-71.064437,42.354515]],[[-71.064412,42.354142],[-71.064387,42.354229],[-71.064344,42.354196],[-71.06436,42.354142],[-71.064412,42.354142]]],[[[-71.066046,42.354972],[-71.066004,42.354925],[-71.065952,42.354925],[-71.065915,42.354953],[-71.065844,42.355204],[-71.065864,42.355239],[-71.065912,42.355254],[-71.065975,42.355223],[-71.066046,42.354972]]],[[[-71.06602,42.354061],[-71.065981,42.354032],[-71.065953,42.354041],[-71.065937,42.354078],[-71.065908,42.354048],[-71.065855,42.354056],[-71.065786,42.35427],[-71.065801,42.354295],[-71.065835,42.354306],[-71.06587,42.354295],[-71.065895,42.354231],[-71.065888,42.354284],[-71.06593,42.354284],[-71.065938,42.354256],[-71.065969,42.354239],[-71.06602,42.354061]]],[[[-71.06583,42.348038],[-71.06579,42.347994],[-71.06574,42.347994],[-71.065705,42.34802],[-71.065636,42.348262],[-71.065649,42.348289],[-71.065622,42.348383],[-71.065638,42.348412],[-71.065562,42.348656],[-71.065598,42.348696],[-71.065642,42.348696],[-71.065674,42.348673],[-71.065738,42.348446],[-71.065721,42.348415],[-71.06583,42.348038]]],[[[-71.065598,42.348957],[-71.065567,42.348947],[-71.065538,42.349041],[-71.065548,42.349058],[-71.065572,42.349051],[-71.065598,42.348957]]],[[[-71.065588,42.351223],[-71.065557,42.351213],[-71.065522,42.351328],[-71.065532,42.351346],[-71.065555,42.351338],[-71.065588,42.351223]]],[[[-71.065562,42.349094],[-71.065531,42.349084],[-71.065502,42.349178],[-71.065512,42.349195],[-71.065536,42.349188],[-71.065562,42.349094]]],[[[-71.065559,42.349236],[-71.065529,42.349203],[-71.065491,42.349203],[-71.065465,42.349222],[-71.065415,42.349399],[-71.065429,42.349425],[-71.065463,42.349435],[-71.065508,42.349413],[-71.065559,42.349236]]],[[[-71.065552,42.348316],[-71.065514,42.348274],[-71.065466,42.348274],[-71.065433,42.348299],[-71.065366,42.348533],[-71.065414,42.348593],[-71.065485,42.348551],[-71.065552,42.348316]]],[[[-71.065548,42.34811],[-71.065517,42.3481],[-71.065486,42.348201],[-71.065496,42.348218],[-71.06552,42.348211],[-71.065548,42.34811]]],[[[-71.065433,42.34879],[-71.065403,42.348757],[-71.065365,42.348757],[-71.065339,42.348776],[-71.065289,42.348953],[-71.065303,42.348979],[-71.065294,42.349047],[-71.065227,42.349259],[-71.065258,42.349292],[-71.065295,42.349292],[-71.065321,42.349272],[-71.065379,42.34907],[-71.065366,42.349046],[-71.065433,42.34879]]],[[[-71.065368,42.35121],[-71.065337,42.3512],[-71.065304,42.351308],[-71.065314,42.351325],[-71.065337,42.351318],[-71.065368,42.35121]]],[[[-71.065268,42.35121],[-71.065237,42.3512],[-71.065206,42.351301],[-71.065216,42.351318],[-71.06524,42.351311],[-71.065268,42.35121]]],[[[-71.065176,42.35072],[-71.06515,42.350701],[-71.065126,42.350713],[-71.065061,42.350915],[-71.065067,42.350991],[-71.065092,42.350983],[-71.065176,42.35072]]],[[[-71.065109,42.352581],[-71.065102,42.352553],[-71.065049,42.352515],[-71.064975,42.352515],[-71.064922,42.352553],[-71.06483,42.352877],[-71.064859,42.352928],[-71.064928,42.352949],[-71.064965,42.352943],[-71.065018,42.352904],[-71.065109,42.352581]]],[[[-71.064944,42.35131],[-71.064913,42.3513],[-71.06488,42.351408],[-71.06489,42.351425],[-71.064913,42.351418],[-71.064944,42.35131]]],[[[-71.064857,42.348456],[-71.064826,42.348446],[-71.064795,42.348547],[-71.064805,42.348564],[-71.064829,42.348557],[-71.064857,42.348456]]],[[[-71.064624,42.351826],[-71.064593,42.351816],[-71.064562,42.351917],[-71.064572,42.351934],[-71.064596,42.351927],[-71.064624,42.351826]]],[[[-71.064621,42.348425],[-71.06459,42.348415],[-71.064559,42.348516],[-71.064569,42.348533],[-71.064593,42.348526],[-71.064621,42.348425]]],[[[-71.064568,42.352055],[-71.064537,42.352045],[-71.064504,42.352153],[-71.064486,42.352251],[-71.064496,42.352268],[-71.06452,42.352261],[-71.064568,42.352055]]],[[[-71.064436,42.348399],[-71.064405,42.348389],[-71.064374,42.34849],[-71.064384,42.348507],[-71.064408,42.3485],[-71.064436,42.348399]]],[[[-71.064238,42.350925],[-71.064207,42.350915],[-71.064176,42.351016],[-71.064186,42.351033],[-71.06421,42.351026],[-71.064238,42.350925]]],[[[-71.064209,42.34872],[-71.06417,42.348708],[-71.0641,42.348952],[-71.06411,42.34897],[-71.064133,42.348962],[-71.064209,42.34872]]],[[[-71.064148,42.350914],[-71.064117,42.350904],[-71.064086,42.351005],[-71.064096,42.351022],[-71.06412,42.351015],[-71.064148,42.350914]]],[[[-71.064088,42.3533],[-71.064057,42.35329],[-71.06403,42.353376],[-71.064016,42.35338],[-71.063977,42.353509],[-71.063987,42.353528],[-71.064012,42.35352],[-71.064088,42.3533]]],[[[-71.064082,42.350914],[-71.064062,42.350892],[-71.06402,42.350905],[-71.063976,42.351058],[-71.063983,42.351084],[-71.064006,42.351091],[-71.064036,42.351076],[-71.064082,42.350914]]],[[[-71.064013,42.353283],[-71.063982,42.353273],[-71.063912,42.353505],[-71.063922,42.353524],[-71.063947,42.353516],[-71.064013,42.353283]]],[[[-71.063998,42.35376],[-71.063967,42.35375],[-71.06393,42.353872],[-71.06394,42.35389],[-71.063963,42.353882],[-71.063998,42.35376]]],[[[-71.063973,42.350903],[-71.063949,42.350876],[-71.063898,42.350892],[-71.063847,42.35107],[-71.063859,42.351091],[-71.063886,42.351099],[-71.063922,42.351081],[-71.063973,42.350903]]],[[[-71.063943,42.353268],[-71.063904,42.353256],[-71.063861,42.353393],[-71.063874,42.353415],[-71.06386,42.353486],[-71.06387,42.353504],[-71.063893,42.353496],[-71.063943,42.353268]]],[[[-71.063922,42.353967],[-71.063902,42.353945],[-71.063867,42.35395],[-71.063816,42.354111],[-71.06379,42.354101],[-71.063766,42.354113],[-71.063726,42.354251],[-71.063741,42.354276],[-71.063774,42.354266],[-71.063814,42.354127],[-71.063846,42.354144],[-71.063876,42.354129],[-71.063922,42.353967]]],[[[-71.063915,42.348675],[-71.063882,42.348665],[-71.063849,42.348737],[-71.063811,42.348868],[-71.063811,42.348894],[-71.063831,42.348902],[-71.063807,42.348989],[-71.063817,42.349008],[-71.063842,42.349],[-71.063878,42.348876],[-71.063874,42.34881],[-71.063915,42.348675]]],[[[-71.063821,42.349148],[-71.06379,42.349138],[-71.063759,42.349239],[-71.063769,42.349256],[-71.063793,42.349249],[-71.063821,42.349148]]],[[[-71.063808,42.348427],[-71.063777,42.348417],[-71.063746,42.348518],[-71.063756,42.348535],[-71.06378,42.348528],[-71.063808,42.348427]]],[[[-71.063768,42.349293],[-71.063737,42.349283],[-71.063693,42.349426],[-71.063703,42.349443],[-71.063727,42.349436],[-71.063768,42.349293]]],[[[-71.063718,42.34841],[-71.063687,42.3484],[-71.063656,42.348501],[-71.063666,42.348518],[-71.06369,42.348511],[-71.063718,42.34841]]],[[[-71.063707,42.350883],[-71.063687,42.350861],[-71.063645,42.350874],[-71.063601,42.351027],[-71.063608,42.351053],[-71.063631,42.35106],[-71.063661,42.351045],[-71.063707,42.350883]]],[[[-71.063689,42.34976],[-71.063656,42.34975],[-71.063626,42.349844],[-71.063601,42.349844],[-71.063571,42.349939],[-71.063546,42.34994],[-71.063517,42.34999],[-71.06348,42.350112],[-71.06349,42.35013],[-71.063513,42.350122],[-71.063523,42.350089],[-71.063538,42.350085],[-71.06357,42.349982],[-71.063593,42.349981],[-71.063621,42.349895],[-71.063648,42.349895],[-71.063689,42.34976]]],[[[-71.063613,42.350876],[-71.063574,42.350864],[-71.063531,42.351001],[-71.063544,42.351023],[-71.063573,42.351014],[-71.063613,42.350876]]],[[[-71.063569,42.3547],[-71.063539,42.354667],[-71.063501,42.354667],[-71.063475,42.354686],[-71.063453,42.354765],[-71.063415,42.354786],[-71.063365,42.354963],[-71.063379,42.354989],[-71.063413,42.354999],[-71.063458,42.354977],[-71.063481,42.354898],[-71.063518,42.354877],[-71.063569,42.3547]]],[[[-71.063546,42.350864],[-71.06352,42.350845],[-71.063496,42.350857],[-71.063456,42.350995],[-71.063471,42.35102],[-71.063504,42.35101],[-71.063546,42.350864]]],[[[-71.063458,42.350418],[-71.063427,42.350408],[-71.063383,42.350537],[-71.063353,42.350597],[-71.063333,42.350605],[-71.063304,42.350708],[-71.063324,42.350726],[-71.063285,42.350919],[-71.063301,42.350931],[-71.063296,42.350972],[-71.063311,42.350982],[-71.063344,42.350972],[-71.063384,42.350833],[-71.063371,42.350809],[-71.063381,42.350757],[-71.063365,42.350745],[-71.063368,42.350698],[-71.063345,42.35069],[-71.063397,42.350607],[-71.063458,42.350418]]],[[[-71.063458,42.35018],[-71.063427,42.35017],[-71.063407,42.350233],[-71.063372,42.35027],[-71.063337,42.350385],[-71.063347,42.350403],[-71.063391,42.350366],[-71.063458,42.35018]]],[[[-71.063328,42.35044],[-71.063297,42.35043],[-71.063283,42.35047],[-71.063263,42.350478],[-71.063182,42.350664],[-71.063167,42.350667],[-71.063135,42.350751],[-71.063112,42.350759],[-71.063077,42.350884],[-71.063087,42.350903],[-71.063112,42.350895],[-71.063125,42.35085],[-71.063145,42.350842],[-71.063164,42.350777],[-71.063189,42.350757],[-71.063277,42.350556],[-71.063297,42.350548],[-71.063328,42.35044]]],[[[-71.063144,42.352238],[-71.063113,42.352228],[-71.06308,42.352336],[-71.06309,42.352353],[-71.063113,42.352346],[-71.063144,42.352238]]],[[[-71.063083,42.35225],[-71.063052,42.35224],[-71.063019,42.352348],[-71.063029,42.352365],[-71.063052,42.352358],[-71.063083,42.35225]]],[[[-71.062983,42.352253],[-71.062952,42.352243],[-71.062919,42.352351],[-71.062929,42.352368],[-71.062952,42.352361],[-71.062983,42.352253]]],[[[-71.062922,42.35222],[-71.062891,42.35221],[-71.062856,42.352325],[-71.062866,42.352343],[-71.062889,42.352335],[-71.062922,42.35222]]],[[[-71.062848,42.352215],[-71.062817,42.352205],[-71.062784,42.352313],[-71.062794,42.35233],[-71.062817,42.352323],[-71.062848,42.352215]]],[[[-71.062829,42.353302],[-71.06281,42.353288],[-71.062828,42.353208],[-71.062803,42.353201],[-71.062757,42.353333],[-71.062767,42.35344],[-71.062792,42.353432],[-71.062829,42.353302]]],[[[-71.062763,42.353207],[-71.06273,42.353197],[-71.062691,42.353326],[-71.062701,42.353345],[-71.062681,42.353444],[-71.062694,42.353453],[-71.062723,42.353444],[-71.062761,42.353312],[-71.062749,42.35329],[-71.062763,42.353207]]],[[[-71.062559,42.348354],[-71.062541,42.348334],[-71.062509,42.348339],[-71.062461,42.348492],[-71.062477,42.34852],[-71.062509,42.348515],[-71.062559,42.348354]]],[[[-71.062496,42.349373],[-71.06247,42.349344],[-71.062415,42.349361],[-71.062362,42.349547],[-71.062374,42.349569],[-71.062404,42.349579],[-71.062443,42.349559],[-71.062496,42.349373]]],[[[-71.062463,42.348557],[-71.062424,42.348545],[-71.062381,42.348682],[-71.062394,42.348704],[-71.062423,42.348695],[-71.062463,42.348557]]],[[[-71.062409,42.348373],[-71.062385,42.348346],[-71.062334,42.348362],[-71.062283,42.34854],[-71.062295,42.348561],[-71.062322,42.348569],[-71.062358,42.348551],[-71.062409,42.348373]]],[[[-71.062392,42.349323],[-71.062366,42.349294],[-71.062311,42.349311],[-71.062258,42.349497],[-71.06227,42.349519],[-71.0623,42.349529],[-71.062339,42.349509],[-71.062392,42.349323]]],[[[-71.062039,42.353752],[-71.062006,42.353742],[-71.061973,42.353847],[-71.061953,42.353855],[-71.061926,42.353951],[-71.061936,42.353968],[-71.06196,42.353961],[-71.06198,42.35389],[-71.062002,42.353882],[-71.062039,42.353752]]],[[[-71.062006,42.349306],[-71.061975,42.349296],[-71.061944,42.349397],[-71.061954,42.349414],[-71.061978,42.349407],[-71.062006,42.349306]]],[[[-71.061951,42.349438],[-71.06192,42.349428],[-71.061893,42.349512],[-71.061847,42.349534],[-71.061797,42.349711],[-71.061827,42.349744],[-71.061864,42.349744],[-71.06189,42.349725],[-71.061941,42.349548],[-71.061927,42.349523],[-71.061951,42.349438]]],[[[-71.061928,42.34988],[-71.061897,42.34987],[-71.061882,42.349913],[-71.061867,42.349916],[-71.061825,42.350067],[-71.061803,42.350075],[-71.061743,42.350264],[-71.061722,42.350272],[-71.061704,42.350315],[-71.061678,42.350333],[-71.061623,42.350528],[-71.061651,42.350559],[-71.061686,42.350559],[-71.06171,42.35054],[-71.061789,42.350292],[-71.061782,42.350257],[-71.06186,42.350105],[-71.061928,42.34988]]],[[[-71.061924,42.3537],[-71.061891,42.35369],[-71.061852,42.353819],[-71.061862,42.353838],[-71.061837,42.353944],[-71.061847,42.353963],[-71.061872,42.353955],[-71.061924,42.3537]]],[[[-71.061851,42.348312],[-71.061823,42.348281],[-71.061789,42.348281],[-71.061764,42.348299],[-71.061709,42.348494],[-71.061718,42.348529],[-71.061772,42.348525],[-71.061796,42.348506],[-71.061851,42.348312]]],[[[-71.061828,42.353783],[-71.061797,42.353773],[-71.061766,42.353874],[-71.061776,42.353891],[-71.0618,42.353884],[-71.061828,42.353783]]],[[[-71.061825,42.353653],[-71.061792,42.353643],[-71.061753,42.353772],[-71.061763,42.353791],[-71.061788,42.353783],[-71.061825,42.353653]]],[[[-71.061766,42.349666],[-71.061736,42.349633],[-71.061698,42.349633],[-71.061672,42.349652],[-71.061622,42.349829],[-71.061636,42.349855],[-71.06167,42.349865],[-71.061715,42.349843],[-71.061766,42.349666]]],[[[-71.061759,42.353607],[-71.061729,42.353574],[-71.061691,42.353574],[-71.061665,42.353593],[-71.061615,42.35377],[-71.061645,42.353803],[-71.061694,42.353798],[-71.061695,42.353846],[-71.061719,42.353839],[-71.061746,42.353743],[-71.061725,42.353725],[-71.061759,42.353607]]],[[[-71.061692,42.348648],[-71.061666,42.348619],[-71.061611,42.348636],[-71.061558,42.348822],[-71.06157,42.348844],[-71.061548,42.348928],[-71.061558,42.348945],[-71.061582,42.348938],[-71.061606,42.348853],[-71.061639,42.348834],[-71.061692,42.348648]]],[[[-71.061645,42.348297],[-71.061629,42.348268],[-71.061576,42.348258],[-71.061596,42.348179],[-71.061572,42.348172],[-71.061477,42.3485],[-71.061511,42.348538],[-71.061562,42.348533],[-71.061546,42.348591],[-71.061556,42.348608],[-71.06158,42.348601],[-71.061645,42.348297]]],[[[-71.061628,42.35355],[-71.061597,42.35354],[-71.061562,42.353655],[-71.061572,42.353673],[-71.061595,42.353665],[-71.061628,42.35355]]],[[[-71.061565,42.34867],[-71.061537,42.348639],[-71.061503,42.348639],[-71.061478,42.348657],[-71.061327,42.349171],[-71.061337,42.34919],[-71.061362,42.349182],[-71.061398,42.349058],[-71.061449,42.34904],[-71.061565,42.34867]]],[[[-71.061548,42.349568],[-71.061518,42.349535],[-71.06148,42.349535],[-71.061454,42.349554],[-71.061404,42.349731],[-71.061418,42.349757],[-71.061452,42.349767],[-71.061497,42.349745],[-71.061548,42.349568]]],[[[-71.061493,42.35095],[-71.061454,42.350938],[-71.061411,42.351075],[-71.061424,42.351097],[-71.061453,42.351088],[-71.061493,42.35095]]],[[[-71.061472,42.34815],[-71.061434,42.348108],[-71.061386,42.348108],[-71.061353,42.348133],[-71.061286,42.348367],[-71.061304,42.348399],[-71.061376,42.348425],[-71.061406,42.34841],[-71.061472,42.34815]]],[[[-71.06145,42.349534],[-71.06142,42.349501],[-71.061382,42.349501],[-71.061356,42.34952],[-71.061306,42.349697],[-71.06132,42.349723],[-71.061354,42.349733],[-71.061399,42.349711],[-71.06145,42.349534]]],[[[-71.061438,42.349255],[-71.061407,42.349245],[-71.061372,42.34936],[-71.061382,42.349378],[-71.061405,42.34937],[-71.061438,42.349255]]],[[[-71.061418,42.351122],[-71.061387,42.351112],[-71.06129,42.35138],[-71.0613,42.351397],[-71.061324,42.35139],[-71.061418,42.351122]]],[[[-71.061368,42.34943],[-71.061337,42.34942],[-71.061306,42.349521],[-71.061316,42.349538],[-71.06134,42.349531],[-71.061368,42.34943]]],[[[-71.061349,42.349228],[-71.061331,42.349208],[-71.061299,42.349213],[-71.061251,42.349366],[-71.061267,42.349394],[-71.061299,42.349389],[-71.061349,42.349228]]],[[[-71.061282,42.34963],[-71.061251,42.34962],[-71.061226,42.349673],[-71.061197,42.349776],[-71.061207,42.349793],[-71.06123,42.349786],[-71.061282,42.34963]]],[[[-71.061244,42.35337],[-71.061213,42.35336],[-71.061182,42.353461],[-71.061192,42.353478],[-71.061216,42.353471],[-71.061244,42.35337]]],[[[-71.061238,42.354774],[-71.061207,42.354764],[-71.061176,42.354865],[-71.061186,42.354882],[-71.06121,42.354875],[-71.061238,42.354774]]],[[[-71.061222,42.34983],[-71.061196,42.349801],[-71.061141,42.349818],[-71.061091,42.349992],[-71.061056,42.350015],[-71.060996,42.350226],[-71.061028,42.350261],[-71.061068,42.350261],[-71.061096,42.350241],[-71.061222,42.34983]]],[[[-71.061188,42.354916],[-71.061157,42.354906],[-71.061126,42.355007],[-71.061136,42.355024],[-71.06116,42.355017],[-71.061188,42.354916]]],[[[-71.061188,42.353344],[-71.061157,42.353334],[-71.061126,42.353435],[-71.061136,42.353452],[-71.06116,42.353445],[-71.061188,42.353344]]],[[[-71.061138,42.35332],[-71.061107,42.35331],[-71.061076,42.353411],[-71.061086,42.353428],[-71.06111,42.353421],[-71.061138,42.35332]]],[[[-71.061048,42.353275],[-71.061017,42.353265],[-71.060987,42.35336],[-71.060953,42.353358],[-71.060926,42.353454],[-71.060936,42.353471],[-71.06096,42.353464],[-71.060981,42.353388],[-71.061015,42.35339],[-71.061048,42.353275]]],[[[-71.061038,42.34849],[-71.061007,42.34848],[-71.060981,42.348564],[-71.060932,42.348587],[-71.060808,42.349001],[-71.060834,42.34903],[-71.06088,42.349023],[-71.060905,42.348959],[-71.060943,42.348936],[-71.061032,42.348602],[-71.061017,42.348575],[-71.061038,42.34849]]],[[[-71.060938,42.35322],[-71.060907,42.35321],[-71.060876,42.353311],[-71.060886,42.353328],[-71.060859,42.353428],[-71.060869,42.353445],[-71.060892,42.353438],[-71.060938,42.35322]]],[[[-71.060862,42.353302],[-71.060831,42.353292],[-71.0608,42.353393],[-71.06081,42.35341],[-71.060834,42.353403],[-71.060862,42.353302]]],[[[-71.060847,42.349174],[-71.060803,42.349125],[-71.060749,42.349125],[-71.06071,42.349154],[-71.060561,42.349634],[-71.060515,42.349656],[-71.060422,42.349988],[-71.060454,42.350023],[-71.060494,42.350023],[-71.060522,42.350003],[-71.060592,42.349731],[-71.060637,42.349708],[-71.060712,42.349465],[-71.060774,42.349433],[-71.060847,42.349174]]],[[[-71.060628,42.34926],[-71.060597,42.34925],[-71.060527,42.349397],[-71.060442,42.349647],[-71.060426,42.349731],[-71.060436,42.349748],[-71.06046,42.349741],[-71.060547,42.349458],[-71.0606,42.349361],[-71.060628,42.34926]]],[[[-71.060598,42.35304],[-71.060567,42.35303],[-71.060536,42.353131],[-71.060546,42.353148],[-71.06057,42.353141],[-71.060598,42.35304]]],[[[-71.060518,42.352997],[-71.060487,42.352987],[-71.060456,42.353088],[-71.060466,42.353105],[-71.06049,42.353098],[-71.060518,42.352997]]],[[[-71.060508,42.353283],[-71.060477,42.353273],[-71.060444,42.353381],[-71.060454,42.353398],[-71.060477,42.353391],[-71.060508,42.353283]]],[[[-71.060504,42.35315],[-71.060473,42.35314],[-71.060442,42.353241],[-71.060452,42.353258],[-71.060476,42.353251],[-71.060504,42.35315]]],[[[-71.060468,42.352974],[-71.060437,42.352964],[-71.060366,42.353191],[-71.060376,42.353208],[-71.0604,42.353201],[-71.060468,42.352974]]],[[[-71.060419,42.353405],[-71.060418,42.35338],[-71.0604,42.353367],[-71.060344,42.353394],[-71.060296,42.353538],[-71.060305,42.353593],[-71.060332,42.353601],[-71.060368,42.353583],[-71.060419,42.353405]]],[[[-71.060388,42.349884],[-71.060357,42.349874],[-71.060324,42.349982],[-71.060334,42.349999],[-71.060357,42.349992],[-71.060388,42.349884]]],[[[-71.060374,42.35307],[-71.060343,42.35306],[-71.060312,42.353161],[-71.060322,42.353178],[-71.060346,42.353171],[-71.060374,42.35307]]],[[[-71.060318,42.350037],[-71.060287,42.350027],[-71.060259,42.350115],[-71.06022,42.350136],[-71.06017,42.350313],[-71.0602,42.350346],[-71.060237,42.350346],[-71.060263,42.350327],[-71.060314,42.35015],[-71.060299,42.350125],[-71.060318,42.350037]]],[[[-71.060174,42.34947],[-71.06015,42.349443],[-71.060099,42.349459],[-71.060043,42.349619],[-71.060017,42.349634],[-71.059969,42.349804],[-71.059979,42.349823],[-71.060004,42.34983],[-71.060037,42.349814],[-71.060088,42.349666],[-71.060123,42.349648],[-71.060174,42.34947]]],[[[-71.060158,42.352962],[-71.060127,42.352952],[-71.060096,42.353053],[-71.060106,42.35307],[-71.06013,42.353063],[-71.060158,42.352962]]],[[[-71.060105,42.35341],[-71.060077,42.353379],[-71.060043,42.353379],[-71.060018,42.353397],[-71.059963,42.353592],[-71.059976,42.353615],[-71.060008,42.353625],[-71.06005,42.353604],[-71.060105,42.35341]]],[[[-71.059972,42.351044],[-71.059946,42.351015],[-71.059891,42.351032],[-71.059811,42.351266],[-71.059826,42.351291],[-71.059859,42.351281],[-71.059869,42.351248],[-71.059919,42.35123],[-71.059972,42.351044]]],[[[-71.059858,42.3533],[-71.059827,42.35329],[-71.059796,42.353391],[-71.059806,42.353408],[-71.05983,42.353401],[-71.059858,42.3533]]],[[[-71.059822,42.35326],[-71.059796,42.353231],[-71.059741,42.353248],[-71.059688,42.353434],[-71.0597,42.353456],[-71.05973,42.353466],[-71.059769,42.353446],[-71.059822,42.35326]]],[[[-71.059758,42.352753],[-71.059727,42.352743],[-71.059694,42.352851],[-71.059704,42.352868],[-71.059727,42.352861],[-71.059758,42.352753]]],[[[-71.059688,42.352737],[-71.059657,42.352727],[-71.059624,42.352835],[-71.059634,42.352852],[-71.059657,42.352845],[-71.059688,42.352737]]],[[[-71.059669,42.354954],[-71.059651,42.354934],[-71.059619,42.354939],[-71.059613,42.354903],[-71.059573,42.354873],[-71.059527,42.354873],[-71.059476,42.355052],[-71.059534,42.355095],[-71.059569,42.35509],[-71.059587,42.35512],[-71.059619,42.355115],[-71.059669,42.354954]]],[[[-71.059649,42.35171],[-71.059619,42.351677],[-71.059581,42.351677],[-71.059555,42.351696],[-71.059505,42.351873],[-71.059519,42.351899],[-71.059553,42.351909],[-71.059598,42.351887],[-71.059649,42.35171]]],[[[-71.059634,42.35273],[-71.059603,42.35272],[-71.059586,42.352772],[-71.05954,42.352747],[-71.059495,42.352769],[-71.059445,42.352946],[-71.059459,42.352972],[-71.059493,42.352982],[-71.059538,42.35296],[-71.059572,42.352841],[-71.0596,42.352843],[-71.059634,42.35273]]],[[[-71.059562,42.3516],[-71.059542,42.351578],[-71.0595,42.351591],[-71.059456,42.351744],[-71.059456,42.351762],[-71.059486,42.351777],[-71.059472,42.351829],[-71.059482,42.351848],[-71.059507,42.35184],[-71.059562,42.3516]]],[[[-71.059518,42.351097],[-71.059487,42.351087],[-71.059464,42.351157],[-71.059443,42.351165],[-71.059416,42.351261],[-71.059426,42.351278],[-71.05945,42.351271],[-71.059468,42.351206],[-71.05949,42.351198],[-71.059518,42.351097]]],[[[-71.059482,42.354813],[-71.059462,42.354791],[-71.059427,42.354796],[-71.05943,42.354765],[-71.059413,42.354738],[-71.059378,42.354709],[-71.05935,42.354709],[-71.059331,42.354723],[-71.059285,42.354903],[-71.059344,42.354949],[-71.059379,42.354944],[-71.059376,42.354975],[-71.059419,42.354988],[-71.059436,42.354975],[-71.059482,42.354813]]],[[[-71.059456,42.351627],[-71.05943,42.351608],[-71.059406,42.35162],[-71.059384,42.351697],[-71.059343,42.351698],[-71.059321,42.351774],[-71.059279,42.351774],[-71.059241,42.351905],[-71.059254,42.351927],[-71.059283,42.351918],[-71.059305,42.351842],[-71.059347,42.351842],[-71.059367,42.351774],[-71.05939,42.351785],[-71.059414,42.351773],[-71.059456,42.351627]]],[[[-71.059428,42.3531],[-71.059397,42.35309],[-71.059417,42.353005],[-71.059393,42.352998],[-71.059356,42.353101],[-71.059366,42.353118],[-71.059388,42.353113],[-71.059366,42.353191],[-71.059376,42.353208],[-71.0594,42.353201],[-71.059428,42.3531]]],[[[-71.059219,42.35129],[-71.059187,42.351235],[-71.059129,42.351197],[-71.059091,42.351197],[-71.059065,42.351216],[-71.059007,42.351419],[-71.059022,42.351444],[-71.059056,42.351455],[-71.05905,42.3515],[-71.059016,42.35151],[-71.058995,42.351585],[-71.058945,42.351585],[-71.058905,42.351669],[-71.058867,42.351673],[-71.058809,42.351755],[-71.058775,42.351761],[-71.058755,42.351813],[-71.058688,42.351825],[-71.058666,42.351883],[-71.058599,42.351924],[-71.05859,42.351956],[-71.058491,42.351968],[-71.058444,42.352041],[-71.058397,42.35205],[-71.058384,42.352088],[-71.058357,42.352087],[-71.058324,42.352195],[-71.058334,42.352212],[-71.058357,42.352206],[-71.058343,42.352256],[-71.058356,42.352279],[-71.058406,42.352287],[-71.05843,42.352268],[-71.05844,42.352236],[-71.058511,42.352229],[-71.058564,42.352073],[-71.058639,42.352076],[-71.058655,42.352039],[-71.058704,42.352023],[-71.058724,42.351953],[-71.058768,42.351964],[-71.058795,42.351923],[-71.058837,42.351908],[-71.058849,42.351867],[-71.058876,42.351852],[-71.058897,42.35178],[-71.058924,42.35179],[-71.058957,42.351774],[-71.058987,42.351671],[-71.059024,42.351663],[-71.059051,42.35157],[-71.059086,42.351582],[-71.059131,42.351559],[-71.059219,42.35129]]],[[[-71.059184,42.353294],[-71.059153,42.353284],[-71.059122,42.353385],[-71.059132,42.353402],[-71.059156,42.353395],[-71.059184,42.353294]]],[[[-71.059092,42.354385],[-71.059072,42.354363],[-71.05903,42.354376],[-71.058986,42.354529],[-71.058993,42.354555],[-71.059016,42.354562],[-71.059046,42.354547],[-71.059092,42.354385]]],[[[-71.059088,42.353287],[-71.059057,42.353277],[-71.059026,42.353378],[-71.059036,42.353395],[-71.05906,42.353388],[-71.059088,42.353287]]],[[[-71.059018,42.354332],[-71.058987,42.354322],[-71.058956,42.354423],[-71.058966,42.35444],[-71.05899,42.354433],[-71.059018,42.354332]]],[[[-71.058998,42.353283],[-71.058967,42.353273],[-71.058936,42.353374],[-71.058946,42.353391],[-71.05897,42.353384],[-71.058998,42.353283]]],[[[-71.058959,42.35429],[-71.058926,42.35428],[-71.058887,42.354409],[-71.058897,42.354428],[-71.058922,42.35442],[-71.058959,42.35429]]],[[[-71.058864,42.353268],[-71.058833,42.353258],[-71.058802,42.353359],[-71.058812,42.353376],[-71.058836,42.353369],[-71.058864,42.353268]]],[[[-71.058758,42.353268],[-71.058727,42.353258],[-71.058696,42.353359],[-71.058706,42.353376],[-71.05873,42.353369],[-71.058758,42.353268]]],[[[-71.058568,42.35253],[-71.058537,42.35252],[-71.058506,42.352621],[-71.058516,42.352638],[-71.05854,42.352631],[-71.058568,42.35253]]],[[[-71.058508,42.352524],[-71.058491,42.352511],[-71.058498,42.352474],[-71.058462,42.352474],[-71.058427,42.352599],[-71.058456,42.352632],[-71.05848,42.352625],[-71.058508,42.352524]]],[[[-71.058428,42.352528],[-71.058397,42.352518],[-71.058364,42.352626],[-71.058374,42.352643],[-71.058397,42.352636],[-71.058428,42.352528]]],[[[-71.058388,42.35247],[-71.058357,42.35246],[-71.05834,42.352509],[-71.058317,42.35251],[-71.058286,42.352611],[-71.058296,42.352628],[-71.05832,42.352621],[-71.058332,42.352577],[-71.058356,42.352575],[-71.058388,42.35247]]],[[[-71.058288,42.35091],[-71.058257,42.3509],[-71.058226,42.351001],[-71.058236,42.351018],[-71.05826,42.351011],[-71.058288,42.35091]]],[[[-71.058278,42.352467],[-71.058247,42.352457],[-71.058206,42.352603],[-71.058216,42.35262],[-71.05824,42.352613],[-71.058278,42.352467]]],[[[-71.058218,42.350887],[-71.058187,42.350877],[-71.058156,42.350978],[-71.058166,42.350995],[-71.05819,42.350988],[-71.058218,42.350887]]],[[[-71.058038,42.352665],[-71.058007,42.352655],[-71.057976,42.352756],[-71.05798,42.352876],[-71.058004,42.352869],[-71.058031,42.352773],[-71.058021,42.352756],[-71.058038,42.352665]]],[[[-71.058008,42.352905],[-71.057977,42.352895],[-71.057946,42.352996],[-71.057956,42.353013],[-71.05798,42.353006],[-71.058008,42.352905]]],[[[-71.057803,42.350693],[-71.057772,42.350683],[-71.057741,42.350784],[-71.057751,42.350801],[-71.057775,42.350794],[-71.057803,42.350693]]],[[[-71.057758,42.350677],[-71.057727,42.350667],[-71.057696,42.350768],[-71.057706,42.350785],[-71.05773,42.350778],[-71.057758,42.350677]]],[[[-71.05775,42.352226],[-71.057724,42.352207],[-71.0577,42.352219],[-71.05766,42.352357],[-71.057675,42.352382],[-71.057708,42.352372],[-71.05775,42.352226]]],[[[-71.057623,42.35219],[-71.057605,42.35217],[-71.057573,42.352175],[-71.057525,42.352328],[-71.057541,42.352356],[-71.057573,42.352351],[-71.057623,42.35219]]],[[[-71.057536,42.35216],[-71.05751,42.352141],[-71.057486,42.352153],[-71.057446,42.352291],[-71.057461,42.352316],[-71.057494,42.352306],[-71.057536,42.35216]]],[[[-71.057456,42.35214],[-71.05743,42.352121],[-71.057406,42.352133],[-71.057366,42.352271],[-71.057381,42.352296],[-71.057414,42.352286],[-71.057456,42.35214]]],[[[-71.057414,42.350403],[-71.057383,42.350393],[-71.057352,42.350494],[-71.057336,42.350585],[-71.057346,42.350602],[-71.05737,42.350595],[-71.057414,42.350403]]],[[[-71.057369,42.35211],[-71.057351,42.35209],[-71.057319,42.352095],[-71.057271,42.352248],[-71.057287,42.352276],[-71.057319,42.352271],[-71.057369,42.35211]]],[[[-71.057348,42.351707],[-71.057317,42.351697],[-71.057276,42.351841],[-71.057286,42.351858],[-71.05731,42.351851],[-71.057348,42.351707]]],[[[-71.057309,42.351897],[-71.057278,42.351887],[-71.057247,42.351988],[-71.057248,42.352056],[-71.057272,42.352049],[-71.057309,42.351897]]],[[[-71.057298,42.350925],[-71.057267,42.350915],[-71.057232,42.35103],[-71.057242,42.351048],[-71.057265,42.35104],[-71.057298,42.350925]]],[[[-71.057268,42.351063],[-71.057237,42.351053],[-71.057202,42.351168],[-71.057212,42.351186],[-71.057235,42.351178],[-71.057268,42.351063]]],[[[-71.057208,42.35141],[-71.057177,42.3514],[-71.057146,42.351501],[-71.057156,42.351518],[-71.05718,42.351511],[-71.057208,42.35141]]],[[[-71.057198,42.35055],[-71.057167,42.35054],[-71.057141,42.350622],[-71.057116,42.350622],[-71.057085,42.350723],[-71.057095,42.35074],[-71.057119,42.350733],[-71.057141,42.350656],[-71.057166,42.350655],[-71.057198,42.35055]]],[[[-71.057094,42.350533],[-71.057063,42.350523],[-71.057032,42.350624],[-71.057042,42.350641],[-71.057066,42.350634],[-71.057094,42.350533]]],[[[-71.057038,42.34984],[-71.057007,42.34983],[-71.056991,42.349879],[-71.05696,42.349894],[-71.056916,42.350047],[-71.056934,42.350078],[-71.056976,42.350065],[-71.057038,42.34984]]],[[[-71.056868,42.352028],[-71.056837,42.352018],[-71.0568,42.35214],[-71.05681,42.352158],[-71.056833,42.35215],[-71.056868,42.352028]]],[[[-71.056834,42.35023],[-71.056803,42.35022],[-71.056736,42.350398],[-71.056746,42.350415],[-71.05677,42.350408],[-71.056834,42.35023]]],[[[-71.056829,42.34976],[-71.056805,42.349733],[-71.056754,42.349749],[-71.056716,42.34988],[-71.05668,42.349901],[-71.056581,42.350162],[-71.05656,42.350176],[-71.056516,42.350329],[-71.056523,42.350355],[-71.056546,42.350362],[-71.056576,42.350347],[-71.056628,42.350204],[-71.056678,42.350183],[-71.056778,42.349938],[-71.056829,42.34976]]],[[[-71.056748,42.351994],[-71.056717,42.351984],[-71.056682,42.352099],[-71.056692,42.352117],[-71.056715,42.352109],[-71.056748,42.351994]]],[[[-71.056643,42.350613],[-71.056612,42.350603],[-71.056591,42.350667],[-71.056577,42.35067],[-71.05654,42.350792],[-71.05655,42.35081],[-71.056573,42.350802],[-71.05659,42.350744],[-71.056604,42.35074],[-71.056643,42.350613]]],[[[-71.056626,42.353203],[-71.0566,42.353184],[-71.056576,42.353196],[-71.056536,42.353334],[-71.056551,42.353359],[-71.056584,42.353349],[-71.056626,42.353203]]],[[[-71.056559,42.353165],[-71.056526,42.353155],[-71.056487,42.353284],[-71.056497,42.353303],[-71.056522,42.353295],[-71.056559,42.353165]]],[[[-71.056559,42.350834],[-71.056529,42.350801],[-71.056491,42.350801],[-71.056465,42.35082],[-71.056415,42.350997],[-71.056429,42.351023],[-71.056463,42.351033],[-71.056508,42.351011],[-71.056559,42.350834]]],[[[-71.056484,42.353127],[-71.056451,42.353117],[-71.056412,42.353246],[-71.056422,42.353265],[-71.056447,42.353257],[-71.056484,42.353127]]],[[[-71.056468,42.35192],[-71.056437,42.35191],[-71.0564,42.352032],[-71.05641,42.35205],[-71.056433,42.352042],[-71.056468,42.35192]]],[[[-71.056428,42.35103],[-71.056397,42.35102],[-71.056363,42.351092],[-71.056302,42.351267],[-71.056312,42.351284],[-71.056336,42.351277],[-71.056428,42.35103]]],[[[-71.056393,42.35309],[-71.056354,42.353078],[-71.056311,42.353215],[-71.056324,42.353237],[-71.056353,42.353228],[-71.056393,42.35309]]],[[[-71.056388,42.3519],[-71.056357,42.35189],[-71.056328,42.351984],[-71.056338,42.352001],[-71.056362,42.351994],[-71.056388,42.3519]]],[[[-71.056338,42.35493],[-71.056307,42.35492],[-71.05627,42.355042],[-71.05628,42.35506],[-71.056303,42.355052],[-71.056338,42.35493]]],[[[-71.056328,42.354836],[-71.056297,42.354826],[-71.05626,42.354948],[-71.05627,42.354966],[-71.056293,42.354958],[-71.056328,42.354836]]],[[[-71.056309,42.35475],[-71.05629,42.354736],[-71.056304,42.354663],[-71.05627,42.354652],[-71.056216,42.354801],[-71.05624,42.354828],[-71.056247,42.354888],[-71.056272,42.35488],[-71.056309,42.35475]]],[[[-71.056258,42.351376],[-71.056227,42.351366],[-71.056195,42.351437],[-71.056173,42.351445],[-71.056144,42.351548],[-71.056154,42.351565],[-71.056208,42.351519],[-71.056258,42.351376]]],[[[-71.056256,42.350842],[-71.056225,42.350832],[-71.056113,42.35114],[-71.05608,42.351257],[-71.05609,42.351275],[-71.056113,42.351267],[-71.056256,42.350842]]],[[[-71.056248,42.35305],[-71.056217,42.35304],[-71.056186,42.353141],[-71.056196,42.353158],[-71.05622,42.353151],[-71.056248,42.35305]]],[[[-71.056078,42.35171],[-71.056047,42.3517],[-71.056014,42.351808],[-71.056024,42.351825],[-71.056047,42.351818],[-71.056078,42.35171]]],[[[-71.055977,42.351355],[-71.055946,42.351345],[-71.055796,42.351714],[-71.055773,42.351722],[-71.05572,42.351888],[-71.05573,42.351906],[-71.055753,42.351898],[-71.055801,42.351752],[-71.055824,42.351744],[-71.055942,42.351477],[-71.055977,42.351355]]],[[[-71.055869,42.352226],[-71.055839,42.352193],[-71.055801,42.352193],[-71.055775,42.352212],[-71.055766,42.352243],[-71.055741,42.352262],[-71.055694,42.352425],[-71.055705,42.352465],[-71.055739,42.352475],[-71.055784,42.352453],[-71.055793,42.352422],[-71.055818,42.352403],[-71.055869,42.352226]]],[[[-71.055788,42.353336],[-71.055779,42.353319],[-71.055744,42.353314],[-71.055712,42.353377],[-71.055674,42.353379],[-71.055626,42.353532],[-71.055642,42.35356],[-71.055674,42.353555],[-71.055692,42.353507],[-71.055742,42.353498],[-71.055788,42.353336]]],[[[-71.055645,42.35343],[-71.055612,42.35342],[-71.055573,42.353549],[-71.055583,42.353568],[-71.055608,42.35356],[-71.055645,42.35343]]],[[[-71.055558,42.353497],[-71.055527,42.353487],[-71.05549,42.353609],[-71.0555,42.353627],[-71.055523,42.353619],[-71.055558,42.353497]]],[[[-71.055498,42.35353],[-71.055467,42.35352],[-71.055434,42.353628],[-71.055444,42.353645],[-71.055467,42.353638],[-71.055498,42.35353]]],[[[-71.055262,42.353653],[-71.055244,42.35364],[-71.055199,42.353652],[-71.055177,42.353684],[-71.055149,42.353694],[-71.055111,42.353838],[-71.055141,42.353847],[-71.055189,42.353833],[-71.055262,42.353653]]]]},"properties":{"kind":"tree"}}]}