{"type":"FeatureCollection","features":[{"type":"Feature","geometry":{"type":"MultiPolygon","coordinates":[[[[-71.06703,42.351826],[-71.067007,42.351692],[-71.066747,42.351106],[-71.065847,42.351212],[-71.065991,42.350995],[-71.065959,42.350666],[-71.06592,42.350665],[-71.065953,42.350615],[-71.06593,42.350327],[-71.065841,42.350332],[-71.065916,42.350219],[-71.065884,42.349915],[-71.065925,42.349902],[-71.066095,42.349646],[-71.066051,42.349568],[-71.066107,42.349483],[-71.066051,42.349385],[-71.065989,42.349405],[-71.065938,42.349481],[-71.06562,42.349445],[-71.065521,42.349461],[-71.065207,42.349933],[-71.065117,42.350353],[-71.064887,42.3507],[-71.065001,42.350248],[-71.06495,42.35023],[-71.065043,42.35009],[-71.065169,42.349617],[-71.06486,42.34957],[-71.065082,42.349235],[-71.065179,42.349225],[-71.065238,42.349137],[-71.065214,42.349253],[-71.065281,42.349262],[-71.065243,42.349319],[-71.065228,42.349388],[-71.065324,42.349399],[-71.065483,42.349159],[-71.065499,42.349214],[-71.066037,42.349277],[-71.066458,42.348649],[-71.066483,42.348529],[-71.06591,42.348462],[-71.065995,42.348064],[-71.065837,42.348044],[-71.065324,42.348815],[-71.065279,42.348688],[-71.064992,42.348617],[-71.064713,42.348581],[-71.064819,42.348422],[-71.064847,42.348443],[-71.064905,42.348406],[-71.065038,42.348559],[-71.065062,42.348547],[-71.065049,42.348567],[-71.06506,42.348579],[-71.065354,42.348514],[-71.065427,42.34839],[-71.065361,42.348315],[-71.065475,42.348175],[-71.065475,42.348101],[-71.06544,42.348061],[-71.06552,42.347941],[-71.065529,42.347903],[-71.065483,42.347819],[-71.065392,42.347805],[-71.065371,42.347781],[-71.065305,42.347784],[-71.065318,42.347764],[-71.065319,42.347677],[-71.065257,42.347643],[-71.064894,42.347587],[-71.064503,42.347783],[-71.064292,42.348101],[-71.064178,42.348363],[-71.064129,42.348538],[-71.064165,42.348544],[-71.064247,42.348511],[-71.064275,42.348518],[-71.064259,42.348541],[-71.064283,42.348568],[-71.063814,42.349272],[-71.063788,42.349366],[-71.063926,42.349388],[-71.063906,42.349453],[-71.063999,42.349467],[-71.06404,42.349405],[-71.064153,42.349422],[-71.064289,42.349219],[-71.064333,42.349225],[-71.064129,42.349531],[-71.063761,42.349475],[-71.063667,42.349386],[-71.063746,42.349213],[-71.063772,42.349073],[-71.063736,42.349067],[-71.063827,42.348879],[-71.063945,42.348463],[-71.063909,42.348457],[-71.06402,42.348291],[-71.064113,42.347947],[-71.063968,42.347919],[-71.063883,42.347989],[-71.063856,42.347985],[-71.063757,42.348134],[-71.063538,42.348106],[-71.063606,42.347866],[-71.06346,42.347843],[-71.063315,42.348061],[-71.063227,42.348343],[-71.06318,42.348336],[-71.063229,42.348263],[-71.063253,42.34818],[-71.063231,42.34815],[-71.06328,42.348076],[-71.063299,42.348007],[-71.062961,42.347921],[-71.062909,42.348],[-71.062855,42.347962],[-71.062735,42.347939],[-71.062562,42.348198],[-71.062519,42.348308],[-71.06253,42.348314],[-71.062448,42.348464],[-71.062461,42.348466],[-71.062305,42.3487],[-71.062149,42.349094],[-71.062178,42.349099],[-71.062114,42.349197],[-71.061954,42.349581],[-71.061971,42.349604],[-71.061736,42.349967],[-71.061759,42.350012],[-71.061637,42.350309],[-71.061655,42.350317],[-71.061384,42.350725],[-71.061339,42.350837],[-71.061363,42.350877],[-71.061314,42.350984],[-71.061329,42.351],[-71.061175,42.351231],[-71.061102,42.351418],[-71.061238,42.351453],[-71.061066,42.351712],[-71.061041,42.351545],[-71.061008,42.351537],[-71.061099,42.3514],[-71.061227,42.351071],[-71.061182,42.351061],[-71.061321,42.350852],[-71.061357,42.350743],[-71.061336,42.350717],[-71.061484,42.350494],[-71.061778,42.349762],[-71.061748,42.349749],[-71.061812,42.349653],[-71.061975,42.34927],[-71.061808,42.349235],[-71.061839,42.34916],[-71.061745,42.349139],[-71.061702,42.349195],[-71.061783,42.348996],[-71.06177,42.348993],[-71.061867,42.348804],[-71.061904,42.348805],[-71.061968,42.348709],[-71.061981,42.348712],[-71.061965,42.348752],[-71.062079,42.348777],[-71.062216,42.348582],[-71.06226,42.348505],[-71.062367,42.34823],[-71.062296,42.348215],[-71.062411,42.348042],[-71.062446,42.347953],[-71.061926,42.347827],[-71.061579,42.348345],[-71.061505,42.348328],[-71.061722,42.347989],[-71.061866,42.34764],[-71.061712,42.347604],[-71.0613,42.348224],[-71.061184,42.348198],[-71.060944,42.348547],[-71.060916,42.348642],[-71.060926,42.348644],[-71.060841,42.348874],[-71.060938,42.3489],[-71.060936,42.348915],[-71.060878,42.348902],[-71.060707,42.349159],[-71.060594,42.349469],[-71.060726,42.349528],[-71.060734,42.349517],[-71.060826,42.349554],[-71.060862,42.349499],[-71.060835,42.349567],[-71.060977,42.349624],[-71.060967,42.349639],[-71.061037,42.349667],[-71.061244,42.349357],[-71.061233,42.349352],[-71.061292,42.349247],[-71.061384,42.349005],[-71.061356,42.348999],[-71.061436,42.348818],[-71.061424,42.348809],[-71.061477,42.34873],[-71.061583,42.348754],[-71.061512,42.348931],[-71.061397,42.349103],[-71.061266,42.349482],[-71.061134,42.349681],[-71.061019,42.349965],[-71.061027,42.349989],[-71.060875,42.350218],[-71.060966,42.349994],[-71.060509,42.349891],[-71.060024,42.350619],[-71.060116,42.350367],[-71.060083,42.350358],[-71.060226,42.350142],[-71.060327,42.349891],[-71.060298,42.349851],[-71.060367,42.349747],[-71.060567,42.349259],[-71.060518,42.349199],[-71.060786,42.348796],[-71.061068,42.348118],[-71.061011,42.348097],[-71.060331,42.349067],[-71.060321,42.349063],[-71.059428,42.350405],[-71.059504,42.350218],[-71.059471,42.35018],[-71.059047,42.350086],[-71.058996,42.350102],[-71.058684,42.350572],[-71.058377,42.351331],[-71.058402,42.351359],[-71.058104,42.352077],[-71.0583,42.35212],[-71.058411,42.35202],[-71.058602,42.351805],[-71.058835,42.351459],[-71.058886,42.351445],[-71.059109,42.351109],[-71.058944,42.351524],[-71.059245,42.351618],[-71.059665,42.350985],[-71.059767,42.351007],[-71.059799,42.35096],[-71.059673,42.35127],[-71.05974,42.351288],[-71.059436,42.351746],[-71.059398,42.351845],[-71.059236,42.352074],[-71.059226,42.352012],[-71.059026,42.352083],[-71.058906,42.352152],[-71.058834,42.352228],[-71.058632,42.352531],[-71.058176,42.352542],[-71.058071,42.352594],[-71.05775,42.353075],[-71.057796,42.352781],[-71.057688,42.352735],[-71.05762,42.352738],[-71.057952,42.352235],[-71.058115,42.351737],[-71.058087,42.351717],[-71.058131,42.351651],[-71.058314,42.35122],[-71.058414,42.350953],[-71.058382,42.350945],[-71.058459,42.35083],[-71.058542,42.350652],[-71.058706,42.35021],[-71.058767,42.350099],[-71.058776,42.350034],[-71.058372,42.349945],[-71.058216,42.350179],[-71.058289,42.349924],[-71.058163,42.349898],[-71.058297,42.349696],[-71.058424,42.349376],[-71.057926,42.349266],[-71.057789,42.349472],[-71.057722,42.349639],[-71.057802,42.349657],[-71.057787,42.349696],[-71.057814,42.349702],[-71.057495,42.350183],[-71.057458,42.350272],[-71.057374,42.350399],[-71.057505,42.349748],[-71.057443,42.349735],[-71.057988,42.348915],[-71.05807,42.348711],[-71.057613,42.348605],[-71.056905,42.34967],[-71.056821,42.349879],[-71.05697,42.349912],[-71.05656,42.350529],[-71.056459,42.35076],[-71.056482,42.350766],[-71.056383,42.350962],[-71.056399,42.350964],[-71.056132,42.35139],[-71.056142,42.351432],[-71.056189,42.351472],[-71.056186,42.351485],[-71.055722,42.352192],[-71.055563,42.352508],[-71.055507,42.352626],[-71.055593,42.352648],[-71.054754,42.353919],[-71.054378,42.354122],[-71.052544,42.356878],[-71.052549,42.356935],[-71.052804,42.3572],[-71.052854,42.357214],[-71.052907,42.357204],[-71.053246,42.356908],[-71.053546,42.356458],[-71.053686,42.356493],[-71.053414,42.356925],[-71.053413,42.356963],[-71.053482,42.357026],[-71.05343,42.357104],[-71.053498,42.357174],[-71.053589,42.357152],[-71.05394,42.356926],[-71.05406,42.356746],[-71.054104,42.356719],[-71.054465,42.356177],[-71.054482,42.356195],[-71.05456,42.356173],[-71.054606,42.356104],[-71.054651,42.356091],[-71.054491,42.356332],[-71.054527,42.356534],[-71.052995,42.358838],[-71.053101,42.359416],[-71.053553,42.359372],[-71.05487,42.357392],[-71.054911,42.357622],[-71.055694,42.357563],[-71.056961,42.355657],[-71.057443,42.355688],[-71.057429,42.35571],[-71.057538,42.355927],[-71.057665,42.355942],[-71.057728,42.35592],[-71.057814,42.355836],[-71.058067,42.355456],[-71.058085,42.355466],[-71.058328,42.355244],[-71.058392,42.355263],[-71.058201,42.355551],[-71.058205,42.355577],[-71.058503,42.355707],[-71.057636,42.357011],[-71.05771,42.357066],[-71.058002,42.357185],[-71.058248,42.356971],[-71.058311,42.356893],[-71.059136,42.355653],[-71.059612,42.356012],[-71.059789,42.355884],[-71.060046,42.355497],[-71.060354,42.355712],[-71.060647,42.355439],[-71.060676,42.355457],[-71.061018,42.355139],[-71.060683,42.355643],[-71.060966,42.355788],[-71.060953,42.355958],[-71.06097,42.355969],[-71.06067,42.356419],[-71.060705,42.356441],[-71.061191,42.356439],[-71.061763,42.35558],[-71.061892,42.355646],[-71.062093,42.355416],[-71.062057,42.355483],[-71.062169,42.355546],[-71.0622,42.355519],[-71.062069,42.355715],[-71.062159,42.355766],[-71.062218,42.355704],[-71.062336,42.355763],[-71.062222,42.355934],[-71.061933,42.356471],[-71.062174,42.356542],[-71.062611,42.355898],[-71.062639,42.355912],[-71.062683,42.355903],[-71.063255,42.355044],[-71.064052,42.353554],[-71.064097,42.353425],[-71.064064,42.353419],[-71.064146,42.353296],[-71.064188,42.35319],[-71.064489,42.353205],[-71.064486,42.353236],[-71.064904,42.353258],[-71.065112,42.352946],[-71.065182,42.352951],[-71.065147,42.35302],[-71.065113,42.353232],[-71.06531,42.353247],[-71.065587,42.35283],[-71.06559,42.352954],[-71.065686,42.352959],[-71.065891,42.35265],[-71.066296,42.352699],[-71.066479,42.352654],[-71.06703,42.351826]],[[-71.064778,42.351301],[-71.06469,42.351434],[-71.064727,42.351294],[-71.064778,42.351301]],[[-71.063506,42.348514],[-71.063431,42.348702],[-71.063229,42.348988],[-71.063365,42.348783],[-71.063444,42.348505],[-71.063506,42.348514]],[[-71.06334,42.354175],[-71.0632,42.354328],[-71.063299,42.354179],[-71.06334,42.354175]],[[-71.063201,42.350872],[-71.063084,42.351048],[-71.063049,42.351044],[-71.062921,42.35123],[-71.06287,42.351369],[-71.062675,42.351663],[-71.062644,42.351652],[-71.062728,42.351525],[-71.062859,42.351039],[-71.062798,42.35103],[-71.062951,42.350799],[-71.063016,42.350613],[-71.063197,42.350818],[-71.063175,42.350885],[-71.063201,42.350872]],[[-71.062818,42.348211],[-71.062775,42.348275],[-71.062753,42.348272],[-71.062797,42.348207],[-71.062818,42.348211]],[[-71.0623,42.350688],[-71.062064,42.351039],[-71.062049,42.351012],[-71.062269,42.350675],[-71.0623,42.350688]],[[-71.062014,42.353997],[-71.061692,42.354473],[-71.062009,42.353996],[-71.062014,42.353997]],[[-71.061339,42.354832],[-71.061287,42.35491],[-71.061268,42.3549],[-71.061339,42.354832]],[[-71.06118,42.352613],[-71.060912,42.353017],[-71.060815,42.353125],[-71.060714,42.353275],[-71.060695,42.353272],[-71.059969,42.354033],[-71.059759,42.354198],[-71.060133,42.353635],[-71.060036,42.353582],[-71.060099,42.353488],[-71.060393,42.353594],[-71.0605,42.353473],[-71.060973,42.352762],[-71.060995,42.352689],[-71.060986,42.352611],[-71.061011,42.352574],[-71.061162,42.352568],[-71.06118,42.352613]],[[-71.060766,42.350646],[-71.060636,42.350843],[-71.06058,42.350981],[-71.060568,42.350978],[-71.060713,42.350624],[-71.060766,42.350646]],[[-71.060751,42.350448],[-71.060718,42.350532],[-71.060699,42.350527],[-71.060751,42.350448]],[[-71.060691,42.351097],[-71.060474,42.351422],[-71.060388,42.351402],[-71.060469,42.351279],[-71.060559,42.351073],[-71.060691,42.351097]],[[-71.060038,42.351699],[-71.059981,42.351785],[-71.059977,42.351762],[-71.060021,42.351701],[-71.060038,42.351699]],[[-71.060008,42.352387],[-71.059733,42.352801],[-71.059657,42.352762],[-71.059553,42.352772],[-71.05938,42.353033],[-71.059377,42.353013],[-71.059391,42.353014],[-71.05972,42.35252],[-71.059757,42.352517],[-71.059831,42.352405],[-71.060008,42.352387]],[[-71.05911,42.353695],[-71.05902,42.353778],[-71.058933,42.353909],[-71.058908,42.353894],[-71.059097,42.353612],[-71.05911,42.353695]],[[-71.058834,42.353942],[-71.058808,42.353966],[-71.058821,42.353947],[-71.058834,42.353942]],[[-71.05733,42.352876],[-71.057163,42.352943],[-71.05712,42.352979],[-71.056825,42.353422],[-71.056536,42.353552],[-71.05666,42.353366],[-71.056638,42.353263],[-71.056409,42.353168],[-71.056865,42.352482],[-71.056822,42.352717],[-71.05733,42.352876]],[[-71.05733,42.350558],[-71.057264,42.350676],[-71.057253,42.350674],[-71.05733,42.350558]],[[-71.057117,42.351578],[-71.0571,42.351668],[-71.057068,42.351652],[-71.057117,42.351578]]],[[[-71.065565,42.354342],[-71.065554,42.354318],[-71.065521,42.354301],[-71.065458,42.354314],[-71.065316,42.354524],[-71.065316,42.354568],[-71.065359,42.354591],[-71.065416,42.354577],[-71.065565,42.354342]]],[[[-71.06461,42.353278],[-71.064542,42.353266],[-71.064487,42.353348],[-71.064453,42.353448],[-71.064521,42.353462],[-71.064576,42.35338],[-71.06461,42.353278]]],[[[-71.063935,42.354829],[-71.063869,42.354811],[-71.063794,42.354939],[-71.06386,42.354956],[-71.063935,42.354829]]],[[[-71.059318,42.349726],[-71.059179,42.349693],[-71.0591,42.349811],[-71.059026,42.349984],[-71.059165,42.350017],[-71.059244,42.349899],[-71.059318,42.349726]]],[[[-71.056775,42.349199],[-71.056596,42.349149],[-71.055487,42.349466],[-71.055208,42.349886],[-71.054746,42.350797],[-71.05479,42.350831],[-71.054668,42.351073],[-71.054726,42.351089],[-71.054861,42.350886],[-71.054965,42.350967],[-71.054914,42.351068],[-71.055003,42.351092],[-71.055045,42.351029],[-71.055175,42.351098],[-71.055331,42.351123],[-71.055304,42.351178],[-71.05539,42.351202],[-71.055444,42.351121],[-71.055657,42.351115],[-71.055821,42.35116],[-71.055874,42.351141],[-71.055898,42.351105],[-71.055959,42.351093],[-71.056238,42.350673],[-71.056434,42.350281],[-71.056635,42.349782],[-71.056775,42.349199]]],[[[-71.056683,42.347603],[-71.056673,42.347544],[-71.055908,42.347262],[-71.053025,42.351533],[-71.053606,42.351748],[-71.053973,42.351261],[-71.054217,42.351352],[-71.055307,42.349724],[-71.055272,42.349711],[-71.056683,42.347603]]],[[[-71.055768,42.35162],[-71.055498,42.351545],[-71.054479,42.351779],[-71.054307,42.351954],[-71.053878,42.352599],[-71.054404,42.352877],[-71.054564,42.352928],[-71.054732,42.352953],[-71.054909,42.352913],[-71.055029,42.352823],[-71.05512,42.352714],[-71.055549,42.352069],[-71.055768,42.35162]]]]},"properties":{"kind":"building"}},{"type":"Feature","geometry":{"type":"MultiPolygon","coordinates":[[[[-71.066058,42.353451],[-71.066047,42.35341],[-71.065968,42.353351],[-71.065912,42.353343],[-71.065833,42.353363],[-71.066007,42.353073],[-71.066007,42.353005],[-71.066048,42.352923],[-71.066021,42.352832],[-71.065989,42.352797],[-71.065915,42.352769],[-71.066016,42.352618],[-71.066022,42.352597],[-71.066,42.352558],[-71.065947,42.352542],[-71.065882,42.352572],[-71.065841,42.352538],[-71.065759,42.35255],[-71.065688,42.352518],[-71.065635,42.352534],[-71.06559,42.352595],[-71.06551,42.352612],[-71.065283,42.352945],[-71.065283,42.352996],[-71.065332,42.353032],[-71.065255,42.353148],[-71.065253,42.353197],[-71.065215,42.353202],[-71.065308,42.353051],[-71.065288,42.353015],[-71.065255,42.353003],[-71.065274,42.352968],[-71.06525,42.352941],[-71.065457,42.352616],[-71.065457,42.352558],[-71.065401,42.352516],[-71.065321,42.352516],[-71.065288,42.352533],[-71.065142,42.352742],[-71.065092,42.352768],[-71.064938,42.353],[-71.064927,42.353065],[-71.064865,42.353015],[-71.064844,42.352968],[-71.064885,42.352935],[-71.065109,42.352581],[-71.065102,42.352553],[-71.065049,42.352515],[-71.064975,42.352515],[-71.064943,42.35253],[-71.064705,42.35288],[-71.064704,42.352932],[-71.064634,42.352981],[-71.06438,42.353363],[-71.064371,42.353397],[-71.0644,42.353453],[-71.064377,42.353512],[-71.064387,42.353548],[-71.064135,42.353985],[-71.064145,42.354027],[-71.064062,42.354152],[-71.064047,42.354232],[-71.063634,42.354887],[-71.063627,42.354944],[-71.063569,42.355037],[-71.063569,42.355081],[-71.063612,42.355112],[-71.063671,42.355112],[-71.063752,42.355034],[-71.063824,42.355028],[-71.063872,42.355005],[-71.064021,42.354793],[-71.064098,42.354766],[-71.064129,42.354731],[-71.064254,42.354543],[-71.064334,42.354542],[-71.064369,42.354525],[-71.064517,42.354312],[-71.064576,42.354314],[-71.06461,42.354291],[-71.064623,42.354298],[-71.064532,42.354436],[-71.064466,42.354444],[-71.064412,42.35452],[-71.064363,42.354531],[-71.064316,42.354597],[-71.064279,42.354608],[-71.064232,42.354675],[-71.064191,42.354675],[-71.064161,42.354697],[-71.064012,42.354921],[-71.064024,42.354966],[-71.064063,42.354978],[-71.0641,42.354967],[-71.064062,42.355024],[-71.064062,42.355065],[-71.0641,42.355093],[-71.064155,42.355093],[-71.064194,42.355065],[-71.064342,42.354874],[-71.064394,42.354857],[-71.064466,42.354878],[-71.064542,42.354855],[-71.064753,42.354548],[-71.064627,42.354761],[-71.064651,42.354804],[-71.064677,42.354817],[-71.064607,42.354972],[-71.064614,42.354997],[-71.064661,42.355032],[-71.064483,42.355299],[-71.064483,42.355358],[-71.06454,42.355399],[-71.064579,42.355405],[-71.064653,42.355382],[-71.064874,42.355059],[-71.064983,42.355106],[-71.065055,42.355098],[-71.065076,42.355141],[-71.065129,42.355157],[-71.065181,42.355141],[-71.065238,42.355062],[-71.065274,42.35506],[-71.065187,42.355198],[-71.065187,42.355267],[-71.065254,42.355317],[-71.065301,42.355324],[-71.065388,42.355297],[-71.065674,42.354878],[-71.065683,42.354843],[-71.065662,42.354795],[-71.065855,42.354505],[-71.065855,42.354431],[-71.065785,42.354379],[-71.065685,42.354379],[-71.065643,42.3544],[-71.06543,42.354709],[-71.065362,42.354731],[-71.065345,42.354722],[-71.065345,42.354674],[-71.065301,42.354642],[-71.065202,42.35461],[-71.065147,42.354627],[-71.065054,42.354729],[-71.064903,42.354956],[-71.064891,42.354943],[-71.065103,42.354592],[-71.065085,42.35456],[-71.065017,42.35455],[-71.065067,42.354458],[-71.065049,42.354426],[-71.065005,42.354412],[-71.064943,42.354425],[-71.065005,42.354331],[-71.065058,42.354336],[-71.065124,42.354261],[-71.065196,42.354252],[-71.06528,42.354131],[-71.065328,42.35412],[-71.065353,42.354086],[-71.065384,42.354118],[-71.065441,42.354109],[-71.065556,42.353941],[-71.065633,42.353963],[-71.065477,42.354198],[-71.065507,42.354232],[-71.06556,42.354224],[-71.065621,42.354161],[-71.06576,42.353953],[-71.06576,42.353925],[-71.066047,42.353492],[-71.066058,42.353451]],[[-71.06565,42.353601],[-71.065575,42.353714],[-71.065526,42.353725],[-71.065454,42.353829],[-71.065545,42.353682],[-71.065532,42.353633],[-71.065555,42.353591],[-71.06565,42.353601]],[[-71.06517,42.353001],[-71.065076,42.353142],[-71.065084,42.353172],[-71.065022,42.353162],[-71.065126,42.353005],[-71.06517,42.353001]],[[-71.065095,42.353795],[-71.065044,42.353872],[-71.065036,42.353973],[-71.064912,42.354159],[-71.064885,42.354137],[-71.064832,42.354145],[-71.064746,42.354269],[-71.064929,42.353983],[-71.064933,42.35395],[-71.064996,42.353927],[-71.065095,42.353795]],[[-71.065046,42.353388],[-71.065005,42.35345],[-71.065044,42.353388],[-71.065046,42.353388]],[[-71.064897,42.35324],[-71.064868,42.353285],[-71.064847,42.353269],[-71.064874,42.35323],[-71.064897,42.35324]],[[-71.064876,42.354262],[-71.064777,42.354396],[-71.064869,42.354247],[-71.064876,42.354262]],[[-71.064857,42.353735],[-71.064795,42.353828],[-71.064786,42.353863],[-71.064808,42.353912],[-71.064764,42.35396],[-71.064785,42.3539],[-71.064762,42.353859],[-71.064677,42.353847],[-71.064619,42.353902],[-71.064638,42.353855],[-71.064632,42.353832],[-71.064569,42.353797],[-71.064678,42.353633],[-71.064735,42.353675],[-71.064699,42.353741],[-71.06472,42.353779],[-71.064798,42.35379],[-71.064857,42.353735]],[[-71.064353,42.3542],[-71.064353,42.354201],[-71.064352,42.3542],[-71.064353,42.3542]]],[[[-71.066046,42.354972],[-71.066004,42.354925],[-71.06593,42.354936],[-71.065745,42.355208],[-71.065745,42.355247],[-71.06576,42.355263],[-71.065808,42.355278],[-71.065856,42.355263],[-71.066046,42.354972]]],[[[-71.06602,42.354061],[-71.065981,42.354032],[-71.065934,42.354067],[-71.065889,42.354045],[-71.065855,42.354056],[-71.065706,42.354276],[-71.065706,42.354303],[-71.065732,42.354323],[-71.065769,42.354323],[-71.065825,42.354259],[-71.065839,42.35427],[-71.065829,42.354298],[-71.065871,42.354298],[-71.06602,42.354061]]],[[[-71.06583,42.348038],[-71.06579,42.347994],[-71.065719,42.348004],[-71.065535,42.348286],[-71.06549,42.34827],[-71.065433,42.348299],[-71.065274,42.348538],[-71.065287,42.348588],[-71.065355,42.348607],[-71.065384,42.348598],[-71.065552,42.348316],[-71.065574,42.348329],[-71.065535,42.348388],[-71.065535,42.34842],[-71.065565,42.348442],[-71.065623,42.348434],[-71.065467,42.348678],[-71.065503,42.348718],[-71.065567,42.348708],[-71.065734,42.348463],[-71.065721,42.348415],[-71.06568,42.348403],[-71.06564,42.348415],[-71.065786,42.348196],[-71.065786,42.348164],[-71.065765,42.348147],[-71.06583,42.348038]]],[[[-71.065598,42.348957],[-71.065567,42.348947],[-71.065498,42.34906],[-71.065532,42.34906],[-71.065598,42.348957]]],[[[-71.065588,42.351223],[-71.065557,42.351213],[-71.065472,42.35135],[-71.065506,42.35135],[-71.065588,42.351223]]],[[[-71.065562,42.349094],[-71.065531,42.349084],[-71.065462,42.349197],[-71.065496,42.349197],[-71.065562,42.349094]]],[[[-71.065559,42.349236],[-71.065529,42.349203],[-71.065476,42.349211],[-71.065345,42.349402],[-71.065356,42.349442],[-71.06539,42.349452],[-71.065425,42.349442],[-71.065559,42.349236]]],[[[-71.065548,42.34811],[-71.065517,42.3481],[-71.065443,42.348221],[-71.065476,42.348221],[-71.065548,42.34811]]],[[[-71.065433,42.34879],[-71.065403,42.348757],[-71.06535,42.348765],[-71.065219,42.348956],[-71.06523,42.348996],[-71.065278,42.349004],[-71.06521,42.349107],[-71.065229,42.349141],[-71.065147,42.349265],[-71.065157,42.349304],[-71.065191,42.349314],[-71.065226,42.349304],[-71.065375,42.349084],[-71.065375,42.349056],[-71.065336,42.349035],[-71.065396,42.34894],[-71.06536,42.348914],[-71.065433,42.34879]]],[[[-71.065368,42.35121],[-71.065337,42.3512],[-71.065258,42.351329],[-71.065291,42.351329],[-71.065368,42.35121]]],[[[-71.065268,42.35121],[-71.065237,42.3512],[-71.065163,42.351321],[-71.065196,42.351321],[-71.065268,42.35121]]],[[[-71.065176,42.35072],[-71.06515,42.350701],[-71.065126,42.350713],[-71.065024,42.350866],[-71.064999,42.35093],[-71.065011,42.351004],[-71.065037,42.350996],[-71.065128,42.350859],[-71.065117,42.35084],[-71.065176,42.35072]]],[[[-71.064944,42.35131],[-71.064913,42.3513],[-71.064834,42.351429],[-71.064867,42.351429],[-71.064944,42.35131]]],[[[-71.064857,42.348456],[-71.064826,42.348446],[-71.064752,42.348567],[-71.064785,42.348567],[-71.064857,42.348456]]],[[[-71.064624,42.351826],[-71.064593,42.351816],[-71.064519,42.351937],[-71.064552,42.351937],[-71.064624,42.351826]]],[[[-71.064621,42.348425],[-71.06459,42.348415],[-71.064516,42.348536],[-71.064549,42.348536],[-71.064621,42.348425]]],[[[-71.064568,42.352055],[-71.064537,42.352045],[-71.064458,42.352164],[-71.064467,42.352181],[-71.064436,42.352236],[-71.064447,42.352275],[-71.064473,42.352275],[-71.064547,42.352165],[-71.064538,42.352148],[-71.064563,42.35211],[-71.064552,42.352091],[-71.064568,42.352055]]],[[[-71.064436,42.348399],[-71.064405,42.348389],[-71.064331,42.34851],[-71.064364,42.34851],[-71.064436,42.348399]]],[[[-71.064238,42.350925],[-71.064207,42.350915],[-71.064133,42.351036],[-71.064166,42.351036],[-71.064238,42.350925]]],[[[-71.064209,42.34872],[-71.06417,42.348708],[-71.064068,42.348859],[-71.064081,42.348881],[-71.064098,42.348881],[-71.064047,42.348964],[-71.064057,42.348982],[-71.064081,42.348975],[-71.064167,42.348845],[-71.064143,42.348828],[-71.064209,42.34872]]],[[[-71.064148,42.350914],[-71.064117,42.350904],[-71.064043,42.351025],[-71.064076,42.351025],[-71.064148,42.350914]]],[[[-71.064088,42.3533],[-71.064057,42.35329],[-71.063967,42.353424],[-71.063921,42.353522],[-71.063931,42.353541],[-71.063957,42.353533],[-71.064048,42.353396],[-71.064039,42.353377],[-71.064088,42.3533]]],[[[-71.064082,42.350914],[-71.064062,42.350892],[-71.06402,42.350905],[-71.063908,42.351074],[-71.063915,42.3511],[-71.063938,42.351107],[-71.063968,42.351092],[-71.064082,42.350914]]],[[[-71.064013,42.353283],[-71.063982,42.353273],[-71.063921,42.353364],[-71.063897,42.353364],[-71.063807,42.353509],[-71.063841,42.353509],[-71.063898,42.353423],[-71.063909,42.353426],[-71.063856,42.353518],[-71.063866,42.353537],[-71.063892,42.353529],[-71.063983,42.353392],[-71.063958,42.353373],[-71.064013,42.353283]]],[[[-71.063998,42.35376],[-71.063967,42.35375],[-71.063877,42.353895],[-71.063911,42.353895],[-71.063998,42.35376]]],[[[-71.063973,42.350903],[-71.063949,42.350876],[-71.063906,42.350883],[-71.063775,42.351077],[-71.063784,42.351108],[-71.063839,42.351108],[-71.063973,42.350903]]],[[[-71.063943,42.353268],[-71.063904,42.353256],[-71.063802,42.35342],[-71.063844,42.35342],[-71.063943,42.353268]]],[[[-71.063922,42.353967],[-71.063902,42.353945],[-71.06386,42.353958],[-71.063664,42.35428],[-71.063688,42.354292],[-71.063712,42.35428],[-71.063922,42.353967]]],[[[-71.063915,42.348675],[-71.063882,42.348665],[-71.063787,42.348807],[-71.063752,42.348882],[-71.063765,42.348904],[-71.063801,42.348904],[-71.063872,42.348798],[-71.063891,42.348749],[-71.063882,42.348729],[-71.063915,42.348675]]],[[[-71.063879,42.34887],[-71.063846,42.34886],[-71.063751,42.349013],[-71.063787,42.349013],[-71.063879,42.34887]]],[[[-71.063821,42.349148],[-71.06379,42.349138],[-71.063716,42.349259],[-71.063749,42.349259],[-71.063821,42.349148]]],[[[-71.063808,42.348427],[-71.063777,42.348417],[-71.063703,42.348538],[-71.063736,42.348538],[-71.063808,42.348427]]],[[[-71.063768,42.349293],[-71.063737,42.349283],[-71.063663,42.349394],[-71.06365,42.349436],[-71.06366,42.349453],[-71.063683,42.349446],[-71.063754,42.34934],[-71.063768,42.349293]]],[[[-71.063718,42.34841],[-71.063687,42.3484],[-71.063613,42.348521],[-71.063646,42.348521],[-71.063718,42.34841]]],[[[-71.063707,42.350883],[-71.063687,42.350861],[-71.063645,42.350874],[-71.063533,42.351043],[-71.06354,42.351069],[-71.063563,42.351076],[-71.063593,42.351061],[-71.063707,42.350883]]],[[[-71.063689,42.34976],[-71.063656,42.34975],[-71.063561,42.349892],[-71.063427,42.350124],[-71.063437,42.350142],[-71.063461,42.350135],[-71.063547,42.350005],[-71.063689,42.34976]]],[[[-71.063613,42.350876],[-71.063574,42.350864],[-71.063472,42.351028],[-71.063514,42.351028],[-71.063613,42.350876]]],[[[-71.063569,42.3547],[-71.063539,42.354667],[-71.063501,42.354667],[-71.063475,42.354686],[-71.063295,42.354966],[-71.063306,42.355006],[-71.06334,42.355016],[-71.063385,42.354994],[-71.063569,42.3547]]],[[[-71.063546,42.350864],[-71.06352,42.350845],[-71.063496,42.350857],[-71.063394,42.351024],[-71.063418,42.351036],[-71.063442,42.351024],[-71.063546,42.350864]]],[[[-71.063458,42.350418],[-71.063427,42.350408],[-71.063337,42.350542],[-71.063347,42.35056],[-71.063258,42.350719],[-71.063267,42.350736],[-71.063291,42.350729],[-71.063367,42.350615],[-71.063458,42.350418]]],[[[-71.063458,42.35018],[-71.063427,42.35017],[-71.063287,42.350396],[-71.063297,42.350414],[-71.063321,42.350407],[-71.063458,42.35018]]],[[[-71.063386,42.350826],[-71.06336,42.350807],[-71.063381,42.350773],[-71.063381,42.350757],[-71.063354,42.350743],[-71.063368,42.350698],[-71.063343,42.350691],[-71.063241,42.350836],[-71.063261,42.350855],[-71.06322,42.350918],[-71.06322,42.350934],[-71.063247,42.350948],[-71.063234,42.350986],[-71.063258,42.350998],[-71.063282,42.350986],[-71.063386,42.350826]]],[[[-71.063328,42.35044],[-71.063297,42.35043],[-71.063182,42.350599],[-71.063098,42.35078],[-71.063021,42.350897],[-71.063031,42.350916],[-71.063057,42.350908],[-71.063177,42.350732],[-71.063328,42.35044]]],[[[-71.063144,42.352238],[-71.063113,42.352228],[-71.063034,42.352357],[-71.063067,42.352357],[-71.063144,42.352238]]],[[[-71.063083,42.35225],[-71.063052,42.35224],[-71.062973,42.352369],[-71.063006,42.352369],[-71.063083,42.35225]]],[[[-71.062983,42.352253],[-71.062952,42.352243],[-71.062873,42.352372],[-71.062906,42.352372],[-71.062983,42.352253]]],[[[-71.062922,42.35222],[-71.062891,42.35221],[-71.062806,42.352347],[-71.06284,42.352347],[-71.062922,42.35222]]],[[[-71.062848,42.352215],[-71.062817,42.352205],[-71.062738,42.352334],[-71.062771,42.352334],[-71.062848,42.352215]]],[[[-71.062829,42.353302],[-71.062796,42.353292],[-71.062701,42.353445],[-71.062737,42.353445],[-71.062829,42.353302]]],[[[-71.062829,42.353214],[-71.062796,42.353204],[-71.062622,42.353458],[-71.062664,42.353458],[-71.062829,42.353214]]],[[[-71.062763,42.353207],[-71.06273,42.353197],[-71.062635,42.35335],[-71.062671,42.35335],[-71.062763,42.353207]]],[[[-71.062559,42.348354],[-71.062541,42.348334],[-71.062509,42.348339],[-71.062396,42.348523],[-71.062444,42.34853],[-71.062559,42.348354]]],[[[-71.062496,42.349373],[-71.06247,42.349344],[-71.062424,42.349351],[-71.062287,42.349554],[-71.062296,42.349588],[-71.062356,42.349588],[-71.062496,42.349373]]],[[[-71.062463,42.348557],[-71.062424,42.348545],[-71.062322,42.348709],[-71.062364,42.348709],[-71.062463,42.348557]]],[[[-71.062409,42.348373],[-71.062385,42.348346],[-71.062342,42.348353],[-71.062211,42.348547],[-71.06222,42.348578],[-71.062275,42.348578],[-71.062409,42.348373]]],[[[-71.062392,42.349323],[-71.062366,42.349294],[-71.06232,42.349301],[-71.062183,42.349504],[-71.062192,42.349538],[-71.062252,42.349538],[-71.062392,42.349323]]],[[[-71.062039,42.353752],[-71.062006,42.353742],[-71.061911,42.353884],[-71.061921,42.353903],[-71.061883,42.353961],[-71.061893,42.353978],[-71.061916,42.353971],[-71.061987,42.353865],[-71.061978,42.353848],[-71.062039,42.353752]]],[[[-71.062006,42.349306],[-71.061975,42.349296],[-71.061901,42.349417],[-71.061934,42.349417],[-71.062006,42.349306]]],[[[-71.061951,42.349438],[-71.06192,42.349428],[-71.061764,42.349659],[-71.061717,42.34963],[-71.061672,42.349652],[-71.061552,42.349832],[-71.061563,42.349872],[-71.061597,42.349882],[-71.061632,42.349872],[-71.061725,42.349735],[-71.061772,42.349764],[-71.061817,42.349742],[-71.061937,42.349562],[-71.061937,42.349534],[-71.061911,42.349515],[-71.061951,42.349438]]],[[[-71.061928,42.34988],[-71.061897,42.34987],[-71.061793,42.350037],[-71.061826,42.350037],[-71.061928,42.34988]]],[[[-71.061924,42.3537],[-71.061891,42.35369],[-71.061828,42.353783],[-71.061797,42.353773],[-71.061723,42.353894],[-71.061756,42.353894],[-71.061794,42.353837],[-71.061827,42.353848],[-71.061924,42.3537]]],[[[-71.061909,42.353825],[-71.061876,42.353815],[-71.061781,42.353968],[-71.061817,42.353968],[-71.061909,42.353825]]],[[[-71.061892,42.35],[-71.061861,42.34999],[-71.061733,42.350181],[-71.061757,42.350198],[-71.061545,42.350534],[-71.061555,42.35057],[-71.061619,42.35057],[-71.061762,42.350359],[-71.061789,42.350292],[-71.061765,42.350265],[-71.061892,42.35]]],[[[-71.061851,42.348312],[-71.061823,42.348281],[-71.061774,42.348288],[-71.061631,42.3485],[-71.061641,42.348536],[-71.061705,42.348536],[-71.061851,42.348312]]],[[[-71.061825,42.353653],[-71.061792,42.353643],[-71.061736,42.353726],[-71.061712,42.353733],[-71.061642,42.353849],[-71.061666,42.353856],[-71.061706,42.353803],[-71.061733,42.353796],[-71.061825,42.353653]]],[[[-71.061759,42.353607],[-71.061729,42.353574],[-71.061676,42.353582],[-71.061545,42.353773],[-71.061556,42.353813],[-71.06159,42.353823],[-71.061625,42.353813],[-71.061759,42.353607]]],[[[-71.061692,42.348648],[-71.061666,42.348619],[-71.06162,42.348626],[-71.061483,42.348829],[-71.061468,42.348824],[-71.061565,42.34867],[-71.061537,42.348639],[-71.061503,42.348639],[-71.061478,42.348657],[-71.061345,42.348858],[-71.061345,42.348883],[-71.06138,42.348903],[-71.061293,42.349035],[-71.061302,42.349069],[-71.061342,42.349076],[-71.061271,42.349195],[-71.061307,42.349195],[-71.061499,42.348866],[-71.061538,42.348869],[-71.061561,42.348852],[-71.061692,42.348648]]],[[[-71.061645,42.348297],[-71.061611,42.348259],[-71.061551,42.348268],[-71.06139,42.348505],[-71.061402,42.34855],[-71.061441,42.348562],[-71.06148,42.34855],[-71.061645,42.348297]]],[[[-71.061628,42.35355],[-71.061597,42.35354],[-71.061512,42.353677],[-71.061546,42.353677],[-71.061628,42.35355]]],[[[-71.06161,42.348837],[-71.061579,42.348827],[-71.061505,42.348948],[-71.061538,42.348948],[-71.06161,42.348837]]],[[[-71.061608,42.3485],[-71.061577,42.34849],[-71.061503,42.348611],[-71.061536,42.348611],[-71.061608,42.3485]]],[[[-71.061597,42.348184],[-71.061566,42.348174],[-71.061481,42.348311],[-71.061515,42.348311],[-71.061597,42.348184]]],[[[-71.061548,42.349568],[-71.061518,42.349535],[-71.061465,42.349543],[-71.061334,42.349734],[-71.061345,42.349774],[-71.061379,42.349784],[-71.061414,42.349774],[-71.061548,42.349568]]],[[[-71.061493,42.35095],[-71.061454,42.350938],[-71.061352,42.351102],[-71.061394,42.351102],[-71.061493,42.35095]]],[[[-71.061472,42.34815],[-71.061434,42.348108],[-71.061366,42.348118],[-71.061194,42.348372],[-71.061207,42.348422],[-71.061331,42.348434],[-71.06145,42.348257],[-71.061432,42.348226],[-71.061472,42.34815]]],[[[-71.06145,42.349534],[-71.061435,42.349509],[-71.061382,42.349501],[-71.061282,42.349632],[-71.061251,42.34962],[-71.061172,42.349739],[-71.061151,42.349787],[-71.061159,42.349804],[-71.061013,42.350011],[-71.061013,42.350034],[-71.061033,42.35005],[-71.060912,42.350231],[-71.060924,42.350273],[-71.06096,42.350285],[-71.060997,42.350273],[-71.061152,42.350045],[-71.061152,42.350015],[-71.061124,42.349995],[-71.061219,42.349842],[-71.061219,42.349818],[-71.061182,42.349799],[-71.061234,42.349721],[-71.061263,42.349747],[-71.061316,42.34974],[-71.06145,42.349534]]],[[[-71.061438,42.349255],[-71.061407,42.349245],[-71.061322,42.349382],[-71.061356,42.349382],[-71.061438,42.349255]]],[[[-71.061418,42.351122],[-71.061387,42.351112],[-71.061313,42.351223],[-71.061247,42.35139],[-71.061257,42.351407],[-71.06128,42.3514],[-71.061351,42.351294],[-71.061418,42.351122]]],[[[-71.061368,42.34943],[-71.061337,42.34942],[-71.061263,42.349541],[-71.061296,42.349541],[-71.061368,42.34943]]],[[[-71.061349,42.349228],[-71.061331,42.349208],[-71.061299,42.349213],[-71.061186,42.349397],[-71.061234,42.349404],[-71.061349,42.349228]]],[[[-71.061244,42.35337],[-71.061213,42.35336],[-71.061139,42.353481],[-71.061172,42.353481],[-71.061244,42.35337]]],[[[-71.061238,42.354774],[-71.061207,42.354764],[-71.061133,42.354885],[-71.061166,42.354885],[-71.061238,42.354774]]],[[[-71.061188,42.354916],[-71.061157,42.354906],[-71.061083,42.355027],[-71.061116,42.355027],[-71.061188,42.354916]]],[[[-71.061188,42.353344],[-71.061157,42.353334],[-71.061083,42.353455],[-71.061116,42.353455],[-71.061188,42.353344]]],[[[-71.061138,42.35332],[-71.061107,42.35331],[-71.061033,42.353431],[-71.061066,42.353431],[-71.061138,42.35332]]],[[[-71.061048,42.353275],[-71.061017,42.353265],[-71.060883,42.353474],[-71.060916,42.353474],[-71.061048,42.353275]]],[[[-71.061038,42.34849],[-71.061007,42.34848],[-71.060788,42.348803],[-71.0608,42.348845],[-71.06075,42.348925],[-71.06076,42.348967],[-71.06073,42.34902],[-71.060742,42.349042],[-71.060772,42.349051],[-71.060811,42.349031],[-71.061001,42.348733],[-71.060989,42.348688],[-71.061032,42.348602],[-71.061,42.348567],[-71.061038,42.34849]]],[[[-71.060938,42.35322],[-71.060907,42.35321],[-71.060853,42.35329],[-71.060827,42.353297],[-71.060757,42.353413],[-71.06079,42.353413],[-71.060841,42.353337],[-71.060866,42.353331],[-71.060938,42.35322]]],[[[-71.060923,42.35333],[-71.060892,42.35332],[-71.060813,42.353449],[-71.060846,42.353449],[-71.060923,42.35333]]],[[[-71.060847,42.349174],[-71.060803,42.349125],[-71.060725,42.349137],[-71.060587,42.349338],[-71.060627,42.349265],[-71.060617,42.349248],[-71.060593,42.349255],[-71.060523,42.349361],[-71.060453,42.349508],[-71.060462,42.349525],[-71.060438,42.349562],[-71.060447,42.349579],[-71.060399,42.349657],[-71.060409,42.349674],[-71.060383,42.349751],[-71.060416,42.349751],[-71.060487,42.349645],[-71.060503,42.349605],[-71.060493,42.349588],[-71.060537,42.349508],[-71.060527,42.349491],[-71.060542,42.349466],[-71.060568,42.349483],[-71.060519,42.349556],[-71.06053,42.349596],[-71.060377,42.349865],[-71.060278,42.349993],[-71.060287,42.35001],[-71.060311,42.350003],[-71.060381,42.349897],[-71.060395,42.349908],[-71.060338,42.349993],[-71.060338,42.350023],[-71.060386,42.350047],[-71.060434,42.350023],[-71.060578,42.349807],[-71.060578,42.349777],[-71.060555,42.349759],[-71.060691,42.34952],[-71.06068,42.349481],[-71.060729,42.349404],[-71.060729,42.349376],[-71.060847,42.349174]]],[[[-71.060598,42.35304],[-71.060567,42.35303],[-71.060494,42.353138],[-71.060469,42.353145],[-71.060399,42.353261],[-71.060432,42.353261],[-71.060598,42.35304]]],[[[-71.060518,42.352997],[-71.060487,42.352987],[-71.060419,42.353088],[-71.060393,42.353095],[-71.060323,42.353211],[-71.060356,42.353211],[-71.060518,42.352997]]],[[[-71.060508,42.353283],[-71.060477,42.353273],[-71.060412,42.35337],[-71.060344,42.353394],[-71.060221,42.353579],[-71.06023,42.35361],[-71.060257,42.353618],[-71.060293,42.353601],[-71.060508,42.353283]]],[[[-71.060468,42.352974],[-71.060437,42.352964],[-71.060371,42.353063],[-71.060343,42.35306],[-71.060269,42.353181],[-71.060293,42.353188],[-71.06036,42.353095],[-71.060387,42.353097],[-71.060468,42.352974]]],[[[-71.060318,42.350037],[-71.060287,42.350027],[-71.060213,42.350138],[-71.0601,42.350316],[-71.060111,42.350356],[-71.060145,42.350366],[-71.06018,42.350356],[-71.06031,42.350164],[-71.060287,42.350093],[-71.060318,42.350037]]],[[[-71.060174,42.34947],[-71.06015,42.349443],[-71.060099,42.349459],[-71.059976,42.349644],[-71.059956,42.349725],[-71.0599,42.349811],[-71.059907,42.349839],[-71.059932,42.349847],[-71.059965,42.349831],[-71.060083,42.349654],[-71.060076,42.349626],[-71.060174,42.34947]]],[[[-71.060158,42.352962],[-71.060127,42.352952],[-71.060053,42.353073],[-71.060086,42.353073],[-71.060158,42.352962]]],[[[-71.060105,42.35341],[-71.060077,42.353379],[-71.060028,42.353386],[-71.059885,42.353598],[-71.059895,42.353634],[-71.059959,42.353634],[-71.060105,42.35341]]],[[[-71.059972,42.351044],[-71.059946,42.351015],[-71.059891,42.351032],[-71.059763,42.351225],[-71.059749,42.351295],[-71.059783,42.351306],[-71.059841,42.351248],[-71.059972,42.351044]]],[[[-71.059858,42.3533],[-71.059827,42.35329],[-71.059753,42.353411],[-71.059786,42.353411],[-71.059858,42.3533]]],[[[-71.059822,42.35326],[-71.059796,42.353231],[-71.05975,42.353238],[-71.059613,42.353441],[-71.059622,42.353475],[-71.059682,42.353475],[-71.059822,42.35326]]],[[[-71.059758,42.352753],[-71.059727,42.352743],[-71.059648,42.352872],[-71.059681,42.352872],[-71.059758,42.352753]]],[[[-71.059688,42.352737],[-71.059657,42.352727],[-71.059578,42.352856],[-71.059611,42.352856],[-71.059688,42.352737]]],[[[-71.059669,42.354954],[-71.059651,42.354934],[-71.059619,42.354939],[-71.059506,42.355123],[-71.059554,42.35513],[-71.059669,42.354954]]],[[[-71.059649,42.35171],[-71.059634,42.351685],[-71.0596,42.351674],[-71.059566,42.351685],[-71.059544,42.351714],[-71.059539,42.3517],[-71.059511,42.3517],[-71.059416,42.351842],[-71.059441,42.351861],[-71.059432,42.35189],[-71.059446,42.351916],[-71.05948,42.351926],[-71.059515,42.351916],[-71.059649,42.35171]]],[[[-71.059634,42.35273],[-71.059616,42.352717],[-71.059576,42.352759],[-71.05954,42.352747],[-71.059506,42.352758],[-71.059375,42.352949],[-71.059386,42.352989],[-71.05942,42.352999],[-71.059455,42.352989],[-71.059634,42.35273]]],[[[-71.059622,42.35492],[-71.059562,42.354868],[-71.059527,42.354873],[-71.059408,42.355068],[-71.059465,42.355111],[-71.059501,42.355106],[-71.059622,42.35492]]],[[[-71.059562,42.3516],[-71.059542,42.351578],[-71.0595,42.351591],[-71.059388,42.35176],[-71.059395,42.351786],[-71.059418,42.351793],[-71.059448,42.351778],[-71.059562,42.3516]]],[[[-71.059518,42.351097],[-71.059487,42.351087],[-71.059373,42.351281],[-71.059406,42.351281],[-71.059518,42.351097]]],[[[-71.059482,42.354813],[-71.059462,42.354791],[-71.05942,42.354804],[-71.059308,42.354973],[-71.059315,42.354999],[-71.059338,42.355006],[-71.059368,42.354991],[-71.059482,42.354813]]],[[[-71.059456,42.351627],[-71.05943,42.351608],[-71.059406,42.35162],[-71.059284,42.351768],[-71.059182,42.351932],[-71.059224,42.351932],[-71.059326,42.351799],[-71.059352,42.351787],[-71.059456,42.351627]]],[[[-71.059432,42.354774],[-71.059389,42.354714],[-71.059339,42.354714],[-71.059214,42.3549],[-71.059214,42.35492],[-71.059257,42.354934],[-71.059275,42.354965],[-71.059311,42.35496],[-71.059432,42.354774]]],[[[-71.059428,42.3531],[-71.059397,42.35309],[-71.059323,42.353211],[-71.059356,42.353211],[-71.059428,42.3531]]],[[[-71.059418,42.35301],[-71.059387,42.353],[-71.059313,42.353121],[-71.059346,42.353121],[-71.059418,42.35301]]],[[[-71.059219,42.35129],[-71.059187,42.351235],[-71.059144,42.351205],[-71.05911,42.351194],[-71.059076,42.351205],[-71.058927,42.351425],[-71.058937,42.351464],[-71.05899,42.351472],[-71.058957,42.351579],[-71.058734,42.35182],[-71.058688,42.351825],[-71.058579,42.351954],[-71.058491,42.351968],[-71.058436,42.352041],[-71.058397,42.35205],[-71.058353,42.352092],[-71.058278,42.352206],[-71.058287,42.352223],[-71.058261,42.352274],[-71.058275,42.352298],[-71.058324,42.352305],[-71.058367,42.35226],[-71.05842,42.35225],[-71.058527,42.352093],[-71.058571,42.352092],[-71.058669,42.351981],[-71.058708,42.351975],[-71.058733,42.351941],[-71.058758,42.351933],[-71.058849,42.351807],[-71.058885,42.351791],[-71.059014,42.351599],[-71.059046,42.351579],[-71.059185,42.351371],[-71.059219,42.35129]]],[[[-71.059184,42.353294],[-71.059153,42.353284],[-71.059079,42.353405],[-71.059112,42.353405],[-71.059184,42.353294]]],[[[-71.059092,42.354385],[-71.059072,42.354363],[-71.05903,42.354376],[-71.058918,42.354545],[-71.058925,42.354571],[-71.058948,42.354578],[-71.058978,42.354563],[-71.059092,42.354385]]],[[[-71.059088,42.353287],[-71.059057,42.353277],[-71.058983,42.353398],[-71.059016,42.353398],[-71.059088,42.353287]]],[[[-71.059018,42.354332],[-71.058987,42.354322],[-71.058913,42.354443],[-71.058946,42.354443],[-71.059018,42.354332]]],[[[-71.058998,42.353283],[-71.058967,42.353273],[-71.058893,42.353394],[-71.058926,42.353394],[-71.058998,42.353283]]],[[[-71.058959,42.35429],[-71.058926,42.35428],[-71.058831,42.354433],[-71.058867,42.354433],[-71.058959,42.35429]]],[[[-71.058864,42.353268],[-71.058833,42.353258],[-71.058759,42.353379],[-71.058792,42.353379],[-71.058864,42.353268]]],[[[-71.058758,42.353268],[-71.058727,42.353258],[-71.058653,42.353379],[-71.058686,42.353379],[-71.058758,42.353268]]],[[[-71.058568,42.35253],[-71.058537,42.35252],[-71.058463,42.352641],[-71.058496,42.352641],[-71.058568,42.35253]]],[[[-71.058508,42.352524],[-71.05848,42.352513],[-71.058498,42.352474],[-71.058473,42.352467],[-71.058428,42.352526],[-71.058393,42.352523],[-71.058318,42.352647],[-71.058341,42.352654],[-71.05837,42.352619],[-71.058433,42.352639],[-71.058508,42.352524]]],[[[-71.058388,42.35247],[-71.058357,42.35246],[-71.058243,42.352631],[-71.058276,42.352631],[-71.058388,42.35247]]],[[[-71.058288,42.35091],[-71.058257,42.3509],[-71.058183,42.351021],[-71.058216,42.351021],[-71.058288,42.35091]]],[[[-71.058278,42.352467],[-71.058247,42.352457],[-71.058173,42.352568],[-71.058173,42.35263],[-71.058196,42.352623],[-71.058267,42.352517],[-71.058258,42.3525],[-71.058278,42.352467]]],[[[-71.058218,42.350887],[-71.058187,42.350877],[-71.058113,42.350998],[-71.058146,42.350998],[-71.058218,42.350887]]],[[[-71.058038,42.352665],[-71.058007,42.352655],[-71.057933,42.352776],[-71.057966,42.352776],[-71.058038,42.352665]]],[[[-71.058032,42.352768],[-71.058001,42.352758],[-71.057927,42.352879],[-71.05796,42.352879],[-71.058032,42.352768]]],[[[-71.058008,42.352905],[-71.057977,42.352895],[-71.057903,42.353016],[-71.057936,42.353016],[-71.058008,42.352905]]],[[[-71.057803,42.350693],[-71.057772,42.350683],[-71.057698,42.350804],[-71.057731,42.350804],[-71.057803,42.350693]]],[[[-71.057758,42.350677],[-71.057727,42.350667],[-71.057653,42.350788],[-71.057686,42.350788],[-71.057758,42.350677]]],[[[-71.05775,42.352226],[-71.057724,42.352207],[-71.0577,42.352219],[-71.057598,42.352386],[-71.057622,42.352398],[-71.057646,42.352386],[-71.05775,42.352226]]],[[[-71.057623,42.35219],[-71.057605,42.35217],[-71.057573,42.352175],[-71.05746,42.352359],[-71.057508,42.352366],[-71.057623,42.35219]]],[[[-71.057536,42.35216],[-71.05751,42.352141],[-71.057486,42.352153],[-71.057384,42.35232],[-71.057408,42.352332],[-71.057432,42.35232],[-71.057536,42.35216]]],[[[-71.057456,42.35214],[-71.05743,42.352121],[-71.057406,42.352133],[-71.057304,42.3523],[-71.057328,42.352312],[-71.057352,42.3523],[-71.057456,42.35214]]],[[[-71.057414,42.350403],[-71.057383,42.350393],[-71.057309,42.350514],[-71.057342,42.350514],[-71.057414,42.350403]]],[[[-71.057398,42.350494],[-71.057367,42.350484],[-71.057293,42.350605],[-71.057326,42.350605],[-71.057398,42.350494]]],[[[-71.057369,42.35211],[-71.057351,42.35209],[-71.057319,42.352095],[-71.057206,42.352279],[-71.057254,42.352286],[-71.057369,42.35211]]],[[[-71.057348,42.351707],[-71.057317,42.351697],[-71.057238,42.351816],[-71.057243,42.351868],[-71.057266,42.351861],[-71.057337,42.351755],[-71.057348,42.351707]]],[[[-71.057309,42.351897],[-71.057278,42.351887],[-71.057204,42.351998],[-71.057208,42.352065],[-71.057232,42.352058],[-71.057297,42.35196],[-71.057287,42.351943],[-71.057309,42.351897]]],[[[-71.057298,42.350925],[-71.057267,42.350915],[-71.057182,42.351052],[-71.057216,42.351052],[-71.057298,42.350925]]],[[[-71.057268,42.351063],[-71.057237,42.351053],[-71.057152,42.35119],[-71.057186,42.35119],[-71.057268,42.351063]]],[[[-71.057208,42.35141],[-71.057177,42.3514],[-71.057103,42.351521],[-71.057136,42.351521],[-71.057208,42.35141]]],[[[-71.057198,42.35055],[-71.057167,42.35054],[-71.057042,42.350743],[-71.057075,42.350743],[-71.057198,42.35055]]],[[[-71.057094,42.350533],[-71.057063,42.350523],[-71.056989,42.350644],[-71.057022,42.350644],[-71.057094,42.350533]]],[[[-71.057038,42.34984],[-71.057007,42.34983],[-71.05696,42.349894],[-71.056848,42.350063],[-71.056855,42.350089],[-71.056878,42.350096],[-71.056908,42.350081],[-71.05702,42.349912],[-71.057013,42.349886],[-71.057038,42.34984]]],[[[-71.056868,42.352028],[-71.056837,42.352018],[-71.056747,42.352163],[-71.056781,42.352163],[-71.056868,42.352028]]],[[[-71.056834,42.35023],[-71.056803,42.35022],[-71.056729,42.350331],[-71.056693,42.350408],[-71.056703,42.350425],[-71.056726,42.350418],[-71.056834,42.35023]]],[[[-71.056829,42.34976],[-71.056805,42.349733],[-71.056762,42.34974],[-71.056631,42.349934],[-71.056639,42.349964],[-71.056515,42.350172],[-71.056522,42.350207],[-71.056448,42.350345],[-71.056455,42.350371],[-71.056501,42.350371],[-71.05662,42.350194],[-71.05677,42.349929],[-71.056762,42.349892],[-71.056829,42.34976]]],[[[-71.056748,42.351994],[-71.056717,42.351984],[-71.056632,42.352121],[-71.056666,42.352121],[-71.056748,42.351994]]],[[[-71.056643,42.350613],[-71.056612,42.350603],[-71.056345,42.351],[-71.056345,42.351028],[-71.056372,42.351047],[-71.056277,42.351221],[-71.056259,42.351277],[-71.056269,42.351294],[-71.056292,42.351287],[-71.056363,42.351181],[-71.056424,42.35104],[-71.056555,42.350848],[-71.056555,42.35082],[-71.05653,42.350801],[-71.056643,42.350613]]],[[[-71.056626,42.353203],[-71.0566,42.353184],[-71.056576,42.353196],[-71.056474,42.353363],[-71.056498,42.353375],[-71.056522,42.353363],[-71.056626,42.353203]]],[[[-71.056559,42.353165],[-71.056526,42.353155],[-71.056431,42.353308],[-71.056467,42.353308],[-71.056559,42.353165]]],[[[-71.056484,42.353127],[-71.056451,42.353117],[-71.056356,42.35327],[-71.056392,42.35327],[-71.056484,42.353127]]],[[[-71.056468,42.35192],[-71.056437,42.35191],[-71.056347,42.352055],[-71.056381,42.352055],[-71.056468,42.35192]]],[[[-71.056393,42.35309],[-71.056354,42.353078],[-71.056252,42.353242],[-71.056294,42.353242],[-71.056393,42.35309]]],[[[-71.056388,42.3519],[-71.056357,42.35189],[-71.056288,42.352003],[-71.056322,42.352003],[-71.056388,42.3519]]],[[[-71.056338,42.35493],[-71.056307,42.35492],[-71.056217,42.355065],[-71.056251,42.355065],[-71.056338,42.35493]]],[[[-71.056328,42.354836],[-71.056297,42.354826],[-71.056207,42.354971],[-71.056241,42.354971],[-71.056328,42.354836]]],[[[-71.056309,42.35475],[-71.056276,42.35474],[-71.056181,42.354893],[-71.056217,42.354893],[-71.056309,42.35475]]],[[[-71.056306,42.35467],[-71.05628,42.354651],[-71.056256,42.354663],[-71.056154,42.35483],[-71.056178,42.354842],[-71.056202,42.35483],[-71.056306,42.35467]]],[[[-71.056258,42.351376],[-71.056227,42.351366],[-71.056098,42.351569],[-71.056131,42.351569],[-71.056258,42.351376]]],[[[-71.056256,42.350842],[-71.056225,42.350832],[-71.056135,42.350966],[-71.056145,42.350984],[-71.056105,42.351057],[-71.056115,42.351075],[-71.056065,42.35116],[-71.056088,42.351178],[-71.056027,42.351269],[-71.056037,42.351287],[-71.056061,42.35128],[-71.056147,42.35115],[-71.056124,42.351132],[-71.056185,42.351041],[-71.056175,42.351024],[-71.056225,42.350938],[-71.056215,42.350921],[-71.056256,42.350842]]],[[[-71.056248,42.35305],[-71.056217,42.35304],[-71.056143,42.353161],[-71.056176,42.353161],[-71.056248,42.35305]]],[[[-71.056078,42.35171],[-71.056047,42.3517],[-71.055968,42.351829],[-71.056001,42.351829],[-71.056078,42.35171]]],[[[-71.055977,42.351355],[-71.055946,42.351345],[-71.055856,42.351479],[-71.055799,42.351606],[-71.055808,42.351624],[-71.055738,42.351746],[-71.055746,42.351763],[-71.055687,42.351851],[-71.055667,42.3519],[-71.055677,42.351918],[-71.055701,42.351911],[-71.055787,42.351781],[-71.055807,42.351732],[-71.055799,42.351716],[-71.055858,42.351627],[-71.055887,42.351566],[-71.055878,42.351549],[-71.055977,42.351355]]],[[[-71.055869,42.352226],[-71.055839,42.352193],[-71.055786,42.352201],[-71.055621,42.352442],[-71.055632,42.352482],[-71.055666,42.352492],[-71.055701,42.352482],[-71.055869,42.352226]]],[[[-71.055788,42.353336],[-71.055768,42.353314],[-71.055733,42.353319],[-71.055643,42.353423],[-71.055608,42.353424],[-71.055557,42.353501],[-71.05554,42.353484],[-71.055498,42.353529],[-71.055467,42.35352],[-71.055388,42.353649],[-71.055411,42.353656],[-71.055436,42.353627],[-71.055467,42.353636],[-71.055516,42.353563],[-71.055535,42.353582],[-71.05556,42.353561],[-71.055577,42.353575],[-71.055609,42.35357],[-71.055638,42.353528],[-71.055674,42.353514],[-71.055788,42.353336]]],[[[-71.055262,42.353653],[-71.055244,42.35364],[-71.055199,42.353652],[-71.055154,42.353688],[-71.055052,42.353852],[-71.055082,42.353861],[-71.055124,42.353848],[-71.055262,42.353653]]]]},"properties":{"kind":"tree"}}]}