{"type":"FeatureCollection","features":[{"type":"Feature","geometry":{"type":"MultiPolygon","coordinates":[[[[-71.06703,42.351826],[-71.067007,42.351692],[-71.066747,42.351106],[-71.065738,42.351225],[-71.065991,42.350995],[-71.065959,42.350666],[-71.065898,42.350665],[-71.065953,42.350615],[-71.06593,42.350327],[-71.065788,42.350335],[-71.065916,42.350219],[-71.065881,42.34989],[-71.065857,42.349862],[-71.066095,42.349646],[-71.066038,42.349546],[-71.066107,42.349483],[-71.066051,42.349385],[-71.065989,42.349405],[-71.065909,42.349478],[-71.06562,42.349445],[-71.065521,42.349461],[-71.065112,42.349833],[-71.065169,42.349617],[-71.064774,42.349556],[-71.065026,42.349327],[-71.065042,42.349382],[-71.06558,42.349445],[-71.066458,42.348649],[-71.066483,42.348529],[-71.06591,42.348462],[-71.065995,42.348064],[-71.065837,42.348044],[-71.065161,42.348659],[-71.064992,42.348617],[-71.064659,42.348576],[-71.064839,42.348424],[-71.064976,42.348582],[-71.065,42.34857],[-71.064973,42.348595],[-71.064984,42.348607],[-71.065257,42.348552],[-71.065423,42.34841],[-71.065427,42.34839],[-71.065343,42.348295],[-71.065475,42.348175],[-71.065475,42.348101],[-71.065417,42.348035],[-71.06552,42.347941],[-71.065529,42.347903],[-71.065483,42.347819],[-71.065392,42.347805],[-71.065371,42.347781],[-71.065296,42.347784],[-71.065318,42.347764],[-71.065319,42.347677],[-71.065257,42.347643],[-71.064894,42.347587],[-71.064503,42.347783],[-71.064061,42.348185],[-71.064029,42.348258],[-71.064113,42.347947],[-71.063968,42.347919],[-71.063883,42.347989],[-71.063856,42.347985],[-71.063702,42.348125],[-71.063538,42.348106],[-71.063606,42.347866],[-71.06346,42.347843],[-71.063291,42.347997],[-71.062961,42.347921],[-71.06289,42.347986],[-71.062855,42.347962],[-71.062735,42.347939],[-71.062373,42.348267],[-71.062333,42.348376],[-71.062361,42.348385],[-71.062277,42.348462],[-71.062367,42.34823],[-71.062255,42.348206],[-71.062038,42.348403],[-71.062018,42.348399],[-71.062411,42.348042],[-71.062446,42.347953],[-71.061926,42.347827],[-71.061697,42.348034],[-71.061866,42.34764],[-71.061712,42.347604],[-71.06102,42.348233],[-71.061068,42.348118],[-71.061011,42.348097],[-71.059245,42.349703],[-71.059179,42.349693],[-71.059014,42.349843],[-71.058966,42.349957],[-71.058614,42.350438],[-71.058767,42.350099],[-71.058776,42.350034],[-71.058372,42.349945],[-71.058255,42.350052],[-71.058289,42.349924],[-71.05809,42.349884],[-71.058297,42.349696],[-71.058424,42.349376],[-71.057926,42.349266],[-71.057639,42.349527],[-71.057572,42.349694],[-71.057648,42.349711],[-71.057482,42.349862],[-71.057505,42.349748],[-71.057155,42.349672],[-71.057988,42.348915],[-71.05807,42.348711],[-71.057613,42.348605],[-71.056725,42.349413],[-71.056775,42.349199],[-71.056596,42.349149],[-71.055487,42.349466],[-71.055244,42.349687],[-71.05537,42.34956],[-71.056683,42.347603],[-71.056673,42.347544],[-71.055908,42.347262],[-71.05535,42.347769],[-71.053975,42.349816],[-71.053846,42.349957],[-71.0535,42.350271],[-71.05253,42.351714],[-71.053111,42.351929],[-71.053807,42.351297],[-71.054086,42.3514],[-71.054544,42.350989],[-71.054579,42.351017],[-71.054563,42.35105],[-71.054598,42.35106],[-71.054521,42.35113],[-71.05447,42.35123],[-71.054559,42.351254],[-71.054709,42.351117],[-71.054802,42.351182],[-71.05492,42.351224],[-71.054859,42.351341],[-71.054945,42.351365],[-71.055089,42.351234],[-71.055217,42.35123],[-71.055205,42.351254],[-71.055411,42.35131],[-71.055464,42.351291],[-71.05554,42.351222],[-71.055653,42.351205],[-71.055877,42.351001],[-71.055953,42.35102],[-71.055853,42.351112],[-71.055741,42.351291],[-71.055479,42.351549],[-71.054479,42.351779],[-71.053581,42.352596],[-71.053409,42.352771],[-71.053935,42.353049],[-71.054095,42.3531],[-71.054263,42.353125],[-71.05444,42.353085],[-71.05456,42.352995],[-71.055015,42.352581],[-71.05488,42.352855],[-71.055075,42.352906],[-71.054301,42.353617],[-71.054284,42.353652],[-71.052085,42.355651],[-71.052008,42.355815],[-71.052406,42.355915],[-71.050578,42.357577],[-71.050555,42.357617],[-71.050564,42.357661],[-71.050819,42.357926],[-71.050886,42.35794],[-71.050936,42.357924],[-71.053959,42.355182],[-71.053965,42.355203],[-71.053999,42.355217],[-71.053871,42.355333],[-71.05397,42.355374],[-71.05354,42.355766],[-71.053566,42.35579],[-71.051988,42.357225],[-71.052002,42.357238],[-71.051628,42.357578],[-71.051627,42.357616],[-71.051676,42.35766],[-71.051532,42.357797],[-71.0516,42.357867],[-71.051666,42.357854],[-71.052154,42.357579],[-71.052368,42.357384],[-71.052494,42.357307],[-71.053281,42.356592],[-71.053345,42.356574],[-71.053738,42.356217],[-71.053847,42.356185],[-71.054341,42.355736],[-71.054357,42.355764],[-71.054431,42.355754],[-71.053328,42.356757],[-71.053356,42.356914],[-71.051841,42.358291],[-71.051947,42.358869],[-71.052399,42.358825],[-71.053086,42.358201],[-71.053101,42.358283],[-71.053884,42.358224],[-71.056338,42.355993],[-71.056377,42.356005],[-71.057105,42.355344],[-71.057198,42.355373],[-71.057938,42.3547],[-71.05852,42.354135],[-71.058478,42.354108],[-71.058607,42.35399],[-71.058617,42.35405],[-71.058672,42.354078],[-71.057334,42.355308],[-71.057403,42.35536],[-71.056756,42.355956],[-71.056865,42.356173],[-71.056992,42.356188],[-71.057055,42.356166],[-71.057674,42.355603],[-71.057689,42.355611],[-71.057776,42.355537],[-71.05797,42.355557],[-71.057832,42.355686],[-71.057836,42.355712],[-71.057982,42.355775],[-71.057864,42.355902],[-71.057966,42.355915],[-71.058036,42.35587],[-71.058042,42.355892],[-71.056574,42.357226],[-71.056294,42.357501],[-71.056368,42.357556],[-71.05666,42.357675],[-71.05851,42.356004],[-71.058522,42.35601],[-71.058573,42.355963],[-71.058956,42.356252],[-71.059152,42.356107],[-71.059149,42.356145],[-71.058943,42.356332],[-71.058935,42.356441],[-71.059014,42.356479],[-71.059231,42.356483],[-71.059297,42.356503],[-71.058882,42.35688],[-71.058684,42.357124],[-71.058719,42.357146],[-71.059205,42.357144],[-71.060449,42.356013],[-71.06054,42.355933],[-71.060583,42.355951],[-71.061058,42.355519],[-71.061153,42.355563],[-71.061123,42.355594],[-71.061389,42.355732],[-71.061434,42.355692],[-71.061573,42.355763],[-71.061741,42.35561],[-71.061186,42.356123],[-71.06117,42.356168],[-71.060892,42.35642],[-71.060603,42.356957],[-71.060844,42.357028],[-71.061019,42.35687],[-71.061062,42.356875],[-71.06192,42.356095],[-71.062014,42.356141],[-71.062058,42.356132],[-71.06234,42.355876],[-71.062377,42.355896],[-71.063162,42.355181],[-71.06318,42.355155],[-71.063157,42.355133],[-71.063255,42.355044],[-71.063852,42.353943],[-71.063862,42.353896],[-71.063833,42.353887],[-71.063915,42.353802],[-71.063985,42.353676],[-71.063998,42.353634],[-71.063973,42.353626],[-71.064052,42.353554],[-71.064076,42.353487],[-71.064253,42.353496],[-71.064516,42.353257],[-71.06451,42.353295],[-71.064427,42.35337],[-71.064393,42.35347],[-71.064461,42.353484],[-71.064485,42.353463],[-71.06468,42.353477],[-71.065139,42.35306],[-71.065156,42.353114],[-71.065222,42.353128],[-71.065244,42.353108],[-71.065274,42.353109],[-71.065504,42.3529],[-71.065694,42.352919],[-71.065877,42.352874],[-71.06703,42.351826]],[[-71.064163,42.349267],[-71.06391,42.349498],[-71.063761,42.349475],[-71.063716,42.349433],[-71.063936,42.349233],[-71.064163,42.349267]],[[-71.064074,42.348649],[-71.063829,42.348871],[-71.0639,42.348623],[-71.063992,42.348633],[-71.063981,42.348642],[-71.064007,42.348672],[-71.064074,42.348649]],[[-71.064011,42.348299],[-71.063942,42.348463],[-71.063847,42.348448],[-71.064011,42.348299]],[[-71.062278,42.348546],[-71.061978,42.34882],[-71.061822,42.349214],[-71.061879,42.349223],[-71.061856,42.349244],[-71.061808,42.349235],[-71.061839,42.34916],[-71.061745,42.349139],[-71.061716,42.34916],[-71.061783,42.348996],[-71.061766,42.348992],[-71.061848,42.348842],[-71.061882,42.348849],[-71.061961,42.348777],[-71.061994,42.348784],[-71.062216,42.348582],[-71.062242,42.348521],[-71.062238,42.348541],[-71.062278,42.348546]],[[-71.06086,42.348918],[-71.060532,42.349217],[-71.060483,42.349157],[-71.060703,42.348957],[-71.060771,42.348972],[-71.060836,42.348913],[-71.06086,42.348918]],[[-71.060858,42.349729],[-71.060774,42.349813],[-71.060722,42.349939],[-71.060509,42.349891],[-71.060016,42.350338],[-71.060226,42.350142],[-71.060327,42.349891],[-71.06028,42.349826],[-71.060367,42.349747],[-71.060453,42.349538],[-71.060559,42.349589],[-71.060575,42.349574],[-71.060667,42.349612],[-71.060681,42.349599],[-71.060671,42.349626],[-71.060809,42.349681],[-71.060793,42.349703],[-71.060858,42.349729]],[[-71.05979,42.35247],[-71.059747,42.352509],[-71.059716,42.352586],[-71.059359,42.352911],[-71.059352,42.352838],[-71.059738,42.352487],[-71.05979,42.35247]],[[-71.059312,42.351668],[-71.059084,42.351875],[-71.059035,42.352004],[-71.059045,42.352063],[-71.058906,42.352152],[-71.058485,42.352534],[-71.058142,42.35255],[-71.058071,42.352594],[-71.057784,42.352854],[-71.057796,42.352781],[-71.057703,42.352739],[-71.057647,42.352734],[-71.05756,42.352748],[-71.057297,42.352899],[-71.057183,42.352934],[-71.057949,42.352238],[-71.05796,42.352211],[-71.058017,42.352224],[-71.058615,42.351682],[-71.05877,42.351527],[-71.05892,42.351331],[-71.059295,42.350989],[-71.059028,42.351236],[-71.0589,42.351552],[-71.059312,42.351668]],[[-71.05698,42.353104],[-71.056422,42.353612],[-71.056356,42.353643],[-71.05666,42.353366],[-71.056638,42.353263],[-71.056242,42.353099],[-71.05611,42.353165],[-71.056383,42.352917],[-71.05698,42.353104]],[[-71.056483,42.350258],[-71.056414,42.35032],[-71.056446,42.35025],[-71.056483,42.350258]],[[-71.055764,42.351687],[-71.055665,42.351903],[-71.055605,42.351957],[-71.055739,42.351681],[-71.055764,42.351687]]],[[[-71.065565,42.354342],[-71.065554,42.354318],[-71.065521,42.354301],[-71.065458,42.354314],[-71.065169,42.354578],[-71.065169,42.354622],[-71.065212,42.354645],[-71.065269,42.354631],[-71.06555,42.354375],[-71.065565,42.354342]]],[[[-71.063935,42.354829],[-71.063869,42.354811],[-71.06376,42.35491],[-71.063737,42.354959],[-71.063803,42.354976],[-71.063912,42.354877],[-71.063935,42.354829]]]]},"properties":{"kind":"building"}},{"type":"Feature","geometry":{"type":"MultiPolygon","coordinates":[[[[-71.066058,42.353451],[-71.066047,42.35341],[-71.066015,42.353375],[-71.065968,42.353351],[-71.065856,42.353351],[-71.065809,42.353375],[-71.065527,42.353631],[-71.065512,42.353623],[-71.065911,42.353246],[-71.065918,42.353219],[-71.065898,42.353178],[-71.066007,42.353073],[-71.066016,42.353039],[-71.065999,42.352996],[-71.066039,42.352955],[-71.066048,42.352923],[-71.066021,42.352832],[-71.065942,42.352773],[-71.065852,42.35277],[-71.066016,42.352618],[-71.066022,42.352597],[-71.066,42.352558],[-71.065947,42.352542],[-71.065881,42.35257],[-71.065841,42.352538],[-71.065759,42.35255],[-71.065717,42.352522],[-71.065659,42.352522],[-71.06557,42.352593],[-71.06551,42.352612],[-71.065168,42.352923],[-71.065154,42.352896],[-71.065457,42.352616],[-71.065465,42.352587],[-71.065434,42.352533],[-71.065401,42.352516],[-71.065321,42.352516],[-71.064828,42.352951],[-71.064755,42.352928],[-71.065102,42.352609],[-71.065109,42.352581],[-71.065081,42.35253],[-71.065012,42.352509],[-71.064943,42.35253],[-71.064467,42.352967],[-71.064467,42.353022],[-71.064538,42.353063],[-71.064103,42.353464],[-71.064093,42.353498],[-71.064119,42.353551],[-71.064083,42.35362],[-71.064117,42.353687],[-71.064058,42.353745],[-71.06405,42.353776],[-71.064058,42.353807],[-71.064108,42.353846],[-71.064013,42.353935],[-71.064013,42.353972],[-71.063979,42.354005],[-71.063968,42.354061],[-71.063993,42.354094],[-71.063847,42.354231],[-71.063838,42.354308],[-71.063877,42.354358],[-71.063731,42.354494],[-71.063743,42.35455],[-71.063724,42.354584],[-71.063561,42.354739],[-71.063555,42.354792],[-71.063339,42.354995],[-71.063328,42.355036],[-71.063339,42.355077],[-71.063368,42.35511],[-71.063366,42.355155],[-71.063438,42.355191],[-71.063493,42.355174],[-71.064369,42.354387],[-71.064512,42.354366],[-71.064798,42.354106],[-71.064864,42.354126],[-71.06471,42.354255],[-71.064648,42.354267],[-71.063861,42.354968],[-71.063849,42.355012],[-71.0639,42.355037],[-71.063939,42.355025],[-71.064027,42.354945],[-71.063886,42.355077],[-71.063865,42.355115],[-71.063909,42.355163],[-71.063987,42.355152],[-71.064189,42.354968],[-71.064287,42.354948],[-71.064421,42.354827],[-71.064442,42.35488],[-71.06453,42.354893],[-71.064388,42.355029],[-71.064388,42.35508],[-71.064438,42.355116],[-71.064472,42.355122],[-71.064507,42.355116],[-71.064561,42.35508],[-71.064234,42.35539],[-71.064234,42.355449],[-71.064257,42.355474],[-71.06433,42.355496],[-71.064404,42.355474],[-71.064748,42.35516],[-71.064819,42.35518],[-71.064858,42.355171],[-71.064878,42.355213],[-71.064931,42.35523],[-71.064984,42.355213],[-71.065088,42.355128],[-71.06493,42.355272],[-71.064894,42.355336],[-71.06493,42.355401],[-71.06497,42.35542],[-71.065018,42.355427],[-71.065105,42.355401],[-71.065674,42.354878],[-71.065674,42.354808],[-71.065647,42.354779],[-71.065585,42.354756],[-71.065855,42.354505],[-71.065855,42.354431],[-71.065785,42.354379],[-71.065685,42.354379],[-71.065643,42.3544],[-71.065344,42.354672],[-71.065232,42.354615],[-71.065172,42.354615],[-71.064979,42.35478],[-71.064949,42.354757],[-71.065103,42.354592],[-71.065085,42.35456],[-71.065041,42.354546],[-71.06494,42.354599],[-71.065062,42.354475],[-71.065062,42.354441],[-71.065029,42.354416],[-71.064961,42.354426],[-71.064899,42.354414],[-71.064842,42.354432],[-71.064801,42.354469],[-71.064873,42.3544],[-71.064908,42.354388],[-71.064971,42.354331],[-71.065016,42.354317],[-71.065198,42.354152],[-71.065227,42.354175],[-71.065267,42.354175],[-71.065396,42.354065],[-71.065451,42.35404],[-71.066015,42.353527],[-71.066047,42.353492],[-71.066058,42.353451]],[[-71.06506,42.353082],[-71.064848,42.353269],[-71.064823,42.353261],[-71.065051,42.353054],[-71.06506,42.353082]],[[-71.064776,42.354349],[-71.064744,42.354378],[-71.064708,42.354371],[-71.064732,42.35435],[-71.064776,42.354349]],[[-71.064526,42.353777],[-71.064509,42.353808],[-71.064492,42.353791],[-71.064498,42.353775],[-71.064526,42.353777]]],[[[-71.066046,42.354972],[-71.066004,42.354925],[-71.06593,42.354936],[-71.065574,42.35526],[-71.065554,42.355296],[-71.065559,42.355315],[-71.065622,42.355346],[-71.06567,42.355331],[-71.066026,42.355008],[-71.066046,42.354972]]],[[[-71.06602,42.354061],[-71.065981,42.354032],[-71.06593,42.354062],[-71.065889,42.354045],[-71.065855,42.354056],[-71.065565,42.354319],[-71.065554,42.354358],[-71.06558,42.354378],[-71.065618,42.354378],[-71.065695,42.354314],[-71.065753,42.354345],[-71.065963,42.354158],[-71.065963,42.354134],[-71.06602,42.354061]]],[[[-71.06583,42.348038],[-71.06579,42.347994],[-71.065719,42.348004],[-71.065374,42.348318],[-71.065359,42.348364],[-71.065099,42.348602],[-71.065099,42.348637],[-71.065156,42.348665],[-71.0652,42.348652],[-71.06538,42.348488],[-71.065235,42.34863],[-71.065274,42.348642],[-71.065425,42.348504],[-71.065462,42.348492],[-71.065786,42.348196],[-71.065786,42.348164],[-71.065737,42.348139],[-71.06583,42.348038]]],[[[-71.065764,42.353939],[-71.065734,42.353906],[-71.065681,42.353914],[-71.06534,42.354228],[-71.065329,42.354267],[-71.065374,42.35429],[-71.065408,42.354279],[-71.065698,42.354015],[-71.065764,42.353939]]],[[[-71.065738,42.348446],[-71.065702,42.348406],[-71.065639,42.348415],[-71.065316,42.348709],[-71.065299,42.34874],[-71.065334,42.348779],[-71.065088,42.349004],[-71.065099,42.349043],[-71.065133,42.349054],[-71.065168,42.349043],[-71.065418,42.348815],[-71.065433,42.34879],[-71.065409,42.34876],[-71.065721,42.348477],[-71.065738,42.348446]]],[[[-71.065728,42.348293],[-71.065697,42.348283],[-71.06555,42.348417],[-71.06555,42.348437],[-71.065576,42.348437],[-71.065728,42.348293]]],[[[-71.065598,42.348957],[-71.065567,42.348947],[-71.065431,42.349071],[-71.065431,42.349091],[-71.065457,42.349091],[-71.065598,42.348957]]],[[[-71.065588,42.351223],[-71.065557,42.351213],[-71.065388,42.351367],[-71.065388,42.351386],[-71.065414,42.351386],[-71.065588,42.351223]]],[[[-71.065562,42.349094],[-71.065531,42.349084],[-71.065395,42.349208],[-71.065395,42.349228],[-71.065421,42.349228],[-71.065562,42.349094]]],[[[-71.065559,42.349236],[-71.065529,42.349203],[-71.065476,42.349211],[-71.065225,42.349439],[-71.065214,42.349478],[-71.065259,42.3495],[-71.065294,42.349489],[-71.065559,42.349236]]],[[[-71.065548,42.34811],[-71.065517,42.3481],[-71.06537,42.348234],[-71.06537,42.348254],[-71.065396,42.348254],[-71.065548,42.34811]]],[[[-71.065396,42.34894],[-71.065374,42.348916],[-71.065335,42.348921],[-71.065089,42.349145],[-71.065081,42.349174],[-71.065114,42.34919],[-71.065139,42.349182],[-71.065396,42.34894]]],[[[-71.065379,42.34907],[-71.065349,42.349037],[-71.065296,42.349045],[-71.065006,42.349308],[-71.064995,42.349347],[-71.06504,42.34937],[-71.065074,42.349359],[-71.065379,42.34907]]],[[[-71.065368,42.35121],[-71.065337,42.3512],[-71.065179,42.351344],[-71.065179,42.351363],[-71.065205,42.351363],[-71.065368,42.35121]]],[[[-71.065268,42.35121],[-71.065237,42.3512],[-71.06509,42.351334],[-71.06509,42.351354],[-71.065116,42.351354],[-71.065268,42.35121]]],[[[-71.065176,42.35072],[-71.06514,42.350702],[-71.064918,42.3509],[-71.064911,42.350914],[-71.064929,42.350932],[-71.064893,42.350964],[-71.064893,42.350991],[-71.064922,42.350996],[-71.065143,42.350798],[-71.065151,42.350784],[-71.065133,42.350766],[-71.065176,42.35072]]],[[[-71.065129,42.350853],[-71.065096,42.350843],[-71.064905,42.351017],[-71.064905,42.351037],[-71.064933,42.351037],[-71.065129,42.350853]]],[[[-71.064944,42.35131],[-71.064913,42.3513],[-71.064755,42.351444],[-71.064755,42.351463],[-71.064781,42.351463],[-71.064944,42.35131]]],[[[-71.064857,42.348456],[-71.064826,42.348446],[-71.064679,42.34858],[-71.064679,42.3486],[-71.064705,42.3486],[-71.064857,42.348456]]],[[[-71.064624,42.351826],[-71.064593,42.351816],[-71.064446,42.35195],[-71.064446,42.35197],[-71.064472,42.35197],[-71.064624,42.351826]]],[[[-71.064621,42.348425],[-71.06459,42.348415],[-71.064443,42.348549],[-71.064443,42.348569],[-71.064469,42.348569],[-71.064621,42.348425]]],[[[-71.064568,42.352055],[-71.064537,42.352045],[-71.064379,42.352189],[-71.064379,42.352208],[-71.064405,42.352208],[-71.064568,42.352055]]],[[[-71.064564,42.352104],[-71.064531,42.352094],[-71.06434,42.352268],[-71.06434,42.352288],[-71.06439,42.352306],[-71.064543,42.35217],[-71.06453,42.352147],[-71.064564,42.352104]]],[[[-71.064436,42.348399],[-71.064405,42.348389],[-71.064258,42.348523],[-71.064258,42.348543],[-71.064284,42.348543],[-71.064436,42.348399]]],[[[-71.064238,42.350925],[-71.064207,42.350915],[-71.06406,42.351049],[-71.06406,42.351069],[-71.064086,42.351069],[-71.064238,42.350925]]],[[[-71.064209,42.34872],[-71.06417,42.348708],[-71.063968,42.348892],[-71.063968,42.348916],[-71.064,42.348916],[-71.064209,42.34872]]],[[[-71.064168,42.34884],[-71.064137,42.34883],[-71.063957,42.348994],[-71.063957,42.349013],[-71.063983,42.349013],[-71.064168,42.34884]]],[[[-71.064148,42.350914],[-71.064117,42.350904],[-71.06397,42.351038],[-71.06397,42.351058],[-71.063996,42.351058],[-71.064148,42.350914]]],[[[-71.064088,42.3533],[-71.064057,42.35329],[-71.063951,42.353376],[-71.06376,42.35355],[-71.06376,42.35357],[-71.063788,42.35357],[-71.064088,42.3533]]],[[[-71.064082,42.350914],[-71.064062,42.350892],[-71.064027,42.350897],[-71.063792,42.351111],[-71.063785,42.351137],[-71.063815,42.351152],[-71.063838,42.351145],[-71.064082,42.350914]]],[[[-71.064049,42.35339],[-71.064016,42.35338],[-71.063825,42.353554],[-71.063825,42.353574],[-71.063853,42.353574],[-71.064049,42.35339]]],[[[-71.064013,42.353283],[-71.063982,42.353273],[-71.063802,42.353437],[-71.063717,42.353528],[-71.063717,42.353547],[-71.063743,42.353547],[-71.064013,42.353283]]],[[[-71.063998,42.35376],[-71.063967,42.35375],[-71.063787,42.353914],[-71.063787,42.353933],[-71.063813,42.353933],[-71.063998,42.35376]]],[[[-71.063973,42.350903],[-71.063949,42.350876],[-71.063906,42.350883],[-71.063649,42.351116],[-71.063641,42.351148],[-71.063677,42.351166],[-71.063704,42.351157],[-71.063973,42.350903]]],[[[-71.063943,42.353268],[-71.063904,42.353256],[-71.063702,42.35344],[-71.063702,42.353464],[-71.063734,42.353464],[-71.063943,42.353268]]],[[[-71.063922,42.353967],[-71.063902,42.353945],[-71.063867,42.35395],[-71.063632,42.354164],[-71.063625,42.35419],[-71.063665,42.354203],[-71.063558,42.3543],[-71.063558,42.354327],[-71.063587,42.354332],[-71.063808,42.354134],[-71.063816,42.35412],[-71.06379,42.354101],[-71.063922,42.353967]]],[[[-71.063915,42.348675],[-71.063882,42.348665],[-71.063691,42.348839],[-71.063705,42.348863],[-71.063652,42.348915],[-71.063652,42.348939],[-71.063721,42.348937],[-71.063868,42.348803],[-71.063858,42.34878],[-71.063893,42.348743],[-71.06387,42.348726],[-71.063915,42.348675]]],[[[-71.063879,42.34887],[-71.063846,42.34886],[-71.063655,42.349034],[-71.063655,42.349054],[-71.063683,42.349054],[-71.063879,42.34887]]],[[[-71.063821,42.349148],[-71.06379,42.349138],[-71.063643,42.349272],[-71.063643,42.349292],[-71.063669,42.349292],[-71.063821,42.349148]]],[[[-71.063808,42.348427],[-71.063777,42.348417],[-71.06363,42.348551],[-71.06363,42.348571],[-71.063656,42.348571],[-71.063808,42.348427]]],[[[-71.063768,42.349293],[-71.063737,42.349283],[-71.06359,42.349417],[-71.063577,42.349479],[-71.063603,42.349479],[-71.06375,42.349345],[-71.063768,42.349293]]],[[[-71.063718,42.34841],[-71.063687,42.3484],[-71.06354,42.348534],[-71.06354,42.348554],[-71.063566,42.348554],[-71.063718,42.34841]]],[[[-71.063707,42.350883],[-71.063687,42.350861],[-71.063652,42.350866],[-71.063417,42.35108],[-71.06341,42.351106],[-71.06344,42.351121],[-71.063463,42.351114],[-71.063707,42.350883]]],[[[-71.063689,42.34976],[-71.063656,42.34975],[-71.063465,42.349924],[-71.063465,42.349944],[-71.06349,42.349945],[-71.063421,42.350008],[-71.063421,42.350027],[-71.063447,42.350027],[-71.063627,42.349864],[-71.063627,42.349844],[-71.063603,42.349843],[-71.063689,42.34976]]],[[[-71.063613,42.350876],[-71.063574,42.350864],[-71.063372,42.351048],[-71.063372,42.351072],[-71.063404,42.351072],[-71.063613,42.350876]]],[[[-71.063579,42.34995],[-71.063546,42.34994],[-71.063355,42.350114],[-71.063337,42.350173],[-71.063363,42.350173],[-71.063543,42.35001],[-71.063579,42.34995]]],[[[-71.063569,42.3547],[-71.063539,42.354667],[-71.063486,42.354675],[-71.063224,42.354914],[-71.063232,42.35495],[-71.063164,42.355014],[-71.063164,42.355042],[-71.063209,42.355064],[-71.063244,42.355053],[-71.063494,42.354825],[-71.063509,42.3548],[-71.063497,42.354778],[-71.063569,42.3547]]],[[[-71.063546,42.350864],[-71.06351,42.350846],[-71.063288,42.351044],[-71.063288,42.351071],[-71.063317,42.351076],[-71.063546,42.350864]]],[[[-71.063458,42.350418],[-71.063427,42.350408],[-71.063247,42.350572],[-71.063328,42.35044],[-71.063297,42.35043],[-71.063139,42.350574],[-71.063092,42.350637],[-71.063073,42.350699],[-71.063031,42.350746],[-71.063011,42.350794],[-71.063037,42.350813],[-71.062925,42.350929],[-71.062925,42.350949],[-71.062953,42.350949],[-71.063144,42.350775],[-71.063178,42.350727],[-71.063163,42.350714],[-71.063193,42.350687],[-71.063243,42.350592],[-71.063267,42.350594],[-71.063458,42.350418]]],[[[-71.063458,42.35018],[-71.063427,42.35017],[-71.063258,42.350324],[-71.063271,42.350347],[-71.063203,42.350424],[-71.063203,42.350443],[-71.063229,42.350443],[-71.063398,42.35029],[-71.063428,42.350246],[-71.06341,42.350233],[-71.063458,42.35018]]],[[[-71.063434,42.350487],[-71.063403,42.350477],[-71.063234,42.350631],[-71.063247,42.350654],[-71.063214,42.350684],[-71.063179,42.350763],[-71.063205,42.350763],[-71.063363,42.35062],[-71.063403,42.35055],[-71.063385,42.350537],[-71.063434,42.350487]]],[[[-71.063386,42.350826],[-71.06335,42.350808],[-71.063128,42.351006],[-71.063128,42.351033],[-71.063157,42.351038],[-71.063386,42.350826]]],[[[-71.063383,42.350765],[-71.063365,42.350745],[-71.063333,42.35075],[-71.063109,42.350954],[-71.063109,42.350984],[-71.06315,42.350984],[-71.063383,42.350765]]],[[[-71.063369,42.350704],[-71.063336,42.350694],[-71.063145,42.350868],[-71.063145,42.350888],[-71.063173,42.350888],[-71.063369,42.350704]]],[[[-71.063144,42.352238],[-71.063113,42.352228],[-71.062955,42.352372],[-71.062955,42.352391],[-71.062981,42.352391],[-71.063144,42.352238]]],[[[-71.063083,42.35225],[-71.063052,42.35224],[-71.062894,42.352384],[-71.062894,42.352403],[-71.06292,42.352403],[-71.063083,42.35225]]],[[[-71.062983,42.352253],[-71.062952,42.352243],[-71.062794,42.352387],[-71.062794,42.352406],[-71.06282,42.352406],[-71.062983,42.352253]]],[[[-71.062922,42.35222],[-71.062891,42.35221],[-71.062722,42.352364],[-71.062722,42.352383],[-71.062748,42.352383],[-71.062922,42.35222]]],[[[-71.062848,42.352215],[-71.062817,42.352205],[-71.062659,42.352349],[-71.062659,42.352368],[-71.062685,42.352368],[-71.062848,42.352215]]],[[[-71.062829,42.353302],[-71.062796,42.353292],[-71.062605,42.353466],[-71.062605,42.353486],[-71.062633,42.353486],[-71.062829,42.353302]]],[[[-71.062829,42.353214],[-71.062796,42.353204],[-71.062605,42.353378],[-71.062605,42.353398],[-71.062522,42.353478],[-71.062522,42.353502],[-71.062554,42.353502],[-71.062756,42.353318],[-71.062756,42.353294],[-71.062829,42.353214]]],[[[-71.062763,42.353207],[-71.06273,42.353197],[-71.062539,42.353371],[-71.062539,42.353391],[-71.062567,42.353391],[-71.062763,42.353207]]],[[[-71.062559,42.348354],[-71.062541,42.348334],[-71.062509,42.348339],[-71.062285,42.348543],[-71.062285,42.348573],[-71.062326,42.348573],[-71.062559,42.348354]]],[[[-71.062496,42.349373],[-71.06247,42.349344],[-71.062424,42.349351],[-71.062156,42.349595],[-71.062147,42.349629],[-71.062186,42.349648],[-71.062216,42.349639],[-71.062496,42.349373]]],[[[-71.062463,42.348557],[-71.062424,42.348545],[-71.062222,42.348729],[-71.062222,42.348753],[-71.062254,42.348753],[-71.062463,42.348557]]],[[[-71.062409,42.348373],[-71.062385,42.348346],[-71.062342,42.348353],[-71.062085,42.348586],[-71.062077,42.348618],[-71.062113,42.348636],[-71.06214,42.348627],[-71.062409,42.348373]]],[[[-71.062392,42.349323],[-71.062366,42.349294],[-71.06232,42.349301],[-71.062052,42.349545],[-71.062043,42.349579],[-71.062082,42.349598],[-71.062112,42.349589],[-71.062392,42.349323]]],[[[-71.062039,42.353752],[-71.062006,42.353742],[-71.061905,42.353834],[-71.061904,42.353815],[-71.061876,42.353815],[-71.061685,42.353989],[-71.061685,42.354009],[-71.061713,42.354009],[-71.061814,42.353917],[-71.061815,42.353936],[-71.061843,42.353936],[-71.062039,42.353752]]],[[[-71.062006,42.349306],[-71.061975,42.349296],[-71.061828,42.34943],[-71.061828,42.34945],[-71.061854,42.34945],[-71.062006,42.349306]]],[[[-71.061988,42.35386],[-71.061957,42.35385],[-71.06181,42.353984],[-71.06181,42.354004],[-71.061836,42.354004],[-71.061988,42.35386]]],[[[-71.061951,42.349438],[-71.06192,42.349428],[-71.061773,42.349562],[-71.061786,42.349585],[-71.061736,42.349633],[-71.061683,42.349641],[-71.061432,42.349869],[-71.061418,42.349894],[-71.061432,42.349919],[-71.061485,42.349927],[-71.061622,42.349809],[-71.061676,42.349801],[-71.061926,42.349573],[-71.061937,42.349534],[-71.061911,42.349515],[-71.061873,42.349515],[-71.061951,42.349438]]],[[[-71.061928,42.34988],[-71.061897,42.34987],[-71.06175,42.350004],[-71.06172,42.35007],[-71.061746,42.35007],[-71.061893,42.349936],[-71.061928,42.34988]]],[[[-71.061924,42.3537],[-71.061891,42.35369],[-71.06165,42.353907],[-71.06165,42.353927],[-71.061676,42.353927],[-71.061924,42.3537]]],[[[-71.061892,42.35],[-71.061861,42.34999],[-71.061714,42.350124],[-71.06166,42.350224],[-71.061686,42.350224],[-71.061833,42.35009],[-71.061892,42.35]]],[[[-71.061851,42.348312],[-71.061823,42.348281],[-71.061774,42.348288],[-71.061495,42.348542],[-71.06143,42.348624],[-71.06143,42.348644],[-71.061456,42.348644],[-71.061508,42.348596],[-71.061544,42.348597],[-71.061589,42.348562],[-71.061618,42.348565],[-71.061765,42.348431],[-71.061765,42.348411],[-71.061851,42.348312]]],[[[-71.061825,42.353653],[-71.061792,42.353643],[-71.061601,42.353817],[-71.061569,42.353882],[-71.061595,42.353882],[-71.061825,42.353653]]],[[[-71.061824,42.350155],[-71.061793,42.350145],[-71.061657,42.350269],[-71.061657,42.350289],[-71.061614,42.350334],[-71.061633,42.350347],[-71.061399,42.350587],[-71.061409,42.350623],[-71.061473,42.350623],[-71.061762,42.350359],[-71.061786,42.350281],[-71.061735,42.350265],[-71.061824,42.350155]]],[[[-71.061759,42.353607],[-71.061729,42.353574],[-71.061676,42.353582],[-71.061425,42.35381],[-71.061414,42.353849],[-71.061459,42.353871],[-71.061494,42.35386],[-71.061759,42.353607]]],[[[-71.061692,42.348648],[-71.06168,42.348626],[-71.06165,42.348617],[-71.061563,42.348678],[-71.061562,42.348657],[-71.061537,42.348639],[-71.061488,42.348646],[-71.061199,42.348911],[-71.061209,42.348947],[-71.061258,42.348955],[-71.061341,42.348885],[-71.061343,42.348904],[-71.061153,42.349086],[-71.061153,42.34911],[-71.061192,42.349129],[-71.061222,42.34912],[-71.06149,42.348876],[-71.061499,42.348842],[-71.061692,42.348648]]],[[[-71.061645,42.348297],[-71.061611,42.348259],[-71.061551,42.348268],[-71.061239,42.348552],[-71.061227,42.348596],[-71.061278,42.348621],[-71.061317,42.348609],[-71.061645,42.348297]]],[[[-71.061628,42.35355],[-71.061597,42.35354],[-71.061428,42.353694],[-71.061428,42.353713],[-71.061454,42.353713],[-71.061628,42.35355]]],[[[-71.06161,42.348837],[-71.061579,42.348827],[-71.061432,42.348961],[-71.061432,42.348981],[-71.061458,42.348981],[-71.06161,42.348837]]],[[[-71.061597,42.348184],[-71.061566,42.348174],[-71.061397,42.348328],[-71.061397,42.348347],[-71.061423,42.348347],[-71.061597,42.348184]]],[[[-71.061548,42.349568],[-71.061518,42.349535],[-71.061465,42.349543],[-71.0612,42.349796],[-71.06115,42.349808],[-71.060882,42.350052],[-71.060873,42.350086],[-71.060912,42.350105],[-71.060942,42.350096],[-71.061222,42.34983],[-71.061283,42.349821],[-71.061548,42.349568]]],[[[-71.061493,42.35095],[-71.061454,42.350938],[-71.061252,42.351122],[-71.061252,42.351146],[-71.061284,42.351146],[-71.061493,42.35095]]],[[[-71.061472,42.34815],[-71.061434,42.348108],[-71.061366,42.348118],[-71.061032,42.348421],[-71.061019,42.348471],[-71.06086,42.348614],[-71.060873,42.348637],[-71.060631,42.348861],[-71.060631,42.34889],[-71.060659,42.348911],[-71.060587,42.348985],[-71.060587,42.349016],[-71.060615,42.349037],[-71.06059,42.349071],[-71.060602,42.349093],[-71.060662,42.349093],[-71.060939,42.348839],[-71.06093,42.348805],[-71.061005,42.348717],[-71.060971,42.348679],[-71.061032,42.348602],[-71.061017,42.348575],[-71.06096,42.348567],[-71.061038,42.34849],[-71.0611,42.348496],[-71.061154,42.348454],[-71.061172,42.348484],[-71.061208,42.348479],[-71.06145,42.348257],[-71.061443,42.348231],[-71.061408,42.348226],[-71.061472,42.34815]]],[[[-71.06145,42.349534],[-71.06142,42.349501],[-71.061367,42.349509],[-71.061116,42.349737],[-71.061087,42.349774],[-71.061072,42.349831],[-71.061185,42.349787],[-71.06145,42.349534]]],[[[-71.061438,42.349255],[-71.061407,42.349245],[-71.061238,42.349399],[-71.061238,42.349418],[-71.061264,42.349418],[-71.061438,42.349255]]],[[[-71.061418,42.351122],[-71.061387,42.351112],[-71.06124,42.351246],[-71.061253,42.351269],[-71.061213,42.351314],[-71.061232,42.351327],[-71.061187,42.351374],[-71.061203,42.351387],[-71.061174,42.351413],[-71.061174,42.351433],[-71.0612,42.351433],[-71.061347,42.351299],[-71.061337,42.351276],[-71.061371,42.35124],[-71.061353,42.351227],[-71.061392,42.35119],[-71.061379,42.351167],[-71.061418,42.351122]]],[[[-71.061399,42.349052],[-71.061366,42.349042],[-71.061175,42.349216],[-71.061175,42.349236],[-71.061203,42.349236],[-71.061399,42.349052]]],[[[-71.061368,42.34943],[-71.061337,42.34942],[-71.06119,42.349554],[-71.06119,42.349574],[-71.061216,42.349574],[-71.061368,42.34943]]],[[[-71.061349,42.349228],[-71.061331,42.349208],[-71.061299,42.349213],[-71.061075,42.349417],[-71.061075,42.349447],[-71.061116,42.349447],[-71.061349,42.349228]]],[[[-71.061244,42.35337],[-71.061213,42.35336],[-71.061066,42.353494],[-71.061066,42.353514],[-71.061092,42.353514],[-71.061244,42.35337]]],[[[-71.061238,42.354774],[-71.061207,42.354764],[-71.06106,42.354898],[-71.06106,42.354918],[-71.061086,42.354918],[-71.061238,42.354774]]],[[[-71.061188,42.354916],[-71.061157,42.354906],[-71.06101,42.35504],[-71.06101,42.35506],[-71.061036,42.35506],[-71.061188,42.354916]]],[[[-71.061188,42.353344],[-71.061157,42.353334],[-71.06101,42.353468],[-71.06101,42.353488],[-71.061036,42.353488],[-71.061188,42.353344]]],[[[-71.061156,42.35003],[-71.061124,42.349995],[-71.061067,42.350003],[-71.060766,42.350276],[-71.060755,42.350318],[-71.060803,42.350342],[-71.06084,42.350331],[-71.061156,42.35003]]],[[[-71.061138,42.35332],[-71.061107,42.35331],[-71.06096,42.353444],[-71.06096,42.353464],[-71.060986,42.353464],[-71.061138,42.35332]]],[[[-71.061048,42.353275],[-71.061017,42.353265],[-71.060848,42.353419],[-71.060859,42.353442],[-71.06081,42.353487],[-71.06081,42.353507],[-71.060836,42.353507],[-71.060983,42.353373],[-71.060971,42.35335],[-71.061048,42.353275]]],[[[-71.060938,42.35322],[-71.060907,42.35321],[-71.06076,42.353344],[-71.060684,42.353426],[-71.060684,42.353446],[-71.06071,42.353446],[-71.060938,42.35322]]],[[[-71.060923,42.35333],[-71.060892,42.35332],[-71.060734,42.353464],[-71.060734,42.353483],[-71.06076,42.353483],[-71.060923,42.35333]]],[[[-71.060847,42.349174],[-71.060803,42.349125],[-71.060725,42.349137],[-71.060343,42.349487],[-71.060343,42.349528],[-71.060382,42.349556],[-71.060353,42.349597],[-71.060372,42.34961],[-71.06032,42.34969],[-71.060352,42.3497],[-71.060408,42.349648],[-71.060326,42.349724],[-71.060311,42.349756],[-71.060306,42.349779],[-71.060349,42.349805],[-71.060225,42.34992],[-71.060225,42.349947],[-71.060251,42.349967],[-71.060181,42.350051],[-71.060181,42.35008],[-71.060207,42.3501],[-71.06014,42.350161],[-71.06014,42.350181],[-71.060166,42.350181],[-71.060578,42.349807],[-71.060578,42.349777],[-71.06053,42.349754],[-71.060605,42.349684],[-71.060605,42.349656],[-71.060567,42.349635],[-71.060691,42.34952],[-71.060691,42.349492],[-71.060665,42.349473],[-71.060733,42.34939],[-71.060718,42.349365],[-71.060667,42.349357],[-71.060827,42.349211],[-71.060847,42.349174]]],[[[-71.060598,42.35304],[-71.060567,42.35303],[-71.06042,42.353164],[-71.06042,42.353184],[-71.060326,42.353274],[-71.060326,42.353294],[-71.060352,42.353294],[-71.060499,42.35316],[-71.060499,42.35314],[-71.060598,42.35304]]],[[[-71.060518,42.352997],[-71.060487,42.352987],[-71.06034,42.353121],[-71.06034,42.353141],[-71.06025,42.353224],[-71.06025,42.353244],[-71.060276,42.353244],[-71.060423,42.35311],[-71.060423,42.35309],[-71.060518,42.352997]]],[[[-71.060508,42.353283],[-71.060477,42.353273],[-71.060095,42.353618],[-71.060087,42.35365],[-71.060123,42.353668],[-71.06015,42.353659],[-71.060408,42.353425],[-71.060418,42.35338],[-71.060508,42.353283]]],[[[-71.060468,42.352974],[-71.060437,42.352964],[-71.060279,42.353108],[-71.060196,42.353194],[-71.060196,42.353214],[-71.060222,42.353214],[-71.060468,42.352974]]],[[[-71.060314,42.35015],[-71.060288,42.350119],[-71.060297,42.3501],[-71.060273,42.350093],[-71.05998,42.350353],[-71.059969,42.350392],[-71.060014,42.350414],[-71.060049,42.350403],[-71.060314,42.35015]]],[[[-71.060174,42.34947],[-71.06015,42.349443],[-71.060107,42.34945],[-71.05985,42.349683],[-71.059839,42.349704],[-71.059862,42.34973],[-71.059837,42.34976],[-71.059855,42.34978],[-71.059771,42.349858],[-71.059779,42.349886],[-71.059829,42.349886],[-71.060075,42.349663],[-71.060086,42.349644],[-71.060064,42.34962],[-71.060174,42.34947]]],[[[-71.060158,42.352962],[-71.060127,42.352952],[-71.05998,42.353086],[-71.05998,42.353106],[-71.060006,42.353106],[-71.060158,42.352962]]],[[[-71.060105,42.35341],[-71.060077,42.353379],[-71.060028,42.353386],[-71.059749,42.35364],[-71.059739,42.353677],[-71.059781,42.353697],[-71.059813,42.353687],[-71.060105,42.35341]]],[[[-71.059972,42.351044],[-71.059946,42.351015],[-71.0599,42.351022],[-71.059623,42.351276],[-71.059643,42.351342],[-71.059672,42.351347],[-71.059893,42.351149],[-71.059896,42.351124],[-71.059972,42.351044]]],[[[-71.059858,42.3533],[-71.059827,42.35329],[-71.05968,42.353424],[-71.05968,42.353444],[-71.059706,42.353444],[-71.059858,42.3533]]],[[[-71.059822,42.35326],[-71.059796,42.353231],[-71.05975,42.353238],[-71.059482,42.353482],[-71.059473,42.353516],[-71.059512,42.353535],[-71.059542,42.353526],[-71.059822,42.35326]]],[[[-71.059758,42.352753],[-71.059727,42.352743],[-71.059569,42.352887],[-71.059569,42.352906],[-71.059595,42.352906],[-71.059758,42.352753]]],[[[-71.059688,42.352737],[-71.059657,42.352727],[-71.059586,42.352792],[-71.059629,42.35272],[-71.059603,42.35272],[-71.059567,42.352754],[-71.059506,42.352758],[-71.059255,42.352986],[-71.059244,42.353025],[-71.059289,42.353047],[-71.059324,42.353036],[-71.059494,42.352882],[-71.059525,42.35289],[-71.059688,42.352737]]],[[[-71.059669,42.354954],[-71.059651,42.354934],[-71.059619,42.354939],[-71.059395,42.355143],[-71.059395,42.355173],[-71.059436,42.355173],[-71.059669,42.354954]]],[[[-71.059649,42.35171],[-71.059634,42.351685],[-71.0596,42.351674],[-71.059543,42.351705],[-71.059518,42.351697],[-71.05932,42.351874],[-71.059331,42.351898],[-71.059304,42.351924],[-71.059304,42.351952],[-71.059349,42.351974],[-71.059384,42.351963],[-71.059649,42.35171]]],[[[-71.059622,42.35492],[-71.059562,42.354868],[-71.059527,42.354873],[-71.059292,42.355087],[-71.059285,42.355113],[-71.059342,42.355156],[-71.059378,42.355151],[-71.059622,42.35492]]],[[[-71.059562,42.3516],[-71.05953,42.351576],[-71.059455,42.35163],[-71.05944,42.351609],[-71.05942,42.351609],[-71.059198,42.351807],[-71.059195,42.351831],[-71.059082,42.351952],[-71.059082,42.351976],[-71.059114,42.351976],[-71.059273,42.351831],[-71.059318,42.351831],[-71.059562,42.3516]]],[[[-71.059518,42.351097],[-71.059487,42.351087],[-71.05934,42.351221],[-71.059353,42.351244],[-71.0593,42.351294],[-71.0593,42.351314],[-71.059326,42.351314],[-71.059473,42.35118],[-71.05946,42.351157],[-71.059518,42.351097]]],[[[-71.059482,42.354813],[-71.059462,42.354791],[-71.059427,42.354796],[-71.059192,42.35501],[-71.059185,42.355036],[-71.059215,42.355051],[-71.059238,42.355044],[-71.059482,42.354813]]],[[[-71.059432,42.354774],[-71.059389,42.354714],[-71.059339,42.354714],[-71.059093,42.354938],[-71.059085,42.354967],[-71.059132,42.354981],[-71.059152,42.35501],[-71.059188,42.355005],[-71.059432,42.354774]]],[[[-71.059428,42.3531],[-71.059397,42.35309],[-71.05925,42.353224],[-71.05925,42.353244],[-71.059276,42.353244],[-71.059428,42.3531]]],[[[-71.059418,42.35301],[-71.059387,42.353],[-71.05924,42.353134],[-71.05924,42.353154],[-71.059266,42.353154],[-71.059418,42.35301]]],[[[-71.059219,42.35129],[-71.059204,42.351265],[-71.059177,42.351255],[-71.059177,42.351228],[-71.059129,42.351197],[-71.059091,42.351197],[-71.058786,42.351468],[-71.058771,42.351494],[-71.058786,42.351519],[-71.058839,42.351527],[-71.058996,42.35139],[-71.058835,42.35154],[-71.058835,42.351567],[-71.058801,42.351621],[-71.058816,42.351646],[-71.05885,42.351657],[-71.058542,42.351958],[-71.058491,42.351968],[-71.058199,42.352231],[-71.058119,42.352315],[-71.058129,42.352351],[-71.058178,42.352359],[-71.058257,42.352309],[-71.058875,42.351757],[-71.058922,42.351689],[-71.059003,42.351614],[-71.059003,42.351594],[-71.059066,42.351517],[-71.059058,42.351503],[-71.059185,42.351371],[-71.059185,42.351343],[-71.059219,42.35129]]],[[[-71.059184,42.353294],[-71.059153,42.353284],[-71.059006,42.353418],[-71.059006,42.353438],[-71.059032,42.353438],[-71.059184,42.353294]]],[[[-71.059092,42.354385],[-71.059072,42.354363],[-71.059037,42.354368],[-71.058802,42.354582],[-71.058795,42.354608],[-71.058812,42.354621],[-71.058848,42.354616],[-71.059092,42.354385]]],[[[-71.059088,42.353287],[-71.059057,42.353277],[-71.05891,42.353411],[-71.05891,42.353431],[-71.058936,42.353431],[-71.059088,42.353287]]],[[[-71.059018,42.354332],[-71.058987,42.354322],[-71.05884,42.354456],[-71.05884,42.354476],[-71.058866,42.354476],[-71.059018,42.354332]]],[[[-71.058998,42.353283],[-71.058967,42.353273],[-71.05882,42.353407],[-71.05882,42.353427],[-71.058846,42.353427],[-71.058998,42.353283]]],[[[-71.058959,42.35429],[-71.058926,42.35428],[-71.058735,42.354454],[-71.058735,42.354474],[-71.058763,42.354474],[-71.058959,42.35429]]],[[[-71.058864,42.353268],[-71.058833,42.353258],[-71.058686,42.353392],[-71.058686,42.353412],[-71.058712,42.353412],[-71.058864,42.353268]]],[[[-71.058758,42.353268],[-71.058727,42.353258],[-71.05858,42.353392],[-71.05858,42.353412],[-71.058606,42.353412],[-71.058758,42.353268]]],[[[-71.058568,42.35253],[-71.058537,42.35252],[-71.05839,42.352654],[-71.05839,42.352674],[-71.058416,42.352674],[-71.058568,42.35253]]],[[[-71.058508,42.352524],[-71.058477,42.352514],[-71.05833,42.352648],[-71.05833,42.352668],[-71.058356,42.352668],[-71.058508,42.352524]]],[[[-71.058499,42.35248],[-71.058466,42.35247],[-71.058403,42.352516],[-71.058239,42.352662],[-71.058239,42.352681],[-71.058296,42.352667],[-71.058499,42.35248]]],[[[-71.058388,42.35247],[-71.058357,42.35246],[-71.05821,42.352594],[-71.05817,42.352664],[-71.058196,42.352664],[-71.058388,42.35247]]],[[[-71.058288,42.35091],[-71.058257,42.3509],[-71.05811,42.351034],[-71.05811,42.351054],[-71.058136,42.351054],[-71.058288,42.35091]]],[[[-71.058278,42.352467],[-71.058247,42.352457],[-71.0581,42.352591],[-71.058113,42.352614],[-71.05809,42.352656],[-71.058116,42.352656],[-71.058263,42.352522],[-71.05825,42.352499],[-71.058278,42.352467]]],[[[-71.058218,42.350887],[-71.058187,42.350877],[-71.05804,42.351011],[-71.05804,42.351031],[-71.058066,42.351031],[-71.058218,42.350887]]],[[[-71.058038,42.352665],[-71.058007,42.352655],[-71.05786,42.352789],[-71.05786,42.352809],[-71.057886,42.352809],[-71.058038,42.352665]]],[[[-71.058032,42.352768],[-71.058001,42.352758],[-71.057854,42.352892],[-71.057854,42.352912],[-71.05788,42.352912],[-71.058032,42.352768]]],[[[-71.058008,42.352905],[-71.057977,42.352895],[-71.05783,42.353029],[-71.05783,42.353049],[-71.057856,42.353049],[-71.058008,42.352905]]],[[[-71.057803,42.350693],[-71.057772,42.350683],[-71.057625,42.350817],[-71.057625,42.350837],[-71.057651,42.350837],[-71.057803,42.350693]]],[[[-71.057758,42.350677],[-71.057727,42.350667],[-71.05758,42.350801],[-71.05758,42.350821],[-71.057606,42.350821],[-71.057758,42.350677]]],[[[-71.05775,42.352226],[-71.057714,42.352208],[-71.057492,42.352406],[-71.057492,42.352433],[-71.057521,42.352438],[-71.05775,42.352226]]],[[[-71.057623,42.35219],[-71.057605,42.35217],[-71.057573,42.352175],[-71.057349,42.352379],[-71.057349,42.352409],[-71.05739,42.352409],[-71.057623,42.35219]]],[[[-71.057536,42.35216],[-71.0575,42.352142],[-71.057278,42.35234],[-71.057278,42.352367],[-71.057307,42.352372],[-71.057536,42.35216]]],[[[-71.057456,42.35214],[-71.05742,42.352122],[-71.057198,42.35232],[-71.057198,42.352347],[-71.057227,42.352352],[-71.057456,42.35214]]],[[[-71.057414,42.350403],[-71.057383,42.350393],[-71.057236,42.350527],[-71.057236,42.350547],[-71.057262,42.350547],[-71.057414,42.350403]]],[[[-71.057398,42.350494],[-71.057367,42.350484],[-71.05722,42.350618],[-71.05722,42.350638],[-71.057246,42.350638],[-71.057398,42.350494]]],[[[-71.057369,42.35211],[-71.057351,42.35209],[-71.057319,42.352095],[-71.057095,42.352299],[-71.057095,42.352329],[-71.057136,42.352329],[-71.057369,42.35211]]],[[[-71.057348,42.351707],[-71.057317,42.351697],[-71.057159,42.351841],[-71.057171,42.351864],[-71.05716,42.351894],[-71.057186,42.351894],[-71.057333,42.35176],[-71.057321,42.351737],[-71.057348,42.351707]]],[[[-71.057309,42.351897],[-71.057278,42.351887],[-71.057131,42.352021],[-71.057131,42.352041],[-71.057157,42.352041],[-71.057309,42.351897]]],[[[-71.057298,42.351955],[-71.057267,42.351945],[-71.057131,42.352069],[-71.057131,42.352089],[-71.057157,42.352089],[-71.057298,42.351955]]],[[[-71.057298,42.350925],[-71.057267,42.350915],[-71.057098,42.351069],[-71.057098,42.351088],[-71.057124,42.351088],[-71.057298,42.350925]]],[[[-71.057268,42.351063],[-71.057237,42.351053],[-71.057068,42.351207],[-71.057068,42.351226],[-71.057094,42.351226],[-71.057268,42.351063]]],[[[-71.057208,42.35141],[-71.057177,42.3514],[-71.05703,42.351534],[-71.05703,42.351554],[-71.057056,42.351554],[-71.057208,42.35141]]],[[[-71.057198,42.35055],[-71.057167,42.35054],[-71.05702,42.350674],[-71.057033,42.350697],[-71.056969,42.350756],[-71.056969,42.350776],[-71.056995,42.350776],[-71.057142,42.350642],[-71.057129,42.350619],[-71.057198,42.35055]]],[[[-71.057094,42.350533],[-71.057063,42.350523],[-71.056916,42.350657],[-71.056916,42.350677],[-71.056942,42.350677],[-71.057094,42.350533]]],[[[-71.057038,42.34984],[-71.057007,42.34983],[-71.05686,42.349964],[-71.05686,42.349984],[-71.056725,42.350108],[-71.056732,42.350134],[-71.056778,42.350134],[-71.057013,42.34992],[-71.05702,42.349894],[-71.057002,42.349881],[-71.057038,42.34984]]],[[[-71.056868,42.352028],[-71.056837,42.352018],[-71.056657,42.352182],[-71.056657,42.352201],[-71.056683,42.352201],[-71.056868,42.352028]]],[[[-71.056834,42.35023],[-71.056803,42.35022],[-71.056656,42.350354],[-71.056656,42.350374],[-71.056682,42.350374],[-71.056834,42.35023]]],[[[-71.056829,42.34976],[-71.056805,42.349733],[-71.056762,42.34974],[-71.056497,42.349983],[-71.056497,42.350005],[-71.056518,42.35002],[-71.056429,42.350129],[-71.056439,42.350168],[-71.056384,42.35022],[-71.056384,42.350248],[-71.056405,42.350265],[-71.056377,42.350298],[-71.056395,42.350318],[-71.056325,42.35039],[-71.056332,42.350416],[-71.056378,42.350416],[-71.05662,42.350194],[-71.056602,42.350163],[-71.056725,42.35002],[-71.056715,42.349981],[-71.05677,42.349929],[-71.056759,42.34989],[-71.05679,42.349849],[-71.056783,42.349823],[-71.056829,42.34976]]],[[[-71.056798,42.350307],[-71.056767,42.350297],[-71.05662,42.350431],[-71.05662,42.350451],[-71.056646,42.350451],[-71.056798,42.350307]]],[[[-71.056748,42.351994],[-71.056717,42.351984],[-71.056548,42.352138],[-71.056548,42.352157],[-71.056574,42.352157],[-71.056748,42.351994]]],[[[-71.056643,42.350613],[-71.056612,42.350603],[-71.056432,42.350767],[-71.056445,42.35079],[-71.056397,42.350834],[-71.056397,42.350853],[-71.056423,42.350853],[-71.056603,42.35069],[-71.05659,42.350667],[-71.056643,42.350613]]],[[[-71.056626,42.353203],[-71.05659,42.353185],[-71.056368,42.353383],[-71.056368,42.35341],[-71.056397,42.353415],[-71.056626,42.353203]]],[[[-71.056559,42.353165],[-71.056526,42.353155],[-71.056335,42.353329],[-71.056335,42.353349],[-71.056363,42.353349],[-71.056559,42.353165]]],[[[-71.056559,42.350834],[-71.056529,42.350801],[-71.056476,42.350809],[-71.056225,42.351037],[-71.056214,42.351076],[-71.056259,42.351098],[-71.056294,42.351087],[-71.056559,42.350834]]],[[[-71.056484,42.353127],[-71.056451,42.353117],[-71.05626,42.353291],[-71.05626,42.353311],[-71.056288,42.353311],[-71.056484,42.353127]]],[[[-71.056468,42.35192],[-71.056437,42.35191],[-71.056257,42.352074],[-71.056257,42.352093],[-71.056283,42.352093],[-71.056468,42.35192]]],[[[-71.056428,42.35103],[-71.056397,42.35102],[-71.05625,42.351154],[-71.056263,42.351177],[-71.056187,42.351251],[-71.056187,42.35127],[-71.056213,42.35127],[-71.056393,42.351107],[-71.05638,42.351084],[-71.056428,42.35103]]],[[[-71.056393,42.35309],[-71.056354,42.353078],[-71.056152,42.353262],[-71.056152,42.353286],[-71.056184,42.353286],[-71.056393,42.35309]]],[[[-71.056388,42.3519],[-71.056357,42.35189],[-71.056221,42.352014],[-71.056221,42.352034],[-71.056247,42.352034],[-71.056388,42.3519]]],[[[-71.056364,42.351176],[-71.056333,42.351166],[-71.056186,42.3513],[-71.056186,42.35132],[-71.056212,42.35132],[-71.056364,42.351176]]],[[[-71.056338,42.35493],[-71.056307,42.35492],[-71.056127,42.355084],[-71.056127,42.355103],[-71.056153,42.355103],[-71.056338,42.35493]]],[[[-71.056328,42.354836],[-71.056297,42.354826],[-71.056117,42.35499],[-71.056117,42.355009],[-71.056143,42.355009],[-71.056328,42.354836]]],[[[-71.056309,42.35475],[-71.056276,42.35474],[-71.056085,42.354914],[-71.056085,42.354934],[-71.056113,42.354934],[-71.056309,42.35475]]],[[[-71.056306,42.35467],[-71.05627,42.354652],[-71.056048,42.35485],[-71.056048,42.354877],[-71.056077,42.354882],[-71.056306,42.35467]]],[[[-71.056258,42.351376],[-71.056227,42.351366],[-71.056069,42.35151],[-71.056019,42.351603],[-71.056045,42.351603],[-71.056203,42.35146],[-71.056258,42.351376]]],[[[-71.056256,42.350842],[-71.056225,42.350832],[-71.056045,42.350996],[-71.056045,42.351015],[-71.056071,42.351015],[-71.056256,42.350842]]],[[[-71.056248,42.35305],[-71.056217,42.35304],[-71.05607,42.353174],[-71.05607,42.353194],[-71.056096,42.353194],[-71.056248,42.35305]]],[[[-71.056226,42.350933],[-71.056195,42.350923],[-71.056015,42.351087],[-71.056015,42.351106],[-71.056041,42.351106],[-71.056226,42.350933]]],[[[-71.056186,42.351036],[-71.056155,42.351026],[-71.055975,42.35119],[-71.055975,42.351209],[-71.056001,42.351209],[-71.056186,42.351036]]],[[[-71.056148,42.351145],[-71.056117,42.351135],[-71.055937,42.351299],[-71.055937,42.351318],[-71.055963,42.351318],[-71.056148,42.351145]]],[[[-71.056078,42.35171],[-71.056047,42.3517],[-71.055889,42.351844],[-71.055889,42.351863],[-71.055915,42.351863],[-71.056078,42.35171]]],[[[-71.055977,42.351355],[-71.055946,42.351345],[-71.055766,42.351509],[-71.055779,42.351532],[-71.055742,42.351566],[-71.055755,42.351589],[-71.055709,42.351636],[-71.055709,42.351655],[-71.055735,42.351655],[-71.055915,42.351492],[-71.055902,42.351469],[-71.055948,42.351422],[-71.055935,42.351399],[-71.055977,42.351355]]],[[[-71.055888,42.351561],[-71.055857,42.351551],[-71.055677,42.351715],[-71.05569,42.351738],[-71.055648,42.351776],[-71.055648,42.351795],[-71.055674,42.351795],[-71.055854,42.351632],[-71.055841,42.351609],[-71.055888,42.351561]]],[[[-71.055869,42.352226],[-71.055839,42.352193],[-71.055786,42.352201],[-71.055535,42.352429],[-71.05549,42.35249],[-71.05549,42.352518],[-71.055535,42.35254],[-71.05557,42.352529],[-71.05582,42.352301],[-71.055869,42.352226]]],[[[-71.055808,42.351727],[-71.055777,42.351717],[-71.055597,42.351881],[-71.055577,42.351949],[-71.055603,42.351949],[-71.055783,42.351786],[-71.055808,42.351727]]],[[[-71.055788,42.353336],[-71.055768,42.353314],[-71.055733,42.353319],[-71.055542,42.353484],[-71.055492,42.35352],[-71.055467,42.35352],[-71.055309,42.353664],[-71.055309,42.353683],[-71.055373,42.35367],[-71.055431,42.353618],[-71.055491,42.353613],[-71.055788,42.353336]]],[[[-71.055262,42.353653],[-71.055244,42.35364],[-71.055189,42.353657],[-71.054952,42.353872],[-71.054952,42.353896],[-71.055006,42.353891],[-71.055262,42.353653]]]]},"properties":{"kind":"tree"}}]}